EVENT_NAME: L_AQUILA
EVENT_ID: IT-2009-0009
EVENT_DATE_YYYYMMDD: 20090406
EVENT_TIME_HHMMSS: 013240
EVENT_LATITUDE_DEGREE: 42.3420
EVENT_LONGITUDE_DEGREE: 13.3800
EVENT_DEPTH_KM: 8.3
HYPOCENTER_REFERENCE: INGV-CNT_Seismic_Bulletin
MAGNITUDE_W: 6.1
MAGNITUDE_W_REFERENCE: INGV-CNT_Seismic_Bulletin
MAGNITUDE_L: 
MAGNITUDE_L_REFERENCE: 
FOCAL_MECHANISM: Normal faulting
NETWORK: IT
STATION_CODE: FMG
STATION_NAME: 
STATION_LATITUDE_DEGREE: 42.268028
STATION_LONGITUDE_DEGREE: 13.117220
STATION_ELEVATION_M: 1071
LOCATION: 
SENSOR_DEPTH_M: 0.0
VS30_M/S: 790
SITE_CLASSIFICATION_EC8: B
MORPHOLOGIC_CLASSIFICATION: 
EPICENTRAL_DISTANCE_KM: 23.2
EARTHQUAKE_BACKAZIMUTH_DEGREE: 249.3
DATE_TIME_FIRST_SAMPLE_YYYYMMDD_HHMMSS: 20090406_013215.000
DATE_TIME_FIRST_SAMPLE_PRECISION: seconds
SAMPLING_INTERVAL_S: 0.005000
NDATA: 23800
DURATION_S: 119.000
STREAM: HNE
UNITS: cm/s^2
INSTRUMENT: sensor = FBA-3 [Kinemetrics] | digitizer = Etna [Kinemetrics]
INSTRUMENT_ANALOG/DIGITAL: D
INSTRUMENTAL_FREQUENCY_HZ: 204.000
INSTRUMENTAL_DAMPING: 0.700000
FULL_SCALE_G: 1.0
N_BIT_DIGITAL_CONVERTER: 18
PGA_CM/S^2: -23.502327
TIME_PGA_S: 39.625000
BASELINE_CORRECTION: BASELINE REMOVED
FILTER_TYPE: BUTTERWORTH
FILTER_ORDER: 2
LOW_CUT_FREQUENCY_HZ: 0.100
HIGH_CUT_FREQUENCY_HZ: 40.000
LATE/NORMAL_TRIGGERED: NT
DATABASE_VERSION: 0.5
HEADER_FORMAT: DYNA 1.2
DATA_TYPE: ACCELERATION
PROCESSING: manual (Paolucci et al., 2011)
DATA_TIMESTAMP_YYYYMMDD_HHMMSS: 20211011_155837.938
DATA_LICENSE: CC-BY3_0-IT (http://creativecommons.org/licenses/by/3.0/deed.en)
DATA_CITATION: Luzi L, Pacor F, Puglia R (2019). Italian Accelerometric Archive v 3.0 - Istituto Nazionale di Geofisica e Vulcanologia, Dipartimento della Protezione Civile Nazionale. doi: 10.13127/itaca.3.1
DATA_CREATOR: ITACA working group
ORIGINAL_DATA_MEDIATOR_CITATION: data obtained within the DPC-INGV data exchange agreements
ORIGINAL_DATA_MEDIATOR: Archive of Italian Department of Civil Protection
ORIGINAL_DATA_CREATOR_CITATION: Presidency Of Counsil Of Ministers-Civil Protection Department. (1972). Italian Strong Motion Network. Presidency of Counsil of Ministers - Civil Protection Department. https://doi.org/10.7914/SN/IT http://www.fdsn.org/networks/detail/IT/
ORIGINAL_DATA_CREATOR: network: IT (Italian Strong Motion Network (RAN)); owner: Presidency of Counsil of Ministers - Civil Protection Department (PCM - DPC)
USER1: 
USER2: 
USER3: 
USER4: 
USER5: 
[...]
-1.748481
-1.434869
-1.047280
-0.706254
-0.528152
-0.529911
-0.637324
-0.795733
-1.010940
-1.291620
-1.619458
-1.966570
-2.289514
-2.524784
-2.637035
-2.656559
-2.644830
-2.646109
-2.681736
-2.757246
-2.859704
-2.966580
-3.062390
-3.138580
-3.175628
-3.119706
-2.875162
-2.348049
-1.533164
-0.560470
0.356815
1.024442
1.331386
1.234645
0.715364
-0.208627
-1.427641
-2.727592
-3.835351
-4.484843
-4.508898
-3.939000
-3.010024
-2.034943
-1.272761
-0.885426
-0.935010
-1.368951
-2.020868
-2.658720
-3.075032
-3.177473
-3.014394
-2.710172
-2.367783
-2.021473
-1.659771
-1.268621
-0.842014
-0.370310
0.129510
0.546408
0.696280
0.468918
-0.072690
-0.754731
-1.385543
-1.775874
-1.788938
-1.446461
-0.927892
-0.432440
-0.076951
0.099960
0.123917
0.096102
0.152922
0.361946
0.662575
0.927483
1.079922
1.143035
1.182223
1.213310
1.175075
0.993969
0.669382
0.299085
0.044128
0.062821
0.423724
1.036608
1.675549
2.111793
2.255769
2.173642
1.977194
1.729469
1.450986
1.164131
0.912820
0.765583
0.798234
1.036676
1.403572
1.755026
1.999709
2.157597
2.272656
2.303828
2.148574
1.765281
1.250341
0.786279
0.510760
0.450817
0.588327
0.945910
1.569146
2.443584
3.451966
4.385083
4.986102
5.053306
4.576238
3.777867
2.984217
2.430037
2.172449
2.135518
2.185685
2.184442
2.034744
1.715007
1.265142
0.734249
0.147968
-0.465273
-1.008502
-1.298527
-1.175145
-0.656520
0.044613
0.671555
1.065273
1.177027
1.026107
0.694753
0.327924
0.077115
0.001432
0.013513
-0.043537
-0.244000
-0.522423
-0.766659
-0.933794
-1.057453
-1.167348
-1.244693
-1.265238
-1.269274
-1.386525
-1.774933
-2.491626
-3.415538
-4.317583
-4.995735
-5.335026
-5.294704
-4.896068
-4.201822
-3.269861
-2.146121
-0.921238
0.233847
1.121904
1.617241
1.711809
1.489906
1.088077
0.663128
0.350333
0.231527
0.334441
0.624422
0.983162
1.253741
1.361891
1.378705
1.426369
1.530703
1.601135
1.549800
1.396165
1.244343
1.163355
1.088567
0.857578
0.387794
-0.171963
-0.509218
-0.387098
0.185853
0.984786
1.728633
2.251005
2.583110
2.893428
3.333473
3.904937
4.429332
4.651312
4.431842
3.882310
3.306638
2.991740
3.030331
3.318986
3.698043
4.076606
4.432854
4.728548
4.865451
4.730542
4.236039
3.298263
1.844578
-0.096013
-2.314527
-4.462613
-6.199524
-7.347831
-7.954179
-8.205179
-8.270230
-8.222516
-8.086403
-7.902854
-7.719003
-7.548927
-7.394433
-7.307337
-7.381130
-7.629087
-7.882600
-7.866151
-7.396410
-6.503656
-5.392110
-4.329291
-3.536674
-3.093654
-2.912101
-2.824210
-2.702639
-2.499336
-2.217332
-1.912046
-1.716234
-1.785634
-2.160713
-2.696047
-3.164833
-3.425190
-3.469370
-3.354295
-3.115731
-2.715503
-2.044903
-0.995267
0.435126
2.055605
3.500625
4.395960
4.584144
4.235847
3.744585
3.465831
3.505728
3.728927
3.933501
4.013473
4.017026
4.110115
4.457568
5.051266
5.633537
5.881262
5.731373
5.481562
5.531652
6.063341
6.976039
8.030345
8.977776
9.628368
9.911689
9.898122
9.726232
9.482177
9.148283
8.674799
8.075488
7.426742
6.801486
6.218358
5.610081
4.840173
3.817923
2.612625
1.407990
0.357029
-0.450654
-0.901088
-0.865189
-0.381189
0.221917
0.491882
0.192515
-0.529110
-1.289566
-1.746214
-1.777847
-1.512582
-1.230002
-1.173838
-1.395596
-1.779684
-2.222037
-2.739194
-3.376263
-4.068787
-4.674611
-5.130240
-5.506438
-5.898196
-6.312184
-6.688771
-6.991162
-7.212586
-7.315619
-7.253028
-7.073844
-6.947227
-7.048166
-7.432397
-7.990854
-8.476532
-8.617156
-8.263938
-7.404184
-6.034617
-4.138885
-1.844836
0.482776
2.379192
3.502068
3.762154
3.350051
2.672988
2.182571
2.159878
2.626219
3.459258
4.552130
5.809110
7.031041
7.903862
8.124464
7.518334
6.094736
4.079783
1.887698
-0.031040
-1.396625
-2.200148
-2.626935
-2.912010
-3.245055
-3.701944
-4.175860
-4.404911
-4.164198
-3.483621
-2.666041
-2.072115
-1.886586
-2.086843
-2.582745
-3.309004
-4.182467
-5.038892
-5.636571
-5.702757
-4.988320
-3.340782
-0.819107
2.209864
5.146930
7.426219
8.747404
9.110777
8.731345
7.935485
7.053691
6.331506
5.902380
5.813371
6.055311
6.579884
7.319931
8.227328
9.308987
10.599027
12.056609
13.504167
14.704822
15.494310
15.801463
15.559893
14.687377
13.200984
11.300776
9.269668
7.280905
5.307633
3.203962
0.900996
-1.422920
-3.376284
-4.598386
-4.984311
-4.702278
-4.027601
-3.124141
-1.918264
-0.193810
2.135145
4.843508
7.482556
9.609044
10.951731
11.437388
11.123031
10.135379
8.650102
6.843024
4.780785
2.346924
-0.667799
-4.311693
-8.240076
-11.744913
-14.077931
-14.804881
-13.933589
-11.822315
-9.010623
-6.048775
-3.325266
-0.936425
1.265277
3.410196
5.356438
6.686378
6.947362
5.940807
3.881769
1.314427
-1.217253
-3.491063
-5.603802
-7.697774
-9.764359
-11.678588
-13.303159
-14.494204
-15.078072
-14.948100
-14.214221
-13.206507
-12.293804
-11.659969
-11.189581
-10.530008
-9.294987
-7.288946
-4.628910
-1.710199
0.978311
3.094971
4.559794
5.484734
6.062408
6.482034
6.825761
7.026816
6.978032
6.639678
5.997030
4.999408
3.646620
2.121621
0.767928
-0.091649
-0.324772
-0.032154
0.503390
0.903397
0.844590
0.260005
-0.586540
-1.282354
-1.563979
-1.476320
-1.305689
-1.372765
-1.801329
-2.410009
-2.855083
-2.932350
-2.759579
-2.686933
-3.066340
-4.082464
-5.673100
-7.482114
-8.896407
-9.259385
-8.206551
-5.922752
-3.139543
-0.835451
0.226476
-0.119596
-1.366404
-2.632152
-3.167101
-2.746152
-1.685018
-0.478401
0.644731
1.878936
3.596900
5.920180
8.449421
10.385639
10.999991
10.104590
8.149851
5.924618
4.154218
3.242403
3.198478
3.714447
4.354072
4.762153
4.771922
4.384163
3.718122
3.017864
2.642180
2.924889
3.982668
5.667574
7.710550
9.887558
12.037459
13.975433
15.446120
16.131313
15.688008
13.895057
10.919341
7.472747
4.601201
3.168125
3.399358
4.797838
6.437973
7.430974
7.313765
6.194572
4.627139
3.292192
2.625576
2.587569
2.713389
2.398501
1.245972
-0.696323
-2.937674
-4.809429
-5.821810
-5.871113
-5.251876
-4.560132
-4.462405
-5.345914
-7.112069
-9.305768
-11.392103
-12.916363
-13.578439
-13.346661
-12.506072
-11.492116
-10.644344
-10.111899
-9.883105
-9.801283
-9.622020
-9.196020
-8.623906
-8.175162
-8.042289
-8.189284
-8.388013
-8.350918
-7.901783
-7.132116
-6.396844
-6.074277
-6.271896
-6.754563
-7.137852
-7.149870
-6.782036
-6.263284
-5.871147
-5.698953
-5.592235
-5.343580
-4.931001
-4.537652
-4.383662
-4.566044
-5.000509
-5.461813
-5.697242
-5.560756
-5.081232
-4.404644
-3.674485
-2.974160
-2.343768
-1.804450
-1.379883
-1.121051
-1.085413
-1.272437
-1.614958
-2.051710
-2.580355
-3.230852
-4.004902
-4.857560
-5.749512
-6.700601
-7.750346
-8.855868
-9.857175
-10.556132
-10.825750
-10.663666
-10.163080
-9.424476
-8.482679
-7.306555
-5.856731
-4.157512
-2.325095
-0.511118
1.176866
2.676232
3.907544
4.755207
5.122989
4.999541
4.484720
3.770286
3.062155
2.477595
2.014201
1.615971
1.247747
0.898857
0.541863
0.135614
-0.304196
-0.639406
-0.619024
0.019552
1.397539
3.374132
5.531811
7.299819
8.187914
8.011100
6.962730
5.501638
4.145029
3.269849
2.969838
3.025481
3.053439
2.773309
2.184582
1.512192
0.992224
0.676383
0.397327
-0.057092
-0.685810
-1.194645
-1.212950
-0.601194
0.435301
1.452262
1.948251
1.577734
0.370621
-1.210239
-2.503118
-3.016674
-2.631614
-1.540717
-0.069424
1.494671
3.001012
4.404185
5.639391
6.570682
7.079906
7.159402
6.906832
6.485087
6.082784
5.829784
5.715129
5.621026
5.434889
5.085639
4.484160
3.492843
1.982781
-0.088684
-2.634622
-5.417916
-8.073291
-10.217737
-11.600396
-12.173597
-12.049309
-11.416511
-10.487070
-9.457102
-8.448581
-7.460408
-6.408512
-5.267238
-4.184138
-3.406503
-3.034127
-2.839158
-2.382356
-1.365069
0.106836
1.591794
2.622405
2.971349
2.698332
2.020252
1.161926
0.289096
-0.495974
-1.146199
-1.652541
-2.010546
-2.191347
-2.142073
-1.817854
-1.218447
-0.383172
0.651246
1.849975
3.111251
4.218559
4.883306
4.860607
4.085101
2.737163
1.158180
-0.322199
-1.474958
-2.129327
-2.132061
-1.396207
0.027442
1.930142
3.979575
5.811837
7.161995
7.928547
8.112214
7.750270
6.968710
6.055047
5.379810
5.197445
5.535310
6.274081
7.283966
8.441832
9.545269
10.299081
10.472452
10.076328
9.340683
8.525895
7.793452
7.209213
6.754083
6.299877
5.682164
4.898460
4.204345
3.933606
4.214650
4.879368
5.605658
6.103535
6.219642
5.980458
5.574715
5.232082
5.054456
4.948275
4.730090
4.298314
3.696303
3.044239
2.467709
2.086192
1.997941
2.222076
2.664365
3.167075
3.596067
3.875721
3.948835
3.736070
3.190140
2.407559
1.634180
1.117808
0.963526
1.122498
1.467521
1.844688
2.083955
2.029091
1.603237
0.867035
0.025694
-0.649952
-0.982318
-1.040470
-1.169962
-1.836326
-3.350894
-5.652210
-8.286355
-10.611566
-12.111231
-12.604434
-12.228590
-11.269274
-9.992135
-8.558335
-7.021850
-5.385252
-3.692256
-2.105453
-0.900175
-0.366270
-0.680478
-1.819629
-3.554883
-5.516859
-7.280750
-8.452661
-8.776752
-8.230235
-7.040909
-5.615484
-4.394807
-3.667418
-3.434140
-3.428038
-3.289387
-2.776558
-1.883300
-0.820682
0.087356
0.535893
0.373098
-0.310866
-1.214258
-1.977749
-2.346341
-2.223939
-1.660488
-0.851925
-0.083402
0.450624
0.790456
1.109475
1.450428
1.612270
1.306818
0.392047
-1.015894
-2.566228
-3.792680
-4.303177
-3.934752
-2.759605
-0.982334
1.142300
3.321694
5.229911
6.573149
7.204114
7.207954
6.874487
6.536725
6.383486
6.410770
6.545611
6.774116
7.100756
7.411568
7.461351
7.022085
6.028645
4.612807
3.036325
1.553871
0.276377
-0.821375
-1.705730
-2.106371
-1.593450
0.134299
3.011996
6.586651
10.165118
13.013360
14.551589
14.515608
13.011126
10.450151
7.454283
4.723126
2.792867
1.791074
1.438068
1.324893
1.194005
0.991973
0.753328
0.507036
0.260234
-0.015501
-0.406997
-1.015437
-1.835293
-2.679976
-3.271878
-3.432511
-3.188529
-2.724495
-2.271361
-2.018722
-2.079490
-2.508388
-3.329600
-4.523988
-6.008164
-7.648527
-9.277151
-10.689028
-11.675627
-12.131396
-12.144488
-11.931969
-11.654774
-11.326561
-10.920410
-10.521109
-10.311265
-10.395036
-10.672239
-10.905168
-10.902153
-10.640888
-10.216310
-9.663644
-8.851260
-7.587267
-5.850673
-3.897737
-2.131324
-0.893486
-0.368843
-0.584327
-1.418424
-2.629990
-3.916543
-4.935814
-5.296575
-4.645233
-2.872539
-0.240012
2.743076
5.574301
7.906461
9.540956
10.396207
10.512250
10.016054
9.036620
7.683885
6.110301
4.516752
3.043503
1.675428
0.283434
-1.239454
-2.855102
-4.329277
-5.293696
-5.437534
-4.710745
-3.339638
-1.643309
0.118037
1.725158
2.931998
3.478385
3.175447
2.008684
0.207515
-1.776947
-3.402490
-4.197031
-3.876805
-2.422942
-0.088940
2.707717
5.550299
8.134259
10.294681
11.966353
13.099308
13.608053
13.417045
12.564006
11.282442
9.969833
8.998592
8.501256
8.329095
8.214969
7.977450
7.615395
7.287220
7.238125
7.713406
8.858246
10.624851
12.758387
14.892537
16.694597
17.968290
18.676105
18.915644
18.840990
18.509607
17.785185
16.413687
14.200213
11.177601
7.684383
4.262886
1.414798
-0.596064
-1.767868
-2.268663
-2.332154
-2.168079
-1.890791
-1.507193
-0.988572
-0.361886
0.264599
0.745565
0.982554
0.994007
0.903108
0.863738
0.978181
1.216684
1.387309
1.231849
0.612961
-0.381319
-1.534629
-2.693846
-3.866437
-5.176073
-6.740931
-8.541101
-10.344314
-11.767555
-12.484425
-12.432628
-11.827458
-10.998256
-10.249486
-9.825682
-9.873706
-10.348456
-10.975424
-11.388709
-11.375357
-11.000393
-10.487391
-10.004616
-9.583552
-9.178026
-8.736850
-8.251674
-7.786396
-7.463215
-7.399042
-7.624210
-8.030878
-8.364839
-8.248748
-7.271786
-5.174135
-2.038658
1.652237
5.145190
7.670807
8.715847
8.185314
6.388248
3.894316
1.328393
-0.847164
-2.467521
-3.632697
-4.541735
-5.311825
-5.877235
-6.011424
-5.473786
-4.221114
-2.542629
-0.956996
0.125183
0.710522
1.214195
2.145217
3.788017
6.121765
8.930995
11.924691
14.783380
17.193163
18.922472
19.887136
20.142313
19.837259
19.165287
18.278000
17.191256
15.794102
13.994653
11.890915
9.812628
8.168333
7.205175
6.888426
6.979887
7.188394
7.270403
7.117524
6.856537
6.835686
7.418714
8.739594
10.624581
12.686192
14.459492
15.540126
15.738295
15.158030
14.103048
12.879500
11.658939
10.472069
9.281515
8.070772
6.916973
5.998435
5.496056
5.420899
5.500926
5.287053
4.459971
3.077324
1.528376
0.262112
-0.447840
-0.567405
-0.282471
0.030435
-0.071833
-0.847189
-2.196567
-3.759889
-5.155898
-6.136020
-6.606049
-6.586373
-6.154986
-5.411248
-4.501154
-3.659372
-3.173870
-3.291484
-4.155392
-5.765989
-7.911528
-10.137464
-11.879733
-12.719847
-12.559230
-11.605675
-10.249914
-8.921608
-7.933919
-7.350780
-6.980364
-6.538426
-5.862241
-5.003698
-4.172464
-3.624845
-3.559272
-4.032103
-4.928028
-6.013209
-7.061496
-8.019722
-9.109465
-10.715052
-13.075318
-16.042727
-19.124582
-21.712555
-23.279415
-23.502327
-22.378164
-20.266455
-17.752014
-15.381060
-13.431878
-11.841030
-10.333651
-8.690043
-6.932730
-5.264721
-3.862323
-2.764563
-1.919422
-1.250771
-0.670943
-0.100626
0.468289
0.928682
1.100222
0.844806
0.171098
-0.750970
-1.678560
-2.419857
-2.892064
-3.093513
-3.067071
-2.884689
-2.595002
-2.137787
-1.338665
-0.024681
1.860834
4.245482
6.966765
9.786369
12.411396
14.579672
16.155891
17.147745
17.660978
17.871502
18.011080
18.283993
18.704779
19.008326
18.777218
17.716904
15.863577
13.581363
11.372142
9.638751
8.539856
7.976914
7.679452
7.351316
6.824434
6.123060
5.385976
4.735631
4.236067
3.951047
3.984302
4.440411
5.367727
6.736004
8.424280
10.209274
11.806490
12.970274
13.564053
13.545538
12.908465
11.645213
9.766748
7.358332
4.604498
1.754979
-0.945180
-3.334594
-5.387386
-7.188279
-8.825528
-10.284627
-11.447979
-12.197150
-12.515562
-12.525689
-12.452360
-12.520845
-12.847568
-13.403892
-14.059832
-14.642615
-14.972553
-14.904680
-14.395298
-13.552545
-12.611692
-11.822609
-11.323306
-11.101940
-11.059107
-11.090915
-11.130475
-11.153685
-11.178711
-11.263478
-11.480313
-11.851781
-12.283623
-12.566276
-12.463709
-11.838046
-10.730067
-9.335926
-7.894719
-6.561350
-5.355936
-4.238934
-3.239995
-2.516351
-2.310928
-2.863247
-4.312495
-6.604700
-9.424036
-12.188241
-14.162750
-14.713473
-13.603111
-11.143973
-8.078453
-5.241771
-3.224426
-2.241078
-2.217197
-2.934874
-4.121574
-5.510957
-6.899286
-8.111364
-8.885731
-8.877447
-7.849360
-5.849890
-3.206113
-0.390703
2.111899
3.905654
4.759694
4.656076
3.799792
2.576179
1.432946
0.711856
0.520792
0.722361
1.043319
1.245941
1.258298
1.169107
1.093564
1.036229
0.862466
0.375865
-0.547023
-1.817967
-3.079494
-3.796798
-3.467780
-1.840539
0.947455
4.352760
7.576731
9.851873
10.691078
9.946977
7.741830
4.430757
0.585164
-3.144360
-6.242168
-8.422742
-9.576591
-9.711157
-8.955711
-7.566125
-5.879972
-4.244650
-2.944690
-2.141504
-1.841917
-1.899017
-2.033292
-1.880094
-1.103832
0.434841
2.576010
4.917015
6.994331
8.474857
9.259430
9.459757
9.277774
8.881013
8.351574
7.699016
6.891312
5.886681
4.657436
3.188672
1.464343
-0.514359
-2.671155
-4.819870
-6.707107
-8.105802
-8.895912
-9.110139
-8.942366
-8.679066
-8.543530
-8.561365
-8.576604
-8.405045
-7.981823
-7.377089
-6.687407
-5.932080
-5.058247
-4.017158
-2.804465
-1.444242
0.009790
1.427193
2.579857
3.219220
3.222137
2.692114
1.912109
1.153371
0.488363
-0.217486
-1.122786
-2.212931
-3.270613
-4.019318
-4.284486
-4.044906
-3.403308
-2.565067
-1.814573
-1.424468
-1.546690
-2.196673
-3.305042
-4.725611
-6.205672
-7.412023
-8.030358
-7.870271
-6.918024
-5.327969
-3.363981
-1.307744
0.630893
2.364888
3.919202
5.357903
6.716092
8.024995
9.388291
10.952929
12.743252
14.550863
16.032104
16.900450
17.026089
16.423700
15.213427
13.599595
11.857115
10.296362
9.186301
8.663110
8.698738
9.156159
9.859866
10.622312
11.253370
11.586195
11.506600
10.965585
9.967237
8.534784
6.685360
4.451805
1.929398
-0.721038
-3.320392
-5.705360
-7.731479
-9.296879
-10.390957
-11.091469
-11.490411
-11.642753
-11.598992
-11.452321
-11.320922
-11.307839
-11.511208
-12.037608
-12.930845
-14.065375
-15.144389
-15.821597
-15.831874
-15.064465
-13.592122
-11.656571
-9.598703
-7.756918
-6.387462
-5.639578
-5.568928
-6.154088
-7.292464
-8.779348
-10.314165
-11.574278
-12.328642
-12.515707
-12.228164
-11.605704
-10.712848
-9.510369
-7.949027
-6.089164
-4.123308
-2.287664
-0.765724
0.337997
0.995580
1.288134
1.440885
1.770637
2.525557
3.735718
5.217593
6.714339
8.028352
9.073426
9.873977
10.533964
11.177664
11.888250
12.672164
13.438861
13.993399
14.081703
13.500972
12.220811
10.438434
8.517350
6.827343
5.590093
4.833770
4.443188
4.230827
4.011537
3.679019
3.233494
2.736171
2.245311
1.785562
1.344193
0.886172
0.394476
-0.086414
-0.434848
-0.473362
-0.037469
0.915385
2.239666
3.663672
4.926851
5.864209
6.407249
6.558681
6.372538
5.936723
5.354690
4.721900
4.103311
3.525932
2.973173
2.363329
1.543577
0.348195
-1.289466
-3.245119
-5.200105
-6.736221
-7.477850
-7.203707
-5.887001
-3.683035
-0.894040
2.084331
4.835277
6.990008
8.276214
8.573497
7.985195
6.839324
5.542129
4.373620
3.401478
2.556009
1.748446
0.941760
0.176701
-0.444720
-0.818530
-0.898782
-0.715568
-0.345794
0.137787
0.697129
1.315242
1.963766
2.596574
3.169852
3.641469
3.942100
3.968976
3.612486
2.787121
1.472145
-0.245349
-2.178778
-4.118015
-5.909296
-7.468090
-8.733711
-9.644705
-10.182727
-10.429192
-10.543622
-10.676084
-10.906304
-11.232891
-11.576866
-11.807066
-11.805952
-11.534833
-11.043411
-10.435065
-9.837600
-9.382071
-9.169037
-9.244496
-9.605074
-10.199202
-10.900548
-11.502984
-11.793051
-11.652705
-11.089245
-10.180702
-9.015291
-7.669343
-6.203365
-4.659700
-3.072467
-1.487319
0.034598
1.448846
2.781952
4.147925
5.688307
7.485489
9.529129
11.744721
14.015448
16.163397
17.956060
19.184643
19.748007
19.660540
19.001026
17.880360
16.442013
14.837251
13.167051
11.458736
9.707397
7.927907
6.163480
4.467168
2.893905
1.489149
0.260973
-0.818027
-1.765128
-2.572056
-3.251527
-3.866772
-4.483123
-5.080767
-5.512561
-5.562180
-5.073720
-4.055747
-2.684543
-1.224694
0.053834
0.942990
1.382287
1.513366
1.602525
1.858789
2.320839
2.913928
3.567185
4.242693
4.878338
5.345971
5.495489
5.257525
4.706789
4.023001
3.389453
2.920723
2.657930
2.597163
2.709341
