EVENT_NAME: L_AQUILA
EVENT_ID: IT-2009-0009
EVENT_DATE_YYYYMMDD: 20090406
EVENT_TIME_HHMMSS: 013240
EVENT_LATITUDE_DEGREE: 42.3420
EVENT_LONGITUDE_DEGREE: 13.3800
EVENT_DEPTH_KM: 8.3
HYPOCENTER_REFERENCE: INGV-CNT_Seismic_Bulletin
MAGNITUDE_W: 6.1
MAGNITUDE_W_REFERENCE: INGV-CNT_Seismic_Bulletin
MAGNITUDE_L: 
MAGNITUDE_L_REFERENCE: 
FOCAL_MECHANISM: Normal faulting
NETWORK: IT
STATION_CODE: FMG
STATION_NAME: 
STATION_LATITUDE_DEGREE: 42.268028
STATION_LONGITUDE_DEGREE: 13.117220
STATION_ELEVATION_M: 1071
LOCATION: 
SENSOR_DEPTH_M: 0.0
VS30_M/S: 790
SITE_CLASSIFICATION_EC8: B
MORPHOLOGIC_CLASSIFICATION: 
EPICENTRAL_DISTANCE_KM: 23.2
EARTHQUAKE_BACKAZIMUTH_DEGREE: 249.3
DATE_TIME_FIRST_SAMPLE_YYYYMMDD_HHMMSS: 20090406_013215.000
DATE_TIME_FIRST_SAMPLE_PRECISION: seconds
SAMPLING_INTERVAL_S: 0.005000
NDATA: 23800
DURATION_S: 119.000
STREAM: HNZ
UNITS: cm/s^2
INSTRUMENT: sensor = FBA-3 [Kinemetrics] | digitizer = Etna [Kinemetrics]
INSTRUMENT_ANALOG/DIGITAL: D
INSTRUMENTAL_FREQUENCY_HZ: 196.000
INSTRUMENTAL_DAMPING: 0.700000
FULL_SCALE_G: 1.0
N_BIT_DIGITAL_CONVERTER: 18
PGA_CM/S^2: -19.128696
TIME_PGA_S: 34.830000
BASELINE_CORRECTION: BASELINE REMOVED
FILTER_TYPE: BUTTERWORTH
FILTER_ORDER: 2
LOW_CUT_FREQUENCY_HZ: 0.100
HIGH_CUT_FREQUENCY_HZ: 40.000
LATE/NORMAL_TRIGGERED: NT
DATABASE_VERSION: 0.5
HEADER_FORMAT: DYNA 1.2
DATA_TYPE: ACCELERATION
PROCESSING: manual (Paolucci et al., 2011)
DATA_TIMESTAMP_YYYYMMDD_HHMMSS: 20211011_155839.080
DATA_LICENSE: CC-BY3_0-IT (http://creativecommons.org/licenses/by/3.0/deed.en)
DATA_CITATION: Luzi L, Pacor F, Puglia R (2019). Italian Accelerometric Archive v 3.0 - Istituto Nazionale di Geofisica e Vulcanologia, Dipartimento della Protezione Civile Nazionale. doi: 10.13127/itaca.3.1
DATA_CREATOR: ITACA working group
ORIGINAL_DATA_MEDIATOR_CITATION: data obtained within the DPC-INGV data exchange agreements
ORIGINAL_DATA_MEDIATOR: Archive of Italian Department of Civil Protection
ORIGINAL_DATA_CREATOR_CITATION: Presidency Of Counsil Of Ministers-Civil Protection Department. (1972). Italian Strong Motion Network. Presidency of Counsil of Ministers - Civil Protection Department. https://doi.org/10.7914/SN/IT http://www.fdsn.org/networks/detail/IT/
ORIGINAL_DATA_CREATOR: network: IT (Italian Strong Motion Network (RAN)); owner: Presidency of Counsil of Ministers - Civil Protection Department (PCM - DPC)
USER1: 
USER2: 
USER3: 
USER4: 
USER5: 
[...]
-0.017396
-0.017497
-0.016826
-0.016657
-0.017111
-0.017104
-0.016011
-0.015255
-0.015902
-0.016370
-0.015344
-0.014092
-0.014196
-0.015165
-0.015509
-0.015240
-0.015601
-0.016596
-0.017377
-0.018041
-0.018261
-0.017346
-0.016478
-0.016964
-0.018156
-0.018793
-0.018734
-0.018798
-0.018756
-0.017734
-0.016407
-0.016093
-0.016677
-0.016808
-0.016072
-0.015281
-0.014846
-0.015203
-0.016716
-0.018591
-0.019591
-0.018932
-0.017344
-0.016632
-0.017195
-0.018091
-0.018214
-0.017464
-0.017626
-0.018990
-0.019463
-0.018908
-0.018631
-0.018008
-0.016296
-0.015431
-0.017039
-0.018826
-0.018327
-0.016791
-0.016323
-0.016947
-0.017236
-0.016469
-0.015909
-0.016543
-0.016839
-0.015903
-0.015741
-0.016674
-0.016442
-0.015310
-0.015010
-0.015304
-0.016248
-0.018505
-0.020399
-0.019961
-0.018078
-0.016755
-0.017141
-0.018772
-0.019709
-0.019331
-0.018506
-0.016922
-0.014766
-0.014288
-0.016372
-0.018990
-0.019640
-0.018183
-0.017108
-0.017550
-0.017844
-0.017370
-0.017272
-0.018140
-0.019318
-0.019169
-0.017486
-0.016619
-0.017494
-0.018522
-0.018817
-0.018207
-0.016762
-0.015914
-0.016515
-0.017600
-0.018409
-0.018581
-0.017997
-0.017551
-0.018135
-0.019466
-0.020416
-0.020307
-0.019173
-0.017212
-0.015266
-0.014770
-0.016210
-0.018014
-0.018442
-0.017971
-0.017885
-0.018339
-0.018778
-0.018885
-0.018914
-0.019266
-0.019779
-0.019635
-0.018507
-0.017458
-0.018090
-0.020284
-0.021367
-0.019930
-0.018553
-0.019417
-0.020805
-0.020864
-0.020203
-0.019399
-0.018737
-0.019261
-0.020388
-0.020051
-0.019019
-0.019839
-0.021855
-0.022320
-0.020489
-0.017841
-0.015439
-0.013582
-0.013539
-0.015620
-0.018151
-0.020281
-0.021658
-0.021553
-0.020490
-0.019967
-0.020354
-0.020111
-0.018403
-0.017306
-0.018406
-0.019805
-0.019573
-0.018877
-0.019048
-0.019612
-0.020148
-0.019943
-0.018348
-0.016925
-0.017250
-0.018452
-0.019176
-0.019329
-0.019313
-0.019660
-0.020670
-0.020897
-0.018903
-0.016492
-0.016149
-0.017226
-0.017996
-0.018578
-0.019527
-0.020126
-0.019478
-0.018019
-0.016968
-0.016903
-0.017555
-0.018440
-0.019264
-0.019994
-0.020837
-0.021473
-0.021412
-0.021670
-0.022846
-0.023082
-0.021459
-0.020130
-0.020567
-0.021430
-0.021299
-0.020264
-0.018945
-0.017844
-0.017877
-0.019484
-0.020727
-0.019628
-0.017593
-0.017251
-0.018383
-0.018646
-0.017758
-0.017912
-0.019419
-0.019964
-0.019152
-0.018803
-0.019482
-0.020188
-0.019788
-0.018790
-0.018799
-0.019959
-0.021246
-0.021134
-0.018955
-0.017016
-0.017208
-0.018172
-0.018976
-0.020097
-0.020835
-0.020661
-0.020618
-0.020709
-0.019440
-0.017576
-0.017562
-0.019004
-0.020265
-0.021529
-0.022708
-0.022661
-0.021196
-0.019616
-0.019224
-0.019814
-0.020471
-0.021142
-0.021921
-0.022174
-0.021874
-0.021676
-0.021491
-0.020812
-0.019669
-0.018697
-0.018529
-0.019117
-0.019621
-0.019646
-0.019834
-0.020095
-0.019849
-0.019533
-0.019458
-0.019127
-0.018240
-0.017679
-0.018591
-0.019886
-0.019181
-0.017138
-0.016704
-0.017443
-0.017058
-0.016588
-0.017276
-0.017327
-0.016002
-0.015598
-0.017506
-0.020036
-0.021499
-0.021986
-0.021153
-0.018962
-0.017824
-0.019171
-0.020714
-0.020120
-0.018389
-0.017802
-0.018484
-0.019256
-0.019857
-0.019592
-0.017879
-0.016625
-0.016769
-0.016790
-0.017265
-0.019539
-0.021338
-0.020478
-0.018808
-0.018165
-0.018041
-0.017863
-0.016791
-0.013460
-0.007705
0.000232
0.012616
0.034572
0.071517
0.126030
0.195428
0.272441
0.346763
0.404723
0.431644
0.417097
0.359340
0.267750
0.161706
0.066215
0.003809
-0.014410
0.007781
0.052986
0.094530
0.105562
0.073420
0.009851
-0.057546
-0.105180
-0.125798
-0.128103
-0.126958
-0.132771
-0.146471
-0.159865
-0.161843
-0.148850
-0.132557
-0.136806
-0.182760
-0.269479
-0.366072
-0.426757
-0.415105
-0.320393
-0.162711
0.012923
0.149166
0.196560
0.138118
-0.002007
-0.170637
-0.305155
-0.355804
-0.304045
-0.167284
0.008223
0.161133
0.238295
0.224478
0.151516
0.071178
0.016842
-0.013681
-0.041818
-0.076465
-0.101466
-0.090959
-0.033199
0.057020
0.143822
0.187617
0.165940
0.084690
-0.033775
-0.172657
-0.323392
-0.466722
-0.559700
-0.552504
-0.427437
-0.224134
-0.022752
0.103792
0.127381
0.067369
-0.033359
-0.137993
-0.223661
-0.260592
-0.197480
0.013646
0.368672
0.790598
1.161303
1.376568
1.386420
1.205749
0.898959
0.552409
0.243971
0.013337
-0.152041
-0.292601
-0.420396
-0.484888
-0.411407
-0.188017
0.088111
0.263550
0.242017
0.062035
-0.126533
-0.175623
-0.056516
0.116807
0.176881
0.028267
-0.285750
-0.619481
-0.833171
-0.889642
-0.867192
-0.884183
-0.997608
-1.154853
-1.233639
-1.134841
-0.849525
-0.448564
-0.025847
0.338995
0.583774
0.665075
0.574112
0.344487
0.031508
-0.314301
-0.645515
-0.894309
-0.966529
-0.779998
-0.325756
0.302494
0.944929
1.455886
1.762499
1.866482
1.817210
1.676083
1.472149
1.183931
0.785869
0.332693
-0.008678
-0.046427
0.284444
0.850525
1.404271
1.743481
1.804513
1.635383
1.316900
0.923566
0.538376
0.268301
0.221434
0.463604
0.985557
1.688806
2.399065
2.920155
3.119559
2.994608
2.657818
2.248967
1.854088
1.498495
1.196259
0.981200
0.889670
0.931656
1.076600
1.251070
1.359437
1.337983
1.208508
1.078095
1.071475
1.241926
1.526000
1.768936
1.805915
1.562190
1.107416
0.610532
0.222093
-0.028508
-0.252692
-0.626390
-1.254046
-2.053141
-2.759544
-3.077162
-2.860500
-2.193572
-1.333862
-0.588068
-0.195142
-0.245435
-0.650748
-1.195570
-1.651936
-1.875321
-1.831705
-1.569726
-1.165312
-0.671135
-0.105316
0.512319
1.112563
1.578006
1.800846
1.737372
1.425040
0.974854
0.537670
0.240671
0.134790
0.202013
0.404044
0.711950
1.098192
1.515098
1.878648
2.067870
1.967269
1.557951
0.979655
0.468277
0.185789
0.089174
-0.018872
-0.287144
-0.654545
-0.878245
-0.717547
-0.129247
0.666463
1.310165
1.524036
1.242967
0.584459
-0.247917
-1.040509
-1.637746
-2.015977
-2.299747
-2.655103
-3.111734
-3.472220
-3.409840
-2.685933
-1.328631
0.343075
1.871042
2.887424
3.255523
3.047149
2.434281
1.601627
0.714484
-0.072599
-0.594039
-0.683950
-0.249368
0.637464
1.710176
2.588507
2.960950
2.781324
2.301291
1.857183
1.601007
1.439437
1.198244
0.817261
0.419436
0.235325
0.452456
1.080090
1.906933
2.599957
2.893109
2.702727
2.081031
1.126189
-0.007981
-1.059459
-1.717484
-1.806042
-1.447404
-1.057078
-1.125674
-1.891829
-3.127718
-4.224393
-4.546881
-3.810734
-2.225115
-0.344454
1.221598
2.067463
2.149044
1.784985
1.459658
1.537797
2.104729
3.012878
4.013609
4.837263
5.231806
5.059241
4.424596
3.649602
3.026876
2.572637
2.016614
1.029084
-0.494973
-2.289776
-3.821974
-4.591850
-4.414904
-3.474969
-2.165070
-0.921418
-0.158533
-0.176205
-0.949416
-2.032044
-2.824046
-3.024480
-2.847810
-2.822863
-3.359800
-4.419076
-5.518707
-6.091239
-5.940049
-5.399674
-5.034059
-5.174114
-5.718166
-6.268782
-6.392953
-5.833078
-4.600563
-2.936683
-1.197618
0.268821
1.231071
1.635564
1.590500
1.278337
0.833730
0.262961
-0.499861
-1.419459
-2.254659
-2.658900
-2.394916
-1.479328
-0.180222
1.088162
1.905758
1.987223
1.299692
0.103754
-1.160443
-2.134249
-2.763398
-3.274816
-3.918413
-4.683321
-5.200055
-4.914993
-3.460879
-1.009091
1.648679
3.427237
3.545685
1.977020
-0.595687
-3.205329
-5.016726
-5.532552
-4.668805
-2.773232
-0.515079
1.393134
2.496617
2.710082
2.201321
1.242628
0.191967
-0.522499
-0.592693
-0.053354
0.752206
1.474794
2.048691
2.689051
3.589053
4.640329
5.506680
5.962500
6.086345
6.107067
6.139429
6.139858
6.065259
5.942983
5.765229
5.447310
4.959908
4.388885
3.792693
3.144673
2.519253
2.169349
2.240968
2.494766
2.467345
1.882268
0.829348
-0.388522
-1.483345
-2.266802
-2.612915
-2.473867
-1.956403
-1.249715
-0.428455
0.542420
1.559712
2.284725
2.394358
1.864810
0.950071
-0.045520
-0.894554
-1.400088
-1.323019
-0.418262
1.365866
3.634381
5.534877
6.142768
4.995865
2.376373
-0.834934
-3.588110
-5.120309
-5.265044
-4.469665
-3.442016
-2.669117
-2.242463
-2.075458
-2.153576
-2.534256
-3.193981
-3.942293
-4.496378
-4.677921
-4.565641
-4.441130
-4.589283
-5.133832
-5.976485
-6.849007
-7.468899
-7.669311
-7.405191
-6.739557
-5.870626
-5.067828
-4.488580
-4.059392
-3.560592
-2.865491
-2.096251
-1.473613
-1.040901
-0.666681
-0.285984
0.031027
0.244258
0.433505
0.739728
1.342134
2.461062
4.219214
6.385603
8.260809
8.980301
8.167414
6.356412
4.675699
4.033753
4.525006
5.474639
5.978966
5.490231
4.053458
2.134574
0.321006
-0.838023
-0.936153
0.073189
1.725844
3.216173
3.782901
3.039281
1.113430
-1.428263
-3.844740
-5.542144
-6.278894
-6.166434
-5.508229
-4.601664
-3.637370
-2.707903
-1.832124
-1.011305
-0.345881
-0.006888
0.032044
0.126771
0.648764
1.538546
2.272222
2.314818
1.597409
0.585441
-0.062769
0.026807
0.657931
1.223148
1.213782
0.599071
-0.270691
-1.023435
-1.468546
-1.582620
-1.456225
-1.225548
-0.952425
-0.586617
-0.128352
0.191684
0.010827
-0.833138
-2.093334
-3.237121
-3.782575
-3.597060
-2.948546
-2.252697
-1.726470
-1.282049
-0.715635
0.076383
1.040381
2.009143
2.749655
3.002472
2.534595
1.230845
-0.755233
-2.869270
-4.278766
-4.365532
-3.246123
-1.772859
-0.919373
-1.097007
-1.987631
-2.885100
-3.131245
-2.402816
-0.849629
0.938160
2.211356
2.506067
1.909057
0.902561
-0.003189
-0.505800
-0.587380
-0.540327
-0.832319
-1.723619
-2.953342
-3.872077
-3.926155
-3.079145
-1.862773
-1.049574
-1.217189
-2.474004
-4.412515
-6.272232
-7.284038
-7.070932
-5.850441
-4.238330
-2.812578
-1.835995
-1.269175
-0.891847
-0.418870
0.362406
1.455645
2.623953
3.528221
3.956679
3.953700
3.737942
3.526164
3.449560
3.593713
4.048265
4.834095
5.750946
6.425112
6.646882
6.616201
6.755651
7.285280
7.995201
8.376927
7.983553
6.805576
5.375292
4.414481
4.284831
4.747097
5.210552
5.204505
4.668057
3.850139
2.998623
2.205984
1.502179
0.965613
0.704849
0.793435
1.231936
1.901014
2.518202
2.691547
2.101258
0.723408
-1.059322
-2.592554
-3.293914
-2.960727
-1.812196
-0.296844
1.106369
1.964284
1.959190
1.083016
-0.210004
-1.208997
-1.463859
-1.130850
-0.805134
-1.030401
-1.902916
-2.998218
-3.628689
-3.278061
-1.918606
0.003775
1.874749
3.289043
4.215357
4.804108
5.071870
4.833998
3.937687
2.540002
1.162850
0.421919
0.594621
1.399694
2.215278
2.542011
2.301348
1.767652
1.268823
0.920266
0.583465
0.067768
-0.632020
-1.311903
-1.734524
-1.811208
-1.687128
-1.684279
-2.079123
-2.859919
-3.707244
-4.233582
-4.233808
-3.722182
-2.819267
-1.693935
-0.598872
0.133402
0.194541
-0.555144
-1.961970
-3.565036
-4.797387
-5.307633
-5.130636
-4.572689
-3.918841
-3.182592
-2.126774
-0.600638
1.103402
2.273832
2.254701
0.974955
-0.980327
-2.846142
-4.231946
-5.225881
-6.017480
-6.479654
-6.146934
-4.608590
-1.933633
1.224349
3.853860
4.983269
4.127384
1.594104
-1.590779
-4.169832
-5.300617
-4.952259
-3.735412
-2.332702
-1.067251
0.111618
1.378856
2.757630
3.986620
4.645538
4.476012
3.640155
2.668395
2.089123
2.051036
2.286949
2.419022
2.301349
2.110996
2.122436
2.398790
2.741739
2.969679
3.217042
3.883734
5.221192
6.958341
8.358812
8.706173
7.851314
6.365364
5.123579
4.653573
4.821397
5.119674
5.235891
5.301255
5.579422
5.954162
5.785164
4.355575
1.536525
-1.982920
-5.138573
-7.150600
-7.795163
-7.212704
-5.626570
-3.274867
-0.565888
1.799612
3.033364
2.703544
1.003398
-1.359352
-3.538324
-5.027611
-5.969792
-6.915224
-8.142534
-9.280377
-9.673850
-9.042816
-7.716821
-6.292871
-5.145554
-4.251233
-3.406719
-2.573663
-2.000338
-1.993974
-2.582290
-3.405907
-3.911744
-3.679155
-2.676428
-1.264234
0.058804
0.902899
1.060412
0.572976
-0.125287
-0.285895
0.629194
2.346263
3.789730
3.848890
2.215884
-0.451533
-3.047848
-4.658430
-4.901701
-3.943566
-2.273736
-0.358110
1.566131
3.345931
4.644436
4.982996
4.148792
2.552643
1.085689
0.479513
0.751324
1.323721
1.665460
1.716652
1.733193
1.935411
2.417883
3.234134
4.350655
5.508072
6.268111
6.305554
5.678710
4.808011
4.181743
4.031206
4.205306
4.335590
4.167461
3.741662
3.255154
2.842461
2.569801
2.512550
2.647584
2.692374
2.203781
0.882596
-1.237655
-3.826249
-6.362623
-8.246429
-9.019150
-8.679964
-7.785647
-7.097291
-7.034192
-7.426351
-7.703255
-7.303039
-6.067242
-4.425945
-3.204752
-3.061389
-3.916504
-4.940788
-5.192321
-4.285207
-2.502432
-0.406948
1.603813
3.444868
5.165896
6.706443
7.831354
8.250506
7.765048
6.355580
4.258947
2.010963
0.304442
-0.324249
0.297354
2.033863
4.554901
7.287852
9.391737
10.057590
8.980232
6.534687
3.542879
0.909839
-0.676430
-0.964180
-0.192739
1.120426
2.498745
3.601528
4.087140
3.627184
2.246716
0.583085
-0.422519
-0.231605
0.877110
2.044466
2.401612
1.500231
-0.557711
-3.252815
-5.985803
-8.435432
-10.667157
-12.928947
-15.323710
-17.579605
-19.069551
-19.128696
-17.511118
-14.658248
-11.549164
-9.228428
-8.350278
-8.986634
-10.676644
-12.602293
-13.850933
-13.695275
-11.744543
-7.969879
-2.767227
2.966239
7.971487
11.059344
11.646208
10.040461
7.176833
3.972712
0.928262
-1.733205
-3.765000
-4.856973
-4.823036
-3.778765
-2.150792
-0.494295
0.739670
1.309381
1.171231
0.503893
-0.236932
-0.443404
0.300696
1.942564
3.983598
5.757930
6.801865
7.116835
7.123968
7.301668
7.785860
8.289760
8.426794
8.086380
7.466273
6.829218
6.307167
5.850022
5.268895
4.360622
3.007793
1.144277
-1.261036
-4.007758
-6.446733
-7.643361
-6.969369
-4.683428
-1.974773
-0.333182
-0.677445
-2.921893
-6.254084
-9.725233
-12.608502
-14.432828
-14.942513
-14.138264
-12.352722
-10.231170
-8.522084
-7.735501
-7.900583
-8.621529
-9.357413
-9.674125
-9.340123
-8.290685
-6.522632
-4.062587
-1.114415
1.839217
4.305420
6.246775
8.156846
10.518899
13.151786
15.136842
15.436850
13.644156
10.262837
6.420417
3.271653
1.425069
0.707865
0.438199
0.014111
-0.649773
-1.166808
-1.093894
-0.324680
0.827304
1.825789
2.162049
1.527576
-0.051850
-2.138991
-4.030175
-5.156736
-5.417027
-5.080595
-4.390108
-3.328415
-1.757775
0.314943
2.680669
5.062093
7.149844
8.498423
8.577797
7.106964
4.362841
1.098765
-1.876610
-4.058196
-5.290349
-5.625317
-5.194213
-4.105605
-2.361195
0.101161
3.211282
6.606324
9.689166
11.894264
12.968282
13.020441
12.311213
11.024099
9.203023
6.799136
3.773283
0.290846
-3.108013
-5.616738
-6.564987
-5.807382
-3.805514
-1.374555
0.708919
2.006038
2.517580
2.599239
2.744689
3.320176
4.349428
5.465038
6.095640
5.779331
4.376666
2.080963
-0.677533
-3.354038
-5.475771
-6.821483
-7.426832
-7.454392
-7.105664
-6.626906
-6.338865
-6.579628
-7.496371
-8.815651
-9.847982
-9.822801
-8.356724
-5.712367
-2.631780
0.148512
2.320530
4.049193
5.683730
7.412284
9.074217
10.219049
10.356323
9.207569
6.847849
3.784816
0.950978
-0.562901
-0.028726
2.474773
6.013630
9.186020
10.776398
10.359669
8.453162
6.054735
3.936498
2.301562
1.003159
-0.067959
-0.877192
-1.371594
-1.518647
-1.257013
-0.606484
0.087564
0.145146
-0.989553
-3.169031
-5.504425
-7.014627
-7.325821
-6.749283
-5.819688
-4.932731
-4.374069
-4.402931
-5.107206
-6.222407
-7.181201
-7.349941
-6.264902
-3.815570
-0.385755
3.169061
5.843756
6.975788
6.566729
5.224450
3.798709
2.926851
2.719961
2.772852
2.518014
1.681995
0.468687
-0.684647
-1.511575
-2.084496
-2.642385
-3.288525
-3.827979
-3.875339
-3.151872
-1.736382
-0.075971
1.223730
1.678300
1.158598
-0.023540
-1.281286
-2.103100
-2.308863
-2.010554
-1.363590
-0.336110
1.316647
3.784888
6.799647
9.524821
11.009093
10.850881
9.437211
7.549205
5.794671
4.456032
3.731663
3.813685
4.592811
5.474488
5.733020
5.085205
3.842529
2.558956
1.648583
1.258264
1.274833
1.372852
1.179918
0.519064
-0.518387
-1.769581
-3.177698
-4.668714
-5.936141
-6.540852
-6.271010
-5.306339
-4.000944
-2.577241
-1.051723
0.617997
2.385762
4.113072
5.662240
6.929433
7.766207
7.944308
7.285282
5.851203
4.029949
2.467953
1.867013
2.638991
4.546427
6.686849
8.000059
7.941503
6.798599
5.491952
5.037345
5.943567
7.905332
10.071518
11.694011
12.551496
12.810523
12.642335
12.100059
11.288895
10.439044
9.698945
8.961937
8.034544
6.900005
5.623662
4.037898
1.804559
-1.078142
-3.998173
-6.115499
-6.987638
-6.781458
-6.007775
-5.207700
-4.842316
-5.224275
-6.341165
-7.757522
-8.807219
-8.939316
-7.942092
-5.983135
-3.544170
-1.255023
0.384961
1.254054
1.626716
1.943118
2.470682
3.071983
3.305016
2.825106
1.670861
0.101072
-1.773187
-4.059640
-6.805944
-9.769217
-12.465807
-14.367700
-15.088028
-14.521768
-12.921276
-10.863072
-9.055514
-8.027823
-7.911422
-8.490453
-9.440771
-10.524019
-11.582030
-12.386755
-12.577834
-11.834338
-10.114145
-7.669382
-4.820801
-1.780376
1.274414
4.011156
5.936437
6.687292
6.371666
5.574564
4.971117
4.874888
5.070226
5.064089
4.595941
3.940188
3.654540
4.047653
4.979140
6.155181
7.455119
8.884504
10.340474
11.578491
12.379086
12.638832
12.312850
11.384570
9.952521
8.311731
6.878816
5.951376
5.473414
5.046725
4.230675
2.876909
1.227672
-0.261651
-1.262275
-1.868053
-2.545549
-3.670253
-5.091326
-6.233229
-6.664873
-6.543478
-6.439220
-6.679409
-6.923017
-6.476165
-5.023601
-3.011469
-1.346703
-0.759630
-1.394293
-2.882379
-4.713942
-6.537289
-8.189768
-9.533364
-10.307182
-10.163206
-8.875331
-6.543897
-3.613419
-0.712737
1.510638
2.508796
2.035158
0.417243
-1.407243
-2.313056
-1.639239
0.416234
2.949370
4.913468
5.665761
5.169225
3.857410
2.386460
1.421822
1.390412
2.166702
2.973268
2.795358
1.098162
-1.778248
-4.886155
-7.295122
-8.534787
-8.635999
-7.931449
-6.854643
-5.837880
-5.265950
-5.391611
-6.195440
-7.327835
-8.293164
-8.797182
-8.941740
-9.049343
-9.264118
-9.335389
-8.834733
-7.586416
-5.856308
-4.139552
-2.803782
-1.917884
-1.347063
-0.932932
-0.574102
-0.232997
0.008526
-0.126621
-1.015429
-2.794029
-5.045734
-6.905361
-7.575039
-6.800420
-4.915666
-2.509068
-0.043648
2.331075
4.734923
7.306725
9.872448
11.815611
12.345810
11.004593
8.025468
4.299052
0.995314
-0.938434
-1.176946
-0.123587
1.310657
2.108535
1.576637
-0.342723
-3.076250
-5.768860
-7.702673
-8.516961
-8.246576
-7.283267
-6.197035
-5.390446
-4.853661
-4.321467
-3.703607
-3.285959
-3.427904
-4.086190
-4.702505
-4.553394
-3.193209
-0.636541
2.743009
6.391953
9.720484
12.285241
13.982145
15.021059
15.616383
