EVENT_NAME: L_AQUILA
EVENT_ID: IT-2009-0009
EVENT_DATE_YYYYMMDD: 20090406
EVENT_TIME_HHMMSS: 013240
EVENT_LATITUDE_DEGREE: 42.3420
EVENT_LONGITUDE_DEGREE: 13.3800
EVENT_DEPTH_KM: 8.3
HYPOCENTER_REFERENCE: INGV-CNT_Seismic_Bulletin
MAGNITUDE_W: 6.1
MAGNITUDE_W_REFERENCE: INGV-CNT_Seismic_Bulletin
MAGNITUDE_L: 
MAGNITUDE_L_REFERENCE: 
FOCAL_MECHANISM: Normal faulting
NETWORK: IT
STATION_CODE: FMG
STATION_NAME: 
STATION_LATITUDE_DEGREE: 42.268028
STATION_LONGITUDE_DEGREE: 13.117220
STATION_ELEVATION_M: 1071
LOCATION: 
SENSOR_DEPTH_M: 0.0
VS30_M/S: 790
SITE_CLASSIFICATION_EC8: B
MORPHOLOGIC_CLASSIFICATION: 
EPICENTRAL_DISTANCE_KM: 23.2
EARTHQUAKE_BACKAZIMUTH_DEGREE: 249.3
DATE_TIME_FIRST_SAMPLE_YYYYMMDD_HHMMSS: 20090406_013215.000
DATE_TIME_FIRST_SAMPLE_PRECISION: seconds
SAMPLING_INTERVAL_S: 0.005000
NDATA: 23800
DURATION_S: 119.000
STREAM: HNN
UNITS: cm/s^2
INSTRUMENT: sensor = FBA-3 [Kinemetrics] | digitizer = Etna [Kinemetrics]
INSTRUMENT_ANALOG/DIGITAL: D
INSTRUMENTAL_FREQUENCY_HZ: 210.000
INSTRUMENTAL_DAMPING: 0.700000
FULL_SCALE_G: 1.0
N_BIT_DIGITAL_CONVERTER: 18
PGA_CM/S^2: 26.323769
TIME_PGA_S: 41.660000
BASELINE_CORRECTION: BASELINE REMOVED
FILTER_TYPE: BUTTERWORTH
FILTER_ORDER: 2
LOW_CUT_FREQUENCY_HZ: 0.100
HIGH_CUT_FREQUENCY_HZ: 40.000
LATE/NORMAL_TRIGGERED: NT
DATABASE_VERSION: 0.5
HEADER_FORMAT: DYNA 1.2
DATA_TYPE: ACCELERATION
PROCESSING: manual (Paolucci et al., 2011)
DATA_TIMESTAMP_YYYYMMDD_HHMMSS: 20211011_155838.532
DATA_LICENSE: CC-BY3_0-IT (http://creativecommons.org/licenses/by/3.0/deed.en)
DATA_CITATION: Luzi L, Pacor F, Puglia R (2019). Italian Accelerometric Archive v 3.0 - Istituto Nazionale di Geofisica e Vulcanologia, Dipartimento della Protezione Civile Nazionale. doi: 10.13127/itaca.3.1
DATA_CREATOR: ITACA working group
ORIGINAL_DATA_MEDIATOR_CITATION: data obtained within the DPC-INGV data exchange agreements
ORIGINAL_DATA_MEDIATOR: Archive of Italian Department of Civil Protection
ORIGINAL_DATA_CREATOR_CITATION: Presidency Of Counsil Of Ministers-Civil Protection Department. (1972). Italian Strong Motion Network. Presidency of Counsil of Ministers - Civil Protection Department. https://doi.org/10.7914/SN/IT http://www.fdsn.org/networks/detail/IT/
ORIGINAL_DATA_CREATOR: network: IT (Italian Strong Motion Network (RAN)); owner: Presidency of Counsil of Ministers - Civil Protection Department (PCM - DPC)
USER1: 
USER2: 
USER3: 
USER4: 
USER5: 
[...]
19.628258
21.683741
22.712599
22.798876
22.111153
20.744059
18.656626
15.770332
12.138402
8.012446
3.732161
-0.442180
-4.346366
-7.766523
-10.381890
-11.930855
-12.387834
-11.926097
-10.765434
-9.127716
-7.287366
-5.528094
-3.978281
-2.531074
-1.004489
0.597239
2.017273
2.958417
3.319986
3.180711
2.589523
1.480176
-0.156419
-2.065025
-3.753825
-4.754135
-4.897762
-4.408049
-3.719133
-3.114914
-2.474384
-1.395207
0.386558
2.693155
4.995674
6.758338
7.721774
7.980170
7.895877
7.912925
8.313363
9.009154
9.507280
9.155076
7.579024
4.969254
1.927358
-0.957245
-3.361681
-5.142807
-6.165393
-6.321169
-5.683226
-4.548142
-3.265410
-2.013941
-0.752575
0.622705
2.103016
3.549417
4.806353
5.805274
6.606170
7.380630
8.293899
9.329826
10.244923
10.716008
10.516740
9.588525
8.026705
6.010555
3.688698
1.114892
-1.674543
-4.514287
-7.064105
-8.940757
-9.930320
-10.072038
-9.512130
-8.298689
-6.375113
-3.795778
-0.927241
1.596525
3.148118
3.376907
2.290666
0.196603
-2.360995
-4.678966
-6.080125
-6.176640
-5.087187
-3.471867
-2.273598
-2.208278
-3.310686
-4.930667
-6.252133
-6.901026
-7.085850
-7.197812
-7.363178
-7.390716
-7.001474
-5.985647
-4.235498
-1.825099
0.883569
3.340864
5.170515
6.452431
7.564646
8.716015
9.694623
10.100233
9.744038
8.760743
7.432518
6.062082
4.983821
4.495441
4.680192
5.364566
6.278643
7.167137
7.708912
7.463313
6.059909
3.492175
0.216612
-3.026068
-5.507465
-6.760701
-6.719336
-5.696286
-4.179526
-2.596853
-1.259445
-0.435738
-0.354821
-1.118614
-2.624611
-4.533888
-6.309964
-7.392707
-7.463062
-6.609887
-5.269833
-3.968553
-2.989120
-2.201274
-1.257370
-0.005964
1.316006
2.307436
2.748687
2.707019
2.421857
2.180268
2.207590
2.523603
2.889733
2.995427
2.751797
2.364556
2.100107
2.052461
2.169600
2.367046
2.454631
2.024357
0.665911
-1.582938
-4.110200
-6.153957
-7.313280
-7.651235
-7.466620
-7.083679
-6.756569
-6.590724
-6.514907
-6.416280
-6.327048
-6.392009
-6.619204
-6.768709
-6.587156
-6.118323
-5.707102
-5.697336
-6.146969
-6.797859
-7.261103
-7.226316
-6.560486
-5.321589
-3.752684
-2.218121
-1.065896
-0.530942
-0.715003
-1.513878
-2.501544
-3.036589
-2.683639
-1.573103
-0.286898
0.617123
0.951066
0.869981
0.663970
0.572078
0.632802
0.654155
0.427447
0.018444
-0.231331
-0.049772
0.481888
1.041786
1.386573
1.490419
1.455843
1.417794
1.502463
1.703332
1.715676
1.029342
-0.631619
-2.949876
-5.185975
-6.701216
-7.270691
-6.989886
-6.070362
-4.797326
-3.545074
-2.623266
-2.046031
-1.553773
-0.950787
-0.388579
-0.246531
-0.745535
-1.725120
-2.768217
-3.474996
-3.632351
-3.237601
-2.482426
-1.736720
-1.433004
-1.800447
-2.652392
-3.510268
-4.005391
-4.142250
-4.160523
-4.211555
-4.220725
-4.010820
-3.477726
-2.640975
-1.599868
-0.517514
0.372786
0.864307
0.974155
1.015515
1.374504
2.158630
3.066443
3.611061
3.472972
2.658644
1.399597
-0.009546
-1.289796
-2.212733
-2.658463
-2.675416
-2.463981
-2.247038
-2.113438
-1.983816
-1.726678
-1.302122
-0.826198
-0.510623
-0.466556
-0.510463
-0.233498
0.631008
1.901558
3.057646
3.652349
3.602414
3.134804
2.548618
2.042964
1.674307
1.380634
1.037873
0.524904
-0.228390
-1.199188
-2.251584
-3.205094
-3.968593
-4.591642
-5.166208
-5.680638
-5.954877
-5.733041
-4.911505
-3.688439
-2.393495
-1.116335
0.423456
2.556561
5.231507
7.972773
10.293446
12.100582
13.649924
15.136052
16.401884
17.060387
16.828129
15.702763
13.901242
11.746395
9.617078
7.883788
6.762894
6.197256
5.927060
5.723716
5.561696
5.584472
5.950654
6.696541
7.655593
8.483793
8.847403
8.639181
7.974603
6.969478
5.600344
3.833524
1.839320
0.013900
-1.229822
-1.711089
-1.549559
-1.016645
-0.372737
0.117781
0.085311
-0.874752
-2.905862
-5.640904
-8.308414
-10.168035
-10.920024
-10.778912
-10.216769
-9.630309
-9.196288
-8.967900
-9.011023
-9.369146
-9.916139
-10.340850
-10.346988
-9.880848
-9.158181
-8.467395
-7.947906
-7.545165
-7.139135
-6.683332
-6.232503
-5.889110
-5.763442
-5.939151
-6.362403
-6.723475
-6.542927
-5.481967
-3.598147
-1.307797
0.886042
2.654661
3.902644
4.642938
4.871236
4.573048
3.813369
2.778401
1.738547
0.989862
0.768203
1.111522
1.776440
2.344839
2.479763
2.129093
1.523679
1.005345
0.831100
1.068607
1.609276
2.241394
2.722901
2.876571
2.721532
2.507447
2.518801
2.796050
3.094260
3.144589
2.917652
2.623451
2.537760
2.890583
3.843559
5.420859
7.403456
9.356719
10.823143
11.502757
11.294456
10.258993
8.602066
6.660648
4.801849
3.247149
2.003088
1.001146
0.261124
-0.150314
-0.294883
-0.409009
-0.744193
-1.387574
-2.226715
-3.033709
-3.588197
-3.801576
-3.777994
-3.728238
-3.777429
-3.852286
-3.756139
-3.317247
-2.459019
-1.205892
0.295874
1.771104
2.903590
3.491064
3.540601
3.236274
2.833725
2.578398
2.678828
3.253340
4.182257
5.013516
5.152017
4.255075
2.464347
0.277882
-1.763569
-3.310161
-4.259124
-4.699637
-4.842921
-4.947785
-5.205727
-5.643575
-6.160360
-6.680061
-7.236021
-7.871594
-8.491678
-8.865855
-8.776482
-8.158697
-7.128299
-5.883785
-4.555105
-3.132122
-1.545670
0.168498
1.761660
2.815894
2.957377
2.127692
0.663909
-0.943912
-2.394056
-3.680236
-4.923283
-6.146895
-7.187838
-7.787598
-7.778521
-7.195526
-6.240705
-5.188632
-4.297937
-3.713249
-3.410595
-3.285787
-3.315512
-3.578864
-4.097355
-4.711419
-5.176982
-5.391679
-5.510128
-5.829249
-6.541398
-7.564044
-8.595660
-9.355813
-9.782759
-9.988877
-10.040750
-9.829608
-9.156647
-7.893096
-6.063178
-3.855627
-1.603707
0.298922
1.566493
2.164225
2.283578
2.168688
1.947380
1.598016
1.059981
0.355498
-0.401259
-1.071950
-1.523799
-1.605647
-1.183365
-0.298794
0.704532
1.311439
1.161047
0.253273
-1.117323
-2.553996
-3.705563
-4.333458
-4.319580
-3.640346
-2.343745
-0.543863
1.584104
3.785875
5.677142
6.787123
6.800772
5.824799
4.369932
3.007646
2.014222
1.325231
0.777943
0.321139
-0.019234
-0.285244
-0.615453
-1.145730
-1.924655
-2.907100
-3.983714
-5.021124
-5.916354
-6.635987
-7.187733
-7.525872
-7.496292
-6.921676
-5.759187
-4.153625
-2.333733
-0.496933
1.186834
2.514219
3.274161
3.368167
2.866402
1.904705
0.568058
-1.052966
-2.707386
-3.990514
-4.578803
-4.443816
-3.802354
-2.876358
-1.749154
-0.436772
1.005788
2.510663
4.077939
5.767907
7.604234
9.486353
11.178680
12.360869
12.685392
11.844280
9.712297
6.543016
3.013058
-0.036072
-2.002022
-2.766167
-2.658699
-2.244108
-2.045587
-2.284893
-2.768931
-3.042219
-2.707207
-1.652900
-0.056727
1.763903
3.520392
5.057527
6.347166
7.400737
8.200738
8.703449
8.883507
8.776647
8.499641
8.247797
8.247377
8.625013
9.266207
9.836649
9.994214
9.594184
8.736675
7.691608
6.753668
6.057705
5.484700
4.791993
3.877774
2.912642
2.203735
1.938871
2.054301
2.315552
2.494072
2.469246
2.215946
1.776107
1.277018
0.916319
0.837559
0.999255
1.207010
1.294251
1.245632
1.130245
0.967808
0.725150
0.413531
0.101613
-0.187833
-0.550023
-1.128568
-1.960459
-2.914862
-3.805923
-4.517000
-4.978867
-5.100460
-4.803633
-4.096384
-3.048388
-1.726014
-0.220771
1.279615
2.528957
3.369310
3.838164
4.121264
4.374060
4.583336
4.637254
4.506431
4.275385
4.006711
3.664166
3.194051
2.634269
2.116297
1.773376
1.646221
1.659837
1.703689
1.757909
1.924696
2.315895
2.933392
3.676799
4.430322
5.085870
5.490425
5.481511
5.077458
4.591065
4.426539
4.717977
5.207885
5.483570
5.297776
4.674369
3.765918
2.651962
1.277890
-0.426083
-2.383057
-4.333857
-5.973183
-7.140155
-7.892028
-8.408517
-8.838865
-9.234096
-9.583543
-9.868104
-10.069692
-10.150765
-10.052896
-9.739937
-9.241964
-8.648319
-8.073977
-7.631426
-7.380590
-7.260144
-7.077916
-6.613912
-5.783410
-4.713868
-3.633648
-2.661141
-1.696814
-0.526173
0.947451
2.547654
3.903005
4.698964
4.869657
4.561696
3.946066
3.089218
1.989185
0.692633
-0.674103
-2.005256
-3.286466
-4.503136
-5.506886
-6.048188
-5.983951
-5.453520
-4.816592
-4.365722
-4.074368
-3.654594
-2.897863
-1.952887
-1.246151
-1.133514
-1.631413
-2.449247
-3.230326
-3.736779
-3.832504
-3.387895
-2.314770
-0.710624
1.123931
2.869822
4.356438
5.541115
6.402841
6.900113
6.976289
6.549508
5.522216
3.846160
1.590940
-1.032160
-3.684141
-5.967789
-7.578151
-8.452294
-8.780957
-8.857140
-8.879726
-8.851311
-8.630792
-8.094930
-7.262435
-6.261223
-5.203960
-4.132561
-3.067227
-2.052975
-1.121350
-0.216914
0.799897
2.063169
3.632941
5.499275
7.588053
9.726443
11.640649
13.030919
13.636787
13.229180
11.614713
8.741775
4.845768
0.473925
-3.694939
-7.135587
-9.642853
-11.252754
-12.041135
-12.022843
-11.209044
-9.701610
-7.727660
-5.622639
-3.764683
-2.442177
-1.736588
-1.546679
-1.717550
-2.108125
-2.557641
-2.873917
-2.898370
-2.566976
-1.920251
-1.108221
-0.397118
-0.091249
-0.344636
-1.023972
-1.804023
-2.430570
-2.874288
-3.214611
-3.417309
-3.284027
-2.611210
-1.350232
0.390541
2.445146
4.639755
6.775068
8.672401
10.302068
11.800138
13.275817
14.616516
15.528131
15.763872
15.297851
14.298382
12.980493
11.505170
9.983656
8.499139
7.062238
5.565729
3.863261
1.940736
0.002944
-1.617121
-2.634983
-2.931881
-2.554576
-1.645592
-0.379300
1.071841
2.568254
4.044248
5.522126
7.074893
8.761169
10.547609
12.245131
13.549746
14.226682
14.289964
13.969353
13.461927
12.714446
11.478142
9.595656
7.215885
4.720312
2.484979
0.736810
-0.436997
-1.056868
-1.266243
-1.314639
-1.442158
-1.751989
-2.205011
-2.729100
-3.295601
-3.878135
-4.398784
-4.783038
-5.044609
-5.250130
-5.410688
-5.476846
-5.438750
-5.351757
-5.239065
-5.025903
-4.600672
-3.908787
-2.962630
-1.808527
-0.565858
0.495221
1.017688
0.822084
0.142176
-0.448663
-0.375203
0.647502
2.535367
4.902355
7.217369
9.059401
10.360220
11.407475
12.535117
13.738650
14.556634
14.325911
12.606095
9.463599
5.427394
1.175826
-2.773091
-6.144432
-8.836831
-10.897169
-12.496137
-13.767375
-14.636021
-14.849653
-14.192145
-12.696682
-10.694706
-8.665105
-7.002592
-5.871941
-5.228952
-4.951539
-4.941663
-5.112845
-5.315172
-5.331469
-5.003811
-4.367358
-3.613495
-2.897872
-2.210070
-1.437777
-0.500462
0.624152
1.952496
3.493876
5.192376
6.902969
8.422020
9.527190
10.015632
9.765920
8.823999
7.450822
6.039404
4.905455
4.119833
3.551489
3.070372
2.690715
2.525602
2.631600
2.916223
3.202131
3.374573
3.460241
3.586435
3.889582
4.437345
5.178631
5.935216
6.472986
6.645244
6.491208
6.193246
5.962105
5.971297
6.326559
6.981740
7.654084
7.896911
7.331236
5.854579
3.682887
1.234151
-1.047583
-2.824920
-3.906672
-4.220060
-3.774615
-2.662132
-1.099431
0.545078
1.823863
2.366245
2.006637
0.826652
-0.873610
-2.670290
-4.155792
-5.048251
-5.219147
-4.683183
-3.603295
-2.276372
-1.061368
-0.285637
-0.169206
-0.766948
-1.937681
-3.373658
-4.694372
-5.557678
-5.753262
-5.275114
-4.339929
-3.301790
-2.479746
-2.012147
-1.871189
-2.026217
-2.568188
-3.647286
-5.301322
-7.371072
-9.570940
-11.617432
-13.318120
-14.603516
-15.506316
-16.092703
-16.396248
-16.424316
-16.212536
-15.821516
-15.257785
-14.433007
-13.246995
-11.720212
-10.020490
-8.352812
-6.848822
-5.550490
-4.424410
-3.368719
-2.290275
-1.232347
-0.375980
0.138529
0.377976
0.593312
1.049212
1.861084
2.955280
4.172598
5.413941
6.689469
8.054360
9.531418
11.078921
12.576705
13.841305
14.729668
15.272068
15.671198
16.148022
16.792505
17.528816
18.172718
18.523209
18.433933
17.817379
16.602781
14.730413
12.212705
9.203848
6.007444
2.998053
0.496905
-1.312289
-2.380021
-2.751644
-2.566927
-2.072397
-1.556308
-1.221603
-1.122850
-1.212032
-1.411625
-1.662828
-1.964751
-2.387285
-3.017391
-3.877343
-4.908875
-6.035012
-7.208533
-8.388823
-9.494184
-10.400184
-10.983512
-11.164372
-10.933743
-10.380589
-9.708369
-9.203779
-9.143453
-9.672024
-10.709315
-11.955785
-13.033995
-13.684568
-13.862006
-13.666947
-13.195399
-12.434253
-11.269892
-9.586513
-7.380499
-4.820991
-2.225673
0.045662
1.739497
2.808575
3.381058
3.617028
3.577832
3.222579
2.514109
1.515416
0.395750
-0.639406
-1.447756
-2.028365
-2.519605
-3.109866
-3.935828
-5.042477
-6.400832
-7.933662
-9.527964
-11.046454
-12.343575
-13.280648
-13.741508
-13.654603
-13.028592
-11.995929
-10.815400
-9.773194
-9.013403
-8.440813
-7.800863
-6.863027
-5.545532
-3.927863
-2.222986
-0.752554
0.127389
0.178125
-0.589731
-1.927047
-3.490780
-4.988403
-6.220154
-7.052898
-7.415972
-7.330752
-6.907981
-6.285297
-5.569914
-4.838040
-4.143416
-3.492861
-2.838276
-2.125121
-1.344807
-0.528911
0.296938
1.135354
1.985412
2.801234
3.516493
4.126838
4.719827
5.401151
6.218846
7.174331
8.260492
9.448402
10.655712
11.766506
12.693077
13.417705
13.995809
14.532787
15.134303
15.855732
16.700890
17.669725
18.791853
20.100220
21.574541
23.107405
24.511623
25.581112
26.187798
26.323769
26.041132
25.373108
24.325626
22.916006
21.185371
19.170265
16.872280
14.260930
11.322886
8.134268
4.886090
1.813495
-0.901304
-3.137002
-4.775233
-5.703283
-5.902780
-5.508852
-4.741639
-3.755693
-2.553802
-1.057159
0.739658
2.685000
4.517762
5.972014
6.852149
7.073098
6.695130
5.927548
5.053146
4.300324
3.763818
3.437327
3.290443
3.276446
3.273431
3.069885
2.460651
1.385824
-0.008040
-1.437070
-2.625933
-3.416510
-3.785270
-3.819118
-3.688562
-3.591344
-3.670448
-3.972623
-4.467320
-5.073259
-5.677309
-6.176693
-6.523564
-6.723536
-6.799940
-6.769569
-6.640992
-6.411701
-6.064367
-5.592027
-5.037091
-4.492607
-4.063823
-3.827973
-3.808742
-3.965435
-4.202976
-4.396350
-4.408632
-4.109897
-3.423621
-2.384765
-1.152792
0.055332
1.069921
1.814508
2.258445
2.354205
2.046243
1.338856
0.337188
-0.785873
-1.865676
-2.815373
-3.656217
-4.480366
-5.351583
-6.219510
-6.929348
-7.314109
-7.291498
-6.921083
-6.402177
-5.977755
-5.772211
-5.713475
-5.660637
-5.626873
-5.837328
-6.523462
-7.651747
-8.860821
-9.666991
-9.743889
-9.030579
-7.622787
-5.644021
-3.267017
-0.798303
1.375621
2.990082
4.049207
4.768193
5.367013
5.903443
6.295312
6.478821
6.502839
6.472514
6.446411
6.404513
6.290203
6.056870
5.668454
5.083173
4.300585
3.459313
2.839726
2.701176
3.102104
3.893887
4.885688
5.991812
7.209070
8.486240
9.661431
10.524084
10.910317
10.751627
10.095128
9.125464
8.146539
7.478661
7.316603
7.644066
8.248484
8.806663
8.998228
8.622561
7.680311
6.371302
5.008278
3.885984
3.154609
2.761076
2.507919
2.203055
1.783392
1.311632
0.883399
0.565857
0.413716
0.500491
0.903278
1.643794
2.627573
3.630708
4.359027
4.553077
4.073796
2.917758
1.176238
-1.002933
-3.421000
-5.829634
-7.971862
-9.658133
-10.825699
-11.545497
-11.976777
-12.290193
-12.594930
-12.896348
-13.089124
-12.999094
-12.493288
-11.616473
-10.631100
-9.882124
-9.585117
-9.728464
-10.156549
-10.713378
-11.289039
-11.758670
-11.954100
-11.759319
-11.232940
-10.595242
-10.069848
-9.736647
-9.523135
-9.308134
-9.022788
-8.663664
-8.234760
-7.706651
-7.039155
-6.226469
-5.306114
-4.322634
-3.291626
-2.214635
-1.126007
-0.103695
0.767176
1.433111
1.893444
2.208010
2.486630
2.853254
3.387890
4.073389
4.791316
5.381792
5.719044
5.743528
5.461974
4.957146
4.388936
3.939450
3.711714
3.653045
3.567368
3.220389
2.477795
1.385181
0.133913
-1.057568
-2.055130
-2.829736
-3.387228
-3.697080
-3.699126
-3.367967
-2.757810
-1.983145
-1.160398
-0.371616
0.334092
0.935935
1.441176
1.863000
2.181279
2.330578
2.236439
1.865574
1.236728
0.381979
-0.687944
-1.968735
-3.421181
-4.952380
-6.435659
-7.748831
-8.804268
-9.558020
-9.999974
-10.139632
-9.997438
-9.597576
-8.963003
-8.124179
-7.132802
-6.046835
-4.889733
-3.639680
-2.273339
-0.816669
0.643968
1.980641
3.047616
3.710469
3.885039
3.573821
2.881995
2.003875
1.173297
0.581172
0.301780
0.283836
0.415401
0.611414
0.857081
1.185809
1.626017
2.165873
2.763777
3.387847
4.035802
4.713832
5.406759
6.075618
6.677630
7.183898
7.587153
7.908411
8.200702
8.524721
8.885544
9.183849
9.258796
9.003783
8.433671
7.641136
6.719887
5.746144
4.800420
3.959111
3.255714
2.674263
2.195563
1.845933
1.695496
1.813332
2.232491
2.942842
3.876599
4.885057
5.757700
6.298594
6.405045
6.086608
5.416967
4.463712
3.256334
1.819949
0.229256
-1.389884
-2.912661
-4.255470
-5.370199
-6.225962
-6.812107
-7.153483
-7.314721
-7.387220
-7.470065
-7.647366
-7.950695
-8.325223
-8.639918
-8.733058
-8.441701
-7.605419
-6.104856
-3.975035
-1.503772
0.827114
2.554229
3.436572
3.513578
3.020651
2.256359
1.485866
0.908112
0.660257
0.815666
1.362250
2.180584
3.044424
3.667272
3.798390
3.315888
2.257821
0.796379
-0.801255
-2.220186
-3.184442
-3.569078
-3.463644
-3.127622
-2.857082
-2.857984
-3.209202
-3.901988
-4.887102
-6.093250
-7.424822
-8.760885
-9.969902
-10.937638
-11.593790
-11.923393
-11.960517
-11.767017
-11.399037
-10.873030
-10.150850
-9.163656
-7.861218
-6.236655
-4.319667
-2.180269
0.052702
2.195471
4.043238
5.404835
6.131424
6.156945
5.536027
4.434427
3.062783
1.611193
0.236480
-0.926721
-1.788855
-2.356531
-2.751056
-3.154309
-3.702729
-4.399739
-5.116119
-5.677824
-5.964488
-5.947998
-5.667556
-5.182835
-4.544538
-3.788090
-2.928219
-1.952925
-0.851803
0.318963
1.410341
2.259377
2.811611
3.145082
3.359798
3.457314
3.342093
2.935752
2.284673
1.570503
1.030420
0.848453
1.079053
1.648671
2.438711
3.379568
4.468337
5.700668
6.989917
8.153421
8.982195
9.337604
9.203614
8.674003
7.902299
7.051009
6.263112
5.645378
5.239467
5.003016
4.842911
4.674620
4.446366
4.135029
3.759994
3.407627
3.219708
3.330988
3.791513
4.530603
5.391302
6.206998
6.865768
7.331055
7.625111
7.805259
7.958891
8.205744
8.664865
9.382448
10.282476
11.192444
11.925588
12.352625
12.411790
12.076811
11.346952
10.273184
8.966182
7.556351
6.149779
4.819711
3.606455
2.499314
1.438051
0.371990
-0.667048
-1.563967
-2.204644
-2.555482
-2.655644
-2.554810
-2.289694
-1.917652
-1.540490
-1.276908
-1.214086
-1.370175
-1.672473
-1.971385
-2.108018
-2.007912
-1.741094
-1.499420
-1.491985
-1.823058
-2.438884
-3.170404
-3.821772
-4.248200
-4.403078
-4.342595
-4.181122
-4.030629
-3.964180
-3.998568
-4.088587
-4.147068
-4.077939
-3.794295
-3.227338
-2.351007
-1.219059
0.025136
1.193246
2.132905
2.801696
3.285576
3.737057
4.267739
4.871739
5.433688
5.804681
5.881347
5.638117
5.117415
