EVENT_NAME: L_AQUILA
EVENT_ID: IT-2009-0009
EVENT_DATE_YYYYMMDD: 20090406
EVENT_TIME_HHMMSS: 013240
EVENT_LATITUDE_DEGREE: 42.3420
EVENT_LONGITUDE_DEGREE: 13.3800
EVENT_DEPTH_KM: 8.3
HYPOCENTER_REFERENCE: INGV-CNT_Seismic_Bulletin
MAGNITUDE_W: 6.1
MAGNITUDE_W_REFERENCE: INGV-CNT_Seismic_Bulletin
MAGNITUDE_L: 
MAGNITUDE_L_REFERENCE: 
FOCAL_MECHANISM: Normal faulting
NETWORK: IT
STATION_CODE: FMG
STATION_NAME: 
STATION_LATITUDE_DEGREE: 42.268028
STATION_LONGITUDE_DEGREE: 13.117220
STATION_ELEVATION_M: 1071
LOCATION: 
SENSOR_DEPTH_M: 0.0
VS30_M/S: 790
SITE_CLASSIFICATION_EC8: B
MORPHOLOGIC_CLASSIFICATION: 
EPICENTRAL_DISTANCE_KM: 23.2
EARTHQUAKE_BACKAZIMUTH_DEGREE: 249.3
DATE_TIME_FIRST_SAMPLE_YYYYMMDD_HHMMSS: 20090406_013215.000
DATE_TIME_FIRST_SAMPLE_PRECISION: seconds
SAMPLING_INTERVAL_S: 0.005000
NDATA: 23800
DURATION_S: 119.000
STREAM: HNN
UNITS: cm/s^2
INSTRUMENT: sensor = FBA-3 [Kinemetrics] | digitizer = Etna [Kinemetrics]
INSTRUMENT_ANALOG/DIGITAL: D
INSTRUMENTAL_FREQUENCY_HZ: 210.000
INSTRUMENTAL_DAMPING: 0.700000
FULL_SCALE_G: 1.0
N_BIT_DIGITAL_CONVERTER: 18
PGA_CM/S^2: 26.352140
TIME_PGA_S: 41.660000
BASELINE_CORRECTION: BASELINE NOT REMOVED
FILTER_TYPE: 
FILTER_ORDER: 
LOW_CUT_FREQUENCY_HZ: 
HIGH_CUT_FREQUENCY_HZ: 
LATE/NORMAL_TRIGGERED: NT
DATABASE_VERSION: 0.5
HEADER_FORMAT: DYNA 1.2
DATA_TYPE: ACCELERATION
PROCESSING: converted to cm/s^2
DATA_TIMESTAMP_YYYYMMDD_HHMMSS: 20211011_155838.393
DATA_LICENSE: CC-BY3_0-IT (http://creativecommons.org/licenses/by/3.0/deed.en)
DATA_CITATION: Luzi L, Pacor F, Puglia R (2019). Italian Accelerometric Archive v 3.0 - Istituto Nazionale di Geofisica e Vulcanologia, Dipartimento della Protezione Civile Nazionale. doi: 10.13127/itaca.3.1
DATA_CREATOR: ITACA working group
ORIGINAL_DATA_MEDIATOR_CITATION: data obtained within the DPC-INGV data exchange agreements
ORIGINAL_DATA_MEDIATOR: Archive of Italian Department of Civil Protection
ORIGINAL_DATA_CREATOR_CITATION: Presidency Of Counsil Of Ministers-Civil Protection Department. (1972). Italian Strong Motion Network. Presidency of Counsil of Ministers - Civil Protection Department. https://doi.org/10.7914/SN/IT http://www.fdsn.org/networks/detail/IT/
ORIGINAL_DATA_CREATOR: network: IT (Italian Strong Motion Network (RAN)); owner: Presidency of Counsil of Ministers - Civil Protection Department (PCM - DPC)
USER1: 
USER2: 
USER3: 
USER4: 
USER5: 
[...]
13.478210
16.862169
19.779690
21.798981
22.794950
22.833521
22.107830
20.780340
18.766661
15.899400
12.236760
8.028216
3.725451
-0.349364
-4.202074
-7.715079
-10.424300
-11.931570
-12.300740
-11.837350
-10.742260
-9.099380
-7.179922
-5.369179
-3.875930
-2.551714
-1.054958
0.639355
2.173753
3.097944
3.341092
3.156861
2.652097
1.648181
-0.010361
-2.014219
-3.785217
-4.817657
-4.917019
-4.310087
-3.504663
-2.932566
-2.470354
-1.511793
0.332616
2.770398
5.149029
6.905766
7.842115
8.070533
7.909916
7.869937
8.244243
8.981399
9.640233
9.415791
7.775250
4.979762
1.851817
-0.948581
-3.256139
-5.066882
-6.172499
-6.353924
-5.651136
-4.420672
-3.124746
-1.944782
-0.757103
0.622522
2.165804
3.635206
4.879697
5.898343
6.684128
7.367277
8.249854
9.368797
10.345590
10.804070
10.601600
9.672029
8.066325
6.007525
3.719606
1.215193
-1.559955
-4.435635
-7.065363
-8.994874
-9.915092
-9.956240
-9.397937
-8.273149
-6.439260
-3.846705
-0.874468
1.738894
3.299008
3.466874
2.382064
0.306899
-2.309970
-4.701694
-6.159407
-6.286357
-5.149645
-3.379115
-2.013284
-1.919298
-3.208912
-5.069454
-6.435986
-6.902174
-6.888380
-7.033801
-7.344514
-7.388000
-6.954310
-5.961382
-4.286474
-1.885632
0.966201
3.569977
5.342144
6.412926
7.413101
8.685414
9.850182
10.272880
9.783550
8.756254
7.513165
6.134709
4.943056
4.429174
4.712300
5.465588
6.297197
7.116649
7.742518
7.616035
6.247633
3.597565
0.236526
-3.054140
-5.570711
-6.834139
-6.742492
-5.593856
-4.086579
-2.590524
-1.228434
-0.363626
-0.272446
-1.035085
-2.525763
-4.466262
-6.347378
-7.486428
-7.521731
-6.609229
-5.177467
-3.773995
-2.857986
-2.256665
-1.393727
-0.032104
1.452261
2.439812
2.789569
2.743044
2.463191
2.158790
2.134007
2.507144
3.009103
3.158498
2.792608
2.287611
2.076494
2.133774
2.202977
2.273116
2.409184
2.211861
0.941185
-1.516002
-4.259588
-6.278876
-7.304535
-7.602624
-7.438967
-7.029124
-6.654351
-6.530674
-6.567379
-6.472926
-6.245443
-6.233520
-6.574627
-6.878093
-6.683342
-6.080852
-5.574217
-5.573984
-6.095814
-6.813332
-7.294482
-7.228786
-6.582809
-5.355619
-3.711805
-2.144911
-1.030877
-0.498993
-0.590874
-1.364736
-2.529971
-3.232759
-2.829229
-1.512027
-0.103412
0.724691
0.969006
0.892321
0.639122
0.483414
0.623691
0.784776
0.586050
0.014421
-0.385135
-0.116037
0.569217
1.153003
1.416958
1.485694
1.498786
1.435428
1.412983
1.593473
1.778639
1.291644
-0.452702
-3.019772
-5.335279
-6.761897
-7.230422
-6.967402
-6.123636
-4.795446
-3.416289
-2.479939
-2.049990
-1.700934
-1.039294
-0.297462
-0.084007
-0.660078
-1.743484
-2.819877
-3.504663
-3.650551
-3.271336
-2.521321
-1.685737
-1.266075
-1.663761
-2.689420
-3.665280
-4.073253
-4.061329
-4.052913
-4.175655
-4.252106
-4.044262
-3.468425
-2.628399
-1.624950
-0.530789
0.446708
1.000803
1.029559
0.921312
1.235065
2.104783
3.152419
3.746025
3.525088
2.657241
1.405034
-0.003815
-1.298572
-2.250118
-2.700408
-2.681470
-2.403020
-2.166888
-2.098386
-2.010713
-1.757512
-1.339954
-0.812512
-0.393318
-0.342818
-0.536167
-0.407813
0.507495
1.961233
3.207361
3.753039
3.599669
3.095373
2.530290
2.015239
1.664079
1.398956
1.052939
0.547708
-0.183604
-1.158062
-2.282382
-3.263854
-3.968279
-4.550896
-5.105458
-5.627523
-5.977280
-5.854304
-4.987626
-3.580413
-2.216686
-1.072960
0.272531
2.379025
5.239975
8.151426
10.445190
12.063290
13.492480
15.057030
16.469151
17.173349
16.873850
15.705580
13.924060
11.770340
9.593708
7.794888
6.688103
6.225890
6.019215
5.782614
5.553495
5.560275
5.911669
6.624277
7.645260
8.581375
8.949368
8.625563
7.882094
6.958837
5.692603
3.920903
1.855791
-0.060627
-1.333875
-1.741614
-1.499402
-0.989262
-0.429322
0.065388
0.144645
-0.698187
-2.751609
-5.655110
-8.458781
-10.324930
-10.979330
-10.725420
-10.118960
-9.591285
-9.237319
-8.988328
-8.941802
-9.280104
-9.914390
-10.424060
-10.442300
-9.897556
-9.083950
-8.393786
-7.932743
-7.580413
-7.174078
-6.680302
-6.220661
-5.900128
-5.749798
-5.842147
-6.266718
-6.764468
-6.680536
-5.588245
-3.609403
-1.230772
0.973682
2.675711
3.871807
4.628601
4.902609
4.622523
3.827385
2.782321
1.755026
0.945159
0.675827
1.051536
1.804356
2.450566
2.568399
2.154114
1.496682
0.948666
0.787581
1.059251
1.607501
2.240618
2.774138
2.980112
2.759409
2.411288
2.396793
2.797284
3.212270
3.228870
2.909740
2.594817
2.546422
2.890101
3.764728
5.342144
7.411932
9.425610
10.878880
11.527190
11.326130
10.301640
8.639123
6.621003
4.706221
3.232377
2.076026
1.048263
0.208003
-0.228024
-0.289279
-0.333934
-0.682289
-1.361463
-2.216218
-3.060219
-3.647979
-3.844134
-3.741030
-3.635121
-3.734951
-3.876397
-3.780775
-3.318796
-2.475263
-1.247839
0.277674
1.814409
2.979411
3.543324
3.557820
3.228168
2.829314
2.595987
2.643213
3.130676
4.107472
5.111155
5.334897
4.358802
2.458281
0.218056
-1.824845
-3.337500
-4.268705
-4.715722
-4.823969
-4.876339
-5.143567
-5.649499
-6.217154
-6.687082
-7.155374
-7.807662
-8.496189
-8.899953
-8.823736
-8.177994
-7.088509
-5.814793
-4.516528
-3.157010
-1.601337
0.120564
1.759467
2.916753
3.122493
2.191521
0.579270
-1.044437
-2.406294
-3.622730
-4.848050
-6.088800
-7.207744
-7.853720
-7.798544
-7.186235
-6.233286
-5.153854
-4.218206
-3.656630
-3.446682
-3.336331
-3.280454
-3.479413
-4.039119
-4.752194
-5.255555
-5.428329
-5.460125
-5.717534
-6.445338
-7.554696
-8.674107
-9.412432
-9.734836
-9.883295
-9.997387
-9.853603
-9.173026
-7.910298
-6.080852
-3.869384
-1.570476
0.411405
1.654961
2.186845
2.261192
2.123253
1.956557
1.664079
1.111621
0.370257
-0.396825
-1.039995
-1.473919
-1.615365
-1.277531
-0.362457
0.789686
1.469796
1.251197
0.282116
-1.112705
-2.562235
-3.711572
-4.330661
-4.299333
-3.633250
-2.337558
-0.513021
1.571730
3.742752
5.721126
6.952992
6.976840
5.861871
4.273467
2.905531
2.028332
1.437532
0.836912
0.300820
-0.036079
-0.247663
-0.548558
-1.101951
-1.883060
-2.865935
-3.965240
-5.012876
-5.912753
-6.593330
-7.100666
-7.474972
-7.512145
-6.966000
-5.746524
-4.081202
-2.289630
-0.488940
1.190878
2.576348
3.385045
3.415438
2.848953
1.908863
0.668814
-0.931280
-2.698304
-4.069045
-4.635530
-4.385837
-3.683984
-2.824553
-1.761721
-0.409216
1.081929
2.571672
4.105835
5.761105
7.603410
9.505100
11.214140
12.394810
12.733810
11.981690
9.900681
6.645552
2.963513
-0.146430
-2.075240
-2.775690
-2.612501
-2.128779
-1.864123
-2.153795
-2.763533
-3.103237
-2.743894
-1.636406
-0.002880
1.850882
3.611125
5.097828
6.368271
7.437650
8.243775
8.767476
8.946329
8.835979
8.568984
8.284455
8.213615
8.576466
9.317830
9.964741
10.098000
9.678342
8.806052
7.696227
6.702832
6.047738
5.588330
4.951940
3.972338
2.910908
2.161361
1.935515
2.124422
2.410120
2.565360
2.513924
2.286208
1.871222
1.322037
0.894426
0.823118
1.069071
1.330687
1.382356
1.250028
1.143184
1.059017
0.814702
0.445071
0.105134
-0.163263
-0.464859
-0.991599
-1.892646
-2.921110
-3.766981
-4.425816
-4.912110
-5.096340
-4.773469
-4.006621
-2.986105
-1.717299
-0.201138
1.366926
2.650929
3.477862
3.894251
4.096250
4.373999
4.704117
4.759293
4.534382
4.279779
4.059076
3.768937
3.286617
2.689271
2.150139
1.791731
1.685121
1.753389
1.828437
1.818384
1.932242
2.342786
3.002322
3.769171
4.465178
5.102738
5.593708
5.676237
5.202101
4.537655
4.339163
4.738953
5.351964
5.645143
5.393579
4.698973
3.763793
2.709143
1.394747
-0.293721
-2.294540
-4.323881
-5.983125
-7.109550
-7.800882
-8.297697
-8.765053
-9.173493
-9.520445
-9.797258
-9.984996
-10.086000
-10.014220
-9.690414
-9.167648
-8.587369
-8.005920
-7.523601
-7.267829
-7.171740
-7.045724
-6.629101
-5.754707
-4.598123
-3.484089
-2.542129
-1.662357
-0.556974
0.944458
2.639005
4.071467
4.842056
4.926456
4.580440
3.987769
3.183280
2.112966
0.757655
-0.666390
-1.940808
-3.148125
-4.376251
-5.458255
-6.076643
-5.998556
-5.364503
-4.619164
-4.177292
-4.028831
-3.725833
-2.934437
-1.840510
-1.045372
-0.960037
-1.552708
-2.446273
-3.189507
-3.633017
-3.729808
-3.376310
-2.337792
-0.623138
1.275746
2.985723
4.411873
5.603527
6.493351
6.962578
7.034587
6.635732
5.637661
3.954102
1.694239
-0.917019
-3.622963
-5.964655
-7.581348
-8.400801
-8.660546
-8.717125
-8.747051
-8.776509
-8.616827
-8.056420
-7.158881
-6.143508
-5.123694
-4.075123
-2.993821
-1.938703
-0.998613
-0.146430
0.845095
2.134241
3.714930
5.557236
7.621646
9.804591
11.755380
13.111160
13.701960
13.327420
11.775250
8.924353
4.975319
0.507729
-3.729340
-7.124513
-9.538915
-11.123580
-11.953080
-11.975760
-11.153040
-9.638278
-7.672295
-5.525120
-3.607065
-2.294072
-1.662124
-1.494259
-1.617703
-1.995048
-2.487420
-2.824553
-2.831100
-2.497707
-1.870669
-1.061738
-0.278524
0.102562
-0.185708
-0.972428
-1.823442
-2.391097
-2.721917
-3.050633
-3.337032
-3.262218
-2.576263
-1.261399
0.499779
2.511353
4.698740
6.912078
8.848837
10.381600
11.786710
13.290240
14.725510
15.701140
15.909220
15.379900
14.351200
13.052240
11.605750
10.062230
8.532746
7.117351
5.700084
4.032891
2.066441
0.068428
-1.583803
-2.591927
-2.857285
-2.466847
-1.555279
-0.290214
1.178487
2.690908
4.140905
5.605865
7.151718
8.800442
10.579150
12.340570
13.730250
14.402640
14.364300
13.954690
13.458340
12.833410
11.693890
9.760638
7.272590
4.746434
2.548292
0.820313
-0.378355
-1.016148
-1.180272
-1.170920
-1.300911
-1.662591
-2.156834
-2.647804
-3.163088
-3.781009
-4.361522
-4.726944
-4.918189
-5.115979
-5.355152
-5.436278
-5.328967
-5.215108
-5.136553
-4.972429
-4.540609
-3.805324
-2.874819
-1.776683
-0.541778
0.614807
1.255873
1.037742
0.206834
-0.467665
-0.373211
0.668814
2.570971
5.002674
7.419881
9.281358
10.473010
11.373590
12.456060
13.760170
14.711250
14.569340
12.837850
9.578979
5.431921
1.173811
-2.690588
-6.070331
-8.830750
-10.803750
-12.311260
-13.620040
-14.555690
-14.838350
-14.206400
-12.650490
-10.574860
-8.505307
-6.850505
-5.780191
-5.170687
-4.881015
-4.833788
-4.982950
-5.235916
-5.321017
-4.986924
-4.260522
-3.448786
-2.777093
-2.164550
-1.382972
-0.393318
0.719079
2.011265
3.547299
5.268966
6.984321
8.503287
9.623634
10.132840
9.915176
8.962929
7.515036
6.029034
4.913364
4.220629
3.702773
3.190995
2.751694
2.548059
2.678750
3.030378
3.339455
3.479732
3.539818
3.653208
3.940542
4.486921
5.226416
6.039087
6.630355
6.764787
6.565360
6.251140
6.047971
6.035580
6.318239
6.996946
7.756312
8.065857
7.500774
5.982275
3.764027
1.272005
-1.005627
-2.767741
-3.839691
-4.145730
-3.719755
-2.630503
-1.060569
0.652448
1.964038
2.494754
2.144061
0.939081
-0.801991
-2.636582
-4.118375
-4.983885
-5.176766
-4.648623
-3.538330
-2.185825
-0.962141
-0.173083
-0.042625
-0.642777
-1.843315
-3.315289
-4.640907
-5.528627
-5.743251
-5.238955
-4.260289
-3.158412
-2.335921
-1.945717
-1.860148
-1.988736
-2.447675
-3.499987
-5.198041
-7.308276
-9.521614
-11.573400
-13.274030
-14.539790
-15.409740
-15.995400
-16.344219
-16.374620
-16.118610
-15.702920
-15.167300
-14.407000
-13.235450
-11.653360
-9.902467
-8.260991
-6.779431
-5.445163
-4.331129
-3.351761
-2.292903
-1.146606
-0.218673
0.269257
0.445305
0.617846
1.054575
1.902550
3.062641
4.288663
5.491773
6.738602
8.112148
9.591371
11.114080
12.637020
13.977830
14.870700
15.334080
15.688980
16.173401
16.834110
17.593241
18.264000
18.616800
18.494049
17.870760
16.686819
14.835860
12.324670
9.296321
6.057323
3.019156
0.529472
-1.251346
-2.322595
-2.724021
-2.527867
-1.970967
-1.432070
-1.137721
-1.061270
-1.144735
-1.359359
-1.627522
-1.912752
-2.294773
-2.915733
-3.815844
-4.866519
-5.975644
-7.124513
-8.304009
-9.435811
-10.347610
-10.930700
-11.121240
-10.899840
-10.347380
-9.646461
-9.107563
-9.026202
-9.535642
-10.615780
-11.940930
-13.042100
-13.666800
-13.786270
-13.560890
-13.099620
-12.365500
-11.243050
-9.570945
-7.359944
-4.779548
-2.135091
0.170596
1.858363
2.873735
3.394163
3.635440
3.641752
3.323791
2.604403
1.584121
0.445539
-0.624073
-1.434407
-1.980553
-2.435986
-3.020707
-3.864474
-4.976871
-6.333350
-7.867747
-9.469244
-10.988440
-12.287180
-13.231470
-13.694160
-13.624720
-13.014510
-11.960560
-10.718650
-9.628224
-8.903226
-8.405477
-7.798077
-6.842088
-5.508053
-3.902349
-2.194943
-0.672703
0.263413
0.306899
-0.516528
-1.905505
-3.468425
-4.935256
-6.170161
-7.021409
-7.394546
-7.281857
-6.825723
-6.225103
-5.524419
-4.769495
-4.062264
-3.436395
-2.809824
-2.085293
-1.285480
-0.459715
0.355528
1.164927
2.018045
2.875372
3.616736
4.183455
4.731471
5.443611
6.285274
7.224429
8.290067
9.480317
10.723640
11.839310
12.756260
13.487570
14.049140
14.562790
15.163410
15.908510
16.770750
17.727440
18.821369
20.127350
21.606100
23.133720
24.587690
25.681150
26.246700
26.352140
26.071119
25.434259
24.384520
22.959070
21.222210
19.201050
16.918739
14.328760
11.414970
8.202627
4.896297
1.831477
-0.836359
-3.071207
-4.752661
-5.714261
-5.889140
-5.437448
-4.634361
-3.672996
-2.543064
-1.070155
0.755084
2.735328
4.585817
6.030904
6.926807
7.164811
6.761281
5.954220
5.043120
4.309471
3.823411
3.487915
3.310465
3.274928
3.306724
3.160836
2.560684
1.474238
0.022136
-1.443525
-2.614371
-3.393377
-3.768150
-3.796907
-3.626471
-3.516353
-3.618755
-3.931573
-4.410619
-5.032982
-5.666099
-6.152159
-6.486720
-6.678198
-6.760494
-6.736881
-6.590525
-6.370290
-6.049991
-5.573282
-4.999783
-4.449195
-4.016207
-3.776333
-3.756928
-3.926897
-4.169810
-4.352872
-4.382096
-4.105984
-3.427043
-2.375199
-1.096573
0.128981
1.113024
1.828437
2.275454
2.405444
2.115070
1.388435
0.363945
-0.774170
-1.866227
-2.812162
-3.619924
-4.405008
-5.282675
-6.191670
-6.923683
-7.315757
-7.305236
-6.919007
-6.339195
-5.864825
-5.705142
-5.750499
-5.729691
-5.614664
-5.710754
-6.380343
-7.586492
-8.895277
-9.743485
-9.748161
-8.970325
-7.590233
-5.675684
-3.295183
-0.730684
1.496448
3.079241
4.073338
4.721184
5.329051
5.951882
6.374817
6.517432
6.499196
6.467166
6.463192
6.436773
6.324551
6.065272
5.679276
5.150899
4.392468
3.480901
2.782555
2.649993
3.115713
3.975612
4.947264
5.980171
7.182813
8.492299
9.704761
10.567930
10.943640
10.805700
10.155750
9.156278
8.126878
7.435078
7.285449
7.636609
8.267155
8.846967
9.076086
8.693130
7.721944
6.389546
4.981164
3.844453
3.120857
2.780217
2.578919
2.260724
1.797343
1.300995
0.897933
0.595168
0.434317
0.505157
0.886009
1.617554
2.618665
3.652740
4.408834
4.605455
4.099757
2.935223
1.195788
-0.973831
-3.396650
-5.839108
-7.994231
-9.680127
-10.839050
-11.534820
-11.945840
-12.253510
-12.556980
-12.859270
-13.077870
-13.038360
-12.564930
-11.641900
-10.570190
-9.792115
-9.536811
-9.740680
-10.183720
-10.694800
-11.241640
-11.754590
-12.009430
-11.817250
-11.220140
-10.528340
-10.015390
-9.719872
-9.544526
-9.330136
-9.012175
-8.635297
-8.224051
-7.716014
-7.048997
-6.225103
-5.283376
-4.303541
-3.305002
-2.230480
-1.116680
-0.090553
0.781503
1.454833
1.909330
2.219810
2.482362
2.828145
3.359328
4.061414
4.814702
5.406438
5.725568
5.763209
5.491305
4.973683
4.371193
3.892147
3.670977
3.638947
3.598734
3.280539
2.521640
1.392410
0.101159
-1.095872
-2.061914
-2.802109
-3.369529
-3.710403
-3.722794
-3.391273
-2.749973
-1.964888
-1.158997
-0.367600
0.343604
0.943055
1.427245
1.841296
2.177494
2.341618
2.258621
1.866078
1.215193
0.377739
-0.679717
-1.951562
-3.413483
-4.959103
-6.444870
-7.765813
-8.811812
-9.562060
-10.004630
-10.142570
-9.998089
-9.595727
-8.976404
-8.137313
-7.121240
-6.027546
-4.892237
-3.664111
-2.293838
-0.826306
0.633510
1.976196
3.053524
3.726386
3.907110
3.589148
2.893842
1.991393
1.130325
0.540460
0.278376
0.294507
0.438292
0.618781
0.850239
1.163290
1.608670
2.166505
2.774372
3.385279
4.017929
4.700143
5.401528
6.074858
6.675711
7.182112
7.590552
7.912955
8.183924
8.479207
8.845798
9.199296
9.303334
9.015532
8.411640
7.620244
6.724575
5.746843
4.775424
3.930489
3.248509
2.686699
2.206717
1.836854
1.669223
1.802953
2.220044
2.907402
3.844920
4.878762
5.780276
6.324551
6.411289
6.072052
5.386097
4.446709
3.271421
1.832646
0.216186
-1.418743
-2.929527
-4.259588
-5.383675
-6.242638
-6.833204
-7.169168
-7.321836
-7.398287
-7.471699
-7.627874
-7.935081
-8.334637
-8.654469
-8.740504
-8.440311
-7.640265
-6.201490
-4.054316
-1.506182
0.891153
2.624276
3.470146
3.509190
2.991334
2.226123
1.464652
0.890919
0.629536
0.780334
1.326479
2.143126
3.041600
3.696226
3.829256
3.332909
2.261192
0.805584
-0.812278
-2.272563
-3.255438
-3.633250
-3.481517
-3.100665
-2.828995
-2.854946
-3.218264
-3.911233
-4.895744
-6.094646
-7.434291
-8.775106
-9.993179
-10.965300
-11.613140
-11.946770
-11.968280
-11.767920
-11.396420
-10.865000
-10.176240
-9.193833
-7.872190
-6.254561
-4.347728
-2.213880
0.038736
2.189417
4.031255
5.408542
6.148270
6.179832
5.531986
4.401586
3.038327
1.602357
0.221797
-0.967285
-1.837470
-2.391097
-2.753246
-3.124512
-3.670892
-4.403138
-5.153854
-5.718936
-5.995049
-5.961382
-5.673580
-5.193365
-4.558144
-3.790127
-2.930696
-1.985930
-0.906030
0.286792
1.440104
2.301171
2.800557
3.086489
3.300879
3.452144
3.371018
2.962811
2.285039
1.538765
0.981398
0.788984
1.053173
1.660572
2.452904
3.367277
4.422628
5.651923
6.962578
8.162648
9.003141
9.346821
9.201868
8.654553
7.877652
7.033184
6.236644
5.598383
5.204906
5.002206
4.840186
4.656189
4.435954
4.141139
3.764261
3.392760
3.180708
3.275162
3.751402
4.515444
5.393111
6.212563
6.861111
7.318882
7.608788
7.801902
7.953402
8.168026
8.607794
9.336066
10.263060
11.198240
11.932130
12.334020
12.388500
12.073340
11.353020
10.259790
8.929730
7.531168
6.132839
4.788050
3.564834
2.476751
1.452495
0.387792
-0.684860
-1.619339
-2.251054
-2.562703
-2.660663
-2.579770
-2.333116
-1.941509
-1.545928
-1.287350
-1.207860
-1.364503
-1.686205
-2.013284
-2.172733
-2.066122
-1.771306
-1.484907
-1.461294
-1.815260
-2.458430
-3.206107
-3.865877
-4.301437
-4.441012
-4.352638
-4.192722
-4.044262
-3.963369
-4.008258
-4.115102
-4.170512
-4.101308
-3.819585
-3.269231
-2.404891
-1.252281
0.009044
1.200931
2.152711
2.798921
3.251081
3.672145
4.210809
4.842290
5.427011
5.807630
5.867482
5.624101
5.104608
4.389429
