EVENT_NAME: L_AQUILA
EVENT_ID: IT-2009-0009
EVENT_DATE_YYYYMMDD: 20090406
EVENT_TIME_HHMMSS: 013240
EVENT_LATITUDE_DEGREE: 42.3420
EVENT_LONGITUDE_DEGREE: 13.3800
EVENT_DEPTH_KM: 8.3
HYPOCENTER_REFERENCE: INGV-CNT_Seismic_Bulletin
MAGNITUDE_W: 6.1
MAGNITUDE_W_REFERENCE: INGV-CNT_Seismic_Bulletin
MAGNITUDE_L: 
MAGNITUDE_L_REFERENCE: 
FOCAL_MECHANISM: Normal faulting
NETWORK: IT
STATION_CODE: FMG
STATION_NAME: 
STATION_LATITUDE_DEGREE: 42.268028
STATION_LONGITUDE_DEGREE: 13.117220
STATION_ELEVATION_M: 1071
LOCATION: 
SENSOR_DEPTH_M: 0.0
VS30_M/S: 790
SITE_CLASSIFICATION_EC8: B
MORPHOLOGIC_CLASSIFICATION: 
EPICENTRAL_DISTANCE_KM: 23.2
EARTHQUAKE_BACKAZIMUTH_DEGREE: 249.3
DATE_TIME_FIRST_SAMPLE_YYYYMMDD_HHMMSS: 20090406_013215.000
DATE_TIME_FIRST_SAMPLE_PRECISION: seconds
SAMPLING_INTERVAL_S: 0.005000
NDATA: 23800
DURATION_S: 119.000
STREAM: HNE
UNITS: cm/s
INSTRUMENT: sensor = FBA-3 [Kinemetrics] | digitizer = Etna [Kinemetrics]
INSTRUMENT_ANALOG/DIGITAL: D
INSTRUMENTAL_FREQUENCY_HZ: 204.000
INSTRUMENTAL_DAMPING: 0.700000
FULL_SCALE_G: 1.0
N_BIT_DIGITAL_CONVERTER: 18
PGV_CM/S: 2.581606
TIME_PGV_S: 39.375000
BASELINE_CORRECTION: BASELINE REMOVED
FILTER_TYPE: BUTTERWORTH
FILTER_ORDER: 2
LOW_CUT_FREQUENCY_HZ: 0.100
HIGH_CUT_FREQUENCY_HZ: 40.000
LATE/NORMAL_TRIGGERED: NT
DATABASE_VERSION: 0.5
HEADER_FORMAT: DYNA 1.2
DATA_TYPE: VELOCITY
PROCESSING: manual (Paolucci et al., 2011)
DATA_TIMESTAMP_YYYYMMDD_HHMMSS: 20211011_155838.223
DATA_LICENSE: CC-BY3_0-IT (http://creativecommons.org/licenses/by/3.0/deed.en)
DATA_CITATION: Luzi L, Pacor F, Puglia R (2019). Italian Accelerometric Archive v 3.0 - Istituto Nazionale di Geofisica e Vulcanologia, Dipartimento della Protezione Civile Nazionale. doi: 10.13127/itaca.3.1
DATA_CREATOR: ITACA working group
ORIGINAL_DATA_MEDIATOR_CITATION: data obtained within the DPC-INGV data exchange agreements
ORIGINAL_DATA_MEDIATOR: Archive of Italian Department of Civil Protection
ORIGINAL_DATA_CREATOR_CITATION: Presidency Of Counsil Of Ministers-Civil Protection Department. (1972). Italian Strong Motion Network. Presidency of Counsil of Ministers - Civil Protection Department. https://doi.org/10.7914/SN/IT http://www.fdsn.org/networks/detail/IT/
ORIGINAL_DATA_CREATOR: network: IT (Italian Strong Motion Network (RAN)); owner: Presidency of Counsil of Ministers - Civil Protection Department (PCM - DPC)
USER1: 
USER2: 
USER3: 
USER4: 
USER5: 
[...]
-0.024898
-0.018852
-0.015475
-0.013512
-0.012291
-0.011620
-0.011595
-0.012395
-0.013902
-0.015330
-0.015413
-0.013210
-0.008723
-0.002618
0.004605
0.013106
0.023540
0.036601
0.052610
0.071219
0.091364
0.111645
0.130908
0.148545
0.164318
0.178043
0.189411
0.197862
0.202491
0.202316
0.196943
0.186981
0.173733
0.158450
0.141792
0.123863
0.104859
0.085863
0.068956
0.056255
0.048681
0.045544
0.045211
0.046160
0.047606
0.049515
0.052243
0.056048
0.060742
0.065681
0.070000
0.072889
0.073753
0.072245
0.068244
0.061869
0.053560
0.044119
0.034549
0.025807
0.018632
0.013396
0.009865
0.007224
0.004574
0.001388
-0.002591
-0.007646
-0.014104
-0.022201
-0.032034
-0.043481
-0.056105
-0.069290
-0.082573
-0.095797
-0.109028
-0.122437
-0.136223
-0.150521
-0.165354
-0.180666
-0.196359
-0.212237
-0.227836
-0.242212
-0.253952
-0.261618
-0.264420
-0.262636
-0.257514
-0.250857
-0.244684
-0.241107
-0.242150
-0.249288
-0.262926
-0.282103
-0.304527
-0.327072
-0.346767
-0.361817
-0.371991
-0.378355
-0.382782
-0.387457
-0.394302
-0.404406
-0.417700
-0.433075
-0.448963
-0.464035
-0.477585
-0.489424
-0.499532
-0.507831
-0.514174
-0.518384
-0.520235
-0.519588
-0.516856
-0.513374
-0.511030
-0.511393
-0.515167
-0.522094
-0.530974
-0.539919
-0.547151
-0.551790
-0.553952
-0.554337
-0.553837
-0.553218
-0.552737
-0.551973
-0.550163
-0.546850
-0.542213
-0.536813
-0.531098
-0.525187
-0.519120
-0.513245
-0.508275
-0.504928
-0.503433
-0.503212
-0.502898
-0.500779
-0.495596
-0.487219
-0.476660
-0.465381
-0.454513
-0.444627
-0.435979
-0.428724
-0.422904
-0.418340
-0.414512
-0.410520
-0.405337
-0.398319
-0.389544
-0.379546
-0.368758
-0.357394
-0.345875
-0.335132
-0.326306
-0.320054
-0.316123
-0.313569
-0.311315
-0.308373
-0.303644
-0.295798
-0.283580
-0.266320
-0.244395
-0.219464
-0.194198
-0.171317
-0.152427
-0.137506
-0.125356
-0.114494
-0.103816
-0.092888
-0.081966
-0.071792
-0.063217
-0.056891
-0.053220
-0.052480
-0.054806
-0.059849
-0.066341
-0.072217
-0.075500
-0.075277
-0.071919
-0.066593
-0.060707
-0.055577
-0.052103
-0.050464
-0.050078
-0.050071
-0.050003
-0.050221
-0.051441
-0.054053
-0.057886
-0.062555
-0.067843
-0.073679
-0.079903
-0.086229
-0.092575
-0.099508
-0.108383
-0.120841
-0.137918
-0.159506
-0.184485
-0.211160
-0.237634
-0.262114
-0.283123
-0.299472
-0.310203
-0.314809
-0.313640
-0.308030
-0.299944
-0.291385
-0.283936
-0.278495
-0.275180
-0.273428
-0.272270
-0.270598
-0.267476
-0.262560
-0.256292
-0.249482
-0.242589
-0.235457
-0.227803
-0.219798
-0.212049
-0.205068
-0.198846
-0.193029
-0.187586
-0.183298
-0.181359
-0.182219
-0.184765
-0.186701
-0.185772
-0.180848
-0.172205
-0.160950
-0.148034
-0.133567
-0.116899
-0.097375
-0.075228
-0.051972
-0.029812
-0.010401
0.006132
0.021091
0.036243
0.052838
0.071328
0.091711
0.113875
0.137518
0.161845
0.185498
0.206678
0.223169
0.232392
0.231912
0.220340
0.198027
0.167029
0.130290
0.090519
0.049493
0.008142
-0.032971
-0.073403
-0.112917
-0.151512
-0.189257
-0.226229
-0.262766
-0.299671
-0.337817
-0.377230
-0.416560
-0.453542
-0.486061
-0.513021
-0.534668
-0.552351
-0.567819
-0.582380
-0.596501
-0.610014
-0.622511
-0.633597
-0.643158
-0.651739
-0.660667
-0.671471
-0.684951
-0.700775
-0.717901
-0.735248
-0.752019
-0.767598
-0.781175
-0.791400
-0.796376
-0.794201
-0.783923
-0.766419
-0.744440
-0.721519
-0.700340
-0.681617
-0.664288
-0.646759
-0.628114
-0.608447
-0.588380
-0.568294
-0.547744
-0.525456
-0.500200
-0.472032
-0.442626
-0.413969
-0.386561
-0.358903
-0.328586
-0.293706
-0.253554
-0.208665
-0.160523
-0.110965
-0.061474
-0.012843
0.034568
0.080309
0.123683
0.164061
0.201194
0.235202
0.266294
0.294344
0.318545
0.337634
0.350698
0.357737
0.359523
0.357269
0.352764
0.348438
0.346532
0.347642
0.350101
0.351064
0.348418
0.341970
0.333239
0.324350
0.316787
0.310637
0.304768
0.297790
0.288891
0.277781
0.264085
0.247204
0.226860
0.203487
0.177836
0.150304
0.120813
0.089252
0.055808
0.020852
-0.015211
-0.051789
-0.088054
-0.123423
-0.158160
-0.193400
-0.230562
-0.270517
-0.312899
-0.355985
-0.397305
-0.434326
-0.464499
-0.485193
-0.494417
-0.492003
-0.480107
-0.462597
-0.443786
-0.427036
-0.413671
-0.402758
-0.391959
-0.378828
-0.361532
-0.338771
-0.309725
-0.274570
-0.235051
-0.194429
-0.156837
-0.126363
-0.105964
-0.096526
-0.096681
-0.103664
-0.114665
-0.127800
-0.142360
-0.158585
-0.177095
-0.197974
-0.219998
-0.240819
-0.258237
-0.271568
-0.281928
-0.291361
-0.301795
-0.314709
-0.331254
-0.352167
-0.377361
-0.405544
-0.434058
-0.458999
-0.475703
-0.479799
-0.468749
-0.443015
-0.405884
-0.362147
-0.316593
-0.272936
-0.233259
-0.197990
-0.166333
-0.136821
-0.107754
-0.077477
-0.044578
-0.007978
0.033158
0.079703
0.132699
0.192982
0.260502
0.334027
0.411498
0.490505
0.568305
0.641742
0.707747
0.764251
0.810599
0.847003
0.873542
0.889561
0.894066
0.886952
0.870070
0.847078
0.822157
0.798645
0.778507
0.762887
0.753295
0.752326
0.763002
0.787220
0.824632
0.872678
0.927436
0.984623
1.040238
1.090915
1.134166
1.168381
1.192285
1.204019
1.200680
1.179122
1.137922
1.079197
1.008807
0.934783
0.865115
0.806004
0.760950
0.730707
0.714080
0.709398
0.715724
0.732775
0.759558
0.792990
0.827726
0.857430
0.876839
0.883411
0.877325
0.859870
0.831851
0.793362
0.744540
0.686147
0.619631
0.547160
0.471770
0.397029
0.325958
0.259926
0.198457
0.140157
0.084209
0.031559
-0.014916
-0.051361
-0.074505
-0.083056
-0.078165
-0.062690
-0.039891
-0.012467
0.017845
0.050255
0.084384
0.119518
0.154408
0.187607
0.217592
0.242589
0.260822
0.271430
0.275270
0.274811
0.273187
0.273027
0.275544
0.280061
0.284284
0.285584
0.282651
0.276239
0.268419
0.261038
0.254509
0.247645
0.238639
0.226589
0.212313
0.197651
0.183854
0.170419
0.155087
0.134675
0.106309
0.068899
0.024417
-0.021880
-0.062913
-0.092527
-0.108224
-0.112402
-0.111269
-0.111867
-0.118699
-0.131860
-0.147695
-0.161426
-0.169851
-0.172243
-0.169020
-0.159625
-0.141640
-0.112040
-0.069792
-0.017864
0.037136
0.087659
0.128408
0.158031
0.178802
0.195014
0.211006
0.229579
0.251349
0.275160
0.299019
0.320940
0.339531
0.354620
0.367831
0.382456
0.402369
0.430707
0.469259
0.518697
0.578885
0.648762
0.725992
0.806649
0.885089
0.954564
1.009161
1.046525
1.069531
1.085371
1.102368
1.126357
1.158547
1.195702
1.232271
1.263244
1.286379
1.302840
1.315968
1.328906
1.342473
1.354466
1.360695
1.357214
1.342525
1.318478
1.289369
1.260014
1.233754
1.210954
1.188642
1.161912
1.126352
1.079823
1.022862
0.958280
0.890388
0.823655
0.761125
0.703664
0.650442
0.599883
0.550467
0.501461
0.453351
0.407371
0.364251
0.323375
0.283164
0.242217
0.200277
0.158523
0.119014
0.083353
0.051369
0.020998
-0.010362
-0.044135
-0.079824
-0.115573
-0.149483
-0.180800
-0.210156
-0.238650
-0.266611
-0.293329
-0.317984
-0.340673
-0.362591
-0.385421
-0.410424
-0.437733
-0.466219
-0.494023
-0.519429
-0.541452
-0.559825
-0.574695
-0.586414
-0.595436
-0.602336
-0.607941
-0.613368
-0.619730
-0.627805
-0.638064
-0.650965
-0.667120
-0.687144
-0.711432
-0.740180
-0.773683
-0.812434
-0.856714
-0.906000
-0.958780
-1.012909
-1.066227
-1.117043
-1.164165
-1.206578
-1.243111
-1.272395
-1.293182
-1.304808
-1.307364
-1.301479
-1.288098
-1.268560
-1.244784
-1.219169
-1.194172
-1.171748
-1.152897
-1.137586
-1.125198
-1.115127
-1.107047
-1.100808
-1.096314
-1.093605
-1.092927
-1.094448
-1.097645
-1.100740
-1.100642
-1.093654
-1.076784
-1.049125
-1.012625
-0.971686
-0.931630
-0.896817
-0.869309
-0.848583
-0.832234
-0.817385
-0.802258
-0.786990
-0.773124
-0.762201
-0.754640
-0.749679
-0.746297
-0.744310
-0.744596
-0.748025
-0.753998
-0.760063
-0.763069
-0.760892
-0.753631
-0.743890
-0.736001
-0.734148
-0.740199
-0.752715
-0.767798
-0.780956
-0.788660
-0.789007
-0.781533
-0.766528
-0.744507
-0.716311
-0.683457
-0.648058
-0.612261
-0.577726
-0.545301
-0.514887
-0.485738
-0.457162
-0.429057
-0.401883
-0.376455
-0.354034
-0.336570
-0.326656
-0.327099
-0.340272
-0.367362
-0.407728
-0.458817
-0.516819
-0.577687
-0.637934
-0.695016
-0.747451
-0.794737
-0.836980
-0.874282
-0.906324
-0.932661
-0.953581
-0.970614
-0.985785
-0.999980
-1.011892
-1.018717
-1.018183
-1.010224
-0.997112
-0.982256
-0.968764
-0.958663
-0.952853
-0.951407
-0.953887
-0.959618
-0.967881
-0.977934
-0.988891
-0.999601
-1.008690
-1.014782
-1.016698
-1.013442
-1.004192
-0.988636
-0.967543
-0.943127
-0.918824
-0.898398
-0.884712
-0.878921
-0.880532
-0.887907
-0.898554
-0.909214
-0.916195
-0.916058
-0.906407
-0.886509
-0.857450
-0.821640
-0.781997
-0.741436
-0.702685
-0.667841
-0.637566
-0.610667
-0.584680
-0.557003
-0.525633
-0.489213
-0.447004
-0.399278
-0.347782
-0.295420
-0.245038
-0.198335
-0.155705
-0.116738
-0.080692
-0.046922
-0.015422
0.012989
0.037481
0.058503
0.078171
0.099244
0.123641
0.151669
0.182187
0.213285
0.243187
0.271061
0.297221
0.322493
0.347235
0.370885
0.392377
0.410858
0.426080
0.438418
0.448849
0.458839
0.469949
0.483271
0.499106
0.517087
0.536465
0.556209
0.574890
0.590840
0.602878
0.611049
0.616638
0.621456
0.627068
0.634406
0.643629
0.654049
0.664195
0.672211
0.676546
0.676674
0.673425
0.668513
0.663311
0.657461
0.648279
0.631525
0.603264
0.561832
0.508774
0.448218
0.385196
0.324053
0.267707
0.217746
0.174954
0.139845
0.112919
0.094457
0.083930
0.079429
0.077598
0.074196
0.065097
0.047323
0.019739
-0.016665
-0.058928
-0.102812
-0.143963
-0.179168
-0.207245
-0.229219
-0.247556
-0.264727
-0.281867
-0.298314
-0.312197
-0.321614
-0.325717
-0.325280
-0.322601
-0.320735
-0.322290
-0.328361
-0.338250
-0.349981
-0.361101
-0.369403
-0.373663
-0.374080
-0.371827
-0.367875
-0.362327
-0.355075
-0.347014
-0.340480
-0.338519
-0.343599
-0.356430
-0.375393
-0.396909
-0.416583
-0.430381
-0.435293
-0.429581
-0.412973
-0.386823
-0.353958
-0.317937
-0.281897
-0.247525
-0.214841
-0.182924
-0.150870
-0.118142
-0.084271
-0.048767
-0.011710
0.025597
0.060708
0.090851
0.113915
0.129096
0.136866
0.138248
0.134141
0.125612
0.115080
0.107113
0.107785
0.122845
0.155778
0.206603
0.271670
0.344428
0.417006
0.482062
0.534313
0.571584
0.595200
0.609164
0.618119
0.625310
0.631934
0.637904
0.642864
0.646631
0.649166
0.650467
0.650389
0.648355
0.643277
0.634101
0.620701
0.604342
0.587179
0.571236
0.557614
0.546257
0.536163
0.525766
0.513224
0.496576
0.473956
0.443915
0.405673
0.359287
0.305842
0.247464
0.186807
0.126084
0.066424
0.008151
-0.048482
-0.103084
-0.155690
-0.207246
-0.259221
-0.312583
-0.367108
-0.421619
-0.474824
-0.525905
-0.574223
-0.618480
-0.656416
-0.685669
-0.705158
-0.715815
-0.720282
-0.722126
-0.725048
-0.732140
-0.745290
-0.764873
-0.789552
-0.816035
-0.839261
-0.853624
-0.854824
-0.841108
-0.813237
-0.773704
-0.726000
-0.674019
-0.621457
-0.571377
-0.526194
-0.487775
-0.457223
-0.434639
-0.419422
-0.411045
-0.409627
-0.415825
-0.430100
-0.451747
-0.478215
-0.505403
-0.528957
-0.545655
-0.553871
-0.553281
-0.544655
-0.529995
-0.512603
-0.496726
-0.486683
-0.485645
-0.494530
-0.511542
-0.532527
-0.551911
-0.564026
-0.564471
-0.550932
-0.523181
-0.482510
-0.431036
-0.371204
-0.305708
-0.237668
-0.170582
-0.107762
-0.051350
-0.001501
0.043492
0.085998
0.127644
0.168719
0.208606
0.246683
0.283119
0.319310
0.357877
0.402168
0.455292
0.519084
0.593547
0.677020
0.766861
0.860242
0.954820
1.049025
1.141573
1.230499
1.312567
1.383568
1.439456
1.477878
1.499193
1.506267
1.503286
1.494447
1.483104
1.471443
1.460603
1.451149
1.443613
1.438670
1.436860
1.438183
1.441911
1.446824
1.451794
1.456309
1.460628
1.465519
1.471602
1.478539
1.484698
1.487763
1.485856
1.478183
1.464714
1.445382
1.419502
1.385797
1.343091
1.291370
1.232532
1.170110
1.107947
1.048810
0.993818
0.942571
0.893442
0.844074
0.792332
0.737454
0.680511
0.623634
0.568632
0.516195
0.466172
0.418254
0.372364
0.328680
0.287422
0.248490
0.211174
0.174178
0.136057
0.095903
0.054079
0.012835
-0.023524
-0.049395
-0.059588
-0.051327
-0.025601
0.012753
0.056332
0.097259
0.129200
0.148672
0.155314
0.151078
0.138740
0.120577
0.097868
0.071309
0.041923
0.011866
-0.015503
-0.036609
-0.049322
-0.054107
-0.053481
-0.049928
-0.043857
-0.033131
-0.014191
0.016418
0.061073
0.120696
0.194613
0.280579
0.375191
0.474627
0.575338
0.674525
0.770351
0.861741
0.947697
1.026668
1.096641
1.156096
1.205159
1.246001
1.282026
1.316469
1.351368
1.387310
1.423662
1.459250
1.493532
1.527711
1.564804
1.608502
1.661625
1.725056
1.797354
1.875054
1.953746
2.029536
2.100051
2.164449
2.222743
2.275104
2.321511
2.361865
2.396450
2.426442
2.453922
2.481027
2.508532
2.534967
2.557267
2.572653
2.580295
2.581606
2.579367
2.576530
2.575117
2.575269
2.574910
2.570674
2.559691
2.540892
2.515112
2.484432
2.451402
2.418470
2.387695
2.360639
2.338133
2.319836
2.303967
2.287510
2.266733
2.237903
2.198345
2.147658
2.088259
2.024660
1.961864
1.903835
1.852586
1.807978
1.768308
1.731554
1.696652
1.663960
1.634649
1.609631
1.588768
1.570644
1.552848
1.532687
1.508047
1.477981
1.442674
1.402575
1.357028
1.303452
1.238076
1.157862
1.062239
0.953676
0.837279
0.719768
0.607877
0.506545
0.417785
0.340879
0.273720
0.214515
0.162846
0.119396
0.084733
0.058409
0.039097
0.025275
0.015677
0.009424
0.006069
0.005566
0.007907
0.012551
0.018052
0.022276
0.023131
0.019376
0.010984
-0.001116
-0.015576
-0.031044
-0.046379
-0.060802
-0.073777
-0.084466
-0.091160
-0.091283
-0.081979
-0.060751
-0.025918
0.023014
0.085071
0.157970
0.238749
0.324488
0.412793
0.502150
0.592206
0.683625
0.777149
0.872191
0.966077
1.054662
1.133979
1.201886
1.258747
1.306941
1.349640
1.389525
1.427922
1.464678
1.498801
1.529416
1.556346
1.580024
1.601204
1.620960
1.640881
1.663083
1.689922
1.723602
1.765723
1.816770
1.875802
1.940653
2.008474
2.076201
2.140744
2.198970
2.247803
2.284595
2.307618
2.316392
2.311667
2.294994
2.268057
2.232115
2.187988
2.136564
2.079325
2.018339
1.955761
1.893133
1.830871
1.768267
1.704029
1.637009
1.566710
1.493497
1.418634
1.344111
1.272134
1.204372
1.141313
1.082200
1.025584
0.970074
0.914778
0.859324
0.803671
0.747903
0.692009
0.635692
0.578290
0.519032
0.457613
0.394782
0.332464
0.273273
0.219623
0.172943
0.133470
0.100663
0.073883
0.052689
0.036489
0.023907
0.012352
-0.001964
-0.023526
-0.056550
-0.103670
-0.164611
-0.235425
-0.308992
-0.377008
-0.432728
-0.473120
-0.499329
-0.515451
-0.526656
-0.537742
-0.552417
-0.573025
-0.600579
-0.635076
-0.675633
-0.720061
-0.764449
-0.803695
-0.832945
-0.848975
-0.850929
-0.840369
-0.820841
-0.797043
-0.773762
-0.754763
-0.741882
-0.734718
-0.731158
-0.728555
-0.724943
-0.719726
-0.713496
-0.707205
-0.701359
-0.695892
-0.690710
-0.686398
-0.684519
-0.687254
-0.696344
-0.711741
-0.730725
-0.748064
-0.757267
-0.752529
-0.730766
-0.692882
-0.643623
-0.590167
-0.540432
-0.501723
-0.479569
-0.476644
-0.492365
-0.523576
-0.565690
-0.613573
-0.662129
-0.706907
-0.744738
-0.774138
-0.795361
-0.810084
-0.820792
-0.830002
-0.839497
-0.849663
-0.859064
-0.864583
-0.862409
-0.849528
-0.824943
-0.789972
-0.747597
-0.701300
-0.654002
-0.607613
-0.563208
-0.521450
-0.482955
-0.448498
-0.419065
-0.395777
-0.379834
-0.372512
-0.375084
-0.388440
-0.412539
-0.446075
-0.486604
-0.531083
-0.576634
-0.621346
-0.664741
-0.707459
-0.750266
-0.793149
-0.835174
-0.875083
-0.911969
-0.945406
-0.975066
-1.000357
-1.020443
-1.034465
-1.041687
-1.041638
-1.034502
-1.021602
-1.005506
-0.989396
-0.975935
-0.966374
-0.960608
-0.958166
-0.959253
-0.964867
-0.975932
-0.992285
-1.012381
-1.033804
-1.054028
-1.071045
-1.083870
-1.092943
-1.100066
-1.107799
-1.118782
-1.135308
-1.158936
-1.189964
-1.227024
-1.267176
-1.306527
-1.341117
-1.367757
-1.384577
-1.391116
-1.387961
-1.376137
-1.356541
-1.329751
-1.296171
-1.256046
-1.209104
-1.154340
-1.090624
-1.017869
-0.937709
-0.853207
-0.768076
-0.685958
-0.609890
-0.541892
-0.482607
-0.431125
-0.385194
-0.341878
-0.298384
-0.252604
-0.203304
-0.150193
-0.093926
-0.035995
0.021538
0.076366
0.126202
0.168876
0.202303
0.224562
0.234209
0.230604
0.214002
0.185475
0.146818
0.100333
0.048379
-0.007079
-0.064531
-0.122745
-0.180740
-0.238001
-0.294606
-0.351145
-0.408701
-0.468889
-0.533543
-0.603870
-0.679592
-0.758700
-0.837860
-0.913182
-0.981142
-1.039425
-1.087419
-1.126203
-1.158141
-1.186339
-1.214183
-1.244954
-1.281416
-1.325313
-1.376884
-1.434755
-1.496398
-1.558977
-1.620118
-1.678146
-1.731710
-1.779262
-1.819007
-1.849453
-1.870070
-1.881508
-1.885337
-1.883647
-1.878669
-1.872228
-1.865024
-1.856170
-1.843543
-1.824864
-1.798776
-1.765204
-1.725063
-1.679695
-1.630326
-1.577656
-1.521767
-1.462326
-1.398965
-1.331771
-1.261804
-1.191396
-1.123891
-1.062787
-1.010594
-0.968008
-0.933871
-0.905921
-0.881752
-0.859536
-0.838382
-0.818324
-0.799929
-0.783761
-0.770081
-0.758854
-0.749926
-0.743205
-0.738774
-0.736802
-0.737234
-0.739408
-0.741775
-0.741962
-0.737385
-0.726187
-0.707869
-0.683235
-0.653913
-0.621877
-0.589084
-0.557221
-0.527538
-0.500764
-0.477155
-0.456638
-0.439008
-0.424143
-0.412326
-0.404608
-0.402867
-0.409314
-0.425540
-0.451540
-0.485222
-0.522611
-0.558629
-0.588064
-0.606480
-0.610950
-0.600528
-0.576352
-0.541402
-0.500021
-0.457153
-0.417227
-0.383031
-0.355320
-0.333452
-0.316444
-0.303664
-0.294922
-0.290213
-0.289330
-0.291553
-0.295646
-0.300140
-0.303718
-0.305447
-0.304758
-0.301272
-0.294696
-0.284877
-0.271894
-0.256045
-0.237838
-0.218127
-0.198282
-0.180220
-0.166284
-0.158924
-0.160150
-0.171044
-0.191634
-0.221181
-0.258521
-0.302190
-0.350413
-0.401327
-0.453473
-0.506191
-0.559571
-0.614103
-0.670267
-0.728152
-0.787187
-0.846217
-0.903891
-0.959108
-1.011283
-1.060471
-1.107382
-1.153227
-1.199449
-1.247475
-1.298471
-1.352973
-1.410488
-1.469454
-1.527717
-1.583163
-1.634067
-1.679143
-1.717490
-1.748507
-1.771805
-1.787168
-1.794604
-1.794431
-1.787187
-1.773277
-1.752538
-1.724096
-1.686669
-1.639023
-1.580299
-1.510222
-1.429405
-1.339625
-1.243702
-1.144962
-1.046659
-0.951654
-0.862252
-0.780042
