EVENT_NAME: L_AQUILA
EVENT_ID: IT-2009-0009
EVENT_DATE_YYYYMMDD: 20090406
EVENT_TIME_HHMMSS: 013240
EVENT_LATITUDE_DEGREE: 42.3420
EVENT_LONGITUDE_DEGREE: 13.3800
EVENT_DEPTH_KM: 8.3
HYPOCENTER_REFERENCE: INGV-CNT_Seismic_Bulletin
MAGNITUDE_W: 6.1
MAGNITUDE_W_REFERENCE: INGV-CNT_Seismic_Bulletin
MAGNITUDE_L: 
MAGNITUDE_L_REFERENCE: 
FOCAL_MECHANISM: Normal faulting
NETWORK: IT
STATION_CODE: FMG
STATION_NAME: 
STATION_LATITUDE_DEGREE: 42.268028
STATION_LONGITUDE_DEGREE: 13.117220
STATION_ELEVATION_M: 1071
LOCATION: 
SENSOR_DEPTH_M: 0.0
VS30_M/S: 790
SITE_CLASSIFICATION_EC8: B
MORPHOLOGIC_CLASSIFICATION: 
EPICENTRAL_DISTANCE_KM: 23.2
EARTHQUAKE_BACKAZIMUTH_DEGREE: 249.3
DATE_TIME_FIRST_SAMPLE_YYYYMMDD_HHMMSS: 20090406_013215.000
DATE_TIME_FIRST_SAMPLE_PRECISION: seconds
SAMPLING_INTERVAL_S: 0.005000
NDATA: 23800
DURATION_S: 119.000
STREAM: HNE
UNITS: cm/s^2
INSTRUMENT: sensor = FBA-3 [Kinemetrics] | digitizer = Etna [Kinemetrics]
INSTRUMENT_ANALOG/DIGITAL: D
INSTRUMENTAL_FREQUENCY_HZ: 204.000
INSTRUMENTAL_DAMPING: 0.700000
FULL_SCALE_G: 1.0
N_BIT_DIGITAL_CONVERTER: 18
PGA_CM/S^2: -23.694719
TIME_PGA_S: 39.625000
BASELINE_CORRECTION: BASELINE NOT REMOVED
FILTER_TYPE: 
FILTER_ORDER: 
LOW_CUT_FREQUENCY_HZ: 
HIGH_CUT_FREQUENCY_HZ: 
LATE/NORMAL_TRIGGERED: NT
DATABASE_VERSION: 0.5
HEADER_FORMAT: DYNA 1.2
DATA_TYPE: ACCELERATION
PROCESSING: converted to cm/s^2
DATA_TIMESTAMP_YYYYMMDD_HHMMSS: 20211011_155837.811
DATA_LICENSE: CC-BY3_0-IT (http://creativecommons.org/licenses/by/3.0/deed.en)
DATA_CITATION: Luzi L, Pacor F, Puglia R (2019). Italian Accelerometric Archive v 3.0 - Istituto Nazionale di Geofisica e Vulcanologia, Dipartimento della Protezione Civile Nazionale. doi: 10.13127/itaca.3.1
DATA_CREATOR: ITACA working group
ORIGINAL_DATA_MEDIATOR_CITATION: data obtained within the DPC-INGV data exchange agreements
ORIGINAL_DATA_MEDIATOR: Archive of Italian Department of Civil Protection
ORIGINAL_DATA_CREATOR_CITATION: Presidency Of Counsil Of Ministers-Civil Protection Department. (1972). Italian Strong Motion Network. Presidency of Counsil of Ministers - Civil Protection Department. https://doi.org/10.7914/SN/IT http://www.fdsn.org/networks/detail/IT/
ORIGINAL_DATA_CREATOR: network: IT (Italian Strong Motion Network (RAN)); owner: Presidency of Counsil of Ministers - Civil Protection Department (PCM - DPC)
USER1: 
USER2: 
USER3: 
USER4: 
USER5: 
[...]
-0.792427
-1.253053
-1.666705
-1.906249
-1.905081
-1.736816
-1.447259
-1.065157
-0.649168
-0.462674
-0.556856
-0.664359
-0.767889
-0.979856
-1.294886
-1.610149
-1.925413
-2.287417
-2.548228
-2.629088
-2.624414
-2.627219
-2.637502
-2.654094
-2.738928
-2.852273
-2.952064
-3.045545
-3.113085
-3.144401
-3.087378
-2.881486
-2.383702
-1.533729
-0.533953
0.407163
1.070175
1.336595
1.251060
0.768700
-0.153019
-1.399117
-2.704574
-3.818864
-4.519735
-4.560633
-3.929171
-2.946456
-1.990381
-1.237863
-0.828183
-0.880766
-1.323164
-1.996224
-2.667182
-3.094155
-3.171978
-2.970527
-2.653627
-2.327614
-1.998328
-1.638895
-1.233422
-0.797335
-0.374101
0.104754
0.604174
0.809598
0.525884
-0.072626
-0.710164
-1.328305
-1.807393
-1.826090
-1.394209
-0.849450
-0.387656
-0.042011
0.165750
0.186783
0.107792
0.139575
0.373510
0.727335
1.007075
1.130937
1.162253
1.185857
1.246152
1.247788
1.063631
0.722193
0.347569
0.068296
0.057312
0.417213
1.073447
1.772448
2.216715
2.303652
2.178622
2.014096
1.786704
1.496914
1.217407
0.970384
0.807027
0.807962
1.048675
1.470973
1.864761
2.060369
2.150578
2.296174
2.377970
2.245928
1.856114
1.278637
0.784124
0.550189
0.539205
0.661665
0.967112
1.594835
2.482902
3.483378
4.438751
5.093115
5.194542
4.667545
3.786723
2.978817
2.462570
2.225830
2.189138
2.251069
2.268831
2.116457
1.769410
1.310888
0.788565
0.222305
-0.357508
-0.933349
-1.305636
-1.190421
-0.597053
0.161776
0.764260
1.123225
1.256903
1.116214
0.764727
0.374679
0.085824
0.028100
0.122748
0.083019
-0.167042
-0.490485
-0.737040
-0.852021
-0.958589
-1.099277
-1.196264
-1.223373
-1.224308
-1.292549
-1.629780
-2.386506
-3.373194
-4.279256
-4.926376
-5.273890
-5.248183
-4.809291
-4.107018
-3.212174
-2.106298
-0.862538
0.335417
1.238674
1.707246
1.792780
1.577308
1.161319
0.715649
0.417914
0.311813
0.379119
0.673116
1.089572
1.396656
1.468403
1.405770
1.453446
1.621010
1.727110
1.665880
1.465131
1.279572
1.197075
1.180716
1.038859
0.542243
-0.125910
-0.514790
-0.361715
0.261100
1.100556
1.883924
2.383345
2.654439
2.936283
3.364424
3.953820
4.548123
4.828565
4.587151
3.961064
3.321657
3.013638
3.115064
3.446921
3.819675
4.155504
4.485491
4.817815
4.987482
4.812907
4.303671
3.417708
1.995867
0.045160
-2.225018
-4.414335
-6.174810
-7.304057
-7.833391
-8.063821
-8.161741
-8.151926
-7.998384
-7.780574
-7.613477
-7.469050
-7.337242
-7.194217
-7.204266
-7.484241
-7.819368
-7.851853
-7.333269
-6.408278
-5.293989
-4.187879
-3.377401
-2.968891
-2.839887
-2.758092
-2.597539
-2.396789
-2.150935
-1.835671
-1.581170
-1.604307
-2.023100
-2.647084
-3.108644
-3.322715
-3.362211
-3.226196
-2.978940
-2.609925
-1.960234
-0.940127
0.473301
2.148007
3.673144
4.605380
4.765466
4.332884
3.752603
3.492726
3.615887
3.872959
4.087497
4.154570
4.140314
4.183548
4.461887
5.105735
5.844700
6.148045
5.870874
5.485968
5.544393
6.172817
7.099210
8.139650
9.125637
9.787714
10.049460
9.990100
9.791220
9.579486
9.305821
8.815048
8.169564
7.537635
6.899629
6.292472
5.725746
5.028146
3.989109
2.688092
1.478685
0.503916
-0.285528
-0.822575
-0.872119
-0.326894
0.424691
0.753276
0.377250
-0.448185
-1.237161
-1.687738
-1.711342
-1.386497
-1.035010
-0.983595
-1.289744
-1.734012
-2.117516
-2.552902
-3.207968
-3.991569
-4.619292
-5.006536
-5.337223
-5.743864
-6.216642
-6.596408
-6.836186
-7.059371
-7.235115
-7.188374
-6.944389
-6.775891
-6.889236
-7.271806
-7.829651
-8.407362
-8.568149
-8.106120
-7.226000
-5.953261
-4.121974
-1.746631
0.667741
2.561659
3.695346
3.955222
3.497167
2.750256
2.208302
2.245928
2.802372
3.615654
4.630853
5.876717
7.178435
8.077720
8.276132
7.702862
6.287331
4.228653
1.966421
0.002626
-1.315919
-2.056987
-2.483960
-2.770478
-3.060969
-3.502198
-4.040179
-4.366660
-4.135763
-3.365482
-2.459421
-1.855770
-1.760186
-1.997860
-2.436285
-3.145569
-4.030364
-4.898332
-5.507592
-5.580740
-4.890152
-3.294437
-0.787753
2.362779
5.388280
7.626207
8.921382
9.272402
8.865761
8.038925
7.153195
6.453493
6.028389
5.939115
6.186605
6.715472
7.474769
8.392982
9.423140
10.674610
12.166100
13.679780
14.890590
15.612260
15.897380
15.720460
14.905310
13.372460
11.384360
9.339708
7.380587
5.451614
3.428926
1.135378
-1.303533
-3.332998
-4.539833
-4.873092
-4.528849
-3.809749
-2.904856
-1.823285
-0.188542
2.219520
4.996129
7.676220
9.808514
11.108600
11.576470
11.275460
10.291110
8.760595
6.914352
4.868528
2.517957
-0.405183
-4.032467
-8.085555
-11.725930
-14.055000
-14.741140
-13.826440
-11.680120
-8.843216
-5.820051
-3.083405
-0.799906
1.294295
3.450193
5.489006
6.898227
7.199936
6.196654
4.038887
1.312290
-1.205144
-3.322014
-5.387469
-7.521633
-9.648084
-11.552750
-13.112710
-14.351560
-15.015980
-14.884870
-14.081870
-13.006610
-12.063860
-11.442450
-11.037210
-10.447110
-9.239573
-7.222728
-4.526979
-1.517837
1.226521
3.268840
4.693953
5.652831
6.178659
6.543468
6.958055
7.232186
7.128190
6.729494
6.140099
5.217211
3.854029
2.252238
0.846055
-0.012331
-0.213548
0.085356
0.631284
1.119720
1.112241
0.454838
-0.505441
-1.246743
-1.480445
-1.344664
-1.117272
-1.111664
-1.591453
-2.320369
-2.831474
-2.865595
-2.586555
-2.494944
-2.878214
-3.868876
-5.442623
-7.300084
-8.830830
-9.266215
-8.225075
-5.856742
-2.937107
-0.523670
0.574494
0.136303
-1.267309
-2.659236
-3.200255
-2.656665
-1.431835
-0.169846
0.850495
1.945855
3.572185
5.915512
8.600743
10.714110
11.352350
10.319620
8.248555
5.979312
4.198505
3.304129
3.306700
3.898900
4.562846
4.945650
4.926953
4.544851
3.925776
3.174191
2.707489
2.984659
4.092638
5.861059
7.894965
9.999448
12.161190
14.115630
15.567390
16.267090
15.920050
14.225710
11.192490
7.566380
4.546487
3.105249
3.436404
4.961775
6.714070
7.737683
7.574326
6.380344
4.704703
3.283797
2.648362
2.699076
2.916418
2.671732
1.527062
-0.485811
-2.868165
-4.784986
-5.750174
-5.804393
-5.164518
-4.336513
-4.133660
-5.103989
-6.993233
-9.193768
-11.248240
-12.826430
-13.554170
-13.250830
-12.291720
-11.277920
-10.493380
-9.930396
-9.678699
-9.674492
-9.578207
-9.124826
-8.429096
-7.940660
-7.857696
-8.025961
-8.251717
-8.285837
-7.856060
-7.008657
-6.145831
-5.800888
-6.099091
-6.646887
-7.070121
-7.077833
-6.656235
-6.058426
-5.609719
-5.528391
-5.541712
-5.270618
-4.773067
-4.352638
-4.186243
-4.374606
-4.846917
-5.338158
-5.612524
-5.453840
-4.909783
-4.229711
-3.524400
-2.824930
-2.185990
-1.669977
-1.253754
-0.945735
-0.898762
-1.138072
-1.495636
-1.911624
-2.423431
-3.055828
-3.852517
-4.744089
-5.620470
-6.519520
-7.549911
-8.699489
-9.735021
-10.438460
-10.711890
-10.512310
-9.980174
-9.257335
-8.328371
-7.170146
-5.746902
-4.024521
-2.143690
-0.339046
1.310421
2.800502
4.061790
4.934432
5.293632
5.177014
4.652354
3.882775
3.166011
2.619617
2.181193
1.784367
1.384270
1.027875
0.711443
0.323966
-0.117964
-0.471789
-0.505208
0.099145
1.475180
3.469123
5.698403
7.540906
8.447903
8.231028
7.114635
5.618944
4.227718
3.322825
3.061079
3.212285
3.311374
2.995409
2.328425
1.606520
1.062463
0.793940
0.624272
0.217397
-0.498197
-1.138539
-1.177100
-0.488849
0.572391
1.616336
2.202927
1.875277
0.596696
-1.133398
-2.483025
-2.930330
-2.502188
-1.378551
0.135368
1.693457
3.136799
4.499980
5.799829
6.779039
7.247143
7.315151
7.080280
6.634378
6.177023
5.935376
5.894946
5.803335
5.571502
5.206694
4.636463
3.677351
2.157823
0.094938
-2.434181
-5.250520
-7.964731
-10.129740
-11.482410
-12.026230
-11.897230
-11.266000
-10.321610
-9.263412
-8.256157
-7.320182
-6.325080
-5.174800
-3.992270
-3.129210
-2.791277
-2.729113
-2.383234
-1.324098
0.271616
1.830173
2.865004
3.154794
2.830650
2.153148
1.302708
0.429131
-0.357275
-0.993644
-1.487690
-1.850395
-2.035253
-2.004871
-1.687738
-1.056510
-0.208407
0.781320
1.956372
3.244535
4.371445
5.076522
5.092648
4.291752
2.867107
1.254332
-0.174987
-1.300027
-1.992018
-2.023100
-1.278527
0.147989
2.060369
4.158075
6.031194
7.337119
8.049208
8.274496
7.969282
7.164179
6.163936
5.439695
5.309055
5.715463
6.445079
7.408631
8.533438
9.693532
10.550050
10.702190
10.209780
9.435760
8.661973
7.947314
7.316319
6.857095
6.496727
5.951969
5.084468
4.263942
3.976722
4.333117
5.059930
5.783470
6.288733
6.427319
6.148045
5.676902
5.308354
5.164160
5.139856
4.938171
4.451604
3.829257
3.192186
2.626161
2.212743
2.099864
2.350393
2.826443
3.338951
3.749331
3.999158
4.077214
3.934656
3.405556
2.545066
1.720333
1.216706
1.101725
1.273729
1.599977
1.980910
2.252004
2.204329
1.787873
1.043299
0.145184
-0.574617
-0.928675
-0.949008
-0.982427
-1.585844
-3.095090
-5.446596
-8.187916
-10.585700
-12.056610
-12.486160
-12.068770
-11.093760
-9.822893
-8.401052
-6.887133
-5.288380
-3.594043
-1.971686
-0.734002
-0.174520
-0.487213
-1.650580
-3.414092
-5.375317
-7.166873
-8.385861
-8.698554
-8.138138
-6.923123
-5.440519
-4.173623
-3.445408
-3.277377
-3.333699
-3.225963
-2.702003
-1.767431
-0.688664
0.255257
0.741357
0.570521
-0.157226
-1.132463
-1.895966
-2.220111
-2.130603
-1.581871
-0.702452
0.147287
0.654186
0.853300
1.130704
1.557677
1.801895
1.509768
0.569586
-0.839167
-2.452644
-3.748753
-4.237657
-3.827043
-2.624882
-0.861369
1.246853
3.447855
5.388982
6.762680
7.396479
7.351140
6.942397
6.585768
6.488781
6.584833
6.702619
6.836062
7.159739
7.549787
7.638360
7.193626
6.184736
4.742797
3.105950
1.601612
0.407397
-0.595884
-1.508489
-2.031513
-1.589350
0.149157
3.076738
6.703554
10.305360
13.211440
14.776540
14.684230
13.164000
10.608470
7.552825
4.703067
2.761007
1.888364
1.630358
1.513974
1.308551
1.083262
0.870594
0.617261
0.346868
0.071334
-0.268468
-0.835428
-1.681428
-2.613197
-3.239284
-3.357303
-3.084573
-2.603849
-2.139250
-1.892695
-1.983838
-2.398425
-3.192543
-4.415504
-5.904417
-7.529812
-9.158946
-10.597380
-11.645770
-12.088860
-12.005430
-11.758640
-11.534990
-11.283060
-10.879930
-10.389850
-10.128340
-10.253140
-10.592470
-10.871750
-10.857260
-10.517450
-10.044680
-9.525624
-8.813536
-7.604129
-5.796213
-3.758569
-1.988980
-0.781911
-0.241592
-0.450989
-1.326436
-2.545657
-3.797597
-4.816770
-5.265944
-4.689636
-2.857649
-0.118665
2.894216
5.690691
7.997560
9.662216
10.522710
10.576690
10.070730
9.143165
7.808027
6.176556
4.534101
3.089357
1.770345
0.405294
-1.107457
-2.718830
-4.248875
-5.302168
-5.463656
-4.641493
-3.196516
-1.564110
0.168321
1.793482
3.014573
3.597191
3.305765
2.154317
0.306672
-1.741022
-3.362211
-4.184373
-3.888507
-2.394686
-0.002983
2.817095
5.647689
8.238038
10.365190
11.991990
13.170780
13.695670
13.528810
12.705480
11.343000
9.953175
8.962280
8.534372
8.440658
8.324741
8.080757
7.694448
7.345766
7.288041
7.715715
8.851272
10.658250
12.821630
15.000660
16.786610
18.038780
18.779381
18.938770
18.801350
18.536100
17.852289
16.510380
14.349340
11.300700
7.712911
4.227251
1.390580
-0.572047
-1.735413
-2.216605
-2.256101
-2.087368
-1.823753
-1.502647
-0.966301
-0.325491
0.296856
0.845120
1.049142
1.029277
0.943275
0.865452
0.963140
1.215070
1.459522
1.359498
0.692046
-0.388824
-1.557800
-2.689150
-3.839196
-5.107027
-6.646887
-8.452700
-10.312970
-11.836000
-12.553930
-12.409500
-11.768230
-10.965460
-10.224160
-9.752081
-9.768207
-10.281420
-11.003320
-11.476800
-11.406690
-10.931110
-10.406450
-9.988821
-9.562082
-9.163621
-8.751370
-8.247276
-7.778938
-7.423244
-7.342150
-7.584498
-7.982726
-8.322061
-8.262467
-7.356406
-5.278097
-2.099287
1.651625
5.218379
7.801951
8.817852
8.245984
6.414464
3.852160
1.239375
-0.922365
-2.481856
-3.600353
-4.485614
-5.255661
-5.863753
-6.057258
-5.580740
-4.321790
-2.521352
-0.813227
0.265307
0.722193
1.107334
2.046814
3.748630
6.112288
8.922317
11.896870
14.790100
17.235550
18.938540
19.885960
20.144911
19.825670
19.099319
18.205879
17.179001
15.832410
14.061420
11.909960
9.735832
8.049909
7.131695
6.881868
6.969038
7.174696
7.316085
7.183577
6.845410
6.723185
7.296221
8.674126
10.587680
12.653360
14.479980
15.612030
15.762060
15.113070
14.015840
12.805740
11.617830
10.433900
9.278712
8.073747
6.891683
5.927664
5.359535
5.300642
5.497419
5.383606
4.531063
3.032802
1.409276
0.161776
-0.525073
-0.662956
-0.382047
0.028567
0.024594
-0.820471
-2.271525
-3.854854
-5.240471
-6.211968
-6.671426
-6.628191
-6.204957
-5.505488
-4.583769
-3.687289
-3.202826
-3.333232
-4.170117
-5.741060
-7.914485
-10.248460
-12.043530
-12.854700
-12.651150
-11.679420
-10.292870
-8.910288
-7.913784
-7.381412
-7.099801
-6.679605
-5.959337
-5.079216
-4.230412
-3.657376
-3.576749
-4.071729
-4.995552
-6.118488
-7.229506
-8.173894
-9.141418
-10.648790
-13.043540
-16.116249
-19.236860
-21.812260
-23.428301
-23.694719
-22.522240
-20.325211
-17.753090
-15.363260
-13.436860
-11.943740
-10.521190
-8.840645
-6.983885
-5.284874
-3.935714
-2.864893
-1.996458
-1.327137
-0.779340
-0.227570
0.348504
0.849561
1.057555
0.800250
0.106623
-0.867679
-1.816040
-2.524156
-2.984081
-3.201658
-3.173146
-2.941080
-2.634230
-2.237638
-1.486054
-0.154655
1.756323
4.133770
6.837231
9.684885
12.361240
14.517130
16.064711
17.053499
17.577690
17.786619
17.858601
18.074070
18.540310
18.943911
18.774240
17.707861
15.792210
13.432990
11.191790
9.466374
8.387374
7.855937
7.607979
7.310710
6.748658
5.987492
5.238010
4.630853
4.154102
3.835567
3.848186
4.310215
5.240581
6.591610
8.274262
10.109990
11.731880
12.870710
13.451460
13.415700
12.779330
11.550290
9.677407
7.251584
4.485023
1.614700
-1.107457
-3.494720
-5.513902
-7.268767
-8.902108
-10.416260
-11.605570
-12.353410
-12.677560
-12.654660
-12.539440
-12.602540
-12.952160
-13.531970
-14.183300
-14.768020
-15.126280
-15.074170
-14.567040
-13.692290
-12.697420
-11.903310
-11.435900
-11.241460
-11.204770
-11.228840
-11.272310
-11.296850
-11.319750
-11.394540
-11.571680
-11.945610
-12.410670
-12.718920
-12.658860
-12.016880
-10.871980
-9.450373
-7.971742
-6.674464
-5.526288
-4.419477
-3.399369
-2.652459
-2.431143
-2.957206
-4.388628
-6.672595
-9.504124
-12.334020
-14.405080
-15.010600
-13.867100
-11.303860
-8.127153
-5.262906
-3.302617
-2.369913
-2.354489
-3.062137
-4.290240
-5.696423
-6.992064
-8.184878
-9.058455
-9.119217
-8.065456
-6.010518
-3.347721
-0.514556
2.009188
3.811028
4.667311
4.560509
3.683193
2.402041
1.219510
0.502981
0.335417
0.593657
0.954726
1.161552
1.122524
0.971319
0.911491
0.871996
0.726868
0.288911
-0.612009
-1.900407
-3.233675
-4.008162
-3.702246
-2.094145
0.719155
4.217903
7.528520
9.803372
10.580900
9.829080
7.674350
4.328444
0.373978
-3.367586
-6.412718
-8.575394
-9.745771
-9.899313
-9.111973
-7.713969
-6.013790
-4.354041
-3.059333
-2.245117
-1.965376
-2.015622
-2.163789
-2.081526
-1.336485
0.216229
2.421672
4.813375
6.913651
8.393683
9.131480
9.290397
9.103669
8.723203
8.195972
7.550488
6.754968
5.748649
4.507459
3.035138
1.340568
-0.619722
-2.791277
-4.974518
-6.880589
-8.278826
-9.082293
-9.293091
-9.073178
-8.747631
-8.624704
-8.701125
-8.765627
-8.602503
-8.125284
-7.480735
-6.798560
-6.086471
-5.225047
-4.155861
-2.941080
-1.603606
-0.174052
1.269756
2.470983
3.147316
3.147082
2.550208
1.698132
0.930655
0.343830
-0.289735
-1.186916
-2.337663
-3.458028
-4.201900
-4.440978
-4.195825
-3.578151
-2.712754
-1.899706
-1.517604
-1.685869
-2.329950
-3.401706
-4.833129
-6.346113
-7.582862
-8.211520
-8.043021
-7.083676
-5.464824
-3.474855
-1.411503
0.532661
2.245461
3.756809
5.206694
6.618720
7.936563
9.223792
10.718080
12.568060
14.460580
15.947620
16.797131
16.912340
16.308460
15.099990
13.483470
11.725570
10.131490
9.001308
8.512638
8.578775
9.024678
9.725783
10.500970
11.139680
11.474340
11.394410
10.843810
9.828846
8.401863
6.583664
4.353683
1.801194
-0.858565
-3.442370
-5.824491
-7.883636
-9.459020
-10.507410
-11.185140
-11.606740
-11.792060
-11.733640
-11.549010
-11.438710
-11.450620
-11.631980
-12.099150
-12.982540
-14.184470
-15.291040
-15.969950
-15.994950
-15.223740
-13.736460
-11.768460
-9.685944
-7.846945
-6.484698
-5.741994
-5.672819
-6.246556
-7.371363
-8.881075
-10.453650
-11.734340
-12.488490
-12.641330
-12.306440
-11.668900
-10.816120
-9.661171
-8.108458
-6.208463
-4.200265
-2.376457
-0.870951
0.250583
0.932057
1.222782
1.324442
1.586655
2.346653
3.627572
5.142426
6.635079
7.951754
8.991961
9.778132
10.414030
11.055780
11.773010
12.535810
13.312870
13.902270
14.025660
13.466880
12.172640
10.345090
8.362835
6.671303
5.471244
4.721062
4.340830
4.160412
3.955689
3.598593
3.126516
2.634107
2.145202
1.678267
1.255734
0.813804
0.322797
-0.161433
-0.516893
-0.588639
-0.196254
0.783423
2.171144
3.610980
4.855674
5.789079
6.332435
6.475694
6.290135
5.851243
5.256940
4.625946
4.017153
3.426355
2.861966
2.266026
1.484294
0.322096
-1.317087
-3.295138
-5.294690
-6.862360
-7.601792
-7.321116
-5.997197
-3.784042
-0.977753
2.023911
4.779254
6.930945
8.252995
8.576205
7.938200
6.713135
5.387813
4.270252
3.341989
2.491081
1.699066
0.895133
0.103118
-0.533953
-0.911615
-0.981492
-0.782144
-0.396303
0.076475
0.621702
1.236337
1.899349
2.545066
3.085618
3.558864
3.883242
3.903808
3.553956
2.756099
1.442462
-0.303290
-2.265916
-4.208678
-5.968919
-7.515556
-8.795307
-9.742967
-10.277680
-10.470710
-10.577280
-10.723110
-10.945130
-11.267870
-11.636180
-11.891390
-11.891150
-11.595050
-11.098670
-10.501090
-9.882253
-9.416252
-9.213633
-9.296597
-9.642475
-10.215980
-10.940450
-11.591780
-11.887650
-11.711440
-11.131860
-10.225560
-9.063128
-7.710230
-6.244453
-4.715343
-3.124770
-1.538169
0.006599
1.442695
2.744180
4.082122
5.611232
7.428029
9.495587
11.681870
13.941530
16.126169
17.951611
19.179720
19.711849
19.613701
18.975691
17.853230
16.382771
14.767660
13.122400
11.434610
9.683717
7.884915
6.126310
4.442022
2.843269
1.432880
0.233991
-0.824678
-1.810432
-2.634931
-3.285089
-3.879626
-4.467386
-5.083891
-5.562746
-5.641269
-5.158442
-4.098838
-2.703172
-1.255390
0.054975
0.983706
1.402265
1.464897
1.496447
1.799792
2.322816
2.904499
3.535027
4.186586
4.835342
5.346915
5.518920
5.268859
4.674789
3.972049
3.349234
2.891880
2.634574
2.571708
2.681081
