EVENT_NAME: L_AQUILA
EVENT_ID: IT-2009-0009
EVENT_DATE_YYYYMMDD: 20090406
EVENT_TIME_HHMMSS: 013240
EVENT_LATITUDE_DEGREE: 42.3420
EVENT_LONGITUDE_DEGREE: 13.3800
EVENT_DEPTH_KM: 8.3
HYPOCENTER_REFERENCE: INGV-CNT_Seismic_Bulletin
MAGNITUDE_W: 6.1
MAGNITUDE_W_REFERENCE: INGV-CNT_Seismic_Bulletin
MAGNITUDE_L: 
MAGNITUDE_L_REFERENCE: 
FOCAL_MECHANISM: Normal faulting
NETWORK: IT
STATION_CODE: FMG
STATION_NAME: 
STATION_LATITUDE_DEGREE: 42.268028
STATION_LONGITUDE_DEGREE: 13.117220
STATION_ELEVATION_M: 1071
LOCATION: 
SENSOR_DEPTH_M: 0.0
VS30_M/S: 790
SITE_CLASSIFICATION_EC8: B
MORPHOLOGIC_CLASSIFICATION: 
EPICENTRAL_DISTANCE_KM: 23.2
EARTHQUAKE_BACKAZIMUTH_DEGREE: 249.3
DATE_TIME_FIRST_SAMPLE_YYYYMMDD_HHMMSS: 20090406_013215.000
DATE_TIME_FIRST_SAMPLE_PRECISION: seconds
SAMPLING_INTERVAL_S: 0.005000
NDATA: 23800
DURATION_S: 119.000
STREAM: HNN
UNITS: cm/s
INSTRUMENT: sensor = FBA-3 [Kinemetrics] | digitizer = Etna [Kinemetrics]
INSTRUMENT_ANALOG/DIGITAL: D
INSTRUMENTAL_FREQUENCY_HZ: 210.000
INSTRUMENTAL_DAMPING: 0.700000
FULL_SCALE_G: 1.0
N_BIT_DIGITAL_CONVERTER: 18
PGV_CM/S: -1.797970
TIME_PGV_S: 41.510000
BASELINE_CORRECTION: BASELINE REMOVED
FILTER_TYPE: BUTTERWORTH
FILTER_ORDER: 2
LOW_CUT_FREQUENCY_HZ: 0.100
HIGH_CUT_FREQUENCY_HZ: 40.000
LATE/NORMAL_TRIGGERED: NT
DATABASE_VERSION: 0.5
HEADER_FORMAT: DYNA 1.2
DATA_TYPE: VELOCITY
PROCESSING: manual (Paolucci et al., 2011)
DATA_TIMESTAMP_YYYYMMDD_HHMMSS: 20211011_155838.821
DATA_LICENSE: CC-BY3_0-IT (http://creativecommons.org/licenses/by/3.0/deed.en)
DATA_CITATION: Luzi L, Pacor F, Puglia R (2019). Italian Accelerometric Archive v 3.0 - Istituto Nazionale di Geofisica e Vulcanologia, Dipartimento della Protezione Civile Nazionale. doi: 10.13127/itaca.3.1
DATA_CREATOR: ITACA working group
ORIGINAL_DATA_MEDIATOR_CITATION: data obtained within the DPC-INGV data exchange agreements
ORIGINAL_DATA_MEDIATOR: Archive of Italian Department of Civil Protection
ORIGINAL_DATA_CREATOR_CITATION: Presidency Of Counsil Of Ministers-Civil Protection Department. (1972). Italian Strong Motion Network. Presidency of Counsil of Ministers - Civil Protection Department. https://doi.org/10.7914/SN/IT http://www.fdsn.org/networks/detail/IT/
ORIGINAL_DATA_CREATOR: network: IT (Italian Strong Motion Network (RAN)); owner: Presidency of Counsil of Ministers - Civil Protection Department (PCM - DPC)
USER1: 
USER2: 
USER3: 
USER4: 
USER5: 
[...]
-0.218876
-0.168666
-0.125016
-0.086379
-0.051331
-0.019358
0.008884
0.032043
0.048982
0.059290
0.063020
0.060189
0.050798
0.035346
0.015372
-0.006482
-0.027292
-0.045463
-0.061963
-0.079939
-0.102925
-0.133190
-0.171160
-0.215625
-0.264224
-0.314090
-0.362556
-0.407696
-0.448538
-0.484887
-0.516749
-0.543805
-0.565524
-0.581959
-0.594522
-0.605872
-0.618540
-0.632966
-0.646483
-0.654473
-0.653023
-0.640883
-0.619110
-0.589161
-0.551567
-0.506496
-0.455226
-0.400591
-0.345863
-0.293435
-0.244573
-0.199831
-0.158868
-0.119413
-0.076636
-0.024280
0.042765
0.126296
0.224437
0.332856
0.446419
0.560414
0.670969
0.774690
0.867973
0.946824
1.007516
1.047579
1.066239
1.064029
1.042297
1.003464
0.951555
0.891900
0.829961
0.770331
0.716504
0.670865
0.634428
0.606788
0.586896
0.574241
0.569218
0.572205
0.582291
0.597083
0.613683
0.629587
0.642534
0.649935
0.649153
0.638828
0.620059
0.596288
0.571799
0.549759
0.531163
0.515589
0.503217
0.496241
0.498174
0.511639
0.536618
0.570409
0.609018
0.648919
0.688398
0.727963
0.769530
0.814576
0.862112
0.907887
0.945783
0.970629
0.980266
0.975479
0.958671
0.932957
0.902130
0.870524
0.842108
0.819367
0.803040
0.792971
0.789208
0.792321
0.802836
0.820583
0.844615
0.873642
0.906672
0.943576
0.985045
1.031694
1.082919
1.136499
1.189083
1.237025
1.277159
1.307211
1.325655
1.331229
1.322857
1.300285
1.264965
1.220261
1.170609
1.120249
1.072688
1.031195
0.999319
0.980341
0.975704
0.983687
0.999428
1.016312
1.027765
1.028748
1.016944
0.993549
0.963148
0.932265
0.906829
0.889470
0.878102
0.867060
0.850507
0.825853
0.794593
0.760088
0.724658
0.688669
0.651853
0.614900
0.579892
0.549964
0.528787
0.519661
0.524079
0.540783
0.566636
0.598898
0.636721
0.680301
0.728775
0.779276
0.827996
0.871800
0.908962
0.939273
0.964192
0.986669
1.010070
1.036893
1.068286
1.104122
1.142666
1.179983
1.210282
1.227743
1.228826
1.213696
1.186159
1.152355
1.118758
1.090277
1.069379
1.056395
1.050098
1.047919
1.046145
1.040552
1.027429
1.004760
0.973210
0.936246
0.898931
0.865881
0.839532
0.819689
0.804744
0.793737
0.787451
0.787421
0.794001
0.805538
0.819281
0.832817
0.844926
0.855827
0.866865
0.879483
0.893932
0.908909
0.922668
0.934491
0.944991
0.955254
0.966102
0.977937
0.990210
1.000332
1.003661
0.995747
0.975196
0.944426
0.907859
0.869603
0.832270
0.796852
0.763069
0.730115
0.697541
0.665459
0.633824
0.601864
0.568768
0.534924
0.501989
0.471397
0.442862
0.414375
0.383640
0.349651
0.313345
0.277214
0.244411
0.217803
0.199040
0.187949
0.182620
0.179965
0.176390
0.168821
0.156313
0.141130
0.127712
0.119846
0.118412
0.121497
0.126253
0.130603
0.133923
0.136783
0.139947
0.143218
0.145355
0.145447
0.144290
0.144042
0.146451
0.151660
0.158593
0.166045
0.173324
0.180413
0.187925
0.196442
0.205020
0.210167
0.207009
0.192260
0.166330
0.132824
0.096470
0.061521
0.031169
0.007182
-0.010543
-0.023659
-0.033889
-0.041658
-0.046412
-0.048355
-0.049588
-0.053315
-0.061941
-0.075782
-0.093157
-0.111319
-0.127507
-0.139919
-0.148603
-0.155768
-0.164770
-0.178032
-0.195583
-0.215610
-0.236321
-0.257124
-0.278182
-0.299285
-0.319339
-0.336728
-0.349933
-0.357932
-0.360520
-0.358656
-0.354334
-0.349464
-0.344386
-0.337514
-0.326720
-0.311388
-0.293333
-0.275968
-0.262675
-0.255677
-0.255725
-0.262174
-0.273237
-0.286529
-0.299907
-0.312226
-0.323462
-0.334029
-0.343948
-0.352581
-0.359092
-0.363223
-0.365776
-0.368109
-0.370661
-0.371829
-0.368674
-0.359166
-0.343878
-0.325616
-0.307604
-0.291930
-0.279187
-0.268972
-0.260600
-0.253697
-0.248508
-0.245883
-0.247025
-0.253021
-0.264279
-0.280305
-0.300147
-0.323106
-0.348937
-0.377340
-0.407114
-0.435780
-0.460337
-0.478779
-0.490747
-0.496328
-0.494211
-0.481428
-0.455271
-0.415407
-0.363940
-0.303437
-0.235187
-0.159507
-0.077497
0.007804
0.091945
0.170459
0.239965
0.298697
0.346783
0.386201
0.420016
0.451002
0.480638
0.509256
0.537065
0.564987
0.594740
0.628223
0.666501
0.708920
0.753157
0.796353
0.836226
0.871073
0.899075
0.918243
0.927439
0.927509
0.921359
0.912804
0.905056
0.899973
0.898109
0.898698
0.899125
0.894751
0.880222
0.852017
0.810475
0.759635
0.705035
0.651140
0.600056
0.551905
0.505923
0.461084
0.416029
0.369183
0.319602
0.267898
0.216163
0.166759
0.120968
0.078631
0.038892
0.001166
-0.034530
-0.067947
-0.099109
-0.128555
-0.157372
-0.187068
-0.218880
-0.252497
-0.285212
-0.312621
-0.330612
-0.337151
-0.332721
-0.319448
-0.299934
-0.276720
-0.252364
-0.229498
-0.210431
-0.196539
-0.187847
-0.182897
-0.179056
-0.173499
-0.164617
-0.152892
-0.140494
-0.129848
-0.122230
-0.117203
-0.113048
-0.107704
-0.099658
-0.088451
-0.074837
-0.060454
-0.046846
-0.034309
-0.021715
-0.007735
0.007737
0.023460
0.038048
0.051165
0.063854
0.078307
0.097525
0.124629
0.161646
0.208430
0.262546
0.320059
0.376532
0.427827
0.470837
0.504140
0.528149
0.544385
0.554401
0.559406
0.560712
0.559960
0.558486
0.556441
0.552720
0.545782
0.534648
0.519480
0.501539
0.482531
0.463641
0.445000
0.426113
0.406851
0.388071
0.371484
0.359189
0.353160
0.354639
0.363495
0.378013
0.395468
0.413171
0.429352
0.443521
0.456413
0.469807
0.486074
0.506985
0.532053
0.557813
0.579088
0.591410
0.592799
0.583981
0.567431
0.546135
0.522637
0.498422
0.473683
0.447655
0.419437
0.388635
0.355235
0.319055
0.279697
0.237238
0.192909
0.149027
0.108233
0.072592
0.043173
0.020397
0.004737
-0.002992
-0.002149
0.006659
0.020738
0.035525
0.046164
0.049483
0.044764
0.032793
0.014392
-0.010224
-0.040959
-0.076898
-0.115836
-0.154728
-0.190706
-0.221910
-0.247853
-0.269342
-0.287909
-0.304962
-0.321391
-0.337968
-0.355862
-0.376349
-0.399906
-0.425791
-0.452750
-0.480300
-0.509446
-0.542153
-0.579974
-0.622952
-0.669731
-0.718645
-0.768589
-0.818793
-0.867941
-0.913724
-0.953190
-0.983506
-1.002784
-1.010802
-1.009308
-1.001475
-0.990654
-0.979236
-0.968393
-0.958656
-0.950666
-0.945366
-0.943588
-0.945595
-0.950954
-0.958573
-0.966602
-0.972518
-0.974012
-0.970490
-0.963933
-0.958127
-0.956861
-0.962448
-0.975218
-0.993745
-1.015413
-1.037011
-1.055212
-1.066931
-1.069650
-1.061730
-1.042800
-1.014415
-0.980479
-0.946475
-0.917351
-0.895502
-0.880463
-0.870392
-0.863766
-0.859876
-0.858271
-0.858367
-0.859793
-0.862870
-0.868599
-0.878222
-0.892758
-0.912676
-0.937782
-0.967364
-1.000544
-1.036482
-1.074112
-1.111593
-1.146202
-1.174998
-1.195766
-1.207434
-1.209919
-1.203985
-1.191414
-1.175043
-1.158202
-1.143870
-1.134347
-1.131506
-1.136771
-1.150308
-1.170261
-1.193155
-1.215374
-1.234385
-1.248767
-1.257513
-1.259697
-1.254668
-1.242115
-1.221725
-1.192885
-1.154864
-1.107432
-1.051539
-0.989735
-0.926308
-0.867086
-0.818525
-0.785810
-0.770744
-0.770925
-0.780935
-0.794766
-0.808059
-0.819280
-0.829508
-0.840932
-0.854777
-0.869988
-0.883524
-0.891788
-0.892072
-0.883253
-0.865651
-0.840363
-0.808627
-0.771624
-0.730620
-0.687103
-0.642685
-0.598802
-0.556304
-0.515065
-0.473828
-0.430703
-0.384372
-0.335188
-0.285217
-0.237246
-0.193563
-0.155105
-0.121337
-0.091048
-0.063625
-0.039665
-0.020276
-0.005713
0.005306
0.015000
0.025272
0.036850
0.049320
0.061666
0.072746
0.081627
0.088012
0.092593
0.096781
0.101777
0.107812
0.114284
0.120512
0.126163
0.131002
0.134628
0.136695
0.137204
0.136264
0.133514
0.127871
0.118069
0.103495
0.084465
0.061880
0.036986
0.011484
-0.012535
-0.033017
-0.048258
-0.056889
-0.057992
-0.051594
-0.038950
-0.022103
-0.002912
0.017694
0.039564
0.062481
0.085667
0.108200
0.129576
0.149610
0.167931
0.183901
0.197072
0.207654
0.216521
0.224752
0.233051
0.241570
0.250359
0.259983
0.271562
0.286229
0.304613
0.326765
0.352194
0.379646
0.407054
0.432441
0.455396
0.477529
0.501119
0.527158
0.554576
0.581065
0.604437
0.623266
0.636526
0.642916
0.640785
0.628870
0.607201
0.577335
0.541634
0.502174
0.460131
0.415937
0.369767
0.321849
0.272508
0.222160
0.171406
0.121142
0.072442
0.026232
-0.017010
-0.057379
-0.095537
-0.132440
-0.168740
-0.204130
-0.237199
-0.266116
-0.289686
-0.307854
-0.321160
-0.329644
-0.332275
-0.327537
-0.314799
-0.295284
-0.271789
-0.247441
-0.224633
-0.204902
-0.189456
-0.179510
-0.176047
-0.179418
-0.189444
-0.205876
-0.228392
-0.255926
-0.286167
-0.316087
-0.343355
-0.367438
-0.389266
-0.409638
-0.427911
-0.442400
-0.452165
-0.458395
-0.464063
-0.472220
-0.484466
-0.500618
-0.519302
-0.538464
-0.555404
-0.566978
-0.570531
-0.564911
-0.550562
-0.528780
-0.501074
-0.469060
-0.434560
-0.399678
-0.366931
-0.339319
-0.320089
-0.312134
-0.317295
-0.335715
-0.365554
-0.403445
-0.445707
-0.489611
-0.533897
-0.578296
-0.622552
-0.665706
-0.706181
-0.742493
-0.773799
-0.799819
-0.820482
-0.835818
-0.846083
-0.851690
-0.852774
-0.848775
-0.838459
-0.820294
-0.792798
-0.754857
-0.706225
-0.648022
-0.582867
-0.514683
-0.448538
-0.390464
-0.346755
-0.322526
-0.320157
-0.338631
-0.374309
-0.422524
-0.478787
-0.538993
-0.599107
-0.655152
-0.703660
-0.742299
-0.770412
-0.789235
-0.801446
-0.810129
-0.817863
-0.826450
-0.836991
-0.849779
-0.864149
-0.878641
-0.891476
-0.901077
-0.906618
-0.908603
-0.909060
-0.910783
-0.915903
-0.924923
-0.937076
-0.951447
-0.967520
-0.984607
-1.001027
-1.014083
-1.020834
-1.018881
-1.006656
-0.983457
-0.949582
-0.906220
-0.854709
-0.795709
-0.729329
-0.656247
-0.578606
-0.499787
-0.423298
-0.351806
-0.286903
-0.229377
-0.179459
-0.136963
-0.101652
-0.073824
-0.054507
-0.044804
-0.044789
-0.052874
-0.066049
-0.080709
-0.093482
-0.101710
-0.103606
-0.098247
-0.085406
-0.065184
-0.037574
-0.002199
0.041607
0.094345
0.155570
0.223319
0.294452
0.365902
0.435749
0.503059
0.566631
0.624022
0.672000
0.708079
0.731681
0.744106
0.747790
0.745605
0.740320
0.733989
0.727416
0.720205
0.711445
0.700420
0.686775
0.670297
0.650906
0.628912
0.604997
0.579774
0.553523
0.526470
0.499086
0.471892
0.445133
0.418938
0.393808
0.370805
0.351261
0.336448
0.327405
0.324576
0.327052
0.332140
0.336251
0.336962
0.334718
0.332842
0.336080
0.348757
0.373268
0.409355
0.454652
0.506453
0.563491
0.626166
0.694860
0.767643
0.839272
0.902303
0.949621
0.976758
0.982637
0.968771
0.938049
0.893865
0.839379
0.776899
0.708062
0.634882
0.560633
0.489673
0.426189
0.372716
0.329390
0.294377
0.265018
0.238873
0.214115
0.189407
0.163843
0.137267
0.110609
0.085590
0.063753
0.045686
0.031197
0.020146
0.012957
0.010455
0.013576
0.023338
0.040808
0.066770
0.101284
0.143395
0.191030
0.241109
0.289938
0.334058
0.371312
0.401509
0.426037
0.446636
0.464393
0.479745
0.493199
0.505827
0.518985
0.533566
0.549576
0.566449
0.583751
0.601683
0.621131
0.643317
0.669211
0.698887
0.731252
0.764478
0.796934
0.827900
0.857711
0.887567
0.919200
0.954109
0.992379
1.031863
1.068520
1.097793
1.116207
1.122378
1.117140
1.103015
1.083482
1.062382
1.043509
1.030198
1.024701
1.027426
1.036545
1.048377
1.058410
1.062543
1.058175
1.044824
1.024045
0.998803
0.972708
0.949292
0.931275
0.919893
0.914587
0.913158
0.912312
0.908478
0.898789
0.881921
0.858449
0.830661
0.801894
0.775519
0.753819
0.737310
0.724911
0.714851
0.705495
0.695364
0.682523
0.664286
0.637780
0.600924
0.553070
0.494982
0.428392
0.355374
0.277843
0.197379
0.115398
0.033276
-0.047786
-0.126894
-0.203183
-0.275348
-0.341583
-0.400184
-0.450286
-0.492050
-0.526295
-0.554047
-0.576169
-0.593013
-0.604464
-0.610626
-0.612506
-0.611813
-0.609923
-0.606957
-0.601710
-0.592405
-0.577629
-0.556766
-0.529696
-0.496249
-0.455977
-0.408320
-0.352925
-0.290042
-0.220835
-0.147187
-0.070826
0.007530
0.088270
0.172232
0.259876
0.350740
0.443356
0.535526
0.624613
0.707626
0.781279
0.842342
0.888361
0.918398
0.933389
0.935873
0.929312
0.917412
0.903654
0.890819
0.880457
0.872675
0.866567
0.860953
0.854893
0.847835
0.839521
0.829697
0.817760
0.802674
0.783287
0.758742
0.728567
0.692525
0.650581
0.603110
0.551109
0.496191
0.440369
0.385701
0.333798
0.285256
0.239237
0.193520
0.145160
0.091613
0.031834
-0.033336
-0.101759
-0.171069
-0.239404
-0.305381
-0.367552
-0.423901
-0.471834
-0.508736
-0.532841
-0.543970
-0.543741
-0.535044
-0.521001
-0.504096
-0.486011
-0.468121
-0.452008
-0.439438
-0.431861
-0.429882
-0.433079
-0.440318
-0.450460
-0.463058
-0.478607
-0.498286
-0.523499
-0.555503
-0.595171
-0.642811
-0.698043
-0.759761
-0.826164
-0.894872
-0.963145
-1.028288
-1.088267
-1.142344
-1.191210
-1.236277
-1.278482
-1.317486
-1.351801
-1.379529
-1.399168
-1.410283
-1.414046
-1.413409
-1.412518
-1.415467
-1.425102
-1.442556
-1.467498
-1.498599
-1.533863
-1.570943
-1.607597
-1.642137
-1.673563
-1.701413
-1.725603
-1.746320
-1.763784
-1.777976
-1.788601
-1.795325
-1.797970
-1.796485
-1.790808
-1.780881
-1.766875
-1.749293
-1.728659
-1.705059
-1.678054
-1.646959
-1.611088
-1.569785
-1.522543
-1.469265
-1.410432
-1.346967
-1.279878
-1.209899
-1.137235
-1.061564
-0.982285
-0.898781
-0.810432
-0.716473
-0.615972
-0.508099
-0.392562
-0.270004
-0.142098
-0.011159
0.120460
0.250665
0.377531
0.499159
0.613739
0.719666
0.815517
0.899878
0.971183
1.027798
1.068469
1.092899
1.101967
1.097460
1.081775
1.057899
1.029383
0.999869
0.972325
0.948616
0.929838
0.917069
0.911783
0.915481
0.928906
0.951495
0.981355
1.015616
1.050981
1.084457
1.114095
1.139361
1.160862
1.179681
1.196868
1.213320
1.229702
1.246070
1.261419
1.273722
1.280651
1.280611
1.273426
1.260296
1.243214
1.224287
1.205192
1.186749
1.168792
1.150440
1.130577
1.108240
1.082874
1.054487
1.023604
0.990986
0.957368
0.923369
0.889521
0.856316
0.824257
0.793936
0.765975
0.740790
0.718327
0.698008
0.678868
0.659824
0.639997
0.618982
0.597000
0.574957
0.554408
0.537290
0.525366
0.519602
0.519879
0.525228
0.534301
0.545593
0.557364
0.567595
0.574289
0.575975
0.572046
0.562718
0.548641
0.530360
0.507958
0.481200
0.450102
0.415456
0.378885
0.342428
0.307822
0.275811
0.245923
0.217061
0.188494
0.160191
0.132057
0.102870
0.070253
0.031994
-0.012310
-0.060645
-0.109365
-0.154518
-0.192631
-0.220852
-0.237187
-0.241178
-0.234300
-0.219350
-0.199104
-0.175263
-0.148428
-0.118910
-0.087434
-0.055040
-0.022526
0.009837
0.042069
0.074092
0.105543
0.135827
0.164169
0.189585
0.211088
0.228385
0.242583
0.256089
0.271600
0.291069
0.315498
0.345457
0.381502
0.423933
0.472240
0.524861
0.579412
0.633170
0.683646
0.729273
0.770006
0.807399
0.843982
0.882203
0.923445
0.967479
1.012470
1.055582
1.093984
1.125841
1.150882
1.170312
1.186085
1.199890
1.212430
1.223445
1.232362
1.238920
1.243337
1.246167
1.248235
1.250738
1.255254
1.263473
1.276611
1.294764
1.316559
1.339325
1.359694
1.374283
1.380164
1.375149
1.358044
1.328896
1.289037
1.240746
1.186618
1.128890
1.069006
1.007555
0.944581
0.880099
0.814653
0.749658
0.687191
0.629109
0.575953
0.526543
0.478617
0.429975
0.379192
0.325625
0.269180
0.210387
0.150616
0.091820
0.035655
-0.017321
-0.067671
-0.116354
-0.163969
-0.210510
-0.255624
-0.298942
-0.340116
-0.378649
-0.413845
-0.444978
-0.471508
-0.493121
-0.509579
-0.520653
-0.526283
-0.526801
-0.522965
-0.515800
-0.506332
-0.495292
-0.482859
-0.468593
-0.451654
-0.431287
-0.407330
-0.380421
-0.351826
-0.323108
-0.295798
-0.271013
-0.249068
-0.229371
-0.210812
-0.192547
-0.174710
-0.158608
-0.146219
-0.139293
-0.138624
-0.143911
-0.154187
-0.168336
-0.185272
-0.203757
-0.222253
-0.239093
-0.252882
-0.262798
-0.268600
-0.270458
-0.268787
-0.264108
-0.256902
-0.247587
-0.236680
-0.225027
-0.213845
-0.204517
-0.198334
-0.196424
-0.199863
-0.209707
-0.226813
-0.251575
-0.283753
-0.322497
-0.366519
-0.414309
-0.464309
-0.515007
-0.564994
-0.612982
-0.657797
-0.698418
-0.734082
-0.764316
-0.788765
-0.806963
-0.818330
-0.822413
-0.819193
-0.809290
-0.794052
-0.775500
-0.756074
-0.738205
-0.723795
-0.713776
-0.707910
-0.705004
-0.703495
-0.702076
-0.699999
-0.696942
-0.692656
-0.686727
-0.678597
-0.667768
-0.653949
-0.637010
-0.616831
-0.593261
-0.566228
-0.535849
-0.502461
-0.466542
-0.428606
-0.389064
-0.348060
-0.305437
-0.261009
-0.215090
-0.168796
-0.123777
-0.081609
-0.043403
-0.009804
0.018927
0.042929
0.062725
0.079003
0.092375
0.103353
0.112582
0.121060
0.130126
0.141289
0.156003
0.175386
0.199811
0.228600
0.260093
0.292118
0.322551
0.349636
0.371954
0.388236
0.397336
0.398482
0.391533
0.376969
0.355692
0.328841
0.297711
0.263651
0.227883
0.191310
0.154374
0.117023
0.078786
0.039033
-0.002593
-0.045793
-0.089458
-0.131667
-0.169694
-0.200218
-0.220093
-0.227612
-0.223476
-0.210705
-0.193522
-0.175955
-0.160851
-0.149569
-0.142140
-0.137600
-0.134298
-0.130220
-0.123409
-0.112506
-0.097284
-0.078947
-0.059955
-0.043376
-0.032087
-0.028105
-0.032111
-0.043212
-0.059134
-0.076980
-0.094298
-0.109936
-0.124221
-0.138511
-0.154557
-0.174067
-0.198503
-0.228969
-0.266093
-0.309898
-0.359747
-0.414435
-0.472404
-0.532021
-0.591824
-0.650659
-0.707654
-0.762019
-0.812773
-0.858592
-0.897898
-0.929081
-0.950679
-0.961581
-0.961317
-0.950340
-0.930124
-0.903100
-0.872442
-0.841658
-0.813978
-0.791805
-0.776492
-0.768436
-0.767253
-0.771887
-0.780831
-0.792614
-0.806369
-0.822141
-0.840654
-0.862653
-0.888233
-0.916623
-0.946445
-0.976185
-1.004523
-1.030437
-1.053160
-1.072100
-1.086741
-1.096506
-1.100765
-1.099170
-1.092118
-1.080821
-1.066763
-1.051038
-1.034239
-1.016952
-1.000242
-0.985563
-0.974140
-0.966287
-0.961135
-0.956893
-0.951498
-0.943254
-0.931061
-0.914163
-0.891821
-0.863318
-0.828368
-0.787601
-0.742690
-0.696002
-0.649984
-0.606614
-0.567103
-0.531848
-0.500532
-0.472305
-0.446108
-0.421093
-0.396878
-0.373505
-0.351273
-0.330598
-0.311798
-0.294760
-0.278661
-0.262007
-0.243049
-0.220396
-0.193439
-0.162404
-0.128076
-0.091420
-0.053295
-0.014269
0.025526
0.066555
0.109879
0.156791
0.208204
0.264166
0.323794
0.385557
0.447616
0.508000
0.564735
0.616101
0.660931
0.698713
0.729462
0.753561
0.771593
0.784090
0.791280
0.793140
0.789804
0.781985
0.770961
0.758184
0.744906
0.732132
0.720683
0.711095
0.703393
0.697008
0.690938
0.684087
0.675724
0.665867
0.655327
0.645288
0.636582
0.629085
0.621625
0.612510
0.600316
