EVENT_NAME: L_AQUILA
EVENT_ID: IT-2009-0009
EVENT_DATE_YYYYMMDD: 20090406
EVENT_TIME_HHMMSS: 013240
EVENT_LATITUDE_DEGREE: 42.3420
EVENT_LONGITUDE_DEGREE: 13.3800
EVENT_DEPTH_KM: 8.3
HYPOCENTER_REFERENCE: INGV-CNT_Seismic_Bulletin
MAGNITUDE_W: 6.1
MAGNITUDE_W_REFERENCE: INGV-CNT_Seismic_Bulletin
MAGNITUDE_L: 
MAGNITUDE_L_REFERENCE: 
FOCAL_MECHANISM: Normal faulting
NETWORK: IT
STATION_CODE: FMG
STATION_NAME: 
STATION_LATITUDE_DEGREE: 42.268028
STATION_LONGITUDE_DEGREE: 13.117220
STATION_ELEVATION_M: 1071
LOCATION: 
SENSOR_DEPTH_M: 0.0
VS30_M/S: 790
SITE_CLASSIFICATION_EC8: B
MORPHOLOGIC_CLASSIFICATION: 
EPICENTRAL_DISTANCE_KM: 23.2
EARTHQUAKE_BACKAZIMUTH_DEGREE: 249.3
DATE_TIME_FIRST_SAMPLE_YYYYMMDD_HHMMSS: 
DATE_TIME_FIRST_SAMPLE_PRECISION: 
SAMPLING_INTERVAL_S: 
NDATA: 105
DURATION_S: 
STREAM: HNN
UNITS: cm/s^2
INSTRUMENT: sensor = FBA-3 [Kinemetrics] | digitizer = Etna [Kinemetrics]
INSTRUMENT_ANALOG/DIGITAL: D
INSTRUMENTAL_FREQUENCY_HZ: 210.000
INSTRUMENTAL_DAMPING: 0.700000
FULL_SCALE_G: 1.0
N_BIT_DIGITAL_CONVERTER: 18
PGA_CM/S^2: 26.323768
TIME_PGA_S: 
BASELINE_CORRECTION: BASELINE REMOVED
FILTER_TYPE: BUTTERWORTH
FILTER_ORDER: 2
LOW_CUT_FREQUENCY_HZ: 0.100
HIGH_CUT_FREQUENCY_HZ: 40.000
LATE/NORMAL_TRIGGERED: NT
DATABASE_VERSION: 0.5
HEADER_FORMAT: DYNA 1.2
DATA_TYPE: ACCELERATION RESPONSE SPECTRUM
PROCESSING: manual (Paolucci et al., 2011)
DATA_TIMESTAMP_YYYYMMDD_HHMMSS: 20211011_155839.776
DATA_LICENSE: CC-BY3_0-IT (http://creativecommons.org/licenses/by/3.0/deed.en)
DATA_CITATION: Luzi L, Pacor F, Puglia R (2019). Italian Accelerometric Archive v 3.0 - Istituto Nazionale di Geofisica e Vulcanologia, Dipartimento della Protezione Civile Nazionale. doi: 10.13127/itaca.3.1
DATA_CREATOR: ITACA working group
ORIGINAL_DATA_MEDIATOR_CITATION: data obtained within the DPC-INGV data exchange agreements
ORIGINAL_DATA_MEDIATOR: Archive of Italian Department of Civil Protection
ORIGINAL_DATA_CREATOR_CITATION: Presidency Of Counsil Of Ministers-Civil Protection Department. (1972). Italian Strong Motion Network. Presidency of Counsil of Ministers - Civil Protection Department. https://doi.org/10.7914/SN/IT http://www.fdsn.org/networks/detail/IT/
ORIGINAL_DATA_CREATOR: network: IT (Italian Strong Motion Network (RAN)); owner: Presidency of Counsil of Ministers - Civil Protection Department (PCM - DPC)
USER1: 
USER2: 
USER3: 
USER4: 
USER5: 
    0.010000    26.336697
    0.020000    26.488478
    0.022000    26.499945
    0.025000    26.577118
    0.029000    26.959494
    0.030000    27.038393
    0.032000    27.184942
    0.035001    27.590717
    0.036000    27.443443
    0.040000    29.125479
    0.041999    28.885612
    0.044001    28.789671
    0.045000    28.380800
    0.046000    28.352213
    0.048001    29.030056
    0.050000    31.664019
    0.054999    32.444176
    0.059999    38.168953
    0.064998    37.999615
    0.067002    40.260162
    0.069999    42.107986
    0.075002    41.094097
    0.080000    39.715530
    0.084998    42.067627
    0.090001    41.063602
    0.095003    41.814228
    0.100000    42.806976
    0.109999    53.386185
    0.120005    58.839787
    0.130005    61.844734
    0.132996    62.076241
    0.139997    55.712116
    0.149993    47.088795
    0.160000    51.349586
    0.170010    47.941360
    0.179986    48.300179
    0.190006    58.478264
    0.200000    58.688534
    0.220022    48.287392
    0.239981    43.851269
    0.250000    49.585518
    0.260010    48.812401
    0.280034    54.485199
    0.290023    53.658405
    0.300030    55.912033
    0.320000    56.216663
    0.340020    60.124603
    0.350017    62.630154
    0.359971    59.945183
    0.379939    55.622986
    0.400000    52.975552
    0.419992    44.214424
    0.439947    40.227161
    0.450045    38.683102
    0.459982    38.692051
    0.480077    44.858063
    0.500000    45.047722
    0.550055    50.190849
    0.599880    53.449345
    0.650195    53.514420
    0.667111    51.963886
    0.699790    43.732311
    0.750188    33.603493
    0.800000    37.767307
    0.850340    29.725792
    0.900090    31.279161
    0.949668    26.950964
    1.000000    25.499847
    1.100110    24.504950
    1.200480    17.100754
    1.300390    22.621288
    1.400560    23.737822
    1.499250    20.601479
    1.600000    20.779613
    1.700680    16.331871
    1.798561    11.754403
    1.901141    11.692271
    2.000000    10.871994
    2.197802     9.874676
    2.398082     7.302244
    2.500000     6.655040
    2.597403     6.036297
    2.801121     5.529041
    3.003003     4.089558
    3.205128     3.870346
    3.401361     4.393016
    3.496503     4.277694
    3.597122     3.986751
    3.802281     3.133341
    4.000000     2.807226
    4.201681     2.791248
    4.405286     2.703960
    4.608295     2.586157
    4.807692     2.425837
    5.000000     2.251824
    5.494505     2.019830
    5.988024     1.398450
    6.493506     1.280640
    6.993007     1.089591
    7.518797     0.894059
    8.000000     0.728905
    8.474576     0.577496
    9.009009     0.452345
    9.523809     0.381397
   10.000000     0.332751
