EVENT_NAME: L_AQUILA
EVENT_ID: IT-2009-0009
EVENT_DATE_YYYYMMDD: 20090406
EVENT_TIME_HHMMSS: 013240
EVENT_LATITUDE_DEGREE: 42.3420
EVENT_LONGITUDE_DEGREE: 13.3800
EVENT_DEPTH_KM: 8.3
HYPOCENTER_REFERENCE: INGV-CNT_Seismic_Bulletin
MAGNITUDE_W: 6.1
MAGNITUDE_W_REFERENCE: INGV-CNT_Seismic_Bulletin
MAGNITUDE_L: 
MAGNITUDE_L_REFERENCE: 
FOCAL_MECHANISM: Normal faulting
NETWORK: IT
STATION_CODE: FMG
STATION_NAME: 
STATION_LATITUDE_DEGREE: 42.268028
STATION_LONGITUDE_DEGREE: 13.117220
STATION_ELEVATION_M: 1071
LOCATION: 
SENSOR_DEPTH_M: 0.0
VS30_M/S: 790
SITE_CLASSIFICATION_EC8: B
MORPHOLOGIC_CLASSIFICATION: 
EPICENTRAL_DISTANCE_KM: 23.2
EARTHQUAKE_BACKAZIMUTH_DEGREE: 249.3
DATE_TIME_FIRST_SAMPLE_YYYYMMDD_HHMMSS: 20090406_013215.000
DATE_TIME_FIRST_SAMPLE_PRECISION: seconds
SAMPLING_INTERVAL_S: 0.005000
NDATA: 23800
DURATION_S: 119.000
STREAM: HNZ
UNITS: cm/s^2
INSTRUMENT: sensor = FBA-3 [Kinemetrics] | digitizer = Etna [Kinemetrics]
INSTRUMENT_ANALOG/DIGITAL: D
INSTRUMENTAL_FREQUENCY_HZ: 196.000
INSTRUMENTAL_DAMPING: 0.700000
FULL_SCALE_G: 1.0
N_BIT_DIGITAL_CONVERTER: 18
PGA_CM/S^2: -19.380590
TIME_PGA_S: 34.830000
BASELINE_CORRECTION: BASELINE NOT REMOVED
FILTER_TYPE: 
FILTER_ORDER: 
LOW_CUT_FREQUENCY_HZ: 
HIGH_CUT_FREQUENCY_HZ: 
LATE/NORMAL_TRIGGERED: NT
DATABASE_VERSION: 0.5
HEADER_FORMAT: DYNA 1.2
DATA_TYPE: ACCELERATION
PROCESSING: converted to cm/s^2
DATA_TIMESTAMP_YYYYMMDD_HHMMSS: 20211011_155838.953
DATA_LICENSE: CC-BY3_0-IT (http://creativecommons.org/licenses/by/3.0/deed.en)
DATA_CITATION: Luzi L, Pacor F, Puglia R (2019). Italian Accelerometric Archive v 3.0 - Istituto Nazionale di Geofisica e Vulcanologia, Dipartimento della Protezione Civile Nazionale. doi: 10.13127/itaca.3.1
DATA_CREATOR: ITACA working group
ORIGINAL_DATA_MEDIATOR_CITATION: data obtained within the DPC-INGV data exchange agreements
ORIGINAL_DATA_MEDIATOR: Archive of Italian Department of Civil Protection
ORIGINAL_DATA_CREATOR_CITATION: Presidency Of Counsil Of Ministers-Civil Protection Department. (1972). Italian Strong Motion Network. Presidency of Counsil of Ministers - Civil Protection Department. https://doi.org/10.7914/SN/IT http://www.fdsn.org/networks/detail/IT/
ORIGINAL_DATA_CREATOR: network: IT (Italian Strong Motion Network (RAN)); owner: Presidency of Counsil of Ministers - Civil Protection Department (PCM - DPC)
USER1: 
USER2: 
USER3: 
USER4: 
USER5: 
[...]
-0.001316
0.000788
0.003126
-0.005291
-0.000615
-0.004356
-0.001784
-0.002953
-0.010434
-0.002018
-0.001550
-0.003420
0.001723
-0.005758
-0.005291
-0.002719
0.001255
0.002425
-0.006226
0.000788
-0.000381
-0.001550
0.001723
-0.004356
0.000320
0.004295
-0.001082
-0.001550
0.001255
0.003126
0.003126
-0.000147
0.000320
0.001490
0.003126
-0.002953
-0.000849
0.002425
-0.007161
0.001255
0.001957
-0.002719
0.001022
-0.005525
-0.000381
0.000087
-0.006226
0.001490
-0.000615
0.001723
0.001022
-0.004122
0.005230
-0.000615
0.001022
0.004996
-0.002485
-0.000381
-0.002251
-0.005291
0.002892
0.000788
-0.003187
0.003827
-0.006693
0.000788
0.004996
-0.008096
-0.000849
-0.000381
-0.001316
-0.002018
-0.001316
0.006633
0.000320
-0.006460
0.001723
0.000554
0.001022
0.001723
-0.002719
0.001957
0.002191
0.003126
-0.004589
0.002892
0.007568
-0.005758
0.001723
0.005464
0.001022
0.000087
0.004529
0.000087
-0.007161
-0.000147
-0.000147
-0.000615
0.003827
-0.002485
-0.004823
0.001957
-0.000849
-0.002953
0.005698
0.004996
-0.000381
0.000788
-0.005525
0.000320
0.005230
-0.003420
-0.000381
0.002658
-0.000849
0.000788
0.000320
-0.006226
0.003126
0.004295
-0.003187
0.000554
0.000554
-0.002251
0.000554
0.006633
-0.002485
0.001723
0.001490
-0.004356
0.003594
-0.001550
0.001957
-0.001550
-0.004356
0.001022
-0.003888
0.002425
0.002425
0.003827
0.004762
-0.004356
0.001957
0.000554
-0.000147
0.001255
-0.002485
0.001255
-0.002018
0.000554
-0.001550
-0.002953
0.001490
-0.001082
0.003827
-0.002251
-0.006693
-0.000615
0.002658
-0.000381
-0.006927
0.001022
-0.001784
-0.003187
0.001255
0.001022
-0.002953
-0.006226
0.005931
-0.002719
-0.004823
-0.002719
-0.005057
0.006399
-0.002018
0.005698
0.009906
-0.002485
0.002425
-0.000147
-0.005992
-0.001550
-0.002485
-0.000615
0.000320
-0.006226
0.001957
0.003360
0.000320
-0.003420
-0.002251
0.004996
-0.005057
0.000320
0.001490
-0.006460
0.002425
0.003126
0.000788
-0.000147
-0.001316
0.001255
-0.003187
0.000788
0.000087
-0.006693
0.000554
0.004061
0.003594
-0.001550
0.001723
0.001022
-0.001550
-0.000849
-0.003187
0.003594
-0.000381
0.003594
-0.000147
0.000320
0.000554
-0.004356
0.002892
-0.007862
-0.001550
-0.000381
-0.005525
-0.005992
-0.003888
0.003594
-0.005992
-0.001316
-0.003420
-0.002018
0.001723
-0.003420
0.005698
-0.002018
-0.004356
-0.001082
0.001723
0.004061
-0.002719
-0.000381
0.000087
0.004996
-0.003420
-0.005057
0.005230
-0.004356
0.001490
-0.001550
-0.005992
0.005698
-0.003420
-0.001550
0.000554
-0.007862
0.000087
0.005698
-0.001082
-0.002251
0.003360
-0.003187
-0.004122
-0.001082
-0.001316
-0.002018
-0.006460
0.006399
0.001255
-0.005992
0.002658
-0.005057
-0.004122
-0.005057
-0.003888
0.000554
-0.001784
-0.001316
-0.004122
-0.000381
-0.005057
-0.005758
-0.000849
-0.005758
-0.002251
-0.003655
-0.002018
0.000788
-0.002485
0.001957
-0.005758
0.000087
0.000554
-0.007629
0.002892
-0.004589
-0.000147
-0.001550
-0.002953
0.003594
-0.002018
-0.000849
-0.007161
0.004996
0.004295
-0.006927
0.002892
0.003827
-0.001316
-0.002251
0.002892
0.003126
0.000788
-0.005992
-0.002485
-0.002251
-0.009031
0.000554
0.001723
-0.002485
-0.005291
-0.003655
0.000320
0.000554
-0.003187
-0.003187
0.002191
-0.009031
0.000320
0.006165
-0.006226
0.001022
0.001957
-0.000849
-0.010434
-0.002018
0.002191
-0.006927
0.002425
-0.002251
-0.000381
0.002191
0.009672
0.019258
0.026973
0.052457
0.085422
0.140130
0.214009
0.286018
0.361300
0.424892
0.446168
0.439154
0.376497
0.284381
0.181278
0.073966
0.019725
-0.003187
0.020661
0.070225
0.109035
0.133584
0.094540
0.019725
-0.043633
-0.096938
-0.111200
-0.108628
-0.112135
-0.111434
-0.132242
-0.144633
-0.152114
-0.139255
-0.114707
-0.120552
-0.151880
-0.251945
-0.356919
-0.414432
-0.412328
-0.309458
-0.150010
0.023934
0.175433
0.225699
0.154625
0.018089
-0.159128
-0.301743
-0.348034
-0.298704
-0.154218
0.019492
0.184785
0.274562
0.239259
0.160236
0.072797
0.019725
0.011309
-0.020020
-0.059297
-0.092262
-0.087119
-0.024228
0.068822
0.160938
0.211204
0.187590
0.089630
-0.025397
-0.156089
-0.301042
-0.445293
-0.557982
-0.557047
-0.430330
-0.207757
0.008971
0.125635
0.148780
0.076070
-0.033813
-0.119850
-0.200977
-0.242125
-0.200510
-0.002953
0.372522
0.807381
1.188935
1.406364
1.409170
1.221666
0.909082
0.555584
0.237856
0.012010
-0.132943
-0.253347
-0.393391
-0.493922
-0.441553
-0.200743
0.119790
0.318282
0.290694
0.076538
-0.159595
-0.215005
-0.061402
0.152053
0.233180
0.072095
-0.278363
-0.646357
-0.861215
-0.892777
-0.835264
-0.835264
-0.965721
-1.151588
-1.259835
-1.151120
-0.835731
-0.431032
-0.013240
0.346805
0.600473
0.690484
0.589017
0.344701
0.035390
-0.297768
-0.624380
-0.880386
-0.981152
-0.802766
-0.339150
0.314073
0.986936
1.477204
1.777163
1.885644
1.811531
1.662369
1.469489
1.214418
0.840346
0.359664
-0.041295
-0.112837
0.256092
0.881027
1.462007
1.783008
1.804283
1.632210
1.324536
0.944385
0.550207
0.256794
0.215880
0.444765
0.969869
1.686217
2.413320
2.972324
3.160295
3.003652
2.638698
2.226517
1.865070
1.518586
1.200624
0.975246
0.887339
0.926149
1.066426
1.262346
1.390700
1.371295
1.221666
1.057074
1.039306
1.220497
1.522560
1.794464
1.859459
1.598778
1.100794
0.576158
0.179174
-0.046672
-0.235813
-0.568036
-1.181280
-2.040711
-2.809196
-3.144458
-2.904116
-2.196652
-1.311971
-0.553073
-0.144633
-0.199341
-0.656176
-1.225935
-1.676692
-1.898096
-1.835672
-1.556755
-1.150185
-0.666463
-0.122422
0.484744
1.120900
1.601115
1.813869
1.758226
1.437459
0.972441
0.506721
0.215646
0.140130
0.207229
0.406189
0.703109
1.089104
1.503389
1.862031
2.089046
2.021947
1.595972
0.959348
0.389356
0.119322
0.106463
0.060873
-0.228565
-0.658514
-0.939068
-0.808143
-0.184846
0.700771
1.386024
1.561604
1.246448
0.582236
-0.256620
-1.079579
-1.695630
-2.045387
-2.262115
-2.573296
-3.070345
-3.504970
-3.492111
-2.778802
-1.381175
0.373925
1.947366
2.933514
3.262230
3.034513
2.419632
1.590127
0.712226
-0.063272
-0.610119
-0.738472
-0.310861
0.592991
1.706791
2.657402
3.070518
2.805628
2.205710
1.757057
1.580542
1.478373
1.249254
0.844788
0.396135
0.179875
0.377666
1.020836
1.925857
2.666052
2.921123
2.672131
2.069875
1.168361
0.016218
-1.103660
-1.814397
-1.912358
-1.493631
-0.999855
-0.988633
-1.770678
-3.133703
-4.346866
-4.710418
-3.916449
-2.226344
-0.305951
1.300689
2.171342
2.190980
1.723858
1.345343
1.469723
2.086007
3.007861
3.993775
4.823747
5.298819
5.144047
4.402682
3.528522
2.916213
2.542141
2.068472
1.133525
-0.416770
-2.309809
-3.944738
-4.724679
-4.465400
-3.468498
-2.172805
-0.957304
-0.101147
-0.013708
-0.897687
-2.162986
-3.017741
-3.143289
-2.817144
-2.690895
-3.228858
-4.389884
-5.657054
-6.314719
-6.033932
-5.301452
-4.900493
-5.125170
-5.738882
-6.329448
-6.494742
-5.908150
-4.631629
-2.959760
-1.181748
0.301682
1.254397
1.639224
1.559032
1.213717
0.766935
0.277835
-0.428226
-1.399177
-2.313082
-2.754955
-2.479544
-1.529869
-0.200510
1.097988
1.947366
2.047898
1.350487
0.067420
-1.296073
-2.252062
-2.787453
-3.210856
-3.819191
-4.632797
-5.257731
-5.088932
-3.673770
-1.145509
1.703752
3.664825
3.738704
1.992956
-0.688440
-3.311621
-5.115351
-5.665236
-4.792480
-2.809196
-0.450904
1.494973
2.533724
2.667221
2.185603
1.288531
0.160704
-0.678153
-0.727250
-0.070520
0.834034
1.572826
2.024987
2.526477
3.460021
4.675755
5.619820
5.989917
5.986644
5.999035
6.144690
6.181162
6.016102
5.844497
5.765474
5.520457
4.910485
4.260535
3.810479
3.261061
2.476211
1.951341
2.115932
2.582120
2.575807
1.897568
0.780261
-0.470777
-1.506021
-2.269363
-2.710066
-2.569556
-1.906747
-1.178241
-0.525017
0.380471
1.534484
2.393681
2.465456
1.809895
0.871675
-0.068649
-0.900492
-1.404321
-1.359432
-0.577621
1.157139
3.569203
5.649745
6.340610
5.138903
2.370769
-0.942575
-3.765184
-5.350549
-5.385851
-4.384039
-3.302737
-2.665178
-2.352126
-2.137502
-2.141944
-2.513211
-3.178592
-3.990329
-4.628355
-4.779153
-4.571309
-4.424018
-4.569907
-5.095244
-6.003304
-6.945733
-7.522739
-7.688266
-7.488839
-6.823925
-5.850402
-5.019261
-4.465868
-4.099978
-3.715152
-2.965605
-2.010785
-1.400580
-1.147380
-0.790842
-0.267843
0.069991
0.191331
0.394499
0.761323
1.309339
2.339674
4.031182
6.228856
8.354521
9.296014
8.350780
6.216699
4.365743
3.763019
4.441258
5.579373
6.140715
5.571892
3.996580
2.072447
0.314775
-0.945849
-1.159537
-0.060233
1.729469
3.279764
3.889502
3.125694
1.129551
-1.513269
-3.988692
-5.665704
-6.364050
-6.179118
-5.487085
-4.625316
-3.667457
-2.696038
-1.899499
-1.148783
-0.314134
0.140130
0.024869
-0.080807
0.418814
1.501753
2.426412
2.449324
1.613507
0.479133
-0.293560
-0.171285
0.667572
1.390466
1.311443
0.509994
-0.388481
-1.069526
-1.528232
-1.653312
-1.465341
-1.190632
-0.979047
-0.734264
-0.248905
0.235752
0.121660
-0.780322
-2.147555
-3.380123
-3.952688
-3.695045
-2.889153
-2.157141
-1.749636
-1.378136
-0.791076
0.021362
0.989040
1.965602
2.712811
2.984247
2.541440
1.307235
-0.648461
-2.931003
-4.563127
-4.676751
-3.323545
-1.577563
-0.709949
-1.067422
-2.067831
-2.997868
-3.289644
-2.565347
-0.963617
0.978519
2.389005
2.584692
1.828131
0.791249
-0.082209
-0.619471
-0.734965
-0.536707
-0.652903
-1.624322
-3.036444
-4.065376
-4.158895
-3.180462
-1.813462
-0.968527
-1.120026
-2.406600
-4.438747
-6.408237
-7.519700
-7.252939
-5.828660
-4.146504
-2.793999
-1.843154
-1.282514
-0.942108
-0.515899
0.243233
1.376672
2.626073
3.587205
3.975071
3.882722
3.664124
3.478490
3.421678
3.583698
3.931819
4.671313
5.767578
6.569729
6.696914
6.484394
6.559910
7.167777
7.957304
8.452014
8.155795
6.851219
5.191040
4.160705
4.145741
4.759687
5.326874
5.281752
4.579899
3.723274
2.956660
2.211555
1.471360
0.898795
0.663130
0.734671
1.137266
1.816675
2.485562
2.726839
2.183499
0.784937
-1.119792
-2.762904
-3.464757
-3.043224
-1.824450
-0.323018
1.054970
1.973551
2.087176
1.171868
-0.340319
-1.482174
-1.648403
-1.124935
-0.704338
-0.920131
-1.846895
-3.092555
-3.838362
-3.452366
-2.006810
0.026272
1.992021
3.315535
4.080513
4.668273
5.038605
4.888275
4.026506
2.556402
1.018265
0.177771
0.438219
1.422028
2.329387
2.607837
2.258547
1.650680
1.130486
0.848763
0.634373
0.111607
-0.689609
-1.392631
-1.834971
-1.928256
-1.729997
-1.625023
-2.000498
-2.887985
-3.836491
-4.348503
-4.277663
-3.746480
-2.894531
-1.778627
-0.629757
0.125868
0.215646
-0.489714
-1.949063
-3.686161
-4.975307
-5.421622
-5.169357
-4.520342
-3.837660
-3.237041
-2.328279
-0.816794
1.054502
2.435998
2.454000
0.986468
-1.198113
-3.073618
-4.297535
-5.130313
-5.904643
-6.534019
-6.355867
-4.825678
-2.057778
1.177245
3.909842
5.181454
4.297474
1.617013
-1.736310
-4.490182
-5.564237
-4.960812
-3.617425
-2.272869
-1.087061
0.028843
1.227978
2.641504
3.990735
4.734905
4.571249
3.607779
2.470600
1.897568
1.992489
2.325880
2.502396
2.304371
1.967005
1.964433
2.350896
2.827605
3.061166
3.133409
3.646589
5.013589
6.904992
8.490824
8.922877
7.914051
6.186306
4.835437
4.470717
4.885703
5.280349
5.249021
5.116693
5.314951
5.843562
5.944795
4.613565
1.613039
-2.178416
-5.386786
-7.257615
-7.818724
-7.223248
-5.688382
-3.451431
-0.691713
1.880734
3.192559
2.783885
1.000963
-1.466276
-3.813813
-5.279241
-5.892251
-6.653489
-8.085250
-9.494333
-9.950467
-9.158837
-7.645715
-6.188938
-5.132885
-4.364401
-3.580486
-2.656294
-1.929191
-1.904642
-2.581479
-3.476915
-4.070520
-3.869690
-2.742564
-1.224766
0.046144
0.864427
1.132590
0.691185
-0.175961
-0.609417
0.256560
2.285668
4.054327
4.127739
2.262054
-0.601234
-3.240314
-4.838303
-5.043809
-3.973027
-2.185430
-0.348034
1.409404
3.201677
4.662896
5.152697
4.305657
2.477613
0.753608
0.198812
0.778390
1.508299
1.717312
1.583581
1.629171
1.937780
2.379887
3.102782
4.217283
5.491700
6.364223
6.384798
5.647408
4.679729
4.017622
3.902595
4.207697
4.431907
4.176602
3.620170
3.169881
2.869220
2.528815
2.342714
2.529282
2.713980
2.280992
0.899496
-1.257030
-3.827841
-6.400756
-8.405783
-9.275735
-8.810248
-7.679148
-6.936848
-6.981503
-7.466394
-7.852858
-7.530454
-6.245049
-4.466102
-2.997634
-2.794233
-3.945674
-5.218688
-5.447106
-4.383572
-2.458035
-0.319044
1.596673
3.339149
5.057542
6.651557
7.830586
8.243001
7.762552
6.412151
4.300748
1.915570
0.124466
-0.436643
0.267081
1.961160
4.376264
7.199574
9.534485
10.239140
9.029020
6.490005
3.459553
0.765766
-0.870567
-1.097114
-0.170584
1.175608
2.424074
3.482231
4.120024
3.836197
2.363521
0.391927
-0.763956
-0.437812
0.885001
2.137675
2.498889
1.586620
-0.563827
-3.400463
-6.165325
-8.518940
-10.658400
-12.857710
-15.232830
-17.578270
-19.222549
-19.380590
-17.718781
-14.700950
-11.449800
-9.110208
-8.272754
-8.935328
-10.676870
-12.702000
-13.997690
-13.781670
-11.841170
-8.164974
-2.925859
2.932111
8.075837
11.305950
11.831520
9.944796
6.921591
3.866590
0.975246
-1.730231
-3.834621
-4.971099
-4.961279
-3.851454
-2.130488
-0.460724
0.735840
1.293207
1.228212
0.565637
-0.333773
-0.637239
0.145741
1.864135
3.995411
5.873487
6.918084
7.098574
6.971623
7.098106
7.708779
8.404086
8.513034
8.024870
7.384505
6.765883
6.217868
5.806856
5.299287
4.347507
2.920889
1.141708
-1.119792
-3.895408
-6.540799
-7.948012
-7.310453
-4.828951
-1.808552
-0.015578
-0.507716
-2.993192
-6.393508
-9.798033
-12.666460
-14.510640
-15.049300
-14.267030
-12.427990
-10.202260
-8.392222
-7.630752
-7.920658
-8.702469
-9.435884
-9.751508
-9.386086
-8.270649
-6.572596
-4.237216
-1.200919
1.982435
4.517710
6.240779
7.877813
10.202910
13.082090
15.339380
15.686800
13.777630
10.243820
6.234701
2.993366
1.235226
0.725085
0.613565
0.151586
-0.676049
-1.316180
-1.258666
-0.395027
0.834735
1.838885
2.200800
1.620988
0.037961
-2.186833
-4.247036
-5.323895
-5.383046
-4.978814
-4.364401
-3.426181
-1.880327
0.316178
2.698316
4.970337
7.043164
8.522620
8.750337
7.250541
4.330440
0.943216
-1.996757
-4.099043
-5.324831
-5.653313
-5.171695
-4.066780
-2.421329
-0.023527
3.116342
6.574639
9.774827
12.007340
12.971270
12.935970
12.251420
10.992670
9.156204
6.807031
3.887164
0.392629
-3.166435
-5.798266
-6.760567
-5.923581
-3.789265
-1.291865
0.802705
2.086942
2.529750
2.547284
2.638932
3.171751
4.263808
5.490531
6.183032
5.848238
4.387018
2.107749
-0.687505
-3.478551
-5.570316
-6.838888
-7.441612
-7.476213
-7.142822
-6.680842
-6.330617
-6.462478
-7.368668
-8.788272
-9.977588
-10.044920
-8.526655
-5.721815
-2.478609
0.289291
2.333596
3.980215
5.560202
7.291923
9.056608
10.277720
10.416360
9.276141
6.964142
3.870799
0.842450
-0.818430
-0.277428
2.323075
6.035975
9.399351
11.075660
10.495620
8.315477
5.812701
3.819364
2.372172
1.075310
-0.123825
-0.925742
-1.328337
-1.512334
-1.372524
-0.781958
0.050119
0.385615
-0.702234
-3.158018
-5.769977
-7.282631
-7.344821
-6.624498
-5.818139
-5.010610
-4.348736
-4.286079
-5.023469
-6.234995
-7.240782
-7.424545
-6.395379
-3.982847
-0.467737
3.264334
6.038313
7.131305
6.616021
5.149891
3.629756
2.747179
2.652492
2.866648
2.692003
1.752615
0.363638
-0.821937
-1.573121
-2.042348
-2.542669
-3.227922
-3.861975
-4.008564
-3.276084
-1.776756
-0.057427
1.301390
1.800309
1.249488
-0.065610
-1.423726
-2.200861
-2.317524
-1.953973
-1.283449
-0.313199
1.173270
3.535302
6.720527
9.714741
11.281170
10.961340
9.297885
7.372582
5.818546
4.549506
3.638874
3.579724
4.501812
5.658864
5.958355
5.102665
3.736600
2.494680
1.594803
1.178180
1.229849
1.428107
1.298351
0.526593
-0.628822
-1.805045
-3.059824
-4.579492
-6.046790
-6.711470
-6.321266
-5.233417
-3.924866
-2.584051
-1.102959
0.571014
2.384329
4.148547
5.634783
6.857765
7.764422
8.005933
7.370478
5.908323
4.048483
2.432257
1.671722
2.380121
4.475159
6.866883
8.249080
8.099451
6.829008
5.347916
4.755713
5.737185
7.965720
10.293850
11.808610
12.475630
12.709190
12.672720
12.190870
11.262460
10.289640
9.634549
9.083027
8.117453
6.750920
5.459202
4.152288
2.077356
-0.998219
-4.189288
-6.341372
-7.055616
-6.737187
-5.996057
-5.229209
-4.776815
-5.070930
-6.274039
-7.830413
-8.912417
-9.032354
-8.022359
-6.050064
-3.531155
-1.132417
0.495732
1.288064
1.580542
1.796334
2.324711
3.097638
3.477555
2.910134
1.554356
-0.034281
-1.742155
-3.939361
-6.757995
-9.780265
-12.496500
-14.449390
-15.180460
-14.614680
-12.992380
-10.820420
-8.924340
-7.935387
-7.911307
-8.548632
-9.500412
-10.504800
-11.508480
-12.384040
-12.690310
-11.958530
-10.120900
-7.597320
-4.802299
-1.853909
1.174439
4.004997
6.092319
6.857999
6.376615
5.441200
4.795458
4.747998
5.131656
5.288298
4.707785
3.805102
3.444590
4.005932
5.106639
6.208516
7.360190
8.804110
10.366560
11.631390
12.366680
12.603050
12.333010
11.442720
9.996230
8.286955
6.753259
5.811532
5.449851
5.152697
4.342363
2.925565
1.207171
-0.409523
-1.445235
-1.862092
-2.331084
-3.500060
-5.157901
-6.469959
-6.863904
-6.466920
-6.146621
-6.537760
-7.088114
-6.772958
-5.179410
-2.933809
-1.150887
-0.610586
-1.399645
-2.973554
-4.790375
-6.550619
-8.135516
-9.493164
-10.338330
-10.271230
-8.996349
-6.580778
-3.600358
-0.722340
1.530743
2.650856
2.250365
0.488251
-1.562834
-2.586856
-1.873314
0.391693
3.091326
5.081389
5.772955
5.180519
3.853030
2.364223
1.277076
1.144046
2.035741
3.128733
3.098573
1.273802
-1.838712
-5.063682
-7.435767
-8.597962
-8.644956
-7.929543
-6.858760
-5.834270
-5.214012
-5.283215
-6.133996
-7.405608
-8.452776
-8.893246
-8.885530
-8.885297
-9.187126
-9.451782
-9.011079
-7.658574
-5.799435
-4.034983
-2.754955
-1.952804
-1.381409
-0.936730
-0.594454
-0.306185
-0.075663
-0.094367
-0.825912
-2.620523
-5.080749
-7.107519
-7.769392
-6.851981
-4.854435
-2.424837
0.035156
2.355339
4.636477
7.124525
9.789322
11.903300
12.551140
11.190920
8.079578
4.243702
0.814395
-1.161174
-1.299113
-0.151179
1.371996
2.286837
1.772955
-0.280935
-3.161525
-5.879393
-7.776874
-8.614562
-8.336112
-7.245692
-6.034165
-5.279475
-4.937666
-4.511458
-3.763547
-3.122715
-3.235872
-4.053687
-4.814690
-4.702702
-3.278656
-0.649162
2.717955
6.390175
9.833041
12.405960
13.977990
14.890030
15.485740
15.666460
