EVENT_NAME: L_AQUILA
EVENT_ID: IT-2009-0009
EVENT_DATE_YYYYMMDD: 20090406
EVENT_TIME_HHMMSS: 013240
EVENT_LATITUDE_DEGREE: 42.3420
EVENT_LONGITUDE_DEGREE: 13.3800
EVENT_DEPTH_KM: 8.3
HYPOCENTER_REFERENCE: INGV-CNT_Seismic_Bulletin
MAGNITUDE_W: 6.1
MAGNITUDE_W_REFERENCE: INGV-CNT_Seismic_Bulletin
MAGNITUDE_L: 
MAGNITUDE_L_REFERENCE: 
FOCAL_MECHANISM: Normal faulting
NETWORK: IT
STATION_CODE: FMG
STATION_NAME: 
STATION_LATITUDE_DEGREE: 42.268028
STATION_LONGITUDE_DEGREE: 13.117220
STATION_ELEVATION_M: 1071
LOCATION: 
SENSOR_DEPTH_M: 0.0
VS30_M/S: 790
SITE_CLASSIFICATION_EC8: B
MORPHOLOGIC_CLASSIFICATION: 
EPICENTRAL_DISTANCE_KM: 23.2
EARTHQUAKE_BACKAZIMUTH_DEGREE: 249.3
DATE_TIME_FIRST_SAMPLE_YYYYMMDD_HHMMSS: 
DATE_TIME_FIRST_SAMPLE_PRECISION: 
SAMPLING_INTERVAL_S: 
NDATA: 105
DURATION_S: 
STREAM: HNZ
UNITS: cm/s^2
INSTRUMENT: sensor = FBA-3 [Kinemetrics] | digitizer = Etna [Kinemetrics]
INSTRUMENT_ANALOG/DIGITAL: D
INSTRUMENTAL_FREQUENCY_HZ: 196.000
INSTRUMENTAL_DAMPING: 0.700000
FULL_SCALE_G: 1.0
N_BIT_DIGITAL_CONVERTER: 18
PGA_CM/S^2: -19.128697
TIME_PGA_S: 
BASELINE_CORRECTION: BASELINE REMOVED
FILTER_TYPE: BUTTERWORTH
FILTER_ORDER: 2
LOW_CUT_FREQUENCY_HZ: 0.100
HIGH_CUT_FREQUENCY_HZ: 40.000
LATE/NORMAL_TRIGGERED: NT
DATABASE_VERSION: 0.5
HEADER_FORMAT: DYNA 1.2
DATA_TYPE: ACCELERATION RESPONSE SPECTRUM
PROCESSING: manual (Paolucci et al., 2011)
DATA_TIMESTAMP_YYYYMMDD_HHMMSS: 20211011_155840.065
DATA_LICENSE: CC-BY3_0-IT (http://creativecommons.org/licenses/by/3.0/deed.en)
DATA_CITATION: Luzi L, Pacor F, Puglia R (2019). Italian Accelerometric Archive v 3.0 - Istituto Nazionale di Geofisica e Vulcanologia, Dipartimento della Protezione Civile Nazionale. doi: 10.13127/itaca.3.1
DATA_CREATOR: ITACA working group
ORIGINAL_DATA_MEDIATOR_CITATION: data obtained within the DPC-INGV data exchange agreements
ORIGINAL_DATA_MEDIATOR: Archive of Italian Department of Civil Protection
ORIGINAL_DATA_CREATOR_CITATION: Presidency Of Counsil Of Ministers-Civil Protection Department. (1972). Italian Strong Motion Network. Presidency of Counsil of Ministers - Civil Protection Department. https://doi.org/10.7914/SN/IT http://www.fdsn.org/networks/detail/IT/
ORIGINAL_DATA_CREATOR: network: IT (Italian Strong Motion Network (RAN)); owner: Presidency of Counsil of Ministers - Civil Protection Department (PCM - DPC)
USER1: 
USER2: 
USER3: 
USER4: 
USER5: 
    0.010000    19.358099
    0.020000    19.900894
    0.022000    20.267117
    0.025000    20.454523
    0.029000    22.386900
    0.030000    22.456949
    0.032000    23.595167
    0.035001    23.636690
    0.036000    24.432577
    0.040000    27.516359
    0.041999    28.939304
    0.044001    29.067183
    0.045000    29.451269
    0.046000    30.283312
    0.048001    35.357296
    0.050000    36.084526
    0.054999    38.727123
    0.059999    45.091415
    0.064998    35.320980
    0.067002    38.405357
    0.069999    39.299294
    0.075002    52.309963
    0.080000    46.618999
    0.084998    47.212738
    0.090001    48.832901
    0.095003    54.601040
    0.100000    51.499622
    0.109999    69.000320
    0.120005    84.665955
    0.130005    71.528435
    0.132996    66.526505
    0.139997    47.650551
    0.149993    43.800209
    0.160000    43.255543
    0.170010    43.789665
    0.179986    41.004524
    0.190006    44.699608
    0.200000    50.534119
    0.220022    43.271732
    0.239981    47.142681
    0.250000    58.465305
    0.260010    58.130455
    0.280034    44.790108
    0.290023    41.484917
    0.300030    41.816875
    0.320000    40.452797
    0.340020    49.413120
    0.350017    49.592079
    0.359971    45.281898
    0.379939    31.542315
    0.400000    38.784069
    0.419992    44.038353
    0.439947    36.673508
    0.450045    33.929272
    0.459982    31.134745
    0.480077    26.739609
    0.500000    30.930227
    0.550055    36.148682
    0.599880    35.478298
    0.650195    26.869196
    0.667111    28.974562
    0.699790    26.567663
    0.750188    17.520723
    0.800000    14.378887
    0.850340    12.165650
    0.900090    14.052859
    0.949668    15.020829
    1.000000    13.387388
    1.100110    11.708122
    1.200480    13.477011
    1.300390    10.834267
    1.400560    10.227332
    1.499250    10.187452
    1.600000    11.718719
    1.700680    15.000749
    1.798561    15.130173
    1.901141    12.781987
    2.000000    10.512920
    2.197802     8.314076
    2.398082     7.513346
    2.500000     7.545815
    2.597403     7.649230
    2.801121     6.819049
    3.003003     5.470333
    3.205128     4.395167
    3.401361     3.959043
    3.496503     3.575410
    3.597122     3.146891
    3.802281     2.626111
    4.000000     2.201033
    4.201681     1.959445
    4.405286     1.709874
    4.608295     1.539481
    4.807692     1.567592
    5.000000     1.541450
    5.494505     1.248643
    5.988024     0.868901
    6.493506     0.682917
    6.993007     0.453674
    7.518797     0.373303
    8.000000     0.321041
    8.474576     0.286183
    9.009009     0.258255
    9.523809     0.251412
   10.000000     0.236396
