EVENT_NAME: L_AQUILA
EVENT_ID: IT-2009-0009
EVENT_DATE_YYYYMMDD: 20090406
EVENT_TIME_HHMMSS: 013240
EVENT_LATITUDE_DEGREE: 42.3420
EVENT_LONGITUDE_DEGREE: 13.3800
EVENT_DEPTH_KM: 8.3
HYPOCENTER_REFERENCE: INGV-CNT_Seismic_Bulletin
MAGNITUDE_W: 6.1
MAGNITUDE_W_REFERENCE: INGV-CNT_Seismic_Bulletin
MAGNITUDE_L: 
MAGNITUDE_L_REFERENCE: 
FOCAL_MECHANISM: Normal faulting
NETWORK: IT
STATION_CODE: FMG
STATION_NAME: 
STATION_LATITUDE_DEGREE: 42.268028
STATION_LONGITUDE_DEGREE: 13.117220
STATION_ELEVATION_M: 1071
LOCATION: 
SENSOR_DEPTH_M: 0.0
VS30_M/S: 790
SITE_CLASSIFICATION_EC8: B
MORPHOLOGIC_CLASSIFICATION: 
EPICENTRAL_DISTANCE_KM: 23.2
EARTHQUAKE_BACKAZIMUTH_DEGREE: 249.3
DATE_TIME_FIRST_SAMPLE_YYYYMMDD_HHMMSS: 20090406_013215.000
DATE_TIME_FIRST_SAMPLE_PRECISION: seconds
SAMPLING_INTERVAL_S: 0.005000
NDATA: 23800
DURATION_S: 119.000
STREAM: HNZ
UNITS: cm/s
INSTRUMENT: sensor = FBA-3 [Kinemetrics] | digitizer = Etna [Kinemetrics]
INSTRUMENT_ANALOG/DIGITAL: D
INSTRUMENTAL_FREQUENCY_HZ: 196.000
INSTRUMENTAL_DAMPING: 0.700000
FULL_SCALE_G: 1.0
N_BIT_DIGITAL_CONVERTER: 18
PGV_CM/S: 1.402784
TIME_PGV_S: 38.460000
BASELINE_CORRECTION: BASELINE REMOVED
FILTER_TYPE: BUTTERWORTH
FILTER_ORDER: 2
LOW_CUT_FREQUENCY_HZ: 0.100
HIGH_CUT_FREQUENCY_HZ: 40.000
LATE/NORMAL_TRIGGERED: NT
DATABASE_VERSION: 0.5
HEADER_FORMAT: DYNA 1.2
DATA_TYPE: VELOCITY
PROCESSING: manual (Paolucci et al., 2011)
DATA_TIMESTAMP_YYYYMMDD_HHMMSS: 20211011_155839.363
DATA_LICENSE: CC-BY3_0-IT (http://creativecommons.org/licenses/by/3.0/deed.en)
DATA_CITATION: Luzi L, Pacor F, Puglia R (2019). Italian Accelerometric Archive v 3.0 - Istituto Nazionale di Geofisica e Vulcanologia, Dipartimento della Protezione Civile Nazionale. doi: 10.13127/itaca.3.1
DATA_CREATOR: ITACA working group
ORIGINAL_DATA_MEDIATOR_CITATION: data obtained within the DPC-INGV data exchange agreements
ORIGINAL_DATA_MEDIATOR: Archive of Italian Department of Civil Protection
ORIGINAL_DATA_CREATOR_CITATION: Presidency Of Counsil Of Ministers-Civil Protection Department. (1972). Italian Strong Motion Network. Presidency of Counsil of Ministers - Civil Protection Department. https://doi.org/10.7914/SN/IT http://www.fdsn.org/networks/detail/IT/
ORIGINAL_DATA_CREATOR: network: IT (Italian Strong Motion Network (RAN)); owner: Presidency of Counsil of Ministers - Civil Protection Department (PCM - DPC)
USER1: 
USER2: 
USER3: 
USER4: 
USER5: 
[...]
-0.169939
-0.185966
-0.211049
-0.238712
-0.262056
-0.275922
-0.278498
-0.271532
-0.259049
-0.245498
-0.234492
-0.228279
-0.227319
-0.229931
-0.232895
-0.233162
-0.229401
-0.222027
-0.211783
-0.198338
-0.180393
-0.157191
-0.129658
-0.099845
-0.069413
-0.038878
-0.008181
0.022518
0.052845
0.082560
0.111386
0.138622
0.163422
0.185366
0.204330
0.220053
0.232649
0.243496
0.254701
0.267175
0.279512
0.288923
0.293070
0.291127
0.283710
0.272376
0.259312
0.246942
0.237160
0.230912
0.228770
0.231482
0.239280
0.250704
0.262676
0.272000
0.276750
0.276522
0.272050
0.265049
0.258434
0.256343
0.263172
0.281344
0.309018
0.339732
0.364712
0.376593
0.372419
0.354478
0.328877
0.302551
0.280203
0.262993
0.249647
0.238435
0.228058
0.217290
0.204619
0.188649
0.168937
0.146455
0.123066
0.100238
0.078032
0.055086
0.029416
-0.000466
-0.034711
-0.072056
-0.110402
-0.147428
-0.181126
-0.210479
-0.235818
-0.258261
-0.278558
-0.296361
-0.310688
-0.321170
-0.328538
-0.333742
-0.337076
-0.338506
-0.338350
-0.337129
-0.334962
-0.331263
-0.324552
-0.312247
-0.291151
-0.259223
-0.217919
-0.173017
-0.132180
-0.100398
-0.077020
-0.056851
-0.034226
-0.006853
0.023042
0.050493
0.070761
0.081433
0.083038
0.078848
0.074168
0.074533
0.083163
0.099244
0.118158
0.133354
0.138922
0.131780
0.112557
0.084846
0.053451
0.022619
-0.004922
-0.027930
-0.046117
-0.059657
-0.068817
-0.073874
-0.075603
-0.075638
-0.075477
-0.074843
-0.071600
-0.063907
-0.052546
-0.040972
-0.032985
-0.030057
-0.030371
-0.030237
-0.026948
-0.020832
-0.014763
-0.011768
-0.013121
-0.018238
-0.025581
-0.033494
-0.040775
-0.046903
-0.051665
-0.054598
-0.055240
-0.054282
-0.054227
-0.058393
-0.068860
-0.085045
-0.103958
-0.121944
-0.136686
-0.147950
-0.156582
-0.162992
-0.166571
-0.166189
-0.160987
-0.150941
-0.137193
-0.122180
-0.109507
-0.103353
-0.107129
-0.121476
-0.142869
-0.164697
-0.180928
-0.189792
-0.194389
-0.199874
-0.209812
-0.224238
-0.239894
-0.251908
-0.256156
-0.251465
-0.240408
-0.227878
-0.218333
-0.213820
-0.213836
-0.216365
-0.219302
-0.222004
-0.226165
-0.234783
-0.249550
-0.268910
-0.288541
-0.303937
-0.313251
-0.318499
-0.324584
-0.336955
-0.359017
-0.390378
-0.426798
-0.462153
-0.491405
-0.512597
-0.526660
-0.535840
-0.542186
-0.546645
-0.548739
-0.546927
-0.539649
-0.526529
-0.508888
-0.489105
-0.469336
-0.450647
-0.433016
-0.415768
-0.397799
-0.377558
-0.353388
-0.324633
-0.292507
-0.259273
-0.226192
-0.192414
-0.155987
-0.116011
-0.074127
-0.034209
-0.000181
0.026696
0.048768
0.070192
0.093928
0.119980
0.146003
0.169343
0.188594
0.203587
0.214617
0.222128
0.226956
0.230480
0.234447
0.240607
0.250112
0.262703
0.276161
0.286667
0.290284
0.284987
0.272025
0.255555
0.240752
0.231691
0.230206
0.235738
0.245560
0.255356
0.260771
0.259721
0.253676
0.246356
0.240702
0.236676
0.231524
0.222010
0.207019
0.188875
0.172485
0.162892
0.162911
0.172285
0.188730
0.209807
0.233827
0.259186
0.283356
0.303045
0.315745
0.321559
0.323669
0.326642
0.333640
0.344717
0.357427
0.368933
0.377772
0.384116
0.388717
0.391635
0.391973
0.388813
0.382254
0.373581
0.364525
0.356089
0.347668
0.337272
0.322973
0.304437
0.283269
0.262100
0.243489
0.229392
0.220923
0.217928
0.218595
0.219568
0.216792
0.206983
0.189157
0.165170
0.138632
0.112979
0.090116
0.070521
0.054608
0.043975
0.040971
0.046488
0.057858
0.069131
0.074006
0.069104
0.054874
0.033714
0.007584
-0.022503
-0.054901
-0.085636
-0.108679
-0.118347
-0.112225
-0.092956
-0.068040
-0.047403
-0.039432
-0.047386
-0.068235
-0.094738
-0.119500
-0.138177
-0.149840
-0.155177
-0.154618
-0.147724
-0.133936
-0.114003
-0.090775
-0.068395
-0.050194
-0.036852
-0.026407
-0.016152
-0.004717
0.007378
0.018885
0.029440
0.040052
0.052046
0.065755
0.080603
0.096688
0.116107
0.142213
0.177005
0.218799
0.262330
0.301586
0.333413
0.359031
0.382299
0.406406
0.432004
0.458184
0.484690
0.512587
0.542358
0.571284
0.593062
0.600744
0.590830
0.565137
0.529384
0.490408
0.454344
0.426211
0.409837
0.407008
0.416006
0.431173
0.444690
0.449707
0.442911
0.425219
0.400081
0.370232
0.335656
0.294943
0.248541
0.200172
0.154958
0.116374
0.084909
0.059182
0.037926
0.020892
0.008024
-0.001978
-0.011948
-0.024859
-0.041889
-0.061448
-0.079843
-0.093226
-0.099547
-0.099253
-0.094738
-0.089436
-0.086571
-0.087198
-0.088627
-0.085481
-0.073750
-0.054801
-0.035557
-0.024477
-0.026735
-0.041974
-0.065266
-0.089775
-0.109493
-0.120861
-0.122652
-0.114821
-0.098092
-0.074870
-0.049955
-0.029211
-0.016447
-0.011019
-0.008621
-0.004865
0.001754
0.010081
0.018664
0.027330
0.037007
0.049097
0.065268
0.087021
0.114561
0.145902
0.177429
0.205823
0.229863
0.250772
0.270928
0.291954
0.313632
0.334470
0.353178
0.369454
0.383666
0.396515
0.409078
0.422316
0.435778
0.446796
0.451209
0.445021
0.425890
0.394077
0.352845
0.307749
0.264349
0.225421
0.189934
0.154763
0.117632
0.079115
0.042600
0.012264
-0.009866
-0.025889
-0.041196
-0.060779
-0.085483
-0.111444
-0.132871
-0.145383
-0.147417
-0.139398
-0.122174
-0.096345
-0.062812
-0.023656
0.017597
0.056422
0.088200
0.109495
0.119550
0.121072
0.119451
0.120937
0.131107
0.153881
0.190320
0.237279
0.287567
0.332468
0.365142
0.382856
0.387405
0.384023
0.379202
0.378239
0.383841
0.396334
0.414342
0.434778
0.452914
0.464147
0.467063
0.464950
0.463792
0.468178
0.478400
0.490408
0.497909
0.495121
0.478857
0.448928
0.406750
0.353415
0.288770
0.212151
0.124253
0.028905
-0.066738
-0.154294
-0.227585
-0.285331
-0.331473
-0.373224
-0.418157
-0.471541
-0.534552
-0.603807
-0.672283
-0.731006
-0.770855
-0.784691
-0.769860
-0.730003
-0.674706
-0.616475
-0.566273
-0.530388
-0.510525
-0.505884
-0.514550
-0.533375
-0.557659
-0.581775
-0.600668
-0.611422
-0.613894
-0.610196
-0.603649
-0.597792
-0.595273
-0.596458
-0.598675
-0.597171
-0.587458
-0.567540
-0.538751
-0.504741
-0.469157
-0.433537
-0.397029
-0.358100
-0.316651
-0.274517
-0.234085
-0.196754
-0.162608
-0.131072
-0.101822
-0.075477
-0.053674
-0.038635
-0.032914
-0.039219
-0.059258
-0.091491
-0.129708
-0.164555
-0.187972
-0.197846
-0.199512
-0.202899
-0.217509
-0.248779
-0.297405
-0.360448
-0.432612
-0.507324
-0.578016
-0.639779
-0.690935
-0.733546
-0.772223
-0.811726
-0.854834
-0.901621
-0.949991
-0.996692
-1.038145
-1.070759
-1.091072
-1.096644
-1.087448
-1.065920
-1.034687
-0.993902
-0.941308
-0.875549
-0.799865
-0.722680
-0.654460
-0.603145
-0.571043
-0.554685
-0.547560
-0.544020
-0.541829
-0.541759
-0.545008
-0.550842
-0.556311
-0.557935
-0.553798
-0.544669
-0.533859
-0.526221
-0.526480
-0.537175
-0.557326
-0.583110
-0.610195
-0.635598
-0.657549
-0.674191
-0.682979
-0.681405
-0.668001
-0.642691
-0.606942
-0.564450
-0.521561
-0.486026
-0.464212
-0.458718
-0.468101
-0.488392
-0.514844
-0.542970
-0.568941
-0.589469
-0.601275
-0.600769
-0.584713
-0.551681
-0.503236
-0.443764
-0.378923
-0.313821
-0.252265
-0.197144
-0.151129
-0.117133
-0.098267
-0.096813
-0.112353
-0.140436
-0.173261
-0.202298
-0.221326
-0.228199
-0.224654
-0.214624
-0.202036
-0.189040
-0.175316
-0.158715
-0.136968
-0.109643
-0.079165
-0.050268
-0.028385
-0.017980
-0.021368
-0.038138
-0.065517
-0.099624
-0.136758
-0.174030
-0.209559
-0.242693
-0.274387
-0.307286
-0.344767
-0.388846
-0.438086
-0.487200
-0.528983
-0.557545
-0.570704
-0.569961
-0.558359
-0.538113
-0.509694
-0.472633
-0.427262
-0.376166
-0.324385
-0.278347
-0.244108
-0.225184
-0.220429
-0.223243
-0.223387
-0.211013
-0.180945
-0.135015
-0.081133
-0.029334
0.012931
0.043205
0.062888
0.074395
0.079411
0.079071
0.074685
0.067827
0.060234
0.053949
0.050917
0.051355
0.052080
0.047133
0.031287
0.003765
-0.031308
-0.067937
-0.101683
-0.130782
-0.155445
-0.177316
-0.199330
-0.224867
-0.255979
-0.291885
-0.328634
-0.359959
-0.379037
-0.380965
-0.365120
-0.335901
-0.301022
-0.268189
-0.242066
-0.223073
-0.208439
-0.194839
-0.180975
-0.168385
-0.159975
-0.157631
-0.161054
-0.168612
-0.179035
-0.192247
-0.208689
-0.227829
-0.247206
-0.262965
-0.271647
-0.272027
-0.265908
-0.257517
-0.251724
-0.251842
-0.258248
-0.268763
-0.280308
-0.290361
-0.297179
-0.298859
-0.292276
-0.273351
-0.239353
-0.191729
-0.136684
-0.082429
-0.035243
0.002503
0.031476
0.053756
0.072415
0.091483
0.114447
0.141820
0.170485
0.195911
0.215123
0.227918
0.236161
0.242452
0.248827
0.255691
0.261590
0.264186
0.261594
0.252746
0.236857
0.213514
0.183833
0.151129
0.119774
0.093242
0.073237
0.060351
0.055093
0.058183
0.070111
0.090677
0.118988
0.153635
0.192466
0.232188
0.268614
0.297870
0.318020
0.330360
0.339695
0.352890
0.375622
0.409056
0.449056
0.488764
0.522757
0.550217
0.575403
0.605121
0.644648
0.695005
0.753476
0.816233
0.880286
0.943497
1.003998
1.060442
1.112637
1.161132
1.205942
1.246114
1.280614
1.308733
1.328922
1.337945
1.332554
1.312563
1.281986
1.247048
1.213140
1.183102
1.157063
1.132852
1.106730
1.075024
1.036237
0.992201
0.947504
0.907794
0.877878
0.860157
0.853882
0.855807
0.862077
0.870211
0.879926
0.892280
0.907639
0.924165
0.938290
0.946644
0.947150
0.938284
0.917986
0.883956
0.835110
0.772781
0.700942
0.625502
0.552893
0.488287
0.433972
0.388694
0.348555
0.308998
0.266546
0.219342
0.166722
0.108811
0.046878
-0.016012
-0.075183
-0.125754
-0.164101
-0.188205
-0.197107
-0.190735
-0.170679
-0.140997
-0.107560
-0.075702
-0.047829
-0.022974
0.001401
0.026752
0.052073
0.075052
0.094753
0.113026
0.133264
0.158160
0.188936
0.226211
0.270634
0.322336
0.380229
0.442124
0.505318
0.566883
0.623805
0.673568
0.715127
0.749521
0.779278
0.806645
0.831878
0.853032
0.867416
0.873555
0.872246
0.865935
0.856595
0.843867
0.825516
0.800059
0.768893
0.735569
0.702851
0.670655
0.637258
0.602643
0.570262
0.545144
0.530087
0.523353
0.519555
0.512584
0.498172
0.474602
0.441916
0.400967
0.353300
0.301764
0.250948
0.206571
0.173852
0.155785
0.152221
0.159774
0.172318
0.182494
0.184580
0.177544
0.165979
0.157783
0.159864
0.174611
0.199178
0.227507
0.253353
0.272640
0.284572
0.291681
0.298633
0.309467
0.324333
0.338310
0.343801
0.334910
0.310479
0.274003
0.231329
0.188149
0.148492
0.114219
0.085029
0.058700
0.031742
0.000764
-0.035875
-0.077341
-0.121327
-0.166035
-0.211282
-0.257603
-0.304279
-0.348453
-0.386385
-0.415667
-0.436365
-0.450383
-0.459973
-0.466708
-0.471373
-0.474243
-0.475408
-0.475366
-0.475999
-0.481076
-0.495046
-0.520275
-0.554802
-0.592677
-0.626679
-0.651257
-0.663803
-0.664021
-0.652365
-0.628691
-0.592157
-0.542795
-0.483717
-0.421988
-0.366965
-0.326838
-0.305342
-0.300366
-0.305058
-0.310943
-0.311561
-0.305007
-0.294465
-0.286581
-0.288295
-0.303676
-0.332521
-0.371034
-0.413619
-0.454852
-0.491268
-0.522253
-0.549205
-0.573474
-0.595081
-0.613599
-0.630029
-0.647168
-0.667599
-0.691112
-0.713879
-0.729845
-0.733028
-0.719312
-0.687353
-0.638750
-0.577324
-0.507413
-0.432308
-0.354226
-0.275862
-0.201943
-0.139157
-0.094110
-0.070326
-0.065908
-0.073426
-0.082605
-0.084730
-0.076338
-0.060063
-0.042419
-0.030277
-0.028041
-0.036372
-0.052455
-0.071472
-0.088688
-0.101444
-0.110426
-0.119522
-0.134089
-0.158480
-0.194124
-0.238971
-0.288505
-0.337801
-0.383239
-0.422600
-0.453779
-0.473853
-0.479731
-0.469978
-0.446510
-0.415101
-0.384377
-0.363614
-0.360055
-0.376535
-0.410462
-0.455021
-0.502322
-0.546809
-0.587056
-0.624995
-0.663071
-0.701208
-0.735843
-0.761705
-0.774703
-0.773405
-0.758422
-0.731242
-0.694053
-0.650261
-0.604314
-0.560340
-0.520646
-0.485648
-0.455568
-0.432501
-0.420732
-0.424529
-0.445014
-0.478822
-0.519816
-0.562359
-0.603286
-0.641060
-0.673428
-0.696311
-0.705378
-0.699218
-0.681388
-0.659272
-0.640115
-0.626993
-0.617745
-0.607552
-0.593019
-0.574661
-0.556392
-0.543191
-0.539156
-0.546975
-0.568097
-0.602419
-0.647394
-0.697832
-0.747353
-0.790738
-0.825260
-0.850050
-0.864543
-0.867598
-0.857977
-0.835509
-0.801767
-0.759586
-0.711952
-0.661085
-0.607894
-0.551594
-0.489714
-0.419121
-0.338076
-0.248182
-0.154685
-0.064874
0.013993
0.076090
0.117963
0.139431
0.143890
0.137412
0.127002
0.118915
0.117467
0.124513
0.139900
0.162835
0.193278
0.232236
0.280562
0.337246
0.399110
0.462746
0.526754
0.591306
0.654945
0.712118
0.754723
0.776663
0.777081
0.759351
0.727209
0.681852
0.622364
0.548601
0.463729
0.374374
0.288712
0.214447
0.158013
0.124565
0.117497
0.137049
0.179047
0.235433
0.296990
0.356775
0.412029
0.463485
0.513016
0.561718
0.609536
0.655624
0.698459
0.736297
0.768888
0.799361
0.833781
0.877836
0.933291
0.997246
1.064259
1.128799
1.186028
1.231647
1.262661
1.279122
1.285084
1.287561
1.293953
1.309160
1.333577
1.362780
1.388855
1.402784
1.397260
1.369288
1.321415
1.260513
1.194567
1.129455
1.067618
1.009060
0.953616
0.902585
0.858469
0.823248
0.796748
0.776578
0.759819
0.745100
0.733313
0.726382
0.725140
0.728058
0.731624
0.731868
0.725977
0.713375
0.696011
0.677574
0.661439
0.648246
0.635164
0.617892
0.594036
0.565469
0.538108
0.519139
0.513434
0.521472
0.539857
0.563603
0.588373
0.611499
0.631779
0.648838
0.662828
0.674518
0.684967
0.694312
0.700671
0.700646
0.691367
0.672292
0.645335
0.613657
0.580420
0.548156
0.518445
0.491716
0.467301
0.443603
0.418131
0.387616
0.348721
0.299525
0.241067
0.177556
0.114727
0.057628
0.009463
-0.028453
-0.056461
-0.076196
-0.089695
-0.098387
-0.102947
-0.104094
-0.103167
-0.101565
-0.099324
-0.094163
-0.082145
-0.059737
-0.025916
0.016729
0.062252
0.103270
0.134240
0.154184
0.166723
0.177472
0.190901
0.208450
0.228347
0.246738
0.259459
0.263658
0.258695
0.246276
0.229979
0.214213
0.202784
0.197596
0.198321
0.203278
0.210582
0.218306
0.223877
0.224054
0.215952
0.198134
0.170770
0.134882
0.091689
0.043065
-0.007248
-0.053531
-0.090227
-0.115115
-0.130922
-0.143741
-0.159332
-0.180317
-0.206294
-0.236025
-0.269260
-0.306660
-0.348415
-0.393427
-0.440266
-0.489046
-0.542103
-0.602511
-0.671534
-0.746976
-0.823600
-0.895190
-0.956768
-1.005747
-1.041852
-1.066302
-1.080827
-1.086860
-1.085176
-1.076192
-1.060828
-1.041308
-1.021273
-1.005111
-0.996672
-0.997606
-1.006112
-1.017218
-1.024985
-1.025546
-1.018960
-1.008550
-0.998354
-0.990657
-0.985161
-0.979852
-0.972699
-0.962989
-0.951421
-0.938997
-0.925720
-0.910115
-0.889728
-0.862042
-0.825430
-0.780118
-0.728957
-0.677389
-0.632010
-0.597870
-0.575881
-0.562206
-0.550231
-0.533865
-0.510231
-0.480429
-0.448284
-0.418139
-0.393099
-0.374375
-0.361448
-0.352380
-0.344106
-0.333160
-0.317053
-0.295643
-0.271373
-0.247997
-0.228686
-0.214841
-0.206168
-0.201510
-0.199653
-0.199820
-0.201829
-0.205883
-0.212108
-0.220271
-0.230050
-0.241528
-0.255147
-0.270958
-0.288158
-0.305882
-0.324490
-0.345421
-0.369137
-0.393182
-0.412536
-0.421926
-0.418115
-0.401040
-0.373784
-0.341315
-0.308040
-0.275567
-0.242478
-0.206293
-0.165962
-0.123092
-0.081374
-0.045093
-0.018059
-0.003446
-0.003758
-0.020127
-0.051380
-0.093882
-0.142322
-0.190852
-0.234203
-0.268668
-0.292806
-0.307730
-0.316803
-0.324468
-0.334441
-0.348356
-0.365756
-0.385047
-0.404185
-0.420788
-0.432461
-0.437770
-0.437065
-0.432134
-0.424822
-0.415852
-0.404878
-0.391461
-0.375722
-0.358124
-0.339038
-0.318943
-0.299019
-0.281079
-0.266600
-0.255948
-0.248519
-0.243012
-0.237176
-0.227636
-0.210566
-0.183116
-0.144759
-0.097642
-0.045595
0.007403
0.058092
0.103806
0.142190
0.171446
0.190758
0.200328
0.201035
0.194051
0.180647
0.162184
0.140065
0.115685
0.090627
0.067060
0.047835
0.035930
0.033402
0.040122
0.052860
0.065778
0.072730
0.070103
0.057970
0.038685
0.014333
-0.014591
-0.048256
-0.085659
-0.123878
-0.159047
-0.188058
-0.209717
-0.224960
-0.236244
-0.246354
-0.256957
-0.267635
-0.276198
-0.280294
-0.279220
-0.274707
-0.270433
-0.270864
-0.279789
-0.298632
-0.325452
-0.355816
-0.385295
-0.411740
-0.435779
-0.459500
-0.484355
-0.509575
-0.531950
-0.547271
-0.552701
-0.548468
-0.537313
-0.521818
-0.501737
-0.473581
-0.432667
-0.375982
-0.304215
-0.222236
-0.137956
-0.059798
0.006311
0.058756
0.099494
0.131287
0.155243
0.170608
0.176727
0.175306
0.170870
0.168827
0.172594
0.181910
0.193128
0.200992
0.200830
0.189997
0.168038
0.136264
0.097565
0.056074
0.015901
-0.020589
-0.053450
-0.084135
-0.113949
-0.143532
-0.173504
-0.205047
-0.239459
-0.276957
-0.315759
-0.352099
-0.381150
-0.398561
-0.402397
-0.394655
-0.380930
-0.367708
-0.358922
-0.354184
-0.349680
-0.340762
-0.324479
-0.300640
-0.271305
-0.239586
-0.208566
-0.180439
-0.155925
-0.134422
-0.114918
-0.096860
-0.080235
-0.065018
-0.050690
-0.036315
-0.021054
-0.004601
0.012783
0.030572
0.048323
0.065873
0.083284
0.100576
0.117310
0.132279
0.143591
0.149251
0.148133
0.141161
0.132141
0.127239
0.132694
0.151999
0.184410
0.225499
0.268875
0.307866
0.336785
0.352175
0.353947
0.345497
0.332225
0.319243
0.309671
0.304250
0.301976
0.301073
0.299760
0.296659
0.291124
0.283624
0.275795
0.269772
0.267256
0.269086
0.275457
0.286224
0.300929
0.318631
0.337655
0.355531
0.369477
0.377395
0.378698
0.374206
0.365076
0.351392
0.331180
0.300668
0.256073
0.195962
0.122477
0.040375
-0.045412
-0.131738
-0.217196
-0.300515
-0.379251
-0.449946
-0.509349
-0.555436
-0.587504
-0.605637
-0.610472
-0.603872
-0.589979
-0.575051
-0.565241
-0.563661
-0.569231
-0.578394
-0.588334
-0.598994
-0.612381
-0.630232
-0.652312
-0.676445
-0.699801
-0.720533
-0.738936
-0.757443
-0.779430
-0.807548
-0.842369
-0.881858
-0.921885
-0.957387
-0.983460
-0.996037
-0.992464
-0.972111
-0.936631
-0.889600
-0.835744
-0.779953
-0.726072
-0.675998
-0.629775
-0.586517
-0.545269
-0.505314
-0.466074
-0.426898
-0.386955
-0.345359
-0.301408
-0.254732
-0.205368
-0.153917
-0.101715
-0.050682
-0.002736
0.040923
0.080157
0.115591
0.147988
0.177938
0.206221
0.234321
0.264311
0.297971
0.335784
0.376498
0.417417
0.455312
0.487604
0.513212
0.532512
0.546442
0.555438
0.558991
0.556083
0.546099
0.529521
0.508036
0.484014
0.459539
0.435459
0.411140
0.385279
0.357311
0.328385
0.300977
0.277173
0.256855
0.237401
0.215273
0.188249
0.156720
0.123333
0.091411
0.063097
0.038216
0.014363
