EVENT_NAME: L_AQUILA
EVENT_ID: IT-2009-0009
EVENT_DATE_YYYYMMDD: 20090406
EVENT_TIME_HHMMSS: 013240
EVENT_LATITUDE_DEGREE: 42.3420
EVENT_LONGITUDE_DEGREE: 13.3800
EVENT_DEPTH_KM: 8.3
HYPOCENTER_REFERENCE: INGV-CNT_Seismic_Bulletin
MAGNITUDE_W: 6.1
MAGNITUDE_W_REFERENCE: INGV-CNT_Seismic_Bulletin
MAGNITUDE_L: 
MAGNITUDE_L_REFERENCE: 
FOCAL_MECHANISM: Normal faulting
NETWORK: IT
STATION_CODE: FMG
STATION_NAME: 
STATION_LATITUDE_DEGREE: 42.268028
STATION_LONGITUDE_DEGREE: 13.117220
STATION_ELEVATION_M: 1071
LOCATION: 
SENSOR_DEPTH_M: 0.0
VS30_M/S: 790
SITE_CLASSIFICATION_EC8: B
MORPHOLOGIC_CLASSIFICATION: 
EPICENTRAL_DISTANCE_KM: 23.2
EARTHQUAKE_BACKAZIMUTH_DEGREE: 249.3
DATE_TIME_FIRST_SAMPLE_YYYYMMDD_HHMMSS: 20090406_013215.000
DATE_TIME_FIRST_SAMPLE_PRECISION: seconds
SAMPLING_INTERVAL_S: 0.005000
NDATA: 23800
DURATION_S: 119.000
STREAM: HNE
UNITS: cm
INSTRUMENT: sensor = FBA-3 [Kinemetrics] | digitizer = Etna [Kinemetrics]
INSTRUMENT_ANALOG/DIGITAL: D
INSTRUMENTAL_FREQUENCY_HZ: 204.000
INSTRUMENTAL_DAMPING: 0.700000
FULL_SCALE_G: 1.0
N_BIT_DIGITAL_CONVERTER: 18
PGD_CM: 1.180653
TIME_PGD_S: 40.240000
BASELINE_CORRECTION: BASELINE REMOVED
FILTER_TYPE: BUTTERWORTH
FILTER_ORDER: 2
LOW_CUT_FREQUENCY_HZ: 0.100
HIGH_CUT_FREQUENCY_HZ: 40.000
LATE/NORMAL_TRIGGERED: NT
DATABASE_VERSION: 0.5
HEADER_FORMAT: DYNA 1.2
DATA_TYPE: DISPLACEMENT
PROCESSING: manual (Paolucci et al., 2011)
DATA_TIMESTAMP_YYYYMMDD_HHMMSS: 20211011_155838.070
DATA_LICENSE: CC-BY3_0-IT (http://creativecommons.org/licenses/by/3.0/deed.en)
DATA_CITATION: Luzi L, Pacor F, Puglia R (2019). Italian Accelerometric Archive v 3.0 - Istituto Nazionale di Geofisica e Vulcanologia, Dipartimento della Protezione Civile Nazionale. doi: 10.13127/itaca.3.1
DATA_CREATOR: ITACA working group
ORIGINAL_DATA_MEDIATOR_CITATION: data obtained within the DPC-INGV data exchange agreements
ORIGINAL_DATA_MEDIATOR: Archive of Italian Department of Civil Protection
ORIGINAL_DATA_CREATOR_CITATION: Presidency Of Counsil Of Ministers-Civil Protection Department. (1972). Italian Strong Motion Network. Presidency of Counsil of Ministers - Civil Protection Department. https://doi.org/10.7914/SN/IT http://www.fdsn.org/networks/detail/IT/
ORIGINAL_DATA_CREATOR: network: IT (Italian Strong Motion Network (RAN)); owner: Presidency of Counsil of Ministers - Civil Protection Department (PCM - DPC)
USER1: 
USER2: 
USER3: 
USER4: 
USER5: 
[...]
-1.031456e-01
-1.017885e-01
-1.004121e-01
-9.903806e-02
-9.767212e-02
-9.630699e-02
-9.492927e-02
-9.352897e-02
-9.210755e-02
-9.067963e-02
-8.926638e-02
-8.788518e-02
-8.654308e-02
-8.523790e-02
-8.396535e-02
-8.272712e-02
-8.153393e-02
-8.040099e-02
-7.933942e-02
-7.835116e-02
-7.743189e-02
-7.657980e-02
-7.580436e-02
-7.513099e-02
-7.459944e-02
-7.425495e-02
-7.413286e-02
-7.424226e-02
-7.455683e-02
-7.501946e-02
-7.556058e-02
-7.612259e-02
-7.667894e-02
-7.723827e-02
-7.783177e-02
-7.849107e-02
-7.922955e-02
-8.003668e-02
-8.088594e-02
-8.174715e-02
-8.259225e-02
-8.339038e-02
-8.409858e-02
-8.465878e-02
-8.500774e-02
-8.509706e-02
-8.491138e-02
-8.447309e-02
-8.383105e-02
-8.304089e-02
-8.214688e-02
-8.117181e-02
-8.011678e-02
-7.896889e-02
-7.771214e-02
-7.633634e-02
-7.484125e-02
-7.323655e-02
-7.153889e-02
-6.976579e-02
-6.792664e-02
-6.601436e-02
-6.400251e-02
-6.184898e-02
-5.950268e-02
-5.690920e-02
-5.401477e-02
-5.077096e-02
-4.714100e-02
-4.310776e-02
-3.868231e-02
-3.390949e-02
-2.886369e-02
-2.363107e-02
-1.828341e-02
-1.285656e-02
-7.344715e-03
-1.712929e-03
4.079807e-03
1.005832e-02
1.621967e-02
2.253589e-02
2.896779e-02
3.548199e-02
4.206183e-02
4.870636e-02
5.541872e-02
6.219105e-02
6.899453e-02
7.578060e-02
8.249322e-02
8.908562e-02
9.553246e-02
1.018325e-01
1.080013e-01
1.140561e-01
1.199993e-01
1.258088e-01
1.314406e-01
1.368397e-01
1.419540e-01
1.467454e-01
1.511974e-01
1.553156e-01
1.591213e-01
1.626396e-01
1.658918e-01
1.688912e-01
1.716435e-01
1.741508e-01
1.764176e-01
1.784545e-01
1.802757e-01
1.818926e-01
1.833084e-01
1.845195e-01
1.855209e-01
1.863135e-01
1.869086e-01
1.873253e-01
1.875822e-01
1.876872e-01
1.876354e-01
1.874147e-01
1.870156e-01
1.864377e-01
1.856903e-01
1.847863e-01
1.837355e-01
1.825423e-01
1.812092e-01
1.797426e-01
1.781526e-01
1.764493e-01
1.746363e-01
1.727092e-01
1.706571e-01
1.684684e-01
1.661373e-01
1.636672e-01
1.610701e-01
1.583628e-01
1.555637e-01
1.526902e-01
1.497581e-01
1.467810e-01
1.437693e-01
1.407296e-01
1.376627e-01
1.345641e-01
1.314251e-01
1.282347e-01
1.249799e-01
1.216443e-01
1.182086e-01
1.146514e-01
1.109505e-01
1.070821e-01
1.030199e-01
9.873638e-02
9.420638e-02
8.941248e-02
8.434794e-02
7.901680e-02
7.343159e-02
6.761076e-02
6.157787e-02
5.536231e-02
4.900034e-02
4.253442e-02
3.601038e-02
2.947357e-02
2.296617e-02
1.652568e-02
1.018288e-02
3.958958e-03
-2.136889e-03
-8.107747e-03
-1.396649e-02
-1.973097e-02
-2.541890e-02
-3.104489e-02
-3.662052e-02
-4.215576e-02
-4.765980e-02
-5.314137e-02
-5.860939e-02
-6.407402e-02
-6.954626e-02
-7.503449e-02
-8.053818e-02
-8.604139e-02
-9.150967e-02
-9.689358e-02
-1.021392e-01
-1.072023e-01
-1.120608e-01
-1.167189e-01
-1.212030e-01
-1.255495e-01
-1.297925e-01
-1.339536e-01
-1.380406e-01
-1.420518e-01
-1.459868e-01
-1.498524e-01
-1.536634e-01
-1.574366e-01
-1.611850e-01
-1.649165e-01
-1.686380e-01
-1.723610e-01
-1.761011e-01
-1.798711e-01
-1.836715e-01
-1.874868e-01
-1.912913e-01
-1.950594e-01
-1.987789e-01
-2.024589e-01
-2.061296e-01
-2.098306e-01
-2.135942e-01
-2.174332e-01
-2.213379e-01
-2.252812e-01
-2.292263e-01
-2.331339e-01
-2.369666e-01
-2.406891e-01
-2.442707e-01
-2.476880e-01
-2.509283e-01
-2.539896e-01
-2.568782e-01
-2.596047e-01
-2.621791e-01
-2.646078e-01
-2.668936e-01
-2.690389e-01
-2.710483e-01
-2.729306e-01
-2.747008e-01
-2.763836e-01
-2.780169e-01
-2.796524e-01
-2.813538e-01
-2.831906e-01
-2.852292e-01
-2.875233e-01
-2.901074e-01
-2.929958e-01
-2.961855e-01
-2.996606e-01
-3.033978e-01
-3.073715e-01
-3.115564e-01
-3.159278e-01
-3.204594e-01
-3.251227e-01
-3.298907e-01
-3.347437e-01
-3.396726e-01
-3.446725e-01
-3.497320e-01
-3.548256e-01
-3.599165e-01
-3.649676e-01
-3.699532e-01
-3.748645e-01
-3.797083e-01
-3.845016e-01
-3.892659e-01
-3.940229e-01
-3.987923e-01
-4.035904e-01
-4.084298e-01
-4.133195e-01
-4.182640e-01
-4.232620e-01
-4.283054e-01
-4.333793e-01
-4.384628e-01
-4.435300e-01
-4.485510e-01
-4.534942e-01
-4.583319e-01
-4.630475e-01
-4.676416e-01
-4.721336e-01
-4.765572e-01
-4.809518e-01
-4.853545e-01
-4.897940e-01
-4.942868e-01
-4.988328e-01
-5.034138e-01
-5.079941e-01
-5.125261e-01
-5.169587e-01
-5.212459e-01
-5.253541e-01
-5.292641e-01
-5.329713e-01
-5.364847e-01
-5.398239e-01
-5.430118e-01
-5.460651e-01
-5.489885e-01
-5.517735e-01
-5.544017e-01
-5.568477e-01
-5.590828e-01
-5.610791e-01
-5.628181e-01
-5.642952e-01
-5.655203e-01
-5.665120e-01
-5.672905e-01
-5.678742e-01
-5.682777e-01
-5.685123e-01
-5.685894e-01
-5.685245e-01
-5.683371e-01
-5.680446e-01
-5.676537e-01
-5.671575e-01
-5.665393e-01
-5.657809e-01
-5.648700e-01
-5.638036e-01
-5.625876e-01
-5.612323e-01
-5.597462e-01
-5.581338e-01
-5.563976e-01
-5.545432e-01
-5.525813e-01
-5.505270e-01
-5.483966e-01
-5.462045e-01
-5.439603e-01
-5.416661e-01
-5.393163e-01
-5.369000e-01
-5.344044e-01
-5.318190e-01
-5.291367e-01
-5.263556e-01
-5.234812e-01
-5.205270e-01
-5.175126e-01
-5.144573e-01
-5.113741e-01
-5.082669e-01
-5.051315e-01
-5.019595e-01
-4.987414e-01
-4.954711e-01
-4.921501e-01
-4.887891e-01
-4.854063e-01
-4.820230e-01
-4.786559e-01
-4.753133e-01
-4.719967e-01
-4.687094e-01
-4.654680e-01
-4.623104e-01
-4.592941e-01
-4.564849e-01
-4.539411e-01
-4.517000e-01
-4.497740e-01
-4.481537e-01
-4.468152e-01
-4.457265e-01
-4.448517e-01
-4.441525e-01
-4.435879e-01
-4.431156e-01
-4.426959e-01
-4.422988e-01
-4.419108e-01
-4.415398e-01
-4.412143e-01
-4.409777e-01
-4.408790e-01
-4.409624e-01
-4.412570e-01
-4.417711e-01
-4.424909e-01
-4.433867e-01
-4.444229e-01
-4.455690e-01
-4.468068e-01
-4.481305e-01
-4.495398e-01
-4.510314e-01
-4.525923e-01
-4.542004e-01
-4.558290e-01
-4.574554e-01
-4.590684e-01
-4.606721e-01
-4.622835e-01
-4.639253e-01
-4.656166e-01
-4.673665e-01
-4.691720e-01
-4.710190e-01
-4.728873e-01
-4.747577e-01
-4.766169e-01
-4.784562e-01
-4.802679e-01
-4.820432e-01
-4.837783e-01
-4.854807e-01
-4.871733e-01
-4.888913e-01
-4.906735e-01
-4.925504e-01
-4.945350e-01
-4.966179e-01
-4.987698e-01
-5.009463e-01
-5.030942e-01
-5.051590e-01
-5.070931e-01
-5.088629e-01
-5.104526e-01
-5.118621e-01
-5.130997e-01
-5.141739e-01
-5.150886e-01
-5.158429e-01
-5.164336e-01
-5.168550e-01
-5.170988e-01
-5.171574e-01
-5.170294e-01
-5.167258e-01
-5.162716e-01
-5.157020e-01
-5.150565e-01
-5.143722e-01
-5.136809e-01
-5.130102e-01
-5.123822e-01
-5.118068e-01
-5.112712e-01
-5.107323e-01
-5.101181e-01
-5.093392e-01
-5.083062e-01
-5.069478e-01
-5.052257e-01
-5.031406e-01
-5.007303e-01
-4.980588e-01
-4.952009e-01
-4.922249e-01
-4.891790e-01
-4.860884e-01
-4.829619e-01
-4.798022e-01
-4.766127e-01
-4.733984e-01
-4.701652e-01
-4.669194e-01
-4.636671e-01
-4.604151e-01
-4.571733e-01
-4.539570e-01
-4.507865e-01
-4.476829e-01
-4.446612e-01
-4.417253e-01
-4.388692e-01
-4.360811e-01
-4.333498e-01
-4.306690e-01
-4.280402e-01
-4.254740e-01
-4.229912e-01
-4.206214e-01
-4.184018e-01
-4.163734e-01
-4.145770e-01
-4.130478e-01
-4.118105e-01
-4.108764e-01
-4.102460e-01
-4.099139e-01
-4.098731e-01
-4.101156e-01
-4.106310e-01
-4.114094e-01
-4.124457e-01
-4.137418e-01
-4.153047e-01
-4.171402e-01
-4.192483e-01
-4.216224e-01
-4.242520e-01
-4.271231e-01
-4.302155e-01
-4.334976e-01
-4.369259e-01
-4.404517e-01
-4.440308e-01
-4.476322e-01
-4.512428e-01
-4.548680e-01
-4.585287e-01
-4.622552e-01
-4.660796e-01
-4.700273e-01
-4.741075e-01
-4.783038e-01
-4.825719e-01
-4.868460e-01
-4.910516e-01
-4.951178e-01
-4.989863e-01
-5.026163e-01
-5.059864e-01
-5.090937e-01
-5.119505e-01
-5.145815e-01
-5.170204e-01
-5.193065e-01
-5.214797e-01
-5.235768e-01
-5.256320e-01
-5.276802e-01
-5.297593e-01
-5.319098e-01
-5.341685e-01
-5.365596e-01
-5.390866e-01
-5.417314e-01
-5.444597e-01
-5.472290e-01
-5.499954e-01
-5.527187e-01
-5.553687e-01
-5.579317e-01
-5.604153e-01
-5.628487e-01
-5.652770e-01
-5.677496e-01
-5.703073e-01
-5.729700e-01
-5.757295e-01
-5.785497e-01
-5.813720e-01
-5.841267e-01
-5.867426e-01
-5.891551e-01
-5.913103e-01
-5.931663e-01
-5.946949e-01
-5.958832e-01
-5.967361e-01
-5.972749e-01
-5.975317e-01
-5.975392e-01
-5.973217e-01
-5.968917e-01
-5.962535e-01
-5.954099e-01
-5.943669e-01
-5.931335e-01
-5.917179e-01
-5.901213e-01
-5.883320e-01
-5.863211e-01
-5.840447e-01
-5.814492e-01
-5.784815e-01
-5.750964e-01
-5.712621e-01
-5.669609e-01
-5.621868e-01
-5.569417e-01
-5.512338e-01
-5.450813e-01
-5.385185e-01
-5.316006e-01
-5.244033e-01
-5.170140e-01
-5.095180e-01
-5.019867e-01
-4.944702e-01
-4.869980e-01
-4.795825e-01
-4.722253e-01
-4.649222e-01
-4.576665e-01
-4.504484e-01
-4.432551e-01
-4.360708e-01
-4.288799e-01
-4.216703e-01
-4.144362e-01
-4.071772e-01
-3.998957e-01
-3.925925e-01
-3.852649e-01
-3.779069e-01
-3.705142e-01
-3.630907e-01
-3.556519e-01
-3.482226e-01
-3.408317e-01
-3.335082e-01
-3.262812e-01
-3.191837e-01
-3.122548e-01
-3.055393e-01
-2.990824e-01
-2.929198e-01
-2.870692e-01
-2.815295e-01
-2.762855e-01
-2.713164e-01
-2.666035e-01
-2.621363e-01
-2.579159e-01
-2.539543e-01
-2.502670e-01
-2.468644e-01
-2.437463e-01
-2.409031e-01
-2.383221e-01
-2.359913e-01
-2.339000e-01
-2.320382e-01
-2.303948e-01
-2.289577e-01
-2.277152e-01
-2.266594e-01
-2.257885e-01
-2.251082e-01
-2.246287e-01
-2.243583e-01
-2.242941e-01
-2.244117e-01
-2.246587e-01
-2.249566e-01
-2.252133e-01
-2.253413e-01
-2.252775e-01
-2.249958e-01
-2.245095e-01
-2.238635e-01
-2.231202e-01
-2.223436e-01
-2.215882e-01
-2.208945e-01
-2.202916e-01
-2.198023e-01
-2.194458e-01
-2.192361e-01
-2.191768e-01
-2.192543e-01
-2.194374e-01
-2.196840e-01
-2.199545e-01
-2.202219e-01
-2.204716e-01
-2.206908e-01
-2.208565e-01
-2.209275e-01
-2.208454e-01
-2.205400e-01
-2.199365e-01
-2.189635e-01
-2.175606e-01
-2.156846e-01
-2.133115e-01
-2.104348e-01
-2.070622e-01
-2.032104e-01
-1.989017e-01
-1.941632e-01
-1.890299e-01
-1.835467e-01
-1.777662e-01
-1.717404e-01
-1.655104e-01
-1.591003e-01
-1.525179e-01
-1.457611e-01
-1.388245e-01
-1.317062e-01
-1.244100e-01
-1.169423e-01
-1.093037e-01
-1.014797e-01
-9.343721e-02
-8.512909e-02
-7.650381e-02
-6.751704e-02
-5.814177e-02
-4.837304e-02
-3.822536e-02
-2.772510e-02
-1.690286e-02
-5.789143e-03
5.586375e-03
1.719393e-02
2.900326e-02
4.098551e-02
5.311772e-02
6.538733e-02
7.779246e-02
9.033512e-02
1.030100e-01
1.157963e-01
1.286596e-01
1.415610e-01
1.544691e-01
1.673659e-01
1.802485e-01
1.931241e-01
2.060005e-01
2.188750e-01
2.317284e-01
2.445269e-01
2.572313e-01
2.698069e-01
2.822290e-01
2.944860e-01
3.065784e-01
3.185169e-01
3.303201e-01
3.420107e-01
3.536099e-01
3.651298e-01
3.765673e-01
3.879010e-01
3.990905e-01
4.100822e-01
4.208205e-01
4.312618e-01
4.413851e-01
4.511944e-01
4.607136e-01
4.699765e-01
4.790164e-01
4.878579e-01
4.965157e-01
5.049990e-01
5.133188e-01
5.214920e-01
5.295402e-01
5.374840e-01
5.453372e-01
5.531015e-01
5.607649e-01
5.683051e-01
5.756951e-01
5.829084e-01
5.899213e-01
5.967064e-01
6.032237e-01
6.094141e-01
6.152034e-01
6.205146e-01
6.252830e-01
6.294694e-01
6.330682e-01
6.361076e-01
6.386403e-01
6.407292e-01
6.424336e-01
6.438022e-01
6.448748e-01
6.456890e-01
6.462860e-01
6.467097e-01
6.470017e-01
6.471972e-01
6.473236e-01
6.474020e-01
6.474491e-01
6.474794e-01
6.475073e-01
6.475468e-01
6.476095e-01
6.476998e-01
6.478112e-01
6.479268e-01
6.480237e-01
6.480786e-01
6.480731e-01
6.479952e-01
6.478400e-01
6.476081e-01
6.473041e-01
6.469352e-01
6.465128e-01
6.460570e-01
6.456006e-01
6.451907e-01
6.448870e-01
6.447574e-01
6.448725e-01
6.452978e-01
6.460877e-01
6.472814e-01
6.489038e-01
6.509678e-01
6.534786e-01
6.564396e-01
6.598577e-01
6.637435e-01
6.681044e-01
6.729348e-01
6.782081e-01
6.838780e-01
6.898874e-01
6.961812e-01
7.027159e-01
7.094641e-01
7.164117e-01
7.235513e-01
7.308747e-01
7.383687e-01
7.460158e-01
7.537975e-01
7.616976e-01
7.697037e-01
7.778084e-01
7.860129e-01
7.943283e-01
8.027779e-01
8.113959e-01
8.202245e-01
8.293083e-01
8.386874e-01
8.483906e-01
8.584330e-01
8.688140e-01
8.795177e-01
8.905126e-01
9.017516e-01
9.131746e-01
9.247126e-01
9.362946e-01
9.478529e-01
9.593279e-01
9.706682e-01
9.818288e-01
9.927687e-01
1.003452e+00
1.013848e+00
1.023940e+00
1.033719e+00
1.043184e+00
1.052339e+00
1.061180e+00
1.069700e+00
1.077885e+00
1.085719e+00
1.093186e+00
1.100279e+00
1.107000e+00
1.113361e+00
1.119382e+00
1.125089e+00
1.130500e+00
1.135628e+00
1.140478e+00
1.145052e+00
1.149349e+00
1.153367e+00
1.157107e+00
1.160567e+00
1.163745e+00
1.166637e+00
1.169232e+00
1.171520e+00
1.173494e+00
1.175156e+00
1.176523e+00
1.177621e+00
1.178485e+00
1.179153e+00
1.179656e+00
1.180025e+00
1.180289e+00
1.180471e+00
1.180591e+00
1.180653e+00
1.180643e+00
1.180525e+00
1.180242e+00
1.179724e+00
1.178901e+00
1.177724e+00
1.176179e+00
1.174294e+00
1.172130e+00
1.169765e+00
1.167268e+00
1.164691e+00
1.162057e+00
1.159369e+00
1.156607e+00
1.153742e+00
1.150739e+00
1.147563e+00
1.144185e+00
1.140585e+00
1.136763e+00
1.132744e+00
1.128579e+00
1.124334e+00
1.120080e+00
1.115878e+00
1.111774e+00
1.107789e+00
1.103920e+00
1.100146e+00
1.096436e+00
1.092763e+00
1.089107e+00
1.085464e+00
1.081840e+00
1.078241e+00
1.074674e+00
1.071137e+00
1.067631e+00
1.064151e+00
1.060698e+00
1.057266e+00
1.053843e+00
1.050407e+00
1.046925e+00
1.043366e+00
1.039713e+00
1.035972e+00
1.032186e+00
1.028423e+00
1.024770e+00
1.021305e+00
1.018087e+00
1.015136e+00
1.012434e+00
1.009926e+00
1.007528e+00
1.005144e+00
1.002683e+00
1.000065e+00
9.972363e-01
9.941684e-01
9.908578e-01
9.873232e-01
9.835996e-01
9.797289e-01
9.757521e-01
9.717016e-01
9.675977e-01
9.634477e-01
9.592502e-01
9.550019e-01
9.507066e-01
9.463836e-01
9.420716e-01
9.378240e-01
9.336992e-01
9.297494e-01
9.260114e-01
9.225049e-01
9.192349e-01
9.161968e-01
9.133808e-01
9.107735e-01
9.083588e-01
9.061163e-01
9.040209e-01
9.020421e-01
9.001429e-01
8.982803e-01
8.964049e-01
8.944627e-01
8.924000e-01
8.901696e-01
8.877366e-01
8.850812e-01
8.821980e-01
8.790913e-01
8.757676e-01
8.722303e-01
8.684790e-01
8.645132e-01
8.603374e-01
8.559619e-01
8.514021e-01
8.466751e-01
8.417997e-01
8.367979e-01
8.316957e-01
8.265234e-01
8.213150e-01
8.161068e-01
8.109343e-01
8.058263e-01
8.007987e-01
7.958518e-01
7.909721e-01
7.861402e-01
7.813372e-01
7.765463e-01
7.717501e-01
7.669257e-01
7.620461e-01
7.570847e-01
7.520227e-01
7.468537e-01
7.415836e-01
7.362284e-01
7.308090e-01
7.253443e-01
7.198440e-01
7.143050e-01
7.087111e-01
7.030345e-01
6.972398e-01
6.912900e-01
6.851549e-01
6.788190e-01
6.722864e-01
6.655808e-01
6.587420e-01
6.518191e-01
6.448636e-01
6.379237e-01
6.310431e-01
6.242604e-01
6.176116e-01
6.111307e-01
6.048505e-01
5.988050e-01
5.930333e-01
5.875802e-01
5.824908e-01
5.778023e-01
5.735363e-01
5.696959e-01
5.662661e-01
5.632166e-01
5.605072e-01
5.580941e-01
5.559385e-01
5.540125e-01
5.523032e-01
5.508112e-01
5.495482e-01
5.485317e-01
5.477807e-01
5.473111e-01
5.471311e-01
5.472388e-01
5.476206e-01
5.482517e-01
5.490960e-01
5.501076e-01
5.512304e-01
5.524014e-01
5.535544e-01
5.546244e-01
5.555518e-01
5.562859e-01
5.567876e-01
5.570295e-01
5.569941e-01
5.566714e-01
5.560577e-01
5.551540e-01
5.539640e-01
5.524910e-01
5.507352e-01
5.486917e-01
5.463473e-01
5.436796e-01
5.406602e-01
5.372623e-01
5.334688e-01
5.292795e-01
5.247135e-01
5.198078e-01
5.146107e-01
5.091736e-01
5.035426e-01
4.977519e-01
4.918202e-01
4.857493e-01
4.795245e-01
4.731174e-01
4.664909e-01
4.596065e-01
4.524327e-01
4.449507e-01
4.371558e-01
4.290552e-01
4.206645e-01
4.120059e-01
4.031096e-01
3.940146e-01
3.847673e-01
3.754170e-01
3.660094e-01
3.565828e-01
3.471645e-01
3.377712e-01
3.284100e-01
3.190849e-01
3.098041e-01
3.005864e-01
2.914620e-01
2.824682e-01
2.736421e-01
2.650168e-01
2.566183e-01
2.484667e-01
2.405784e-01
2.329696e-01
2.256580e-01
2.186631e-01
2.120043e-01
2.056953e-01
1.997383e-01
1.941188e-01
1.888049e-01
1.837519e-01
1.789119e-01
1.742425e-01
1.697129e-01
1.653042e-01
1.610065e-01
1.568146e-01
1.527230e-01
1.487233e-01
1.448045e-01
1.409541e-01
1.371598e-01
1.334102e-01
1.296942e-01
1.260003e-01
1.223163e-01
1.186301e-01
1.149331e-01
1.112242e-01
1.075144e-01
1.038275e-01
1.001965e-01
9.665720e-02
9.324103e-02
8.997146e-02
8.686207e-02
8.391665e-02
8.113055e-02
7.849286e-02
7.598904e-02
7.360327e-02
7.132008e-02
6.912503e-02
6.700432e-02
6.494269e-02
6.291965e-02
6.090532e-02
5.885874e-02
5.673105e-02
5.447334e-02
5.204724e-02
4.943418e-02
4.664103e-02
4.370071e-02
4.066831e-02
3.761357e-02
3.461093e-02
3.172917e-02
2.902216e-02
2.652206e-02
2.423629e-02
2.215015e-02
2.023500e-02
1.845840e-02
1.679114e-02
1.520892e-02
1.369060e-02
1.221599e-02
1.076492e-02
9.318275e-03
7.860508e-03
6.382278e-03
4.881578e-03
3.362989e-03
1.835755e-03
3.119660e-04
-1.194395e-03
-2.667875e-03
-4.092260e-03
-5.451732e-03
-6.731957e-03
-7.921145e-03
-9.011781e-03
-1.000319e-02
-1.090429e-02
-1.173571e-02
-1.253033e-02
-1.333108e-02
-1.418630e-02
-1.514447e-02
-1.625038e-02
-1.754298e-02
-1.905393e-02
-2.080600e-02
-2.281263e-02
-2.508000e-02
-2.761095e-02
-3.040881e-02
-3.347932e-02
-3.683066e-02
-4.047142e-02
-4.440735e-02
-4.863844e-02
-5.315789e-02
-5.795343e-02
-6.300985e-02
-6.831221e-02
-7.384911e-02
-7.961525e-02
-8.561249e-02
-9.184987e-02
-9.834222e-02
-1.051071e-01
-1.121595e-01
-1.195068e-01
-1.271454e-01
-1.350612e-01
-1.432315e-01
-1.516273e-01
-1.602147e-01
-1.689572e-01
-1.778163e-01
-1.867521e-01
-1.957251e-01
-2.046973e-01
-2.136332e-01
-2.224996e-01
-2.312623e-01
-2.398828e-01
-2.483161e-01
-2.565112e-01
-2.644127e-01
-2.719638e-01
-2.791109e-01
-2.858090e-01
-2.920275e-01
-2.977523e-01
-3.029856e-01
-3.077439e-01
-3.120551e-01
-3.159553e-01
-3.194846e-01
-3.226847e-01
-3.255984e-01
-3.282693e-01
-3.307421e-01
-3.330607e-01
-3.352677e-01
-3.374023e-01
-3.394998e-01
-3.415906e-01
-3.437020e-01
-3.458574e-01
-3.480772e-01
-3.503783e-01
-3.527760e-01
-3.552858e-01
-3.579226e-01
-3.606972e-01
-3.636109e-01
-3.666515e-01
-3.697934e-01
-3.730024e-01
-3.762421e-01
-3.794804e-01
-3.826951e-01
-3.858753e-01
-3.890176e-01
