EVENT_NAME: L_AQUILA
EVENT_ID: IT-2009-0009
EVENT_DATE_YYYYMMDD: 20090406
EVENT_TIME_HHMMSS: 013240
EVENT_LATITUDE_DEGREE: 42.3420
EVENT_LONGITUDE_DEGREE: 13.3800
EVENT_DEPTH_KM: 8.3
HYPOCENTER_REFERENCE: INGV-CNT_Seismic_Bulletin
MAGNITUDE_W: 6.1
MAGNITUDE_W_REFERENCE: INGV-CNT_Seismic_Bulletin
MAGNITUDE_L: 
MAGNITUDE_L_REFERENCE: 
FOCAL_MECHANISM: Normal faulting
NETWORK: IT
STATION_CODE: FMG
STATION_NAME: 
STATION_LATITUDE_DEGREE: 42.268028
STATION_LONGITUDE_DEGREE: 13.117220
STATION_ELEVATION_M: 1071
LOCATION: 
SENSOR_DEPTH_M: 0.0
VS30_M/S: 790
SITE_CLASSIFICATION_EC8: B
MORPHOLOGIC_CLASSIFICATION: 
EPICENTRAL_DISTANCE_KM: 23.2
EARTHQUAKE_BACKAZIMUTH_DEGREE: 249.3
DATE_TIME_FIRST_SAMPLE_YYYYMMDD_HHMMSS: 20090406_013215.000
DATE_TIME_FIRST_SAMPLE_PRECISION: seconds
SAMPLING_INTERVAL_S: 0.005000
NDATA: 23800
DURATION_S: 119.000
STREAM: HNZ
UNITS: cm
INSTRUMENT: sensor = FBA-3 [Kinemetrics] | digitizer = Etna [Kinemetrics]
INSTRUMENT_ANALOG/DIGITAL: D
INSTRUMENTAL_FREQUENCY_HZ: 196.000
INSTRUMENTAL_DAMPING: 0.700000
FULL_SCALE_G: 1.0
N_BIT_DIGITAL_CONVERTER: 18
PGD_CM: 0.370300
TIME_PGD_S: 45.380000
BASELINE_CORRECTION: BASELINE REMOVED
FILTER_TYPE: BUTTERWORTH
FILTER_ORDER: 2
LOW_CUT_FREQUENCY_HZ: 0.100
HIGH_CUT_FREQUENCY_HZ: 40.000
LATE/NORMAL_TRIGGERED: NT
DATABASE_VERSION: 0.5
HEADER_FORMAT: DYNA 1.2
DATA_TYPE: DISPLACEMENT
PROCESSING: manual (Paolucci et al., 2011)
DATA_TIMESTAMP_YYYYMMDD_HHMMSS: 20211011_155839.211
DATA_LICENSE: CC-BY3_0-IT (http://creativecommons.org/licenses/by/3.0/deed.en)
DATA_CITATION: Luzi L, Pacor F, Puglia R (2019). Italian Accelerometric Archive v 3.0 - Istituto Nazionale di Geofisica e Vulcanologia, Dipartimento della Protezione Civile Nazionale. doi: 10.13127/itaca.3.1
DATA_CREATOR: ITACA working group
ORIGINAL_DATA_MEDIATOR_CITATION: data obtained within the DPC-INGV data exchange agreements
ORIGINAL_DATA_MEDIATOR: Archive of Italian Department of Civil Protection
ORIGINAL_DATA_CREATOR_CITATION: Presidency Of Counsil Of Ministers-Civil Protection Department. (1972). Italian Strong Motion Network. Presidency of Counsil of Ministers - Civil Protection Department. https://doi.org/10.7914/SN/IT http://www.fdsn.org/networks/detail/IT/
ORIGINAL_DATA_CREATOR: network: IT (Italian Strong Motion Network (RAN)); owner: Presidency of Counsil of Ministers - Civil Protection Department (PCM - DPC)
USER1: 
USER2: 
USER3: 
USER4: 
USER5: 
[...]
-1.673030e-01
-1.709057e-01
-1.746004e-01
-1.783876e-01
-1.822847e-01
-1.863225e-01
-1.905343e-01
-1.949436e-01
-1.995530e-01
-2.043400e-01
-2.092573e-01
-2.142375e-01
-2.191998e-01
-2.240603e-01
-2.287435e-01
-2.331915e-01
-2.373702e-01
-2.412700e-01
-2.449003e-01
-2.482803e-01
-2.514292e-01
-2.543618e-01
-2.570881e-01
-2.596147e-01
-2.619451e-01
-2.640796e-01
-2.660143e-01
-2.677411e-01
-2.692482e-01
-2.705218e-01
-2.715487e-01
-2.723183e-01
-2.728268e-01
-2.730802e-01
-2.730939e-01
-2.728893e-01
-2.724885e-01
-2.719106e-01
-2.711706e-01
-2.702809e-01
-2.692498e-01
-2.680782e-01
-2.667567e-01
-2.652668e-01
-2.635879e-01
-2.617054e-01
-2.596183e-01
-2.573417e-01
-2.549037e-01
-2.523377e-01
-2.496751e-01
-2.469429e-01
-2.441657e-01
-2.413707e-01
-2.385903e-01
-2.358598e-01
-2.332122e-01
-2.306721e-01
-2.282520e-01
-2.259543e-01
-2.237770e-01
-2.217213e-01
-2.197949e-01
-2.180083e-01
-2.163664e-01
-2.148615e-01
-2.134757e-01
-2.121914e-01
-2.110044e-01
-2.099280e-01
-2.089868e-01
-2.082032e-01
-2.075865e-01
-2.071295e-01
-2.068140e-01
-2.066229e-01
-2.065511e-01
-2.066110e-01
-2.068305e-01
-2.072445e-01
-2.078831e-01
-2.087611e-01
-2.098711e-01
-2.111827e-01
-2.126477e-01
-2.142118e-01
-2.158260e-01
-2.174556e-01
-2.190821e-01
-2.206998e-01
-2.223103e-01
-2.239184e-01
-2.255294e-01
-2.271501e-01
-2.287890e-01
-2.304584e-01
-2.321757e-01
-2.339644e-01
-2.358523e-01
-2.378707e-01
-2.400520e-01
-2.424282e-01
-2.450288e-01
-2.478776e-01
-2.509866e-01
-2.543475e-01
-2.579260e-01
-2.616643e-01
-2.654933e-01
-2.693507e-01
-2.731930e-01
-2.769982e-01
-2.807566e-01
-2.844616e-01
-2.881017e-01
-2.916596e-01
-2.951145e-01
-2.984474e-01
-3.016476e-01
-3.047166e-01
-3.076655e-01
-3.105061e-01
-3.132395e-01
-3.158510e-01
-3.183110e-01
-3.205851e-01
-3.226449e-01
-3.244774e-01
-3.260872e-01
-3.274938e-01
-3.287254e-01
-3.298144e-01
-3.307946e-01
-3.316991e-01
-3.325573e-01
-3.333935e-01
-3.342260e-01
-3.350693e-01
-3.359365e-01
-3.368385e-01
-3.377838e-01
-3.387762e-01
-3.398143e-01
-3.408913e-01
-3.419947e-01
-3.431061e-01
-3.442003e-01
-3.452453e-01
-3.462039e-01
-3.470357e-01
-3.477008e-01
-3.481630e-01
-3.483945e-01
-3.483822e-01
-3.481302e-01
-3.476550e-01
-3.469727e-01
-3.460861e-01
-3.449783e-01
-3.436187e-01
-3.419753e-01
-3.400271e-01
-3.377710e-01
-3.352203e-01
-3.323963e-01
-3.293169e-01
-3.259876e-01
-3.223990e-01
-3.185297e-01
-3.143542e-01
-3.098522e-01
-3.050172e-01
-2.998616e-01
-2.944151e-01
-2.887178e-01
-2.828122e-01
-2.767390e-01
-2.705373e-01
-2.642458e-01
-2.579045e-01
-2.515567e-01
-2.452496e-01
-2.390328e-01
-2.329507e-01
-2.270346e-01
-2.212993e-01
-2.157453e-01
-2.103648e-01
-2.051445e-01
-2.000649e-01
-1.951007e-01
-1.902245e-01
-1.854124e-01
-1.806475e-01
-1.759203e-01
-1.712262e-01
-1.665621e-01
-1.619217e-01
-1.572911e-01
-1.526484e-01
-1.479695e-01
-1.432381e-01
-1.384530e-01
-1.336299e-01
-1.287936e-01
-1.239699e-01
-1.191795e-01
-1.144359e-01
-1.097444e-01
-1.051037e-01
-1.005091e-01
-9.595804e-02
-9.145188e-02
-8.699538e-02
-8.259476e-02
-7.825739e-02
-7.399361e-02
-6.981941e-02
-6.575739e-02
-6.183360e-02
-5.807107e-02
-5.448296e-02
-5.106845e-02
-4.781237e-02
-4.468794e-02
-4.166219e-02
-3.870275e-02
-3.578373e-02
-3.288719e-02
-2.999910e-02
-2.710236e-02
-2.417190e-02
-2.117530e-02
-1.807877e-02
-1.485533e-02
-1.149126e-02
-7.988548e-03
-4.362295e-03
-6.338582e-04
3.178182e-03
7.066359e-03
1.103844e-02
1.511522e-02
1.932326e-02
2.368650e-02
2.822088e-02
3.293381e-02
3.782715e-02
4.289966e-02
4.814559e-02
5.354981e-02
5.908393e-02
6.470799e-02
7.037870e-02
7.605985e-02
8.172975e-02
8.738263e-02
9.302338e-02
9.865774e-02
1.042830e-01
1.098845e-01
1.154403e-01
1.209270e-01
1.263240e-01
1.316139e-01
1.367836e-01
1.418267e-01
1.467466e-01
1.515546e-01
1.562645e-01
1.608864e-01
1.654252e-01
1.698806e-01
1.742482e-01
1.785195e-01
1.826830e-01
1.867286e-01
1.906520e-01
1.944588e-01
1.981645e-01
2.017904e-01
2.053582e-01
2.088858e-01
2.123869e-01
2.158737e-01
2.193580e-01
2.228497e-01
2.263530e-01
2.298652e-01
2.333769e-01
2.368729e-01
2.403314e-01
2.437255e-01
2.470257e-01
2.502043e-01
2.532379e-01
2.561078e-01
2.587996e-01
2.613026e-01
2.636091e-01
2.657132e-01
2.676114e-01
2.693034e-01
2.707932e-01
2.720876e-01
2.731927e-01
2.741122e-01
2.748493e-01
2.754100e-01
2.758074e-01
2.760625e-01
2.762042e-01
2.762675e-01
2.762907e-01
2.763114e-01
2.763645e-01
2.764818e-01
2.766941e-01
2.770321e-01
2.775238e-01
2.781875e-01
2.790256e-01
2.800242e-01
2.811582e-01
2.823971e-01
2.837093e-01
2.850621e-01
2.864232e-01
2.877616e-01
2.890511e-01
2.902727e-01
2.914172e-01
2.924845e-01
2.934821e-01
2.944220e-01
2.953152e-01
2.961649e-01
2.969597e-01
2.976703e-01
2.982512e-01
2.986493e-01
2.988132e-01
2.987018e-01
2.982864e-01
2.975491e-01
2.964808e-01
2.950792e-01
2.933486e-01
2.912985e-01
2.889417e-01
2.862914e-01
2.833577e-01
2.801472e-01
2.766640e-01
2.729153e-01
2.689162e-01
2.646910e-01
2.602685e-01
2.556740e-01
2.509249e-01
2.460340e-01
2.410180e-01
2.359043e-01
2.307309e-01
2.255408e-01
2.203741e-01
2.152612e-01
2.102192e-01
2.052503e-01
2.003438e-01
1.954786e-01
1.906297e-01
1.857741e-01
1.808967e-01
1.759928e-01
1.710670e-01
1.661294e-01
1.611920e-01
1.562654e-01
1.513569e-01
1.464689e-01
1.415985e-01
1.367375e-01
1.318755e-01
1.270037e-01
1.221192e-01
1.172280e-01
1.123448e-01
1.074896e-01
1.026833e-01
9.794412e-02
9.328324e-02
8.870262e-02
8.419392e-02
7.974182e-02
7.533111e-02
7.095435e-02
6.661611e-02
6.233183e-02
5.812265e-02
5.400958e-02
5.001006e-02
4.613682e-02
4.239722e-02
3.879155e-02
3.531064e-02
3.193533e-02
2.863979e-02
2.539820e-02
2.219092e-02
1.900691e-02
1.584256e-02
1.269978e-02
9.585181e-03
6.509626e-03
3.487262e-03
5.342924e-04
-2.332245e-03
-5.096806e-03
-7.749623e-03
-1.029147e-02
-1.273556e-02
-1.510411e-02
-1.742097e-02
-1.970437e-02
-2.196407e-02
-2.420424e-02
-2.642982e-02
-2.865219e-02
-3.089026e-02
-3.316625e-02
-3.549859e-02
-3.789581e-02
-4.035464e-02
-4.286330e-02
-4.540881e-02
-4.798497e-02
-5.059777e-02
-5.326628e-02
-5.601900e-02
-5.888763e-02
-6.190080e-02
-6.507961e-02
-6.843548e-02
-7.196950e-02
-7.567280e-02
-7.952777e-02
-8.350998e-02
-8.759020e-02
-9.173657e-02
-9.591693e-02
-1.001019e-01
-1.042686e-01
-1.084047e-01
-1.125105e-01
-1.165993e-01
-1.206931e-01
-1.248173e-01
-1.289931e-01
-1.332318e-01
-1.375326e-01
-1.418847e-01
-1.462735e-01
-1.506858e-01
-1.551126e-01
-1.595463e-01
-1.639749e-01
-1.683775e-01
-1.727235e-01
-1.769778e-01
-1.811082e-01
-1.850915e-01
-1.889155e-01
-1.925770e-01
-1.960798e-01
-1.994351e-01
-2.026662e-01
-2.058108e-01
-2.089173e-01
-2.120356e-01
-2.152077e-01
-2.184637e-01
-2.218202e-01
-2.252823e-01
-2.288456e-01
-2.324996e-01
-2.362318e-01
-2.400302e-01
-2.438835e-01
-2.477802e-01
-2.517065e-01
-2.556479e-01
-2.595899e-01
-2.635189e-01
-2.674194e-01
-2.712705e-01
-2.750453e-01
-2.787129e-01
-2.822452e-01
-2.856223e-01
-2.888358e-01
-2.918886e-01
-2.947893e-01
-2.975452e-01
-3.001570e-01
-3.026165e-01
-3.049084e-01
-3.070144e-01
-3.089187e-01
-3.106140e-01
-3.121054e-01
-3.134083e-01
-3.145425e-01
-3.155254e-01
-3.163681e-01
-3.170765e-01
-3.176536e-01
-3.181009e-01
-3.184186e-01
-3.186050e-01
-3.186552e-01
-3.185623e-01
-3.183189e-01
-3.179193e-01
-3.173612e-01
-3.166459e-01
-3.157802e-01
-3.147790e-01
-3.136674e-01
-3.124788e-01
-3.112483e-01
-3.100039e-01
-3.087604e-01
-3.075180e-01
-3.062655e-01
-3.049854e-01
-3.036581e-01
-3.022652e-01
-3.007919e-01
-2.992270e-01
-2.975609e-01
-2.957840e-01
-2.938849e-01
-2.918501e-01
-2.896676e-01
-2.873325e-01
-2.848524e-01
-2.822500e-01
-2.795606e-01
-2.768269e-01
-2.740938e-01
-2.714042e-01
-2.687971e-01
-2.663040e-01
-2.639471e-01
-2.617396e-01
-2.596885e-01
-2.577984e-01
-2.560741e-01
-2.545201e-01
-2.531389e-01
-2.519289e-01
-2.508843e-01
-2.499973e-01
-2.492595e-01
-2.486630e-01
-2.481987e-01
-2.478541e-01
-2.476100e-01
-2.474393e-01
-2.473085e-01
-2.471816e-01
-2.470255e-01
-2.468144e-01
-2.465325e-01
-2.461734e-01
-2.457353e-01
-2.452166e-01
-2.446144e-01
-2.439275e-01
-2.431598e-01
-2.423215e-01
-2.414292e-01
-2.405039e-01
-2.395686e-01
-2.386459e-01
-2.377547e-01
-2.369089e-01
-2.361161e-01
-2.353780e-01
-2.346926e-01
-2.340572e-01
-2.334712e-01
-2.329367e-01
-2.324560e-01
-2.320280e-01
-2.316447e-01
-2.312902e-01
-2.309417e-01
-2.305745e-01
-2.301671e-01
-2.297052e-01
-2.291832e-01
-2.286051e-01
-2.279858e-01
-2.273523e-01
-2.267401e-01
-2.261844e-01
-2.257087e-01
-2.253178e-01
-2.249986e-01
-2.247285e-01
-2.244861e-01
-2.242594e-01
-2.240472e-01
-2.238535e-01
-2.236794e-01
-2.235156e-01
-2.233413e-01
-2.231272e-01
-2.228414e-01
-2.224519e-01
-2.219271e-01
-2.212356e-01
-2.203483e-01
-2.192429e-01
-2.179083e-01
-2.163471e-01
-2.145743e-01
-2.126133e-01
-2.104898e-01
-2.082245e-01
-2.058281e-01
-2.033007e-01
-2.006356e-01
-1.978251e-01
-1.948637e-01
-1.917490e-01
-1.884796e-01
-1.850531e-01
-1.814649e-01
-1.777090e-01
-1.737805e-01
-1.696770e-01
-1.653992e-01
-1.609508e-01
-1.563362e-01
-1.515591e-01
-1.466216e-01
-1.415270e-01
-1.362844e-01
-1.309118e-01
-1.254373e-01
-1.198956e-01
-1.143235e-01
-1.087568e-01
-1.032264e-01
-9.775588e-02
-9.235866e-02
-8.703924e-02
-8.179696e-02
-7.663124e-02
-7.154608e-02
-6.655256e-02
-6.166827e-02
-5.691298e-02
-5.230236e-02
-4.784398e-02
-4.353842e-02
-3.938436e-02
-3.538311e-02
-3.153952e-02
-2.785984e-02
-2.434941e-02
-2.101158e-02
-1.784812e-02
-1.485987e-02
-1.204660e-02
-9.405789e-03
-6.931432e-03
-4.614286e-03
-2.443769e-03
-4.106591e-04
1.490919e-03
3.263760e-03
4.910601e-03
6.438267e-03
7.860028e-03
9.194295e-03
1.046034e-02
1.167340e-02
1.284138e-02
1.396446e-02
1.503782e-02
1.605649e-02
1.701983e-02
1.793309e-02
1.880547e-02
1.964645e-02
2.046338e-02
2.126135e-02
2.204412e-02
2.281490e-02
2.357643e-02
2.433088e-02
2.507998e-02
2.582589e-02
2.657298e-02
2.732982e-02
2.810993e-02
2.892981e-02
2.980488e-02
3.074551e-02
3.175517e-02
3.283124e-02
3.396718e-02
3.515536e-02
3.639033e-02
3.767223e-02
3.900881e-02
4.041373e-02
4.190094e-02
4.347748e-02
4.513905e-02
4.687042e-02
4.864968e-02
5.045349e-02
5.226108e-02
5.405566e-02
5.582315e-02
5.754983e-02
5.922189e-02
6.082832e-02
6.236537e-02
6.383861e-02
6.526054e-02
6.664527e-02
6.800445e-02
6.934744e-02
7.068506e-02
7.203290e-02
7.340997e-02
7.483269e-02
7.630835e-02
7.783274e-02
7.939322e-02
8.097484e-02
8.256578e-02
8.415981e-02
8.575560e-02
8.735461e-02
8.895968e-02
9.057579e-02
9.221225e-02
9.388445e-02
9.561345e-02
9.742293e-02
9.933477e-02
1.013657e-01
1.035265e-01
1.058229e-01
1.082558e-01
1.108210e-01
1.135085e-01
1.163049e-01
1.191973e-01
1.221779e-01
1.252443e-01
1.283972e-01
1.316380e-01
1.349674e-01
1.383874e-01
1.419009e-01
1.455105e-01
1.492165e-01
1.530165e-01
1.569075e-01
1.608865e-01
1.649495e-01
1.690892e-01
1.732955e-01
1.775551e-01
1.818525e-01
1.861681e-01
1.904763e-01
1.947457e-01
1.989436e-01
2.030417e-01
2.070199e-01
2.108647e-01
2.145661e-01
2.181137e-01
2.214957e-01
2.246997e-01
2.277135e-01
2.305247e-01
2.331221e-01
2.354968e-01
2.376441e-01
2.395642e-01
2.412607e-01
2.427386e-01
2.440032e-01
2.450601e-01
2.459148e-01
2.465739e-01
2.470446e-01
2.473359e-01
2.474583e-01
2.474241e-01
2.472453e-01
2.469328e-01
2.464940e-01
2.459339e-01
2.452563e-01
2.444658e-01
2.435686e-01
2.425731e-01
2.414915e-01
2.403410e-01
2.391431e-01
2.379217e-01
2.366995e-01
2.354955e-01
2.343244e-01
2.331969e-01
2.321207e-01
2.311011e-01
2.301418e-01
2.292462e-01
2.284193e-01
2.276673e-01
2.269960e-01
2.264078e-01
2.258992e-01
2.254608e-01
2.250791e-01
2.247402e-01
2.244337e-01
2.241549e-01
2.239050e-01
2.236891e-01
2.235149e-01
2.233918e-01
2.233312e-01
2.233464e-01
2.234515e-01
2.236607e-01
2.239879e-01
2.244466e-01
2.250485e-01
2.258019e-01
2.267123e-01
2.277847e-01
2.290266e-01
2.304476e-01
2.320561e-01
2.338537e-01
2.358324e-01
2.379760e-01
2.402647e-01
2.426798e-01
2.452055e-01
2.478286e-01
2.505365e-01
2.533157e-01
2.561527e-01
2.590350e-01
2.619543e-01
2.649073e-01
2.678957e-01
2.709238e-01
2.739962e-01
2.771153e-01
2.802816e-01
2.834949e-01
2.867573e-01
2.900724e-01
2.934430e-01
2.968667e-01
3.003348e-01
3.038332e-01
3.073461e-01
3.108577e-01
3.143532e-01
3.178191e-01
3.212446e-01
3.246243e-01
3.279597e-01
3.312570e-01
3.345230e-01
3.377585e-01
3.409548e-01
3.440931e-01
3.471476e-01
3.500908e-01
3.528977e-01
3.555480e-01
3.580247e-01
3.603109e-01
3.623887e-01
3.642411e-01
3.658543e-01
3.672199e-01
3.683341e-01
3.691966e-01
3.698092e-01
3.701753e-01
3.703000e-01
3.701898e-01
3.698521e-01
3.692946e-01
3.685245e-01
3.675467e-01
3.663643e-01
3.649794e-01
3.633967e-01
3.616261e-01
3.596845e-01
3.575952e-01
3.553857e-01
3.530851e-01
3.507223e-01
3.483240e-01
3.459126e-01
3.435038e-01
3.411052e-01
3.387165e-01
3.363322e-01
3.339449e-01
3.315487e-01
3.291408e-01
3.267207e-01
3.242883e-01
3.218435e-01
3.193872e-01
3.169236e-01
3.144621e-01
3.120159e-01
3.096000e-01
3.072290e-01
3.049159e-01
3.026727e-01
3.005102e-01
2.984372e-01
2.964600e-01
2.945809e-01
2.927981e-01
2.911063e-01
2.894991e-01
2.879712e-01
2.865199e-01
2.851430e-01
2.838369e-01
2.825945e-01
2.814061e-01
2.802606e-01
2.791472e-01
2.780565e-01
2.769805e-01
2.759129e-01
2.748490e-01
2.737847e-01
2.727152e-01
2.716343e-01
2.705358e-01
2.694154e-01
2.682723e-01
2.671090e-01
2.659297e-01
2.647383e-01
2.635382e-01
2.623311e-01
2.611171e-01
2.598934e-01
2.586528e-01
2.573829e-01
2.560668e-01
2.546839e-01
2.532131e-01
2.516347e-01
2.499321e-01
2.480923e-01
2.461063e-01
2.439703e-01
2.416885e-01
2.392744e-01
2.367506e-01
2.341449e-01
2.314861e-01
2.287983e-01
2.260986e-01
2.233975e-01
2.207015e-01
2.180166e-01
2.153499e-01
2.127084e-01
2.100965e-01
2.075155e-01
2.049640e-01
2.024407e-01
1.999466e-01
1.974853e-01
1.950630e-01
1.926885e-01
1.903730e-01
1.881307e-01
1.859775e-01
1.839288e-01
1.819971e-01
1.801905e-01
1.785129e-01
1.769639e-01
1.755401e-01
1.742352e-01
1.730417e-01
1.719526e-01
1.709632e-01
1.700707e-01
1.692717e-01
1.685603e-01
1.679274e-01
1.673622e-01
1.668536e-01
1.663908e-01
1.659618e-01
1.655530e-01
1.651505e-01
1.647418e-01
1.643188e-01
1.638781e-01
1.634197e-01
1.629439e-01
1.624490e-01
1.619290e-01
1.613740e-01
1.607723e-01
1.601137e-01
1.593913e-01
1.586012e-01
1.577415e-01
1.568101e-01
1.558047e-01
1.547227e-01
1.535624e-01
1.523248e-01
1.510133e-01
1.496336e-01
1.481916e-01
1.466935e-01
1.451461e-01
1.435587e-01
1.419427e-01
1.403114e-01
1.386778e-01
1.370539e-01
1.354486e-01
1.338676e-01
1.323128e-01
1.307837e-01
1.292782e-01
1.277930e-01
1.263245e-01
1.248689e-01
1.234234e-01
1.219862e-01
1.205562e-01
1.191316e-01
1.177081e-01
1.162778e-01
1.148293e-01
1.133482e-01
1.118207e-01
1.102365e-01
1.085918e-01
1.068879e-01
1.051283e-01
1.033152e-01
1.014485e-01
9.952536e-02
9.754002e-02
9.548428e-02
9.334784e-02
9.111984e-02
8.879087e-02
8.635457e-02
8.380843e-02
8.115398e-02
7.839659e-02
7.554532e-02
7.261269e-02
6.961454e-02
6.656943e-02
6.349739e-02
6.041768e-02
5.734679e-02
5.429738e-02
5.127888e-02
4.829989e-02
4.537074e-02
4.250461e-02
3.971614e-02
3.701860e-02
3.442138e-02
3.192944e-02
2.954491e-02
2.727010e-02
2.510980e-02
2.307152e-02
2.116357e-02
1.939221e-02
1.775965e-02
1.626346e-02
1.489707e-02
1.364990e-02
1.250718e-02
1.144971e-02
1.045468e-02
9.497653e-03
8.555539e-03
7.609740e-03
6.648641e-03
5.668286e-03
4.670712e-03
3.660474e-03
2.640729e-03
1.610371e-03
5.632770e-04
-5.101326e-04
-1.619786e-03
-2.772825e-03
-3.972028e-03
-5.216334e-03
-6.502690e-03
-7.827966e-03
-9.190210e-03
-1.058928e-02
-1.202724e-02
-1.350863e-02
-1.504055e-02
-1.663240e-02
-1.829539e-02
-2.004163e-02
-2.188264e-02
-2.382736e-02
-2.587975e-02
-2.803734e-02
-3.029153e-02
-3.263037e-02
-3.504259e-02
-3.752062e-02
-4.006106e-02
-4.266287e-02
-4.532505e-02
-4.804582e-02
-5.082345e-02
-5.365774e-02
-5.655038e-02
-5.950385e-02
-6.251932e-02
-6.559486e-02
-6.872475e-02
-7.189993e-02
-7.510913e-02
-7.833994e-02
-8.157931e-02
-8.481359e-02
-8.802833e-02
-9.120813e-02
-9.433637e-02
-9.739501e-02
-1.003651e-01
-1.032281e-01
-1.059677e-01
-1.085709e-01
-1.110284e-01
-1.133352e-01
-1.154904e-01
-1.174982e-01
-1.193685e-01
-1.211159e-01
-1.227570e-01
-1.243069e-01
-1.257761e-01
-1.271691e-01
-1.284852e-01
-1.297205e-01
-1.308701e-01
-1.319306e-01
-1.329003e-01
-1.337782e-01
-1.345635e-01
-1.352553e-01
-1.358530e-01
-1.363573e-01
-1.367698e-01
-1.370931e-01
-1.373301e-01
-1.374848e-01
-1.375625e-01
-1.375701e-01
-1.375163e-01
-1.374111e-01
-1.372649e-01
-1.370885e-01
-1.368914e-01
-1.366816e-01
-1.364650e-01
-1.362462e-01
-1.360290e-01
-1.358184e-01
-1.356205e-01
-1.354433e-01
-1.352950e-01
-1.351828e-01
-1.351117e-01
-1.350825e-01
-1.350905e-01
-1.351252e-01
-1.351713e-01
-1.352121e-01
-1.352325e-01
-1.352218e-01
-1.351740e-01
-1.350867e-01
-1.349574e-01
-1.347812e-01
-1.345478e-01
-1.342419e-01
-1.338449e-01
-1.333386e-01
-1.327087e-01
-1.319467e-01
-1.310497e-01
-1.300189e-01
-1.288589e-01
-1.275771e-01
-1.261836e-01
-1.246901e-01
-1.231094e-01
-1.214549e-01
-1.197409e-01
-1.179836e-01
-1.162009e-01
-1.144123e-01
-1.126379e-01
-1.108971e-01
-1.092068e-01
-1.075804e-01
-1.060273e-01
-1.045535e-01
-1.031635e-01
-1.018608e-01
-1.006482e-01
-9.952716e-02
-9.849746e-02
-9.755743e-02
-9.670462e-02
-9.593619e-02
-9.524868e-02
-9.463770e-02
-9.409774e-02
-9.362200e-02
-9.320212e-02
-9.282803e-02
-9.248844e-02
-9.217193e-02
-9.186856e-02
-9.157122e-02
-9.127632e-02
-9.098385e-02
-9.069700e-02
-9.042176e-02
-9.016647e-02
-8.994169e-02
-8.975973e-02
-8.963343e-02
-8.957444e-02
-8.959141e-02
-8.968890e-02
-8.986718e-02
-9.012250e-02
-9.044748e-02
-9.083143e-02
-9.126089e-02
-9.172067e-02
-9.219553e-02
-9.267179e-02
-9.313842e-02
-9.358726e-02
-9.401242e-02
-9.440903e-02
-9.477184e-02
-9.509453e-02
-9.536988e-02
-9.559028e-02
-9.574806e-02
-9.583564e-02
-9.584579e-02
-9.577208e-02
-9.560938e-02
