EVENT_NAME: L_AQUILA
EVENT_ID: IT-2009-0009
EVENT_DATE_YYYYMMDD: 20090406
EVENT_TIME_HHMMSS: 013240
EVENT_LATITUDE_DEGREE: 42.3420
EVENT_LONGITUDE_DEGREE: 13.3800
EVENT_DEPTH_KM: 8.3
HYPOCENTER_REFERENCE: INGV-CNT_Seismic_Bulletin
MAGNITUDE_W: 6.1
MAGNITUDE_W_REFERENCE: INGV-CNT_Seismic_Bulletin
MAGNITUDE_L: 
MAGNITUDE_L_REFERENCE: 
FOCAL_MECHANISM: Normal faulting
NETWORK: IT
STATION_CODE: FMG
STATION_NAME: 
STATION_LATITUDE_DEGREE: 42.268028
STATION_LONGITUDE_DEGREE: 13.117220
STATION_ELEVATION_M: 1071
LOCATION: 
SENSOR_DEPTH_M: 0.0
VS30_M/S: 790
SITE_CLASSIFICATION_EC8: B
MORPHOLOGIC_CLASSIFICATION: 
EPICENTRAL_DISTANCE_KM: 23.2
EARTHQUAKE_BACKAZIMUTH_DEGREE: 249.3
DATE_TIME_FIRST_SAMPLE_YYYYMMDD_HHMMSS: 
DATE_TIME_FIRST_SAMPLE_PRECISION: 
SAMPLING_INTERVAL_S: 
NDATA: 105
DURATION_S: 
STREAM: HNE
UNITS: cm/s^2
INSTRUMENT: sensor = FBA-3 [Kinemetrics] | digitizer = Etna [Kinemetrics]
INSTRUMENT_ANALOG/DIGITAL: D
INSTRUMENTAL_FREQUENCY_HZ: 204.000
INSTRUMENTAL_DAMPING: 0.700000
FULL_SCALE_G: 1.0
N_BIT_DIGITAL_CONVERTER: 18
PGA_CM/S^2: -23.502327
TIME_PGA_S: 
BASELINE_CORRECTION: BASELINE REMOVED
FILTER_TYPE: BUTTERWORTH
FILTER_ORDER: 2
LOW_CUT_FREQUENCY_HZ: 0.100
HIGH_CUT_FREQUENCY_HZ: 40.000
LATE/NORMAL_TRIGGERED: NT
DATABASE_VERSION: 0.5
HEADER_FORMAT: DYNA 1.2
DATA_TYPE: ACCELERATION RESPONSE SPECTRUM
PROCESSING: manual (Paolucci et al., 2011)
DATA_TIMESTAMP_YYYYMMDD_HHMMSS: 20211011_155839.491
DATA_LICENSE: CC-BY3_0-IT (http://creativecommons.org/licenses/by/3.0/deed.en)
DATA_CITATION: Luzi L, Pacor F, Puglia R (2019). Italian Accelerometric Archive v 3.0 - Istituto Nazionale di Geofisica e Vulcanologia, Dipartimento della Protezione Civile Nazionale. doi: 10.13127/itaca.3.1
DATA_CREATOR: ITACA working group
ORIGINAL_DATA_MEDIATOR_CITATION: data obtained within the DPC-INGV data exchange agreements
ORIGINAL_DATA_MEDIATOR: Archive of Italian Department of Civil Protection
ORIGINAL_DATA_CREATOR_CITATION: Presidency Of Counsil Of Ministers-Civil Protection Department. (1972). Italian Strong Motion Network. Presidency of Counsil of Ministers - Civil Protection Department. https://doi.org/10.7914/SN/IT http://www.fdsn.org/networks/detail/IT/
ORIGINAL_DATA_CREATOR: network: IT (Italian Strong Motion Network (RAN)); owner: Presidency of Counsil of Ministers - Civil Protection Department (PCM - DPC)
USER1: 
USER2: 
USER3: 
USER4: 
USER5: 
    0.010000    23.627192
    0.020000    24.051834
    0.022000    24.167278
    0.025000    24.443605
    0.029000    25.255331
    0.030000    25.487314
    0.032000    25.921028
    0.035001    26.854887
    0.036000    27.056717
    0.040000    31.261328
    0.041999    29.754631
    0.044001    30.228695
    0.045000    29.876040
    0.046000    29.300455
    0.048001    28.224545
    0.050000    26.388906
    0.054999    30.472155
    0.059999    36.919117
    0.064998    40.411331
    0.067002    43.496792
    0.069999    43.837975
    0.075002    35.702065
    0.080000    38.330437
    0.084998    44.591133
    0.090001    50.838428
    0.095003    48.699997
    0.100000    59.305916
    0.109999    66.335747
    0.120005    65.291130
    0.130005    63.441238
    0.132996    63.160625
    0.139997    65.973984
    0.149993    54.515987
    0.160000    55.538815
    0.170010    53.091015
    0.179986    47.273148
    0.190006    47.745754
    0.200000    49.486042
    0.220022    52.812294
    0.239981    41.905975
    0.250000    40.871971
    0.260010    39.477863
    0.280034    40.727158
    0.290023    42.357914
    0.300030    43.416794
    0.320000    53.266655
    0.340020    60.888927
    0.350017    63.020348
    0.359971    63.069027
    0.379939    59.117805
    0.400000    51.460052
    0.419992    40.732800
    0.439947    35.864853
    0.450045    35.129135
    0.459982    34.172695
    0.480077    37.641254
    0.500000    42.125351
    0.550055    55.219585
    0.599880    77.841232
    0.650195    84.476265
    0.667111    74.853920
    0.699790    50.854050
    0.750188    44.419704
    0.800000    47.333237
    0.850340    40.422993
    0.900090    34.444118
    0.949668    41.842018
    1.000000    42.541397
    1.100110    25.120138
    1.200480    21.630619
    1.300390    24.097179
    1.400560    20.732452
    1.499250    17.737785
    1.600000    13.180804
    1.700680    13.241463
    1.798561    16.551668
    1.901141    15.050507
    2.000000    12.682444
    2.197802     9.670818
    2.398082     9.045108
    2.500000     9.052123
    2.597403     8.025343
    2.801121     5.984610
    3.003003     6.671145
    3.205128     6.735838
    3.401361     7.575014
    3.496503     7.513024
    3.597122     7.239692
    3.802281     6.519970
    4.000000     6.753585
    4.201681     6.680913
    4.405286     6.169736
    4.608295     5.441454
    4.807692     4.566432
    5.000000     3.773920
    5.494505     2.633761
    5.988024     1.944582
    6.493506     1.598729
    6.993007     1.447303
    7.518797     1.346162
    8.000000     1.226952
    8.474576     1.095061
    9.009009     0.999559
    9.523809     0.882138
   10.000000     0.765535
