EVENT_NAME: L_AQUILA
EVENT_ID: IT-2009-0009
EVENT_DATE_YYYYMMDD: 20090406
EVENT_TIME_HHMMSS: 013240
EVENT_LATITUDE_DEGREE: 42.3420
EVENT_LONGITUDE_DEGREE: 13.3800
EVENT_DEPTH_KM: 8.3
HYPOCENTER_REFERENCE: INGV-CNT_Seismic_Bulletin
MAGNITUDE_W: 6.1
MAGNITUDE_W_REFERENCE: INGV-CNT_Seismic_Bulletin
MAGNITUDE_L: 
MAGNITUDE_L_REFERENCE: 
FOCAL_MECHANISM: Normal faulting
NETWORK: IT
STATION_CODE: FMG
STATION_NAME: 
STATION_LATITUDE_DEGREE: 42.268028
STATION_LONGITUDE_DEGREE: 13.117220
STATION_ELEVATION_M: 1071
LOCATION: 
SENSOR_DEPTH_M: 0.0
VS30_M/S: 790
SITE_CLASSIFICATION_EC8: B
MORPHOLOGIC_CLASSIFICATION: 
EPICENTRAL_DISTANCE_KM: 23.2
EARTHQUAKE_BACKAZIMUTH_DEGREE: 249.3
DATE_TIME_FIRST_SAMPLE_YYYYMMDD_HHMMSS: 20090406_013215.000
DATE_TIME_FIRST_SAMPLE_PRECISION: seconds
SAMPLING_INTERVAL_S: 0.005000
NDATA: 23800
DURATION_S: 119.000
STREAM: HNN
UNITS: cm
INSTRUMENT: sensor = FBA-3 [Kinemetrics] | digitizer = Etna [Kinemetrics]
INSTRUMENT_ANALOG/DIGITAL: D
INSTRUMENTAL_FREQUENCY_HZ: 210.000
INSTRUMENTAL_DAMPING: 0.700000
FULL_SCALE_G: 1.0
N_BIT_DIGITAL_CONVERTER: 18
PGD_CM: -0.595553
TIME_PGD_S: 35.280000
BASELINE_CORRECTION: BASELINE REMOVED
FILTER_TYPE: BUTTERWORTH
FILTER_ORDER: 2
LOW_CUT_FREQUENCY_HZ: 0.100
HIGH_CUT_FREQUENCY_HZ: 40.000
LATE/NORMAL_TRIGGERED: NT
DATABASE_VERSION: 0.5
HEADER_FORMAT: DYNA 1.2
DATA_TYPE: DISPLACEMENT
PROCESSING: manual (Paolucci et al., 2011)
DATA_TIMESTAMP_YYYYMMDD_HHMMSS: 20211011_155838.668
DATA_LICENSE: CC-BY3_0-IT (http://creativecommons.org/licenses/by/3.0/deed.en)
DATA_CITATION: Luzi L, Pacor F, Puglia R (2019). Italian Accelerometric Archive v 3.0 - Istituto Nazionale di Geofisica e Vulcanologia, Dipartimento della Protezione Civile Nazionale. doi: 10.13127/itaca.3.1
DATA_CREATOR: ITACA working group
ORIGINAL_DATA_MEDIATOR_CITATION: data obtained within the DPC-INGV data exchange agreements
ORIGINAL_DATA_MEDIATOR: Archive of Italian Department of Civil Protection
ORIGINAL_DATA_CREATOR_CITATION: Presidency Of Counsil Of Ministers-Civil Protection Department. (1972). Italian Strong Motion Network. Presidency of Counsil of Ministers - Civil Protection Department. https://doi.org/10.7914/SN/IT http://www.fdsn.org/networks/detail/IT/
ORIGINAL_DATA_CREATOR: network: IT (Italian Strong Motion Network (RAN)); owner: Presidency of Counsil of Ministers - Civil Protection Department (PCM - DPC)
USER1: 
USER2: 
USER3: 
USER4: 
USER5: 
[...]
1.715932e-01
1.722387e-01
1.728800e-01
1.735250e-01
1.741807e-01
1.748510e-01
1.755363e-01
1.762334e-01
1.769375e-01
1.776427e-01
1.783441e-01
1.790377e-01
1.797211e-01
1.803947e-01
1.810613e-01
1.817267e-01
1.823983e-01
1.830844e-01
1.837921e-01
1.845257e-01
1.852846e-01
1.860627e-01
1.868505e-01
1.876393e-01
1.884240e-01
1.892043e-01
1.899827e-01
1.907622e-01
1.915454e-01
1.923342e-01
1.931305e-01
1.939354e-01
1.947479e-01
1.955628e-01
1.963706e-01
1.971593e-01
1.979177e-01
1.986388e-01
1.993208e-01
1.999666e-01
2.005814e-01
2.011706e-01
2.017387e-01
2.022895e-01
2.028253e-01
2.033461e-01
2.038488e-01
2.043287e-01
2.047811e-01
2.052040e-01
2.055997e-01
2.059743e-01
2.063365e-01
2.066946e-01
2.070549e-01
2.074210e-01
2.077950e-01
2.081779e-01
2.085703e-01
2.089715e-01
2.093788e-01
2.097882e-01
2.101961e-01
2.106024e-01
2.110111e-01
2.114287e-01
2.118614e-01
2.123122e-01
2.127787e-01
2.132528e-01
2.137230e-01
2.141773e-01
2.146058e-01
2.150018e-01
2.153610e-01
2.156819e-01
2.159653e-01
2.162144e-01
2.164346e-01
2.166331e-01
2.168172e-01
2.169928e-01
2.171612e-01
2.173181e-01
2.174532e-01
2.175527e-01
2.176026e-01
2.175927e-01
2.175189e-01
2.173843e-01
2.171981e-01
2.169735e-01
2.167254e-01
2.164679e-01
2.162135e-01
2.159708e-01
2.157436e-01
2.155307e-01
2.153275e-01
2.151303e-01
2.149396e-01
2.147610e-01
2.146042e-01
2.144800e-01
2.143973e-01
2.143604e-01
2.143691e-01
2.144204e-01
2.145120e-01
2.146428e-01
2.148113e-01
2.150119e-01
2.152349e-01
2.154672e-01
2.156971e-01
2.159162e-01
2.161193e-01
2.163016e-01
2.164555e-01
2.165700e-01
2.166332e-01
2.166362e-01
2.165769e-01
2.164612e-01
2.163018e-01
2.161131e-01
2.159059e-01
2.156837e-01
2.154435e-01
2.151800e-01
2.148893e-01
2.145709e-01
2.142267e-01
2.138602e-01
2.134751e-01
2.130758e-01
2.126692e-01
2.122647e-01
2.118718e-01
2.114967e-01
2.111387e-01
2.107901e-01
2.104394e-01
2.100763e-01
2.096953e-01
2.092960e-01
2.088814e-01
2.084545e-01
2.080156e-01
2.075623e-01
2.070926e-01
2.066083e-01
2.061144e-01
2.056148e-01
2.051086e-01
2.045900e-01
2.040527e-01
2.034946e-01
2.029204e-01
2.023379e-01
2.017526e-01
2.011643e-01
2.005666e-01
1.999489e-01
1.992977e-01
1.985970e-01
1.978313e-01
1.969895e-01
1.960702e-01
1.950827e-01
1.940456e-01
1.929821e-01
1.919145e-01
1.908582e-01
1.898195e-01
1.887970e-01
1.877858e-01
1.867817e-01
1.857821e-01
1.847843e-01
1.837823e-01
1.827659e-01
1.817230e-01
1.806451e-01
1.795296e-01
1.783791e-01
1.771970e-01
1.759843e-01
1.747403e-01
1.734641e-01
1.721568e-01
1.708217e-01
1.694655e-01
1.680977e-01
1.667306e-01
1.653784e-01
1.640554e-01
1.627744e-01
1.615442e-01
1.603685e-01
1.592477e-01
1.581813e-01
1.571701e-01
1.562168e-01
1.553273e-01
1.545098e-01
1.537708e-01
1.531088e-01
1.525127e-01
1.519637e-01
1.514404e-01
1.509201e-01
1.503793e-01
1.497933e-01
1.491374e-01
1.483904e-01
1.475394e-01
1.465829e-01
1.455298e-01
1.443932e-01
1.431820e-01
1.418960e-01
1.405276e-01
1.390682e-01
1.375139e-01
1.358688e-01
1.341438e-01
1.323535e-01
1.305144e-01
1.286443e-01
1.267626e-01
1.248888e-01
1.230391e-01
1.212235e-01
1.194440e-01
1.176941e-01
1.159613e-01
1.142304e-01
1.124890e-01
1.107321e-01
1.089624e-01
1.071892e-01
1.054255e-01
1.036876e-01
1.019945e-01
1.003675e-01
9.882797e-02
9.739572e-02
9.608758e-02
9.491454e-02
9.387714e-02
9.296084e-02
9.213459e-02
9.135478e-02
9.057456e-02
8.975606e-02
8.887984e-02
8.794629e-02
8.696781e-02
8.595754e-02
8.492156e-02
8.385782e-02
8.275912e-02
8.161572e-02
8.041586e-02
7.914567e-02
7.779058e-02
7.633942e-02
7.479081e-02
7.315961e-02
7.147954e-02
6.979837e-02
6.816645e-02
6.662400e-02
6.519402e-02
6.388296e-02
6.268630e-02
6.159403e-02
6.059415e-02
5.967556e-02
5.883208e-02
5.806576e-02
5.738573e-02
5.680194e-02
5.631835e-02
5.592988e-02
5.562266e-02
5.537459e-02
5.515657e-02
5.493743e-02
5.469283e-02
5.441306e-02
5.410426e-02
5.378376e-02
5.347361e-02
5.319423e-02
5.295812e-02
5.276680e-02
5.261408e-02
5.249273e-02
5.239762e-02
5.232413e-02
5.226674e-02
5.221997e-02
5.217862e-02
5.213443e-02
5.207170e-02
5.196686e-02
5.179292e-02
5.152481e-02
5.114242e-02
5.063322e-02
4.999697e-02
4.924925e-02
4.841775e-02
4.753121e-02
4.660845e-02
4.565463e-02
4.466531e-02
4.363353e-02
4.255437e-02
4.142479e-02
4.024131e-02
3.900075e-02
3.770630e-02
3.637422e-02
3.503415e-02
3.372113e-02
3.246457e-02
3.128004e-02
3.016716e-02
2.911326e-02
2.809979e-02
2.710753e-02
2.611903e-02
2.512210e-02
2.411635e-02
2.311894e-02
2.216277e-02
2.128630e-02
2.052073e-02
1.988129e-02
1.936521e-02
1.895585e-02
1.863039e-02
1.836765e-02
1.815247e-02
1.797438e-02
1.782337e-02
1.768845e-02
1.756051e-02
1.743481e-02
1.730843e-02
1.717365e-02
1.701227e-02
1.679508e-02
1.648712e-02
1.605597e-02
1.548036e-02
1.475655e-02
1.390008e-02
1.294254e-02
1.192552e-02
1.089414e-02
9.889796e-03
8.943506e-03
8.074092e-03
7.292126e-03
6.604580e-03
6.015373e-03
5.523359e-03
5.122741e-03
4.807224e-03
4.573113e-03
4.416400e-03
4.326316e-03
4.283593e-03
4.267287e-03
4.264926e-03
4.278035e-03
4.319760e-03
4.406709e-03
4.549471e-03
4.746126e-03
4.981235e-03
5.230030e-03
5.465211e-03
5.662796e-03
5.804966e-03
5.881153e-03
5.890163e-03
5.842828e-03
5.760805e-03
5.669291e-03
5.587594e-03
5.523570e-03
5.473855e-03
5.427391e-03
5.369170e-03
5.283169e-03
5.154804e-03
4.972851e-03
4.730366e-03
4.425617e-03
4.064697e-03
3.663888e-03
3.246806e-03
2.835709e-03
2.443172e-03
2.069901e-03
1.707617e-03
1.342963e-03
9.614971e-04
5.530182e-04
1.174484e-04
-3.318610e-04
-7.700808e-04
-1.168442e-03
-1.504512e-03
-1.769665e-03
-1.969093e-03
-2.115126e-03
-2.219615e-03
-2.290156e-03
-2.330078e-03
-2.339573e-03
-2.316560e-03
-2.257331e-03
-2.156774e-03
-2.008169e-03
-1.804030e-03
-1.539297e-03
-1.215264e-03
-8.405658e-04
-4.278692e-04
1.049442e-05
4.634330e-04
9.176380e-04
1.354111e-03
1.750429e-03
2.089363e-03
2.367646e-03
2.598164e-03
2.805033e-03
3.016059e-03
3.256523e-03
3.545266e-03
3.892339e-03
4.297215e-03
4.747531e-03
5.220544e-03
5.689679e-03
6.134809e-03
6.550649e-03
6.947876e-03
7.346899e-03
7.769313e-03
8.231910e-03
8.744139e-03
9.307719e-03
9.918201e-03
1.056873e-02
1.125362e-02
1.196835e-02
1.270724e-02
1.346341e-02
1.423286e-02
1.501887e-02
1.583213e-02
1.668632e-02
1.759071e-02
1.854248e-02
1.952273e-02
2.050020e-02
2.144108e-02
2.231899e-02
2.311925e-02
2.383548e-02
2.446225e-02
2.499048e-02
2.540981e-02
2.571519e-02
2.591154e-02
2.601253e-02
2.603476e-02
2.599041e-02
2.588243e-02
2.570533e-02
2.545094e-02
2.511419e-02
2.469491e-02
2.419603e-02
2.362114e-02
2.297285e-02
2.225254e-02
2.146172e-02
2.060488e-02
1.969242e-02
1.874115e-02
1.777020e-02
1.679320e-02
1.581135e-02
1.481297e-02
1.378029e-02
1.269742e-02
1.155311e-02
1.033881e-02
9.048337e-03
7.682524e-03
6.255121e-03
4.794356e-03
3.337896e-03
1.922761e-03
5.752643e-04
-6.928367e-04
-1.880310e-03
-2.989391e-03
-4.021502e-03
-4.976802e-03
-5.854788e-03
-6.654089e-03
-7.372371e-03
-8.008116e-03
-8.564097e-03
-9.050193e-03
-9.483369e-03
-9.884700e-03
-1.027471e-02
-1.066851e-02
-1.107213e-02
-1.148137e-02
-1.188404e-02
-1.226534e-02
-1.261452e-02
-1.292884e-02
-1.321234e-02
-1.347103e-02
-1.370986e-02
-1.393435e-02
-1.415436e-02
-1.438462e-02
-1.464115e-02
-1.493750e-02
-1.528358e-02
-1.568430e-02
-1.613548e-02
-1.662020e-02
-1.711134e-02
-1.758066e-02
-1.800849e-02
-1.838895e-02
-1.872888e-02
-1.904165e-02
-1.933844e-02
-1.962187e-02
-1.988685e-02
-2.012890e-02
-2.035314e-02
-2.057531e-02
-2.081345e-02
-2.107806e-02
-2.136902e-02
-2.168064e-02
-2.201008e-02
-2.236286e-02
-2.275199e-02
-2.319291e-02
-2.369918e-02
-2.428210e-02
-2.495240e-02
-2.572051e-02
-2.659439e-02
-2.757563e-02
-2.865691e-02
-2.982391e-02
-3.106147e-02
-3.235990e-02
-3.371677e-02
-3.513292e-02
-3.660498e-02
-3.811907e-02
-3.965115e-02
-4.117453e-02
-4.266836e-02
-4.412019e-02
-4.552354e-02
-4.687661e-02
-4.818523e-02
-4.946565e-02
-5.074161e-02
-5.203591e-02
-5.336192e-02
-5.471986e-02
-5.609901e-02
-5.748383e-02
-5.886082e-02
-6.022264e-02
-6.156832e-02
-6.290043e-02
-6.422183e-02
-6.553333e-02
-6.683165e-02
-6.810587e-02
-6.933361e-02
-7.048108e-02
-7.151027e-02
-7.239064e-02
-7.310796e-02
-7.366467e-02
-7.407266e-02
-7.434485e-02
-7.449158e-02
-7.452317e-02
-7.445486e-02
-7.430874e-02
-7.411001e-02
-7.387989e-02
-7.362867e-02
-7.335236e-02
-7.303456e-02
-7.265281e-02
-7.218563e-02
-7.161636e-02
-7.093364e-02
-7.013152e-02
-6.921177e-02
-6.818697e-02
-6.708040e-02
-6.592041e-02
-6.473173e-02
-6.352744e-02
-6.230499e-02
-6.104856e-02
-5.973851e-02
-5.836458e-02
-5.693536e-02
-5.547732e-02
-5.402444e-02
-5.260599e-02
-5.124067e-02
-4.993839e-02
-4.870402e-02
-4.753747e-02
-4.643017e-02
-4.536342e-02
-4.431324e-02
-4.326036e-02
-4.219909e-02
-4.113926e-02
-4.009984e-02
-3.909854e-02
-3.814308e-02
-3.722848e-02
-3.633999e-02
-3.545787e-02
-3.456030e-02
-3.362516e-02
-3.263521e-02
-3.158776e-02
-3.050245e-02
-2.941823e-02
-2.837766e-02
-2.740804e-02
-2.651288e-02
-2.567897e-02
-2.489137e-02
-2.414286e-02
-2.343221e-02
-2.275820e-02
-2.211817e-02
-2.151286e-02
-2.095153e-02
-2.045104e-02
-2.002711e-02
-1.968299e-02
-1.940344e-02
-1.915846e-02
-1.891468e-02
-1.864683e-02
-1.834275e-02
-1.800185e-02
-1.763332e-02
-1.725888e-02
-1.691593e-02
-1.665219e-02
-1.651015e-02
-1.651076e-02
-1.664741e-02
-1.689324e-02
-1.721547e-02
-1.758741e-02
-1.799258e-02
-1.842208e-02
-1.887069e-02
-1.933586e-02
-1.981931e-02
-2.032742e-02
-2.086760e-02
-2.144196e-02
-2.204311e-02
-2.265584e-02
-2.326289e-02
-2.384952e-02
-2.440556e-02
-2.492692e-02
-2.541675e-02
-2.588334e-02
-2.633432e-02
-2.677197e-02
-2.719430e-02
-2.760063e-02
-2.799536e-02
-2.838536e-02
-2.877285e-02
-2.915014e-02
-2.950095e-02
-2.980798e-02
-3.006171e-02
-3.026380e-02
-3.042132e-02
-3.053596e-02
-3.059786e-02
-3.058971e-02
-3.049768e-02
-3.031999e-02
-3.006710e-02
-2.975573e-02
-2.940396e-02
-2.903105e-02
-2.865888e-02
-2.831095e-02
-2.801012e-02
-2.777802e-02
-2.763463e-02
-2.759535e-02
-2.766798e-02
-2.785555e-02
-2.816512e-02
-2.861501e-02
-2.923314e-02
-3.004752e-02
-3.107651e-02
-3.232566e-02
-3.379102e-02
-3.546413e-02
-3.733393e-02
-3.938574e-02
-4.160129e-02
-4.396273e-02
-4.645775e-02
-4.908032e-02
-5.182595e-02
-5.468618e-02
-5.764745e-02
-6.069479e-02
-6.381784e-02
-6.701610e-02
-7.030094e-02
-7.369203e-02
-7.720866e-02
-8.086098e-02
-8.464830e-02
-8.856535e-02
-9.261002e-02
-9.678531e-02
-1.010946e-01
-1.055350e-01
-1.100935e-01
-1.147486e-01
-1.194788e-01
-1.242728e-01
-1.291341e-01
-1.340755e-01
-1.391060e-01
-1.442231e-01
-1.494150e-01
-1.546715e-01
-1.599941e-01
-1.653967e-01
-1.708958e-01
-1.764966e-01
-1.821837e-01
-1.879222e-01
-1.936680e-01
-1.993813e-01
-2.050359e-01
-2.106202e-01
-2.161311e-01
-2.215657e-01
-2.269195e-01
-2.321869e-01
-2.373611e-01
-2.424307e-01
-2.473770e-01
-2.521776e-01
-2.568148e-01
-2.612836e-01
-2.655952e-01
-2.697735e-01
-2.738465e-01
-2.778390e-01
-2.817710e-01
-2.856601e-01
-2.895203e-01
-2.933565e-01
-2.971600e-01
-3.009142e-01
-3.046070e-01
-3.082412e-01
-3.118344e-01
-3.154127e-01
-3.190058e-01
-3.226428e-01
-3.263521e-01
-3.301611e-01
-3.340989e-01
-3.381951e-01
-3.424716e-01
-3.469310e-01
-3.515512e-01
-3.562950e-01
-3.611297e-01
-3.660425e-01
-3.710392e-01
-3.761313e-01
-3.813201e-01
-3.865931e-01
-3.919300e-01
-3.973115e-01
-4.027192e-01
-4.081317e-01
-4.135233e-01
-4.188696e-01
-4.241573e-01
-4.293891e-01
-4.345834e-01
-4.397663e-01
-4.449611e-01
-4.501775e-01
-4.554065e-01
-4.606197e-01
-4.657728e-01
-4.708127e-01
-4.756847e-01
-4.803418e-01
-4.847536e-01
-4.889104e-01
-4.928203e-01
-4.965013e-01
-4.999726e-01
-5.032471e-01
-5.063250e-01
-5.091895e-01
-5.118088e-01
-5.141452e-01
-5.161676e-01
-5.178640e-01
-5.192451e-01
-5.203395e-01
-5.211828e-01
-5.218079e-01
-5.222398e-01
-5.224964e-01
-5.225932e-01
-5.225488e-01
-5.223886e-01
-5.221437e-01
-5.218472e-01
-5.215321e-01
-5.212312e-01
-5.209772e-01
-5.208005e-01
-5.207236e-01
-5.207560e-01
-5.208925e-01
-5.211198e-01
-5.214296e-01
-5.218293e-01
-5.223439e-01
-5.230099e-01
-5.238657e-01
-5.249438e-01
-5.262649e-01
-5.278354e-01
-5.296482e-01
-5.316866e-01
-5.339293e-01
-5.363538e-01
-5.389375e-01
-5.416565e-01
-5.444841e-01
-5.473939e-01
-5.503666e-01
-5.533959e-01
-5.564886e-01
-5.596534e-01
-5.628859e-01
-5.661582e-01
-5.694233e-01
-5.726277e-01
-5.757233e-01
-5.786691e-01
-5.814269e-01
-5.839594e-01
-5.862355e-01
-5.882385e-01
-5.899678e-01
-5.914350e-01
-5.926579e-01
-5.936570e-01
-5.944514e-01
-5.950484e-01
-5.954316e-01
-5.955530e-01
-5.953392e-01
-5.947077e-01
-5.935855e-01
-5.919212e-01
-5.896891e-01
-5.868871e-01
-5.835322e-01
-5.796588e-01
-5.753189e-01
-5.705848e-01
-5.655472e-01
-5.603093e-01
-5.549781e-01
-5.496580e-01
-5.444465e-01
-5.394292e-01
-5.346714e-01
-5.302119e-01
-5.260621e-01
-5.222104e-01
-5.186279e-01
-5.152736e-01
-5.121014e-01
-5.090675e-01
-5.061330e-01
-5.032618e-01
-5.004157e-01
-4.975547e-01
-4.946433e-01
-4.916578e-01
-4.885894e-01
-4.854415e-01
-4.822288e-01
-4.789791e-01
-4.757334e-01
-4.725392e-01
-4.694389e-01
-4.664575e-01
-4.635985e-01
-4.608497e-01
-4.581939e-01
-4.556160e-01
-4.530999e-01
-4.506187e-01
-4.481278e-01
-4.455696e-01
-4.428865e-01
-4.400345e-01
-4.369894e-01
-4.337448e-01
-4.303028e-01
-4.266630e-01
-4.228153e-01
-4.187424e-01
-4.144319e-01
-4.098924e-01
-4.051635e-01
-4.003104e-01
-3.954091e-01
-3.905317e-01
-3.857383e-01
-3.810735e-01
-3.765629e-01
-3.722103e-01
-3.679997e-01
-3.639029e-01
-3.598877e-01
-3.559228e-01
-3.519768e-01
-3.480152e-01
-3.440010e-01
-3.398981e-01
-3.356750e-01
-3.313068e-01
-3.267734e-01
-3.220556e-01
-3.171303e-01
-3.119719e-01
-3.065573e-01
-3.008748e-01
-2.949294e-01
-2.887442e-01
-2.823584e-01
-2.758224e-01
-2.691941e-01
-2.625380e-01
-2.559237e-01
-2.494222e-01
-2.430974e-01
-2.369961e-01
-2.311431e-01
-2.255418e-01
-2.201784e-01
-2.150224e-01
-2.100258e-01
-2.051241e-01
-2.002456e-01
-1.953272e-01
-1.903300e-01
-1.852485e-01
-1.801096e-01
-1.749659e-01
-1.698812e-01
-1.649134e-01
-1.600977e-01
-1.554364e-01
-1.509022e-01
-1.464549e-01
-1.420644e-01
-1.377291e-01
-1.334765e-01
-1.293473e-01
-1.253743e-01
-1.215739e-01
-1.179506e-01
-1.145072e-01
-1.112479e-01
-1.081734e-01
-1.052740e-01
-1.025242e-01
-9.988023e-02
-9.728192e-02
-9.466153e-02
-9.195761e-02
-8.912443e-02
-8.612994e-02
-8.294633e-02
-7.954483e-02
-7.590095e-02
-7.200457e-02
-6.786459e-02
-6.350560e-02
-5.896079e-02
-5.426442e-02
-4.944346e-02
-4.451012e-02
-3.945977e-02
-3.427530e-02
-2.893387e-02
-2.341327e-02
-1.769993e-02
-1.180002e-02
-5.748609e-03
3.901068e-04
6.534238e-03
1.260272e-02
1.853351e-02
2.429529e-02
2.988908e-02
3.534046e-02
4.068736e-02
4.596934e-02
5.121982e-02
5.645942e-02
6.169015e-02
6.689291e-02
7.203005e-02
7.705385e-02
8.191990e-02
8.660113e-02
9.109578e-02
9.542519e-02
9.962285e-02
1.037213e-01
1.077450e-01
1.117137e-01
1.156510e-01
1.195881e-01
1.235581e-01
1.275858e-01
1.316822e-01
1.358462e-01
1.400709e-01
1.443500e-01
1.486843e-01
1.530818e-01
1.575514e-01
1.620960e-01
1.667093e-01
1.713817e-01
1.761067e-01
1.808830e-01
1.857135e-01
1.906032e-01
1.955542e-01
2.005559e-01
2.055742e-01
2.105529e-01
2.154289e-01
2.201510e-01
2.246903e-01
2.290383e-01
2.331997e-01
2.371839e-01
2.409993e-01
2.446499e-01
2.481376e-01
2.514649e-01
2.546340e-01
2.576433e-01
2.604871e-01
2.631618e-01
2.656717e-01
2.680287e-01
2.702430e-01
2.723149e-01
2.742331e-01
2.759813e-01
2.775481e-01
2.789341e-01
2.801562e-01
2.812452e-01
2.822404e-01
2.831801e-01
2.840932e-01
2.849931e-01
2.858750e-01
2.867191e-01
2.875007e-01
2.882063e-01
2.888449e-01
2.894441e-01
2.900362e-01
2.906437e-01
2.912749e-01
2.919280e-01
2.925976e-01
2.932815e-01
2.939812e-01
2.946973e-01
2.954241e-01
2.961513e-01
2.968728e-01
2.975930e-01
2.983252e-01
2.990835e-01
2.998765e-01
3.007067e-01
3.015733e-01
3.024754e-01
3.034150e-01
3.043972e-01
3.054223e-01
3.064732e-01
3.075082e-01
3.084695e-01
3.093012e-01
3.099653e-01
3.104476e-01
3.107552e-01
3.109111e-01
3.109470e-01
3.108943e-01
3.107760e-01
3.106065e-01
3.103983e-01
3.101662e-01
3.099244e-01
3.096765e-01
3.094099e-01
3.091002e-01
3.087213e-01
3.082555e-01
3.076989e-01
3.070614e-01
3.063618e-01
3.056188e-01
3.048399e-01
3.040161e-01
3.031259e-01
3.021480e-01
3.010700e-01
2.998883e-01
2.986027e-01
2.972118e-01
2.957154e-01
2.941187e-01
2.924351e-01
2.906854e-01
2.888957e-01
2.870931e-01
2.852998e-01
2.835282e-01
2.817809e-01
2.800589e-01
2.783714e-01
2.767378e-01
2.751808e-01
2.737142e-01
2.723343e-01
2.710209e-01
2.697426e-01
2.684639e-01
2.671531e-01
2.657869e-01
2.643542e-01
2.628547e-01
2.612936e-01
2.596763e-01
2.580061e-01
2.562864e-01
2.545235e-01
2.527280e-01
2.509119e-01
2.490830e-01
2.472425e-01
2.453892e-01
2.435300e-01
2.416867e-01
2.398908e-01
2.381714e-01
2.365434e-01
2.350053e-01
2.335457e-01
2.321498e-01
2.308049e-01
2.295019e-01
2.282334e-01
2.269909e-01
2.257615e-01
2.245263e-01
2.232612e-01
2.219398e-01
2.205383e-01
2.190376e-01
2.174220e-01
2.156774e-01
2.137907e-01
2.117551e-01
2.095762e-01
2.072745e-01
2.048806e-01
2.024269e-01
1.999452e-01
1.974742e-01
1.950670e-01
1.927907e-01
1.907136e-01
1.888939e-01
1.873768e-01
1.862008e-01
1.854033e-01
1.850158e-01
1.850548e-01
1.855146e-01
1.863668e-01
1.875667e-01
1.890602e-01
1.907941e-01
1.927251e-01
1.948252e-01
1.970802e-01
1.994834e-01
2.020296e-01
2.047150e-01
2.075399e-01
2.105136e-01
2.136547e-01
2.169872e-01
2.205318e-01
2.242976e-01
2.282794e-01
2.324605e-01
2.368159e-01
2.413112e-01
2.459024e-01
2.505396e-01
2.551772e-01
2.597840e-01
2.643480e-01
2.688733e-01
2.733731e-01
2.778637e-01
2.823572e-01
2.868528e-01
2.913266e-01
2.957277e-01
2.999878e-01
3.040401e-01
3.078383e-01
3.113635e-01
3.146192e-01
3.176195e-01
3.203790e-01
3.229086e-01
3.252140e-01
3.272942e-01
3.291401e-01
3.307381e-01
3.320776e-01
3.331584e-01
3.339922e-01
3.345970e-01
3.349902e-01
3.351847e-01
