EVENT_NAME: L_AQUILA
EVENT_ID: IT-2009-0009
EVENT_DATE_YYYYMMDD: 20090406
EVENT_TIME_HHMMSS: 013240
EVENT_LATITUDE_DEGREE: 42.3420
EVENT_LONGITUDE_DEGREE: 13.3800
EVENT_DEPTH_KM: 8.3
HYPOCENTER_REFERENCE: INGV-CNT_Seismic_Bulletin
MAGNITUDE_W: 6.1
MAGNITUDE_W_REFERENCE: INGV-CNT_Seismic_Bulletin
MAGNITUDE_L: 
MAGNITUDE_L_REFERENCE: 
FOCAL_MECHANISM: Normal faulting
NETWORK: IT
STATION_CODE: FMG
STATION_NAME: 
STATION_LATITUDE_DEGREE: 42.268028
STATION_LONGITUDE_DEGREE: 13.117220
STATION_ELEVATION_M: 1071
LOCATION: 
SENSOR_DEPTH_M: 0.0
VS30_M/S: 790
SITE_CLASSIFICATION_EC8: B
MORPHOLOGIC_CLASSIFICATION: 
EPICENTRAL_DISTANCE_KM: 23.2
EARTHQUAKE_BACKAZIMUTH_DEGREE: 249.3
DATE_TIME_FIRST_SAMPLE_YYYYMMDD_HHMMSS: 
DATE_TIME_FIRST_SAMPLE_PRECISION: 
SAMPLING_INTERVAL_S: 
NDATA: 105
DURATION_S: 
STREAM: HNN
UNITS: cm
INSTRUMENT: sensor = FBA-3 [Kinemetrics] | digitizer = Etna [Kinemetrics]
INSTRUMENT_ANALOG/DIGITAL: D
INSTRUMENTAL_FREQUENCY_HZ: 210.000
INSTRUMENTAL_DAMPING: 0.700000
FULL_SCALE_G: 1.0
N_BIT_DIGITAL_CONVERTER: 18
PGD_CM: -0.595553
TIME_PGD_S: 
BASELINE_CORRECTION: BASELINE REMOVED
FILTER_TYPE: BUTTERWORTH
FILTER_ORDER: 2
LOW_CUT_FREQUENCY_HZ: 0.100
HIGH_CUT_FREQUENCY_HZ: 40.000
LATE/NORMAL_TRIGGERED: NT
DATABASE_VERSION: 0.5
HEADER_FORMAT: DYNA 1.2
DATA_TYPE: DISPLACEMENT RESPONSE SPECTRUM
PROCESSING: manual (Paolucci et al., 2011)
DATA_TIMESTAMP_YYYYMMDD_HHMMSS: 20211011_155839.920
DATA_LICENSE: CC-BY3_0-IT (http://creativecommons.org/licenses/by/3.0/deed.en)
DATA_CITATION: Luzi L, Pacor F, Puglia R (2019). Italian Accelerometric Archive v 3.0 - Istituto Nazionale di Geofisica e Vulcanologia, Dipartimento della Protezione Civile Nazionale. doi: 10.13127/itaca.3.1
DATA_CREATOR: ITACA working group
ORIGINAL_DATA_MEDIATOR_CITATION: data obtained within the DPC-INGV data exchange agreements
ORIGINAL_DATA_MEDIATOR: Archive of Italian Department of Civil Protection
ORIGINAL_DATA_CREATOR_CITATION: Presidency Of Counsil Of Ministers-Civil Protection Department. (1972). Italian Strong Motion Network. Presidency of Counsil of Ministers - Civil Protection Department. https://doi.org/10.7914/SN/IT http://www.fdsn.org/networks/detail/IT/
ORIGINAL_DATA_CREATOR: network: IT (Italian Strong Motion Network (RAN)); owner: Presidency of Counsil of Ministers - Civil Protection Department (PCM - DPC)
USER1: 
USER2: 
USER3: 
USER4: 
USER5: 
    0.010000     0.000067
    0.020000     0.000268
    0.022000     0.000325
    0.025000     0.000421
    0.029000     0.000574
    0.030000     0.000616
    0.032000     0.000705
    0.035001     0.000856
    0.036000     0.000900
    0.040000     0.001180
    0.041999     0.001292
    0.044001     0.001408
    0.045000     0.001451
    0.046000     0.001518
    0.048001     0.001694
    0.050000     0.001997
    0.054999     0.002492
    0.059999     0.003495
    0.064998     0.004071
    0.067002     0.004587
    0.069999     0.005192
    0.075002     0.005887
    0.080000     0.006410
    0.084998     0.007750
    0.090001     0.008329
    0.095003     0.009509
    0.100000     0.010783
    0.109999     0.016289
    0.120005     0.021203
    0.130005     0.026396
    0.132996     0.027709
    0.139997     0.027576
    0.149993     0.026584
    0.160000     0.033101
    0.170010     0.034948
    0.179986     0.039610
    0.190006     0.053302
    0.200000     0.059110
    0.220022     0.058866
    0.239981     0.063848
    0.250000     0.078160
    0.260010     0.083254
    0.280034     0.107745
    0.290023     0.113960
    0.300030     0.127124
    0.320000     0.144942
    0.340020     0.175294
    0.350017     0.193452
    0.359971     0.195816
    0.379939     0.202219
    0.400000     0.213447
    0.419992     0.196593
    0.439947     0.196163
    0.450045     0.197439
    0.459982     0.206294
    0.480077     0.260676
    0.500000     0.284165
    0.550055     0.382858
    0.599880     0.484939
    0.650195     0.569546
    0.667111     0.582349
    0.699790     0.540264
    0.750188     0.477197
    0.800000     0.608965
    0.850340     0.541071
    0.900090     0.638456
    0.949668     0.612697
    1.000000     0.641865
    1.100110     0.746901
    1.200480     0.620609
    1.300390     0.963540
    1.400560     1.172224
    1.499250     1.168455
    1.600000     1.339677
    1.700680     1.188835
    1.798561     0.957874
    1.901141     1.062898
    2.000000     1.094916
    2.197802     1.204739
    2.398082     1.046023
    2.500000     1.036000
    2.597403     1.019066
    2.801121     1.090815
    3.003003     0.929499
    3.205128     0.979856
    3.401361     1.252097
    3.496503     1.287050
    3.597122     1.263344
    3.802281     1.111536
    4.000000     1.125348
    4.201681     1.231872
    4.405286     1.308488
    4.608295     1.357192
    4.807692     1.376318
    5.000000     1.400895
    5.494505     1.521008
    5.988024     1.228275
    6.493506     1.309588
    6.993007     1.274438
    7.518797     1.199877
    8.000000     1.095510
    8.474576     0.965310
    9.009009     0.829693
    9.523809     0.806298
   10.000000     0.790557
