EVENT_NAME: L_AQUILA
EVENT_ID: IT-2009-0009
EVENT_DATE_YYYYMMDD: 20090406
EVENT_TIME_HHMMSS: 013240
EVENT_LATITUDE_DEGREE: 42.3420
EVENT_LONGITUDE_DEGREE: 13.3800
EVENT_DEPTH_KM: 8.3
HYPOCENTER_REFERENCE: INGV-CNT_Seismic_Bulletin
MAGNITUDE_W: 6.1
MAGNITUDE_W_REFERENCE: INGV-CNT_Seismic_Bulletin
MAGNITUDE_L: 
MAGNITUDE_L_REFERENCE: 
FOCAL_MECHANISM: Normal faulting
NETWORK: MN
STATION_CODE: AQU
STATION_NAME: 
STATION_LATITUDE_DEGREE: 42.353880
STATION_LONGITUDE_DEGREE: 13.401930
STATION_ELEVATION_M: 729
LOCATION: 
SENSOR_DEPTH_M: 15.0
VS30_M/S: 
SITE_CLASSIFICATION_EC8: B (inferred from geology)
MORPHOLOGIC_CLASSIFICATION: 
EPICENTRAL_DISTANCE_KM: 2.5
EARTHQUAKE_BACKAZIMUTH_DEGREE: 57.1
DATE_TIME_FIRST_SAMPLE_YYYYMMDD_HHMMSS: 20090406_013225.000
DATE_TIME_FIRST_SAMPLE_PRECISION: milliseconds
SAMPLING_INTERVAL_S: 0.005000
NDATA: 18000
DURATION_S: 90.000
STREAM: HLN
UNITS: cm
INSTRUMENT: sensor = Unknown [Unknown] | digitizer = Unknown [Unknown]
INSTRUMENT_ANALOG/DIGITAL: D
INSTRUMENTAL_FREQUENCY_HZ: 
INSTRUMENTAL_DAMPING: 
FULL_SCALE_G: 
N_BIT_DIGITAL_CONVERTER: 
PGD_CM: 8.121854
TIME_PGD_S: 18.545000
BASELINE_CORRECTION: BASELINE REMOVED
FILTER_TYPE: BUTTERWORTH
FILTER_ORDER: 2
LOW_CUT_FREQUENCY_HZ: 0.150
HIGH_CUT_FREQUENCY_HZ: 40.000
LATE/NORMAL_TRIGGERED: NT
DATABASE_VERSION: 0.5
HEADER_FORMAT: DYNA 1.2
DATA_TYPE: DISPLACEMENT
PROCESSING: manual (Paolucci et al., 2011)
DATA_TIMESTAMP_YYYYMMDD_HHMMSS: 20211011_155541.983
DATA_LICENSE: CC-BY4_0 (http://creativecommons.org/licenses/by/4.0/)
DATA_CITATION: Luzi L, Pacor F, Puglia R (2019). Italian Accelerometric Archive v 3.0 - Istituto Nazionale di Geofisica e Vulcanologia, Dipartimento della Protezione Civile Nazionale. doi: 10.13127/itaca.3.1
DATA_CREATOR: ITACA working group
ORIGINAL_DATA_MEDIATOR_CITATION: data obtained within the DPC-INGV data exchange agreements
ORIGINAL_DATA_MEDIATOR: Archive of Italian Department of Civil Protection
ORIGINAL_DATA_CREATOR_CITATION:  http://www.fdsn.org/networks/detail/MN/
ORIGINAL_DATA_CREATOR: network: MN (Mediterranean Very Broadband Seismographic Network (MedNet)); owner: Istituto Nazionale di Geofisica e Vulcanologia (INGV)
USER1: 
USER2: 
USER3: 
USER4: 
USER5: 
[...]
-4.251077e-03
-4.577481e-03
-4.905948e-03
-5.236473e-03
-5.569067e-03
-5.903745e-03
-6.240515e-03
-6.579381e-03
-6.920346e-03
-7.263421e-03
-7.608616e-03
-7.955942e-03
-8.305414e-03
-8.657045e-03
-9.010843e-03
-9.366809e-03
-9.724944e-03
-1.008526e-02
-1.044776e-02
-1.081246e-02
-1.117933e-02
-1.154838e-02
-1.191960e-02
-1.229304e-02
-1.266872e-02
-1.304664e-02
-1.342678e-02
-1.380914e-02
-1.419373e-02
-1.458059e-02
-1.496972e-02
-1.536110e-02
-1.575472e-02
-1.615058e-02
-1.654871e-02
-1.694913e-02
-1.735183e-02
-1.775682e-02
-1.816409e-02
-1.857365e-02
-1.898554e-02
-1.939976e-02
-1.981633e-02
-2.023523e-02
-2.065646e-02
-2.108001e-02
-2.150590e-02
-2.193417e-02
-2.236482e-02
-2.279787e-02
-2.323330e-02
-2.367107e-02
-2.411118e-02
-2.455367e-02
-2.499858e-02
-2.544594e-02
-2.589572e-02
-2.634790e-02
-2.680246e-02
-2.725945e-02
-2.771889e-02
-2.818078e-02
-2.864513e-02
-2.911193e-02
-2.958120e-02
-3.005294e-02
-3.052716e-02
-3.100388e-02
-3.148307e-02
-3.196477e-02
-3.244897e-02
-3.293569e-02
-3.342489e-02
-3.391658e-02
-3.441077e-02
-3.490749e-02
-3.540676e-02
-3.590859e-02
-3.641296e-02
-3.691989e-02
-3.742938e-02
-3.794142e-02
-3.845603e-02
-3.897319e-02
-3.949290e-02
-4.001517e-02
-4.054000e-02
-4.106740e-02
-4.159740e-02
-4.213002e-02
-4.266525e-02
-4.320310e-02
-4.374357e-02
-4.428667e-02
-4.483241e-02
-4.538078e-02
-4.593179e-02
-4.648544e-02
-4.704172e-02
-4.760067e-02
-4.816230e-02
-4.872661e-02
-4.929360e-02
-4.986326e-02
-5.043559e-02
-5.101060e-02
-5.158828e-02
-5.216866e-02
-5.275174e-02
-5.333751e-02
-5.392600e-02
-5.451720e-02
-5.511110e-02
-5.570773e-02
-5.630708e-02
-5.690916e-02
-5.751399e-02
-5.812155e-02
-5.873184e-02
-5.934490e-02
-5.996075e-02
-6.057937e-02
-6.120075e-02
-6.182487e-02
-6.245173e-02
-6.308138e-02
-6.371385e-02
-6.434913e-02
-6.498724e-02
-6.562815e-02
-6.627186e-02
-6.691836e-02
-6.756766e-02
-6.821976e-02
-6.887471e-02
-6.953251e-02
-7.019316e-02
-7.085662e-02
-7.152291e-02
-7.219205e-02
-7.286404e-02
-7.353890e-02
-7.421659e-02
-7.489713e-02
-7.558054e-02
-7.626687e-02
-7.695610e-02
-7.764821e-02
-7.834317e-02
-7.904099e-02
-7.974169e-02
-8.044530e-02
-8.115182e-02
-8.186125e-02
-8.257357e-02
-8.328877e-02
-8.400687e-02
-8.472789e-02
-8.545184e-02
-8.617872e-02
-8.690851e-02
-8.764120e-02
-8.837679e-02
-8.911529e-02
-8.985672e-02
-9.060112e-02
-9.134850e-02
-9.209885e-02
-9.285215e-02
-9.360838e-02
-9.436756e-02
-9.512970e-02
-9.589480e-02
-9.666289e-02
-9.743397e-02
-9.820802e-02
-9.898505e-02
-9.976504e-02
-1.005480e-01
-1.013339e-01
-1.021228e-01
-1.029147e-01
-1.037095e-01
-1.045073e-01
-1.053081e-01
-1.061119e-01
-1.069187e-01
-1.077285e-01
-1.085413e-01
-1.093570e-01
-1.101757e-01
-1.109974e-01
-1.118221e-01
-1.126499e-01
-1.134806e-01
-1.143143e-01
-1.151510e-01
-1.159907e-01
-1.168334e-01
-1.176791e-01
-1.185278e-01
-1.193795e-01
-1.202342e-01
-1.210920e-01
-1.219527e-01
-1.228164e-01
-1.236832e-01
-1.245530e-01
-1.254258e-01
-1.263016e-01
-1.271805e-01
-1.280624e-01
-1.289473e-01
-1.298353e-01
-1.307263e-01
-1.316203e-01
-1.325173e-01
-1.334173e-01
-1.343204e-01
-1.352265e-01
-1.361356e-01
-1.370477e-01
-1.379628e-01
-1.388809e-01
-1.398021e-01
-1.407263e-01
-1.416535e-01
-1.425836e-01
-1.435169e-01
-1.444531e-01
-1.453924e-01
-1.463347e-01
-1.472801e-01
-1.482284e-01
-1.491797e-01
-1.501340e-01
-1.510914e-01
-1.520517e-01
-1.530150e-01
-1.539814e-01
-1.549507e-01
-1.559231e-01
-1.568984e-01
-1.578768e-01
-1.588582e-01
-1.598425e-01
-1.608298e-01
-1.618200e-01
-1.628132e-01
-1.638094e-01
-1.648086e-01
-1.658107e-01
-1.668158e-01
-1.678239e-01
-1.688350e-01
-1.698490e-01
-1.708659e-01
-1.718858e-01
-1.729087e-01
-1.739346e-01
-1.749633e-01
-1.759951e-01
-1.770297e-01
-1.780673e-01
-1.791078e-01
-1.801513e-01
-1.811977e-01
-1.822471e-01
-1.832994e-01
-1.843547e-01
-1.854128e-01
-1.864738e-01
-1.875378e-01
-1.886046e-01
-1.896744e-01
-1.907470e-01
-1.918225e-01
-1.929009e-01
-1.939822e-01
-1.950664e-01
-1.961535e-01
-1.972434e-01
-1.983362e-01
-1.994318e-01
-2.005302e-01
-2.016315e-01
-2.027356e-01
-2.038426e-01
-2.049524e-01
-2.060651e-01
-2.071805e-01
-2.082987e-01
-2.094198e-01
-2.105436e-01
-2.116702e-01
-2.127996e-01
-2.139318e-01
-2.150668e-01
-2.162046e-01
-2.173450e-01
-2.184882e-01
-2.196342e-01
-2.207829e-01
-2.219343e-01
-2.230884e-01
-2.242452e-01
-2.254048e-01
-2.265670e-01
-2.277320e-01
-2.288996e-01
-2.300698e-01
-2.312427e-01
-2.324183e-01
-2.335964e-01
-2.347773e-01
-2.359608e-01
-2.371468e-01
-2.383355e-01
-2.395268e-01
-2.407206e-01
-2.419171e-01
-2.431161e-01
-2.443176e-01
-2.455216e-01
-2.467281e-01
-2.479372e-01
-2.491489e-01
-2.503630e-01
-2.515797e-01
-2.527988e-01
-2.540205e-01
-2.552446e-01
-2.564711e-01
-2.577001e-01
-2.589315e-01
-2.601653e-01
-2.614015e-01
-2.626401e-01
-2.638811e-01
-2.651246e-01
-2.663703e-01
-2.676185e-01
-2.688689e-01
-2.701217e-01
-2.713769e-01
-2.726342e-01
-2.738939e-01
-2.751558e-01
-2.764200e-01
-2.776865e-01
-2.789552e-01
-2.802261e-01
-2.814992e-01
-2.827746e-01
-2.840521e-01
-2.853318e-01
-2.866137e-01
-2.878976e-01
-2.891837e-01
-2.904720e-01
-2.917623e-01
-2.930546e-01
-2.943491e-01
-2.956455e-01
-2.969440e-01
-2.982445e-01
-2.995470e-01
-3.008514e-01
-3.021579e-01
-3.034663e-01
-3.047767e-01
-3.060890e-01
-3.074032e-01
-3.087192e-01
-3.100372e-01
-3.113570e-01
-3.126786e-01
-3.140021e-01
-3.153274e-01
-3.166544e-01
-3.179832e-01
-3.193137e-01
-3.206460e-01
-3.219800e-01
-3.233157e-01
-3.246530e-01
-3.259920e-01
-3.273326e-01
-3.286749e-01
-3.300188e-01
-3.313642e-01
-3.327113e-01
-3.340598e-01
-3.354099e-01
-3.367614e-01
-3.381144e-01
-3.394689e-01
-3.408248e-01
-3.421821e-01
-3.435409e-01
-3.449010e-01
-3.462625e-01
-3.476253e-01
-3.489894e-01
-3.503548e-01
-3.517214e-01
-3.530893e-01
-3.544585e-01
-3.558289e-01
-3.572004e-01
-3.585732e-01
-3.599470e-01
-3.613219e-01
-3.626979e-01
-3.640750e-01
-3.654531e-01
-3.668322e-01
-3.682123e-01
-3.695935e-01
-3.709755e-01
-3.723585e-01
-3.737424e-01
-3.751271e-01
-3.765126e-01
-3.778990e-01
-3.792862e-01
-3.806742e-01
-3.820629e-01
-3.834524e-01
-3.848425e-01
-3.862332e-01
-3.876245e-01
-3.890164e-01
-3.904090e-01
-3.918021e-01
-3.931957e-01
-3.945899e-01
-3.959845e-01
-3.973795e-01
-3.987749e-01
-4.001707e-01
-4.015668e-01
-4.029632e-01
-4.043599e-01
-4.057569e-01
-4.071542e-01
-4.085517e-01
-4.099493e-01
-4.113472e-01
-4.127451e-01
-4.141430e-01
-4.155411e-01
-4.169392e-01
-4.183373e-01
-4.197354e-01
-4.211334e-01
-4.225313e-01
-4.239292e-01
-4.253271e-01
-4.267248e-01
-4.281225e-01
-4.295200e-01
-4.309175e-01
-4.323149e-01
-4.337126e-01
-4.351114e-01
-4.365130e-01
-4.379196e-01
-4.393344e-01
-4.407602e-01
-4.421986e-01
-4.436491e-01
-4.451085e-01
-4.465730e-01
-4.480403e-01
-4.495104e-01
-4.509861e-01
-4.524693e-01
-4.539584e-01
-4.554477e-01
-4.569295e-01
-4.583975e-01
-4.598497e-01
-4.612874e-01
-4.627135e-01
-4.641298e-01
-4.655367e-01
-4.669338e-01
-4.683212e-01
-4.697011e-01
-4.710782e-01
-4.724593e-01
-4.738502e-01
-4.752547e-01
-4.766751e-01
-4.781153e-01
-4.795811e-01
-4.810761e-01
-4.825967e-01
-4.841339e-01
-4.856780e-01
-4.872222e-01
-4.887629e-01
-4.902949e-01
-4.918110e-01
-4.933058e-01
-4.947811e-01
-4.962452e-01
-4.977110e-01
-4.991959e-01
-5.007180e-01
-5.022849e-01
-5.038844e-01
-5.054884e-01
-5.070689e-01
-5.086151e-01
-5.101363e-01
-5.116468e-01
-5.131549e-01
-5.146703e-01
-5.162134e-01
-5.178035e-01
-5.194380e-01
-5.210845e-01
-5.226952e-01
-5.242363e-01
-5.257090e-01
-5.271409e-01
-5.285655e-01
-5.300098e-01
-5.314888e-01
-5.330016e-01
-5.345329e-01
-5.360637e-01
-5.375871e-01
-5.391188e-01
-5.406927e-01
-5.423388e-01
-5.440595e-01
-5.458217e-01
-5.475651e-01
-5.492264e-01
-5.507639e-01
-5.521742e-01
-5.534923e-01
-5.547721e-01
-5.560617e-01
-5.573850e-01
-5.587387e-01
-5.601059e-01
-5.614792e-01
-5.628805e-01
-5.643620e-01
-5.659793e-01
-5.677516e-01
-5.696335e-01
-5.715216e-01
-5.733037e-01
-5.749172e-01
-5.763812e-01
-5.777881e-01
-5.792612e-01
-5.809004e-01
-5.827396e-01
-5.847306e-01
-5.867608e-01
-5.886996e-01
-5.904573e-01
-5.920245e-01
-5.934626e-01
-5.948575e-01
-5.962659e-01
-5.976902e-01
-5.991034e-01
-6.004905e-01
-6.018702e-01
-6.032825e-01
-6.047548e-01
-6.062804e-01
-6.078310e-01
-6.093838e-01
-6.109361e-01
-6.125011e-01
-6.140948e-01
-6.157254e-01
-6.173939e-01
-6.190999e-01
-6.208453e-01
-6.226347e-01
-6.244756e-01
-6.263791e-01
-6.283627e-01
-6.304590e-01
-6.327226e-01
-6.352213e-01
-6.380038e-01
-6.410707e-01
-6.443741e-01
-6.478412e-01
-6.514024e-01
-6.550187e-01
-6.587050e-01
-6.625497e-01
-6.667120e-01
-6.713641e-01
-6.765728e-01
-6.822033e-01
-6.879366e-01
-6.933935e-01
-6.983098e-01
-7.026634e-01
-7.066757e-01
-7.106994e-01
-7.150440e-01
-7.198182e-01
-7.248598e-01
-7.297871e-01
-7.341684e-01
-7.377333e-01
-7.405211e-01
-7.428792e-01
-7.452854e-01
-7.481280e-01
-7.515936e-01
-7.557025e-01
-7.604341e-01
-7.657895e-01
-7.717089e-01
-7.779996e-01
-7.844276e-01
-7.908743e-01
-7.973992e-01
-8.041765e-01
-8.113744e-01
-8.191051e-01
-8.274946e-01
-8.366974e-01
-8.467263e-01
-8.572865e-01
-8.678404e-01
-8.778636e-01
-8.871241e-01
-8.957920e-01
-9.042935e-01
-9.130709e-01
-9.224351e-01
-9.325280e-01
-9.433319e-01
-9.546597e-01
-9.661213e-01
-9.771710e-01
-9.873152e-01
-9.963710e-01
-1.004601e+00
-1.012604e+00
-1.020985e+00
-1.030053e+00
-1.039792e+00
-1.050019e+00
-1.060543e+00
-1.071205e+00
-1.081802e+00
-1.092025e+00
-1.101530e+00
-1.110055e+00
-1.117495e+00
-1.123887e+00
-1.129362e+00
-1.134067e+00
-1.138088e+00
-1.141394e+00
-1.143862e+00
-1.145386e+00
-1.146020e+00
-1.146051e+00
-1.145894e+00
-1.145926e+00
-1.146346e+00
-1.147124e+00
-1.148041e+00
-1.148795e+00
-1.149171e+00
-1.149156e+00
-1.148939e+00
-1.148786e+00
-1.148883e+00
-1.149270e+00
-1.149945e+00
-1.150983e+00
-1.152538e+00
-1.154746e+00
-1.157643e+00
-1.161134e+00
-1.165017e+00
-1.169010e+00
-1.172766e+00
-1.175918e+00
-1.178183e+00
-1.179456e+00
-1.179799e+00
-1.179377e+00
-1.178383e+00
-1.177021e+00
-1.175528e+00
-1.174192e+00
-1.173299e+00
-1.173052e+00
-1.173522e+00
-1.174607e+00
-1.176021e+00
-1.177336e+00
-1.178083e+00
-1.177878e+00
-1.176507e+00
-1.173987e+00
-1.170605e+00
-1.166855e+00
-1.163232e+00
-1.159971e+00
-1.156924e+00
-1.153683e+00
-1.149943e+00
-1.145757e+00
-1.141401e+00
-1.137068e+00
-1.132726e+00
-1.128186e+00
-1.123288e+00
-1.117997e+00
-1.112302e+00
-1.106080e+00
-1.099132e+00
-1.091338e+00
-1.082813e+00
-1.073947e+00
-1.065309e+00
-1.057483e+00
-1.050911e+00
-1.045784e+00
-1.042003e+00
-1.039187e+00
-1.036750e+00
-1.034075e+00
-1.030767e+00
-1.026842e+00
-1.022697e+00
-1.018894e+00
-1.015878e+00
-1.013802e+00
-1.012557e+00
-1.011857e+00
-1.011260e+00
-1.010193e+00
-1.008083e+00
-1.004575e+00
-9.997161e-01
-9.939484e-01
-9.878427e-01
-9.817923e-01
-9.758811e-01
-9.699141e-01
-9.635070e-01
-9.561796e-01
-9.474431e-01
-9.369187e-01
-9.244817e-01
-9.103251e-01
-8.948536e-01
-8.784838e-01
-8.614723e-01
-8.438417e-01
-8.254304e-01
-8.060272e-01
-7.855236e-01
-7.639960e-01
-7.416564e-01
-7.187078e-01
-6.951885e-01
-6.709002e-01
-6.454599e-01
-6.183932e-01
-5.891890e-01
-5.573630e-01
-5.225928e-01
-4.848907e-01
-4.447111e-01
-4.028644e-01
-3.601900e-01
-3.171888e-01
-2.738629e-01
-2.298587e-01
-1.848464e-01
-1.388209e-01
-9.206363e-02
-4.486718e-02
2.728568e-03
5.097993e-02
1.002083e-01
1.505462e-01
2.018963e-01
2.540318e-01
3.066885e-01
3.596298e-01
4.127183e-01
4.659896e-01
5.196859e-01
5.741879e-01
6.298467e-01
6.868588e-01
7.453026e-01
8.052508e-01
8.668310e-01
9.302155e-01
9.955716e-01
1.062999e+00
1.132484e+00
1.203911e+00
1.277136e+00
1.352075e+00
1.428719e+00
1.507093e+00
1.587164e+00
1.668807e+00
1.751848e+00
1.836131e+00
1.921530e+00
2.007940e+00
2.095298e+00
2.183611e+00
2.272966e+00
2.363528e+00
2.455517e+00
2.549164e+00
2.644661e+00
2.742116e+00
2.841544e+00
2.942891e+00
3.046085e+00
3.151078e+00
3.257859e+00
3.366429e+00
3.476730e+00
3.588584e+00
3.701678e+00
3.815635e+00
3.930163e+00
4.045134e+00
4.160520e+00
4.276257e+00
4.392178e+00
4.508072e+00
4.623794e+00
4.739344e+00
4.854797e+00
4.970198e+00
5.085522e+00
5.200679e+00
5.315516e+00
5.429821e+00
5.543374e+00
5.656020e+00
5.767760e+00
5.878767e+00
5.989279e+00
6.099442e+00
6.209183e+00
6.318154e+00
6.425751e+00
6.531225e+00
6.633844e+00
6.733025e+00
6.828359e+00
6.919634e+00
7.006901e+00
7.090507e+00
7.170950e+00
7.248621e+00
7.323550e+00
7.395419e+00
7.463913e+00
7.529037e+00
7.591069e+00
7.650271e+00
7.706679e+00
7.760121e+00
7.810443e+00
7.857657e+00
7.901825e+00
7.942852e+00
7.980465e+00
8.014327e+00
8.044129e+00
8.069600e+00
8.090446e+00
8.106316e+00
8.116873e+00
8.121854e+00
8.121040e+00
8.114175e+00
8.100937e+00
8.080949e+00
8.053811e+00
8.019201e+00
7.977043e+00
7.927685e+00
7.871945e+00
7.811012e+00
7.746243e+00
7.678918e+00
7.610031e+00
7.540097e+00
7.469016e+00
7.396144e+00
7.320630e+00
7.241736e+00
7.158839e+00
7.071284e+00
6.978309e+00
6.879140e+00
6.773171e+00
6.660094e+00
6.539887e+00
6.412825e+00
6.279625e+00
6.141475e+00
5.999757e+00
5.855729e+00
5.710436e+00
5.564765e+00
5.419443e+00
5.274931e+00
5.131340e+00
4.988492e+00
4.846178e+00
4.704347e+00
4.563021e+00
4.422149e+00
4.281631e+00
4.141409e+00
4.001460e+00
3.861735e+00
3.722149e+00
3.582652e+00
3.443319e+00
3.304358e+00
3.166002e+00
3.028365e+00
2.891398e+00
2.754895e+00
2.618544e+00
2.481994e+00
2.344971e+00
2.207365e+00
2.069250e+00
1.930864e+00
1.792602e+00
1.654979e+00
1.518541e+00
1.383789e+00
1.251166e+00
1.121073e+00
9.938313e-01
8.696230e-01
7.484551e-01
6.302190e-01
5.148299e-01
4.023044e-01
2.926725e-01
1.858458e-01
8.160075e-02
-2.032041e-02
-1.200644e-01
-2.175668e-01
-3.125550e-01
-4.046327e-01
-4.933953e-01
-5.785314e-01
-6.598720e-01
-7.373763e-01
-8.110646e-01
-8.809471e-01
-9.469908e-01
-1.009121e+00
-1.067236e+00
-1.121236e+00
-1.171049e+00
-1.216667e+00
-1.258168e+00
-1.295733e+00
-1.329656e+00
-1.360312e+00
-1.388074e+00
-1.413179e+00
-1.435620e+00
-1.455162e+00
-1.471521e+00
-1.484579e+00
-1.494422e+00
-1.501190e+00
-1.504809e+00
-1.504898e+00
-1.500995e+00
-1.492896e+00
-1.480793e+00
-1.465157e+00
-1.446471e+00
-1.425033e+00
-1.400969e+00
-1.374334e+00
-1.345151e+00
-1.313428e+00
-1.279203e+00
-1.242629e+00
-1.204004e+00
-1.163773e+00
-1.122492e+00
-1.080792e+00
-1.039334e+00
-9.987553e-01
-9.596061e-01
-9.223230e-01
-8.872536e-01
-8.546885e-01
-8.248493e-01
-7.978548e-01
-7.737062e-01
-7.522943e-01
-7.334252e-01
-7.168690e-01
-7.024303e-01
-6.900007e-01
-6.795595e-01
-6.711304e-01
-6.647227e-01
-6.602787e-01
-6.576365e-01
-6.564934e-01
-6.563618e-01
-6.565490e-01
-6.562025e-01
-6.544362e-01
-6.505235e-01
-6.440712e-01
-6.350897e-01
-6.239324e-01
-6.111385e-01
-5.973042e-01
-5.830746e-01
-5.692051e-01
-5.565942e-01
-5.462397e-01
-5.391135e-01
-5.360211e-01
-5.374992e-01
-5.437391e-01
-5.545161e-01
-5.691630e-01
-5.866447e-01
-6.057616e-01
-6.254374e-01
-6.449240e-01
-6.637883e-01
-6.817628e-01
-6.986122e-01
-7.141108e-01
-7.281292e-01
-7.406835e-01
-7.518452e-01
-7.616373e-01
-7.700631e-01
-7.772234e-01
-7.834013e-01
-7.890363e-01
-7.945921e-01
-8.004516e-01
-8.069487e-01
-8.144524e-01
-8.233824e-01
-8.341358e-01
-8.469848e-01
-8.620459e-01
-8.793643e-01
-8.989713e-01
-9.207882e-01
-9.444532e-01
-9.692283e-01
-9.940932e-01
-1.018017e+00
-1.040190e+00
-1.060048e+00
-1.077204e+00
-1.091435e+00
-1.102725e+00
-1.111251e+00
-1.117328e+00
-1.121317e+00
-1.123590e+00
-1.124560e+00
-1.124713e+00
-1.124574e+00
-1.124668e+00
-1.125514e+00
-1.127579e+00
-1.131128e+00
-1.136090e+00
-1.142078e+00
-1.148541e+00
-1.154912e+00
-1.160667e+00
-1.165238e+00
-1.167940e+00
-1.168048e+00
-1.164964e+00
-1.158359e+00
-1.148225e+00
-1.134813e+00
-1.118536e+00
-1.099876e+00
-1.079322e+00
-1.057335e+00
-1.034346e+00
-1.010798e+00
-9.871823e-01
-9.640029e-01
-9.417018e-01
-9.205728e-01
-9.007454e-01
-8.822635e-01
-8.651541e-01
-8.494085e-01
-8.349577e-01
-8.217295e-01
-8.097280e-01
-7.990405e-01
-7.897663e-01
-7.819263e-01
-7.754436e-01
-7.702260e-01
-7.662281e-01
-7.634010e-01
-7.616452e-01
-7.608906e-01
-7.612317e-01
-7.629868e-01
-7.666250e-01
-7.725901e-01
-7.811553e-01
-7.924083e-01
-8.063070e-01
-8.227182e-01
-8.414486e-01
-8.623012e-01
-8.851452e-01
-9.099553e-01
-9.367719e-01
-9.655784e-01
-9.961816e-01
-1.028176e+00
-1.060964e+00
-1.093786e+00
-1.125774e+00
-1.156059e+00
-1.183917e+00
-1.208906e+00
-1.230929e+00
-1.250194e+00
-1.267138e+00
-1.282387e+00
-1.296676e+00
-1.310698e+00
-1.324963e+00
-1.339782e+00
-1.355399e+00
-1.372161e+00
-1.390543e+00
-1.410903e+00
-1.433193e+00
-1.456871e+00
-1.481076e+00
-1.504949e+00
-1.527892e+00
-1.549587e+00
-1.569897e+00
-1.588805e+00
-1.606373e+00
-1.622695e+00
-1.637813e+00
-1.651670e+00
-1.664154e+00
-1.675240e+00
-1.685090e+00
-1.693997e+00
-1.702258e+00
-1.710100e+00
-1.717652e+00
-1.724952e+00
-1.731968e+00
-1.738663e+00
-1.745061e+00
-1.751284e+00
-1.757488e+00
-1.763745e+00
-1.769970e+00
-1.776028e+00
-1.781880e+00
-1.787644e+00
-1.793564e+00
-1.799964e+00
-1.807202e+00
-1.815629e+00
-1.825547e+00
-1.837155e+00
-1.850527e+00
-1.865618e+00
-1.882275e+00
-1.900223e+00
-1.919073e+00
-1.938387e+00
-1.957732e+00
-1.976687e+00
-1.994840e+00
-2.011848e+00
-2.027525e+00
-2.041868e+00
-2.054990e+00
-2.067002e+00
-2.077949e+00
-2.087889e+00
-2.096997e+00
-2.105575e+00
-2.113954e+00
-2.122378e+00
-2.130937e+00
-2.139585e+00
-2.148196e+00
-2.156599e+00
-2.164552e+00
-2.171692e+00
-2.177519e+00
-2.181495e+00
-2.183167e+00
-2.182254e+00
-2.178614e+00
-2.172146e+00
-2.162711e+00
-2.150194e+00
-2.134601e+00
-2.116107e+00
-2.095035e+00
-2.071787e+00
-2.046790e+00
-2.020437e+00
-1.993070e+00
-1.964958e+00
-1.936287e+00
-1.907143e+00
-1.877498e+00
-1.847235e+00
-1.816194e+00
-1.784259e+00
-1.751400e+00
-1.717635e+00
-1.682977e+00
-1.647396e+00
-1.610819e+00
-1.573138e+00
-1.534226e+00
-1.493964e+00
-1.452274e+00
-1.409134e+00
-1.364572e+00
-1.318645e+00
-1.271428e+00
-1.223021e+00
-1.173576e+00
-1.123313e+00
-1.072534e+00
-1.021599e+00
-9.708744e-01
-9.206432e-01
-8.710478e-01
-8.221145e-01
-7.738139e-01
