EVENT_NAME: L_AQUILA
EVENT_ID: IT-2009-0009
EVENT_DATE_YYYYMMDD: 20090406
EVENT_TIME_HHMMSS: 013240
EVENT_LATITUDE_DEGREE: 42.3420
EVENT_LONGITUDE_DEGREE: 13.3800
EVENT_DEPTH_KM: 8.3
HYPOCENTER_REFERENCE: INGV-CNT_Seismic_Bulletin
MAGNITUDE_W: 6.1
MAGNITUDE_W_REFERENCE: INGV-CNT_Seismic_Bulletin
MAGNITUDE_L: 
MAGNITUDE_L_REFERENCE: 
FOCAL_MECHANISM: Normal faulting
NETWORK: MN
STATION_CODE: AQU
STATION_NAME: 
STATION_LATITUDE_DEGREE: 42.353880
STATION_LONGITUDE_DEGREE: 13.401930
STATION_ELEVATION_M: 729
LOCATION: 
SENSOR_DEPTH_M: 15.0
VS30_M/S: 
SITE_CLASSIFICATION_EC8: B (inferred from geology)
MORPHOLOGIC_CLASSIFICATION: 
EPICENTRAL_DISTANCE_KM: 2.5
EARTHQUAKE_BACKAZIMUTH_DEGREE: 57.1
DATE_TIME_FIRST_SAMPLE_YYYYMMDD_HHMMSS: 20090406_013225.000
DATE_TIME_FIRST_SAMPLE_PRECISION: milliseconds
SAMPLING_INTERVAL_S: 0.005000
NDATA: 18000
DURATION_S: 90.000
STREAM: HLZ
UNITS: cm
INSTRUMENT: sensor = Unknown [Unknown] | digitizer = Unknown [Unknown]
INSTRUMENT_ANALOG/DIGITAL: D
INSTRUMENTAL_FREQUENCY_HZ: 
INSTRUMENTAL_DAMPING: 
FULL_SCALE_G: 
N_BIT_DIGITAL_CONVERTER: 
PGD_CM: -6.322035
TIME_PGD_S: 18.335000
BASELINE_CORRECTION: BASELINE REMOVED
FILTER_TYPE: BUTTERWORTH
FILTER_ORDER: 2
LOW_CUT_FREQUENCY_HZ: 0.150
HIGH_CUT_FREQUENCY_HZ: 40.000
LATE/NORMAL_TRIGGERED: NT
DATABASE_VERSION: 0.5
HEADER_FORMAT: DYNA 1.2
DATA_TYPE: DISPLACEMENT
PROCESSING: manual (Paolucci et al., 2011)
DATA_TIMESTAMP_YYYYMMDD_HHMMSS: 20211011_155542.504
DATA_LICENSE: CC-BY4_0 (http://creativecommons.org/licenses/by/4.0/)
DATA_CITATION: Luzi L, Pacor F, Puglia R (2019). Italian Accelerometric Archive v 3.0 - Istituto Nazionale di Geofisica e Vulcanologia, Dipartimento della Protezione Civile Nazionale. doi: 10.13127/itaca.3.1
DATA_CREATOR: ITACA working group
ORIGINAL_DATA_MEDIATOR_CITATION: data obtained within the DPC-INGV data exchange agreements
ORIGINAL_DATA_MEDIATOR: Archive of Italian Department of Civil Protection
ORIGINAL_DATA_CREATOR_CITATION:  http://www.fdsn.org/networks/detail/MN/
ORIGINAL_DATA_CREATOR: network: MN (Mediterranean Very Broadband Seismographic Network (MedNet)); owner: Istituto Nazionale di Geofisica e Vulcanologia (INGV)
USER1: 
USER2: 
USER3: 
USER4: 
USER5: 
[...]
-4.507683e-01
-4.512853e-01
-4.517956e-01
-4.522992e-01
-4.527961e-01
-4.532861e-01
-4.537692e-01
-4.542454e-01
-4.547146e-01
-4.551767e-01
-4.556318e-01
-4.560796e-01
-4.565203e-01
-4.569536e-01
-4.573796e-01
-4.577982e-01
-4.582094e-01
-4.586130e-01
-4.590090e-01
-4.593974e-01
-4.597781e-01
-4.601511e-01
-4.605162e-01
-4.608734e-01
-4.612227e-01
-4.615640e-01
-4.618972e-01
-4.622223e-01
-4.625392e-01
-4.628478e-01
-4.631482e-01
-4.634401e-01
-4.637236e-01
-4.639986e-01
-4.642651e-01
-4.645229e-01
-4.647720e-01
-4.650124e-01
-4.652440e-01
-4.654666e-01
-4.656804e-01
-4.658851e-01
-4.660808e-01
-4.662673e-01
-4.664447e-01
-4.666127e-01
-4.667715e-01
-4.669208e-01
-4.670606e-01
-4.671910e-01
-4.673117e-01
-4.674227e-01
-4.675239e-01
-4.676154e-01
-4.676970e-01
-4.677686e-01
-4.678303e-01
-4.678818e-01
-4.679233e-01
-4.679545e-01
-4.679754e-01
-4.679860e-01
-4.679861e-01
-4.679757e-01
-4.679548e-01
-4.679233e-01
-4.678811e-01
-4.678281e-01
-4.677642e-01
-4.676895e-01
-4.676038e-01
-4.675070e-01
-4.673991e-01
-4.672800e-01
-4.671496e-01
-4.670078e-01
-4.668547e-01
-4.666900e-01
-4.665138e-01
-4.663259e-01
-4.661263e-01
-4.659149e-01
-4.656916e-01
-4.654564e-01
-4.652092e-01
-4.649500e-01
-4.646785e-01
-4.643949e-01
-4.640990e-01
-4.637907e-01
-4.634699e-01
-4.631366e-01
-4.627907e-01
-4.624320e-01
-4.620606e-01
-4.616764e-01
-4.612792e-01
-4.608691e-01
-4.604458e-01
-4.600094e-01
-4.595598e-01
-4.590969e-01
-4.586206e-01
-4.581307e-01
-4.576274e-01
-4.571104e-01
-4.565797e-01
-4.560352e-01
-4.554769e-01
-4.549045e-01
-4.543182e-01
-4.537177e-01
-4.531030e-01
-4.524741e-01
-4.518308e-01
-4.511731e-01
-4.505008e-01
-4.498140e-01
-4.491124e-01
-4.483962e-01
-4.476650e-01
-4.469190e-01
-4.461579e-01
-4.453817e-01
-4.445904e-01
-4.437838e-01
-4.429619e-01
-4.421245e-01
-4.412716e-01
-4.404032e-01
-4.395190e-01
-4.386191e-01
-4.377034e-01
-4.367717e-01
-4.358239e-01
-4.348601e-01
-4.338801e-01
-4.328839e-01
-4.318712e-01
-4.308421e-01
-4.297965e-01
-4.287342e-01
-4.276553e-01
-4.265595e-01
-4.254468e-01
-4.243172e-01
-4.231705e-01
-4.220066e-01
-4.208255e-01
-4.196271e-01
-4.184112e-01
-4.171778e-01
-4.159268e-01
-4.146581e-01
-4.133717e-01
-4.120673e-01
-4.107450e-01
-4.094046e-01
-4.080461e-01
-4.066693e-01
-4.052742e-01
-4.038607e-01
-4.024287e-01
-4.009780e-01
-3.995087e-01
-3.980206e-01
-3.965137e-01
-3.949878e-01
-3.934428e-01
-3.918787e-01
-3.902953e-01
-3.886926e-01
-3.870705e-01
-3.854288e-01
-3.837675e-01
-3.820865e-01
-3.803856e-01
-3.786649e-01
-3.769241e-01
-3.751633e-01
-3.733823e-01
-3.715810e-01
-3.697593e-01
-3.679172e-01
-3.660545e-01
-3.641711e-01
-3.622669e-01
-3.603419e-01
-3.583960e-01
-3.564289e-01
-3.544408e-01
-3.524314e-01
-3.504007e-01
-3.483485e-01
-3.462747e-01
-3.441794e-01
-3.420623e-01
-3.399234e-01
-3.377626e-01
-3.355798e-01
-3.333748e-01
-3.311476e-01
-3.288981e-01
-3.266262e-01
-3.243318e-01
-3.220147e-01
-3.196750e-01
-3.173124e-01
-3.149269e-01
-3.125184e-01
-3.100869e-01
-3.076321e-01
-3.051540e-01
-3.026524e-01
-3.001274e-01
-2.975788e-01
-2.950064e-01
-2.924103e-01
-2.897903e-01
-2.871462e-01
-2.844780e-01
-2.817856e-01
-2.790689e-01
-2.763278e-01
-2.735621e-01
-2.707718e-01
-2.679568e-01
-2.651169e-01
-2.622521e-01
-2.593623e-01
-2.564474e-01
-2.535072e-01
-2.505417e-01
-2.475507e-01
-2.445342e-01
-2.414920e-01
-2.384241e-01
-2.353304e-01
-2.322107e-01
-2.290650e-01
-2.258931e-01
-2.226949e-01
-2.194704e-01
-2.162194e-01
-2.129419e-01
-2.096377e-01
-2.063067e-01
-2.029487e-01
-1.995638e-01
-1.961518e-01
-1.927126e-01
-1.892461e-01
-1.857521e-01
-1.822306e-01
-1.786814e-01
-1.751046e-01
-1.714998e-01
-1.678672e-01
-1.642065e-01
-1.605176e-01
-1.568004e-01
-1.530548e-01
-1.492808e-01
-1.454782e-01
-1.416469e-01
-1.377868e-01
-1.338978e-01
-1.299798e-01
-1.260327e-01
-1.220563e-01
-1.180506e-01
-1.140155e-01
-1.099509e-01
-1.058566e-01
-1.017326e-01
-9.757881e-02
-9.339503e-02
-8.918120e-02
-8.493721e-02
-8.066293e-02
-7.635827e-02
-7.202313e-02
-6.765740e-02
-6.326099e-02
-5.883376e-02
-5.437561e-02
-4.988645e-02
-4.536617e-02
-4.081465e-02
-3.623178e-02
-3.161745e-02
-2.697157e-02
-2.229403e-02
-1.758472e-02
-1.284353e-02
-8.070342e-03
-3.265057e-03
1.572434e-03
6.442244e-03
1.134448e-02
1.627923e-02
2.124660e-02
2.624670e-02
3.127964e-02
3.634554e-02
4.144450e-02
4.657663e-02
5.174203e-02
5.694083e-02
6.217311e-02
6.743897e-02
7.273850e-02
7.807183e-02
8.343907e-02
8.884034e-02
9.427575e-02
9.974538e-02
1.052494e-01
1.107878e-01
1.163608e-01
1.219684e-01
1.276108e-01
1.332881e-01
1.390003e-01
1.447476e-01
1.505301e-01
1.563479e-01
1.622011e-01
1.680898e-01
1.740141e-01
1.799741e-01
1.859700e-01
1.920017e-01
1.980695e-01
2.041734e-01
2.103135e-01
2.164900e-01
2.227029e-01
2.289523e-01
2.352384e-01
2.415613e-01
2.479210e-01
2.543176e-01
2.607513e-01
2.672222e-01
2.737304e-01
2.802759e-01
2.868589e-01
2.934795e-01
3.001377e-01
3.068337e-01
3.135677e-01
3.203396e-01
3.271496e-01
3.339978e-01
3.408843e-01
3.478092e-01
3.547725e-01
3.617745e-01
3.688152e-01
3.758946e-01
3.830130e-01
3.901703e-01
3.973668e-01
4.046025e-01
4.118775e-01
4.191918e-01
4.265457e-01
4.339392e-01
4.413724e-01
4.488455e-01
4.563584e-01
4.639113e-01
4.715043e-01
4.791375e-01
4.868110e-01
4.945250e-01
5.022794e-01
5.100743e-01
5.179099e-01
5.257864e-01
5.337037e-01
5.416620e-01
5.496613e-01
5.577018e-01
5.657836e-01
5.739067e-01
5.820712e-01
5.902773e-01
5.985251e-01
6.068146e-01
6.151459e-01
6.235191e-01
6.319343e-01
6.403916e-01
6.488911e-01
6.574329e-01
6.660170e-01
6.746436e-01
6.833128e-01
6.920246e-01
7.007790e-01
7.095763e-01
7.184165e-01
7.272998e-01
7.362261e-01
7.451956e-01
7.542083e-01
7.632643e-01
7.723638e-01
7.815069e-01
7.906935e-01
7.999239e-01
8.091980e-01
8.185160e-01
8.278779e-01
8.372839e-01
8.467339e-01
8.562282e-01
8.657667e-01
8.753496e-01
8.849769e-01
8.946488e-01
9.043652e-01
9.141263e-01
9.239322e-01
9.337829e-01
9.436786e-01
9.536193e-01
9.636050e-01
9.736359e-01
9.837121e-01
9.938335e-01
1.004000e+00
1.014213e+00
1.024470e+00
1.034774e+00
1.045123e+00
1.055518e+00
1.065959e+00
1.076445e+00
1.086978e+00
1.097557e+00
1.108181e+00
1.118852e+00
1.129570e+00
1.140333e+00
1.151143e+00
1.161999e+00
1.172902e+00
1.183852e+00
1.194848e+00
1.205891e+00
1.216981e+00
1.228118e+00
1.239301e+00
1.250532e+00
1.261809e+00
1.273134e+00
1.284506e+00
1.295925e+00
1.307391e+00
1.318905e+00
1.330466e+00
1.342074e+00
1.353730e+00
1.365434e+00
1.377185e+00
1.388984e+00
1.400831e+00
1.412726e+00
1.424668e+00
1.436658e+00
1.448696e+00
1.460783e+00
1.472917e+00
1.485099e+00
1.497330e+00
1.509609e+00
1.521936e+00
1.534311e+00
1.546735e+00
1.559207e+00
1.571727e+00
1.584296e+00
1.596913e+00
1.609579e+00
1.622294e+00
1.635057e+00
1.647869e+00
1.660730e+00
1.673639e+00
1.686597e+00
1.699604e+00
1.712660e+00
1.725764e+00
1.738918e+00
1.752121e+00
1.765372e+00
1.778673e+00
1.792022e+00
1.805421e+00
1.818869e+00
1.832365e+00
1.845912e+00
1.859507e+00
1.873151e+00
1.886845e+00
1.900588e+00
1.914380e+00
1.928222e+00
1.942112e+00
1.956052e+00
1.970042e+00
1.984081e+00
1.998169e+00
2.012306e+00
2.026493e+00
2.040730e+00
2.055016e+00
2.069351e+00
2.083736e+00
2.098170e+00
2.112653e+00
2.127186e+00
2.141768e+00
2.156399e+00
2.171078e+00
2.185806e+00
2.200582e+00
2.215407e+00
2.230278e+00
2.245191e+00
2.260141e+00
2.275114e+00
2.290095e+00
2.305066e+00
2.320016e+00
2.334940e+00
2.349849e+00
2.364758e+00
2.379679e+00
2.394609e+00
2.409535e+00
2.424440e+00
2.439327e+00
2.454230e+00
2.469201e+00
2.484290e+00
2.499518e+00
2.514873e+00
2.530330e+00
2.545873e+00
2.561507e+00
2.577245e+00
2.593096e+00
2.609050e+00
2.625085e+00
2.641180e+00
2.657328e+00
2.673527e+00
2.689771e+00
2.706040e+00
2.722301e+00
2.738532e+00
2.754738e+00
2.770955e+00
2.787223e+00
2.803559e+00
2.819955e+00
2.836389e+00
2.852844e+00
2.869306e+00
2.885758e+00
2.902166e+00
2.918492e+00
2.934711e+00
2.950816e+00
2.966818e+00
2.982760e+00
2.998727e+00
3.014841e+00
3.031223e+00
3.047936e+00
3.064949e+00
3.082149e+00
3.099392e+00
3.116583e+00
3.133720e+00
3.150906e+00
3.168305e+00
3.186044e+00
3.204125e+00
3.222402e+00
3.240630e+00
3.258585e+00
3.276171e+00
3.293442e+00
3.310554e+00
3.327675e+00
3.344909e+00
3.362273e+00
3.379718e+00
3.397168e+00
3.414565e+00
3.431910e+00
3.449267e+00
3.466732e+00
3.484366e+00
3.502154e+00
3.520002e+00
3.537814e+00
3.555580e+00
3.573413e+00
3.591497e+00
3.609967e+00
3.628811e+00
3.647869e+00
3.666919e+00
3.685801e+00
3.704486e+00
3.723088e+00
3.741799e+00
3.760804e+00
3.780188e+00
3.799851e+00
3.819506e+00
3.838786e+00
3.857416e+00
3.875351e+00
3.892800e+00
3.910101e+00
3.927542e+00
3.945254e+00
3.963191e+00
3.981216e+00
3.999211e+00
4.017177e+00
4.035237e+00
4.053554e+00
4.072215e+00
4.091189e+00
4.110367e+00
4.129668e+00
4.149110e+00
4.168782e+00
4.188740e+00
4.208912e+00
4.229064e+00
4.248879e+00
4.268102e+00
4.286679e+00
4.304781e+00
4.322679e+00
4.340551e+00
4.358370e+00
4.375898e+00
4.392757e+00
4.408530e+00
4.422822e+00
4.435319e+00
4.445852e+00
4.454431e+00
4.461229e+00
4.466477e+00
4.470331e+00
4.472711e+00
4.473199e+00
4.471067e+00
4.465497e+00
4.455946e+00
4.442519e+00
4.426163e+00
4.408501e+00
4.391306e+00
4.375790e+00
4.362040e+00
4.348984e+00
4.334928e+00
4.318489e+00
4.299387e+00
4.278636e+00
4.258076e+00
4.239535e+00
4.224094e+00
4.211860e+00
4.202190e+00
4.194110e+00
4.186692e+00
4.179230e+00
4.171245e+00
4.162440e+00
4.152681e+00
4.142046e+00
4.130913e+00
4.119923e+00
4.109698e+00
4.100280e+00
4.090787e+00
4.079685e+00
4.065507e+00
4.047565e+00
4.026191e+00
4.002338e+00
3.977042e+00
3.951243e+00
3.925827e+00
3.901574e+00
3.878972e+00
3.858019e+00
3.838222e+00
3.818893e+00
3.799511e+00
3.779915e+00
3.760357e+00
3.741488e+00
3.724243e+00
3.709553e+00
3.697965e+00
3.689324e+00
3.682742e+00
3.676925e+00
3.670657e+00
3.663132e+00
3.654067e+00
3.643611e+00
3.632178e+00
3.620296e+00
3.608400e+00
3.596532e+00
3.584138e+00
3.570159e+00
3.553359e+00
3.532775e+00
3.508124e+00
3.480042e+00
3.450062e+00
3.420232e+00
3.392413e+00
3.367462e+00
3.344851e+00
3.323114e+00
3.300786e+00
3.277207e+00
3.252726e+00
3.228185e+00
3.204234e+00
3.181028e+00
3.158311e+00
3.135637e+00
3.112494e+00
3.088264e+00
3.062222e+00
3.033746e+00
3.002533e+00
2.968593e+00
2.932088e+00
2.893199e+00
2.852114e+00
2.809135e+00
2.764671e+00
2.719030e+00
2.672210e+00
2.623939e+00
2.573903e+00
2.521961e+00
2.468223e+00
2.412921e+00
2.356184e+00
2.297857e+00
2.237491e+00
2.174560e+00
2.108820e+00
2.040639e+00
1.971089e+00
1.901658e+00
1.833673e+00
1.767660e+00
1.702892e+00
1.637404e+00
1.568647e+00
1.494651e+00
1.414975e+00
1.330757e+00
1.243939e+00
1.156192e+00
1.068300e+00
9.804003e-01
8.925083e-01
8.046186e-01
7.164720e-01
6.273592e-01
5.362661e-01
4.424233e-01
3.459015e-01
2.478532e-01
1.502962e-01
5.550449e-02
-3.475692e-02
-1.198716e-01
-2.006166e-01
-2.788615e-01
-3.568922e-01
-4.366233e-01
-5.189553e-01
-6.035012e-01
-6.888305e-01
-7.732060e-01
-8.554123e-01
-9.352436e-01
-1.013549e+00
-1.091922e+00
-1.172248e+00
-1.256274e+00
-1.345177e+00
-1.439129e+00
-1.537106e+00
-1.637182e+00
-1.737220e+00
-1.835673e+00
-1.932161e+00
-2.027527e+00
-2.123410e+00
-2.221516e+00
-2.322878e+00
-2.427372e+00
-2.533581e+00
-2.639048e+00
-2.740858e+00
-2.836444e+00
-2.924370e+00
-3.004753e+00
-3.079124e+00
-3.149678e+00
-3.218309e+00
-3.285897e+00
-3.352108e+00
-3.415756e+00
-3.475487e+00
-3.530504e+00
-3.581060e+00
-3.628547e+00
-3.675150e+00
-3.723147e+00
-3.774160e+00
-3.828667e+00
-3.885976e+00
-3.944673e+00
-4.003283e+00
-4.060837e+00
-4.117090e+00
-4.172335e+00
-4.227001e+00
-4.281332e+00
-4.335278e+00
-4.388627e+00
-4.441174e+00
-4.492741e+00
-4.543100e+00
-4.591920e+00
-4.638850e+00
-4.683741e+00
-4.726791e+00
-4.768448e+00
-4.809149e+00
-4.849136e+00
-4.888465e+00
-4.927201e+00
-4.965523e+00
-5.003533e+00
-5.041035e+00
-5.077562e+00
-5.112640e+00
-5.146080e+00
-5.178087e+00
-5.209099e+00
-5.239610e+00
-5.270126e+00
-5.301058e+00
-5.332370e+00
-5.363314e+00
-5.392677e+00
-5.419443e+00
-5.443506e+00
-5.465808e+00
-5.487584e+00
-5.509399e+00
-5.530763e+00
-5.550472e+00
-5.567420e+00
-5.581300e+00
-5.592772e+00
-5.603135e+00
-5.613814e+00
-5.625889e+00
-5.639876e+00
-5.655787e+00
-5.673389e+00
-5.692467e+00
-5.712911e+00
-5.734694e+00
-5.757851e+00
-5.782505e+00
-5.808913e+00
-5.837422e+00
-5.868293e+00
-5.901501e+00
-5.936644e+00
-5.972963e+00
-6.009444e+00
-6.044999e+00
-6.078750e+00
-6.110260e+00
-6.139589e+00
-6.167143e+00
-6.193382e+00
-6.218548e+00
-6.242518e+00
-6.264756e+00
-6.284348e+00
-6.300231e+00
-6.311658e+00
-6.318593e+00
-6.321707e+00
-6.322035e+00
-6.320500e+00
-6.317617e+00
-6.313499e+00
-6.307993e+00
-6.300771e+00
-6.291472e+00
-6.280023e+00
-6.266906e+00
-6.253114e+00
-6.239790e+00
-6.227722e+00
-6.217054e+00
-6.207432e+00
-6.198391e+00
-6.189668e+00
-6.181247e+00
-6.173149e+00
-6.165187e+00
-6.156937e+00
-6.147929e+00
-6.137937e+00
-6.127102e+00
-6.115744e+00
-6.104065e+00
-6.092008e+00
-6.079304e+00
-6.065637e+00
-6.050780e+00
-6.034592e+00
-6.016994e+00
-5.997968e+00
-5.977566e+00
-5.955834e+00
-5.932714e+00
-5.907998e+00
-5.881388e+00
-5.852644e+00
-5.821786e+00
-5.789244e+00
-5.755842e+00
-5.722571e+00
-5.690292e+00
-5.659560e+00
-5.630584e+00
-5.603273e+00
-5.577236e+00
-5.551713e+00
-5.525680e+00
-5.498292e+00
-5.469324e+00
-5.439232e+00
-5.408775e+00
-5.378416e+00
-5.347957e+00
-5.316702e+00
-5.283906e+00
-5.249128e+00
-5.212282e+00
-5.173400e+00
-5.132407e+00
-5.089182e+00
-5.043869e+00
-4.997174e+00
-4.950296e+00
-4.904342e+00
-4.859656e+00
-4.815622e+00
-4.771017e+00
-4.724737e+00
-4.676353e+00
-4.626125e+00
-4.574704e+00
-4.522896e+00
-4.471554e+00
-4.421507e+00
-4.373385e+00
-4.327315e+00
-4.282773e+00
-4.238813e+00
-4.194510e+00
-4.149307e+00
-4.103095e+00
-4.056008e+00
-4.008190e+00
-3.959767e+00
-3.910939e+00
-3.862044e+00
-3.813480e+00
-3.765519e+00
-3.718192e+00
-3.671368e+00
-3.624902e+00
-3.578665e+00
-3.532472e+00
-3.486003e+00
-3.438816e+00
-3.390470e+00
-3.340668e+00
-3.289326e+00
-3.236627e+00
-3.183092e+00
-3.129517e+00
-3.076692e+00
-3.025076e+00
-2.974660e+00
-2.925113e+00
-2.876141e+00
-2.827765e+00
-2.780281e+00
-2.734037e+00
-2.689222e+00
-2.645758e+00
-2.603310e+00
-2.561386e+00
-2.519485e+00
-2.477251e+00
-2.434571e+00
-2.391536e+00
-2.348284e+00
-2.304901e+00
-2.261535e+00
-2.218609e+00
-2.176925e+00
-2.137535e+00
-2.101380e+00
-2.068917e+00
-2.039977e+00
-2.013865e+00
-1.989652e+00
-1.966522e+00
-1.944048e+00
-1.922328e+00
-1.901927e+00
-1.883629e+00
-1.868069e+00
-1.855356e+00
-1.844874e+00
-1.835402e+00
-1.825580e+00
-1.814412e+00
-1.801501e+00
-1.786963e+00
-1.771155e+00
-1.754422e+00
-1.737018e+00
-1.719112e+00
-1.700766e+00
-1.681934e+00
-1.662566e+00
-1.642717e+00
-1.622574e+00
-1.602433e+00
-1.582689e+00
-1.563849e+00
-1.546508e+00
-1.531256e+00
-1.518523e+00
-1.508481e+00
-1.501083e+00
-1.496149e+00
-1.493378e+00
-1.492351e+00
-1.492570e+00
-1.493527e+00
-1.494759e+00
-1.495845e+00
-1.496380e+00
-1.495947e+00
-1.494137e+00
-1.490586e+00
-1.484996e+00
-1.477141e+00
-1.466875e+00
-1.454171e+00
-1.439190e+00
-1.422299e+00
-1.403993e+00
-1.384758e+00
-1.364950e+00
-1.344799e+00
-1.324533e+00
-1.304476e+00
-1.284986e+00
-1.266317e+00
-1.248571e+00
-1.231722e+00
-1.215697e+00
-1.200416e+00
-1.185771e+00
-1.171610e+00
-1.157815e+00
-1.144393e+00
-1.131506e+00
-1.119412e+00
-1.108342e+00
-1.098362e+00
-1.089310e+00
-1.080802e+00
-1.072338e+00
-1.063446e+00
-1.053833e+00
-1.043490e+00
-1.032690e+00
-1.021868e+00
-1.011443e+00
-1.001677e+00
-9.927071e-01
-9.846659e-01
-9.777990e-01
-9.724587e-01
-9.689462e-01
-9.673389e-01
-9.674367e-01
-9.687984e-01
-9.707829e-01
-9.725595e-01
-9.731126e-01
-9.713415e-01
-9.663031e-01
-9.574498e-01
-9.447044e-01
-9.283742e-01
-9.089752e-01
-8.870385e-01
-8.629522e-01
-8.368700e-01
-8.087253e-01
-7.783779e-01
-7.458607e-01
-7.115530e-01
-6.761378e-01
-6.404353e-01
-6.052528e-01
-5.713000e-01
-5.391512e-01
-5.092136e-01
-4.816853e-01
-4.565518e-01
-4.336488e-01
-4.127148e-01
-3.933795e-01
-3.751640e-01
-3.575691e-01
-3.401744e-01
-3.226456e-01
-3.046588e-01
-2.858181e-01
-2.656694e-01
-2.438404e-01
-2.201569e-01
-1.946009e-01
-1.671972e-01
-1.379598e-01
-1.069126e-01
-7.414819e-02
-3.987726e-02
-4.442486e-03
3.171652e-02
6.815285e-02
1.045477e-01
1.408368e-01
1.771987e-01
2.138442e-01
2.507911e-01
2.878336e-01
3.247053e-01
3.613126e-01
3.978350e-01
4.345779e-01
4.717349e-01
5.092602e-01
5.468990e-01
5.843258e-01
6.212780e-01
6.576023e-01
6.932446e-01
7.282493e-01
7.627916e-01
7.972295e-01
8.321050e-01
8.680391e-01
9.055411e-01
9.448033e-01
9.855852e-01
1.027269e+00
1.069068e+00
1.110307e+00
1.150640e+00
1.190092e+00
1.228881e+00
1.267137e+00
1.304708e+00
1.341223e+00
1.376281e+00
1.409566e+00
1.440863e+00
1.470005e+00
1.496896e+00
1.521652e+00
1.544736e+00
1.566937e+00
1.589229e+00
1.612577e+00
1.637685e+00
1.664716e+00
1.693160e+00
1.722031e+00
1.750294e+00
1.777321e+00
1.803083e+00
1.827928e+00
1.852187e+00
1.875935e+00
1.898983e+00
1.921091e+00
1.942169e+00
1.962320e+00
1.981744e+00
2.000597e+00
2.018922e+00
2.036675e+00
2.053793e+00
2.070231e+00
2.086003e+00
2.101258e+00
2.116316e+00
2.131580e+00
2.147382e+00
2.163874e+00
2.181030e+00
2.198732e+00
2.216837e+00
2.235128e+00
2.253262e+00
2.270808e+00
2.287326e+00
2.302410e+00
2.315711e+00
2.326984e+00
2.336153e+00
2.343337e+00
2.348804e+00
2.352836e+00
2.355607e+00
2.357161e+00
2.357454e+00
2.356359e+00
2.353679e+00
2.349188e+00
2.342728e+00
2.334345e+00
2.324388e+00
2.313482e+00
2.302374e+00
2.291690e+00
2.281709e+00
2.272275e+00
2.262831e+00
2.252590e+00
2.240778e+00
2.226919e+00
2.211047e+00
2.193721e+00
2.175814e+00
2.158107e+00
2.140916e+00
2.123956e+00
2.106437e+00
2.087319e+00
2.065656e+00
2.040931e+00
2.013274e+00
1.983444e+00
1.952571e+00
1.921739e+00
1.891635e+00
1.862452e+00
1.833993e+00
1.805846e+00
1.777543e+00
1.748657e+00
1.718892e+00
1.688158e+00
1.656598e+00
1.624506e+00
1.592194e+00
1.559921e+00
1.527919e+00
1.496476e+00
1.465951e+00
1.436661e+00
