EVENT_NAME: L_AQUILA
EVENT_ID: IT-2009-0009
EVENT_DATE_YYYYMMDD: 20090406
EVENT_TIME_HHMMSS: 013240
EVENT_LATITUDE_DEGREE: 42.3420
EVENT_LONGITUDE_DEGREE: 13.3800
EVENT_DEPTH_KM: 8.3
HYPOCENTER_REFERENCE: INGV-CNT_Seismic_Bulletin
MAGNITUDE_W: 6.1
MAGNITUDE_W_REFERENCE: INGV-CNT_Seismic_Bulletin
MAGNITUDE_L: 
MAGNITUDE_L_REFERENCE: 
FOCAL_MECHANISM: Normal faulting
NETWORK: MN
STATION_CODE: AQU
STATION_NAME: 
STATION_LATITUDE_DEGREE: 42.353880
STATION_LONGITUDE_DEGREE: 13.401930
STATION_ELEVATION_M: 729
LOCATION: 
SENSOR_DEPTH_M: 15.0
VS30_M/S: 
SITE_CLASSIFICATION_EC8: B (inferred from geology)
MORPHOLOGIC_CLASSIFICATION: 
EPICENTRAL_DISTANCE_KM: 2.5
EARTHQUAKE_BACKAZIMUTH_DEGREE: 57.1
DATE_TIME_FIRST_SAMPLE_YYYYMMDD_HHMMSS: 20090406_013225.000
DATE_TIME_FIRST_SAMPLE_PRECISION: milliseconds
SAMPLING_INTERVAL_S: 0.005000
NDATA: 18000
DURATION_S: 90.000
STREAM: HLE
UNITS: cm
INSTRUMENT: sensor = Unknown [Unknown] | digitizer = Unknown [Unknown]
INSTRUMENT_ANALOG/DIGITAL: D
INSTRUMENTAL_FREQUENCY_HZ: 
INSTRUMENTAL_DAMPING: 
FULL_SCALE_G: 
N_BIT_DIGITAL_CONVERTER: 
PGD_CM: 3.338762
TIME_PGD_S: 23.010000
BASELINE_CORRECTION: BASELINE REMOVED
FILTER_TYPE: BUTTERWORTH
FILTER_ORDER: 2
LOW_CUT_FREQUENCY_HZ: 0.150
HIGH_CUT_FREQUENCY_HZ: 40.000
LATE/NORMAL_TRIGGERED: NT
DATABASE_VERSION: 0.5
HEADER_FORMAT: DYNA 1.2
DATA_TYPE: DISPLACEMENT
PROCESSING: manual (Paolucci et al., 2011)
DATA_TIMESTAMP_YYYYMMDD_HHMMSS: 20211011_155541.459
DATA_LICENSE: CC-BY4_0 (http://creativecommons.org/licenses/by/4.0/)
DATA_CITATION: Luzi L, Pacor F, Puglia R (2019). Italian Accelerometric Archive v 3.0 - Istituto Nazionale di Geofisica e Vulcanologia, Dipartimento della Protezione Civile Nazionale. doi: 10.13127/itaca.3.1
DATA_CREATOR: ITACA working group
ORIGINAL_DATA_MEDIATOR_CITATION: data obtained within the DPC-INGV data exchange agreements
ORIGINAL_DATA_MEDIATOR: Archive of Italian Department of Civil Protection
ORIGINAL_DATA_CREATOR_CITATION:  http://www.fdsn.org/networks/detail/MN/
ORIGINAL_DATA_CREATOR: network: MN (Mediterranean Very Broadband Seismographic Network (MedNet)); owner: Istituto Nazionale di Geofisica e Vulcanologia (INGV)
USER1: 
USER2: 
USER3: 
USER4: 
USER5: 
[...]
1.382810e+00
1.450047e+00
1.515098e+00
1.578517e+00
1.640982e+00
1.702837e+00
1.763878e+00
1.823638e+00
1.881778e+00
1.938139e+00
1.992565e+00
2.044757e+00
2.094302e+00
2.140833e+00
2.184122e+00
2.223991e+00
2.260239e+00
2.292729e+00
2.321524e+00
2.346870e+00
2.369088e+00
2.388471e+00
2.405217e+00
2.419400e+00
2.430939e+00
2.439577e+00
2.444850e+00
2.446073e+00
2.442477e+00
2.433586e+00
2.419704e+00
2.402240e+00
2.383512e+00
2.365927e+00
2.351126e+00
2.339721e+00
2.331575e+00
2.326276e+00
2.323339e+00
2.321979e+00
2.320904e+00
2.318595e+00
2.313844e+00
2.306105e+00
2.295419e+00
2.281958e+00
2.265588e+00
2.245823e+00
2.222089e+00
2.194059e+00
2.161869e+00
2.126143e+00
2.087803e+00
2.047787e+00
2.006801e+00
1.965242e+00
1.923213e+00
1.880547e+00
1.836843e+00
1.791591e+00
1.744371e+00
1.695041e+00
1.643719e+00
1.590477e+00
1.535049e+00
1.476853e+00
1.415229e+00
1.349666e+00
1.279873e+00
1.205668e+00
1.126860e+00
1.043269e+00
9.548797e-01
8.619894e-01
7.652441e-01
6.655010e-01
5.636096e-01
4.602528e-01
3.559458e-01
2.512024e-01
1.467154e-01
4.339210e-02
-5.775315e-02
-1.557906e-01
-2.500847e-01
-3.404569e-01
-4.272245e-01
-5.110663e-01
-5.927647e-01
-6.729328e-01
-7.518644e-01
-8.295849e-01
-9.059981e-01
-9.809803e-01
-1.054364e+00
-1.125831e+00
-1.194834e+00
-1.260666e+00
-1.322632e+00
-1.380237e+00
-1.433284e+00
-1.481801e+00
-1.525867e+00
-1.565426e+00
-1.600205e+00
-1.629787e+00
-1.653791e+00
-1.672061e+00
-1.684771e+00
-1.692388e+00
-1.695564e+00
-1.695037e+00
-1.691552e+00
-1.685810e+00
-1.678431e+00
-1.669919e+00
-1.660633e+00
-1.650774e+00
-1.640384e+00
-1.629386e+00
-1.617634e+00
-1.604960e+00
-1.591162e+00
-1.575950e+00
-1.558955e+00
-1.539886e+00
-1.518685e+00
-1.495563e+00
-1.470902e+00
-1.445116e+00
-1.418590e+00
-1.391713e+00
-1.364920e+00
-1.338622e+00
-1.313133e+00
-1.288680e+00
-1.265460e+00
-1.243640e+00
-1.223349e+00
-1.204694e+00
-1.187825e+00
-1.172998e+00
-1.160610e+00
-1.151142e+00
-1.145106e+00
-1.143025e+00
-1.145402e+00
-1.152638e+00
-1.164932e+00
-1.182234e+00
-1.204262e+00
-1.230539e+00
-1.260467e+00
-1.293412e+00
-1.328769e+00
-1.365993e+00
-1.404587e+00
-1.444083e+00
-1.484047e+00
-1.524104e+00
-1.563974e+00
-1.603463e+00
-1.642463e+00
-1.680976e+00
-1.719158e+00
-1.757328e+00
-1.795934e+00
-1.835432e+00
-1.876165e+00
-1.918259e+00
-1.961623e+00
-2.006028e+00
-2.051215e+00
-2.096948e+00
-2.143015e+00
-2.189230e+00
-2.235466e+00
-2.281703e+00
-2.327998e+00
-2.374351e+00
-2.420544e+00
-2.466098e+00
-2.510348e+00
-2.552602e+00
-2.592280e+00
-2.628966e+00
-2.662373e+00
-2.692227e+00
-2.718149e+00
-2.739598e+00
-2.755937e+00
-2.766643e+00
-2.771488e+00
-2.770558e+00
-2.764175e+00
-2.752824e+00
-2.737172e+00
-2.718154e+00
-2.696990e+00
-2.674988e+00
-2.653248e+00
-2.632401e+00
-2.612522e+00
-2.593252e+00
-2.574051e+00
-2.554425e+00
-2.534018e+00
-2.512534e+00
-2.489605e+00
-2.464776e+00
-2.437571e+00
-2.407569e+00
-2.374436e+00
-2.337887e+00
-2.297647e+00
-2.253475e+00
-2.205187e+00
-2.152649e+00
-2.095792e+00
-2.034720e+00
-1.969803e+00
-1.901646e+00
-1.830959e+00
-1.758398e+00
-1.684504e+00
-1.609765e+00
-1.534686e+00
-1.459717e+00
-1.385131e+00
-1.310985e+00
-1.237213e+00
-1.163822e+00
-1.091013e+00
-1.019109e+00
-9.483595e-01
-8.787549e-01
-8.099725e-01
-7.414789e-01
-6.727002e-01
-6.031576e-01
-5.325558e-01
-4.608404e-01
-3.882201e-01
-3.151456e-01
-2.422663e-01
-1.703925e-01
-1.004721e-01
-3.356765e-02
2.921068e-02
8.684129e-02
1.385483e-01
1.839117e-01
2.228933e-01
2.557699e-01
2.830082e-01
3.051401e-01
3.226991e-01
3.362423e-01
3.463838e-01
3.537648e-01
3.589798e-01
3.625076e-01
3.646793e-01
3.656705e-01
3.654681e-01
3.637929e-01
3.600767e-01
3.535804e-01
3.435862e-01
3.295550e-01
3.111976e-01
2.884584e-01
2.614722e-01
2.305326e-01
1.960464e-01
1.584546e-01
1.181797e-01
7.566151e-02
3.143711e-02
-1.380982e-02
-5.927536e-02
-1.041379e-01
-1.476625e-01
-1.892346e-01
-2.283264e-01
-2.644337e-01
-2.970460e-01
-3.257091e-01
-3.502015e-01
-3.707733e-01
-3.882670e-01
-4.039543e-01
-4.191447e-01
-4.347526e-01
-4.511075e-01
-4.681666e-01
-4.859002e-01
-5.045208e-01
-5.244090e-01
-5.457831e-01
-5.684372e-01
-5.918077e-01
-6.152363e-01
-6.381804e-01
-6.602451e-01
-6.810587e-01
-7.001880e-01
-7.172361e-01
-7.319932e-01
-7.444771e-01
-7.548998e-01
-7.636468e-01
-7.712707e-01
-7.784427e-01
-7.858141e-01
-7.938013e-01
-8.024419e-01
-8.114375e-01
-8.202924e-01
-8.284253e-01
-8.352484e-01
-8.402411e-01
-8.430001e-01
-8.432337e-01
-8.407072e-01
-8.351764e-01
-8.263719e-01
-8.140569e-01
-7.980833e-01
-7.783781e-01
-7.549072e-01
-7.276857e-01
-6.968296e-01
-6.626083e-01
-6.254515e-01
-5.858891e-01
-5.444484e-01
-5.015458e-01
-4.573988e-01
-4.119769e-01
-3.650106e-01
-3.160653e-01
-2.646586e-01
-2.103765e-01
-1.529419e-01
-9.219569e-02
-2.800237e-02
3.986313e-02
1.117376e-01
1.879222e-01
2.684388e-01
3.528276e-01
4.401187e-01
5.290363e-01
6.183009e-01
7.068610e-01
7.939837e-01
8.792152e-01
9.623141e-01
1.043242e+00
1.122171e+00
1.199435e+00
1.275426e+00
1.350452e+00
1.424672e+00
1.498133e+00
1.570861e+00
1.642908e+00
1.714325e+00
1.785087e+00
1.855029e+00
1.923856e+00
1.991231e+00
2.056915e+00
2.120871e+00
2.183253e+00
2.244320e+00
2.304315e+00
2.363399e+00
2.421640e+00
2.479028e+00
2.535448e+00
2.590665e+00
2.644353e+00
2.696161e+00
2.745803e+00
2.793123e+00
2.838128e+00
2.880978e+00
2.921912e+00
2.961162e+00
2.998866e+00
3.035036e+00
3.069581e+00
3.102360e+00
3.133212e+00
3.161982e+00
3.188551e+00
3.212835e+00
3.234732e+00
3.254070e+00
3.270625e+00
3.284197e+00
3.294721e+00
3.302306e+00
3.307166e+00
3.309516e+00
3.309511e+00
3.307249e+00
3.302791e+00
3.296175e+00
3.287419e+00
3.276531e+00
3.263552e+00
3.248612e+00
3.231940e+00
3.213822e+00
3.194470e+00
3.173882e+00
3.151788e+00
3.127725e+00
3.101264e+00
3.072243e+00
3.040874e+00
3.007659e+00
2.973161e+00
2.937753e+00
2.901509e+00
2.864268e+00
2.825841e+00
2.786186e+00
2.745421e+00
2.703724e+00
2.661227e+00
2.617987e+00
2.574014e+00
2.529330e+00
2.483963e+00
2.437963e+00
2.391469e+00
2.344767e+00
2.298262e+00
2.252387e+00
2.207489e+00
2.163746e+00
2.121129e+00
2.079408e+00
2.038195e+00
1.997020e+00
1.955430e+00
1.913086e+00
1.869813e+00
1.825618e+00
1.780647e+00
1.735101e+00
1.689103e+00
1.642608e+00
1.595423e+00
1.547284e+00
1.497933e+00
1.447185e+00
1.394986e+00
1.341432e+00
1.286710e+00
1.230986e+00
1.174306e+00
1.116612e+00
1.057912e+00
9.984139e-01
9.384698e-01
8.784127e-01
8.184533e-01
7.587035e-01
6.992998e-01
6.404868e-01
5.825619e-01
5.257705e-01
4.702709e-01
4.161805e-01
3.636620e-01
3.129978e-01
2.646077e-01
2.189868e-01
1.765724e-01
1.376185e-01
1.021593e-01
7.007376e-02
4.120592e-02
1.544993e-02
-7.265030e-03
-2.703232e-02
-4.399322e-02
-5.832371e-02
-7.020768e-02
-7.981935e-02
-8.732653e-02
-9.290933e-02
-9.678783e-02
-9.925484e-02
-1.007012e-01
-1.016010e-01
-1.024461e-01
-1.036836e-01
-1.057084e-01
-1.088772e-01
-1.134891e-01
-1.197168e-01
-1.275229e-01
-1.366596e-01
-1.468047e-01
-1.577118e-01
-1.692372e-01
-1.812491e-01
-1.935073e-01
-2.056530e-01
-2.173763e-01
-2.286282e-01
-2.397057e-01
-2.511577e-01
-2.635582e-01
-2.773099e-01
-2.926153e-01
-3.095730e-01
-3.282931e-01
-3.489306e-01
-3.716101e-01
-3.963547e-01
-4.231170e-01
-4.518423e-01
-4.824605e-01
-5.148102e-01
-5.485615e-01
-5.832328e-01
-6.183317e-01
-6.534938e-01
-6.884965e-01
-7.232086e-01
-7.575659e-01
-7.915708e-01
-8.252661e-01
-8.586529e-01
-8.915718e-01
-9.236535e-01
-9.544155e-01
-9.834316e-01
-1.010464e+00
-1.035517e+00
-1.058800e+00
-1.080633e+00
-1.101294e+00
-1.120890e+00
-1.139291e+00
-1.156187e+00
-1.171272e+00
-1.184435e+00
-1.195837e+00
-1.205870e+00
-1.215033e+00
-1.223830e+00
-1.232737e+00
-1.242193e+00
-1.252543e+00
-1.263962e+00
-1.276387e+00
-1.289521e+00
-1.302922e+00
-1.316135e+00
-1.328816e+00
-1.340809e+00
-1.352154e+00
-1.363038e+00
-1.373728e+00
-1.384523e+00
-1.395758e+00
-1.407815e+00
-1.421114e+00
-1.436035e+00
-1.452798e+00
-1.471344e+00
-1.491308e+00
-1.512058e+00
-1.532825e+00
-1.552837e+00
-1.571458e+00
-1.588274e+00
-1.603122e+00
-1.616025e+00
-1.627064e+00
-1.636267e+00
-1.643634e+00
-1.649237e+00
-1.653292e+00
-1.656106e+00
-1.657871e+00
-1.658499e+00
-1.657690e+00
-1.655162e+00
-1.650887e+00
-1.645136e+00
-1.638284e+00
-1.630530e+00
-1.621780e+00
-1.611733e+00
-1.600136e+00
-1.586993e+00
-1.572571e+00
-1.557244e+00
-1.541289e+00
-1.524768e+00
-1.507559e+00
-1.489464e+00
-1.470326e+00
-1.450123e+00
-1.429033e+00
-1.407431e+00
-1.385774e+00
-1.364440e+00
-1.343602e+00
-1.323199e+00
-1.303019e+00
-1.282851e+00
-1.262613e+00
-1.242426e+00
-1.222576e+00
-1.203358e+00
-1.184862e+00
-1.166865e+00
-1.148963e+00
-1.130833e+00
-1.112439e+00
-1.094093e+00
-1.076319e+00
-1.059667e+00
-1.044587e+00
-1.031366e+00
-1.020114e+00
-1.010768e+00
-1.003142e+00
-9.969692e-01
-9.919376e-01
-9.877369e-01
-9.841355e-01
-9.810032e-01
-9.782185e-01
-9.755400e-01
-9.725607e-01
-9.687827e-01
-9.637781e-01
-9.573098e-01
-9.493378e-01
-9.400137e-01
-9.297489e-01
-9.192438e-01
-9.093490e-01
-9.008315e-01
-8.941869e-01
-8.896011e-01
-8.870679e-01
-8.865142e-01
-8.878047e-01
-8.906948e-01
-8.948423e-01
-8.998826e-01
-9.055233e-01
-9.116035e-01
-9.180917e-01
-9.250436e-01
-9.325588e-01
-9.407480e-01
-9.497193e-01
-9.595834e-01
-9.704666e-01
-9.824975e-01
-9.957477e-01
-1.010177e+00
-1.025636e+00
-1.041922e+00
-1.058846e+00
-1.076247e+00
-1.093941e+00
-1.111677e+00
-1.129183e+00
-1.146269e+00
-1.162907e+00
-1.179225e+00
-1.195396e+00
-1.211497e+00
-1.227429e+00
-1.242957e+00
-1.257845e+00
-1.271983e+00
-1.285373e+00
-1.298001e+00
-1.309668e+00
-1.319933e+00
-1.328272e+00
-1.334282e+00
-1.337761e+00
-1.338644e+00
-1.336876e+00
-1.332364e+00
-1.325093e+00
-1.315281e+00
-1.303423e+00
-1.290195e+00
-1.276306e+00
-1.262379e+00
-1.248974e+00
-1.236654e+00
-1.226036e+00
-1.217734e+00
-1.212226e+00
-1.209685e+00
-1.209881e+00
-1.212183e+00
-1.215706e+00
-1.219529e+00
-1.222936e+00
-1.225560e+00
-1.227371e+00
-1.228539e+00
-1.229270e+00
-1.229703e+00
-1.229962e+00
-1.230263e+00
-1.230999e+00
-1.232735e+00
-1.236117e+00
-1.241753e+00
-1.250118e+00
-1.261480e+00
-1.275861e+00
-1.293019e+00
-1.312498e+00
-1.333708e+00
-1.356016e+00
-1.378828e+00
-1.401648e+00
-1.424127e+00
-1.446110e+00
-1.467647e+00
-1.488961e+00
-1.510338e+00
-1.531961e+00
-1.553809e+00
-1.575689e+00
-1.597423e+00
-1.619072e+00
-1.641013e+00
-1.663772e+00
-1.687745e+00
-1.713043e+00
-1.739515e+00
-1.766917e+00
-1.795054e+00
-1.823767e+00
-1.852842e+00
-1.881947e+00
-1.910632e+00
-1.938383e+00
-1.964711e+00
-1.989257e+00
-2.011847e+00
-2.032479e+00
-2.051261e+00
-2.068372e+00
-2.084048e+00
-2.098583e+00
-2.112264e+00
-2.125237e+00
-2.137404e+00
-2.148483e+00
-2.158165e+00
-2.166274e+00
-2.172829e+00
-2.177970e+00
-2.181839e+00
-2.184516e+00
-2.186046e+00
-2.186500e+00
-2.185997e+00
-2.184606e+00
-2.182223e+00
-2.178547e+00
-2.173164e+00
-2.165721e+00
-2.156031e+00
-2.144029e+00
-2.129665e+00
-2.112846e+00
-2.093440e+00
-2.071298e+00
-2.046280e+00
-2.018244e+00
-1.987066e+00
-1.952678e+00
-1.915130e+00
-1.874613e+00
-1.831459e+00
-1.786120e+00
-1.739117e+00
-1.691000e+00
-1.642301e+00
-1.593532e+00
-1.545163e+00
-1.497605e+00
-1.451150e+00
-1.405919e+00
-1.361823e+00
-1.318590e+00
-1.275846e+00
-1.233248e+00
-1.190582e+00
-1.147792e+00
-1.104936e+00
-1.062129e+00
-1.019534e+00
-9.774199e-01
-9.362162e-01
-8.964837e-01
-8.588179e-01
-8.237210e-01
-7.914690e-01
-7.620011e-01
-7.348703e-01
-7.092917e-01
-6.842835e-01
-6.588547e-01
-6.321472e-01
-6.034641e-01
-5.722256e-01
-5.379321e-01
-5.001800e-01
-4.587406e-01
-4.136477e-01
-3.652250e-01
-3.140298e-01
-2.607151e-01
-2.058802e-01
-1.499768e-01
-9.330560e-02
-3.609459e-02
2.141225e-02
7.893553e-02
1.362331e-01
1.932289e-01
2.500793e-01
3.070917e-01
3.645733e-01
4.227338e-01
4.816923e-01
5.415724e-01
6.025753e-01
6.649507e-01
7.289213e-01
7.946451e-01
8.622244e-01
9.317303e-01
1.003206e+00
1.076631e+00
1.151866e+00
1.228627e+00
1.306505e+00
1.385026e+00
1.463709e+00
1.542042e+00
1.619446e+00
1.695257e+00
1.768806e+00
1.839558e+00
1.907236e+00
1.971824e+00
2.033483e+00
2.092446e+00
2.148948e+00
2.203223e+00
2.255534e+00
2.306207e+00
2.355630e+00
2.404217e+00
2.452340e+00
2.500255e+00
2.548062e+00
2.595686e+00
2.642909e+00
2.689397e+00
2.734748e+00
2.778536e+00
2.820361e+00
2.859929e+00
2.897109e+00
2.931950e+00
2.964647e+00
2.995473e+00
3.024708e+00
3.052631e+00
3.079515e+00
3.105610e+00
3.131091e+00
3.156003e+00
3.180230e+00
3.203519e+00
3.225547e+00
3.245983e+00
3.264556e+00
3.281091e+00
3.295515e+00
3.307824e+00
3.318034e+00
3.326152e+00
3.332186e+00
3.336191e+00
3.338308e+00
3.338762e+00
3.337811e+00
3.335677e+00
3.332500e+00
3.328337e+00
3.323192e+00
3.317049e+00
3.309894e+00
3.301699e+00
3.292426e+00
3.282048e+00
3.270571e+00
3.258014e+00
3.244372e+00
3.229590e+00
3.213581e+00
3.196268e+00
3.177634e+00
3.157712e+00
3.136582e+00
3.114355e+00
3.091166e+00
3.067150e+00
3.042420e+00
3.017083e+00
2.991283e+00
2.965241e+00
2.939246e+00
2.913583e+00
2.888442e+00
2.863853e+00
2.839694e+00
2.815769e+00
2.791901e+00
2.768000e+00
2.744056e+00
2.720068e+00
2.695990e+00
2.671752e+00
2.647344e+00
2.622885e+00
2.598631e+00
2.574877e+00
2.551855e+00
2.529686e+00
2.508412e+00
2.488043e+00
2.468593e+00
2.450075e+00
2.432483e+00
2.415804e+00
2.400047e+00
2.385243e+00
2.371413e+00
2.358526e+00
2.346497e+00
2.335256e+00
2.324838e+00
2.315411e+00
2.307228e+00
2.300505e+00
2.295332e+00
2.291684e+00
2.289499e+00
2.288755e+00
2.289487e+00
2.291740e+00
2.295508e+00
2.300722e+00
2.307273e+00
2.315067e+00
2.324033e+00
2.334088e+00
2.345084e+00
2.356785e+00
2.368913e+00
2.381212e+00
2.393516e+00
2.405748e+00
2.417888e+00
2.429942e+00
2.441939e+00
2.453948e+00
2.466102e+00
2.478576e+00
2.491541e+00
2.505101e+00
2.519253e+00
2.533874e+00
2.548729e+00
2.563465e+00
2.577615e+00
2.590612e+00
2.601838e+00
2.610710e+00
2.616764e+00
2.619720e+00
2.619527e+00
2.616363e+00
2.610581e+00
2.602562e+00
2.592565e+00
2.580657e+00
2.566759e+00
2.550793e+00
2.532799e+00
2.512962e+00
2.491532e+00
2.468723e+00
2.444625e+00
2.419164e+00
2.392153e+00
2.363400e+00
2.332826e+00
2.300517e+00
2.266684e+00
2.231554e+00
2.195275e+00
2.157910e+00
2.119485e+00
2.080050e+00
2.039715e+00
1.998673e+00
1.957196e+00
1.915616e+00
1.874269e+00
1.833399e+00
1.793086e+00
1.753261e+00
1.713777e+00
1.674509e+00
1.635422e+00
1.596573e+00
1.558079e+00
1.520071e+00
1.482651e+00
1.445862e+00
1.409668e+00
1.373960e+00
1.338565e+00
1.303271e+00
1.267856e+00
1.232125e+00
1.195953e+00
1.159298e+00
1.122220e+00
1.084894e+00
1.047631e+00
1.010863e+00
9.750736e-01
9.406834e-01
9.079651e-01
8.770447e-01
8.479524e-01
8.206609e-01
7.951057e-01
7.712095e-01
7.489158e-01
7.282177e-01
7.091438e-01
6.916890e-01
6.757610e-01
6.612005e-01
6.478411e-01
6.355460e-01
6.242039e-01
6.136892e-01
6.038147e-01
5.943007e-01
5.847753e-01
5.748086e-01
5.639620e-01
5.518313e-01
5.380656e-01
5.223678e-01
5.045049e-01
4.843509e-01
4.619315e-01
4.374352e-01
4.111889e-01
3.836134e-01
3.551706e-01
3.263153e-01
2.974577e-01
2.689424e-01
2.410322e-01
2.138852e-01
1.875246e-01
1.618084e-01
1.364179e-01
1.108797e-01
8.461913e-02
5.703138e-02
2.754752e-02
-4.325003e-03
-3.899107e-02
-7.677259e-02
-1.178947e-01
-1.624365e-01
-2.102860e-01
-2.611448e-01
-3.145712e-01
-3.700317e-01
-4.269382e-01
-4.846644e-01
-5.425659e-01
-6.000147e-01
-6.564200e-01
-7.112133e-01
-7.638391e-01
-8.137939e-01
-8.606925e-01
-9.043188e-01
-9.446348e-01
-9.817472e-01
-1.015864e+00
-1.047264e+00
-1.076260e+00
-1.103127e+00
-1.128055e+00
-1.151141e+00
-1.172415e+00
-1.191856e+00
-1.209397e+00
-1.224926e+00
-1.238305e+00
-1.249390e+00
-1.258052e+00
-1.264176e+00
-1.267666e+00
-1.268475e+00
-1.266626e+00
-1.262172e+00
-1.255143e+00
-1.245523e+00
-1.233265e+00
-1.218358e+00
-1.200871e+00
-1.180961e+00
-1.158834e+00
-1.134731e+00
-1.108911e+00
-1.081659e+00
-1.053277e+00
-1.024071e+00
-9.943288e-01
-9.643021e-01
-9.342056e-01
-9.042183e-01
-8.744852e-01
-8.451111e-01
-8.161525e-01
-7.876185e-01
-7.594936e-01
-7.317854e-01
-7.045720e-01
-6.780215e-01
-6.523676e-01
-6.278456e-01
-6.046190e-01
-5.827308e-01
-5.620874e-01
-5.424719e-01
-5.235753e-01
-5.050374e-01
-4.864947e-01
-4.676307e-01
-4.482067e-01
-4.280561e-01
-4.070511e-01
-3.850656e-01
-3.619676e-01
-3.376606e-01
-3.121492e-01
-2.855870e-01
-2.582782e-01
-2.306237e-01
-2.030462e-01
-1.759365e-01
-1.496327e-01
-1.244271e-01
-1.005687e-01
-7.824151e-02
-5.754307e-02
-3.848857e-02
-2.103874e-02
-5.127943e-03
9.332401e-03
2.247874e-02
3.450236e-02
4.559968e-02
5.589628e-02
6.539460e-02
7.397029e-02
8.141627e-02
8.750173e-02
9.201880e-02
9.482378e-02
9.587876e-02
9.526605e-02
9.314917e-02
8.969999e-02
8.502892e-02
7.914898e-02
7.198445e-02
6.339816e-02
5.321250e-02
4.123258e-02
2.728373e-02
1.124987e-02
-6.905685e-03
-2.713706e-02
-4.932044e-02
-7.325571e-02
-9.866522e-02
-1.252102e-01
-1.525351e-01
-1.803086e-01
-2.082314e-01
-2.360268e-01
-2.634465e-01
-2.902960e-01
-3.164699e-01
-3.419691e-01
-3.668833e-01
-3.913577e-01
-4.155621e-01
-4.396472e-01
-4.636754e-01
-4.875714e-01
-5.111319e-01
-5.340868e-01
-5.561683e-01
-5.771457e-01
-5.968074e-01
-6.149434e-01
-6.313746e-01
-6.460071e-01
-6.588626e-01
-6.700746e-01
-6.798574e-01
-6.884790e-01
-6.962530e-01
-7.035277e-01
-7.106447e-01
-7.178774e-01
-7.253732e-01
-7.331352e-01
-7.410600e-01
-7.490092e-01
-7.568731e-01
-7.645896e-01
-7.721086e-01
-7.793470e-01
-7.861851e-01
-7.925071e-01
-7.982619e-01
-8.034992e-01
-8.083566e-01
-8.130238e-01
-8.177169e-01
-8.226576e-01
-8.280474e-01
-8.340394e-01
-8.407243e-01
-8.481359e-01
-8.562733e-01
-8.651184e-01
-8.746352e-01
-8.847658e-01
-8.954421e-01
-9.066091e-01
-9.182456e-01
-9.303675e-01
-9.430045e-01
-9.561613e-01
-9.697830e-01
-9.837468e-01
-9.978904e-01
-1.012054e+00
-1.026105e+00
-1.039947e+00
-1.053508e+00
-1.066733e+00
-1.079576e+00
-1.091996e+00
-1.103939e+00
-1.115325e+00
-1.126052e+00
-1.136002e+00
-1.145065e+00
-1.153130e+00
-1.160085e+00
-1.165800e+00
-1.170129e+00
-1.172929e+00
-1.174100e+00
