EVENT_NAME: L_AQUILA
EVENT_ID: IT-2009-0009
EVENT_DATE_YYYYMMDD: 20090406
EVENT_TIME_HHMMSS: 013240
EVENT_LATITUDE_DEGREE: 42.3420
EVENT_LONGITUDE_DEGREE: 13.3800
EVENT_DEPTH_KM: 8.3
HYPOCENTER_REFERENCE: INGV-CNT_Seismic_Bulletin
MAGNITUDE_W: 6.1
MAGNITUDE_W_REFERENCE: INGV-CNT_Seismic_Bulletin
MAGNITUDE_L: 
MAGNITUDE_L_REFERENCE: 
FOCAL_MECHANISM: Normal faulting
NETWORK: MN
STATION_CODE: AQU
STATION_NAME: 
STATION_LATITUDE_DEGREE: 42.353880
STATION_LONGITUDE_DEGREE: 13.401930
STATION_ELEVATION_M: 729
LOCATION: 
SENSOR_DEPTH_M: 15.0
VS30_M/S: 
SITE_CLASSIFICATION_EC8: B (inferred from geology)
MORPHOLOGIC_CLASSIFICATION: 
EPICENTRAL_DISTANCE_KM: 2.5
EARTHQUAKE_BACKAZIMUTH_DEGREE: 57.1
DATE_TIME_FIRST_SAMPLE_YYYYMMDD_HHMMSS: 20090406_013225.000
DATE_TIME_FIRST_SAMPLE_PRECISION: milliseconds
SAMPLING_INTERVAL_S: 0.005000
NDATA: 18000
DURATION_S: 90.000
STREAM: HLE
UNITS: cm/s
INSTRUMENT: sensor = Unknown [Unknown] | digitizer = Unknown [Unknown]
INSTRUMENT_ANALOG/DIGITAL: D
INSTRUMENTAL_FREQUENCY_HZ: 
INSTRUMENTAL_DAMPING: 
FULL_SCALE_G: 
N_BIT_DIGITAL_CONVERTER: 
PGV_CM/S: -20.948669
TIME_PGV_S: 18.840000
BASELINE_CORRECTION: BASELINE REMOVED
FILTER_TYPE: BUTTERWORTH
FILTER_ORDER: 2
LOW_CUT_FREQUENCY_HZ: 0.150
HIGH_CUT_FREQUENCY_HZ: 40.000
LATE/NORMAL_TRIGGERED: NT
DATABASE_VERSION: 0.5
HEADER_FORMAT: DYNA 1.2
DATA_TYPE: VELOCITY
PROCESSING: manual (Paolucci et al., 2011)
DATA_TIMESTAMP_YYYYMMDD_HHMMSS: 20211011_155541.601
DATA_LICENSE: CC-BY4_0 (http://creativecommons.org/licenses/by/4.0/)
DATA_CITATION: Luzi L, Pacor F, Puglia R (2019). Italian Accelerometric Archive v 3.0 - Istituto Nazionale di Geofisica e Vulcanologia, Dipartimento della Protezione Civile Nazionale. doi: 10.13127/itaca.3.1
DATA_CREATOR: ITACA working group
ORIGINAL_DATA_MEDIATOR_CITATION: data obtained within the DPC-INGV data exchange agreements
ORIGINAL_DATA_MEDIATOR: Archive of Italian Department of Civil Protection
ORIGINAL_DATA_CREATOR_CITATION:  http://www.fdsn.org/networks/detail/MN/
ORIGINAL_DATA_CREATOR: network: MN (Mediterranean Very Broadband Seismographic Network (MedNet)); owner: Istituto Nazionale di Geofisica e Vulcanologia (INGV)
USER1: 
USER2: 
USER3: 
USER4: 
USER5: 
[...]
-0.025147
-0.025173
-0.025196
-0.025218
-0.025240
-0.025261
-0.025281
-0.025301
-0.025323
-0.025346
-0.025370
-0.025392
-0.025412
-0.025430
-0.025450
-0.025474
-0.025500
-0.025523
-0.025540
-0.025553
-0.025566
-0.025584
-0.025605
-0.025625
-0.025642
-0.025657
-0.025671
-0.025684
-0.025697
-0.025711
-0.025725
-0.025739
-0.025753
-0.025767
-0.025779
-0.025788
-0.025796
-0.025801
-0.025809
-0.025821
-0.025836
-0.025848
-0.025854
-0.025855
-0.025857
-0.025864
-0.025874
-0.025883
-0.025886
-0.025888
-0.025890
-0.025893
-0.025896
-0.025898
-0.025899
-0.025899
-0.025896
-0.025890
-0.025883
-0.025881
-0.025883
-0.025885
-0.025881
-0.025873
-0.025864
-0.025859
-0.025857
-0.025854
-0.025846
-0.025835
-0.025824
-0.025813
-0.025802
-0.025790
-0.025777
-0.025766
-0.025754
-0.025738
-0.025720
-0.025702
-0.025685
-0.025669
-0.025650
-0.025631
-0.025612
-0.025594
-0.025576
-0.025556
-0.025534
-0.025510
-0.025486
-0.025462
-0.025439
-0.025415
-0.025389
-0.025360
-0.025331
-0.025305
-0.025283
-0.025261
-0.025234
-0.025203
-0.025169
-0.025136
-0.025104
-0.025069
-0.025030
-0.024991
-0.024955
-0.024920
-0.024885
-0.024851
-0.024815
-0.024778
-0.024736
-0.024691
-0.024644
-0.024598
-0.024551
-0.024502
-0.024451
-0.024399
-0.024348
-0.024296
-0.024243
-0.024192
-0.024143
-0.024092
-0.024038
-0.023981
-0.023927
-0.023877
-0.023828
-0.023773
-0.023709
-0.023645
-0.023584
-0.023525
-0.023464
-0.023400
-0.023335
-0.023270
-0.023204
-0.023134
-0.023063
-0.022995
-0.022931
-0.022865
-0.022792
-0.022712
-0.022632
-0.022557
-0.022485
-0.022407
-0.022322
-0.022238
-0.022158
-0.022079
-0.021997
-0.021908
-0.021816
-0.021728
-0.021642
-0.021553
-0.021459
-0.021364
-0.021272
-0.021181
-0.021088
-0.020994
-0.020900
-0.020804
-0.020707
-0.020606
-0.020504
-0.020404
-0.020306
-0.020203
-0.020093
-0.019979
-0.019866
-0.019756
-0.019648
-0.019539
-0.019426
-0.019312
-0.019196
-0.019078
-0.018958
-0.018836
-0.018714
-0.018591
-0.018466
-0.018341
-0.018216
-0.018093
-0.017969
-0.017840
-0.017706
-0.017570
-0.017436
-0.017307
-0.017178
-0.017046
-0.016908
-0.016768
-0.016627
-0.016485
-0.016342
-0.016197
-0.016051
-0.015904
-0.015756
-0.015608
-0.015459
-0.015310
-0.015159
-0.015004
-0.014845
-0.014686
-0.014528
-0.014368
-0.014206
-0.014041
-0.013876
-0.013711
-0.013548
-0.013383
-0.013215
-0.013042
-0.012865
-0.012687
-0.012509
-0.012333
-0.012157
-0.011978
-0.011797
-0.011612
-0.011424
-0.011236
-0.011047
-0.010858
-0.010668
-0.010475
-0.010280
-0.010085
-0.009890
-0.009693
-0.009491
-0.009287
-0.009082
-0.008879
-0.008677
-0.008471
-0.008261
-0.008048
-0.007833
-0.007618
-0.007404
-0.007190
-0.006976
-0.006757
-0.006535
-0.006309
-0.006082
-0.005855
-0.005624
-0.005389
-0.005153
-0.004919
-0.004688
-0.004456
-0.004220
-0.003980
-0.003737
-0.003494
-0.003249
-0.003000
-0.002748
-0.002496
-0.002243
-0.001987
-0.001728
-0.001468
-0.001209
-0.000951
-0.000691
-0.000425
-0.000154
0.000116
0.000382
0.000648
0.000918
0.001193
0.001471
0.001750
0.002030
0.002313
0.002600
0.002889
0.003180
0.003473
0.003767
0.004061
0.004355
0.004650
0.004949
0.005253
0.005561
0.005869
0.006174
0.006480
0.006790
0.007103
0.007417
0.007731
0.008047
0.008369
0.008696
0.009026
0.009355
0.009683
0.010011
0.010341
0.010675
0.011012
0.011355
0.011701
0.012049
0.012396
0.012743
0.013090
0.013440
0.013793
0.014148
0.014502
0.014857
0.015215
0.015578
0.015945
0.016312
0.016679
0.017049
0.017426
0.017808
0.018191
0.018573
0.018957
0.019342
0.019728
0.020114
0.020501
0.020892
0.021289
0.021691
0.022095
0.022498
0.022899
0.023301
0.023707
0.024119
0.024535
0.024951
0.025367
0.025784
0.026207
0.026636
0.027066
0.027496
0.027926
0.028360
0.028799
0.029239
0.029679
0.030119
0.030564
0.031013
0.031464
0.031915
0.032367
0.032821
0.033278
0.033739
0.034202
0.034668
0.035138
0.035610
0.036083
0.036556
0.037031
0.037509
0.037989
0.038472
0.038958
0.039449
0.039943
0.040439
0.040934
0.041430
0.041932
0.042440
0.042952
0.043465
0.043979
0.044492
0.045008
0.045527
0.046048
0.046571
0.047097
0.047625
0.048154
0.048685
0.049222
0.049764
0.050308
0.050850
0.051393
0.051940
0.052495
0.053057
0.053620
0.054179
0.054737
0.055296
0.055859
0.056425
0.056991
0.057559
0.058132
0.058710
0.059294
0.059880
0.060466
0.061054
0.061645
0.062239
0.062834
0.063432
0.064031
0.064635
0.065243
0.065855
0.066471
0.067088
0.067706
0.068327
0.068949
0.069574
0.070203
0.070834
0.071469
0.072106
0.072745
0.073385
0.074027
0.074671
0.075321
0.075975
0.076633
0.077292
0.077950
0.078608
0.079269
0.079934
0.080604
0.081279
0.081956
0.082635
0.083317
0.084002
0.084693
0.085388
0.086084
0.086780
0.087477
0.088176
0.088877
0.089582
0.090291
0.091003
0.091718
0.092434
0.093151
0.093872
0.094599
0.095332
0.096066
0.096801
0.097535
0.098269
0.099003
0.099741
0.100485
0.101235
0.101991
0.102749
0.103505
0.104262
0.105024
0.105791
0.106561
0.107331
0.108102
0.108877
0.109655
0.110436
0.111216
0.111997
0.112782
0.113572
0.114368
0.115168
0.115971
0.116776
0.117582
0.118391
0.119205
0.120022
0.120841
0.121660
0.122481
0.123305
0.124133
0.124967
0.125804
0.126644
0.127485
0.128326
0.129168
0.130012
0.130861
0.131712
0.132567
0.133423
0.134282
0.135146
0.136014
0.136886
0.137760
0.138633
0.139506
0.140382
0.141264
0.142154
0.143049
0.143946
0.144842
0.145737
0.146634
0.147536
0.148443
0.149354
0.150268
0.151183
0.152102
0.153023
0.153947
0.154873
0.155803
0.156738
0.157677
0.158616
0.159552
0.160486
0.161423
0.162367
0.163320
0.164275
0.165229
0.166183
0.167142
0.168107
0.169075
0.170042
0.171007
0.171976
0.172951
0.173931
0.174910
0.175890
0.176874
0.177864
0.178859
0.179855
0.180852
0.181851
0.182853
0.183857
0.184864
0.185875
0.186887
0.187901
0.188916
0.189934
0.190958
0.191986
0.193016
0.194046
0.195078
0.196113
0.197152
0.198192
0.199234
0.200278
0.201325
0.202375
0.203429
0.204487
0.205548
0.206611
0.207675
0.208739
0.209806
0.210877
0.211950
0.213026
0.214105
0.215189
0.216275
0.217361
0.218448
0.219536
0.220629
0.221725
0.222822
0.223919
0.225016
0.226116
0.227220
0.228327
0.229438
0.230552
0.231670
0.232791
0.233912
0.235034
0.236157
0.237282
0.238408
0.239535
0.240663
0.241796
0.242934
0.244076
0.245222
0.246368
0.247512
0.248656
0.249802
0.250951
0.252105
0.253262
0.254420
0.255580
0.256742
0.257906
0.259071
0.260237
0.261406
0.262579
0.263754
0.264931
0.266109
0.267290
0.268477
0.269667
0.270857
0.272045
0.273230
0.274415
0.275605
0.276800
0.277999
0.279203
0.280408
0.281613
0.282816
0.284018
0.285223
0.286431
0.287641
0.288853
0.290067
0.291285
0.292507
0.293728
0.294948
0.296169
0.297391
0.298617
0.299844
0.301071
0.302298
0.303526
0.304759
0.305996
0.307236
0.308476
0.309713
0.310947
0.312183
0.313425
0.314671
0.315917
0.317160
0.318403
0.319650
0.320905
0.322161
0.323416
0.324668
0.325921
0.327178
0.328437
0.329693
0.330945
0.332198
0.333457
0.334720
0.335984
0.337246
0.338507
0.339771
0.341037
0.342303
0.343568
0.344835
0.346107
0.347379
0.348649
0.349916
0.351183
0.352452
0.353725
0.354997
0.356271
0.357548
0.358828
0.360105
0.361378
0.362652
0.363930
0.365211
0.366491
0.367768
0.369042
0.370318
0.371598
0.372877
0.374154
0.375430
0.376708
0.377987
0.379267
0.380548
0.381829
0.383111
0.384393
0.385671
0.386947
0.388223
0.389499
0.390776
0.392053
0.393331
0.394609
0.395888
0.397166
0.398443
0.399719
0.400995
0.402272
0.403548
0.404822
0.406095
0.407370
0.408646
0.409923
0.411197
0.412468
0.413735
0.415000
0.416266
0.417534
0.418805
0.420075
0.421339
0.422597
0.423851
0.425108
0.426371
0.427639
0.428904
0.430163
0.431416
0.432668
0.433922
0.435177
0.436429
0.437676
0.438919
0.440165
0.441415
0.442666
0.443912
0.445148
0.446379
0.447609
0.448841
0.450074
0.451307
0.452537
0.453766
0.454994
0.456220
0.457443
0.458663
0.459881
0.461094
0.462305
0.463515
0.464728
0.465938
0.467132
0.468295
0.469425
0.470540
0.471692
0.472966
0.474453
0.476174
0.477973
0.479511
0.480408
0.480529
0.480252
0.480324
0.481298
0.483025
0.484559
0.484817
0.483615
0.481825
0.480527
0.480135
0.480165
0.480021
0.480128
0.481650
0.484972
0.489080
0.492415
0.494151
0.494962
0.496334
0.498939
0.502062
0.504381
0.504868
0.503328
0.500629
0.498431
0.498025
0.498974
0.499603
0.499121
0.498652
0.500246
0.504785
0.510482
0.514496
0.516283
0.517437
0.518203
0.516390
0.509944
0.499708
0.489995
0.485566
0.487129
0.491136
0.493760
0.493225
0.489106
0.481374
0.470616
0.459195
0.451935
0.453930
0.466486
0.486010
0.506553
0.522810
0.531708
0.531867
0.522158
0.502396
0.475845
0.449631
0.432047
0.428707
0.439804
0.461349
0.489164
0.520103
0.549849
0.571515
0.577423
0.564219
0.537770
0.510147
0.490258
0.479564
0.475446
0.476206
0.483016
0.495618
0.506288
0.504076
0.487107
0.465731
0.453364
0.456137
0.468409
0.478330
0.479158
0.473161
0.466448
0.463286
0.463630
0.464117
0.461650
0.457320
0.457601
0.468361
0.485705
0.497321
0.494039
0.476911
0.454941
0.437897
0.430037
0.431938
0.446529
0.475853
0.511499
0.537835
0.547065
0.543984
0.536522
0.526758
0.510061
0.482932
0.452554
0.433373
0.432722
0.444307
0.453856
0.448167
0.422788
0.385707
0.355634
0.352974
0.386509
0.446379
0.506170
0.531767
0.495548
0.392635
0.252016
0.126685
0.063794
0.076844
0.135271
0.185303
0.191019
0.154734
0.106483
0.078362
0.079135
0.089866
0.081789
0.039881
-0.020788
-0.061590
-0.046703
0.033274
0.151032
0.251382
0.277575
0.203097
0.054074
-0.103813
-0.209981
-0.245036
-0.235268
-0.215619
-0.179244
-0.085533
0.077598
0.260033
0.372230
0.341051
0.163061
-0.099216
-0.370186
-0.596939
-0.752779
-0.835208
-0.866797
-0.886577
-0.929320
-1.007363
-1.107426
-1.212530
-1.333518
-1.504982
-1.746318
-2.036743
-2.323918
-2.558782
-2.732510
-2.871772
-3.000119
-3.122395
-3.239088
-3.351576
-3.449426
-3.505069
-3.490248
-3.410247
-3.327037
-3.317544
-3.393975
-3.499533
-3.582681
-3.641650
-3.704533
-3.782013
-3.834551
-3.801443
-3.668100
-3.478254
-3.286157
-3.127414
-3.028184
-3.015548
-3.110135
-3.305252
-3.551071
-3.776084
-3.937040
-4.043211
-4.139341
-4.266793
-4.426475
-4.578252
-4.674429
-4.689803
-4.632474
-4.533974
-4.426773
-4.328234
-4.238157
-4.150281
-4.070672
-4.024810
-4.047941
-4.163923
-4.362787
-4.596497
-4.793461
-4.877753
-4.791853
-4.527956
-4.154139
-3.793844
-3.559321
-3.492124
-3.547012
-3.645829
-3.764608
-3.943946
-4.216882
-4.551406
-4.849928
-5.002522
-4.960301
-4.759001
-4.485687
-4.234934
-4.077142
-4.046833
-4.145719
-4.347758
-4.603436
-4.848872
-5.025236
-5.107276
-5.120942
-5.111123
-5.082012
-4.999575
-4.855970
-4.702329
-4.618909
-4.653660
-4.772370
-4.882155
-4.911922
-4.854455
-4.748450
-4.643064
-4.571003
-4.544618
-4.570498
-4.661690
-4.833777
-5.078015
-5.335524
-5.528815
-5.633398
-5.693014
-5.766130
-5.875673
-5.997165
-6.088255
-6.131751
-6.135518
-6.098704
-6.013075
-5.898605
-5.803919
-5.766000
-5.789243
-5.856989
-5.942869
-6.011315
-6.020658
-5.935528
-5.742580
-5.457114
-5.104032
-4.689605
-4.214691
-3.720811
-3.296709
-3.030959
-2.956073
-3.017787
-3.100855
-3.098822
-2.966473
-2.728197
-2.440368
-2.136803
-1.822812
-1.515453
-1.261244
-1.109316
-1.066371
-1.071306
-1.039928
-0.950057
-0.851728
-0.795024
-0.775860
-0.740318
-0.632385
-0.443534
-0.196663
0.115644
0.533669
1.066990
1.659175
2.218507
2.693125
3.137107
3.673695
4.375440
5.200812
6.026593
6.726409
7.244672
7.603428
7.851024
8.025258
8.151602
8.254807
8.367829
8.527355
8.757942
9.058222
9.399521
9.746769
10.090572
10.453821
10.868101
11.345988
11.864751
12.371403
12.802821
13.101410
13.226237
13.172476
12.990355
12.769275
12.590688
12.496635
12.489667
12.552348
12.668502
12.822174
12.983934
13.123427
13.242510
13.376616
13.558108
13.785858
14.025431
14.244362
14.453678
14.691692
14.963120
15.224729
15.430268
15.568982
15.666290
15.748504
15.801759
15.783876
15.678128
15.509672
15.313777
15.108991
14.892078
14.640319
14.319588
13.911226
13.447465
13.010246
12.683673
12.492997
12.371082
12.208215
11.951971
11.627901
11.272370
10.885217
10.438294
9.908986
9.306249
8.657680
7.973937
7.249581
6.498023
5.758858
5.069221
4.443714
3.876511
3.349298
2.836507
2.307743
1.727744
1.054621
0.244518
-0.719198
-1.778168
-2.776376
-3.492800
-3.745603
-3.517053
-2.960105
-2.281040
-1.629193
-1.059920
-0.587298
-0.271998
-0.215097
-0.461811
-0.950092
-1.547841
-2.137172
-2.692171
-3.274074
-3.953043
-4.746674
-5.606110
-6.437859
-7.145376
-7.667918
-8.003125
-8.197189
-8.311937
-8.405725
-8.533175
-8.740762
-9.050465
-9.444071
-9.865902
-10.264344
-10.648533
-11.085649
-11.639112
-12.324769
-13.112651
-13.958666
-14.840843
-15.761691
-16.718176
-17.677860
-18.578075
-19.349047
-19.948622
-20.378290
-20.671349
-20.861406
-20.948669
-20.897408
-20.664661
-20.229050
-19.607489
-18.858829
-18.074430
-17.353516
-16.768356
-16.339687
-16.033627
-15.786314
-15.544113
-15.282627
-14.996448
-14.676798
-14.293327
-13.800661
-13.166413
-12.393057
-11.520994
-10.609402
-9.703536
-8.813200
-7.911769
-6.955759
-5.916391
-4.800787
-3.654069
-2.541968
-1.523347
-0.635328
0.105431
0.697128
1.148378
1.475747
1.702432
1.857078
1.971824
2.077952
2.199681
2.350351
2.534783
2.759636
3.042533
3.398839
3.813882
4.240185
4.624320
4.932282
5.157142
5.305355
5.375315
5.358566
5.259582
5.097936
4.890485
4.644052
4.363973
4.058242
3.730908
3.373949
2.965218
2.477653
1.893615
1.207180
0.416302
-0.475455
-1.447244
-2.458695
-3.460522
-4.405509
-5.255369
-5.985699
-6.588960
-7.071455
-7.444785
-7.718752
-7.899315
-7.992656
-8.011420
-7.973940
-7.897902
-7.800033
-7.702633
-7.636233
-7.634172
-7.721050
-7.899680
-8.146506
-8.418973
-8.672756
-8.880866
-9.037475
-9.146675
-9.213345
-9.242965
-9.247304
-9.247269
-9.259051
-9.270583
-9.238638
-9.110739
-8.850079
-8.450824
-7.935474
-7.337294
-6.681365
-5.970791
-5.184488
-4.289654
-3.267824
-2.141288
-0.968889
0.185967
1.276588
2.270169
3.130494
3.803477
4.232886
4.400353
4.348006
4.169343
3.975866
3.853934
3.840223
3.925311
4.081262
4.296907
4.585768
4.965694
5.441092
6.000421
6.626523
7.309868
8.047988
8.834420
9.657521
10.507693
11.371370
12.214308
12.983509
13.631413
14.137405
14.512084
14.778927
14.947759
15.015767
14.993783
14.917155
14.829267
14.754329
14.678200
14.561852
14.380754
14.149971
13.920926
13.756467
13.698721
13.755741
13.908516
14.120360
14.343082
14.524068
14.614900
14.575860
14.374763
13.984075
13.380892
12.555665
11.526123
10.341399
9.072674
7.796335
6.575320
5.447659
4.426374
3.511800
2.708643
2.028293
1.476213
1.042982
0.705578
0.434340
0.198234
-0.040480
-0.335038
-0.743235
-1.299266
-1.998851
-2.806225
-3.671497
-4.547835
-5.397238
-6.187926
-6.897223
-7.518374
-8.054981
-8.503631
-8.844881
-9.049384
-9.093109
-8.972512
-8.704915
-8.314429
-7.818359
-7.221455
-6.522449
-5.732634
-4.898473
-4.114369
-3.498736
-3.137460
-3.038069
-3.121597
-3.270977
-3.411817
-3.546711
-3.724132
-3.977628
-4.274821
-4.530826
-4.674100
-4.685728
-4.588805
-4.412942
-4.162734
-3.825846
-3.409620
-2.951419
-2.496795
-2.084534
-1.749408
-1.524767
-1.434398
-1.474291
-1.597438
-1.728124
-1.799122
-1.770965
-1.626577
-1.364630
-0.998543
-0.551792
-0.046724
0.505310
1.106158
1.760899
2.463000
3.194712
3.941039
4.694185
5.444305
6.171204
6.844267
7.431367
7.912478
8.288146
8.580520
8.829399
9.084364
9.393276
9.789049
10.281342
10.856419
11.486914
12.149249
12.838666
13.573100
14.374892
15.236915
16.103334
16.877752
17.458216
17.783525
17.852919
17.712013
17.424549
17.046305
16.619783
16.185589
15.785725
15.452950
15.198072
15.005194
14.843947
14.692239
14.545746
14.409401
14.283330
14.152373
13.988480
13.765371
13.474924
13.136850
12.791143
12.476489
12.213271
11.999052
11.816768
11.648279
11.477492
11.284024
11.043553
10.737541
10.361664
9.928354
9.463872
9.001127
8.569948
8.186893
7.849986
7.540802
7.233895
6.909059
6.555812
6.170314
5.753982
5.313873
4.856807
4.379282
3.867669
3.310991
2.714520
2.104758
1.516897
0.972103
0.469951
-0.001049
-0.452427
-0.891587
-1.323093
-1.751210
-2.177676
-2.595658
-2.988131
-3.334341
-3.623574
-3.870527
-4.117508
-4.418811
-4.812563
-5.292262
-5.804161
-6.273859
-6.642940
-6.899661
-7.081560
-7.248807
-7.448131
-7.685361
-7.931011
-8.153043
-8.339532
-8.499214
-8.648159
-8.794454
-8.936835
-9.073415
-9.199980
-9.298825
-9.340498
-9.300902
-9.174954
-8.979598
-8.748655
-8.523461
-8.344194
-8.242570
-8.235049
-8.317929
-8.468857
-8.654463
-8.839102
-8.994161
-9.109157
-9.199666
-9.298987
-9.436998
-9.627831
-9.870218
-10.149600
-10.439739
-10.710801
-10.944412
-11.144752
-11.336040
-11.538788
-11.740052
-11.899622
-11.988821
-12.011411
-11.991881
-11.949957
-11.880736
-11.762606
-11.584977
-11.358282
-11.099929
-10.818081
-10.503688
-10.132841
-9.678030
-9.124176
-8.482866
-7.790791
-7.091830
-6.417117
-5.773567
-5.151199
-4.542992
-3.953459
-3.392179
-2.866099
-2.376794
-1.922334
-1.501435
-1.116561
-0.775699
-0.493402
-0.289265
-0.179968
-0.169012
-0.247505
-0.404966
-0.633759
-0.922383
-1.245543
-1.561205
-1.827346
-2.029029
-2.181409
-2.305086
-2.402368
-2.451638
-2.429147
-2.344666
-2.250378
-2.215506
-2.290401
-2.480081
-2.750358
-3.061080
-3.391536
-3.744016
-4.127506
-4.535897
-4.948913
-5.352472
-5.745054
-6.123631
-6.469939
-6.750274
-6.934244
-7.019798
-7.032416
-7.000540
-6.942412
-6.871464
-6.800979
-6.739061
-6.677359
-6.583785
-6.416335
-6.152405
-5.803223
-5.406512
-5.010486
-4.656728
-4.366476
-4.132201
-3.919291
-3.680245
-3.379219
-3.016956
-2.632479
-2.280517
-2.006628
-1.832553
-1.759342
-1.781482
-1.891138
-2.070057
-2.283762
-2.485015
-2.626883
-2.680148
-2.642468
-2.536208
-2.398736
-2.268989
-2.176735
-2.137959
-2.159134
-2.246926
-2.411441
-2.659754
-2.984270
-3.352470
-3.709346
-3.992630
-4.150127
-4.153289
-4.002474
-3.724199
-3.363231
-2.969526
-2.580739
-2.207696
-1.840590
-1.473478
-1.120509
-0.810997
-0.562905
-0.352999
-0.125602
0.161924
0.505556
0.855076
1.150077
1.370448
1.550709
1.750087
2.009385
2.319383
2.628641
2.884365
3.065455
3.191054
3.304113
3.441832
3.618978
3.827587
4.040692
4.217947
4.320344
4.331359
4.266793
4.167604
4.080731
4.035931
4.033695
4.047594
4.037311
