EVENT_NAME: L_AQUILA
EVENT_ID: IT-2009-0009
EVENT_DATE_YYYYMMDD: 20090406
EVENT_TIME_HHMMSS: 013240
EVENT_LATITUDE_DEGREE: 42.3420
EVENT_LONGITUDE_DEGREE: 13.3800
EVENT_DEPTH_KM: 8.3
HYPOCENTER_REFERENCE: INGV-CNT_Seismic_Bulletin
MAGNITUDE_W: 6.1
MAGNITUDE_W_REFERENCE: INGV-CNT_Seismic_Bulletin
MAGNITUDE_L: 
MAGNITUDE_L_REFERENCE: 
FOCAL_MECHANISM: Normal faulting
NETWORK: MN
STATION_CODE: AQU
STATION_NAME: 
STATION_LATITUDE_DEGREE: 42.353880
STATION_LONGITUDE_DEGREE: 13.401930
STATION_ELEVATION_M: 729
LOCATION: 
SENSOR_DEPTH_M: 15.0
VS30_M/S: 
SITE_CLASSIFICATION_EC8: B (inferred from geology)
MORPHOLOGIC_CLASSIFICATION: 
EPICENTRAL_DISTANCE_KM: 2.5
EARTHQUAKE_BACKAZIMUTH_DEGREE: 57.1
DATE_TIME_FIRST_SAMPLE_YYYYMMDD_HHMMSS: 20090406_013225.000
DATE_TIME_FIRST_SAMPLE_PRECISION: milliseconds
SAMPLING_INTERVAL_S: 0.005000
NDATA: 18000
DURATION_S: 90.000
STREAM: HLZ
UNITS: cm/s
INSTRUMENT: sensor = Unknown [Unknown] | digitizer = Unknown [Unknown]
INSTRUMENT_ANALOG/DIGITAL: D
INSTRUMENTAL_FREQUENCY_HZ: 
INSTRUMENTAL_DAMPING: 
FULL_SCALE_G: 
N_BIT_DIGITAL_CONVERTER: 
PGV_CM/S: -21.241829
TIME_PGV_S: 17.845000
BASELINE_CORRECTION: BASELINE REMOVED
FILTER_TYPE: BUTTERWORTH
FILTER_ORDER: 2
LOW_CUT_FREQUENCY_HZ: 0.150
HIGH_CUT_FREQUENCY_HZ: 40.000
LATE/NORMAL_TRIGGERED: NT
DATABASE_VERSION: 0.5
HEADER_FORMAT: DYNA 1.2
DATA_TYPE: VELOCITY
PROCESSING: manual (Paolucci et al., 2011)
DATA_TIMESTAMP_YYYYMMDD_HHMMSS: 20211011_155542.650
DATA_LICENSE: CC-BY4_0 (http://creativecommons.org/licenses/by/4.0/)
DATA_CITATION: Luzi L, Pacor F, Puglia R (2019). Italian Accelerometric Archive v 3.0 - Istituto Nazionale di Geofisica e Vulcanologia, Dipartimento della Protezione Civile Nazionale. doi: 10.13127/itaca.3.1
DATA_CREATOR: ITACA working group
ORIGINAL_DATA_MEDIATOR_CITATION: data obtained within the DPC-INGV data exchange agreements
ORIGINAL_DATA_MEDIATOR: Archive of Italian Department of Civil Protection
ORIGINAL_DATA_CREATOR_CITATION:  http://www.fdsn.org/networks/detail/MN/
ORIGINAL_DATA_CREATOR: network: MN (Mediterranean Very Broadband Seismographic Network (MedNet)); owner: Istituto Nazionale di Geofisica e Vulcanologia (INGV)
USER1: 
USER2: 
USER3: 
USER4: 
USER5: 
[...]
-0.102254
-0.102672
-0.103090
-0.103508
-0.103927
-0.104349
-0.104774
-0.105197
-0.105617
-0.106039
-0.106465
-0.106893
-0.107320
-0.107742
-0.108163
-0.108587
-0.109016
-0.109446
-0.109876
-0.110305
-0.110734
-0.111162
-0.111589
-0.112016
-0.112445
-0.112877
-0.113312
-0.113744
-0.114174
-0.114604
-0.115037
-0.115473
-0.115910
-0.116345
-0.116779
-0.117211
-0.117642
-0.118074
-0.118508
-0.118946
-0.119385
-0.119818
-0.120246
-0.120677
-0.121116
-0.121559
-0.121999
-0.122432
-0.122862
-0.123297
-0.123739
-0.124180
-0.124615
-0.125047
-0.125482
-0.125923
-0.126365
-0.126804
-0.127237
-0.127669
-0.128104
-0.128542
-0.128981
-0.129419
-0.129857
-0.130294
-0.130732
-0.131171
-0.131608
-0.132042
-0.132476
-0.132911
-0.133348
-0.133785
-0.134220
-0.134652
-0.135084
-0.135518
-0.135955
-0.136392
-0.136828
-0.137263
-0.137698
-0.138135
-0.138571
-0.139005
-0.139437
-0.139869
-0.140302
-0.140736
-0.141169
-0.141602
-0.142034
-0.142464
-0.142894
-0.143324
-0.143755
-0.144188
-0.144620
-0.145049
-0.145477
-0.145903
-0.146332
-0.146761
-0.147191
-0.147619
-0.148047
-0.148473
-0.148901
-0.149329
-0.149757
-0.150182
-0.150604
-0.151024
-0.151445
-0.151866
-0.152287
-0.152709
-0.153129
-0.153548
-0.153967
-0.154386
-0.154805
-0.155224
-0.155642
-0.156056
-0.156467
-0.156879
-0.157291
-0.157705
-0.158119
-0.158533
-0.158946
-0.159360
-0.159773
-0.160184
-0.160593
-0.161002
-0.161411
-0.161820
-0.162228
-0.162634
-0.163037
-0.163436
-0.163834
-0.164233
-0.164634
-0.165034
-0.165432
-0.165829
-0.166227
-0.166624
-0.167018
-0.167408
-0.167796
-0.168183
-0.168571
-0.168959
-0.169344
-0.169728
-0.170109
-0.170487
-0.170864
-0.171242
-0.171621
-0.171998
-0.172369
-0.172737
-0.173105
-0.173476
-0.173849
-0.174219
-0.174585
-0.174950
-0.175314
-0.175673
-0.176027
-0.176380
-0.176736
-0.177094
-0.177450
-0.177801
-0.178146
-0.178492
-0.178840
-0.179186
-0.179529
-0.179869
-0.180208
-0.180548
-0.180889
-0.181228
-0.181563
-0.181894
-0.182222
-0.182550
-0.182878
-0.183204
-0.183524
-0.183841
-0.184157
-0.184475
-0.184796
-0.185113
-0.185423
-0.185726
-0.186025
-0.186324
-0.186626
-0.186929
-0.187231
-0.187530
-0.187826
-0.188118
-0.188407
-0.188692
-0.188974
-0.189254
-0.189533
-0.189812
-0.190090
-0.190364
-0.190633
-0.190900
-0.191163
-0.191427
-0.191689
-0.191948
-0.192204
-0.192453
-0.192699
-0.192943
-0.193186
-0.193429
-0.193670
-0.193908
-0.194140
-0.194367
-0.194590
-0.194813
-0.195037
-0.195260
-0.195477
-0.195687
-0.195892
-0.196096
-0.196301
-0.196505
-0.196706
-0.196901
-0.197092
-0.197281
-0.197466
-0.197646
-0.197824
-0.198000
-0.198174
-0.198344
-0.198507
-0.198665
-0.198822
-0.198978
-0.199133
-0.199282
-0.199427
-0.199569
-0.199708
-0.199842
-0.199969
-0.200090
-0.200209
-0.200329
-0.200450
-0.200568
-0.200679
-0.200782
-0.200881
-0.200978
-0.201076
-0.201170
-0.201258
-0.201338
-0.201413
-0.201487
-0.201559
-0.201628
-0.201689
-0.201745
-0.201796
-0.201844
-0.201889
-0.201932
-0.201971
-0.202005
-0.202034
-0.202059
-0.202078
-0.202092
-0.202098
-0.202099
-0.202096
-0.202091
-0.202084
-0.202071
-0.202055
-0.202037
-0.202014
-0.201984
-0.201946
-0.201905
-0.201864
-0.201821
-0.201772
-0.201712
-0.201643
-0.201573
-0.201504
-0.201430
-0.201349
-0.201261
-0.201168
-0.201068
-0.200962
-0.200849
-0.200732
-0.200615
-0.200496
-0.200372
-0.200237
-0.200091
-0.199939
-0.199785
-0.199629
-0.199465
-0.199292
-0.199114
-0.198932
-0.198749
-0.198558
-0.198357
-0.198148
-0.197936
-0.197722
-0.197503
-0.197275
-0.197039
-0.196798
-0.196553
-0.196304
-0.196050
-0.195792
-0.195527
-0.195253
-0.194969
-0.194677
-0.194381
-0.194082
-0.193776
-0.193460
-0.193134
-0.192802
-0.192466
-0.192128
-0.191783
-0.191429
-0.191066
-0.190697
-0.190322
-0.189941
-0.189553
-0.189158
-0.188757
-0.188350
-0.187934
-0.187510
-0.187080
-0.186647
-0.186207
-0.185760
-0.185304
-0.184842
-0.184374
-0.183899
-0.183412
-0.182915
-0.182412
-0.181906
-0.181393
-0.180872
-0.180342
-0.179804
-0.179260
-0.178708
-0.178146
-0.177574
-0.176995
-0.176410
-0.175820
-0.175223
-0.174616
-0.173998
-0.173373
-0.172741
-0.172103
-0.171456
-0.170800
-0.170136
-0.169465
-0.168788
-0.168100
-0.167401
-0.166694
-0.165978
-0.165255
-0.164523
-0.163781
-0.163030
-0.162270
-0.161502
-0.160726
-0.159942
-0.159152
-0.158353
-0.157544
-0.156724
-0.155896
-0.155060
-0.154214
-0.153358
-0.152491
-0.151616
-0.150734
-0.149843
-0.148941
-0.148027
-0.147104
-0.146175
-0.145236
-0.144286
-0.143326
-0.142358
-0.141382
-0.140394
-0.139394
-0.138385
-0.137367
-0.136342
-0.135304
-0.134254
-0.133197
-0.132133
-0.131057
-0.129968
-0.128867
-0.127757
-0.126642
-0.125518
-0.124382
-0.123231
-0.122072
-0.120904
-0.119724
-0.118530
-0.117325
-0.116113
-0.114893
-0.113661
-0.112416
-0.111159
-0.109894
-0.108621
-0.107335
-0.106034
-0.104721
-0.103400
-0.102069
-0.100726
-0.099370
-0.098002
-0.096625
-0.095238
-0.093839
-0.092426
-0.091003
-0.089571
-0.088129
-0.086673
-0.085203
-0.083720
-0.082226
-0.080723
-0.079208
-0.077680
-0.076140
-0.074589
-0.073026
-0.071449
-0.069860
-0.068257
-0.066643
-0.065016
-0.063376
-0.061726
-0.060065
-0.058391
-0.056703
-0.055000
-0.053286
-0.051562
-0.049827
-0.048078
-0.046315
-0.044538
-0.042749
-0.040948
-0.039135
-0.037308
-0.035467
-0.033613
-0.031744
-0.029864
-0.027971
-0.026065
-0.024141
-0.022201
-0.020249
-0.018288
-0.016317
-0.014333
-0.012331
-0.010314
-0.008285
-0.006245
-0.004188
-0.002113
-0.000024
0.002075
0.004183
0.006304
0.008443
0.010599
0.012769
0.014950
0.017144
0.019353
0.021580
0.023823
0.026081
0.028351
0.030634
0.032933
0.035247
0.037577
0.039921
0.042279
0.044651
0.047038
0.049440
0.051857
0.054286
0.056729
0.059185
0.061659
0.064152
0.066663
0.069189
0.071728
0.074279
0.076845
0.079429
0.082031
0.084649
0.087280
0.089925
0.092586
0.095266
0.097963
0.100673
0.103397
0.106137
0.108896
0.111673
0.114466
0.117274
0.120097
0.122934
0.125787
0.128656
0.131543
0.134449
0.137371
0.140306
0.143256
0.146225
0.149213
0.152218
0.155236
0.158268
0.161317
0.164385
0.167472
0.170574
0.173691
0.176826
0.179981
0.183154
0.186342
0.189543
0.192761
0.195997
0.199255
0.202531
0.205822
0.209127
0.212449
0.215791
0.219154
0.222535
0.225932
0.229343
0.232770
0.236217
0.239686
0.243175
0.246681
0.250201
0.253737
0.257293
0.260869
0.264465
0.268077
0.271706
0.275353
0.279019
0.282704
0.286405
0.290124
0.293861
0.297616
0.301390
0.305184
0.308996
0.312826
0.316674
0.320540
0.324426
0.328334
0.332261
0.336206
0.340168
0.344149
0.348149
0.352168
0.356204
0.360258
0.364333
0.368429
0.372544
0.376675
0.380827
0.385001
0.389194
0.393405
0.397632
0.401878
0.406147
0.410438
0.414747
0.419073
0.423417
0.427780
0.432162
0.436564
0.440987
0.445433
0.449901
0.454386
0.458889
0.463409
0.467951
0.472514
0.477095
0.481695
0.486315
0.490959
0.495624
0.500308
0.505007
0.509725
0.514464
0.519226
0.524010
0.528815
0.533637
0.538477
0.543339
0.548224
0.553131
0.558060
0.563008
0.567974
0.572958
0.577964
0.582990
0.588037
0.593107
0.598196
0.603304
0.608430
0.613576
0.618745
0.623937
0.629150
0.634381
0.639632
0.644902
0.650193
0.655507
0.660843
0.666203
0.671585
0.676985
0.682403
0.687842
0.693305
0.698792
0.704301
0.709829
0.715376
0.720944
0.726533
0.732144
0.737778
0.743434
0.749112
0.754809
0.760525
0.766261
0.772018
0.777798
0.783600
0.789425
0.795273
0.801139
0.807023
0.812925
0.818849
0.824796
0.830766
0.836756
0.842765
0.848798
0.854855
0.860933
0.867029
0.873144
0.879283
0.885445
0.891630
0.897833
0.904056
0.910303
0.916574
0.922866
0.929177
0.935508
0.941862
0.948238
0.954637
0.961057
0.967498
0.973962
0.980447
0.986951
0.993474
1.000020
1.006589
1.013180
1.019792
1.026426
1.033081
1.039759
1.046456
1.053171
1.059907
1.066665
1.073449
1.080255
1.087081
1.093927
1.100795
1.107684
1.114595
1.121527
1.128480
1.135454
1.142448
1.149463
1.156501
1.163560
1.170640
1.177740
1.184860
1.192004
1.199169
1.206354
1.213556
1.220778
1.228022
1.235289
1.242578
1.249888
1.257219
1.264570
1.271942
1.279333
1.286744
1.294177
1.301630
1.309104
1.316599
1.324113
1.331649
1.339207
1.346786
1.354384
1.362003
1.369640
1.377297
1.384975
1.392675
1.400395
1.408134
1.415892
1.423670
1.431471
1.439293
1.447135
1.454995
1.462875
1.470777
1.478701
1.486645
1.494604
1.502582
1.510580
1.518601
1.526645
1.534707
1.542785
1.550879
1.558992
1.567127
1.575285
1.583463
1.591659
1.599871
1.608099
1.616347
1.624618
1.632910
1.641222
1.649551
1.657898
1.666262
1.674645
1.683044
1.691462
1.699898
1.708353
1.716828
1.725321
1.733830
1.742356
1.750898
1.759460
1.768042
1.776643
1.785262
1.793895
1.802543
1.811210
1.819900
1.828610
1.837336
1.846074
1.854824
1.863593
1.872382
1.881189
1.890012
1.898849
1.907703
1.916577
1.925468
1.934372
1.943288
1.952221
1.961174
1.970147
1.979135
1.988135
1.997148
2.006180
2.015229
2.024292
2.033368
2.042460
2.051569
2.060694
2.069832
2.078983
2.088147
2.097326
2.106519
2.115726
2.124949
2.134190
2.143446
2.152714
2.161992
2.171283
2.180591
2.189914
2.199249
2.208595
2.217951
2.227321
2.236705
2.246101
2.255508
2.264930
2.274364
2.283810
2.293266
2.302732
2.312213
2.321707
2.331214
2.340731
2.350259
2.359798
2.369348
2.378907
2.388476
2.398054
2.407645
2.417247
2.426857
2.436476
2.446105
2.455746
2.465399
2.475060
2.484727
2.494402
2.504088
2.513783
2.523487
2.533198
2.542914
2.552639
2.562373
2.572116
2.581866
2.591625
2.601392
2.611163
2.620937
2.630716
2.640503
2.650300
2.660107
2.669919
2.679735
2.689553
2.699378
2.709211
2.719051
2.728894
2.738737
2.748583
2.758435
2.768295
2.778159
2.788024
2.797890
2.807760
2.817637
2.827517
2.837398
2.847279
2.857163
2.867050
2.876939
2.886825
2.896701
2.906556
2.916378
2.926154
2.935888
2.945590
2.955268
2.964865
2.974175
2.982758
2.989884
2.994630
2.996177
2.994302
2.989887
2.984914
2.981733
2.981751
2.984153
2.986180
2.985157
2.980947
2.977386
2.980522
2.994327
3.017853
3.045582
3.071003
3.091344
3.108649
3.126730
3.147698
3.170200
3.190725
3.206891
3.219090
3.229519
3.239810
3.248908
3.253698
3.252197
3.246187
3.241308
3.243430
3.253521
3.267192
3.279155
3.286873
3.290937
3.292531
3.290372
3.281525
3.265231
3.243901
3.220960
3.200361
3.188372
3.193485
3.222787
3.276287
3.342642
3.402684
3.439861
3.448770
3.438122
3.427286
3.437316
3.479810
3.547713
3.616310
3.655406
3.645592
3.591030
3.517109
3.454215
3.422447
3.424140
3.446732
3.472881
3.489030
3.489863
3.479411
3.469035
3.471545
3.492816
3.526823
3.557582
3.569677
3.562442
3.553244
3.566554
3.616742
3.694079
3.768814
3.811470
3.810131
3.776234
3.737135
3.720421
3.742091
3.801005
3.876758
3.932715
3.931035
3.855938
3.725906
3.587072
3.489907
3.460083
3.488259
3.542336
3.587509
3.604836
3.599044
3.593153
3.612140
3.663401
3.732208
3.794695
3.835599
3.860232
3.888456
3.934277
3.991630
4.034442
4.030482
3.962990
3.844589
3.715303
3.620550
3.579562
3.574342
3.563892
3.505543
3.371863
3.154490
2.858378
2.499478
2.106467
1.715977
1.359479
1.049690
0.770717
0.475974
0.097689
-0.426389
-1.113998
-1.910334
-2.685391
-3.271057
-3.532551
-3.438909
-3.103280
-2.750010
-2.611165
-2.811080
-3.287942
-3.820286
-4.150326
-4.111981
-3.708115
-3.088251
-2.446758
-1.934032
-1.616024
-1.483478
-1.492512
-1.597060
-1.760890
-1.951892
-2.126844
-2.226772
-2.197836
-2.045028
-1.883598
-1.898583
-2.220373
-2.835612
-3.588431
-4.274809
-4.770638
-5.059246
-5.159763
-5.083229
-4.850562
-4.520319
-4.190669
-3.959453
-3.865782
-3.876409
-3.919176
-3.911674
-3.773797
-3.448952
-2.937877
-2.317698
-1.728172
-1.316516
-1.163288
-1.253694
-1.505026
-1.812880
-2.091204
-2.286637
-2.376343
-2.379200
-2.373700
-2.478705
-2.795870
-3.360006
-4.116782
-4.930254
-5.616275
-5.995994
-5.966049
-5.563850
-4.990145
-4.522284
-4.347378
-4.465509
-4.715799
-4.896336
-4.908155
-4.790141
-4.641179
-4.543411
-4.534842
-4.628531
-4.846028
-5.208441
-5.695230
-6.242582
-6.787953
-7.300907
-7.777971
-8.216882
-8.595836
-8.892735
-9.128187
-9.364105
-9.654120
-10.007223
-10.388365
-10.747620
-11.060398
-11.347426
-11.665388
-12.073206
-12.586190
-13.148068
-13.636246
-13.909835
-13.886230
-13.597010
-13.202605
-12.953732
-13.097585
-13.751323
-14.799210
-15.935197
-16.843658
-17.363646
-17.549278
-17.578489
-17.579865
-17.578413
-17.577942
-17.629318
-17.822548
-18.218618
-18.768562
-19.304375
-19.609655
-19.511404
-18.958334
-18.052280
-17.022945
-16.148981
-15.648990
-15.606131
-15.946225
-16.466396
-16.909195
-17.065845
-16.875111
-16.441261
-15.966244
-15.661137
-15.674604
-16.065090
-16.805214
-17.780727
-18.790392
-19.595240
-20.015276
-20.007519
-19.690651
-19.297644
-19.073141
-19.176575
-19.621241
-20.272486
-20.898670
-21.241829
-21.093493
-20.361864
-19.117298
-17.585167
-16.076597
-14.874240
-14.110847
-13.726092
-13.517595
-13.242345
-12.729452
-11.946177
-11.003430
-10.111179
-9.497413
-9.320598
-9.599553
-10.202503
-10.901335
-11.461905
-11.739344
-11.722077
-11.510678
-11.250650
-11.048984
-10.933311
-10.866144
-10.789175
-10.669910
-10.509340
-10.313316
-10.071754
-9.763991
-9.386056
-8.978147
-8.610188
-8.331286
-8.140172
-7.997428
-7.865817
-7.747295
-7.664274
-7.602049
-7.500392
-7.305411
-7.015553
-6.688067
-6.401339
-6.202522
-6.102156
-6.103169
-6.186467
-6.262245
-6.188944
-5.872565
-5.353097
-4.812731
-4.460364
-4.355171
-4.363013
-4.272773
-3.941863
-3.389452
-2.776194
-2.294279
-2.072693
-2.135828
-2.414937
-2.797381
-3.182110
-3.520457
-3.815604
-4.088815
-4.356628
-4.631411
-4.930835
-5.281465
-5.701782
-6.174307
-6.641591
-7.028486
-7.263926
-7.296117
-7.111057
-6.750149
-6.302003
-5.865866
-5.510754
-5.247787
-5.033179
-4.794005
-4.447706
-3.918389
-3.176461
-2.285404
-1.387002
-0.622983
-0.065472
0.307002
0.576592
0.823635
1.101085
1.444481
1.859766
2.289780
2.623436
2.758341
2.664828
2.413528
2.133610
1.924541
1.808140
1.744683
1.684212
1.619592
1.592295
1.650059
1.801617
1.998391
2.166995
2.271624
2.335679
2.411431
2.540909
2.733232
2.971524
3.237471
3.519728
3.805182
4.080400
4.346398
4.624077
4.943033
5.322041
5.748893
6.171627
6.508362
6.680288
6.654266
6.455713
6.146412
5.795304
5.462236
5.207358
5.104608
5.206503
5.477731
5.793583
6.018256
6.091483
6.071899
6.091774
6.250981
6.559174
6.955643
7.369214
7.776260
8.198617
8.644996
9.062641
9.339071
9.375504
9.190917
8.937022
8.806843
8.921073
9.256054
9.676745
10.045597
10.284127
10.361569
10.268458
10.009378
9.624446
9.213995
8.908446
8.791971
8.860598
9.040520
9.242406
9.417541
9.563543
9.684630
9.765534
9.779065
9.712844
9.592064
9.465415
9.364842
9.293229
9.247368
9.238600
9.293751
9.437429
9.669151
9.960455
10.268507
10.539641
10.706986
10.715134
10.564931
10.323112
10.083307
9.909476
9.794249
9.675219
9.496841
9.248788
8.962995
8.692840
8.489566
8.384799
8.380243
8.446709
8.536047
8.607047
8.650396
8.676591
8.673173
8.585208
8.336802
7.877968
7.231105
6.492511
5.788023
5.222425
4.842553
4.626075
4.494822
4.343885
4.080278
3.659539
3.112018
2.542632
2.096464
1.894304
1.964365
2.233561
2.582335
2.907565
3.161548
3.346660
3.480797
3.581088
3.669337
3.766441
3.873568
3.969719
4.028540
4.028334
3.948754
3.767939
3.468216
3.050488
2.546634
2.008376
1.479445
0.986944
0.554167
0.205344
-0.043720
-0.191483
-0.246280
-0.217254
-0.107014
0.086606
0.362017
0.710189
1.117911
1.570996
2.053275
2.540704
2.996240
3.378326
3.661137
3.847048
3.961530
4.030180
4.053195
4.011337
3.898186
3.733646
3.549286
3.369842
3.204979
3.056096
2.929159
2.832144
2.758905
2.684426
2.577518
2.418699
2.214046
1.995877
1.810546
1.701521
1.692740
1.778518
1.922590
2.068473
2.160095
2.164313
2.085171
1.953119
1.793988
1.608240
1.373374
1.068058
0.702500
0.321464
-0.019565
-0.272330
-0.396903
-0.355328
-0.110613
0.354211
1.007678
1.770660
2.549082
3.266048
3.879807
4.387327
4.817270
5.216434
5.628931
6.069493
6.503434
6.861551
7.083027
7.140510
7.036493
6.790562
6.429757
5.987520
5.505671
5.026686
4.580605
4.186793
3.867068
3.643103
3.518970
3.478942
3.505766
3.597353
3.768133
4.029754
4.365793
4.736695
5.111209
5.480735
5.847492
6.209422
6.552892
6.854185
7.086955
7.231801
7.287265
7.278971
7.257821
7.272378
7.329092
7.389398
7.408499
7.374337
7.321460
7.304475
7.348587
7.431398
7.505060
7.527754
7.485352
7.390451
7.264850
7.128464
7.000940
6.908473
6.887562
6.975104
7.186831
7.500401
7.852428
8.156391
8.336841
8.359795
8.247623
8.066728
7.890330
7.757889
7.651224
7.514166
7.303054
7.011437
6.657036
6.259402
5.828525
5.378195
4.951163
4.616742
4.440160
4.458415
4.669616
5.021655
5.406127
5.688904
5.774178
5.652555
5.405427
5.152411
4.968877
4.851954
4.749455
4.609704
4.421650
4.215573
4.030213
3.884684
3.770684
3.664967
3.550531
3.423624
3.287651
3.154327
3.050994
3.011728
3.052822
3.160247
3.298430
3.431221
3.540515
3.620936
3.658174
3.626835
3.509191
3.303561
3.016762
2.660162
2.254689
1.833710
1.436806
1.093535
0.806425
0.554020
0.310960
0.058511
-0.219038
-0.535967
-0.898177
-1.292038
-1.676548
-1.991417
-2.181178
-2.221514
-2.136933
-1.996109
-1.886938
-1.888733
-2.048250
-2.362418
-2.771624
-3.174418
-3.465210
-3.581474
-3.541489
-3.438152
-3.391947
-3.503888
-3.823522
-4.332549
-4.944987
-5.531486
-5.966025
-6.174569
-6.166436
-6.020840
-5.836581
-5.691784
-5.629321
-5.660689
-5.777038
-5.953085
-6.146904
-6.311841
-6.418377
-6.462536
-6.454590
-6.400275
-6.288700
-6.104997
-5.857905
-5.583148
-5.318852
-5.083875
-4.872173
-4.662423
-4.436295
-4.192563
-3.952389
-3.753500
-3.633433
-3.607682
-3.654455
-3.727721
-3.790850
-3.831607
-3.852855
-3.863441
-3.877200
-3.911309
-3.977778
-4.068736
-4.146113
-4.157257
-4.069843
-3.887952
-3.641045
-3.364505
-3.083900
-2.811326
-2.550830
-2.301361
-2.055657
-1.802022
-1.531105
-1.243616
-0.954552
-0.687715
-0.461484
-0.276296
-0.112048
0.055975
0.229470
0.375376
0.440615
0.388521
0.238776
0.070323
-0.017565
0.044021
0.254317
0.543369
0.811566
0.979407
1.027958
1.006133
1.002807
1.101580
1.335830
1.673505
2.035342
2.329236
2.488454
2.497092
2.395490
2.260293
2.165134
2.145703
2.182674
2.214001
2.170410
2.007522
1.724186
1.363657
0.998335
0.702471
0.521309
0.456771
0.473870
