EVENT_NAME: L_AQUILA
EVENT_ID: IT-2009-0009
EVENT_DATE_YYYYMMDD: 20090406
EVENT_TIME_HHMMSS: 013240
EVENT_LATITUDE_DEGREE: 42.3420
EVENT_LONGITUDE_DEGREE: 13.3800
EVENT_DEPTH_KM: 8.3
HYPOCENTER_REFERENCE: INGV-CNT_Seismic_Bulletin
MAGNITUDE_W: 6.1
MAGNITUDE_W_REFERENCE: INGV-CNT_Seismic_Bulletin
MAGNITUDE_L: 
MAGNITUDE_L_REFERENCE: 
FOCAL_MECHANISM: Normal faulting
NETWORK: MN
STATION_CODE: AQU
STATION_NAME: 
STATION_LATITUDE_DEGREE: 42.353880
STATION_LONGITUDE_DEGREE: 13.401930
STATION_ELEVATION_M: 729
LOCATION: 
SENSOR_DEPTH_M: 15.0
VS30_M/S: 
SITE_CLASSIFICATION_EC8: B (inferred from geology)
MORPHOLOGIC_CLASSIFICATION: 
EPICENTRAL_DISTANCE_KM: 2.5
EARTHQUAKE_BACKAZIMUTH_DEGREE: 57.1
DATE_TIME_FIRST_SAMPLE_YYYYMMDD_HHMMSS: 20090406_013225.000
DATE_TIME_FIRST_SAMPLE_PRECISION: milliseconds
SAMPLING_INTERVAL_S: 0.005000
NDATA: 18000
DURATION_S: 90.000
STREAM: HLN
UNITS: cm/s
INSTRUMENT: sensor = Unknown [Unknown] | digitizer = Unknown [Unknown]
INSTRUMENT_ANALOG/DIGITAL: D
INSTRUMENTAL_FREQUENCY_HZ: 
INSTRUMENTAL_DAMPING: 
FULL_SCALE_G: 
N_BIT_DIGITAL_CONVERTER: 
PGV_CM/S: -29.134024
TIME_PGV_S: 18.705000
BASELINE_CORRECTION: BASELINE REMOVED
FILTER_TYPE: BUTTERWORTH
FILTER_ORDER: 2
LOW_CUT_FREQUENCY_HZ: 0.150
HIGH_CUT_FREQUENCY_HZ: 40.000
LATE/NORMAL_TRIGGERED: NT
DATABASE_VERSION: 0.5
HEADER_FORMAT: DYNA 1.2
DATA_TYPE: VELOCITY
PROCESSING: manual (Paolucci et al., 2011)
DATA_TIMESTAMP_YYYYMMDD_HHMMSS: 20211011_155542.126
DATA_LICENSE: CC-BY4_0 (http://creativecommons.org/licenses/by/4.0/)
DATA_CITATION: Luzi L, Pacor F, Puglia R (2019). Italian Accelerometric Archive v 3.0 - Istituto Nazionale di Geofisica e Vulcanologia, Dipartimento della Protezione Civile Nazionale. doi: 10.13127/itaca.3.1
DATA_CREATOR: ITACA working group
ORIGINAL_DATA_MEDIATOR_CITATION: data obtained within the DPC-INGV data exchange agreements
ORIGINAL_DATA_MEDIATOR: Archive of Italian Department of Civil Protection
ORIGINAL_DATA_CREATOR_CITATION:  http://www.fdsn.org/networks/detail/MN/
ORIGINAL_DATA_CREATOR: network: MN (Mediterranean Very Broadband Seismographic Network (MedNet)); owner: Istituto Nazionale di Geofisica e Vulcanologia (INGV)
USER1: 
USER2: 
USER3: 
USER4: 
USER5: 
[...]
0.008017
0.007950
0.007882
0.007814
0.007745
0.007679
0.007613
0.007546
0.007477
0.007406
0.007331
0.007255
0.007178
0.007104
0.007034
0.006964
0.006890
0.006810
0.006729
0.006651
0.006578
0.006506
0.006432
0.006351
0.006267
0.006181
0.006097
0.006017
0.005939
0.005858
0.005770
0.005677
0.005586
0.005502
0.005422
0.005339
0.005250
0.005157
0.005064
0.004973
0.004882
0.004788
0.004691
0.004594
0.004497
0.004399
0.004303
0.004210
0.004118
0.004026
0.003929
0.003828
0.003724
0.003622
0.003520
0.003417
0.003311
0.003205
0.003101
0.002998
0.002895
0.002789
0.002681
0.002570
0.002457
0.002345
0.002235
0.002123
0.002007
0.001887
0.001767
0.001653
0.001542
0.001430
0.001310
0.001187
0.001064
0.000945
0.000824
0.000700
0.000573
0.000446
0.000321
0.000195
0.000070
-0.000054
-0.000178
-0.000303
-0.000431
-0.000561
-0.000690
-0.000819
-0.000950
-0.001084
-0.001218
-0.001353
-0.001490
-0.001628
-0.001768
-0.001908
-0.002049
-0.002194
-0.002341
-0.002489
-0.002633
-0.002774
-0.002920
-0.003071
-0.003225
-0.003376
-0.003525
-0.003675
-0.003829
-0.003986
-0.004141
-0.004296
-0.004452
-0.004612
-0.004772
-0.004928
-0.005081
-0.005235
-0.005395
-0.005560
-0.005724
-0.005887
-0.006050
-0.006216
-0.006384
-0.006549
-0.006711
-0.006874
-0.007044
-0.007220
-0.007394
-0.007565
-0.007734
-0.007906
-0.008081
-0.008258
-0.008438
-0.008623
-0.008810
-0.008993
-0.009171
-0.009347
-0.009529
-0.009719
-0.009912
-0.010101
-0.010285
-0.010467
-0.010653
-0.010843
-0.011036
-0.011229
-0.011424
-0.011621
-0.011819
-0.012016
-0.012213
-0.012412
-0.012613
-0.012815
-0.013014
-0.013214
-0.013419
-0.013630
-0.013841
-0.014048
-0.014255
-0.014465
-0.014683
-0.014905
-0.015123
-0.015336
-0.015548
-0.015761
-0.015978
-0.016196
-0.016417
-0.016639
-0.016865
-0.017091
-0.017318
-0.017545
-0.017775
-0.018009
-0.018243
-0.018474
-0.018702
-0.018930
-0.019162
-0.019401
-0.019645
-0.019889
-0.020130
-0.020368
-0.020608
-0.020850
-0.021094
-0.021336
-0.021577
-0.021820
-0.022069
-0.022323
-0.022578
-0.022831
-0.023082
-0.023332
-0.023585
-0.023841
-0.024100
-0.024362
-0.024625
-0.024887
-0.025148
-0.025409
-0.025671
-0.025937
-0.026204
-0.026472
-0.026740
-0.027011
-0.027285
-0.027562
-0.027839
-0.028113
-0.028386
-0.028661
-0.028938
-0.029217
-0.029498
-0.029780
-0.030064
-0.030348
-0.030632
-0.030915
-0.031201
-0.031490
-0.031784
-0.032081
-0.032378
-0.032676
-0.032976
-0.033278
-0.033578
-0.033875
-0.034170
-0.034467
-0.034769
-0.035077
-0.035384
-0.035689
-0.035995
-0.036304
-0.036619
-0.036936
-0.037252
-0.037566
-0.037880
-0.038197
-0.038516
-0.038837
-0.039158
-0.039481
-0.039806
-0.040133
-0.040460
-0.040788
-0.041117
-0.041447
-0.041777
-0.042107
-0.042440
-0.042778
-0.043122
-0.043466
-0.043803
-0.044135
-0.044468
-0.044808
-0.045156
-0.045508
-0.045861
-0.046213
-0.046565
-0.046917
-0.047268
-0.047620
-0.047973
-0.048328
-0.048685
-0.049043
-0.049404
-0.049766
-0.050127
-0.050488
-0.050850
-0.051214
-0.051583
-0.051955
-0.052330
-0.052704
-0.053076
-0.053447
-0.053820
-0.054198
-0.054578
-0.054959
-0.055339
-0.055720
-0.056102
-0.056487
-0.056870
-0.057254
-0.057641
-0.058033
-0.058427
-0.058819
-0.059211
-0.059606
-0.060004
-0.060404
-0.060802
-0.061198
-0.061596
-0.061998
-0.062404
-0.062811
-0.063217
-0.063622
-0.064032
-0.064447
-0.064865
-0.065281
-0.065693
-0.066105
-0.066519
-0.066936
-0.067354
-0.067773
-0.068193
-0.068615
-0.069039
-0.069465
-0.069894
-0.070326
-0.070760
-0.071193
-0.071627
-0.072062
-0.072501
-0.072939
-0.073375
-0.073809
-0.074245
-0.074688
-0.075136
-0.075584
-0.076028
-0.076471
-0.076919
-0.077372
-0.077826
-0.078276
-0.078724
-0.079172
-0.079626
-0.080084
-0.080542
-0.080997
-0.081453
-0.081913
-0.082377
-0.082845
-0.083314
-0.083780
-0.084245
-0.084711
-0.085179
-0.085652
-0.086131
-0.086611
-0.087085
-0.087554
-0.088022
-0.088498
-0.088983
-0.089472
-0.089956
-0.090435
-0.090913
-0.091397
-0.091887
-0.092379
-0.092870
-0.093360
-0.093852
-0.094348
-0.094845
-0.095342
-0.095839
-0.096339
-0.096841
-0.097343
-0.097841
-0.098338
-0.098838
-0.099344
-0.099854
-0.100365
-0.100875
-0.101386
-0.101897
-0.102410
-0.102921
-0.103432
-0.103942
-0.104453
-0.104966
-0.105481
-0.106000
-0.106522
-0.107046
-0.107570
-0.108094
-0.108620
-0.109148
-0.109675
-0.110202
-0.110728
-0.111257
-0.111790
-0.112326
-0.112862
-0.113398
-0.113932
-0.114466
-0.115001
-0.115538
-0.116076
-0.116615
-0.117155
-0.117697
-0.118239
-0.118781
-0.119325
-0.119870
-0.120418
-0.120965
-0.121512
-0.122060
-0.122612
-0.123169
-0.123725
-0.124276
-0.124823
-0.125373
-0.125930
-0.126493
-0.127057
-0.127621
-0.128183
-0.128743
-0.129301
-0.129859
-0.130421
-0.130989
-0.131561
-0.132129
-0.132693
-0.133258
-0.133827
-0.134399
-0.134970
-0.135538
-0.136108
-0.136683
-0.137265
-0.137846
-0.138422
-0.138993
-0.139564
-0.140140
-0.140721
-0.141304
-0.141886
-0.142464
-0.143041
-0.143620
-0.144204
-0.144790
-0.145375
-0.145958
-0.146538
-0.147118
-0.147700
-0.148287
-0.148879
-0.149475
-0.150070
-0.150660
-0.151247
-0.151835
-0.152427
-0.153022
-0.153618
-0.154214
-0.154811
-0.155405
-0.155998
-0.156589
-0.157181
-0.157778
-0.158376
-0.158972
-0.159566
-0.160160
-0.160757
-0.161357
-0.161956
-0.162553
-0.163148
-0.163743
-0.164342
-0.164943
-0.165544
-0.166144
-0.166742
-0.167340
-0.167939
-0.168539
-0.169140
-0.169742
-0.170345
-0.170947
-0.171547
-0.172145
-0.172745
-0.173350
-0.173958
-0.174565
-0.175170
-0.175774
-0.176380
-0.176986
-0.177591
-0.178194
-0.178798
-0.179403
-0.180010
-0.180615
-0.181217
-0.181818
-0.182420
-0.183024
-0.183629
-0.184233
-0.184835
-0.185435
-0.186037
-0.186642
-0.187250
-0.187859
-0.188466
-0.189068
-0.189666
-0.190264
-0.190864
-0.191466
-0.192067
-0.192667
-0.193267
-0.193869
-0.194472
-0.195074
-0.195673
-0.196269
-0.196863
-0.197457
-0.198050
-0.198645
-0.199240
-0.199834
-0.200427
-0.201022
-0.201616
-0.202209
-0.202801
-0.203391
-0.203982
-0.204575
-0.205168
-0.205757
-0.206343
-0.206928
-0.207514
-0.208104
-0.208697
-0.209290
-0.209880
-0.210465
-0.211046
-0.211626
-0.212207
-0.212788
-0.213369
-0.213947
-0.214525
-0.215103
-0.215681
-0.216259
-0.216837
-0.217413
-0.217986
-0.218554
-0.219120
-0.219687
-0.220258
-0.220829
-0.221398
-0.221963
-0.222525
-0.223086
-0.223646
-0.224205
-0.224765
-0.225324
-0.225884
-0.226443
-0.226998
-0.227547
-0.228093
-0.228640
-0.229189
-0.229738
-0.230282
-0.230824
-0.231366
-0.231909
-0.232452
-0.232990
-0.233522
-0.234050
-0.234578
-0.235108
-0.235639
-0.236169
-0.236695
-0.237216
-0.237734
-0.238253
-0.238771
-0.239287
-0.239797
-0.240303
-0.240805
-0.241310
-0.241818
-0.242327
-0.242833
-0.243334
-0.243830
-0.244324
-0.244817
-0.245310
-0.245797
-0.246280
-0.246759
-0.247240
-0.247723
-0.248206
-0.248685
-0.249158
-0.249627
-0.250094
-0.250560
-0.251021
-0.251477
-0.251932
-0.252386
-0.252840
-0.253291
-0.253738
-0.254183
-0.254628
-0.255073
-0.255511
-0.255941
-0.256366
-0.256792
-0.257219
-0.257645
-0.258063
-0.258474
-0.258884
-0.259293
-0.259699
-0.260099
-0.260495
-0.260891
-0.261287
-0.261683
-0.262074
-0.262460
-0.262841
-0.263217
-0.263588
-0.263957
-0.264326
-0.264694
-0.265057
-0.265411
-0.265759
-0.266106
-0.266453
-0.266797
-0.267135
-0.267467
-0.267797
-0.268127
-0.268454
-0.268777
-0.269094
-0.269406
-0.269711
-0.270011
-0.270306
-0.270599
-0.270892
-0.271182
-0.271469
-0.271750
-0.272026
-0.272297
-0.272562
-0.272819
-0.273073
-0.273327
-0.273582
-0.273834
-0.274079
-0.274314
-0.274542
-0.274766
-0.274986
-0.275202
-0.275412
-0.275619
-0.275824
-0.276027
-0.276225
-0.276414
-0.276597
-0.276773
-0.276942
-0.277106
-0.277270
-0.277436
-0.277600
-0.277755
-0.277894
-0.278019
-0.278138
-0.278259
-0.278385
-0.278510
-0.278625
-0.278730
-0.278826
-0.278918
-0.279005
-0.279084
-0.279154
-0.279218
-0.279282
-0.279345
-0.279404
-0.279454
-0.279497
-0.279534
-0.279563
-0.279583
-0.279596
-0.279606
-0.279616
-0.279623
-0.279619
-0.279606
-0.279590
-0.279577
-0.279567
-0.279554
-0.279534
-0.279507
-0.279482
-0.279480
-0.279544
-0.279770
-0.280307
-0.281328
-0.282958
-0.285164
-0.287689
-0.290081
-0.291880
-0.292915
-0.293445
-0.294032
-0.295135
-0.296636
-0.297823
-0.297865
-0.296351
-0.293602
-0.290437
-0.287558
-0.285211
-0.283251
-0.281385
-0.279428
-0.277480
-0.275966
-0.275436
-0.276214
-0.278179
-0.280895
-0.284081
-0.288036
-0.293171
-0.298993
-0.304127
-0.307446
-0.308811
-0.308849
-0.308124
-0.306416
-0.303215
-0.298954
-0.295053
-0.292824
-0.293164
-0.296973
-0.304423
-0.313393
-0.319897
-0.320792
-0.316106
-0.309243
-0.304229
-0.302108
-0.301611
-0.303085
-0.308629
-0.318016
-0.326890
-0.329308
-0.322131
-0.308233
-0.294540
-0.286371
-0.284923
-0.288861
-0.295793
-0.302570
-0.306264
-0.306153
-0.304676
-0.306353
-0.314781
-0.329206
-0.344155
-0.352424
-0.348696
-0.332254
-0.307488
-0.282074
-0.263611
-0.255964
-0.257921
-0.264662
-0.270739
-0.273440
-0.274659
-0.280260
-0.296299
-0.323462
-0.354463
-0.376375
-0.377626
-0.356411
-0.322707
-0.292797
-0.281376
-0.294626
-0.327839
-0.367835
-0.398204
-0.406047
-0.387745
-0.351548
-0.313445
-0.287617
-0.278982
-0.281664
-0.284869
-0.282630
-0.277433
-0.275945
-0.282443
-0.294462
-0.305130
-0.310114
-0.310565
-0.310455
-0.313002
-0.318735
-0.326117
-0.333703
-0.341210
-0.349074
-0.357882
-0.368189
-0.380683
-0.396733
-0.419263
-0.452711
-0.499732
-0.556513
-0.613374
-0.660682
-0.693411
-0.712256
-0.723255
-0.737263
-0.768933
-0.832454
-0.930436
-1.041723
-1.126106
-1.146659
-1.091378
-0.983260
-0.870719
-0.802472
-0.804733
-0.868917
-0.954842
-1.008321
-0.985458
-0.876266
-0.712971
-0.557574
-0.471617
-0.481245
-0.568518
-0.693120
-0.821771
-0.946313
-1.071093
-1.183877
-1.258130
-1.285601
-1.289355
-1.304966
-1.355469
-1.439587
-1.546134
-1.677894
-1.840562
-2.005774
-2.112048
-2.110780
-2.004650
-1.852100
-1.733569
-1.700303
-1.755485
-1.872839
-2.018582
-2.160768
-2.265556
-2.292319
-2.209946
-2.028841
-1.811157
-1.645927
-1.600712
-1.676230
-1.813537
-1.947764
-2.045478
-2.104745
-2.132359
-2.119398
-2.044696
-1.900862
-1.705174
-1.488001
-1.278363
-1.094916
-0.941136
-0.804147
-0.661069
-0.493651
-0.304786
-0.126916
-0.006044
0.031262
-0.006427
-0.083879
-0.155675
-0.183318
-0.150932
-0.075166
0.002994
0.043502
0.030612
-0.019385
-0.077508
-0.134965
-0.207673
-0.310943
-0.441547
-0.579347
-0.698240
-0.776573
-0.798585
-0.751238
-0.630416
-0.453135
-0.254481
-0.068625
0.084478
0.198723
0.272451
0.298541
0.267179
0.178717
0.049220
-0.093956
-0.216864
-0.282904
-0.263000
-0.149420
0.041013
0.274206
0.503921
0.676444
0.749992
0.724733
0.652051
0.609389
0.648342
0.747950
0.837097
0.871348
0.866566
0.868311
0.908006
0.979716
1.058156
1.139011
1.244390
1.389681
1.558667
1.704987
1.773337
1.727572
1.565112
1.314519
1.025379
0.756176
0.563182
0.487377
0.535075
0.661573
0.784950
0.828950
0.760623
0.603308
0.415061
0.248966
0.140114
0.119397
0.213370
0.421995
0.701648
0.971743
1.153553
1.221126
1.210082
1.182233
1.193415
1.281408
1.465490
1.747293
2.104883
2.487402
2.831327
3.094302
3.273948
3.402306
3.526123
3.682248
3.880639
4.100736
4.305514
4.467910
4.589732
4.703860
4.857658
5.088050
5.413352
5.840836
6.365197
6.954034
7.540438
8.035920
8.369342
8.534879
8.600223
8.665187
8.800841
9.002469
9.205089
9.351456
9.439290
9.519149
9.650272
9.845679
10.067569
10.270023
10.427103
10.531341
10.588264
10.617693
10.654263
10.739248
10.900401
11.131774
11.402417
11.688758
11.989645
12.316025
12.676906
13.071214
13.485462
13.897098
14.285377
14.645030
14.987632
15.328946
15.674747
16.014214
16.328590
16.608286
16.856588
17.079643
17.282045
17.471708
17.662477
17.870991
18.112532
18.397772
18.729385
19.099379
19.491016
19.885571
20.269438
20.638754
20.998522
21.356333
21.713984
22.060219
22.370810
22.618694
22.791494
22.905535
22.994261
23.077234
23.147232
23.184368
23.178654
23.144463
23.109995
23.090569
23.080244
23.064873
23.031420
22.967247
22.861122
22.710493
22.529148
22.348116
22.201410
22.102337
22.032551
21.948336
21.794203
21.519373
21.094719
20.523935
19.836113
19.066782
18.254930
17.453573
16.721102
16.088722
15.534167
14.985729
14.373883
13.698750
13.024828
12.406282
11.840422
11.281696
10.688432
10.064227
9.442968
8.833588
8.205303
7.522704
6.772422
5.960352
5.094235
4.169126
3.174026
2.111301
0.996295
-0.162771
-1.373010
-2.647650
-3.997700
-5.427432
-6.922166
-8.431574
-9.871519
-11.148057
-12.186486
-12.953841
-13.465061
-13.777452
-13.986711
-14.216133
-14.574553
-15.102715
-15.778851
-16.579254
-17.511023
-18.594975
-19.833981
-21.193769
-22.615282
-24.041513
-25.412399
-26.639864
-27.630049
-28.343611
-28.805672
-29.058636
-29.134024
-29.064569
-28.902393
-28.718195
-28.569595
-28.462757
-28.366222
-28.265209
-28.174391
-28.103638
-28.044424
-27.989712
-27.945032
-27.917206
-27.899351
-27.866690
-27.792112
-27.671268
-27.527231
-27.393547
-27.300505
-27.270191
-27.309954
-27.404678
-27.521208
-27.623043
-27.677168
-27.652416
-27.524656
-27.287544
-26.950468
-26.524569
-26.018641
-25.448250
-24.841656
-24.233578
-23.647221
-23.077827
-22.505091
-21.926384
-21.365349
-20.849005
-20.384230
-19.948801
-19.500475
-18.997650
-18.415527
-17.752516
-17.027222
-16.268127
-15.500863
-14.737664
-13.976489
-13.208735
-12.425986
-11.623087
-10.799894
-9.962603
-9.123623
-8.300175
-7.513071
-6.784586
-6.131314
-5.552339
-5.020931
-4.488269
-3.908285
-3.271915
-2.611532
-1.968688
-1.353522
-0.723865
-0.017718
0.780561
1.619699
2.420614
3.127295
3.737229
4.287575
4.812807
5.327069
5.836434
6.344760
6.844909
7.314885
7.724943
8.046258
8.256164
8.339951
8.291545
8.115795
7.829836
7.456621
7.013884
6.513018
5.967854
5.398893
4.829716
4.282379
3.773832
3.311230
2.887739
2.485916
2.088251
1.685822
1.281538
0.888795
0.528435
0.228625
0.026327
-0.037455
0.069315
0.353245
0.782548
1.290469
1.796285
2.231476
2.558780
2.766856
2.845905
2.773918
2.522165
2.070900
1.425250
0.618486
-0.295629
-1.247976
-2.155401
-2.929377
-3.496353
-3.823381
-3.935152
-3.897311
-3.772860
-3.594908
-3.369887
-3.099719
-2.803674
-2.510868
-2.232340
-1.958404
-1.685166
-1.432066
-1.235571
-1.127016
-1.111157
-1.171897
-1.299409
-1.500752
-1.785991
-2.150690
-2.569785
-3.012237
-3.463680
-3.921396
-4.363376
-4.733001
-4.955020
-4.972986
-4.784692
-4.434572
-3.971741
-3.431125
-2.846302
-2.257861
-1.705272
-1.215340
-0.797857
-0.454610
-0.193999
-0.030586
0.027709
-0.018779
-0.169103
-0.412991
-0.709846
-0.992351
-1.197726
-1.292452
-1.274207
-1.151019
-0.914177
-0.540428
-0.021604
0.616848
1.320935
2.026875
2.682285
3.255389
3.732076
4.110768
4.397432
4.597836
4.709439
4.723235
4.635891
4.460201
4.225819
3.965471
3.696378
3.421889
3.149111
2.890159
2.645649
2.400299
2.137502
1.854840
1.568002
1.296532
1.043512
0.799588
0.565424
0.351151
0.150926
-0.068215
-0.351023
-0.727640
-1.193034
-1.713040
-2.250597
-2.779728
-3.282250
-3.746085
-4.170515
-4.568804
-4.962004
-5.363323
-5.761307
-6.120642
-6.398863
-6.557568
-6.564367
-6.397634
-6.057092
-5.571642
-4.997790
-4.404600
-3.852884
-3.388874
-3.049750
-2.857780
-2.804478
-2.852927
-2.963833
-3.123367
-3.352464
-3.676327
-4.072022
-4.457997
-4.735689
-4.840844
-4.774591
-4.588640
-4.339006
-4.062126
-3.781457
-3.513726
-3.264412
-3.023580
-2.771396
-2.496793
-2.217151
-1.969939
-1.781381
-1.652338
-1.568297
-1.510406
-1.459956
-1.403285
-1.338958
-1.279732
-1.244470
-1.240928
-1.251260
-1.244983
-1.211611
-1.170527
-1.152730
-1.183985
-1.280037
-1.447581
-1.685438
-1.983465
-2.321612
-2.674396
-3.018202
-3.331399
-3.589616
-3.770094
-3.862720
-3.869092
-3.791042
-3.630440
-3.401609
-3.135493
-2.868494
-2.624430
-2.402473
-2.189467
-1.987884
-1.821672
-1.715569
-1.675767
-1.684854
-1.711834
-1.729505
-1.722232
-1.680549
-1.590676
-1.427883
-1.165529
-0.795134
-0.334524
0.182777
0.727944
1.293658
1.886839
2.503430
3.118671
3.698715
4.214548
4.649436
4.999574
5.270540
5.473448
5.622393
5.734123
5.828886
5.928860
6.052746
6.208175
6.386894
6.571914
6.752848
6.931606
7.116286
7.315416
7.536143
7.782452
8.052414
8.337936
8.627921
8.912418
9.185424
9.443528
9.681380
9.889038
10.052428
10.155869
10.187025
10.144901
10.046241
9.919096
9.786647
9.660116
9.544087
9.442755
9.360697
9.296818
9.237346
9.160865
9.053301
8.915345
8.758706
8.599951
8.455713
8.339117
8.257919
8.216926
8.223125
8.286052
8.410792
8.586734
8.779165
8.937130
9.015408
8.991718
8.872355
8.687534
8.479078
8.285014
8.125378
7.998102
7.887064
7.777124
7.667826
7.570850
7.493467
7.427957
7.353673
7.247034
7.092215
6.882111
6.611865
6.278725
5.889376
5.462945
5.024960
4.594888
4.173566
3.742447
3.274875
2.749035
2.158594
1.520294
0.876696
0.288896
-0.179770
-0.480194
-0.590199
-0.521248
-0.318308
-0.050772
0.206546
0.398480
0.509759
0.557977
0.563393
0.529439
0.446078
0.309121
0.139719
-0.023221
-0.153568
-0.255043
-0.353357
-0.474319
-0.623014
-0.785855
-0.951105
-1.118301
-1.289947
-1.460247
-1.611211
-1.722285
-1.785923
-1.807945
-1.793593
-1.741720
-1.652137
-1.534161
-1.409202
-1.304499
-1.242040
-1.233498
-1.282134
-1.384486
-1.530199
-1.703454
-1.886420
-2.061920
-2.216087
-2.344560
-2.459048
-2.582602
-2.733552
-2.911762
-3.095393
-3.252619
-3.360713
-3.411606
-3.403818
-3.339818
-3.233132
-3.114218
-3.028063
-3.020326
-3.117895
-3.320679
-3.607793
-3.949419
-4.317909
-4.691433
-5.050312
-5.372566
-5.633731
-5.815596
-5.918602
-5.961466
-5.967324
-5.951443
-5.916591
-5.855530
-5.757786
-5.616328
-5.433951
-5.229742
-5.040477
-4.905746
-4.843059
-4.840317
-4.870227
-4.909461
-4.951864
-5.008606
-5.098987
-5.243835
-5.460626
-5.750408
-6.082247
-6.400050
-6.652107
-6.815255
-6.898528
-6.921899
-6.886418
-6.775582
-6.585938
-6.343486
-6.093241
-5.877441
-5.716490
-5.607165
-5.534593
-5.480459
-5.427213
-5.370209
-5.329904
-5.334657
-5.381428
-5.424976
-5.407452
-5.300316
-5.131192
-4.963649
-4.845244
-4.787449
-4.785001
-4.831431
-4.916535
-5.019915
-5.111833
-5.166393
-5.177585
-5.154606
-5.099766
-5.000109
-4.839842
-4.617676
-4.357969
-4.106282
-3.910884
-3.802601
-3.781381
-3.819349
-3.878847
-3.931567
