EVENT_NAME: L_AQUILA
EVENT_ID: IT-2009-0009
EVENT_DATE_YYYYMMDD: 20090406
EVENT_TIME_HHMMSS: 013240
EVENT_LATITUDE_DEGREE: 42.3420
EVENT_LONGITUDE_DEGREE: 13.3800
EVENT_DEPTH_KM: 8.3
HYPOCENTER_REFERENCE: INGV-CNT_Seismic_Bulletin
MAGNITUDE_W: 6.1
MAGNITUDE_W_REFERENCE: INGV-CNT_Seismic_Bulletin
MAGNITUDE_L: 
MAGNITUDE_L_REFERENCE: 
FOCAL_MECHANISM: Normal faulting
NETWORK: IT
STATION_CODE: AQG
STATION_NAME: 
STATION_LATITUDE_DEGREE: 42.373474
STATION_LONGITUDE_DEGREE: 13.337026
STATION_ELEVATION_M: 721
LOCATION: 
SENSOR_DEPTH_M: 0.0
VS30_M/S: 696
SITE_CLASSIFICATION_EC8: B
MORPHOLOGIC_CLASSIFICATION: 
EPICENTRAL_DISTANCE_KM: 5.0
EARTHQUAKE_BACKAZIMUTH_DEGREE: 314.7
DATE_TIME_FIRST_SAMPLE_YYYYMMDD_HHMMSS: 20090406_013212.000
DATE_TIME_FIRST_SAMPLE_PRECISION: seconds
SAMPLING_INTERVAL_S: 0.005000
NDATA: 20000
DURATION_S: 100.000
STREAM: HNE
UNITS: cm/s
INSTRUMENT: sensor = FBA-3 [Kinemetrics] | digitizer = Everest [Kinemetrics]
INSTRUMENT_ANALOG/DIGITAL: D
INSTRUMENTAL_FREQUENCY_HZ: 202.000
INSTRUMENTAL_DAMPING: 0.000000
FULL_SCALE_G: 1.0
N_BIT_DIGITAL_CONVERTER: 24
PGV_CM/S: -30.959166
TIME_PGV_S: 32.965000
BASELINE_CORRECTION: BASELINE REMOVED
FILTER_TYPE: BUTTERWORTH
FILTER_ORDER: 2
LOW_CUT_FREQUENCY_HZ: 0.100
HIGH_CUT_FREQUENCY_HZ: 40.000
LATE/NORMAL_TRIGGERED: NT
DATABASE_VERSION: 0.5
HEADER_FORMAT: DYNA 1.2
DATA_TYPE: VELOCITY
PROCESSING: manual (Paolucci et al., 2011)
DATA_TIMESTAMP_YYYYMMDD_HHMMSS: 20211011_155347.614
DATA_LICENSE: CC-BY3_0-IT (http://creativecommons.org/licenses/by/3.0/deed.en)
DATA_CITATION: Luzi L, Pacor F, Puglia R (2019). Italian Accelerometric Archive v 3.0 - Istituto Nazionale di Geofisica e Vulcanologia, Dipartimento della Protezione Civile Nazionale. doi: 10.13127/itaca.3.1
DATA_CREATOR: ITACA working group
ORIGINAL_DATA_MEDIATOR_CITATION: data obtained within the DPC-INGV data exchange agreements
ORIGINAL_DATA_MEDIATOR: Archive of Italian Department of Civil Protection
ORIGINAL_DATA_CREATOR_CITATION: Presidency Of Counsil Of Ministers-Civil Protection Department. (1972). Italian Strong Motion Network. Presidency of Counsil of Ministers - Civil Protection Department. https://doi.org/10.7914/SN/IT http://www.fdsn.org/networks/detail/IT/
ORIGINAL_DATA_CREATOR: network: IT (Italian Strong Motion Network (RAN)); owner: Presidency of Counsil of Ministers - Civil Protection Department (PCM - DPC)
USER1: 
USER2: 
USER3: 
USER4: 
USER5: 
[...]
-0.036537
-0.036660
-0.036786
-0.036912
-0.037036
-0.037159
-0.037283
-0.037406
-0.037538
-0.037680
-0.037810
-0.037919
-0.038028
-0.038156
-0.038293
-0.038430
-0.038568
-0.038702
-0.038822
-0.038936
-0.039057
-0.039190
-0.039327
-0.039463
-0.039593
-0.039713
-0.039830
-0.039961
-0.040106
-0.040244
-0.040371
-0.040495
-0.040624
-0.040756
-0.040888
-0.041016
-0.041137
-0.041260
-0.041392
-0.041534
-0.041677
-0.041813
-0.041942
-0.042073
-0.042208
-0.042337
-0.042457
-0.042581
-0.042723
-0.042876
-0.043026
-0.043164
-0.043285
-0.043395
-0.043518
-0.043667
-0.043822
-0.043959
-0.044077
-0.044200
-0.044347
-0.044507
-0.044650
-0.044768
-0.044883
-0.045012
-0.045155
-0.045297
-0.045432
-0.045569
-0.045719
-0.045873
-0.046007
-0.046120
-0.046231
-0.046365
-0.046525
-0.046685
-0.046821
-0.046942
-0.047072
-0.047212
-0.047350
-0.047484
-0.047627
-0.047780
-0.047924
-0.048051
-0.048177
-0.048320
-0.048474
-0.048621
-0.048752
-0.048874
-0.049008
-0.049164
-0.049324
-0.049465
-0.049591
-0.049722
-0.049868
-0.050020
-0.050163
-0.050295
-0.050434
-0.050585
-0.050734
-0.050869
-0.050996
-0.051131
-0.051283
-0.051445
-0.051594
-0.051725
-0.051855
-0.051998
-0.052151
-0.052296
-0.052430
-0.052567
-0.052709
-0.052849
-0.052988
-0.053143
-0.053311
-0.053467
-0.053591
-0.053701
-0.053829
-0.053986
-0.054157
-0.054319
-0.054462
-0.054590
-0.054717
-0.054858
-0.055013
-0.055167
-0.055311
-0.055448
-0.055591
-0.055741
-0.055888
-0.056027
-0.056166
-0.056313
-0.056463
-0.056611
-0.056756
-0.056903
-0.057049
-0.057197
-0.057352
-0.057507
-0.057647
-0.057771
-0.057902
-0.058061
-0.058234
-0.058393
-0.058523
-0.058641
-0.058778
-0.058942
-0.059110
-0.059253
-0.059381
-0.059523
-0.059679
-0.059831
-0.059973
-0.060118
-0.060270
-0.060420
-0.060564
-0.060704
-0.060851
-0.061005
-0.061161
-0.061312
-0.061455
-0.061593
-0.061733
-0.061882
-0.062039
-0.062199
-0.062355
-0.062504
-0.062646
-0.062779
-0.062910
-0.063060
-0.063236
-0.063411
-0.063558
-0.063683
-0.063817
-0.063975
-0.064139
-0.064286
-0.064422
-0.064563
-0.064713
-0.064868
-0.065023
-0.065175
-0.065324
-0.065471
-0.065614
-0.065749
-0.065888
-0.066041
-0.066208
-0.066368
-0.066509
-0.066640
-0.066783
-0.066940
-0.067095
-0.067243
-0.067391
-0.067541
-0.067692
-0.067841
-0.067983
-0.068125
-0.068281
-0.068449
-0.068599
-0.068724
-0.068850
-0.069005
-0.069182
-0.069348
-0.069485
-0.069610
-0.069743
-0.069892
-0.070051
-0.070211
-0.070369
-0.070521
-0.070660
-0.070793
-0.070932
-0.071081
-0.071237
-0.071392
-0.071543
-0.071692
-0.071840
-0.071981
-0.072117
-0.072260
-0.072416
-0.072575
-0.072719
-0.072847
-0.072984
-0.073143
-0.073315
-0.073472
-0.073599
-0.073718
-0.073862
-0.074032
-0.074196
-0.074335
-0.074464
-0.074602
-0.074749
-0.074897
-0.075041
-0.075184
-0.075335
-0.075494
-0.075643
-0.075772
-0.075900
-0.076049
-0.076213
-0.076364
-0.076497
-0.076631
-0.076777
-0.076926
-0.077069
-0.077215
-0.077368
-0.077516
-0.077643
-0.077764
-0.077902
-0.078066
-0.078240
-0.078396
-0.078518
-0.078629
-0.078763
-0.078921
-0.079079
-0.079223
-0.079361
-0.079508
-0.079658
-0.079798
-0.079930
-0.080066
-0.080209
-0.080353
-0.080497
-0.080640
-0.080776
-0.080910
-0.081049
-0.081196
-0.081341
-0.081478
-0.081606
-0.081738
-0.081879
-0.082027
-0.082171
-0.082305
-0.082435
-0.082566
-0.082705
-0.082851
-0.082997
-0.083137
-0.083264
-0.083388
-0.083522
-0.083664
-0.083804
-0.083940
-0.084074
-0.084202
-0.084328
-0.084466
-0.084612
-0.084752
-0.084878
-0.085003
-0.085132
-0.085264
-0.085396
-0.085532
-0.085671
-0.085805
-0.085933
-0.086059
-0.086181
-0.086300
-0.086433
-0.086584
-0.086732
-0.086862
-0.086980
-0.087100
-0.087227
-0.087359
-0.087494
-0.087629
-0.087760
-0.087884
-0.088006
-0.088136
-0.088277
-0.088414
-0.088534
-0.088643
-0.088759
-0.088888
-0.089021
-0.089149
-0.089271
-0.089392
-0.089514
-0.089635
-0.089752
-0.089867
-0.089992
-0.090126
-0.090252
-0.090360
-0.090463
-0.090584
-0.090716
-0.090843
-0.090955
-0.091059
-0.091170
-0.091287
-0.091406
-0.091527
-0.091655
-0.091779
-0.091890
-0.091991
-0.092101
-0.092224
-0.092353
-0.092472
-0.092576
-0.092669
-0.092769
-0.092892
-0.093029
-0.093153
-0.093254
-0.093347
-0.093451
-0.093567
-0.093679
-0.093784
-0.093890
-0.093999
-0.094108
-0.094216
-0.094327
-0.094440
-0.094548
-0.094652
-0.094756
-0.094857
-0.094952
-0.095050
-0.095162
-0.095281
-0.095393
-0.095489
-0.095574
-0.095657
-0.095755
-0.095869
-0.095981
-0.096079
-0.096172
-0.096272
-0.096374
-0.096463
-0.096543
-0.096632
-0.096737
-0.096837
-0.096923
-0.097010
-0.097113
-0.097222
-0.097325
-0.097412
-0.097479
-0.097545
-0.097631
-0.097739
-0.097846
-0.097934
-0.098012
-0.098098
-0.098191
-0.098278
-0.098359
-0.098443
-0.098533
-0.098619
-0.098690
-0.098758
-0.098842
-0.098939
-0.099028
-0.099101
-0.099164
-0.099227
-0.099301
-0.099390
-0.099484
-0.099568
-0.099638
-0.099700
-0.099762
-0.099827
-0.099898
-0.099974
-0.100048
-0.100113
-0.100177
-0.100249
-0.100326
-0.100399
-0.100465
-0.100527
-0.100590
-0.100650
-0.100703
-0.100759
-0.100832
-0.100911
-0.100974
-0.101024
-0.101077
-0.101136
-0.101200
-0.101264
-0.101324
-0.101373
-0.101418
-0.101470
-0.101525
-0.101570
-0.101618
-0.101683
-0.101747
-0.101784
-0.101805
-0.101846
-0.101914
-0.101989
-0.102044
-0.102072
-0.102090
-0.102118
-0.102165
-0.102222
-0.102271
-0.102305
-0.102337
-0.102373
-0.102409
-0.102442
-0.102479
-0.102523
-0.102563
-0.102588
-0.102601
-0.102619
-0.102653
-0.102694
-0.102729
-0.102751
-0.102763
-0.102776
-0.102800
-0.102834
-0.102866
-0.102886
-0.102897
-0.102906
-0.102917
-0.102932
-0.102949
-0.102972
-0.102996
-0.103007
-0.103004
-0.103007
-0.103027
-0.103050
-0.103061
-0.103059
-0.103053
-0.103047
-0.103047
-0.103059
-0.103080
-0.103095
-0.103091
-0.103074
-0.103057
-0.103046
-0.103045
-0.103058
-0.103072
-0.103063
-0.103032
-0.103003
-0.102992
-0.102995
-0.103003
-0.103003
-0.102978
-0.102932
-0.102895
-0.102884
-0.102888
-0.102882
-0.102857
-0.102817
-0.102778
-0.102749
-0.102732
-0.102719
-0.102698
-0.102668
-0.102634
-0.102595
-0.102552
-0.102511
-0.102478
-0.102459
-0.102439
-0.102396
-0.102326
-0.102263
-0.102231
-0.102212
-0.102174
-0.102112
-0.102044
-0.101989
-0.101952
-0.101922
-0.101881
-0.101818
-0.101743
-0.101671
-0.101612
-0.101565
-0.101517
-0.101461
-0.101401
-0.101334
-0.101258
-0.101182
-0.101118
-0.101060
-0.100994
-0.100922
-0.100852
-0.100775
-0.100687
-0.100608
-0.100549
-0.100494
-0.100415
-0.100311
-0.100204
-0.100112
-0.100043
-0.099985
-0.099911
-0.099805
-0.099685
-0.099582
-0.099497
-0.099409
-0.099313
-0.099219
-0.099120
-0.099006
-0.098887
-0.098788
-0.098708
-0.098621
-0.098507
-0.098375
-0.098243
-0.098121
-0.098010
-0.097902
-0.097788
-0.097671
-0.097550
-0.097424
-0.097293
-0.097166
-0.097047
-0.096928
-0.096801
-0.096659
-0.096507
-0.096363
-0.096238
-0.096120
-0.095988
-0.095842
-0.095692
-0.095538
-0.095380
-0.095232
-0.095104
-0.094974
-0.094815
-0.094631
-0.094454
-0.094299
-0.094160
-0.094021
-0.093861
-0.093675
-0.093482
-0.093307
-0.093157
-0.093013
-0.092850
-0.092667
-0.092474
-0.092279
-0.092097
-0.091940
-0.091788
-0.091606
-0.091394
-0.091189
-0.091007
-0.090828
-0.090638
-0.090444
-0.090250
-0.090048
-0.089837
-0.089627
-0.089420
-0.089216
-0.089021
-0.088827
-0.088618
-0.088387
-0.088153
-0.087938
-0.087738
-0.087529
-0.087295
-0.087050
-0.086816
-0.086593
-0.086375
-0.086159
-0.085935
-0.085697
-0.085448
-0.085192
-0.084939
-0.084696
-0.084462
-0.084232
-0.083997
-0.083742
-0.083472
-0.083210
-0.082960
-0.082713
-0.082456
-0.082182
-0.081901
-0.081626
-0.081367
-0.081117
-0.080861
-0.080584
-0.080287
-0.079986
-0.079699
-0.079424
-0.079154
-0.078883
-0.078605
-0.078306
-0.077987
-0.077680
-0.077401
-0.077126
-0.076827
-0.076508
-0.076186
-0.075869
-0.075569
-0.075278
-0.074973
-0.074646
-0.074318
-0.074002
-0.073689
-0.073360
-0.073014
-0.072664
-0.072320
-0.071974
-0.071617
-0.071238
-0.070829
-0.070373
-0.069759
-0.068668
-0.066629
-0.063377
-0.059324
-0.055577
-0.053138
-0.051820
-0.050140
-0.046802
-0.042486
-0.039526
-0.039571
-0.042350
-0.046801
-0.051803
-0.055113
-0.053279
-0.044544
-0.031902
-0.021774
-0.018566
-0.021343
-0.027156
-0.036126
-0.050123
-0.066796
-0.078739
-0.079739
-0.069332
-0.051474
-0.032289
-0.018694
-0.015229
-0.020929
-0.029573
-0.033805
-0.032222
-0.032475
-0.042976
-0.061951
-0.078614
-0.083347
-0.072687
-0.047549
-0.014136
0.013599
0.021079
0.006299
-0.018470
-0.038962
-0.050290
-0.056029
-0.058703
-0.057472
-0.054869
-0.053906
-0.047121
-0.022359
0.017917
0.054491
0.070349
0.063801
0.043501
0.019541
0.001018
-0.005803
-0.001473
0.006086
0.006833
-0.002077
-0.011682
-0.010990
-0.000662
0.009377
0.014546
0.019917
0.029743
0.039934
0.042461
0.032622
0.011145
-0.016471
-0.040526
-0.050887
-0.043518
-0.021636
0.008653
0.038101
0.053204
0.048200
0.037849
0.044199
0.069225
0.091958
0.092230
0.067849
0.030815
-0.004087
-0.026353
-0.031951
-0.024014
-0.012136
-0.008033
-0.017234
-0.032029
-0.036811
-0.024123
-0.000594
0.022939
0.039036
0.042822
0.032997
0.014472
-0.005011
-0.019912
-0.025148
-0.014415
0.010493
0.033199
0.038131
0.029250
0.024544
0.035709
0.058078
0.078460
0.088266
0.085325
0.068640
0.042799
0.024499
0.031162
0.063374
0.108486
0.158507
0.212398
0.262350
0.294015
0.304708
0.309225
0.324663
0.357524
0.404034
0.454103
0.496216
0.526007
0.549678
0.575948
0.606684
0.636106
0.655726
0.658074
0.639166
0.602731
0.561739
0.531367
0.519605
0.522825
0.523758
0.498486
0.442268
0.387232
0.375509
0.414246
0.472265
0.518324
0.547901
0.573640
0.604425
0.642794
0.694363
0.762532
0.832526
0.875865
0.877474
0.851333
0.825021
0.815118
0.823615
0.850393
0.893720
0.938731
0.961738
0.953892
0.935455
0.939391
0.977311
1.023956
1.039423
1.010451
0.970032
0.968580
1.023565
1.110536
1.204879
1.309434
1.434173
1.570493
1.696090
1.791539
1.844317
1.849934
1.820594
1.787955
1.788828
1.840711
1.928279
2.018256
2.087682
2.134846
2.168803
2.198199
2.233341
2.291040
2.384928
2.507276
2.621421
2.675363
2.635368
2.516651
2.380733
2.296021
2.291584
2.347966
2.435389
2.549890
2.698508
2.853804
2.949492
2.943090
2.864279
2.781877
2.749599
2.785814
2.858878
2.892435
2.836108
2.734222
2.682940
2.726528
2.834806
2.959557
3.070648
3.152936
3.197733
3.207460
3.210059
3.251721
3.364978
3.554646
3.802994
4.063558
4.260494
4.327808
4.269851
4.179193
4.174490
4.304764
4.514819
4.704535
4.807804
4.812871
4.737107
4.610195
4.477891
4.395041
4.393643
4.467225
4.597908
4.770186
4.939927
5.035779
5.023814
4.939761
4.844924
4.775944
4.740930
4.744108
4.798064
4.906239
5.037177
5.129977
5.138555
5.074671
5.009768
5.032331
5.191329
5.464825
5.775659
6.039453
6.201911
6.248522
6.200447
6.106130
6.029917
6.023408
6.081248
6.132393
6.097373
5.960434
5.782628
5.648741
5.610454
5.670373
5.795727
5.955526
6.161472
6.442139
6.764354
7.031803
7.183853
7.257512
7.339239
7.481299
7.664003
7.810764
7.836344
7.709733
7.484086
7.260277
7.133052
7.165035
7.359170
7.631562
7.857190
7.968588
7.967578
7.854801
7.637726
7.392557
7.213858
7.105365
6.996136
6.858794
6.755910
6.758976
6.855683
6.962064
7.009681
7.001142
6.990566
7.028899
7.132054
7.292185
7.509221
7.789641
8.096127
8.331073
8.418857
8.395804
8.377695
8.444737
8.593161
8.779294
8.965724
9.134925
9.292804
9.460489
9.647196
9.824586
9.933471
9.927160
9.811300
9.646553
9.523909
9.522764
9.651407
9.811863
9.863026
9.750880
9.547124
9.346290
9.165448
8.958518
8.702256
8.449062
8.277391
8.182791
8.053313
7.778502
7.358086
6.899767
6.543857
6.380152
6.397691
6.513100
6.651113
6.779209
6.881315
6.945268
6.983264
7.033690
7.127795
7.262916
7.405069
7.497126
7.473141
7.314971
7.095020
6.901772
6.725406
6.465155
6.066167
5.643329
5.388338
5.298463
5.143785
4.777875
4.291478
3.805393
3.313769
2.787610
2.264304
1.757504
1.191006
0.495926
-0.278425
-0.971870
-1.415679
-1.553252
-1.472960
-1.328099
-1.240062
-1.248839
-1.328572
-1.444814
-1.579676
-1.721269
-1.854823
-1.958365
-2.028732
-2.157332
-2.544421
-3.286909
-4.138638
-4.714975
-4.980395
-5.272010
-5.806581
-6.446852
-7.023970
-7.610314
-8.321721
-9.085393
-9.792345
-10.494112
-11.285834
-12.139272
-12.964915
-13.730883
-14.455067
-15.143988
-15.774302
-16.344040
-16.923903
-17.585226
-18.302118
-19.012205
-19.711363
-20.410877
-21.093967
-21.778086
-22.526772
-23.346788
-24.156551
-24.899771
-25.613777
-26.355833
-27.118599
-27.832550
-28.438133
-28.955303
-29.444710
-29.900291
-30.265165
-30.536137
-30.750946
-30.906334
-30.959166
-30.878300
-30.674957
-30.399200
-30.098574
-29.779015
-29.421612
-29.026716
-28.631516
-28.293781
-28.062965
-27.972902
-28.054003
-28.319277
-28.714226
-29.096809
-29.326429
-29.391289
-29.402597
-29.470482
-29.620037
-29.800053
-29.940275
-29.991091
-29.918644
-29.700216
-29.335955
-28.857519
-28.328428
-27.814861
-27.332970
-26.837111
-26.272078
-25.625069
-24.920137
-24.177486
-23.396717
-22.580805
-21.750664
-20.915369
-20.049711
-19.131264
-18.191633
-17.309406
-16.557135
-15.969751
-15.549197
-15.268381
-15.084783
-14.994683
-15.056114
-15.286251
-15.512693
-15.426299
-14.898105
-14.121263
-13.279181
-12.288797
-11.062151
-9.770447
-8.673945
-7.861358
-7.238892
-6.671385
-6.087368
-5.474170
-4.815467
-4.079702
-3.273049
-2.470760
-1.756984
-1.122826
-0.464369
0.305624
1.182045
2.088512
2.938427
3.698194
4.396891
5.072477
5.753602
6.480892
7.284711
8.155379
9.064791
9.997391
10.949733
11.921560
12.919534
13.948447
14.990504
16.019682
17.028807
18.005096
18.907570
19.725367
20.524483
21.394457
22.379171
23.443899
24.482395
25.393162
26.124281
26.609089
26.738743
26.435350
25.673458
24.430408
22.735161
20.796980
18.971708
17.546787
16.631506
16.235016
16.277676
16.473143
16.337614
15.432049
13.673690
11.486551
9.605485
8.599795
8.504503
8.900932
9.307860
9.443623
9.265023
8.948917
8.742794
8.703751
8.643656
8.360722
7.906623
7.596594
7.657030
7.908598
7.954484
7.594445
6.938348
6.244079
5.728406
5.465251
5.379221
5.281728
4.966422
4.352323
3.511624
2.540576
1.474019
0.333986
-0.830587
-1.985227
-3.139614
-4.301442
-5.430961
-6.497037
-7.551901
-8.656314
-9.743093
-10.658604
-11.337741
-11.874386
-12.427801
-13.071386
-13.724613
-14.248324
-14.588234
-14.785182
-14.877053
-14.852588
-14.704680
-14.496429
-14.322228
-14.173576
-13.915802
-13.441462
-12.777019
-12.044312
-11.410084
-11.014575
-10.766406
-10.277624
-9.255087
-7.860877
-6.476737
-5.300581
-4.348906
-3.671808
-3.394141
-3.596046
-4.234983
-5.138666
-6.011252
-6.535134
-6.610442
-6.503015
-6.633131
-7.160654
-7.872233
-8.484387
-8.910321
-9.231823
-9.567184
-10.003380
-10.586709
-11.309612
-12.072490
-12.715814
-13.142764
-13.379611
-13.493211
-13.480829
-13.282878
-12.875519
-12.292226
-11.604660
-10.930055
-10.351755
-9.761084
-8.893202
-7.622782
-6.125738
-4.656294
-3.308760
-2.079910
-0.979543
0.017800
1.014265
2.107897
3.310608
4.562203
5.769371
6.829327
7.682469
8.355647
8.919136
9.410243
9.843427
10.268050
10.759822
11.384890
12.176377
13.088129
13.998462
14.803869
15.467540
15.976138
16.327641
16.567822
16.763344
16.934244
17.072760
17.212271
17.411161
17.679005
17.971928
18.241093
18.432222
18.468050
18.296906
17.959263
17.575867
17.239103
16.905466
16.426559
15.675962
14.606499
13.234538
11.645523
9.993524
8.430647
7.028809
5.785483
4.670342
3.637549
2.628721
1.582711
0.443301
-0.773675
-1.914301
-2.832811
-3.606128
-4.419386
-5.256107
-5.862507
-6.020986
-5.782953
-5.401738
-5.080045
-4.842304
-4.608371
-4.307260
-3.898984
-3.333162
-2.569710
-1.677075
-0.860825
-0.295743
0.108681
0.643058
1.419103
2.245973
2.941286
3.515333
4.016720
4.412066
4.652947
4.781553
4.950227
5.308106
5.863347
6.495712
7.075298
7.518506
7.770284
7.807382
7.671398
7.453594
7.222925
6.998737
6.799066
6.658812
6.571526
6.445701
6.167090
5.710953
5.143108
4.531009
3.917605
3.333590
2.772234
2.174624
1.478485
0.692983
-0.082355
-0.719205
-1.148409
-1.393307
-1.546631
-1.767639
-2.252895
-3.098409
-4.205129
-5.381037
-6.492078
-7.467608
-8.226263
-8.698675
-8.931556
-9.089391
-9.304443
-9.563610
-9.767083
-9.844509
-9.794677
-9.652303
-9.422490
-9.054259
-8.511208
-7.865425
-7.284409
-6.882846
-6.579951
-6.140043
-5.395212
-4.432262
-3.506898
-2.792334
-2.304769
-2.007054
-1.842260
-1.707685
-1.522055
-1.311459
-1.159639
-1.096412
-1.077673
-1.056263
-1.040671
-1.072211
-1.166665
-1.298739
-1.422325
-1.494992
-1.507791
-1.496097
-1.501207
-1.530641
-1.566403
-1.582081
-1.548486
-1.457721
-1.335969
-1.208048
-1.068444
-0.904750
-0.717325
-0.489636
-0.170666
0.280180
0.843573
1.450293
2.032466
2.570692
3.110435
3.724827
4.453094
5.292797
6.238496
7.288509
8.418939
9.584220
10.747033
11.890338
13.001886
14.065010
15.068181
16.009916
16.882828
17.659527
18.315083
18.867262
19.376163
19.899332
20.453268
21.005144
21.489866
21.854326
22.098398
22.257736
22.344442
22.307447
22.047318
21.502108
20.730658
19.867237
19.005117
18.173412
17.395760
16.699120
16.052967
15.361176
14.560451
13.691956
12.848308
12.084104
11.386209
10.693345
9.935462
9.082733
8.175619
7.306115
6.558512
5.956481
5.465015
5.033543
4.620299
4.193702
3.742944
3.280761
2.820825
2.360064
1.886733
1.398659
0.912547
0.458349
0.054351
-0.326789
-0.738419
-1.167626
-1.502835
-1.649116
-1.651004
-1.654796
-1.766846
-1.985095
-2.244220
-2.492238
-2.720928
-2.932299
-3.114956
-3.264505
-3.381933
-3.453231
-3.466975
-3.434856
-3.376067
-3.304662
-3.226501
-3.116989
-2.921144
-2.609090
-2.209202
-1.764248
-1.278811
-0.737138
-0.183201
0.249301
0.485436
0.709952
1.255095
2.214107
3.338105
4.339990
5.105293
5.624109
5.929552
6.139369
6.418788
6.843909
7.360131
7.877785
8.334635
8.651208
8.710440
8.453597
7.963731
7.400955
6.876907
6.419113
6.008622
5.592866
5.093778
4.465587
3.732982
2.955490
2.169720
1.355945
0.476613
-0.433167
-1.276610
-2.015543
-2.703354
-3.387454
-4.050396
