EVENT_NAME: L_AQUILA
EVENT_ID: IT-2009-0009
EVENT_DATE_YYYYMMDD: 20090406
EVENT_TIME_HHMMSS: 013240
EVENT_LATITUDE_DEGREE: 42.3420
EVENT_LONGITUDE_DEGREE: 13.3800
EVENT_DEPTH_KM: 8.3
HYPOCENTER_REFERENCE: INGV-CNT_Seismic_Bulletin
MAGNITUDE_W: 6.1
MAGNITUDE_W_REFERENCE: INGV-CNT_Seismic_Bulletin
MAGNITUDE_L: 
MAGNITUDE_L_REFERENCE: 
FOCAL_MECHANISM: Normal faulting
NETWORK: IT
STATION_CODE: AQG
STATION_NAME: 
STATION_LATITUDE_DEGREE: 42.373474
STATION_LONGITUDE_DEGREE: 13.337026
STATION_ELEVATION_M: 721
LOCATION: 
SENSOR_DEPTH_M: 0.0
VS30_M/S: 696
SITE_CLASSIFICATION_EC8: B
MORPHOLOGIC_CLASSIFICATION: 
EPICENTRAL_DISTANCE_KM: 5.0
EARTHQUAKE_BACKAZIMUTH_DEGREE: 314.7
DATE_TIME_FIRST_SAMPLE_YYYYMMDD_HHMMSS: 20090406_013212.000
DATE_TIME_FIRST_SAMPLE_PRECISION: seconds
SAMPLING_INTERVAL_S: 0.005000
NDATA: 20000
DURATION_S: 100.000
STREAM: HNZ
UNITS: cm
INSTRUMENT: sensor = FBA-3 [Kinemetrics] | digitizer = Everest [Kinemetrics]
INSTRUMENT_ANALOG/DIGITAL: D
INSTRUMENTAL_FREQUENCY_HZ: 208.000
INSTRUMENTAL_DAMPING: 0.000000
FULL_SCALE_G: 1.0
N_BIT_DIGITAL_CONVERTER: 24
PGD_CM: -1.928952
TIME_PGD_S: 32.880000
BASELINE_CORRECTION: BASELINE REMOVED
FILTER_TYPE: BUTTERWORTH
FILTER_ORDER: 2
LOW_CUT_FREQUENCY_HZ: 0.100
HIGH_CUT_FREQUENCY_HZ: 40.000
LATE/NORMAL_TRIGGERED: NT
DATABASE_VERSION: 0.5
HEADER_FORMAT: DYNA 1.2
DATA_TYPE: DISPLACEMENT
PROCESSING: manual (Paolucci et al., 2011)
DATA_TIMESTAMP_YYYYMMDD_HHMMSS: 20211011_155348.743
DATA_LICENSE: CC-BY3_0-IT (http://creativecommons.org/licenses/by/3.0/deed.en)
DATA_CITATION: Luzi L, Pacor F, Puglia R (2019). Italian Accelerometric Archive v 3.0 - Istituto Nazionale di Geofisica e Vulcanologia, Dipartimento della Protezione Civile Nazionale. doi: 10.13127/itaca.3.1
DATA_CREATOR: ITACA working group
ORIGINAL_DATA_MEDIATOR_CITATION: data obtained within the DPC-INGV data exchange agreements
ORIGINAL_DATA_MEDIATOR: Archive of Italian Department of Civil Protection
ORIGINAL_DATA_CREATOR_CITATION: Presidency Of Counsil Of Ministers-Civil Protection Department. (1972). Italian Strong Motion Network. Presidency of Counsil of Ministers - Civil Protection Department. https://doi.org/10.7914/SN/IT http://www.fdsn.org/networks/detail/IT/
ORIGINAL_DATA_CREATOR: network: IT (Italian Strong Motion Network (RAN)); owner: Presidency of Counsil of Ministers - Civil Protection Department (PCM - DPC)
USER1: 
USER2: 
USER3: 
USER4: 
USER5: 
[...]
-4.860396e-02
-4.826027e-02
-4.791457e-02
-4.756686e-02
-4.721713e-02
-4.686535e-02
-4.651154e-02
-4.615570e-02
-4.579781e-02
-4.543791e-02
-4.507595e-02
-4.471193e-02
-4.434582e-02
-4.397762e-02
-4.360736e-02
-4.323501e-02
-4.286059e-02
-4.248406e-02
-4.210542e-02
-4.172467e-02
-4.134181e-02
-4.095683e-02
-4.056973e-02
-4.018052e-02
-3.978917e-02
-3.939567e-02
-3.900002e-02
-3.860221e-02
-3.820226e-02
-3.780016e-02
-3.739590e-02
-3.698946e-02
-3.658082e-02
-3.617000e-02
-3.575699e-02
-3.534179e-02
-3.492440e-02
-3.450480e-02
-3.408298e-02
-3.365894e-02
-3.323267e-02
-3.280415e-02
-3.237341e-02
-3.194044e-02
-3.150526e-02
-3.106782e-02
-3.062810e-02
-3.018609e-02
-2.974181e-02
-2.929526e-02
-2.884644e-02
-2.839534e-02
-2.794196e-02
-2.748626e-02
-2.702826e-02
-2.656794e-02
-2.610533e-02
-2.564039e-02
-2.517312e-02
-2.470350e-02
-2.423154e-02
-2.375723e-02
-2.328060e-02
-2.280164e-02
-2.232031e-02
-2.183660e-02
-2.135050e-02
-2.086203e-02
-2.037118e-02
-1.987794e-02
-1.938231e-02
-1.888428e-02
-1.838387e-02
-1.788103e-02
-1.737576e-02
-1.686807e-02
-1.635797e-02
-1.584544e-02
-1.533046e-02
-1.481301e-02
-1.429310e-02
-1.377074e-02
-1.324594e-02
-1.271868e-02
-1.218895e-02
-1.165675e-02
-1.112204e-02
-1.058483e-02
-1.004511e-02
-9.502910e-03
-8.958221e-03
-8.411027e-03
-7.861302e-03
-7.309037e-03
-6.754234e-03
-6.196904e-03
-5.637048e-03
-5.074651e-03
-4.509692e-03
-3.942157e-03
-3.372050e-03
-2.799379e-03
-2.224145e-03
-1.646332e-03
-1.065921e-03
-4.829015e-04
1.027181e-04
6.909350e-04
1.281762e-03
1.875218e-03
2.471313e-03
3.070046e-03
3.671417e-03
4.275431e-03
4.882085e-03
5.491386e-03
6.103346e-03
6.717971e-03
7.335266e-03
7.955246e-03
8.577927e-03
9.203314e-03
9.831401e-03
1.046217e-02
1.109562e-02
1.173179e-02
1.237070e-02
1.301236e-02
1.365674e-02
1.430385e-02
1.495371e-02
1.560632e-02
1.626167e-02
1.691977e-02
1.758062e-02
1.824426e-02
1.891066e-02
1.957982e-02
2.025176e-02
2.092649e-02
2.160403e-02
2.228441e-02
2.296759e-02
2.365356e-02
2.434232e-02
2.503389e-02
2.572832e-02
2.642560e-02
2.712572e-02
2.782868e-02
2.853449e-02
2.924316e-02
2.995468e-02
3.066906e-02
3.138632e-02
3.210647e-02
3.282951e-02
3.355541e-02
3.428420e-02
3.501589e-02
3.575050e-02
3.648805e-02
3.722851e-02
3.797187e-02
3.871815e-02
3.946738e-02
4.021957e-02
4.097475e-02
4.173290e-02
4.249400e-02
4.325806e-02
4.402507e-02
4.479506e-02
4.556805e-02
4.634405e-02
4.712304e-02
4.790501e-02
4.868997e-02
4.947794e-02
5.026894e-02
5.106296e-02
5.186002e-02
5.266010e-02
5.346323e-02
5.426940e-02
5.507861e-02
5.589087e-02
5.670619e-02
5.752458e-02
5.834605e-02
5.917059e-02
5.999820e-02
6.082889e-02
6.166269e-02
6.249959e-02
6.333960e-02
6.418272e-02
6.502895e-02
6.587832e-02
6.673082e-02
6.758645e-02
6.844522e-02
6.930717e-02
7.017228e-02
7.104053e-02
7.191192e-02
7.278648e-02
7.366424e-02
7.454520e-02
7.542935e-02
7.631666e-02
7.720712e-02
7.810076e-02
7.899761e-02
7.989769e-02
8.080099e-02
8.170751e-02
8.261725e-02
8.353021e-02
8.444641e-02
8.536584e-02
8.628853e-02
8.721449e-02
8.814371e-02
8.907619e-02
9.001191e-02
9.095089e-02
9.189316e-02
9.283873e-02
9.378760e-02
9.473976e-02
9.569519e-02
9.665390e-02
9.761593e-02
9.858128e-02
9.954997e-02
1.005220e-01
1.014973e-01
1.024760e-01
1.034579e-01
1.044433e-01
1.054319e-01
1.064240e-01
1.074194e-01
1.084181e-01
1.094203e-01
1.104257e-01
1.114346e-01
1.124469e-01
1.134626e-01
1.144817e-01
1.155041e-01
1.165300e-01
1.175593e-01
1.185920e-01
1.196281e-01
1.206677e-01
1.217107e-01
1.227572e-01
1.238070e-01
1.248604e-01
1.259171e-01
1.269774e-01
1.280411e-01
1.291083e-01
1.301789e-01
1.312530e-01
1.323306e-01
1.334116e-01
1.344962e-01
1.355843e-01
1.366758e-01
1.377709e-01
1.388695e-01
1.399715e-01
1.410771e-01
1.421863e-01
1.432990e-01
1.444152e-01
1.455349e-01
1.466581e-01
1.477849e-01
1.489153e-01
1.500492e-01
1.511867e-01
1.523277e-01
1.534723e-01
1.546205e-01
1.557722e-01
1.569276e-01
1.580865e-01
1.592491e-01
1.604152e-01
1.615849e-01
1.627581e-01
1.639350e-01
1.651155e-01
1.662997e-01
1.674874e-01
1.686787e-01
1.698737e-01
1.710723e-01
1.722745e-01
1.734804e-01
1.746900e-01
1.759031e-01
1.771199e-01
1.783404e-01
1.795645e-01
1.807923e-01
1.820238e-01
1.832590e-01
1.844978e-01
1.857403e-01
1.869865e-01
1.882364e-01
1.894899e-01
1.907472e-01
1.920082e-01
1.932728e-01
1.945412e-01
1.958133e-01
1.970891e-01
1.983687e-01
1.996520e-01
2.009390e-01
2.022297e-01
2.035242e-01
2.048223e-01
2.061243e-01
2.074300e-01
2.087395e-01
2.100528e-01
2.113697e-01
2.126905e-01
2.140150e-01
2.153433e-01
2.166753e-01
2.180112e-01
2.193508e-01
2.206942e-01
2.220413e-01
2.233923e-01
2.247470e-01
2.261056e-01
2.274679e-01
2.288341e-01
2.302040e-01
2.315777e-01
2.329552e-01
2.343366e-01
2.357218e-01
2.371108e-01
2.385037e-01
2.399004e-01
2.413009e-01
2.427052e-01
2.441133e-01
2.455253e-01
2.469412e-01
2.483609e-01
2.497845e-01
2.512119e-01
2.526431e-01
2.540783e-01
2.555173e-01
2.569602e-01
2.584070e-01
2.598576e-01
2.613121e-01
2.627705e-01
2.642327e-01
2.656989e-01
2.671690e-01
2.686429e-01
2.701207e-01
2.716023e-01
2.730880e-01
2.745775e-01
2.760710e-01
2.775683e-01
2.790695e-01
2.805746e-01
2.820837e-01
2.835967e-01
2.851136e-01
2.866345e-01
2.881592e-01
2.896878e-01
2.912203e-01
2.927568e-01
2.942973e-01
2.958417e-01
2.973900e-01
2.989422e-01
3.004984e-01
3.020585e-01
3.036226e-01
3.051906e-01
3.067626e-01
3.083386e-01
3.099185e-01
3.115023e-01
3.130901e-01
3.146818e-01
3.162776e-01
3.178773e-01
3.194810e-01
3.210886e-01
3.227001e-01
3.243157e-01
3.259352e-01
3.275588e-01
3.291863e-01
3.308177e-01
3.324531e-01
3.340925e-01
3.357359e-01
3.373833e-01
3.390347e-01
3.406900e-01
3.423494e-01
3.440127e-01
3.456800e-01
3.473512e-01
3.490265e-01
3.507058e-01
3.523891e-01
3.540763e-01
3.557675e-01
3.574627e-01
3.591619e-01
3.608652e-01
3.625724e-01
3.642836e-01
3.659988e-01
3.677180e-01
3.694412e-01
3.711684e-01
3.728996e-01
3.746349e-01
3.763741e-01
3.781173e-01
3.798645e-01
3.816157e-01
3.833709e-01
3.851301e-01
3.868933e-01
3.886606e-01
3.904318e-01
3.922071e-01
3.939863e-01
3.957696e-01
3.975569e-01
3.993482e-01
4.011435e-01
4.029428e-01
4.047461e-01
4.065534e-01
4.083647e-01
4.101800e-01
4.119993e-01
4.138227e-01
4.156500e-01
4.174812e-01
4.193161e-01
4.211544e-01
4.229960e-01
4.248408e-01
4.266887e-01
4.285393e-01
4.303916e-01
4.322421e-01
4.340820e-01
4.358939e-01
4.376513e-01
4.393254e-01
4.408974e-01
4.423708e-01
4.437739e-01
4.451516e-01
4.465512e-01
4.480127e-01
4.495627e-01
4.512081e-01
4.529297e-01
4.546819e-01
4.564042e-01
4.580415e-01
4.595652e-01
4.609818e-01
4.623259e-01
4.636469e-01
4.649936e-01
4.664022e-01
4.678955e-01
4.694884e-01
4.711864e-01
4.729768e-01
4.748283e-01
4.766973e-01
4.785309e-01
4.802744e-01
4.818876e-01
4.833642e-01
4.847389e-01
4.860829e-01
4.874826e-01
4.890059e-01
4.906811e-01
4.925030e-01
4.944424e-01
4.964453e-01
4.984465e-01
5.004007e-01
5.022983e-01
5.041558e-01
5.060114e-01
5.079305e-01
5.099922e-01
5.122507e-01
5.147024e-01
5.172897e-01
5.199348e-01
5.225646e-01
5.251141e-01
5.275338e-01
5.298097e-01
5.319697e-01
5.340633e-01
5.361388e-01
5.382356e-01
5.403846e-01
5.426103e-01
5.449272e-01
5.473335e-01
5.498068e-01
5.523038e-01
5.547696e-01
5.571655e-01
5.595011e-01
5.618310e-01
5.642074e-01
5.666329e-01
5.690661e-01
5.714724e-01
5.738608e-01
5.762630e-01
5.786863e-01
5.811030e-01
5.834729e-01
5.857710e-01
5.880116e-01
5.902540e-01
5.925635e-01
5.949572e-01
5.973989e-01
5.998387e-01
6.022332e-01
6.045399e-01
6.067248e-01
6.087750e-01
6.106884e-01
6.124599e-01
6.140837e-01
6.155569e-01
6.168828e-01
6.180909e-01
6.192537e-01
6.204740e-01
6.218574e-01
6.234903e-01
6.254116e-01
6.275908e-01
6.299500e-01
6.324116e-01
6.349140e-01
6.373997e-01
6.398091e-01
6.420875e-01
6.441895e-01
6.460889e-01
6.477959e-01
6.493599e-01
6.508371e-01
6.522541e-01
6.536190e-01
6.549564e-01
6.563066e-01
6.576988e-01
6.591543e-01
6.607079e-01
6.624078e-01
6.643019e-01
6.664250e-01
6.687723e-01
6.712655e-01
6.737582e-01
6.760897e-01
6.781407e-01
6.798565e-01
6.812314e-01
6.822736e-01
6.829901e-01
6.833988e-01
6.835249e-01
6.833691e-01
6.829037e-01
6.821116e-01
6.810102e-01
6.796313e-01
6.779980e-01
6.761183e-01
6.739798e-01
6.715541e-01
6.688264e-01
6.658304e-01
6.626440e-01
6.593519e-01
6.560186e-01
6.526913e-01
6.494071e-01
6.462041e-01
6.431388e-01
6.402829e-01
6.376925e-01
6.354044e-01
6.334739e-01
6.319805e-01
6.309687e-01
6.304148e-01
6.302605e-01
6.304201e-01
6.307176e-01
6.308691e-01
6.305718e-01
6.295924e-01
6.277818e-01
6.250898e-01
6.216066e-01
6.175312e-01
6.130453e-01
6.082578e-01
6.033248e-01
5.985814e-01
5.944723e-01
5.913202e-01
5.891705e-01
5.878448e-01
5.871114e-01
5.868115e-01
5.868764e-01
5.872566e-01
5.878558e-01
5.885633e-01
5.893553e-01
5.903200e-01
5.915532e-01
5.930511e-01
5.947217e-01
5.964492e-01
5.981068e-01
5.995460e-01
6.006393e-01
6.013509e-01
6.017471e-01
6.019347e-01
6.020096e-01
6.020609e-01
6.021740e-01
6.023733e-01
6.025701e-01
6.026357e-01
6.025420e-01
6.023530e-01
6.020533e-01
6.014611e-01
6.003203e-01
5.984073e-01
5.955600e-01
5.917122e-01
5.869459e-01
5.814951e-01
5.757251e-01
5.701115e-01
5.651579e-01
5.612351e-01
5.584272e-01
5.564832e-01
5.549271e-01
5.532729e-01
5.511598e-01
5.483199e-01
5.445608e-01
5.398948e-01
5.345760e-01
5.288913e-01
5.230158e-01
5.171307e-01
5.115497e-01
5.066607e-01
5.028188e-01
5.002799e-01
4.990480e-01
4.986216e-01
4.980126e-01
4.962891e-01
4.931979e-01
4.892056e-01
4.849605e-01
4.808064e-01
4.767185e-01
4.724292e-01
4.675646e-01
4.618942e-01
4.555342e-01
4.487786e-01
4.417456e-01
4.343316e-01
4.265076e-01
4.185235e-01
4.107577e-01
4.034273e-01
3.965322e-01
3.901235e-01
3.845400e-01
3.802490e-01
3.774833e-01
3.761083e-01
3.757646e-01
3.760188e-01
3.764190e-01
3.766068e-01
3.764767e-01
3.761102e-01
3.755387e-01
3.747973e-01
3.742965e-01
3.749449e-01
3.776900e-01
3.828535e-01
3.899141e-01
3.978720e-01
4.057041e-01
4.125811e-01
4.179917e-01
4.218463e-01
4.244189e-01
4.261015e-01
4.271158e-01
4.273871e-01
4.267066e-01
4.250109e-01
4.225244e-01
4.197248e-01
4.172036e-01
4.155382e-01
4.152515e-01
4.167019e-01
4.198387e-01
4.241044e-01
4.286469e-01
4.326376e-01
4.354948e-01
4.370052e-01
4.373592e-01
4.370136e-01
4.363873e-01
4.356734e-01
4.349785e-01
4.345318e-01
4.345814e-01
4.350681e-01
4.355294e-01
4.353559e-01
4.340628e-01
4.313539e-01
4.271452e-01
4.216660e-01
4.154513e-01
4.091162e-01
4.030869e-01
3.975147e-01
3.923893e-01
3.876682e-01
3.833137e-01
3.793325e-01
3.758634e-01
3.732076e-01
3.717161e-01
3.715560e-01
3.725553e-01
3.744089e-01
3.771359e-01
3.812434e-01
3.873532e-01
3.957633e-01
4.064534e-01
4.193311e-01
4.342540e-01
4.508557e-01
4.685079e-01
4.865381e-01
5.044731e-01
5.219839e-01
5.385818e-01
5.535042e-01
5.660375e-01
5.760012e-01
5.839242e-01
5.907661e-01
5.974419e-01
6.045162e-01
6.122829e-01
6.211276e-01
6.317560e-01
6.450061e-01
6.614481e-01
6.810921e-01
7.032625e-01
7.266556e-01
7.496942e-01
7.710456e-01
7.899362e-01
8.061120e-01
8.196348e-01
8.307615e-01
8.398661e-01
8.472249e-01
8.527760e-01
8.561801e-01
8.572094e-01
8.560980e-01
8.535441e-01
8.503937e-01
8.472058e-01
8.439273e-01
8.399459e-01
8.345238e-01
8.271601e-01
8.175759e-01
8.055996e-01
7.912624e-01
7.750083e-01
7.577794e-01
7.407841e-01
7.249509e-01
7.104922e-01
6.970664e-01
6.843181e-01
6.721072e-01
6.603183e-01
6.487030e-01
6.369065e-01
6.245686e-01
6.115207e-01
5.979368e-01
5.842053e-01
5.706607e-01
5.574137e-01
5.442831e-01
5.308159e-01
5.164028e-01
5.004147e-01
4.823261e-01
4.618485e-01
4.390298e-01
4.142078e-01
3.877850e-01
3.599993e-01
3.308855e-01
3.003926e-01
2.684822e-01
2.351212e-01
2.002351e-01
1.637006e-01
1.253394e-01
8.484144e-02
4.175940e-02
-4.211850e-03
-5.282602e-02
-1.032475e-01
-1.545263e-01
-2.061095e-01
-2.579097e-01
-3.099338e-01
-3.618592e-01
-4.129083e-01
-4.620291e-01
-5.082776e-01
-5.513083e-01
-5.916411e-01
-6.303973e-01
-6.687859e-01
-7.077934e-01
-7.480844e-01
-7.899719e-01
-8.334171e-01
-8.780071e-01
-9.229705e-01
-9.674117e-01
-1.010679e+00
-1.052494e+00
-1.092794e+00
-1.131640e+00
-1.169307e+00
-1.206328e+00
-1.243469e+00
-1.281574e+00
-1.321247e+00
-1.362614e+00
-1.405370e+00
-1.448783e+00
-1.491656e+00
-1.532666e+00
-1.570964e+00
-1.606399e+00
-1.639193e+00
-1.669580e+00
-1.697817e+00
-1.724296e+00
-1.749385e+00
-1.773223e+00
-1.795690e+00
-1.816595e+00
-1.835897e+00
-1.853757e+00
-1.870378e+00
-1.885739e+00
-1.899427e+00
-1.910796e+00
-1.919379e+00
-1.925107e+00
-1.928190e+00
-1.928952e+00
-1.927792e+00
-1.925206e+00
-1.921762e+00
-1.917972e+00
-1.914182e+00
-1.910512e+00
-1.906846e+00
-1.902918e+00
-1.898436e+00
-1.893151e+00
-1.886875e+00
-1.879435e+00
-1.870551e+00
-1.859753e+00
-1.846576e+00
-1.830883e+00
-1.812931e+00
-1.793196e+00
-1.772207e+00
-1.750559e+00
-1.729016e+00
-1.708498e+00
-1.689897e+00
-1.673880e+00
-1.660821e+00
-1.650778e+00
-1.643485e+00
-1.638359e+00
-1.634526e+00
-1.630945e+00
-1.626691e+00
-1.621250e+00
-1.614482e+00
-1.606365e+00
-1.596959e+00
-1.586450e+00
-1.574940e+00
-1.562222e+00
-1.547935e+00
-1.531943e+00
-1.514514e+00
-1.496167e+00
-1.477424e+00
-1.458635e+00
-1.439917e+00
-1.421189e+00
-1.402297e+00
-1.383161e+00
-1.363857e+00
-1.344579e+00
-1.325536e+00
-1.306891e+00
-1.288793e+00
-1.271387e+00
-1.254792e+00
-1.239102e+00
-1.224423e+00
-1.210853e+00
-1.198367e+00
-1.186673e+00
-1.175214e+00
-1.163365e+00
-1.150690e+00
-1.137035e+00
-1.122378e+00
-1.106561e+00
-1.089196e+00
-1.070009e+00
-1.049294e+00
-1.027757e+00
-1.005777e+00
-9.830593e-01
-9.591251e-01
-9.338164e-01
-9.072228e-01
-8.794740e-01
-8.507867e-01
-8.214279e-01
-7.915169e-01
-7.611371e-01
-7.307252e-01
-7.012029e-01
-6.737504e-01
-6.495155e-01
-6.293804e-01
-6.137499e-01
-6.024669e-01
-5.949853e-01
-5.906476e-01
-5.888223e-01
-5.889185e-01
-5.904268e-01
-5.929948e-01
-5.964572e-01
-6.007684e-01
-6.058494e-01
-6.114865e-01
-6.173657e-01
-6.231480e-01
-6.284804e-01
-6.329873e-01
-6.363536e-01
-6.384465e-01
-6.393202e-01
-6.391310e-01
-6.381122e-01
-6.366182e-01
-6.351514e-01
-6.343373e-01
-6.348197e-01
-6.371053e-01
-6.414867e-01
-6.481003e-01
-6.570315e-01
-6.684212e-01
-6.825918e-01
-7.001068e-01
-7.216516e-01
-7.477355e-01
-7.782831e-01
-8.122608e-01
-8.476449e-01
-8.819880e-01
-9.134465e-01
-9.415882e-01
-9.672205e-01
-9.913295e-01
-1.014141e+00
-1.035130e+00
-1.053780e+00
-1.070082e+00
-1.084077e+00
-1.094992e+00
-1.101229e+00
-1.101601e+00
-1.096502e+00
-1.087438e+00
-1.075324e+00
-1.059737e+00
-1.040046e+00
-1.016671e+00
-9.906398e-01
-9.624655e-01
-9.321257e-01
-8.998300e-01
-8.663502e-01
-8.327545e-01
-7.999414e-01
-7.682687e-01
-7.377570e-01
-7.088408e-01
-6.824945e-01
-6.592531e-01
-6.385850e-01
-6.196030e-01
-6.020373e-01
-5.862382e-01
-5.723645e-01
-5.597075e-01
-5.468911e-01
-5.327481e-01
-5.168518e-01
-4.992494e-01
-4.800592e-01
-4.594831e-01
-4.379881e-01
-4.163334e-01
-3.954736e-01
-3.764033e-01
-3.599644e-01
-3.467204e-01
-3.369602e-01
-3.308034e-01
-3.283282e-01
-3.295403e-01
-3.340974e-01
-3.410897e-01
-3.491851e-01
-3.570064e-01
-3.634748e-01
-3.679824e-01
-3.703181e-01
-3.704544e-01
-3.684549e-01
-3.645938e-01
-3.594834e-01
-3.540004e-01
-3.490254e-01
-3.451730e-01
-3.426510e-01
-3.412528e-01
-3.404353e-01
-3.394921e-01
-3.378265e-01
-3.351912e-01
-3.315622e-01
-3.266939e-01
-3.202098e-01
-3.123983e-01
-3.043518e-01
-2.969071e-01
-2.899128e-01
-2.827746e-01
-2.751806e-01
-2.670468e-01
-2.582200e-01
-2.485940e-01
-2.383804e-01
-2.281053e-01
-2.184686e-01
-2.101054e-01
-2.029386e-01
-1.956989e-01
-1.866790e-01
-1.751528e-01
-1.618076e-01
-1.478558e-01
-1.339884e-01
-1.202812e-01
-1.068989e-01
-9.450627e-02
-8.397667e-02
-7.592176e-02
-7.041214e-02
-6.704020e-02
-6.531621e-02
-6.491895e-02
-6.550116e-02
-6.639879e-02
-6.669003e-02
-6.562057e-02
-6.295377e-02
-5.883083e-02
-5.327747e-02
-4.603310e-02
-3.713221e-02
-2.748287e-02
-1.839032e-02
-1.052881e-02
-3.698756e-03
2.535220e-03
8.310857e-03
1.356564e-02
1.836789e-02
2.299568e-02
2.780518e-02
3.310071e-02
3.906769e-02
4.574590e-02
5.302712e-02
6.071291e-02
6.863946e-02
7.678735e-02
8.528812e-02
9.433667e-02
1.040455e-01
1.143012e-01
1.248345e-01
1.354916e-01
1.463157e-01
1.573530e-01
1.685162e-01
1.796088e-01
1.903707e-01
2.005614e-01
2.101066e-01
2.191284e-01
2.277470e-01
2.358361e-01
2.430079e-01
2.489014e-01
2.535160e-01
2.572986e-01
2.609847e-01
2.653613e-01
2.710722e-01
2.785228e-01
2.879081e-01
2.993680e-01
3.132050e-01
3.299645e-01
3.501472e-01
3.735855e-01
3.989609e-01
4.240422e-01
4.467490e-01
4.663556e-01
4.836352e-01
4.995752e-01
5.141137e-01
5.264368e-01
5.362102e-01
5.440089e-01
5.506561e-01
5.566569e-01
5.623187e-01
5.679455e-01
5.736612e-01
5.792847e-01
5.845853e-01
5.894888e-01
5.939341e-01
5.977283e-01
6.006105e-01
6.024200e-01
6.032505e-01
6.034317e-01
6.033472e-01
6.033171e-01
6.036008e-01
6.043813e-01
6.057344e-01
6.077303e-01
6.105902e-01
6.145064e-01
6.191048e-01
6.233949e-01
6.265372e-01
6.283398e-01
6.289533e-01
6.285746e-01
6.275399e-01
6.263881e-01
6.257058e-01
6.259069e-01
6.270857e-01
6.289911e-01
6.311800e-01
6.333642e-01
6.356755e-01
6.385562e-01
6.423863e-01
6.472035e-01
6.527344e-01
6.586444e-01
6.647330e-01
6.709636e-01
6.774011e-01
6.840815e-01
6.909156e-01
6.977760e-01
7.046054e-01
7.113073e-01
7.174848e-01
7.223870e-01
7.252570e-01
7.257093e-01
7.237517e-01
7.196068e-01
7.135532e-01
7.056691e-01
6.955524e-01
6.825595e-01
6.666286e-01
6.487759e-01
6.305462e-01
6.130128e-01
5.964919e-01
5.810560e-01
5.668324e-01
5.536492e-01
5.407604e-01
5.272427e-01
5.125888e-01
4.967430e-01
4.796720e-01
4.611666e-01
4.411316e-01
4.199132e-01
3.981972e-01
3.766106e-01
3.554569e-01
3.346988e-01
3.141154e-01
2.935550e-01
2.730894e-01
2.529560e-01
2.334156e-01
2.146034e-01
1.963157e-01
1.779392e-01
1.588858e-01
1.392093e-01
1.196117e-01
1.008192e-01
8.310663e-02
6.640202e-02
