EVENT_NAME: L_AQUILA
EVENT_ID: IT-2009-0009
EVENT_DATE_YYYYMMDD: 20090406
EVENT_TIME_HHMMSS: 013240
EVENT_LATITUDE_DEGREE: 42.3420
EVENT_LONGITUDE_DEGREE: 13.3800
EVENT_DEPTH_KM: 8.3
HYPOCENTER_REFERENCE: INGV-CNT_Seismic_Bulletin
MAGNITUDE_W: 6.1
MAGNITUDE_W_REFERENCE: INGV-CNT_Seismic_Bulletin
MAGNITUDE_L: 
MAGNITUDE_L_REFERENCE: 
FOCAL_MECHANISM: Normal faulting
NETWORK: IT
STATION_CODE: AQG
STATION_NAME: 
STATION_LATITUDE_DEGREE: 42.373474
STATION_LONGITUDE_DEGREE: 13.337026
STATION_ELEVATION_M: 721
LOCATION: 
SENSOR_DEPTH_M: 0.0
VS30_M/S: 696
SITE_CLASSIFICATION_EC8: B
MORPHOLOGIC_CLASSIFICATION: 
EPICENTRAL_DISTANCE_KM: 5.0
EARTHQUAKE_BACKAZIMUTH_DEGREE: 314.7
DATE_TIME_FIRST_SAMPLE_YYYYMMDD_HHMMSS: 20090406_013212.000
DATE_TIME_FIRST_SAMPLE_PRECISION: seconds
SAMPLING_INTERVAL_S: 0.005000
NDATA: 20000
DURATION_S: 100.000
STREAM: HNN
UNITS: cm/s
INSTRUMENT: sensor = FBA-3 [Kinemetrics] | digitizer = Everest [Kinemetrics]
INSTRUMENT_ANALOG/DIGITAL: D
INSTRUMENTAL_FREQUENCY_HZ: 212.000
INSTRUMENTAL_DAMPING: 0.000000
FULL_SCALE_G: 1.0
N_BIT_DIGITAL_CONVERTER: 24
PGV_CM/S: -35.763611
TIME_PGV_S: 33.195000
BASELINE_CORRECTION: BASELINE REMOVED
FILTER_TYPE: BUTTERWORTH
FILTER_ORDER: 2
LOW_CUT_FREQUENCY_HZ: 0.100
HIGH_CUT_FREQUENCY_HZ: 40.000
LATE/NORMAL_TRIGGERED: NT
DATABASE_VERSION: 0.5
HEADER_FORMAT: DYNA 1.2
DATA_TYPE: VELOCITY
PROCESSING: manual (Paolucci et al., 2011)
DATA_TIMESTAMP_YYYYMMDD_HHMMSS: 20211011_155348.252
DATA_LICENSE: CC-BY3_0-IT (http://creativecommons.org/licenses/by/3.0/deed.en)
DATA_CITATION: Luzi L, Pacor F, Puglia R (2019). Italian Accelerometric Archive v 3.0 - Istituto Nazionale di Geofisica e Vulcanologia, Dipartimento della Protezione Civile Nazionale. doi: 10.13127/itaca.3.1
DATA_CREATOR: ITACA working group
ORIGINAL_DATA_MEDIATOR_CITATION: data obtained within the DPC-INGV data exchange agreements
ORIGINAL_DATA_MEDIATOR: Archive of Italian Department of Civil Protection
ORIGINAL_DATA_CREATOR_CITATION: Presidency Of Counsil Of Ministers-Civil Protection Department. (1972). Italian Strong Motion Network. Presidency of Counsil of Ministers - Civil Protection Department. https://doi.org/10.7914/SN/IT http://www.fdsn.org/networks/detail/IT/
ORIGINAL_DATA_CREATOR: network: IT (Italian Strong Motion Network (RAN)); owner: Presidency of Counsil of Ministers - Civil Protection Department (PCM - DPC)
USER1: 
USER2: 
USER3: 
USER4: 
USER5: 
[...]
-0.042047
-0.042037
-0.042032
-0.042019
-0.042000
-0.041979
-0.041961
-0.041939
-0.041915
-0.041894
-0.041874
-0.041848
-0.041818
-0.041795
-0.041782
-0.041770
-0.041749
-0.041720
-0.041689
-0.041661
-0.041642
-0.041623
-0.041596
-0.041561
-0.041528
-0.041500
-0.041474
-0.041444
-0.041408
-0.041372
-0.041345
-0.041324
-0.041298
-0.041264
-0.041224
-0.041186
-0.041152
-0.041117
-0.041074
-0.041027
-0.040982
-0.040943
-0.040908
-0.040870
-0.040826
-0.040779
-0.040738
-0.040702
-0.040664
-0.040617
-0.040556
-0.040499
-0.040460
-0.040427
-0.040381
-0.040320
-0.040262
-0.040217
-0.040175
-0.040121
-0.040059
-0.040000
-0.039950
-0.039903
-0.039853
-0.039800
-0.039746
-0.039693
-0.039640
-0.039584
-0.039524
-0.039463
-0.039407
-0.039357
-0.039307
-0.039248
-0.039185
-0.039123
-0.039062
-0.038997
-0.038929
-0.038869
-0.038814
-0.038753
-0.038679
-0.038606
-0.038540
-0.038477
-0.038411
-0.038342
-0.038272
-0.038205
-0.038141
-0.038077
-0.038005
-0.037925
-0.037845
-0.037774
-0.037706
-0.037630
-0.037545
-0.037462
-0.037388
-0.037317
-0.037237
-0.037148
-0.037062
-0.036986
-0.036911
-0.036833
-0.036753
-0.036672
-0.036589
-0.036502
-0.036416
-0.036333
-0.036253
-0.036171
-0.036082
-0.035988
-0.035893
-0.035801
-0.035715
-0.035626
-0.035524
-0.035414
-0.035311
-0.035220
-0.035133
-0.035036
-0.034928
-0.034818
-0.034714
-0.034615
-0.034512
-0.034407
-0.034304
-0.034201
-0.034095
-0.033985
-0.033873
-0.033762
-0.033652
-0.033548
-0.033450
-0.033347
-0.033228
-0.033097
-0.032974
-0.032869
-0.032769
-0.032656
-0.032525
-0.032392
-0.032272
-0.032162
-0.032050
-0.031925
-0.031789
-0.031654
-0.031530
-0.031410
-0.031286
-0.031158
-0.031030
-0.030901
-0.030768
-0.030632
-0.030500
-0.030373
-0.030247
-0.030114
-0.029975
-0.029836
-0.029698
-0.029557
-0.029412
-0.029266
-0.029126
-0.028988
-0.028845
-0.028693
-0.028538
-0.028390
-0.028246
-0.028100
-0.027946
-0.027788
-0.027636
-0.027492
-0.027347
-0.027197
-0.027040
-0.026881
-0.026721
-0.026563
-0.026406
-0.026248
-0.026091
-0.025934
-0.025774
-0.025606
-0.025436
-0.025274
-0.025119
-0.024958
-0.024784
-0.024609
-0.024443
-0.024281
-0.024113
-0.023942
-0.023772
-0.023602
-0.023427
-0.023247
-0.023061
-0.022877
-0.022698
-0.022526
-0.022351
-0.022163
-0.021966
-0.021775
-0.021597
-0.021421
-0.021231
-0.021031
-0.020835
-0.020644
-0.020454
-0.020262
-0.020070
-0.019876
-0.019675
-0.019473
-0.019275
-0.019080
-0.018883
-0.018682
-0.018480
-0.018278
-0.018070
-0.017855
-0.017640
-0.017432
-0.017230
-0.017022
-0.016800
-0.016571
-0.016348
-0.016137
-0.015933
-0.015720
-0.015492
-0.015258
-0.015037
-0.014831
-0.014622
-0.014397
-0.014165
-0.013937
-0.013714
-0.013488
-0.013253
-0.013017
-0.012789
-0.012564
-0.012330
-0.012086
-0.011842
-0.011603
-0.011370
-0.011136
-0.010895
-0.010649
-0.010402
-0.010152
-0.009902
-0.009657
-0.009419
-0.009173
-0.008913
-0.008645
-0.008383
-0.008135
-0.007892
-0.007638
-0.007368
-0.007096
-0.006834
-0.006583
-0.006331
-0.006066
-0.005793
-0.005523
-0.005261
-0.005000
-0.004730
-0.004454
-0.004180
-0.003910
-0.003640
-0.003362
-0.003079
-0.002797
-0.002517
-0.002239
-0.001960
-0.001672
-0.001376
-0.001080
-0.000788
-0.000502
-0.000216
0.000079
0.000380
0.000683
0.000985
0.001285
0.001579
0.001875
0.002181
0.002496
0.002812
0.003124
0.003431
0.003739
0.004051
0.004367
0.004682
0.004998
0.005312
0.005623
0.005940
0.006263
0.006586
0.006907
0.007229
0.007556
0.007884
0.008210
0.008532
0.008858
0.009192
0.009532
0.009869
0.010203
0.010537
0.010877
0.011224
0.011574
0.011925
0.012277
0.012626
0.012972
0.013319
0.013673
0.014030
0.014385
0.014732
0.015080
0.015437
0.015800
0.016163
0.016527
0.016897
0.017266
0.017630
0.017991
0.018358
0.018733
0.019111
0.019487
0.019861
0.020234
0.020612
0.020997
0.021389
0.021778
0.022160
0.022541
0.022928
0.023320
0.023712
0.024103
0.024497
0.024895
0.025292
0.025685
0.026083
0.026489
0.026897
0.027301
0.027703
0.028107
0.028517
0.028934
0.029354
0.029771
0.030182
0.030592
0.031014
0.031441
0.031861
0.032276
0.032700
0.033135
0.033567
0.033993
0.034420
0.034853
0.035289
0.035723
0.036159
0.036595
0.037031
0.037471
0.037918
0.038368
0.038815
0.039259
0.039707
0.040165
0.040627
0.041081
0.041529
0.041984
0.042451
0.042923
0.043390
0.043852
0.044313
0.044783
0.045261
0.045736
0.046203
0.046669
0.047147
0.047632
0.048113
0.048586
0.049058
0.049538
0.050027
0.050521
0.051014
0.051504
0.051995
0.052491
0.052990
0.053489
0.053986
0.054484
0.054986
0.055489
0.055987
0.056487
0.056997
0.057515
0.058031
0.058538
0.059043
0.059558
0.060082
0.060610
0.061139
0.061664
0.062188
0.062717
0.063254
0.063794
0.064327
0.064854
0.065384
0.065922
0.066463
0.067006
0.067552
0.068099
0.068645
0.069190
0.069737
0.070285
0.070833
0.071386
0.071945
0.072507
0.073067
0.073625
0.074190
0.074762
0.075334
0.075904
0.076475
0.077053
0.077634
0.078215
0.078797
0.079379
0.079966
0.080554
0.081141
0.081727
0.082315
0.082911
0.083514
0.084115
0.084708
0.085300
0.085900
0.086508
0.087113
0.087712
0.088309
0.088912
0.089527
0.090151
0.090770
0.091383
0.091997
0.092618
0.093245
0.093869
0.094489
0.095115
0.095748
0.096382
0.097012
0.097641
0.098276
0.098920
0.099569
0.100215
0.100859
0.101506
0.102155
0.102805
0.103457
0.104111
0.104767
0.105428
0.106093
0.106756
0.107417
0.108083
0.108756
0.109432
0.110106
0.110779
0.111455
0.112138
0.112824
0.113510
0.114196
0.114881
0.115565
0.116251
0.116942
0.117638
0.118337
0.119039
0.119743
0.120446
0.121146
0.121848
0.122555
0.123270
0.123984
0.124692
0.125397
0.126107
0.126827
0.127555
0.128287
0.129015
0.129733
0.130451
0.131183
0.131923
0.132660
0.133390
0.134121
0.134859
0.135603
0.136346
0.137088
0.137834
0.138587
0.139346
0.140106
0.140860
0.141612
0.142375
0.143147
0.143915
0.144667
0.145412
0.146171
0.146952
0.147744
0.148527
0.149298
0.150065
0.150838
0.151621
0.152414
0.153207
0.153993
0.154772
0.155554
0.156349
0.157152
0.157956
0.158759
0.159564
0.160370
0.161173
0.161977
0.162786
0.163598
0.164411
0.165229
0.166049
0.166861
0.167673
0.168499
0.169342
0.170184
0.171014
0.171837
0.172663
0.173500
0.174345
0.175191
0.176034
0.176874
0.177717
0.178566
0.179419
0.180274
0.181133
0.181998
0.182861
0.183716
0.184569
0.185433
0.186308
0.187185
0.188056
0.188922
0.189794
0.190671
0.191549
0.192431
0.193316
0.194205
0.195094
0.195983
0.196874
0.197769
0.198668
0.199573
0.200479
0.201385
0.202289
0.203196
0.204104
0.205013
0.205928
0.206848
0.207766
0.208676
0.209585
0.210502
0.211432
0.212371
0.213302
0.214223
0.215141
0.216068
0.217011
0.217964
0.218917
0.219859
0.220787
0.221717
0.222664
0.223628
0.224594
0.225550
0.226497
0.227442
0.228398
0.229369
0.230344
0.231309
0.232269
0.233232
0.234203
0.235177
0.236152
0.237129
0.238114
0.239100
0.240080
0.241054
0.242033
0.243021
0.244020
0.245020
0.246013
0.247000
0.247995
0.249002
0.250013
0.251020
0.252025
0.253035
0.254047
0.255059
0.256074
0.257093
0.258119
0.259148
0.260174
0.261193
0.262210
0.263234
0.264270
0.265316
0.266358
0.267388
0.268414
0.269452
0.270502
0.271559
0.272616
0.273666
0.274711
0.275758
0.276808
0.277863
0.278923
0.279986
0.281050
0.282113
0.283170
0.284226
0.285293
0.286373
0.287450
0.288520
0.289593
0.290674
0.291762
0.292850
0.293933
0.295014
0.296100
0.297193
0.298292
0.299386
0.300474
0.301571
0.302690
0.303821
0.304939
0.306026
0.307089
0.308153
0.309242
0.310380
0.311634
0.313151
0.315079
0.317263
0.318847
0.318240
0.313866
0.305533
0.295357
0.287017
0.283545
0.285580
0.291550
0.299057
0.305929
0.310627
0.312362
0.311066
0.307323
0.302326
0.297593
0.294481
0.293693
0.294439
0.294561
0.293106
0.292779
0.298428
0.312499
0.332147
0.350167
0.358302
0.351528
0.331231
0.304790
0.282376
0.272766
0.279468
0.299279
0.324006
0.344338
0.353575
0.349686
0.336764
0.323999
0.319442
0.323655
0.330377
0.333562
0.332635
0.330208
0.327796
0.327495
0.334211
0.350211
0.369387
0.381533
0.380939
0.368378
0.347654
0.324000
0.303995
0.293620
0.295918
0.310003
0.331461
0.354326
0.372103
0.377244
0.365567
0.343819
0.327188
0.326473
0.339390
0.354098
0.360236
0.357137
0.352419
0.353422
0.361047
0.371015
0.377485
0.375822
0.365786
0.351741
0.338995
0.332045
0.334883
0.348395
0.367439
0.384483
0.395831
0.400856
0.397676
0.384145
0.361577
0.335195
0.311981
0.297915
0.295050
0.301447
0.314684
0.332396
0.349949
0.363580
0.375239
0.389182
0.405562
0.420378
0.427881
0.420776
0.394287
0.354639
0.319693
0.306680
0.319431
0.347518
0.373410
0.379763
0.359209
0.322902
0.294580
0.292078
0.314367
0.346431
0.374600
0.393586
0.402057
0.399267
0.387196
0.371707
0.357752
0.344183
0.326279
0.300784
0.266506
0.225648
0.185886
0.155479
0.136948
0.128058
0.123698
0.115214
0.094374
0.059735
0.017283
-0.022697
-0.049452
-0.058549
-0.057283
-0.059787
-0.074496
-0.097182
-0.115145
-0.116412
-0.096532
-0.059242
-0.012717
0.034080
0.074564
0.107807
0.138989
0.173794
0.209633
0.234213
0.236770
0.218255
0.183922
0.131666
0.060789
-0.013752
-0.074096
-0.124004
-0.180990
-0.241452
-0.274189
-0.256567
-0.199695
-0.131564
-0.073299
-0.037888
-0.033553
-0.056673
-0.090104
-0.117454
-0.135664
-0.149978
-0.163989
-0.177957
-0.187436
-0.181749
-0.153572
-0.111077
-0.073186
-0.052480
-0.046543
-0.048074
-0.062973
-0.107708
-0.182903
-0.263968
-0.324320
-0.354651
-0.356030
-0.328252
-0.275190
-0.215564
-0.177702
-0.183996
-0.243080
-0.349988
-0.486904
-0.625547
-0.735031
-0.792050
-0.787862
-0.730602
-0.640526
-0.540141
-0.446838
-0.370769
-0.321495
-0.318185
-0.375895
-0.470419
-0.538614
-0.532104
-0.460169
-0.370477
-0.298453
-0.244215
-0.183028
-0.087534
0.043684
0.170654
0.230167
0.180119
0.040272
-0.119800
-0.241983
-0.312544
-0.342233
-0.348117
-0.357192
-0.396392
-0.466220
-0.544547
-0.620816
-0.702270
-0.786135
-0.852539
-0.894694
-0.942675
-1.033331
-1.148624
-1.214917
-1.182806
-1.083992
-0.999012
-0.982329
-1.027776
-1.111962
-1.240370
-1.407149
-1.548737
-1.602412
-1.578919
-1.522080
-1.428889
-1.259768
-1.012440
-0.751600
-0.559445
-0.469035
-0.464733
-0.529876
-0.639624
-0.713043
-0.644772
-0.416611
-0.145731
0.013238
0.013585
-0.059202
-0.102965
-0.092469
-0.050635
0.011152
0.092215
0.177042
0.231998
0.222723
0.138421
-0.005910
-0.190146
-0.384482
-0.527799
-0.555281
-0.458993
-0.293190
-0.116278
0.044463
0.168359
0.224225
0.206804
0.160833
0.129462
0.092379
-0.012410
-0.209057
-0.443640
-0.627426
-0.723562
-0.789587
-0.923285
-1.172434
-1.510645
-1.874554
-2.185231
-2.356294
-2.345050
-2.208163
-2.071980
-2.036473
-2.108497
-2.217281
-2.286888
-2.282786
-2.193995
-2.012588
-1.756825
-1.489573
-1.281372
-1.153619
-1.074510
-1.013678
-0.984052
-1.022543
-1.135570
-1.260738
-1.282431
-1.111248
-0.777465
-0.432837
-0.225143
-0.177946
-0.214357
-0.259499
-0.267506
-0.193466
-0.030080
0.134519
0.163980
-0.008376
-0.330953
-0.696055
-1.025158
-1.291629
-1.495266
-1.650730
-1.795423
-1.972720
-2.186650
-2.378465
-2.458358
-2.369985
-2.128787
-1.795843
-1.428548
-1.073345
-0.788016
-0.639523
-0.657048
-0.767348
-0.793791
-0.570076
-0.078083
0.532106
1.062133
1.418102
1.659543
1.897050
2.166133
2.436033
2.696103
2.955563
3.184900
3.334266
3.392916
3.376486
3.281895
3.095511
2.822907
2.488686
2.119644
1.728849
1.315937
0.899749
0.543598
0.322964
0.272309
0.386383
0.658170
1.067479
1.544377
2.010350
2.449899
2.882226
3.285118
3.623825
3.963047
4.478863
5.283801
6.257262
7.133318
7.755728
8.194438
8.634018
9.200316
9.901215
10.678937
11.445443
12.079861
12.478896
12.640369
12.652574
12.582984
12.416054
12.117848
11.715906
11.275964
10.838548
10.424594
10.063369
9.771201
9.539786
9.391180
9.391515
9.511834
9.542456
9.307626
8.928643
8.727354
8.887429
9.326068
9.871362
10.426203
10.945780
11.376414
11.684318
11.919616
12.196400
12.583341
13.053888
13.550190
14.025067
14.419689
14.684366
14.847212
15.012280
15.256284
15.553339
15.829387
16.049917
16.217655
16.325085
16.350813
16.293364
16.182367
16.042818
15.858696
15.593674
15.243821
14.836815
14.372020
13.797710
13.070963
12.215264
11.291935
10.333183
9.328948
8.267122
7.158611
6.022772
4.873159
3.720524
2.568496
1.402733
0.200207
-1.039176
-2.275611
-3.456885
-4.555588
-5.567130
-6.483463
-7.279541
-7.920673
-8.400800
-8.795227
-9.245997
-9.869168
-10.689571
-11.651178
-12.668483
-13.684741
-14.692643
-15.702934
-16.717716
-17.739922
-18.781948
-19.858904
-20.987099
-22.184551
-23.465712
-24.839691
-26.307783
-27.850206
-29.414959
-30.923702
-32.287708
-33.427258
-34.299725
-34.922153
-35.354168
-35.639572
-35.763611
-35.675068
-35.324223
-34.644054
-33.533127
-31.959509
-30.140175
-28.508640
-27.357712
-26.628153
-26.135202
-25.775375
-25.478584
-25.164915
-24.756353
-24.188791
-23.433582
-22.485910
-21.351265
-20.069164
-18.721155
-17.405365
-16.199183
-15.121165
-14.128244
-13.161194
-12.186403
-11.188191
-10.128341
-8.939925
-7.587435
-6.127554
-4.693432
-3.412007
-2.326875
-1.387371
-0.499299
0.411875
1.360224
2.297105
3.146998
3.852498
4.397085
4.801094
5.103585
5.342738
5.548549
5.745805
5.955587
6.194703
6.454381
6.670124
6.762713
6.741175
6.724462
6.842418
7.158132
7.692756
8.465428
9.459792
10.552873
11.499404
12.030501
12.072863
11.909744
11.997220
12.549525
13.369781
14.075603
14.429647
14.484672
14.462320
14.508985
14.564589
14.454304
14.115003
13.707348
13.465771
13.474250
13.625173
13.771324
13.879492
14.013660
14.201816
14.394494
14.558497
14.699412
14.727815
14.454091
13.835344
13.062869
12.264679
11.249872
9.691140
7.528088
5.131753
3.081526
1.754078
1.086928
0.722799
0.338147
-0.164090
-0.683062
-1.051183
-1.149898
-0.965652
-0.573480
-0.083996
0.402166
0.827576
1.185364
1.511342
1.867315
2.270988
2.638652
2.866433
2.969523
3.084904
3.337967
3.756370
4.291225
4.865985
5.434679
6.002177
6.558568
7.047638
7.425021
7.685884
7.840865
7.912344
7.927386
7.890441
7.806382
7.728357
7.670134
7.445775
6.803757
5.788121
4.720407
3.791886
2.912875
1.958359
0.978296
0.162986
-0.299075
-0.339416
-0.071234
0.259113
0.429410
0.341046
-0.030158
-0.678030
-1.525756
-2.436454
-3.296053
-4.045893
-4.655486
-5.104492
-5.398399
-5.583842
-5.719921
-5.841773
-5.956095
-6.052183
-6.133655
-6.245945
-6.450713
-6.780973
-7.232307
-7.779574
-8.373924
-8.950170
-9.519236
-10.214581
-11.111330
-12.050426
-12.795061
-13.323887
-13.848969
-14.555923
-15.408414
-16.212900
-16.805313
-17.142975
-17.267717
-17.238365
-17.083509
-16.793186
-16.371643
-15.876650
-15.373686
-14.887805
-14.427078
-14.011493
-13.651342
-13.322120
-12.980630
-12.603902
-12.215259
-11.870559
-11.607646
-11.405707
-11.202347
-10.962764
-10.719869
-10.524203
-10.375950
-10.237017
-10.096630
-10.002006
-10.028082
-10.224449
-10.579646
-11.023916
-11.465665
-11.829134
-12.073030
-12.197967
-12.234480
-12.192080
-12.010884
-11.583591
-10.830258
-9.763712
-8.541023
-7.485064
-6.964905
-7.121273
-7.680252
-8.079824
-7.848890
-6.966646
-5.857561
-4.923884
-4.121778
-3.133529
-1.832725
-0.396522
0.933322
2.057652
3.035513
3.982726
4.966479
5.961846
6.903620
7.776145
8.619028
9.456024
10.277966
11.105057
12.012821
13.047343
14.101024
14.975557
15.674601
16.468830
17.524834
18.670507
19.634947
20.323132
20.784063
21.055704
21.128172
21.015593
20.791611
20.531076
20.237452
19.843630
19.287477
18.589401
17.845442
17.135290
16.458069
15.770417
15.054248
14.314610
13.542192
12.724061
11.876098
11.031255
10.186135
9.304098
8.415024
7.630236
7.006675
6.479669
5.938596
5.284127
4.405600
3.190329
1.638598
-0.003183
-1.284189
-1.880740
-1.948652
-2.000085
-2.362701
-2.895758
-3.269596
-3.356618
-3.274897
-3.186256
-3.161586
-3.190378
-3.255813
-3.389698
-3.644534
-4.019759
-4.435934
-4.787009
-5.021334
-5.171631
-5.303068
-5.443008
-5.571401
-5.669707
-5.780689
-6.007722
-6.386957
-6.774709
-6.977483
-6.980120
-6.942449
-7.001899
-7.168093
-7.384103
-7.602296
-7.792937
-7.937300
-8.032378
-8.084929
-8.089954
-8.018552
-7.840584
-7.554412
-7.184591
-6.761904
-6.307599
-5.835905
-5.373519
-4.958380
-4.610364
-4.315755
-4.044479
-3.768283
-3.461011
-3.107809
-2.719009
-2.318284
-1.921680
-1.529383
-1.132261
-0.738436
-0.390793
-0.141095
-0.007566
0.041491
0.068322
0.126357
0.231944
0.367282
0.505924
0.638128
0.774108
0.928400
1.114509
1.345167
1.614470
1.886963
2.119358
2.290574
2.410621
2.506615
2.605410
2.723124
2.851999
2.955871
2.992721
2.944856
2.829391
2.683141
2.538517
2.415588
2.326552
2.277077
2.265839
2.288954
2.355188
2.500069
2.772326
3.194546
3.734853
4.318097
4.870059
5.351702
5.749664
6.058761
6.286572
6.452006
6.579054
6.695831
6.818609
6.937442
7.031585
7.096911
7.152993
7.220945
7.301500
7.380766
7.445529
7.484175
7.478407
7.409908
7.282289
7.116352
6.917079
6.668930
6.369725
6.050289
5.754591
5.514605
5.346737
5.253013
5.205425
5.138569
5.016958
4.922567
4.991662
5.250250
5.583141
5.860370
6.042540
6.167032
6.271981
6.351101
6.372118
6.327229
6.249301
6.170035
6.081407
5.954523
5.781757
5.580669
5.366778
5.147960
4.942937
4.780225
4.669048
4.580636
4.466999
4.300025
4.101192
3.904397
3.645092
3.190602
2.580895
2.076919
1.848253
1.770098
1.620705
1.345769
1.052003
0.837728
0.717370
0.677690
0.723952
0.850243
1.018165
1.193946
1.385752
1.634879
1.979167
2.427032
2.953637
3.506449
4.004867
4.347445
4.471986
4.417484
4.276347
4.101366
3.900817
3.680264
3.440271
3.160594
2.825781
2.449672
2.049784
1.620540
1.147093
0.617463
0.010356
-0.695412
-1.489856
-2.342048
-3.236635
-4.173961
-5.146909
-6.131136
-7.080738
-7.926095
-8.605796
-9.139473
-9.665027
-10.333785
-11.133930
-11.896912
-12.509334
-13.022543
-13.520080
-13.966891
-14.234787
-14.219227
-13.911012
-13.399700
-12.799127
-12.138958
-11.347198
-10.365831
-9.296026
-8.383311
-7.800822
-7.492755
-7.265885
-6.970878
-6.576489
-6.129311
-5.676646
-5.218245
-4.713553
-4.119906
-3.430436
-2.692663
-1.989160
-1.392473
-0.933435
-0.599361
-0.345507
-0.114320
0.121340
0.323729
0.448627
