EVENT_NAME: L_AQUILA
EVENT_ID: IT-2009-0009
EVENT_DATE_YYYYMMDD: 20090406
EVENT_TIME_HHMMSS: 013240
EVENT_LATITUDE_DEGREE: 42.3420
EVENT_LONGITUDE_DEGREE: 13.3800
EVENT_DEPTH_KM: 8.3
HYPOCENTER_REFERENCE: INGV-CNT_Seismic_Bulletin
MAGNITUDE_W: 6.1
MAGNITUDE_W_REFERENCE: INGV-CNT_Seismic_Bulletin
MAGNITUDE_L: 
MAGNITUDE_L_REFERENCE: 
FOCAL_MECHANISM: Normal faulting
NETWORK: IT
STATION_CODE: AQG
STATION_NAME: 
STATION_LATITUDE_DEGREE: 42.373474
STATION_LONGITUDE_DEGREE: 13.337026
STATION_ELEVATION_M: 721
LOCATION: 
SENSOR_DEPTH_M: 0.0
VS30_M/S: 696
SITE_CLASSIFICATION_EC8: B
MORPHOLOGIC_CLASSIFICATION: 
EPICENTRAL_DISTANCE_KM: 5.0
EARTHQUAKE_BACKAZIMUTH_DEGREE: 314.7
DATE_TIME_FIRST_SAMPLE_YYYYMMDD_HHMMSS: 20090406_013212.000
DATE_TIME_FIRST_SAMPLE_PRECISION: seconds
SAMPLING_INTERVAL_S: 0.005000
NDATA: 61400
DURATION_S: 307.000
STREAM: HNE
UNITS: cm/s^2
INSTRUMENT: sensor = FBA-3 [Kinemetrics] | digitizer = Everest [Kinemetrics]
INSTRUMENT_ANALOG/DIGITAL: D
INSTRUMENTAL_FREQUENCY_HZ: 202.000
INSTRUMENTAL_DAMPING: 0.000000
FULL_SCALE_G: 1.0
N_BIT_DIGITAL_CONVERTER: 24
PGA_CM/S^2: -473.464996
TIME_PGA_S: 33.560000
BASELINE_CORRECTION: BASELINE NOT REMOVED
FILTER_TYPE: 
FILTER_ORDER: 
LOW_CUT_FREQUENCY_HZ: 
HIGH_CUT_FREQUENCY_HZ: 
LATE/NORMAL_TRIGGERED: NT
DATABASE_VERSION: 0.5
HEADER_FORMAT: DYNA 1.2
DATA_TYPE: ACCELERATION
PROCESSING: converted to cm/s^2
DATA_TIMESTAMP_YYYYMMDD_HHMMSS: 20211011_155347.106
DATA_LICENSE: CC-BY3_0-IT (http://creativecommons.org/licenses/by/3.0/deed.en)
DATA_CITATION: Luzi L, Pacor F, Puglia R (2019). Italian Accelerometric Archive v 3.0 - Istituto Nazionale di Geofisica e Vulcanologia, Dipartimento della Protezione Civile Nazionale. doi: 10.13127/itaca.3.1
DATA_CREATOR: ITACA working group
ORIGINAL_DATA_MEDIATOR_CITATION: data obtained within the DPC-INGV data exchange agreements
ORIGINAL_DATA_MEDIATOR: Archive of Italian Department of Civil Protection
ORIGINAL_DATA_CREATOR_CITATION: Presidency Of Counsil Of Ministers-Civil Protection Department. (1972). Italian Strong Motion Network. Presidency of Counsil of Ministers - Civil Protection Department. https://doi.org/10.7914/SN/IT http://www.fdsn.org/networks/detail/IT/
ORIGINAL_DATA_CREATOR: network: IT (Italian Strong Motion Network (RAN)); owner: Presidency of Counsil of Ministers - Civil Protection Department (PCM - DPC)
USER1: 
USER2: 
USER3: 
USER4: 
USER5: 
[...]
0.115985
0.098093
0.098795
0.114348
0.106864
0.112360
0.107098
0.099145
0.109203
0.111658
0.108735
0.102654
0.104525
0.110021
0.111542
0.109437
0.105460
0.101367
0.103238
0.113880
0.111191
0.106045
0.103940
0.103940
0.114933
0.108735
0.102537
0.109553
0.109670
0.108735
0.098561
0.099730
0.115635
0.118090
0.109320
0.102420
0.102303
0.102888
0.108735
0.110372
0.112477
0.108969
0.101601
0.107799
0.105227
0.111308
0.110723
0.100783
0.108618
0.109203
0.110606
0.106279
0.103122
0.110372
0.107799
0.105110
0.107448
0.109787
0.104525
0.104291
0.106513
0.113530
0.117038
0.099262
0.100315
0.106864
0.107332
0.118558
0.111658
0.099496
0.100198
0.108150
0.119026
0.107448
0.097391
0.110957
0.110255
0.106747
0.107448
0.103005
0.110840
0.110723
0.104642
0.108384
0.104174
0.105811
0.111658
0.105694
0.111542
0.108618
0.101250
0.108267
0.104174
0.108033
0.110138
0.104876
0.115050
0.112711
0.094935
0.099262
0.111308
0.111775
0.115518
0.101718
0.098561
0.113296
0.110489
0.108969
0.105110
0.106045
0.108501
0.103940
0.108969
0.109203
0.104408
0.111425
0.113647
0.103005
0.104876
0.103238
0.105460
0.120780
0.105811
0.098210
0.112594
0.107565
0.104642
0.109437
0.107098
0.105577
0.107448
0.112360
0.108735
0.097274
0.104057
0.118207
0.114114
0.105227
0.097976
0.101017
0.115401
0.112126
0.108735
0.109670
0.100198
0.108735
0.107448
0.099730
0.114465
0.110606
0.106747
0.110840
0.102186
0.106162
0.109437
0.105227
0.108033
0.107332
0.109553
0.112711
0.103472
0.101718
0.109320
0.112243
0.112711
0.103472
0.099145
0.105811
0.109904
0.118324
0.111542
0.093298
0.102888
0.116102
0.108969
0.108501
0.107916
0.104174
0.109787
0.108852
0.106747
0.104759
0.101601
0.113296
0.116804
0.103940
0.099964
0.104057
0.115751
0.112009
0.099730
0.109203
0.108033
0.108501
0.107565
0.097625
0.116102
0.116921
0.101952
0.108384
0.099847
0.096690
0.118324
0.118207
0.106279
0.102420
0.101601
0.110723
0.110021
0.105343
0.103706
0.105577
0.115985
0.106396
0.101952
0.112828
0.105694
0.103589
0.111074
0.108852
0.107448
0.106513
0.103940
0.108969
0.110723
0.108735
0.108384
0.102186
0.107215
0.110840
0.105227
0.112594
0.106747
0.102186
0.110723
0.102888
0.107332
0.117857
0.104174
0.101718
0.112243
0.106747
0.105577
0.108618
0.111191
0.110021
0.098678
0.106864
0.113179
0.107332
0.108618
0.106162
0.108150
0.110255
0.101952
0.105811
0.114582
0.104876
0.105577
0.115050
0.109437
0.099262
0.099730
0.113062
0.111191
0.104759
0.111191
0.105811
0.104057
0.110840
0.102888
0.106279
0.114933
0.103940
0.103940
0.104876
0.106162
0.116687
0.108618
0.102771
0.107799
0.106630
0.107682
0.109320
0.106045
0.108618
0.108384
0.107098
0.113530
0.100432
0.100666
0.117857
0.110840
0.106279
0.103940
0.103355
0.112360
0.110957
0.108384
0.106513
0.105811
0.111542
0.103122
0.101484
0.112945
0.109787
0.109437
0.105811
0.101367
0.109320
0.107448
0.110606
0.116219
0.102654
0.098327
0.106630
0.108969
0.114582
0.110021
0.098912
0.109670
0.112360
0.103706
0.108969
0.105811
0.108267
0.109203
0.099964
0.110957
0.109203
0.104057
0.109437
0.108033
0.111542
0.105928
0.099730
0.107098
0.111074
0.105811
0.113997
0.113179
0.095988
0.105343
0.111191
0.107682
0.108384
0.103005
0.107098
0.115401
0.111191
0.100081
0.102537
0.115518
0.111308
0.097859
0.107682
0.106630
0.101718
0.117623
0.112126
0.108969
0.103589
0.095871
0.113296
0.112711
0.103355
0.105343
0.107098
0.109437
0.108618
0.105110
0.103823
0.109787
0.115284
0.106864
0.097508
0.106747
0.113997
0.105460
0.110840
0.113413
0.099028
0.104759
0.106630
0.105928
0.114582
0.105694
0.108735
0.111658
0.103122
0.105343
0.109904
0.111191
0.104057
0.103940
0.108852
0.105928
0.108033
0.111425
0.103005
0.107682
0.118909
0.100432
0.096807
0.113062
0.110606
0.107215
0.105811
0.107098
0.108150
0.102303
0.108501
0.115050
0.105928
0.101718
0.110138
0.115868
0.101601
0.095052
0.115518
0.117973
0.106162
0.102303
0.099262
0.105227
0.112828
0.112945
0.110255
0.107215
0.101250
0.104642
0.112009
0.108501
0.107332
0.104291
0.110372
0.110840
0.099496
0.107799
0.108618
0.110372
0.115284
0.101835
0.103238
0.110138
0.105343
0.109904
0.113880
0.105928
0.102771
0.106747
0.107682
0.109670
0.109787
0.108267
0.108267
0.106396
0.109086
0.103706
0.102420
0.117857
0.111308
0.099145
0.105577
0.108735
0.109553
0.110021
0.108033
0.110723
0.106630
0.101250
0.104525
0.107799
0.114348
0.109904
0.103940
0.113763
0.104876
0.095052
0.110606
0.116219
0.111775
0.104876
0.103472
0.108969
0.099262
0.106396
0.121950
0.111191
0.103122
0.102654
0.103472
0.110138
0.112360
0.108618
0.110606
0.105811
0.100432
0.110021
0.107565
0.107215
0.110021
0.107799
0.111425
0.105928
0.106630
0.102420
0.100549
0.122768
0.116570
0.097976
0.101952
0.106162
0.113413
0.112711
0.107215
0.107098
0.100783
0.104057
0.112360
0.111775
0.109904
0.110489
0.102537
0.102771
0.113179
0.103122
0.106747
0.113179
0.108150
0.110840
0.098327
0.107916
0.116336
0.099028
0.106864
0.114348
0.110255
0.102771
0.096807
0.109203
0.116687
0.109086
0.109553
0.107916
0.096456
0.103122
0.112945
0.116336
0.112477
0.096807
0.106513
0.116570
0.100783
0.104057
0.113413
0.111658
0.110255
0.096807
0.100666
0.114582
0.109904
0.112243
0.110957
0.103472
0.107332
0.106981
0.107332
0.108501
0.104993
0.112360
0.109320
0.101952
0.108618
0.106396
0.106630
0.114933
0.111775
0.102771
0.101601
0.105928
0.113179
0.108852
0.102771
0.115751
0.110957
0.099730
0.101017
0.106864
0.121950
0.110840
0.101484
0.110138
0.099379
0.103823
0.117740
0.112477
0.110021
0.104993
0.096105
0.108150
0.115167
0.104408
0.112243
0.114582
0.100549
0.096456
0.104759
0.121716
0.113880
0.097274
0.105227
0.112126
0.108735
0.102069
0.108267
0.115868
0.105811
0.105928
0.112009
0.105227
0.101367
0.106396
0.113763
0.113997
0.106864
0.102303
0.102069
0.112945
0.117155
0.104291
0.105577
0.110606
0.100900
0.104291
0.113997
0.104993
0.111658
0.116687
0.099379
0.109320
0.108852
0.095052
0.113413
0.115284
0.105227
0.108969
0.102654
0.107098
0.112243
0.108735
0.113296
0.104408
0.102069
0.105811
0.105577
0.114699
0.113880
0.107799
0.104642
0.105343
0.107215
0.104408
0.103472
0.117623
0.120312
0.092830
0.098327
0.117740
0.108618
0.106630
0.114582
0.108618
0.095988
0.105811
0.115985
0.109553
0.104876
0.104525
0.108501
0.113179
0.114933
0.106162
0.109670
0.118324
0.106747
0.127563
0.145806
0.159021
0.245560
0.403551
0.665624
0.899980
0.872966
0.563064
0.207202
0.190947
0.669015
1.166730
0.781866
-0.224089
-0.631523
-0.640644
-0.867399
-0.863423
0.061489
1.829687
3.004042
2.465046
0.362621
-1.224781
-0.981654
-1.027262
-2.579347
-4.108394
-2.789613
0.385074
2.212914
3.300262
4.185647
3.164840
0.377941
-1.077197
-2.017547
-1.796873
1.214677
1.268822
-2.401943
-4.959515
-3.541799
-0.176142
2.077726
4.262831
6.825431
7.421263
1.542472
-4.516179
-5.153409
-4.516062
-1.036267
-0.232977
-2.596655
0.377824
2.802547
-0.112173
-1.455746
4.854452
10.566130
7.998617
2.280508
-2.316222
-3.427895
-4.622832
-4.760709
-0.772908
0.829112
1.864186
1.459091
-2.841887
-3.516305
0.365428
3.917845
2.462473
-0.672570
0.648901
2.712383
2.577546
0.434425
-2.303592
-3.968646
-5.554527
-5.601188
-2.340079
2.424466
4.538468
4.633310
6.756434
5.489343
-2.076019
-5.500382
1.167315
8.109013
5.357546
-1.105147
-5.336309
-7.882772
-6.790512
-4.470103
-1.459839
2.125206
2.418502
1.625035
-1.452238
-5.211647
-1.553979
4.383400
5.060040
3.692727
3.484449
1.534637
-2.581218
-4.348364
-3.704468
-2.076838
-1.612218
-0.185380
6.851627
7.316130
-0.832784
-3.255168
-1.412945
2.555444
6.179431
3.906852
0.545288
-0.285017
-1.359852
-6.324956
-6.348112
2.277350
8.417862
9.495504
7.513181
10.112500
13.222520
6.421740
0.057513
0.079148
3.880891
6.850224
8.550711
11.243000
8.928441
4.769667
4.090806
5.309599
6.688373
5.950337
3.683956
0.744678
-3.231546
-7.914347
-9.398487
-5.639078
-2.297979
-0.609888
2.072698
-1.628941
-13.597960
-16.406719
-2.110284
12.235980
13.055050
7.534816
3.977019
4.822526
8.450724
7.260347
7.467806
13.997160
16.535900
10.293880
-1.572924
-7.654146
-5.217962
-0.121646
2.252441
2.373127
9.184666
11.366500
5.351465
-1.957554
-7.361083
-0.245607
9.192618
11.993430
5.362809
-7.823130
-12.842030
-2.454100
16.978889
20.103870
14.477800
19.090780
25.870859
29.642200
24.012390
17.979700
12.697440
0.732165
-6.565628
-7.900430
-1.931008
11.661430
20.359400
18.051270
12.414550
8.684144
6.609318
7.621822
5.924609
9.318801
19.345140
23.816509
25.066759
13.761400
-8.891299
-25.818291
-30.780001
-18.780581
3.095376
15.106140
15.305770
18.994070
26.839750
36.480289
27.551941
-8.807919
-21.818090
-11.305730
-9.186701
3.324703
20.064699
16.054911
-14.096960
-35.250660
-8.771666
18.230890
19.606979
24.018230
22.727871
14.420500
11.795680
3.338386
-5.564818
8.420201
26.125799
34.978611
48.519001
54.031879
44.182819
16.147409
-16.217739
-25.517509
-4.889231
32.170540
49.137760
36.545429
17.285870
0.389167
-14.285240
-24.050320
-29.831350
-20.236071
4.054787
18.736210
19.824261
29.842291
45.247250
21.458670
-10.385850
-18.040440
-20.044041
-10.069400
-6.799049
-0.901781
8.911718
19.321400
32.037922
19.691530
2.652274
-15.683190
-17.840231
4.450877
29.927311
60.725410
63.517349
50.652649
34.595612
6.444895
-8.863116
-18.772160
-20.402710
-3.386614
16.220150
16.184481
-6.596852
-31.931431
-41.076832
-24.928690
-6.511717
9.871597
32.660999
32.325489
28.732731
54.788040
76.604118
58.824841
22.434811
9.472583
15.051290
29.884390
38.517109
31.605110
11.586350
-31.635679
-50.477402
-41.600391
-27.223141
2.407509
36.767731
68.718559
48.237629
4.580685
2.505508
-7.272323
-49.457409
-66.750793
-30.287430
-8.678461
-20.129650
-33.678928
-32.377930
4.895149
27.471359
22.964331
8.796762
-8.432410
-2.089234
7.898629
22.495850
36.039051
35.876270
51.393021
68.648514
57.211472
15.258400
-19.167431
-5.151186
21.560530
30.483379
35.658520
38.558510
34.105968
28.579531
32.402210
35.957081
38.918339
26.261339
-4.514074
-23.181080
-34.845798
-27.611750
-4.609968
25.040440
47.829029
14.596500
-36.367130
-48.100620
-36.253578
-30.062901
-37.346539
-52.428379
-62.419048
-39.791500
-5.949098
-16.653589
-60.316509
-88.907639
-93.737793
-77.100243
-32.515572
13.968740
24.208620
20.941080
25.786551
23.373171
14.347410
2.565969
8.606610
20.239531
27.983351
27.129190
17.445379
9.569296
-40.441471
-60.635410
-30.607510
-30.400869
-40.831131
-72.861710
-119.443001
-70.544807
34.171692
-15.108060
-114.926598
-105.986397
-78.334587
-84.337097
-124.186203
-116.327904
-82.292450
-107.079803
-144.408798
-156.883194
-148.275406
-96.638947
-11.911850
16.850370
29.092800
25.037519
-17.737431
-10.866370
-19.949200
-33.093391
-21.141100
-31.420971
-21.446211
-25.094280
-21.589821
-32.703270
-156.573105
-239.684906
-118.920601
14.706430
-39.634441
-151.179306
-164.337204
-80.698730
-77.047852
-179.947693
-179.435394
-114.780998
-118.408501
-177.575302
-185.558304
-150.008102
-155.298294
-142.791702
-135.179794
-142.520203
-107.173599
-94.437119
-144.684799
-163.621094
-123.549500
-132.414398
-155.994400
-139.080002
-123.814102
-139.015900
-185.119598
-168.570694
-132.974396
-140.971100
-149.026306
-156.328293
-148.551193
-126.208397
-82.408234
-96.435226
-119.356201
-58.894932
-42.815670
-51.760860
-32.740688
-11.043310
15.202620
41.706299
63.382980
55.349251
58.900379
74.642143
76.151543
84.180939
68.426552
41.045681
20.968330
-14.428500
-47.707809
-80.631607
-95.922073
-43.511139
5.262003
-4.992610
-12.439740
-32.687599
-44.555569
-18.775551
-12.661580
11.303460
48.016960
68.469116
97.570236
111.199997
104.959801
90.900208
94.098633
115.976196
132.183701
143.658600
145.328201
152.455399
168.060394
169.998093
163.129898
167.287201
185.162399
193.795395
178.138702
147.930695
116.520798
88.658974
51.280411
27.867809
28.725941
-1.526147
-36.989391
-69.851913
-26.389910
156.610901
203.474396
110.559601
167.352600
285.272095
277.836487
206.408401
156.733307
116.441498
113.674301
128.436996
120.201500
127.308197
144.141602
162.716797
173.035004
146.183807
110.982697
127.228401
163.660706
172.413498
186.703201
177.762207
138.043594
139.556503
147.098007
127.611801
141.632202
167.502594
174.506393
182.670898
183.385498
192.780701
197.148697
192.370499
208.905396
214.193497
203.700500
193.182907
201.967102
195.147202
146.783905
158.183502
181.535706
183.492599
225.058701
219.763901
165.206894
141.575699
113.108002
27.830151
-74.143417
-151.524994
-227.723602
-336.851196
-414.035492
-375.147186
-263.868988
-175.888901
-105.933197
9.892062
60.747990
-15.624720
-162.037201
-360.100586
-473.464996
-402.280792
-198.891296
24.207451
96.118141
54.588760
46.447571
-33.970119
-105.421097
-35.470871
13.685270
-0.395529
-42.687851
-112.040703
-116.220200
41.164841
107.080399
-15.414450
-76.091362
-139.194595
-152.946793
-87.800636
-60.190441
-13.978140
-4.607629
-55.738609
-140.979294
-178.627396
-175.988403
-214.401505
-232.613297
-236.718094
-226.920807
-221.236893
-237.238907
-239.022400
-209.813904
-185.443100
-227.787292
-240.396698
-179.758499
-129.524994
-99.323051
-99.386673
-137.951508
-146.621399
-102.206902
-54.481918
-37.512718
-25.537390
3.571105
22.985609
59.559601
47.489189
0.534763
49.250721
105.786499
135.841293
140.160797
133.263702
123.602402
7.917340
31.661831
260.123993
321.971802
250.841797
217.434799
189.932907
153.019394
59.101990
-50.635509
-117.591599
-181.256195
-193.503693
-121.494904
-7.497206
66.615547
-10.980630
-148.858795
-162.355606
-100.122498
-81.186157
-64.113113
-61.081791
-97.906616
-104.061203
-141.201004
-172.215393
-127.213402
-81.619202
-33.649109
-21.752131
-15.999290
44.813499
92.309853
104.576401
136.926804
159.938904
117.930496
92.365288
143.985306
286.504791
337.214386
257.227295
264.285004
261.522614
222.014496
194.859695
183.895599
232.163300
242.433807
243.812393
250.462799
215.010101
170.587494
122.881599
113.024101
115.051300
77.351509
78.809921
110.384300
113.848099
153.419205
198.734406
185.655594
150.749405
130.907104
113.454102
68.138870
35.495380
43.232540
46.651871
24.377020
17.488529
41.122280
63.622131
57.097919
44.211479
48.134369
12.711470
-36.535061
-68.863503
-92.689034
-64.059898
-48.203529
-97.304359
-157.059402
-209.452499
-270.062897
-323.339905
-339.381195
-309.643311
-270.438110
-254.548798
-223.090195
-200.273193
-206.533493
-210.520798
-209.450607
-243.516296
-275.136414
-166.855499
-107.238998
-178.212204
-182.332397
-143.531998
-28.707161
83.013130
73.614197
57.876068
39.557678
43.525711
72.841316
79.021942
104.440697
146.576004
187.113205
186.210907
127.031700
31.842159
77.054932
222.642197
172.975906
100.783302
118.686798
109.166199
83.582649
52.466461
22.883169
11.784690
78.889908
126.905701
123.648399
114.112701
85.636887
59.191929
6.330523
-33.789330
-49.000389
-35.971039
-39.890900
-52.532581
-24.672001
-22.799601
-6.091302
-52.375290
-116.561897
-98.473450
-122.734100
-127.820702
-115.643303
-113.532097
-107.126404
-141.768707
-159.613693
-159.998596
-134.067993
-74.969856
-49.194172
-42.635811
-26.789631
-81.576988
-185.560699
-234.468704
-232.122604
-208.550095
-197.322006
-165.087204
-96.917847
-32.293259
-16.299490
-55.782459
-62.520790
-35.200150
-16.742121
13.533240
38.554760
34.885281
67.548882
108.746597
135.477203
138.006699
70.168320
51.003479
68.972557
146.187698
236.233902
177.818802
123.422096
102.863403
68.565826
29.738100
7.058501
50.534660
53.647591
25.838711
11.396780
-5.935883
9.627067
10.781770
-9.093964
-20.080759
-26.414700
-25.106680
-19.247540
2.057612
9.289448
-6.496397
-7.817283
-1.824121
-6.856702
2.320035
24.796261
27.732269
22.139990
23.138229
38.538620
42.372410
38.435600
60.567539
91.422707
118.138603
122.075996
118.342697
108.921204
97.665787
124.504402
152.962402
166.615295
185.366196
209.942200
230.937897
233.396500
230.125900
228.120300
224.221802
213.566299
199.508896
186.263199
175.099594
161.692398
130.704300
105.551903
100.417297
105.398003
111.198700
111.213097
103.938202
71.319633
40.968262
33.819221
15.659290
-5.686207
-36.276970
-114.073402
-171.758194
-167.282104
-165.530701
-164.825104
-161.868607
-147.169800
-114.525200
-130.478394
-169.759399
-180.158905
-167.380402
-150.718002
-139.590103
-134.132004
-149.315094
-171.650208
-184.925598
-177.952896
-150.133698
-114.035599
-96.819633
-91.182213
-77.931717
-84.875053
-93.090271
-93.692757
-90.368736
-90.747414
-94.513832
-97.092934
-99.081329
-90.804008
-88.161057
-62.964359
-74.031967
-101.252602
-75.611313
-29.850760
20.167839
-1.386515
-29.642599
-42.720482
-61.588039
-40.055321
-41.934151
-50.838760
-35.067410
-22.556129
-28.735109
-18.628780
3.959477
5.875610
8.805065
17.025551
21.035219
13.416760
34.049950
70.896179
82.647682
88.943260
91.155258
101.166603
115.560997
112.786598
55.248329
-10.747440
95.353798
246.212296
230.922897
178.426102
150.615707
116.195999
63.653469
20.344660
54.982159
99.221733
107.268204
97.030777
82.318367
75.602951
23.800480
-61.362690
-109.292702
-112.838402
-96.398514
-92.168282
-89.456337
-73.841820
-93.215157
-136.410095
-145.360306
-156.413696
-164.821701
-143.937698
-174.544907
-202.939102
-167.518799
-136.605499
-129.897400
-147.776505
-138.212494
-115.124001
-113.290802
-111.945000
-117.721901
-92.217506
-78.519943
-65.790909
-27.986670
-3.899181
27.355360
53.814941
85.661453
60.170631
30.481039
57.021320
100.925797
188.638000
189.936707
153.869095
154.108307
131.337402
92.359322
-4.946534
-73.028587
-93.629967
-94.115639
-55.886890
-59.804878
-65.123863
-47.294640
-41.780022
9.000361
81.337914
124.135101
122.323799
86.883636
73.011703
56.948582
49.198219
67.968483
65.291039
57.699478
50.178909
45.351219
45.145630
63.612659
78.297470
59.558781
84.447220
55.250900
10.301020
51.394661
52.799870
76.377831
79.625717
36.883862
18.051380
-19.603161
-40.319611
-76.985397
-103.301498
-97.644669
-101.010696
-82.888634
-53.895100
-70.904877
-121.543900
-136.476105
-140.739594
