EVENT_NAME: L_AQUILA
EVENT_ID: IT-2009-0009
EVENT_DATE_YYYYMMDD: 20090406
EVENT_TIME_HHMMSS: 013240
EVENT_LATITUDE_DEGREE: 42.3420
EVENT_LONGITUDE_DEGREE: 13.3800
EVENT_DEPTH_KM: 8.3
HYPOCENTER_REFERENCE: INGV-CNT_Seismic_Bulletin
MAGNITUDE_W: 6.1
MAGNITUDE_W_REFERENCE: INGV-CNT_Seismic_Bulletin
MAGNITUDE_L: 
MAGNITUDE_L_REFERENCE: 
FOCAL_MECHANISM: Normal faulting
NETWORK: IT
STATION_CODE: AQG
STATION_NAME: 
STATION_LATITUDE_DEGREE: 42.373474
STATION_LONGITUDE_DEGREE: 13.337026
STATION_ELEVATION_M: 721
LOCATION: 
SENSOR_DEPTH_M: 0.0
VS30_M/S: 696
SITE_CLASSIFICATION_EC8: B
MORPHOLOGIC_CLASSIFICATION: 
EPICENTRAL_DISTANCE_KM: 5.0
EARTHQUAKE_BACKAZIMUTH_DEGREE: 314.7
DATE_TIME_FIRST_SAMPLE_YYYYMMDD_HHMMSS: 
DATE_TIME_FIRST_SAMPLE_PRECISION: 
SAMPLING_INTERVAL_S: 
NDATA: 105
DURATION_S: 
STREAM: HNZ
UNITS: cm
INSTRUMENT: sensor = FBA-3 [Kinemetrics] | digitizer = Everest [Kinemetrics]
INSTRUMENT_ANALOG/DIGITAL: D
INSTRUMENTAL_FREQUENCY_HZ: 208.000
INSTRUMENTAL_DAMPING: 0.000000
FULL_SCALE_G: 1.0
N_BIT_DIGITAL_CONVERTER: 24
PGD_CM: -1.928952
TIME_PGD_S: 
BASELINE_CORRECTION: BASELINE REMOVED
FILTER_TYPE: BUTTERWORTH
FILTER_ORDER: 2
LOW_CUT_FREQUENCY_HZ: 0.100
HIGH_CUT_FREQUENCY_HZ: 40.000
LATE/NORMAL_TRIGGERED: NT
DATABASE_VERSION: 0.5
HEADER_FORMAT: DYNA 1.2
DATA_TYPE: DISPLACEMENT RESPONSE SPECTRUM
PROCESSING: manual (Paolucci et al., 2011)
DATA_TIMESTAMP_YYYYMMDD_HHMMSS: 20211011_155349.757
DATA_LICENSE: CC-BY3_0-IT (http://creativecommons.org/licenses/by/3.0/deed.en)
DATA_CITATION: Luzi L, Pacor F, Puglia R (2019). Italian Accelerometric Archive v 3.0 - Istituto Nazionale di Geofisica e Vulcanologia, Dipartimento della Protezione Civile Nazionale. doi: 10.13127/itaca.3.1
DATA_CREATOR: ITACA working group
ORIGINAL_DATA_MEDIATOR_CITATION: data obtained within the DPC-INGV data exchange agreements
ORIGINAL_DATA_MEDIATOR: Archive of Italian Department of Civil Protection
ORIGINAL_DATA_CREATOR_CITATION: Presidency Of Counsil Of Ministers-Civil Protection Department. (1972). Italian Strong Motion Network. Presidency of Counsil of Ministers - Civil Protection Department. https://doi.org/10.7914/SN/IT http://www.fdsn.org/networks/detail/IT/
ORIGINAL_DATA_CREATOR: network: IT (Italian Strong Motion Network (RAN)); owner: Presidency of Counsil of Ministers - Civil Protection Department (PCM - DPC)
USER1: 
USER2: 
USER3: 
USER4: 
USER5: 
    0.010000     0.000608
    0.020000     0.002826
    0.022000     0.003756
    0.025000     0.005589
    0.029000     0.007760
    0.030000     0.008280
    0.032000     0.008108
    0.035001     0.010236
    0.036000     0.010307
    0.040000     0.014129
    0.041999     0.018366
    0.044001     0.021594
    0.045000     0.022788
    0.046000     0.024415
    0.048001     0.027490
    0.050000     0.031092
    0.054999     0.039159
    0.059999     0.038126
    0.064998     0.046417
    0.067002     0.055870
    0.069999     0.066463
    0.075002     0.069499
    0.080000     0.076394
    0.084998     0.086612
    0.090001     0.105442
    0.095003     0.119197
    0.100000     0.130582
    0.109999     0.129213
    0.120005     0.160932
    0.130005     0.182784
    0.132996     0.223204
    0.139997     0.316946
    0.149993     0.425205
    0.160000     0.434239
    0.170010     0.447922
    0.179986     0.464648
    0.190006     0.381840
    0.200000     0.285948
    0.220022     0.398356
    0.239981     0.353803
    0.250000     0.334270
    0.260010     0.385480
    0.280034     0.518480
    0.290023     0.516053
    0.300030     0.528008
    0.320000     0.749178
    0.340020     1.008450
    0.350017     1.051337
    0.359971     1.035494
    0.379939     0.956800
    0.400000     0.949053
    0.419992     0.969555
    0.439947     1.017337
    0.450045     0.949736
    0.459982     0.851651
    0.480077     0.815576
    0.500000     0.889256
    0.550055     1.113315
    0.599880     1.485005
    0.650195     2.520373
    0.667111     2.691282
    0.699790     2.687857
    0.750188     2.201861
    0.800000     2.509085
    0.850340     2.817453
    0.900090     3.079036
    0.949668     2.948664
    1.000000     2.782433
    1.100110     2.760738
    1.200480     3.208036
    1.300390     3.055434
    1.400560     2.845064
    1.499250     2.664600
    1.600000     2.471739
    1.700680     2.297746
    1.798561     2.402981
    1.901141     3.206200
    2.000000     3.550881
    2.197802     4.106119
    2.398082     3.907501
    2.500000     3.737969
    2.597403     3.711251
    2.801121     3.461802
    3.003003     3.817456
    3.205128     3.949304
    3.401361     3.881948
    3.496503     3.788752
    3.597122     3.664282
    3.802281     3.344229
    4.000000     2.966849
    4.201681     2.709446
    4.405286     2.709687
    4.608295     2.680876
    4.807692     2.632971
    5.000000     2.615078
    5.494505     2.689772
    5.988024     2.753685
    6.493506     2.793163
    6.993007     2.812735
    7.518797     2.814596
    8.000000     2.800899
    8.474576     2.775304
    9.009009     2.741549
    9.523809     2.702032
   10.000000     2.658012
