EVENT_NAME: L_AQUILA
EVENT_ID: IT-2009-0009
EVENT_DATE_YYYYMMDD: 20090406
EVENT_TIME_HHMMSS: 013240
EVENT_LATITUDE_DEGREE: 42.3420
EVENT_LONGITUDE_DEGREE: 13.3800
EVENT_DEPTH_KM: 8.3
HYPOCENTER_REFERENCE: INGV-CNT_Seismic_Bulletin
MAGNITUDE_W: 6.1
MAGNITUDE_W_REFERENCE: INGV-CNT_Seismic_Bulletin
MAGNITUDE_L: 
MAGNITUDE_L_REFERENCE: 
FOCAL_MECHANISM: Normal faulting
NETWORK: IT
STATION_CODE: AQG
STATION_NAME: 
STATION_LATITUDE_DEGREE: 42.373474
STATION_LONGITUDE_DEGREE: 13.337026
STATION_ELEVATION_M: 721
LOCATION: 
SENSOR_DEPTH_M: 0.0
VS30_M/S: 696
SITE_CLASSIFICATION_EC8: B
MORPHOLOGIC_CLASSIFICATION: 
EPICENTRAL_DISTANCE_KM: 5.0
EARTHQUAKE_BACKAZIMUTH_DEGREE: 314.7
DATE_TIME_FIRST_SAMPLE_YYYYMMDD_HHMMSS: 20090406_013212.000
DATE_TIME_FIRST_SAMPLE_PRECISION: seconds
SAMPLING_INTERVAL_S: 0.005000
NDATA: 20000
DURATION_S: 100.000
STREAM: HNZ
UNITS: cm/s
INSTRUMENT: sensor = FBA-3 [Kinemetrics] | digitizer = Everest [Kinemetrics]
INSTRUMENT_ANALOG/DIGITAL: D
INSTRUMENTAL_FREQUENCY_HZ: 208.000
INSTRUMENTAL_DAMPING: 0.000000
FULL_SCALE_G: 1.0
N_BIT_DIGITAL_CONVERTER: 24
PGV_CM/S: -10.404805
TIME_PGV_S: 32.635000
BASELINE_CORRECTION: BASELINE REMOVED
FILTER_TYPE: BUTTERWORTH
FILTER_ORDER: 2
LOW_CUT_FREQUENCY_HZ: 0.100
HIGH_CUT_FREQUENCY_HZ: 40.000
LATE/NORMAL_TRIGGERED: NT
DATABASE_VERSION: 0.5
HEADER_FORMAT: DYNA 1.2
DATA_TYPE: VELOCITY
PROCESSING: manual (Paolucci et al., 2011)
DATA_TIMESTAMP_YYYYMMDD_HHMMSS: 20211011_155348.890
DATA_LICENSE: CC-BY3_0-IT (http://creativecommons.org/licenses/by/3.0/deed.en)
DATA_CITATION: Luzi L, Pacor F, Puglia R (2019). Italian Accelerometric Archive v 3.0 - Istituto Nazionale di Geofisica e Vulcanologia, Dipartimento della Protezione Civile Nazionale. doi: 10.13127/itaca.3.1
DATA_CREATOR: ITACA working group
ORIGINAL_DATA_MEDIATOR_CITATION: data obtained within the DPC-INGV data exchange agreements
ORIGINAL_DATA_MEDIATOR: Archive of Italian Department of Civil Protection
ORIGINAL_DATA_CREATOR_CITATION: Presidency Of Counsil Of Ministers-Civil Protection Department. (1972). Italian Strong Motion Network. Presidency of Counsil of Ministers - Civil Protection Department. https://doi.org/10.7914/SN/IT http://www.fdsn.org/networks/detail/IT/
ORIGINAL_DATA_CREATOR: network: IT (Italian Strong Motion Network (RAN)); owner: Presidency of Counsil of Ministers - Civil Protection Department (PCM - DPC)
USER1: 
USER2: 
USER3: 
USER4: 
USER5: 
[...]
-0.020535
-0.020479
-0.020427
-0.020373
-0.020316
-0.020256
-0.020198
-0.020145
-0.020091
-0.020032
-0.019969
-0.019905
-0.019845
-0.019788
-0.019731
-0.019671
-0.019607
-0.019542
-0.019476
-0.019412
-0.019350
-0.019289
-0.019226
-0.019162
-0.019093
-0.019022
-0.018955
-0.018893
-0.018827
-0.018757
-0.018685
-0.018613
-0.018546
-0.018481
-0.018412
-0.018337
-0.018263
-0.018193
-0.018126
-0.018056
-0.017979
-0.017901
-0.017828
-0.017758
-0.017682
-0.017600
-0.017520
-0.017444
-0.017372
-0.017296
-0.017215
-0.017132
-0.017051
-0.016973
-0.016897
-0.016818
-0.016733
-0.016647
-0.016567
-0.016489
-0.016409
-0.016325
-0.016238
-0.016151
-0.016065
-0.015981
-0.015894
-0.015804
-0.015715
-0.015629
-0.015544
-0.015454
-0.015361
-0.015268
-0.015179
-0.015091
-0.015000
-0.014904
-0.014807
-0.014712
-0.014619
-0.014526
-0.014430
-0.014332
-0.014234
-0.014138
-0.014041
-0.013943
-0.013844
-0.013744
-0.013644
-0.013541
-0.013435
-0.013330
-0.013229
-0.013129
-0.013026
-0.012919
-0.012809
-0.012702
-0.012597
-0.012492
-0.012383
-0.012273
-0.012162
-0.012052
-0.011943
-0.011834
-0.011726
-0.011615
-0.011503
-0.011390
-0.011277
-0.011164
-0.011051
-0.010937
-0.010820
-0.010700
-0.010580
-0.010463
-0.010348
-0.010233
-0.010115
-0.009995
-0.009873
-0.009750
-0.009627
-0.009504
-0.009381
-0.009259
-0.009135
-0.009010
-0.008883
-0.008756
-0.008629
-0.008501
-0.008372
-0.008243
-0.008112
-0.007981
-0.007851
-0.007723
-0.007594
-0.007460
-0.007323
-0.007185
-0.007048
-0.006911
-0.006776
-0.006642
-0.006506
-0.006365
-0.006221
-0.006077
-0.005934
-0.005796
-0.005656
-0.005512
-0.005364
-0.005217
-0.005072
-0.004928
-0.004781
-0.004633
-0.004484
-0.004334
-0.004186
-0.004038
-0.003888
-0.003733
-0.003578
-0.003426
-0.003273
-0.003119
-0.002965
-0.002810
-0.002655
-0.002499
-0.002341
-0.002179
-0.002018
-0.001859
-0.001702
-0.001547
-0.001387
-0.001221
-0.001054
-0.000891
-0.000730
-0.000567
-0.000398
-0.000224
-0.000053
0.000113
0.000277
0.000445
0.000619
0.000794
0.000965
0.001138
0.001315
0.001491
0.001664
0.001834
0.002006
0.002185
0.002368
0.002551
0.002730
0.002908
0.003088
0.003271
0.003455
0.003638
0.003823
0.004012
0.004202
0.004386
0.004570
0.004758
0.004951
0.005144
0.005335
0.005522
0.005712
0.005906
0.006103
0.006298
0.006491
0.006685
0.006881
0.007080
0.007280
0.007478
0.007678
0.007881
0.008085
0.008286
0.008483
0.008685
0.008895
0.009107
0.009315
0.009518
0.009723
0.009932
0.010145
0.010358
0.010571
0.010783
0.010995
0.011208
0.011424
0.011643
0.011866
0.012086
0.012301
0.012512
0.012730
0.012957
0.013187
0.013415
0.013637
0.013858
0.014081
0.014308
0.014538
0.014769
0.015001
0.015233
0.015465
0.015697
0.015930
0.016163
0.016398
0.016634
0.016871
0.017108
0.017345
0.017583
0.017823
0.018065
0.018308
0.018553
0.018795
0.019034
0.019275
0.019525
0.019780
0.020030
0.020272
0.020513
0.020762
0.021020
0.021280
0.021532
0.021783
0.022039
0.022298
0.022556
0.022813
0.023073
0.023336
0.023597
0.023857
0.024117
0.024380
0.024646
0.024915
0.025183
0.025451
0.025717
0.025986
0.026258
0.026532
0.026807
0.027082
0.027358
0.027634
0.027908
0.028181
0.028460
0.028744
0.029029
0.029308
0.029584
0.029864
0.030152
0.030442
0.030729
0.031012
0.031296
0.031584
0.031873
0.032165
0.032459
0.032753
0.033046
0.033338
0.033629
0.033922
0.034221
0.034525
0.034828
0.035127
0.035424
0.035724
0.036027
0.036333
0.036637
0.036942
0.037250
0.037560
0.037869
0.038176
0.038485
0.038800
0.039119
0.039433
0.039742
0.040053
0.040372
0.040696
0.041018
0.041336
0.041654
0.041972
0.042294
0.042619
0.042947
0.043276
0.043605
0.043934
0.044260
0.044587
0.044919
0.045257
0.045595
0.045929
0.046264
0.046602
0.046939
0.047275
0.047614
0.047959
0.048305
0.048644
0.048981
0.049324
0.049675
0.050028
0.050378
0.050722
0.051066
0.051416
0.051772
0.052131
0.052487
0.052840
0.053196
0.053556
0.053914
0.054271
0.054632
0.054996
0.055362
0.055727
0.056089
0.056452
0.056821
0.057194
0.057565
0.057933
0.058300
0.058672
0.059049
0.059427
0.059803
0.060181
0.060559
0.060936
0.061310
0.061689
0.062078
0.062470
0.062857
0.063235
0.063613
0.064000
0.064392
0.064784
0.065175
0.065566
0.065959
0.066355
0.066750
0.067144
0.067539
0.067936
0.068336
0.068738
0.069140
0.069542
0.069947
0.070355
0.070762
0.071169
0.071576
0.071982
0.072390
0.072805
0.073222
0.073639
0.074054
0.074468
0.074886
0.075306
0.075727
0.076149
0.076573
0.076996
0.077419
0.077843
0.078270
0.078700
0.079131
0.079561
0.079990
0.080419
0.080853
0.081289
0.081727
0.082165
0.082602
0.083039
0.083478
0.083920
0.084363
0.084809
0.085255
0.085702
0.086149
0.086593
0.087037
0.087487
0.087944
0.088402
0.088857
0.089311
0.089764
0.090219
0.090677
0.091139
0.091602
0.092063
0.092523
0.092987
0.093454
0.093924
0.094393
0.094861
0.095326
0.095793
0.096266
0.096743
0.097219
0.097694
0.098170
0.098648
0.099127
0.099605
0.100083
0.100567
0.101054
0.101538
0.102020
0.102505
0.102996
0.103490
0.103982
0.104472
0.104961
0.105451
0.105945
0.106442
0.106942
0.107443
0.107943
0.108441
0.108938
0.109439
0.109945
0.110453
0.110961
0.111466
0.111971
0.112479
0.112992
0.113507
0.114021
0.114534
0.115047
0.115563
0.116082
0.116604
0.117124
0.117643
0.118165
0.118691
0.119219
0.119746
0.120274
0.120803
0.121331
0.121860
0.122392
0.122925
0.123459
0.123996
0.124536
0.125077
0.125617
0.126154
0.126691
0.127234
0.127783
0.128331
0.128876
0.129423
0.129972
0.130522
0.131070
0.131619
0.132171
0.132727
0.133281
0.133833
0.134387
0.134946
0.135509
0.136075
0.136637
0.137194
0.137752
0.138315
0.138885
0.139456
0.140024
0.140592
0.141163
0.141733
0.142304
0.142876
0.143452
0.144030
0.144608
0.145182
0.145757
0.146338
0.146923
0.147509
0.148092
0.148673
0.149256
0.149845
0.150439
0.151035
0.151630
0.152222
0.152811
0.153402
0.153998
0.154598
0.155199
0.155798
0.156394
0.156993
0.157595
0.158199
0.158805
0.159411
0.160018
0.160625
0.161234
0.161843
0.162452
0.163063
0.163678
0.164294
0.164908
0.165522
0.166138
0.166759
0.167381
0.168002
0.168624
0.169247
0.169873
0.170500
0.171126
0.171754
0.172389
0.173022
0.173650
0.174278
0.174912
0.175551
0.176192
0.176831
0.177462
0.178092
0.178728
0.179370
0.180015
0.180660
0.181304
0.181948
0.182593
0.183239
0.183886
0.184538
0.185192
0.185845
0.186495
0.187144
0.187796
0.188453
0.189114
0.189774
0.190431
0.191086
0.191743
0.192405
0.193071
0.193737
0.194400
0.195065
0.195731
0.196398
0.197065
0.197734
0.198405
0.199080
0.199753
0.200424
0.201097
0.201775
0.202457
0.203137
0.203816
0.204495
0.205174
0.205856
0.206540
0.207228
0.207917
0.208604
0.209289
0.209973
0.210662
0.211355
0.212049
0.212743
0.213436
0.214128
0.214818
0.215513
0.216212
0.216915
0.217616
0.218315
0.219012
0.219711
0.220414
0.221121
0.221831
0.222538
0.223239
0.223940
0.224648
0.225360
0.226072
0.226783
0.227496
0.228209
0.228921
0.229633
0.230348
0.231069
0.231790
0.232510
0.233225
0.233937
0.234651
0.235375
0.236104
0.236829
0.237546
0.238264
0.238988
0.239719
0.240451
0.241181
0.241908
0.242633
0.243359
0.244090
0.244826
0.245563
0.246300
0.247035
0.247768
0.248500
0.249234
0.249973
0.250714
0.251454
0.252194
0.252935
0.253676
0.254417
0.255160
0.255909
0.256660
0.257406
0.258147
0.258887
0.259635
0.260390
0.261146
0.261899
0.262647
0.263395
0.264148
0.264902
0.265656
0.266412
0.267170
0.267926
0.268677
0.269429
0.270186
0.270949
0.271712
0.272472
0.273228
0.273983
0.274743
0.275509
0.276275
0.277040
0.277805
0.278571
0.279334
0.280096
0.280862
0.281632
0.282403
0.283173
0.283940
0.284709
0.285479
0.286253
0.287031
0.287809
0.288584
0.289355
0.290124
0.290895
0.291671
0.292454
0.293237
0.294012
0.294782
0.295554
0.296336
0.297123
0.297909
0.298690
0.299466
0.300241
0.301022
0.301811
0.302602
0.303389
0.304170
0.304945
0.305723
0.306508
0.307301
0.308093
0.308880
0.309661
0.310443
0.311232
0.312025
0.312817
0.313608
0.314399
0.315188
0.315977
0.316767
0.317558
0.318351
0.319147
0.319943
0.320734
0.321523
0.322314
0.323110
0.323909
0.324706
0.325499
0.326289
0.327082
0.327879
0.328678
0.329476
0.330275
0.331075
0.331871
0.332662
0.333455
0.334251
0.335053
0.335858
0.336658
0.337451
0.338243
0.339039
0.339839
0.340644
0.341448
0.342245
0.343039
0.343836
0.344638
0.345444
0.346248
0.347047
0.347843
0.348639
0.349436
0.350237
0.351040
0.351845
0.352650
0.353452
0.354248
0.355046
0.355851
0.356660
0.357464
0.358261
0.359056
0.359853
0.360656
0.361462
0.362265
0.363063
0.363863
0.364667
0.365467
0.366244
0.366977
0.367663
0.368315
0.368955
0.369579
0.370135
0.370461
0.370094
0.367977
0.362373
0.351484
0.334819
0.314409
0.294672
0.280622
0.275535
0.279928
0.292299
0.310001
0.329089
0.344313
0.350439
0.344456
0.327462
0.304741
0.283310
0.268833
0.264201
0.269335
0.281728
0.298647
0.318588
0.339601
0.358070
0.370305
0.373790
0.366737
0.348693
0.322650
0.295308
0.274935
0.268803
0.279943
0.304659
0.335049
0.364380
0.387869
0.400594
0.400237
0.390836
0.379516
0.371500
0.371128
0.383812
0.412335
0.451713
0.490334
0.517454
0.529018
0.525961
0.509909
0.483936
0.455186
0.432004
0.418712
0.415101
0.419350
0.429817
0.445135
0.463373
0.481273
0.494656
0.499387
0.493166
0.479190
0.467109
0.465982
0.475274
0.485117
0.486641
0.481241
0.477693
0.480429
0.484660
0.483338
0.473993
0.459615
0.448115
0.448490
0.461901
0.478723
0.488342
0.487977
0.478899
0.461322
0.436986
0.410040
0.382678
0.354308
0.324764
0.294635
0.265188
0.241614
0.232564
0.244056
0.276670
0.326582
0.384270
0.435830
0.471852
0.492317
0.500485
0.497125
0.481895
0.455665
0.420405
0.379886
0.341389
0.312803
0.295441
0.283408
0.272970
0.267490
0.270034
0.278437
0.291102
0.310714
0.339993
0.378815
0.424614
0.469469
0.498630
0.498537
0.466301
0.410207
0.343163
0.274969
0.208444
0.143303
0.081742
0.025211
-0.031159
-0.093080
-0.158407
-0.220281
-0.275785
-0.326663
-0.375942
-0.427687
-0.485156
-0.545526
-0.599201
-0.637276
-0.658440
-0.666649
-0.665452
-0.656840
-0.640619
-0.613058
-0.571173
-0.518074
-0.457633
-0.386090
-0.298686
-0.202359
-0.110785
-0.030861
0.031925
0.059505
0.030290
-0.059453
-0.195885
-0.362113
-0.538395
-0.696653
-0.815077
-0.897176
-0.957498
-0.986602
-0.948677
-0.821828
-0.630411
-0.429942
-0.265134
-0.146692
-0.059966
0.012980
0.076040
0.119831
0.141505
0.158399
0.192944
0.246631
0.299588
0.334119
0.345502
0.331518
0.287838
0.218662
0.142313
0.079234
0.037534
0.014977
0.010260
0.022620
0.039853
0.039363
0.013122
-0.018735
-0.037805
-0.059937
-0.118453
-0.228155
-0.382594
-0.569462
-0.769562
-0.953267
-1.090144
-1.153998
-1.122728
-0.990729
-0.784556
-0.561566
-0.388817
-0.311216
-0.330835
-0.422615
-0.567986
-0.751824
-0.933192
-1.063768
-1.136930
-1.175113
-1.177008
-1.116211
-0.977793
-0.768390
-0.507778
-0.246373
-0.085283
-0.121795
-0.344711
-0.618242
-0.798455
-0.849027
-0.830814
-0.817581
-0.857848
-0.972926
-1.134080
-1.272009
-1.351124
-1.406584
-1.482806
-1.564793
-1.596826
-1.553169
-1.466074
-1.379021
-1.281732
-1.116708
-0.858200
-0.553130
-0.275008
-0.068746
0.050850
0.080045
0.037542
-0.026009
-0.073302
-0.114305
-0.148283
-0.100157
0.129692
0.549022
1.032686
1.412120
1.591592
1.566409
1.375406
1.082121
0.770925
0.514505
0.336533
0.202860
0.054249
-0.136101
-0.339126
-0.497301
-0.559921
-0.504252
-0.333071
-0.057338
0.290078
0.627361
0.853140
0.908495
0.798136
0.571438
0.302083
0.070804
-0.069119
-0.125264
-0.142769
-0.138995
-0.089335
0.009927
0.097342
0.092252
-0.034695
-0.258619
-0.541790
-0.841727
-1.095846
-1.242941
-1.267015
-1.205858
-1.114455
-1.025066
-0.944220
-0.870902
-0.796239
-0.693826
-0.531158
-0.298298
-0.032017
0.199862
0.370707
0.545407
0.821497
1.221951
1.682031
2.138016
2.575532
2.984585
3.320353
3.530440
3.606041
3.587000
3.502150
3.319589
2.984481
2.506652
1.992730
1.584606
1.368388
1.335156
1.414866
1.553340
1.768939
2.125670
2.650028
3.288395
3.928809
4.434076
4.678611
4.607725
4.270270
3.778136
3.235148
2.704574
2.225337
1.820906
1.471766
1.110227
0.680810
0.205858
-0.222274
-0.510786
-0.630062
-0.637585
-0.655705
-0.796281
-1.084426
-1.472727
-1.916851
-2.395247
-2.867438
-3.250832
-3.445774
-3.399054
-3.166659
-2.891728
-2.685160
-2.549667
-2.442168
-2.357783
-2.323055
-2.359311
-2.467576
-2.609580
-2.716791
-2.746290
-2.708916
-2.649395
-2.626127
-2.693448
-2.882611
-3.197616
-3.617719
-4.095539
-4.563732
-4.964401
-5.284555
-5.557133
-5.822779
-6.098564
-6.382092
-6.672192
-6.977232
-7.306889
-7.672247
-8.099587
-8.616408
-9.194250
-9.722834
-10.084299
-10.255751
-10.316641
-10.360055
-10.404805
-10.385089
-10.209808
-9.824170
-9.249697
-8.606140
-8.066562
-7.751230
-7.677726
-7.801497
-8.058201
-8.377500
-8.689046
-8.917997
-8.992683
-8.888237
-8.653453
-8.363021
-8.059923
-7.769346
-7.533223
-7.404293
-7.428147
-7.621006
-7.934551
-8.273478
-8.551298
-8.682596
-8.574466
-8.202058
-7.659559
-7.087039
-6.558899
-6.077234
-5.647568
-5.295641
-5.017885
-4.767496
-4.493424
-4.181153
-3.860331
-3.571897
-3.324224
-3.072287
-2.737521
-2.273792
-1.716701
-1.145575
-0.616570
-0.152435
0.232071
0.517070
0.688905
0.758036
0.757893
0.734035
0.733163
0.785573
0.896512
1.056897
1.255334
1.487959
1.776702
2.159649
2.635336
3.138762
3.590393
3.947024
4.197797
4.329456
4.308594
4.103620
3.720293
3.203301
2.611902
2.008574
1.458481
1.025354
0.766467
0.716232
0.850936
1.088032
1.353625
1.623416
1.881146
2.101820
2.302034
2.543576
2.857454
3.198307
3.485853
3.669355
3.748625
3.757817
3.743686
3.745613
3.778359
3.827167
3.860851
3.855572
3.808700
3.728838
3.619641
3.481318
3.318973
3.137846
2.935919
2.714019
2.497183
2.338722
2.291845
2.369822
2.534933
2.731004
2.931408
3.163465
3.473009
3.837418
4.142993
4.307335
4.396079
4.543474
4.786845
5.061733
5.318718
5.549767
5.737449
5.871768
5.982202
6.075949
6.082380
5.904464
5.490504
4.846983
4.027011
3.126100
2.256608
1.496320
0.867538
0.365057
-0.019230
-0.301674
-0.513592
-0.692480
-0.862239
-1.016196
-1.127422
-1.175851
-1.156454
-1.066472
-0.901394
-0.673248
-0.418578
-0.174755
0.037849
0.203750
0.298811
0.293360
0.162816
-0.096481
-0.457112
-0.876285
-1.322729
-1.786224
-2.277952
-2.834120
-3.503005
-4.308942
-5.216786
-6.109530
-6.795533
-7.076812
-6.868632
-6.291701
-5.628335
-5.126460
-4.821802
-4.562221
-4.197836
-3.730087
-3.260255
-2.799016
-2.183175
-1.247384
-0.074301
1.019721
1.812915
2.422647
3.117525
3.938080
4.675018
5.206307
5.634858
6.067968
6.459133
6.695955
6.719147
6.562630
6.334530
6.102334
5.783238
5.269272
4.648278
4.133611
3.796406
3.513135
3.159817
2.774751
2.531404
2.563285
2.828592
3.179248
3.520491
3.838029
4.115223
4.299008
4.330942
4.171966
3.814058
3.287767
2.648797
1.952038
1.231360
0.495047
-0.242415
-0.911431
-1.398460
-1.619074
-1.564266
-1.293673
-0.901508
-0.467152
-0.027249
0.399886
0.772231
1.022070
1.096612
0.994987
0.770485
0.504407
0.279633
0.163508
0.188631
0.333127
0.527060
0.725803
0.973654
1.296817
1.562295
1.609298
1.488948
1.398864
1.427634
1.518802
1.626751
1.765368
1.925208
2.042716
2.055012
1.927347
1.672637
1.433352
1.447955
1.803973
2.305238
2.669034
2.790362
2.773495
2.741434
2.676452
2.478531
2.105921
1.610982
1.101924
0.674388
0.344797
0.079452
-0.116440
-0.179526
-0.058249
0.213893
0.533360
0.824587
1.110672
1.448874
1.780179
1.929868
1.818509
1.572303
1.366011
1.246795
1.155127
1.050957
0.960449
0.925558
0.961900
1.059107
1.193395
1.335642
1.456245
1.537157
1.585310
1.629578
1.700154
1.809711
1.941761
2.051150
2.106660
2.131423
2.164813
2.207458
2.232647
2.218509
2.152389
2.038125
1.909051
1.804367
1.723717
1.617813
1.434356
1.178703
0.922929
0.756518
0.737219
0.875317
1.142178
1.490119
1.877054
2.291996
2.767402
3.351900
4.036538
4.687656
5.075082
5.016260
4.541356
3.921319
3.455918
3.187993
2.907710
2.464610
1.954688
1.559736
1.329446
1.200158
1.132352
1.125358
1.143146
1.124705
1.060128
0.980697
0.889059
0.758827
0.576455
0.361892
0.166102
0.036240
-0.016892
-0.006020
0.056740
0.156099
0.270618
0.399184
0.571975
0.783242
0.919675
0.858027
0.628447
0.360533
0.122699
-0.075751
-0.206938
-0.230365
-0.136459
0.040220
0.235776
0.381073
0.437769
0.436839
0.462267
0.576136
0.766021
0.963453
1.106180
1.181984
1.217737
1.246118
1.287500
1.336070
1.366828
1.372084
1.365863
1.340382
1.235513
0.980425
0.574000
0.090468
-0.391514
-0.828986
-1.210724
-1.576805
-2.023342
-2.598598
-3.186174
-3.570532
-3.645947
-3.506682
-3.304181
-3.087173
-2.844717
-2.636650
-2.577764
-2.703539
-2.930781
-3.169146
-3.414209
-3.701080
-4.007005
-4.243677
-4.343201
-4.317311
-4.230752
-4.151610
-4.116687
-4.112078
-4.093120
-4.026672
-3.908075
-3.762444
-3.657547
-3.675307
-3.810669
-3.935302
-3.919519
-3.758502
-3.542513
-3.340922
-3.155786
-2.957397
-2.724609
-2.464443
-2.207498
-1.976336
-1.759032
-1.528993
-1.291571
-1.083640
-0.923518
-0.789527
-0.646159
-0.466611
-0.232528
0.064490
0.415456
0.796743
1.174965
1.510046
1.772444
1.958930
2.084855
2.168057
2.219484
2.246937
2.268807
2.307827
2.365349
2.422827
2.472550
2.526848
2.591387
2.646195
2.666889
2.655884
2.638231
2.630655
2.626191
2.607714
2.561850
2.473211
2.317433
2.073653
1.748452
1.385524
1.042224
0.746279
0.475421
0.181369
-0.170694
-0.579860
-1.009070
-1.407517
-1.746627
-2.033908
-2.288173
-2.505713
-2.652107
-2.685844
-2.594006
-2.415095
-2.229086
-2.104546
-2.045254
-2.010818
-1.984821
-1.986539
-2.024378
-2.075156
-2.119984
-2.184386
-2.313946
-2.511516
-2.728583
-2.917986
-3.072115
-3.204749
-3.314468
-3.385829
-3.416892
-3.424790
-3.426872
-3.430635
-3.442315
-3.469699
-3.512160
-3.565535
-3.641147
-3.762940
-3.943350
-4.176636
-4.455653
-4.778512
-5.134427
-5.494652
-5.820762
-6.074017
-6.227341
-6.295776
-6.338113
-6.389205
-6.424446
-6.422560
-6.406334
-6.398379
-6.389645
-6.365744
-6.331276
-6.298293
-6.267852
-6.235991
-6.208923
-6.196504
-6.198157
-6.202448
-6.187079
-6.124671
-6.006789
-5.850169
-5.671362
-5.476593
-5.275318
-5.082035
