EVENT_NAME: L_AQUILA
EVENT_ID: IT-2009-0009
EVENT_DATE_YYYYMMDD: 20090406
EVENT_TIME_HHMMSS: 013240
EVENT_LATITUDE_DEGREE: 42.3420
EVENT_LONGITUDE_DEGREE: 13.3800
EVENT_DEPTH_KM: 8.3
HYPOCENTER_REFERENCE: INGV-CNT_Seismic_Bulletin
MAGNITUDE_W: 6.1
MAGNITUDE_W_REFERENCE: INGV-CNT_Seismic_Bulletin
MAGNITUDE_L: 
MAGNITUDE_L_REFERENCE: 
FOCAL_MECHANISM: Normal faulting
NETWORK: IT
STATION_CODE: AQG
STATION_NAME: 
STATION_LATITUDE_DEGREE: 42.373474
STATION_LONGITUDE_DEGREE: 13.337026
STATION_ELEVATION_M: 721
LOCATION: 
SENSOR_DEPTH_M: 0.0
VS30_M/S: 696
SITE_CLASSIFICATION_EC8: B
MORPHOLOGIC_CLASSIFICATION: 
EPICENTRAL_DISTANCE_KM: 5.0
EARTHQUAKE_BACKAZIMUTH_DEGREE: 314.7
DATE_TIME_FIRST_SAMPLE_YYYYMMDD_HHMMSS: 
DATE_TIME_FIRST_SAMPLE_PRECISION: 
SAMPLING_INTERVAL_S: 
NDATA: 105
DURATION_S: 
STREAM: HNE
UNITS: cm/s^2
INSTRUMENT: sensor = FBA-3 [Kinemetrics] | digitizer = Everest [Kinemetrics]
INSTRUMENT_ANALOG/DIGITAL: D
INSTRUMENTAL_FREQUENCY_HZ: 202.000
INSTRUMENTAL_DAMPING: 0.000000
FULL_SCALE_G: 1.0
N_BIT_DIGITAL_CONVERTER: 24
PGA_CM/S^2: -437.427764
TIME_PGA_S: 
BASELINE_CORRECTION: BASELINE REMOVED
FILTER_TYPE: BUTTERWORTH
FILTER_ORDER: 2
LOW_CUT_FREQUENCY_HZ: 0.100
HIGH_CUT_FREQUENCY_HZ: 40.000
LATE/NORMAL_TRIGGERED: NT
DATABASE_VERSION: 0.5
HEADER_FORMAT: DYNA 1.2
DATA_TYPE: ACCELERATION RESPONSE SPECTRUM
PROCESSING: manual (Paolucci et al., 2011)
DATA_TIMESTAMP_YYYYMMDD_HHMMSS: 20211011_155349.024
DATA_LICENSE: CC-BY3_0-IT (http://creativecommons.org/licenses/by/3.0/deed.en)
DATA_CITATION: Luzi L, Pacor F, Puglia R (2019). Italian Accelerometric Archive v 3.0 - Istituto Nazionale di Geofisica e Vulcanologia, Dipartimento della Protezione Civile Nazionale. doi: 10.13127/itaca.3.1
DATA_CREATOR: ITACA working group
ORIGINAL_DATA_MEDIATOR_CITATION: data obtained within the DPC-INGV data exchange agreements
ORIGINAL_DATA_MEDIATOR: Archive of Italian Department of Civil Protection
ORIGINAL_DATA_CREATOR_CITATION: Presidency Of Counsil Of Ministers-Civil Protection Department. (1972). Italian Strong Motion Network. Presidency of Counsil of Ministers - Civil Protection Department. https://doi.org/10.7914/SN/IT http://www.fdsn.org/networks/detail/IT/
ORIGINAL_DATA_CREATOR: network: IT (Italian Strong Motion Network (RAN)); owner: Presidency of Counsil of Ministers - Civil Protection Department (PCM - DPC)
USER1: 
USER2: 
USER3: 
USER4: 
USER5: 
    0.010000   440.791016
    0.020000   512.865845
    0.022000   567.475403
    0.025000   587.263000
    0.029000   613.372681
    0.030000   613.053833
    0.032000   621.171326
    0.035001   712.293457
    0.036000   742.010925
    0.040000   878.967224
    0.041999   841.385071
    0.044001   852.037415
    0.045000   876.337036
    0.046000   919.746887
    0.048001   981.704712
    0.050000   928.025696
    0.054999  1011.975403
    0.059999   924.130188
    0.064998   834.291565
    0.067002   836.723694
    0.069999   814.088867
    0.075002   806.640869
    0.080000   639.000610
    0.084998   537.033691
    0.090001   631.291931
    0.095003   772.933716
    0.100000   726.288757
    0.109999   582.756531
    0.120005   478.260223
    0.130005   459.762909
    0.132996   504.087677
    0.139997   700.872375
    0.149993   809.457581
    0.160000   737.721680
    0.170010   682.754578
    0.179986   680.219299
    0.190006   814.803711
    0.200000   872.943481
    0.220022  1171.591675
    0.239981  1011.497009
    0.250000   877.579041
    0.260010   765.200256
    0.280034  1000.314148
    0.290023  1032.875488
    0.300030   971.916992
    0.320000   837.117920
    0.340020   872.633484
    0.350017   888.450439
    0.359971   870.930298
    0.379939   728.080566
    0.400000   666.200256
    0.419992   716.977112
    0.439947   631.385315
    0.450045   603.214844
    0.459982   601.596008
    0.480077   582.501343
    0.500000   538.054688
    0.550055   427.968964
    0.599880   396.891052
    0.650195   498.801605
    0.667111   523.439331
    0.699790   551.968018
    0.750188   574.754333
    0.800000   613.920105
    0.850340   613.219360
    0.900090   569.572144
    0.949668   499.320007
    1.000000   442.595337
    1.100110   394.175903
    1.200480   329.341614
    1.300390   293.956512
    1.400560   262.297455
    1.499250   231.931061
    1.600000   202.953049
    1.700680   174.102768
    1.798561   146.830872
    1.901141   121.911995
    2.000000   108.491852
    2.197802    94.325966
    2.398082    81.511009
    2.500000    76.242775
    2.597403    71.206238
    2.801121    61.967983
    3.003003    53.912174
    3.205128    46.980495
    3.401361    41.064003
    3.496503    38.442371
    3.597122    36.024273
    3.802281    31.738380
    4.000000    28.086273
    4.201681    24.967075
    4.405286    22.293667
    4.608295    19.994274
    4.807692    18.011528
    5.000000    16.292831
    5.494505    12.894617
    5.988024    10.435277
    6.493506     8.611236
    6.993007     7.229321
    7.518797     6.161695
    8.000000     5.323671
    8.474576     4.654192
    9.009009     4.113592
    9.523809     3.671416
   10.000000     3.303210
