EVENT_NAME: L_AQUILA
EVENT_ID: IT-2009-0009
EVENT_DATE_YYYYMMDD: 20090406
EVENT_TIME_HHMMSS: 013240
EVENT_LATITUDE_DEGREE: 42.3420
EVENT_LONGITUDE_DEGREE: 13.3800
EVENT_DEPTH_KM: 8.3
HYPOCENTER_REFERENCE: INGV-CNT_Seismic_Bulletin
MAGNITUDE_W: 6.1
MAGNITUDE_W_REFERENCE: INGV-CNT_Seismic_Bulletin
MAGNITUDE_L: 
MAGNITUDE_L_REFERENCE: 
FOCAL_MECHANISM: Normal faulting
NETWORK: IT
STATION_CODE: AQG
STATION_NAME: 
STATION_LATITUDE_DEGREE: 42.373474
STATION_LONGITUDE_DEGREE: 13.337026
STATION_ELEVATION_M: 721
LOCATION: 
SENSOR_DEPTH_M: 0.0
VS30_M/S: 696
SITE_CLASSIFICATION_EC8: B
MORPHOLOGIC_CLASSIFICATION: 
EPICENTRAL_DISTANCE_KM: 5.0
EARTHQUAKE_BACKAZIMUTH_DEGREE: 314.7
DATE_TIME_FIRST_SAMPLE_YYYYMMDD_HHMMSS: 20090406_013212.000
DATE_TIME_FIRST_SAMPLE_PRECISION: seconds
SAMPLING_INTERVAL_S: 0.005000
NDATA: 20000
DURATION_S: 100.000
STREAM: HNE
UNITS: cm
INSTRUMENT: sensor = FBA-3 [Kinemetrics] | digitizer = Everest [Kinemetrics]
INSTRUMENT_ANALOG/DIGITAL: D
INSTRUMENTAL_FREQUENCY_HZ: 202.000
INSTRUMENTAL_DAMPING: 0.000000
FULL_SCALE_G: 1.0
N_BIT_DIGITAL_CONVERTER: 24
PGD_CM: 5.994826
TIME_PGD_S: 32.650000
BASELINE_CORRECTION: BASELINE REMOVED
FILTER_TYPE: BUTTERWORTH
FILTER_ORDER: 2
LOW_CUT_FREQUENCY_HZ: 0.100
HIGH_CUT_FREQUENCY_HZ: 40.000
LATE/NORMAL_TRIGGERED: NT
DATABASE_VERSION: 0.5
HEADER_FORMAT: DYNA 1.2
DATA_TYPE: DISPLACEMENT
PROCESSING: manual (Paolucci et al., 2011)
DATA_TIMESTAMP_YYYYMMDD_HHMMSS: 20211011_155347.472
DATA_LICENSE: CC-BY3_0-IT (http://creativecommons.org/licenses/by/3.0/deed.en)
DATA_CITATION: Luzi L, Pacor F, Puglia R (2019). Italian Accelerometric Archive v 3.0 - Istituto Nazionale di Geofisica e Vulcanologia, Dipartimento della Protezione Civile Nazionale. doi: 10.13127/itaca.3.1
DATA_CREATOR: ITACA working group
ORIGINAL_DATA_MEDIATOR_CITATION: data obtained within the DPC-INGV data exchange agreements
ORIGINAL_DATA_MEDIATOR: Archive of Italian Department of Civil Protection
ORIGINAL_DATA_CREATOR_CITATION: Presidency Of Counsil Of Ministers-Civil Protection Department. (1972). Italian Strong Motion Network. Presidency of Counsil of Ministers - Civil Protection Department. https://doi.org/10.7914/SN/IT http://www.fdsn.org/networks/detail/IT/
ORIGINAL_DATA_CREATOR: network: IT (Italian Strong Motion Network (RAN)); owner: Presidency of Counsil of Ministers - Civil Protection Department (PCM - DPC)
USER1: 
USER2: 
USER3: 
USER4: 
USER5: 
[...]
-1.062214e-01
-1.066204e-01
-1.070200e-01
-1.074204e-01
-1.078214e-01
-1.082232e-01
-1.086257e-01
-1.090289e-01
-1.094327e-01
-1.098373e-01
-1.102425e-01
-1.106485e-01
-1.110552e-01
-1.114626e-01
-1.118706e-01
-1.122793e-01
-1.126887e-01
-1.130989e-01
-1.135097e-01
-1.139212e-01
-1.143334e-01
-1.147462e-01
-1.151598e-01
-1.155740e-01
-1.159890e-01
-1.164047e-01
-1.168210e-01
-1.172380e-01
-1.176556e-01
-1.180739e-01
-1.184929e-01
-1.189126e-01
-1.193330e-01
-1.197540e-01
-1.201756e-01
-1.205980e-01
-1.210210e-01
-1.214448e-01
-1.218692e-01
-1.222942e-01
-1.227198e-01
-1.231462e-01
-1.235731e-01
-1.240008e-01
-1.244292e-01
-1.248582e-01
-1.252878e-01
-1.257181e-01
-1.261490e-01
-1.265805e-01
-1.270127e-01
-1.274456e-01
-1.278793e-01
-1.283136e-01
-1.287485e-01
-1.291840e-01
-1.296201e-01
-1.300569e-01
-1.304944e-01
-1.309325e-01
-1.313713e-01
-1.318108e-01
-1.322508e-01
-1.326915e-01
-1.331329e-01
-1.335749e-01
-1.340176e-01
-1.344608e-01
-1.349046e-01
-1.353491e-01
-1.357942e-01
-1.362399e-01
-1.366863e-01
-1.371332e-01
-1.375808e-01
-1.380290e-01
-1.384777e-01
-1.389271e-01
-1.393770e-01
-1.398277e-01
-1.402789e-01
-1.407307e-01
-1.411830e-01
-1.416360e-01
-1.420895e-01
-1.425438e-01
-1.429985e-01
-1.434538e-01
-1.439097e-01
-1.443661e-01
-1.448231e-01
-1.452808e-01
-1.457390e-01
-1.461979e-01
-1.466574e-01
-1.471173e-01
-1.475779e-01
-1.480390e-01
-1.485007e-01
-1.489631e-01
-1.494260e-01
-1.498893e-01
-1.503532e-01
-1.508176e-01
-1.512828e-01
-1.517485e-01
-1.522148e-01
-1.526815e-01
-1.531488e-01
-1.536166e-01
-1.540850e-01
-1.545539e-01
-1.550234e-01
-1.554934e-01
-1.559639e-01
-1.564350e-01
-1.569066e-01
-1.573788e-01
-1.578516e-01
-1.583248e-01
-1.587986e-01
-1.592729e-01
-1.597477e-01
-1.602229e-01
-1.606987e-01
-1.611751e-01
-1.616521e-01
-1.621295e-01
-1.626074e-01
-1.630857e-01
-1.635645e-01
-1.640438e-01
-1.645237e-01
-1.650041e-01
-1.654850e-01
-1.659663e-01
-1.664482e-01
-1.669305e-01
-1.674133e-01
-1.678964e-01
-1.683801e-01
-1.688643e-01
-1.693489e-01
-1.698340e-01
-1.703195e-01
-1.708056e-01
-1.712923e-01
-1.717793e-01
-1.722667e-01
-1.727544e-01
-1.732426e-01
-1.737313e-01
-1.742205e-01
-1.747102e-01
-1.752002e-01
-1.756907e-01
-1.761817e-01
-1.766731e-01
-1.771649e-01
-1.776571e-01
-1.781497e-01
-1.786428e-01
-1.791363e-01
-1.796301e-01
-1.801243e-01
-1.806190e-01
-1.811141e-01
-1.816096e-01
-1.821054e-01
-1.826016e-01
-1.830981e-01
-1.835950e-01
-1.840925e-01
-1.845903e-01
-1.850885e-01
-1.855870e-01
-1.860858e-01
-1.865849e-01
-1.870844e-01
-1.875843e-01
-1.880845e-01
-1.885851e-01
-1.890860e-01
-1.895872e-01
-1.900889e-01
-1.905908e-01
-1.910932e-01
-1.915958e-01
-1.920988e-01
-1.926020e-01
-1.931055e-01
-1.936093e-01
-1.941135e-01
-1.946180e-01
-1.951229e-01
-1.956280e-01
-1.961334e-01
-1.966391e-01
-1.971451e-01
-1.976514e-01
-1.981580e-01
-1.986649e-01
-1.991720e-01
-1.996793e-01
-2.001870e-01
-2.006948e-01
-2.012029e-01
-2.017113e-01
-2.022201e-01
-2.027290e-01
-2.032380e-01
-2.037472e-01
-2.042568e-01
-2.047667e-01
-2.052770e-01
-2.057873e-01
-2.062978e-01
-2.068084e-01
-2.073192e-01
-2.078303e-01
-2.083417e-01
-2.088532e-01
-2.093649e-01
-2.098767e-01
-2.103888e-01
-2.109010e-01
-2.114134e-01
-2.119260e-01
-2.124388e-01
-2.129518e-01
-2.134648e-01
-2.139779e-01
-2.144911e-01
-2.150046e-01
-2.155182e-01
-2.160320e-01
-2.165458e-01
-2.170597e-01
-2.175737e-01
-2.180879e-01
-2.186022e-01
-2.191166e-01
-2.196311e-01
-2.201456e-01
-2.206602e-01
-2.211749e-01
-2.216896e-01
-2.222045e-01
-2.227195e-01
-2.232345e-01
-2.237495e-01
-2.242645e-01
-2.247797e-01
-2.252949e-01
-2.258102e-01
-2.263255e-01
-2.268408e-01
-2.273560e-01
-2.278713e-01
-2.283866e-01
-2.289020e-01
-2.294174e-01
-2.299329e-01
-2.304483e-01
-2.309635e-01
-2.314788e-01
-2.319940e-01
-2.325093e-01
-2.330246e-01
-2.335400e-01
-2.340551e-01
-2.345701e-01
-2.350851e-01
-2.356001e-01
-2.361151e-01
-2.366301e-01
-2.371450e-01
-2.376596e-01
-2.381741e-01
-2.386885e-01
-2.392030e-01
-2.397174e-01
-2.402317e-01
-2.407458e-01
-2.412597e-01
-2.417734e-01
-2.422871e-01
-2.428007e-01
-2.433141e-01
-2.438275e-01
-2.443407e-01
-2.448536e-01
-2.453664e-01
-2.458789e-01
-2.463913e-01
-2.469036e-01
-2.474158e-01
-2.479278e-01
-2.484394e-01
-2.489507e-01
-2.494619e-01
-2.499730e-01
-2.504838e-01
-2.509944e-01
-2.515046e-01
-2.520146e-01
-2.525243e-01
-2.530339e-01
-2.535433e-01
-2.540524e-01
-2.545611e-01
-2.550695e-01
-2.555775e-01
-2.560854e-01
-2.565930e-01
-2.571003e-01
-2.576073e-01
-2.581139e-01
-2.586202e-01
-2.591261e-01
-2.596317e-01
-2.601370e-01
-2.606420e-01
-2.611466e-01
-2.616509e-01
-2.621547e-01
-2.626582e-01
-2.631612e-01
-2.636640e-01
-2.641664e-01
-2.646685e-01
-2.651701e-01
-2.656711e-01
-2.661716e-01
-2.666719e-01
-2.671718e-01
-2.676713e-01
-2.681704e-01
-2.686688e-01
-2.691667e-01
-2.696642e-01
-2.701612e-01
-2.706578e-01
-2.711539e-01
-2.716495e-01
-2.721445e-01
-2.726389e-01
-2.731329e-01
-2.736264e-01
-2.741195e-01
-2.746121e-01
-2.751039e-01
-2.755951e-01
-2.760858e-01
-2.765758e-01
-2.770653e-01
-2.775543e-01
-2.780426e-01
-2.785304e-01
-2.790175e-01
-2.795039e-01
-2.799898e-01
-2.804750e-01
-2.809597e-01
-2.814437e-01
-2.819269e-01
-2.824095e-01
-2.828913e-01
-2.833725e-01
-2.838531e-01
-2.843330e-01
-2.848122e-01
-2.852907e-01
-2.857684e-01
-2.862453e-01
-2.867214e-01
-2.871970e-01
-2.876718e-01
-2.881459e-01
-2.886191e-01
-2.890913e-01
-2.895628e-01
-2.900336e-01
-2.905037e-01
-2.909730e-01
-2.914414e-01
-2.919088e-01
-2.923754e-01
-2.928412e-01
-2.933062e-01
-2.937705e-01
-2.942338e-01
-2.946962e-01
-2.951576e-01
-2.956181e-01
-2.960778e-01
-2.965367e-01
-2.969947e-01
-2.974517e-01
-2.979076e-01
-2.983627e-01
-2.988168e-01
-2.992700e-01
-2.997222e-01
-3.001735e-01
-3.006237e-01
-3.010729e-01
-3.015210e-01
-3.019681e-01
-3.024142e-01
-3.028593e-01
-3.033035e-01
-3.037465e-01
-3.041885e-01
-3.046292e-01
-3.050689e-01
-3.055076e-01
-3.059453e-01
-3.063817e-01
-3.068170e-01
-3.072511e-01
-3.076840e-01
-3.081159e-01
-3.085467e-01
-3.089764e-01
-3.094049e-01
-3.098321e-01
-3.102581e-01
-3.106828e-01
-3.111062e-01
-3.115286e-01
-3.119497e-01
-3.123697e-01
-3.127884e-01
-3.132058e-01
-3.136218e-01
-3.140366e-01
-3.144502e-01
-3.148625e-01
-3.152734e-01
-3.156829e-01
-3.160910e-01
-3.164978e-01
-3.169034e-01
-3.173077e-01
-3.177107e-01
-3.181121e-01
-3.185120e-01
-3.189105e-01
-3.193076e-01
-3.197034e-01
-3.200978e-01
-3.204908e-01
-3.208824e-01
-3.212723e-01
-3.216607e-01
-3.220477e-01
-3.224333e-01
-3.228175e-01
-3.232000e-01
-3.235809e-01
-3.239603e-01
-3.243381e-01
-3.247145e-01
-3.250894e-01
-3.254626e-01
-3.258342e-01
-3.262042e-01
-3.265727e-01
-3.269395e-01
-3.273045e-01
-3.276679e-01
-3.280295e-01
-3.283893e-01
-3.287474e-01
-3.291036e-01
-3.294578e-01
-3.298096e-01
-3.301584e-01
-3.305018e-01
-3.308349e-01
-3.311518e-01
-3.314484e-01
-3.317263e-01
-3.319920e-01
-3.322511e-01
-3.325018e-01
-3.327358e-01
-3.329482e-01
-3.331458e-01
-3.333437e-01
-3.335555e-01
-3.337895e-01
-3.340485e-01
-3.343240e-01
-3.345904e-01
-3.348132e-01
-3.349727e-01
-3.350815e-01
-3.351744e-01
-3.352811e-01
-3.354169e-01
-3.355975e-01
-3.358481e-01
-3.361821e-01
-3.365758e-01
-3.369745e-01
-3.373211e-01
-3.375785e-01
-3.377399e-01
-3.378334e-01
-3.379096e-01
-3.380142e-01
-3.381621e-01
-3.383311e-01
-3.384922e-01
-3.386546e-01
-3.388695e-01
-3.391792e-01
-3.395723e-01
-3.399890e-01
-3.403525e-01
-3.405902e-01
-3.406609e-01
-3.405929e-01
-3.404875e-01
-3.404560e-01
-3.405483e-01
-3.407432e-01
-3.409946e-01
-3.412748e-01
-3.415683e-01
-3.418556e-01
-3.421300e-01
-3.423995e-01
-3.426351e-01
-3.427469e-01
-3.426573e-01
-3.423849e-01
-3.420331e-01
-3.417141e-01
-3.414966e-01
-3.413989e-01
-3.413938e-01
-3.414228e-01
-3.414302e-01
-3.413998e-01
-3.413656e-01
-3.413760e-01
-3.414344e-01
-3.414893e-01
-3.414926e-01
-3.414458e-01
-3.413730e-01
-3.412734e-01
-3.411247e-01
-3.409251e-01
-3.407127e-01
-3.405496e-01
-3.404939e-01
-3.405763e-01
-3.407789e-01
-3.410333e-01
-3.412509e-01
-3.413591e-01
-3.413158e-01
-3.411253e-01
-3.408593e-01
-3.406183e-01
-3.404291e-01
-3.402081e-01
-3.398619e-01
-3.394022e-01
-3.389410e-01
-3.386018e-01
-3.384477e-01
-3.384681e-01
-3.385999e-01
-3.387596e-01
-3.388797e-01
-3.389404e-01
-3.389806e-01
-3.390667e-01
-3.392269e-01
-3.394109e-01
-3.395315e-01
-3.395345e-01
-3.394198e-01
-3.392246e-01
-3.390105e-01
-3.388456e-01
-3.387732e-01
-3.387983e-01
-3.388978e-01
-3.390236e-01
-3.390956e-01
-3.390432e-01
-3.388772e-01
-3.386865e-01
-3.385403e-01
-3.384175e-01
-3.382390e-01
-3.379486e-01
-3.375563e-01
-3.371150e-01
-3.366884e-01
-3.363452e-01
-3.361312e-01
-3.360087e-01
-3.358529e-01
-3.355360e-01
-3.349936e-01
-3.342010e-01
-3.331390e-01
-3.318273e-01
-3.303572e-01
-3.288337e-01
-3.272875e-01
-3.256642e-01
-3.238766e-01
-3.218564e-01
-3.195859e-01
-3.171048e-01
-3.144748e-01
-3.117264e-01
-3.088467e-01
-3.058133e-01
-3.026327e-01
-2.993541e-01
-2.960637e-01
-2.928679e-01
-2.898542e-01
-2.870455e-01
-2.843887e-01
-2.817907e-01
-2.791766e-01
-2.765578e-01
-2.740653e-01
-2.718540e-01
-2.699178e-01
-2.680403e-01
-2.659691e-01
-2.636077e-01
-2.610161e-01
-2.582766e-01
-2.554084e-01
-2.523863e-01
-2.491723e-01
-2.457005e-01
-2.418878e-01
-2.377252e-01
-2.333459e-01
-2.289585e-01
-2.247018e-01
-2.205767e-01
-2.165012e-01
-2.123831e-01
-2.081311e-01
-2.036625e-01
-1.989689e-01
-1.941602e-01
-1.893907e-01
-1.847134e-01
-1.800165e-01
-1.751299e-01
-1.700101e-01
-1.648130e-01
-1.597608e-01
-1.549106e-01
-1.500677e-01
-1.449499e-01
-1.393972e-01
-1.333728e-01
-1.268256e-01
-1.196548e-01
-1.118023e-01
-1.033219e-01
-9.436416e-02
-8.514258e-02
-7.589291e-02
-6.678994e-02
-5.785016e-02
-4.890602e-02
-3.970247e-02
-3.006107e-02
-1.996979e-02
-9.531384e-03
1.142846e-03
1.198686e-02
2.297786e-02
3.414456e-02
4.559976e-02
5.752440e-02
7.006078e-02
8.316788e-02
9.654470e-02
1.097215e-01
1.223048e-01
1.342085e-01
1.456886e-01
1.571465e-01
1.688863e-01
1.810633e-01
1.938127e-01
2.073053e-01
2.215743e-01
2.363217e-01
2.510372e-01
2.653586e-01
2.792680e-01
2.930160e-01
3.069450e-01
3.212394e-01
3.357016e-01
3.498821e-01
3.635532e-01
3.769679e-01
3.906006e-01
4.047746e-01
4.195724e-01
4.349256e-01
4.506903e-01
4.666790e-01
4.827163e-01
4.987666e-01
5.150252e-01
5.318501e-01
5.496233e-01
5.686383e-01
5.889561e-01
6.102585e-01
6.318976e-01
6.532468e-01
6.741428e-01
6.950152e-01
7.165391e-01
7.391132e-01
7.626358e-01
7.866749e-01
8.107392e-01
8.344247e-01
8.574757e-01
8.798652e-01
9.018404e-01
9.238086e-01
9.461447e-01
9.691343e-01
9.929852e-01
1.017685e+00
1.042864e+00
1.067983e+00
1.092682e+00
1.116906e+00
1.140786e+00
1.164491e+00
1.188211e+00
1.212201e+00
1.236733e+00
1.261919e+00
1.287568e+00
1.313261e+00
1.338635e+00
1.363683e+00
1.388845e+00
1.414802e+00
1.442126e+00
1.471004e+00
1.501201e+00
1.532211e+00
1.563454e+00
1.594456e+00
1.624986e+00
1.655136e+00
1.685253e+00
1.715659e+00
1.746321e+00
1.776808e+00
1.806610e+00
1.835523e+00
1.863767e+00
1.891819e+00
1.920171e+00
1.949150e+00
1.978928e+00
2.009735e+00
2.041946e+00
2.075767e+00
2.110926e+00
2.146846e+00
2.183133e+00
2.219829e+00
2.257236e+00
2.295556e+00
2.334610e+00
2.373791e+00
2.412340e+00
2.449761e+00
2.486062e+00
2.521727e+00
2.557552e+00
2.594348e+00
2.632506e+00
2.671792e+00
2.711635e+00
2.751473e+00
2.790747e+00
2.828935e+00
2.865898e+00
2.901967e+00
2.937494e+00
2.972475e+00
3.006769e+00
3.040549e+00
3.074343e+00
3.108622e+00
3.143432e+00
3.178481e+00
3.213486e+00
3.248439e+00
3.283584e+00
3.319244e+00
3.355705e+00
3.393251e+00
3.432199e+00
3.472680e+00
3.514335e+00
3.556429e+00
3.598408e+00
3.640297e+00
3.682521e+00
3.725486e+00
3.769383e+00
3.814211e+00
3.859886e+00
3.906350e+00
3.953653e+00
4.001889e+00
4.051011e+00
4.100679e+00
4.150315e+00
4.199371e+00
4.247604e+00
4.295223e+00
4.342837e+00
4.391094e+00
4.440154e+00
4.489469e+00
4.538223e+00
4.585959e+00
4.632690e+00
4.678517e+00
4.723310e+00
4.766821e+00
4.809067e+00
4.850454e+00
4.891368e+00
4.931634e+00
4.970527e+00
5.007317e+00
5.041816e+00
5.074535e+00
5.106436e+00
5.138424e+00
5.170990e+00
5.204245e+00
5.238141e+00
5.272548e+00
5.307274e+00
5.342191e+00
5.377359e+00
5.412998e+00
5.449313e+00
5.486338e+00
5.523824e+00
5.561189e+00
5.597764e+00
5.633239e+00
5.667748e+00
5.701375e+00
5.733701e+00
5.764032e+00
5.792248e+00
5.819190e+00
5.845682e+00
5.871401e+00
5.895291e+00
5.916748e+00
5.935775e+00
5.952344e+00
5.966282e+00
5.977604e+00
5.986391e+00
5.992346e+00
5.994826e+00
5.993434e+00
5.988574e+00
5.981496e+00
5.973730e+00
5.966365e+00
5.959724e+00
5.953524e+00
5.947280e+00
5.940637e+00
5.933413e+00
5.925514e+00
5.916908e+00
5.907634e+00
5.897842e+00
5.887699e+00
5.876912e+00
5.864190e+00
5.847755e+00
5.827062e+00
5.803487e+00
5.778585e+00
5.752225e+00
5.723192e+00
5.690958e+00
5.655838e+00
5.617787e+00
5.576178e+00
5.530751e+00
5.481789e+00
5.429319e+00
5.372890e+00
5.312193e+00
5.247369e+00
5.178714e+00
5.106439e+00
5.030719e+00
4.951847e+00
4.870127e+00
4.785508e+00
4.697582e+00
4.606071e+00
4.511010e+00
4.412453e+00
4.310399e+00
4.204929e+00
4.096038e+00
3.983405e+00
3.866671e+00
3.745888e+00
3.621389e+00
3.493320e+00
3.361541e+00
3.225948e+00
3.086785e+00
2.944595e+00
2.799818e+00
2.652595e+00
2.503093e+00
2.351767e+00
2.199087e+00
2.045332e+00
1.890800e+00
1.736004e+00
1.581613e+00
1.428238e+00
1.276242e+00
1.125749e+00
9.768541e-01
8.297461e-01
6.846125e-01
5.414549e-01
3.999860e-01
2.596712e-01
1.198066e-01
-2.046336e-02
-1.620597e-01
-3.056309e-01
-4.511149e-01
-5.977471e-01
-7.447035e-01
-8.917165e-01
-1.039069e+00
-1.187169e+00
-1.336169e+00
-1.485871e+00
-1.635826e+00
-1.785419e+00
-1.933920e+00
-2.080600e+00
-2.224888e+00
-2.366530e+00
-2.505604e+00
-2.642269e+00
-2.776455e+00
-2.907815e+00
-3.035940e+00
-3.160541e+00
-3.281429e+00
-3.398412e+00
-3.511316e+00
-3.620069e+00
-3.724646e+00
-3.824895e+00
-3.920551e+00
-4.011509e+00
-4.098056e+00
-4.180842e+00
-4.260691e+00
-4.338437e+00
-4.414779e+00
-4.490203e+00
-4.565176e+00
-4.640457e+00
-4.716888e+00
-4.794451e+00
-4.871583e+00
-4.946073e+00
-5.016680e+00
-5.083076e+00
-5.144520e+00
-5.199830e+00
-5.248683e+00
-5.292052e+00
-5.331359e+00
-5.367554e+00
-5.400910e+00
-5.431347e+00
-5.458718e+00
-5.482795e+00
-5.503194e+00
-5.519559e+00
-5.531913e+00
-5.540698e+00
-5.546312e+00
-5.548634e+00
-5.547106e+00
-5.541196e+00
-5.530753e+00
-5.516061e+00
-5.497570e+00
-5.475585e+00
-5.450223e+00
-5.421455e+00
-5.389051e+00
-5.352627e+00
-5.311850e+00
-5.266526e+00
-5.216539e+00
-5.161791e+00
-5.102183e+00
-5.037585e+00
-4.967843e+00
-4.892890e+00
-4.812792e+00
-4.727648e+00
-4.637622e+00
-4.543085e+00
-4.444458e+00
-4.341835e+00
-4.234863e+00
-4.122967e+00
-4.005748e+00
-3.883336e+00
-3.756370e+00
-3.625748e+00
-3.492703e+00
-3.359009e+00
-3.226833e+00
-3.098465e+00
-2.976313e+00
-2.862637e+00
-2.758653e+00
-2.663794e+00
-2.576060e+00
-2.492903e+00
-2.411727e+00
-2.330339e+00
-2.247973e+00
-2.166285e+00
-2.089125e+00
-2.020757e+00
-1.963324e+00
-1.915296e+00
-1.872297e+00
-1.829775e+00
-1.785270e+00
-1.738731e+00
-1.691513e+00
-1.645188e+00
-1.600443e+00
-1.556729e+00
-1.513210e+00
-1.469992e+00
-1.428189e+00
-1.388655e+00
-1.350672e+00
-1.312387e+00
-1.272844e+00
-1.233072e+00
-1.195100e+00
-1.160408e+00
-1.129188e+00
-1.100546e+00
-1.073219e+00
-1.046323e+00
-1.019915e+00
-9.950824e-01
-9.733208e-01
-9.557627e-01
-9.430598e-01
-9.356897e-01
-9.340198e-01
-9.381727e-01
-9.480988e-01
-9.637969e-01
-9.853041e-01
-1.012459e+00
-1.044944e+00
-1.082704e+00
-1.125985e+00
-1.174701e+00
-1.227994e+00
-1.284682e+00
-1.344054e+00
-1.406193e+00
-1.471550e+00
-1.540173e+00
-1.611415e+00
-1.684356e+00
-1.758282e+00
-1.832667e+00
-1.906930e+00
-1.980454e+00
-2.052936e+00
-2.124547e+00
-2.195415e+00
-2.264994e+00
-2.332201e+00
-2.396086e+00
-2.456308e+00
-2.513358e+00
-2.568431e+00
-2.622263e+00
-2.673651e+00
-2.719927e+00
-2.759231e+00
-2.791615e+00
-2.818118e+00
-2.839862e+00
-2.858221e+00
-2.875192e+00
-2.893172e+00
-2.914347e+00
-2.940040e+00
-2.970097e+00
-3.002772e+00
-3.035824e+00
-3.068340e+00
-3.101505e+00
-3.137308e+00
-3.176670e+00
-3.219092e+00
-3.263643e+00
-3.309802e+00
-3.357638e+00
-3.407655e+00
-3.460589e+00
-3.517137e+00
-3.577499e+00
-3.641078e+00
-3.706792e+00
-3.773690e+00
-3.841156e+00
-3.908560e+00
-3.974975e+00
-4.039352e+00
-4.100813e+00
-4.158837e+00
-4.213487e+00
-4.265246e+00
-4.314051e+00
-4.358517e+00
-4.396631e+00
-4.427260e+00
-4.450541e+00
-4.467085e+00
-4.477485e+00
-4.482382e+00
-4.482293e+00
-4.477222e+00
-4.466683e+00
-4.450129e+00
-4.427318e+00
-4.398472e+00
-4.364325e+00
-4.325913e+00
-4.284134e+00
-4.239539e+00
-4.192488e+00
-4.143270e+00
-4.091930e+00
-4.038131e+00
-3.981207e+00
-3.920325e+00
-3.854884e+00
-3.784892e+00
-3.710872e+00
-3.633535e+00
-3.553654e+00
-3.472016e+00
-3.389177e+00
-3.305360e+00
-3.220689e+00
-3.135325e+00
-3.049264e+00
-2.962208e+00
-2.873813e+00
-2.783953e+00
-2.692748e+00
-2.600587e+00
-2.508246e+00
-2.416762e+00
-2.326965e+00
-2.239086e+00
-2.152891e+00
-2.068363e+00
-1.986230e+00
-1.907851e+00
-1.834818e+00
-1.768645e+00
-1.710418e+00
-1.660450e+00
-1.618297e+00
-1.583153e+00
-1.554226e+00
-1.530874e+00
-1.512686e+00
-1.499542e+00
-1.491629e+00
-1.489412e+00
-1.493281e+00
-1.502852e+00
-1.517016e+00
-1.535047e+00
-1.557144e+00
-1.583424e+00
-1.612737e+00
-1.642842e+00
-1.671757e+00
-1.698765e+00
-1.724166e+00
-1.748377e+00
-1.771419e+00
-1.792955e+00
-1.812450e+00
-1.829116e+00
-1.841965e+00
-1.850350e+00
-1.854654e+00
-1.856133e+00
-1.855589e+00
-1.852374e+00
-1.845279e+00
-1.834049e+00
-1.819342e+00
-1.801766e+00
-1.781682e+00
-1.759622e+00
-1.736357e+00
-1.712449e+00
-1.687698e+00
-1.661158e+00
-1.631841e+00
-1.599362e+00
-1.563986e+00
-1.526393e+00
-1.487542e+00
-1.448505e+00
-1.410148e+00
-1.372880e+00
-1.336765e+00
-1.301772e+00
