EVENT_NAME: L_AQUILA
EVENT_ID: IT-2009-0009
EVENT_DATE_YYYYMMDD: 20090406
EVENT_TIME_HHMMSS: 013240
EVENT_LATITUDE_DEGREE: 42.3420
EVENT_LONGITUDE_DEGREE: 13.3800
EVENT_DEPTH_KM: 8.3
HYPOCENTER_REFERENCE: INGV-CNT_Seismic_Bulletin
MAGNITUDE_W: 6.1
MAGNITUDE_W_REFERENCE: INGV-CNT_Seismic_Bulletin
MAGNITUDE_L: 
MAGNITUDE_L_REFERENCE: 
FOCAL_MECHANISM: Normal faulting
NETWORK: IT
STATION_CODE: AQG
STATION_NAME: 
STATION_LATITUDE_DEGREE: 42.373474
STATION_LONGITUDE_DEGREE: 13.337026
STATION_ELEVATION_M: 721
LOCATION: 
SENSOR_DEPTH_M: 0.0
VS30_M/S: 696
SITE_CLASSIFICATION_EC8: B
MORPHOLOGIC_CLASSIFICATION: 
EPICENTRAL_DISTANCE_KM: 5.0
EARTHQUAKE_BACKAZIMUTH_DEGREE: 314.7
DATE_TIME_FIRST_SAMPLE_YYYYMMDD_HHMMSS: 20090406_013212.000
DATE_TIME_FIRST_SAMPLE_PRECISION: seconds
SAMPLING_INTERVAL_S: 0.005000
NDATA: 20000
DURATION_S: 100.000
STREAM: HNN
UNITS: cm
INSTRUMENT: sensor = FBA-3 [Kinemetrics] | digitizer = Everest [Kinemetrics]
INSTRUMENT_ANALOG/DIGITAL: D
INSTRUMENTAL_FREQUENCY_HZ: 212.000
INSTRUMENTAL_DAMPING: 0.000000
FULL_SCALE_G: 1.0
N_BIT_DIGITAL_CONVERTER: 24
PGD_CM: 4.374478
TIME_PGD_S: 33.010000
BASELINE_CORRECTION: BASELINE REMOVED
FILTER_TYPE: BUTTERWORTH
FILTER_ORDER: 2
LOW_CUT_FREQUENCY_HZ: 0.100
HIGH_CUT_FREQUENCY_HZ: 40.000
LATE/NORMAL_TRIGGERED: NT
DATABASE_VERSION: 0.5
HEADER_FORMAT: DYNA 1.2
DATA_TYPE: DISPLACEMENT
PROCESSING: manual (Paolucci et al., 2011)
DATA_TIMESTAMP_YYYYMMDD_HHMMSS: 20211011_155348.108
DATA_LICENSE: CC-BY3_0-IT (http://creativecommons.org/licenses/by/3.0/deed.en)
DATA_CITATION: Luzi L, Pacor F, Puglia R (2019). Italian Accelerometric Archive v 3.0 - Istituto Nazionale di Geofisica e Vulcanologia, Dipartimento della Protezione Civile Nazionale. doi: 10.13127/itaca.3.1
DATA_CREATOR: ITACA working group
ORIGINAL_DATA_MEDIATOR_CITATION: data obtained within the DPC-INGV data exchange agreements
ORIGINAL_DATA_MEDIATOR: Archive of Italian Department of Civil Protection
ORIGINAL_DATA_CREATOR_CITATION: Presidency Of Counsil Of Ministers-Civil Protection Department. (1972). Italian Strong Motion Network. Presidency of Counsil of Ministers - Civil Protection Department. https://doi.org/10.7914/SN/IT http://www.fdsn.org/networks/detail/IT/
ORIGINAL_DATA_CREATOR: network: IT (Italian Strong Motion Network (RAN)); owner: Presidency of Counsil of Ministers - Civil Protection Department (PCM - DPC)
USER1: 
USER2: 
USER3: 
USER4: 
USER5: 
[...]
-1.446426e-01
-1.445916e-01
-1.445389e-01
-1.444845e-01
-1.444284e-01
-1.443705e-01
-1.443109e-01
-1.442495e-01
-1.441864e-01
-1.441215e-01
-1.440549e-01
-1.439866e-01
-1.439164e-01
-1.438445e-01
-1.437708e-01
-1.436954e-01
-1.436183e-01
-1.435393e-01
-1.434585e-01
-1.433758e-01
-1.432913e-01
-1.432050e-01
-1.431168e-01
-1.430269e-01
-1.429351e-01
-1.428414e-01
-1.427459e-01
-1.426485e-01
-1.425492e-01
-1.424480e-01
-1.423449e-01
-1.422399e-01
-1.421330e-01
-1.420241e-01
-1.419133e-01
-1.418006e-01
-1.416860e-01
-1.415694e-01
-1.414508e-01
-1.413303e-01
-1.412078e-01
-1.410833e-01
-1.409569e-01
-1.408284e-01
-1.406980e-01
-1.405656e-01
-1.404311e-01
-1.402946e-01
-1.401561e-01
-1.400155e-01
-1.398730e-01
-1.397283e-01
-1.395815e-01
-1.394327e-01
-1.392818e-01
-1.391288e-01
-1.389737e-01
-1.388165e-01
-1.386572e-01
-1.384958e-01
-1.383323e-01
-1.381667e-01
-1.379988e-01
-1.378289e-01
-1.376568e-01
-1.374825e-01
-1.373061e-01
-1.371274e-01
-1.369466e-01
-1.367637e-01
-1.365785e-01
-1.363912e-01
-1.362016e-01
-1.360097e-01
-1.358156e-01
-1.356194e-01
-1.354208e-01
-1.352200e-01
-1.350169e-01
-1.348115e-01
-1.346038e-01
-1.343939e-01
-1.341816e-01
-1.339670e-01
-1.337501e-01
-1.335308e-01
-1.333092e-01
-1.330853e-01
-1.328590e-01
-1.326303e-01
-1.323993e-01
-1.321660e-01
-1.319303e-01
-1.316921e-01
-1.314515e-01
-1.312086e-01
-1.309633e-01
-1.307156e-01
-1.304655e-01
-1.302129e-01
-1.299578e-01
-1.297003e-01
-1.294403e-01
-1.291779e-01
-1.289129e-01
-1.286455e-01
-1.283755e-01
-1.281031e-01
-1.278282e-01
-1.275507e-01
-1.272708e-01
-1.269884e-01
-1.267034e-01
-1.264158e-01
-1.261257e-01
-1.258330e-01
-1.255378e-01
-1.252400e-01
-1.249396e-01
-1.246365e-01
-1.243308e-01
-1.240225e-01
-1.237116e-01
-1.233980e-01
-1.230817e-01
-1.227627e-01
-1.224411e-01
-1.221168e-01
-1.217899e-01
-1.214603e-01
-1.211280e-01
-1.207930e-01
-1.204552e-01
-1.201147e-01
-1.197715e-01
-1.194255e-01
-1.190768e-01
-1.187254e-01
-1.183713e-01
-1.180143e-01
-1.176546e-01
-1.172921e-01
-1.169267e-01
-1.165586e-01
-1.161877e-01
-1.158138e-01
-1.154372e-01
-1.150577e-01
-1.146753e-01
-1.142900e-01
-1.139018e-01
-1.135108e-01
-1.131168e-01
-1.127199e-01
-1.123201e-01
-1.119173e-01
-1.115116e-01
-1.111030e-01
-1.106914e-01
-1.102768e-01
-1.098593e-01
-1.094387e-01
-1.090151e-01
-1.085886e-01
-1.081591e-01
-1.077266e-01
-1.072910e-01
-1.068525e-01
-1.064109e-01
-1.059664e-01
-1.055187e-01
-1.050680e-01
-1.046141e-01
-1.041572e-01
-1.036972e-01
-1.032341e-01
-1.027679e-01
-1.022986e-01
-1.018261e-01
-1.013506e-01
-1.008718e-01
-1.003899e-01
-9.990484e-02
-9.941664e-02
-9.892526e-02
-9.843066e-02
-9.793281e-02
-9.743174e-02
-9.692744e-02
-9.641991e-02
-9.590914e-02
-9.539511e-02
-9.487783e-02
-9.435727e-02
-9.383344e-02
-9.330630e-02
-9.277583e-02
-9.224205e-02
-9.170497e-02
-9.116455e-02
-9.062077e-02
-9.007361e-02
-8.952308e-02
-8.896918e-02
-8.841191e-02
-8.785122e-02
-8.728710e-02
-8.671955e-02
-8.614857e-02
-8.557417e-02
-8.499634e-02
-8.441509e-02
-8.383038e-02
-8.324218e-02
-8.265050e-02
-8.205530e-02
-8.145659e-02
-8.085435e-02
-8.024862e-02
-7.963938e-02
-7.902661e-02
-7.841026e-02
-7.779034e-02
-7.716688e-02
-7.653990e-02
-7.590936e-02
-7.527523e-02
-7.463745e-02
-7.399601e-02
-7.335094e-02
-7.270227e-02
-7.205002e-02
-7.139410e-02
-7.073449e-02
-7.007119e-02
-6.940424e-02
-6.873363e-02
-6.805934e-02
-6.738132e-02
-6.669959e-02
-6.601415e-02
-6.532498e-02
-6.463204e-02
-6.393531e-02
-6.323478e-02
-6.253048e-02
-6.182242e-02
-6.111055e-02
-6.039481e-02
-5.967524e-02
-5.895190e-02
-5.822484e-02
-5.749399e-02
-5.675923e-02
-5.602051e-02
-5.527788e-02
-5.453139e-02
-5.378106e-02
-5.302687e-02
-5.226876e-02
-5.150670e-02
-5.074066e-02
-4.997069e-02
-4.919683e-02
-4.841906e-02
-4.763732e-02
-4.685156e-02
-4.606178e-02
-4.526798e-02
-4.447016e-02
-4.366831e-02
-4.286245e-02
-4.205256e-02
-4.123863e-02
-4.042064e-02
-3.959859e-02
-3.877244e-02
-3.794220e-02
-3.710789e-02
-3.626953e-02
-3.542704e-02
-3.458033e-02
-3.372941e-02
-3.287434e-02
-3.201515e-02
-3.115184e-02
-3.028434e-02
-2.941261e-02
-2.853665e-02
-2.765648e-02
-2.677211e-02
-2.588353e-02
-2.499069e-02
-2.409360e-02
-2.319223e-02
-2.228657e-02
-2.137658e-02
-2.046228e-02
-1.954370e-02
-1.862085e-02
-1.769369e-02
-1.676215e-02
-1.582622e-02
-1.488594e-02
-1.394133e-02
-1.299236e-02
-1.203901e-02
-1.108126e-02
-1.011911e-02
-9.152525e-03
-8.181501e-03
-7.206033e-03
-6.226119e-03
-5.241749e-03
-4.252906e-03
-3.259566e-03
-2.261703e-03
-1.259307e-03
-2.523839e-04
7.590636e-04
1.775043e-03
2.795561e-03
3.820626e-03
4.850267e-03
5.884507e-03
6.923335e-03
7.966716e-03
9.014641e-03
1.006715e-02
1.112431e-02
1.218617e-02
1.325268e-02
1.432379e-02
1.539950e-02
1.647984e-02
1.756489e-02
1.865471e-02
1.974930e-02
2.084859e-02
2.195253e-02
2.306111e-02
2.417443e-02
2.529257e-02
2.641554e-02
2.754329e-02
2.867577e-02
2.981298e-02
3.095497e-02
3.210182e-02
3.325354e-02
3.441008e-02
3.557143e-02
3.673758e-02
3.790860e-02
3.908449e-02
4.026524e-02
4.145089e-02
4.264146e-02
4.383696e-02
4.503736e-02
4.624263e-02
4.745280e-02
4.866790e-02
4.988800e-02
5.111310e-02
5.234316e-02
5.357816e-02
5.481814e-02
5.606315e-02
5.731321e-02
5.856831e-02
5.982844e-02
6.109361e-02
6.236385e-02
6.363914e-02
6.491951e-02
6.620498e-02
6.749557e-02
6.879131e-02
7.009218e-02
7.139815e-02
7.270920e-02
7.402537e-02
7.534672e-02
7.667330e-02
7.800509e-02
7.934203e-02
8.068410e-02
8.203136e-02
8.338387e-02
8.474167e-02
8.610475e-02
8.747308e-02
8.884664e-02
9.022543e-02
9.160947e-02
9.299879e-02
9.439340e-02
9.579333e-02
9.719858e-02
9.860915e-02
1.000250e-01
1.014461e-01
1.028726e-01
1.043045e-01
1.057417e-01
1.071843e-01
1.086323e-01
1.100856e-01
1.115445e-01
1.130087e-01
1.144784e-01
1.159534e-01
1.174339e-01
1.189199e-01
1.204114e-01
1.219083e-01
1.234107e-01
1.249185e-01
1.264320e-01
1.279511e-01
1.294758e-01
1.310059e-01
1.325414e-01
1.340821e-01
1.356283e-01
1.371802e-01
1.387384e-01
1.403042e-01
1.418795e-01
1.434659e-01
1.450601e-01
1.466513e-01
1.482206e-01
1.497483e-01
1.512251e-01
1.526602e-01
1.540779e-01
1.555058e-01
1.569635e-01
1.584588e-01
1.599885e-01
1.615416e-01
1.631034e-01
1.646587e-01
1.661954e-01
1.677070e-01
1.691950e-01
1.706674e-01
1.721358e-01
1.736080e-01
1.750808e-01
1.765463e-01
1.780102e-01
1.795024e-01
1.810649e-01
1.827256e-01
1.844765e-01
1.862680e-01
1.880256e-01
1.896818e-01
1.912057e-01
1.926176e-01
1.939814e-01
1.953788e-01
1.968751e-01
1.984952e-01
2.002169e-01
2.019847e-01
2.037332e-01
2.054170e-01
2.070370e-01
2.086342e-01
2.102525e-01
2.119044e-01
2.135722e-01
2.152353e-01
2.168864e-01
2.185254e-01
2.201628e-01
2.218339e-01
2.235850e-01
2.254319e-01
2.273396e-01
2.292443e-01
2.310861e-01
2.328244e-01
2.344444e-01
2.359644e-01
2.374325e-01
2.389121e-01
2.404621e-01
2.421194e-01
2.438910e-01
2.457515e-01
2.476378e-01
2.494656e-01
2.511847e-01
2.528206e-01
2.544530e-01
2.561499e-01
2.579204e-01
2.597216e-01
2.615073e-01
2.632694e-01
2.650365e-01
2.668417e-01
2.686968e-01
2.705842e-01
2.724633e-01
2.742923e-01
2.760510e-01
2.777460e-01
2.794062e-01
2.810806e-01
2.828226e-01
2.846598e-01
2.865822e-01
2.885613e-01
2.905656e-01
2.925540e-01
2.944747e-01
2.962826e-01
2.979586e-01
2.995185e-01
3.010081e-01
3.024833e-01
3.039905e-01
3.055640e-01
3.072259e-01
3.089757e-01
3.107936e-01
3.126698e-01
3.146157e-01
3.166435e-01
3.187454e-01
3.208848e-01
3.229887e-01
3.249601e-01
3.267333e-01
3.283318e-01
3.298652e-01
3.314623e-01
3.331999e-01
3.350670e-01
3.369658e-01
3.387618e-01
3.403763e-01
3.418492e-01
3.433096e-01
3.448815e-01
3.466136e-01
3.484866e-01
3.504545e-01
3.524648e-01
3.544612e-01
3.563971e-01
3.582557e-01
3.600444e-01
3.617654e-01
3.633967e-01
3.649007e-01
3.662332e-01
3.673614e-01
3.682909e-01
3.690683e-01
3.697530e-01
3.703933e-01
3.710118e-01
3.715878e-01
3.720597e-01
3.723584e-01
3.724448e-01
3.723313e-01
3.720841e-01
3.717913e-01
3.715049e-01
3.712060e-01
3.708335e-01
3.703476e-01
3.697719e-01
3.691898e-01
3.687071e-01
3.684109e-01
3.683473e-01
3.685177e-01
3.688906e-01
3.694296e-01
3.701245e-01
3.709935e-01
3.720417e-01
3.732127e-01
3.743966e-01
3.754879e-01
3.764075e-01
3.770658e-01
3.773697e-01
3.773010e-01
3.769305e-01
3.763105e-01
3.754055e-01
3.741983e-01
3.728273e-01
3.715445e-01
3.705460e-01
3.698882e-01
3.695217e-01
3.693323e-01
3.691645e-01
3.688811e-01
3.684306e-01
3.678433e-01
3.671650e-01
3.664151e-01
3.655952e-01
3.647054e-01
3.637682e-01
3.628595e-01
3.620916e-01
3.615362e-01
3.611703e-01
3.609079e-01
3.606752e-01
3.604348e-01
3.601200e-01
3.595814e-01
3.586669e-01
3.573471e-01
3.557255e-01
3.539522e-01
3.521721e-01
3.505308e-01
3.491549e-01
3.480770e-01
3.471885e-01
3.462685e-01
3.450531e-01
3.433032e-01
3.408687e-01
3.377410e-01
3.340658e-01
3.301055e-01
3.261662e-01
3.225132e-01
3.193106e-01
3.166099e-01
3.143757e-01
3.125219e-01
3.109144e-01
3.093235e-01
3.074440e-01
3.050919e-01
3.023988e-01
2.997383e-01
2.974375e-01
2.955851e-01
2.940928e-01
2.928717e-01
2.919566e-01
2.915189e-01
2.917373e-01
2.925906e-01
2.937414e-01
2.946420e-01
2.948434e-01
2.942444e-01
2.930345e-01
2.914718e-01
2.897606e-01
2.880200e-01
2.862341e-01
2.842521e-01
2.819210e-01
2.791983e-01
2.760942e-01
2.725828e-01
2.686522e-01
2.643895e-01
2.599160e-01
2.552026e-01
2.500360e-01
2.442928e-01
2.382183e-01
2.323042e-01
2.268843e-01
2.218892e-01
2.169776e-01
2.118387e-01
2.062789e-01
2.000770e-01
1.930413e-01
1.852976e-01
1.772855e-01
1.693909e-01
1.617805e-01
1.546361e-01
1.483373e-01
1.432751e-01
1.395171e-01
1.367198e-01
1.343747e-01
1.320510e-01
1.294016e-01
1.262035e-01
1.226383e-01
1.194144e-01
1.173314e-01
1.166027e-01
1.166689e-01
1.167368e-01
1.164408e-01
1.159260e-01
1.154636e-01
1.152105e-01
1.152662e-01
1.157273e-01
1.166125e-01
1.177725e-01
1.188861e-01
1.195782e-01
1.195487e-01
1.185979e-01
1.166755e-01
1.140365e-01
1.112601e-01
1.089652e-01
1.074992e-01
1.069178e-01
1.071401e-01
1.079819e-01
1.091030e-01
1.101371e-01
1.109412e-01
1.115885e-01
1.120504e-01
1.119884e-01
1.109431e-01
1.087249e-01
1.055878e-01
1.019700e-01
9.802203e-02
9.340560e-02
8.754343e-02
7.999021e-02
7.061744e-02
5.969129e-02
4.790982e-02
3.618457e-02
2.514375e-02
1.478385e-02
4.601488e-03
-5.940998e-03
-1.702740e-02
-2.846184e-02
-3.987577e-02
-5.084575e-02
-6.090869e-02
-6.969281e-02
-7.714068e-02
-8.354754e-02
-8.931563e-02
-9.468818e-02
-9.975657e-02
-1.046768e-01
-1.097895e-01
-1.154674e-01
-1.217711e-01
-1.281832e-01
-1.337395e-01
-1.376268e-01
-1.397910e-01
-1.409167e-01
-1.418064e-01
-1.428782e-01
-1.441757e-01
-1.455132e-01
-1.464806e-01
-1.466310e-01
-1.459584e-01
-1.451385e-01
-1.451804e-01
-1.468351e-01
-1.503154e-01
-1.554412e-01
-1.618993e-01
-1.693757e-01
-1.776293e-01
-1.866064e-01
-1.964700e-01
-2.074033e-01
-2.192956e-01
-2.315874e-01
-2.434373e-01
-2.540812e-01
-2.630605e-01
-2.702032e-01
-2.755699e-01
-2.795100e-01
-2.827076e-01
-2.859929e-01
-2.898296e-01
-2.937986e-01
-2.966489e-01
-2.970393e-01
-2.943788e-01
-2.890681e-01
-2.819776e-01
-2.736799e-01
-2.641947e-01
-2.533640e-01
-2.411838e-01
-2.277033e-01
-2.129255e-01
-1.970010e-01
-1.803297e-01
-1.633651e-01
-1.464827e-01
-1.300732e-01
-1.145956e-01
-1.004811e-01
-8.803768e-02
-7.743947e-02
-6.879522e-02
-6.221554e-02
-5.771679e-02
-5.499880e-02
-5.338398e-02
-5.202244e-02
-5.009052e-02
-4.679967e-02
-4.146227e-02
-3.374039e-02
-2.368864e-02
-1.143914e-02
2.971985e-03
1.939758e-02
3.751670e-02
5.733194e-02
7.972626e-02
1.061453e-01
1.374316e-01
1.730982e-01
2.118768e-01
2.528490e-01
2.960191e-01
3.420207e-01
3.915267e-01
4.449214e-01
5.021486e-01
5.625479e-01
6.249424e-01
6.881443e-01
7.514071e-01
8.143221e-01
8.764023e-01
9.369916e-01
9.955711e-01
1.051951e+00
1.106144e+00
1.158267e+00
1.208583e+00
1.257439e+00
1.305138e+00
1.352094e+00
1.399052e+00
1.446611e+00
1.494323e+00
1.540861e+00
1.585505e+00
1.629141e+00
1.673579e+00
1.720209e+00
1.769566e+00
1.821697e+00
1.876426e+00
1.933308e+00
1.991729e+00
2.051327e+00
2.112309e+00
2.175226e+00
2.240496e+00
2.308246e+00
2.378372e+00
2.450470e+00
2.523892e+00
2.598128e+00
2.673190e+00
2.749471e+00
2.827238e+00
2.906385e+00
2.986634e+00
3.067722e+00
3.149348e+00
3.231102e+00
3.312569e+00
3.393481e+00
3.473695e+00
3.552988e+00
3.630957e+00
3.707176e+00
3.781360e+00
3.853220e+00
3.922208e+00
3.987563e+00
4.048640e+00
4.105099e+00
4.156765e+00
4.203410e+00
4.244745e+00
4.280538e+00
4.310652e+00
4.335018e+00
4.353621e+00
4.366463e+00
4.373477e+00
4.374478e+00
4.369282e+00
4.357904e+00
4.340620e+00
4.317842e+00
4.290006e+00
4.257589e+00
4.221191e+00
4.181588e+00
4.139584e+00
4.095607e+00
4.049377e+00
4.000032e+00
3.946584e+00
3.888328e+00
3.824985e+00
3.756562e+00
3.683099e+00
3.604584e+00
3.520995e+00
3.432296e+00
3.338386e+00
3.239091e+00
3.134156e+00
3.023233e+00
2.905905e+00
2.781706e+00
2.650167e+00
2.510916e+00
2.363841e+00
2.209223e+00
2.047784e+00
1.880648e+00
1.709149e+00
1.534539e+00
1.357768e+00
1.179570e+00
1.000752e+00
8.223766e-01
6.457555e-01
4.725352e-01
3.048696e-01
1.450721e-01
-5.628806e-03
-1.481720e-01
-2.849606e-01
-4.181013e-01
-5.487773e-01
-6.776542e-01
-8.050471e-01
-9.308717e-01
-1.054653e+00
-1.175597e+00
-1.292765e+00
-1.405195e+00
-1.511951e+00
-1.612297e+00
-1.705903e+00
-1.792930e+00
-1.873926e+00
-1.949531e+00
-2.020173e+00
-2.085979e+00
-2.146911e+00
-2.202852e+00
-2.253493e+00
-2.298193e+00
-2.336130e+00
-2.366768e+00
-2.390235e+00
-2.407295e+00
-2.418929e+00
-2.425866e+00
-2.428363e+00
-2.426303e+00
-2.419502e+00
-2.408017e+00
-2.392282e+00
-2.373019e+00
-2.351034e+00
-2.327028e+00
-2.301510e+00
-2.274797e+00
-2.247054e+00
-2.218325e+00
-2.188547e+00
-2.157574e+00
-2.125302e+00
-2.091951e+00
-2.058137e+00
-2.024432e+00
-1.990809e+00
-1.956597e+00
-1.920807e+00
-1.882343e+00
-1.840016e+00
-1.792717e+00
-1.739952e+00
-1.682455e+00
-1.622303e+00
-1.561938e+00
-1.502390e+00
-1.442404e+00
-1.379656e+00
-1.312807e+00
-1.242429e+00
-1.170281e+00
-1.097857e+00
-1.025546e+00
-9.530009e-01
-8.801780e-01
-8.079065e-01
-7.373314e-01
-6.687947e-01
-6.014658e-01
-5.340946e-01
-4.659687e-01
-3.971121e-01
-3.277146e-01
-2.576463e-01
-1.866373e-01
-1.146648e-01
-4.187231e-02
3.162475e-02
1.052638e-01
1.775343e-01
2.467110e-01
3.120253e-01
3.733487e-01
4.295981e-01
4.780538e-01
5.156942e-01
5.413530e-01
5.567606e-01
5.655310e-01
5.709657e-01
5.745797e-01
5.762704e-01
5.754499e-01
5.720346e-01
5.667787e-01
5.610292e-01
5.562010e-01
5.533336e-01
5.529136e-01
5.549244e-01
5.590623e-01
5.649891e-01
5.725458e-01
5.818824e-01
5.932373e-01
6.064306e-01
6.207628e-01
6.356104e-01
6.510349e-01
6.677247e-01
6.865066e-01
7.079627e-01
7.322926e-01
7.594660e-01
7.894769e-01
8.222698e-01
8.575080e-01
8.946331e-01
9.330625e-01
9.722668e-01
1.011829e+00
1.051465e+00
1.090918e+00
1.129950e+00
1.168591e+00
1.206942e+00
1.244171e+00
1.278190e+00
1.307130e+00
1.330732e+00
1.349692e+00
1.364256e+00
1.374048e+00
1.378939e+00
1.379754e+00
1.378259e+00
1.376562e+00
1.376206e+00
1.377501e+00
1.379648e+00
1.381354e+00
1.381203e+00
1.377813e+00
1.370184e+00
1.358002e+00
1.341521e+00
1.321292e+00
1.298014e+00
1.272492e+00
1.245500e+00
1.217581e+00
1.188981e+00
1.159772e+00
1.129992e+00
1.099731e+00
1.069063e+00
1.037833e+00
1.005579e+00
9.716744e-01
9.355129e-01
8.966150e-01
8.547454e-01
8.099946e-01
7.623984e-01
7.113255e-01
6.557688e-01
5.955167e-01
5.315414e-01
4.649220e-01
3.956771e-01
3.228975e-01
2.458554e-01
1.647909e-01
8.076436e-02
-4.950510e-03
-9.128910e-02
-1.774809e-01
-2.628985e-01
-3.468644e-01
-4.287226e-01
-5.081059e-01
-5.849743e-01
-6.594133e-01
-7.315487e-01
-8.016062e-01
-8.698629e-01
-9.364735e-01
-1.001377e+00
-1.064396e+00
-1.125472e+00
-1.184825e+00
-1.242863e+00
-1.299892e+00
-1.355904e+00
-1.410718e+00
-1.464317e+00
-1.516938e+00
-1.568818e+00
-1.620003e+00
-1.670486e+00
-1.720496e+00
-1.770636e+00
-1.821759e+00
-1.874657e+00
-1.929776e+00
-1.987105e+00
-2.046250e+00
-2.106616e+00
-2.167605e+00
-2.228778e+00
-2.289738e+00
-2.349793e+00
-2.407711e+00
-2.461862e+00
-2.510680e+00
-2.553386e+00
-2.590811e+00
-2.625635e+00
-2.661242e+00
-2.699643e+00
-2.740042e+00
-2.779287e+00
-2.814120e+00
-2.843408e+00
-2.868027e+00
-2.888636e+00
-2.904304e+00
-2.913467e+00
-2.915450e+00
-2.910783e+00
-2.900495e+00
-2.885317e+00
-2.865404e+00
-2.840571e+00
-2.810762e+00
-2.776244e+00
-2.737363e+00
-2.694268e+00
-2.646988e+00
-2.595598e+00
-2.540073e+00
-2.480009e+00
-2.414772e+00
-2.344267e+00
-2.269389e+00
-2.191016e+00
-2.108672e+00
-2.021048e+00
-1.927695e+00
-1.829521e+00
-1.727905e+00
-1.623985e+00
-1.518706e+00
-1.413065e+00
-1.307987e+00
-1.204029e+00
-1.101374e+00
-1.000187e+00
-9.009684e-01
-8.045310e-01
-7.115840e-01
-6.223568e-01
-5.366804e-01
-4.543900e-01
-3.755379e-01
-3.002667e-01
-2.286937e-01
-1.609827e-01
-9.736239e-02
-3.798190e-02
1.717437e-02
6.810504e-02
1.146255e-01
1.567007e-01
1.948518e-01
2.298852e-01
2.622836e-01
2.919765e-01
3.183972e-01
3.404252e-01
3.563768e-01
3.645698e-01
3.645539e-01
3.581329e-01
3.487292e-01
3.389860e-01
3.289856e-01
3.171721e-01
3.026933e-01
2.863453e-01
2.695622e-01
2.531877e-01
2.372564e-01
2.214485e-01
2.054966e-01
1.892175e-01
1.722691e-01
1.540464e-01
1.339476e-01
1.117679e-01
8.783287e-02
6.272621e-02
3.686805e-02
1.035271e-02
-1.686233e-02
-4.471933e-02
-7.306787e-02
-1.019713e-01
-1.320099e-01
-1.639447e-01
-1.978182e-01
-2.327057e-01
-2.676063e-01
-3.023185e-01
-3.373280e-01
-3.731685e-01
-4.100890e-01
-4.481005e-01
-4.870651e-01
-5.267516e-01
-5.669135e-01
-6.073382e-01
-6.477880e-01
-6.878807e-01
-7.270836e-01
-7.648557e-01
-8.007786e-01
-8.345882e-01
-8.661262e-01
-8.953057e-01
-9.221733e-01
-9.469652e-01
-9.700170e-01
-9.915958e-01
-1.011818e+00
-1.030660e+00
-1.047965e+00
-1.063504e+00
-1.077099e+00
-1.088690e+00
-1.098299e+00
-1.105945e+00
-1.111607e+00
-1.115299e+00
