EVENT_NAME: L_AQUILA
EVENT_ID: IT-2009-0009
EVENT_DATE_YYYYMMDD: 20090406
EVENT_TIME_HHMMSS: 013240
EVENT_LATITUDE_DEGREE: 42.3420
EVENT_LONGITUDE_DEGREE: 13.3800
EVENT_DEPTH_KM: 8.3
HYPOCENTER_REFERENCE: INGV-CNT_Seismic_Bulletin
MAGNITUDE_W: 6.1
MAGNITUDE_W_REFERENCE: INGV-CNT_Seismic_Bulletin
MAGNITUDE_L: 
MAGNITUDE_L_REFERENCE: 
FOCAL_MECHANISM: Normal faulting
NETWORK: IT
STATION_CODE: AQG
STATION_NAME: 
STATION_LATITUDE_DEGREE: 42.373474
STATION_LONGITUDE_DEGREE: 13.337026
STATION_ELEVATION_M: 721
LOCATION: 
SENSOR_DEPTH_M: 0.0
VS30_M/S: 696
SITE_CLASSIFICATION_EC8: B
MORPHOLOGIC_CLASSIFICATION: 
EPICENTRAL_DISTANCE_KM: 5.0
EARTHQUAKE_BACKAZIMUTH_DEGREE: 314.7
DATE_TIME_FIRST_SAMPLE_YYYYMMDD_HHMMSS: 20090406_013212.000
DATE_TIME_FIRST_SAMPLE_PRECISION: seconds
SAMPLING_INTERVAL_S: 0.005000
NDATA: 20000
DURATION_S: 100.000
STREAM: HNE
UNITS: cm/s^2
INSTRUMENT: sensor = FBA-3 [Kinemetrics] | digitizer = Everest [Kinemetrics]
INSTRUMENT_ANALOG/DIGITAL: D
INSTRUMENTAL_FREQUENCY_HZ: 202.000
INSTRUMENTAL_DAMPING: 0.000000
FULL_SCALE_G: 1.0
N_BIT_DIGITAL_CONVERTER: 24
PGA_CM/S^2: -437.427765
TIME_PGA_S: 33.560000
BASELINE_CORRECTION: BASELINE REMOVED
FILTER_TYPE: BUTTERWORTH
FILTER_ORDER: 2
LOW_CUT_FREQUENCY_HZ: 0.100
HIGH_CUT_FREQUENCY_HZ: 40.000
LATE/NORMAL_TRIGGERED: NT
DATABASE_VERSION: 0.5
HEADER_FORMAT: DYNA 1.2
DATA_TYPE: ACCELERATION
PROCESSING: manual (Paolucci et al., 2011)
DATA_TIMESTAMP_YYYYMMDD_HHMMSS: 20211011_155347.337
DATA_LICENSE: CC-BY3_0-IT (http://creativecommons.org/licenses/by/3.0/deed.en)
DATA_CITATION: Luzi L, Pacor F, Puglia R (2019). Italian Accelerometric Archive v 3.0 - Istituto Nazionale di Geofisica e Vulcanologia, Dipartimento della Protezione Civile Nazionale. doi: 10.13127/itaca.3.1
DATA_CREATOR: ITACA working group
ORIGINAL_DATA_MEDIATOR_CITATION: data obtained within the DPC-INGV data exchange agreements
ORIGINAL_DATA_MEDIATOR: Archive of Italian Department of Civil Protection
ORIGINAL_DATA_CREATOR_CITATION: Presidency Of Counsil Of Ministers-Civil Protection Department. (1972). Italian Strong Motion Network. Presidency of Counsil of Ministers - Civil Protection Department. https://doi.org/10.7914/SN/IT http://www.fdsn.org/networks/detail/IT/
ORIGINAL_DATA_CREATOR: network: IT (Italian Strong Motion Network (RAN)); owner: Presidency of Counsil of Ministers - Civil Protection Department (PCM - DPC)
USER1: 
USER2: 
USER3: 
USER4: 
USER5: 
[...]
-0.029438
-0.027763
-0.027784
-0.029373
-0.030109
-0.029485
-0.029129
-0.029257
-0.029160
-0.029666
-0.031059
-0.031020
-0.027921
-0.024754
-0.026326
-0.031740
-0.034619
-0.031711
-0.026128
-0.023643
-0.027283
-0.032923
-0.033430
-0.028610
-0.025703
-0.028310
-0.031276
-0.030344
-0.028470
-0.028923
-0.030352
-0.030187
-0.028637
-0.028094
-0.029324
-0.030825
-0.031200
-0.030149
-0.028587
-0.027663
-0.028001
-0.029736
-0.031577
-0.031961
-0.031074
-0.029839
-0.028442
-0.026647
-0.026223
-0.029976
-0.035126
-0.035004
-0.029396
-0.025108
-0.026802
-0.031516
-0.032735
-0.029548
-0.027117
-0.028098
-0.030163
-0.031020
-0.030862
-0.030396
-0.029866
-0.029442
-0.028489
-0.027111
-0.027651
-0.030758
-0.033285
-0.032123
-0.028110
-0.026163
-0.028717
-0.031376
-0.030874
-0.029700
-0.029641
-0.029945
-0.030212
-0.029782
-0.028384
-0.028365
-0.031355
-0.033451
-0.030144
-0.024915
-0.025149
-0.031069
-0.035383
-0.033102
-0.027522
-0.024878
-0.026612
-0.029869
-0.031804
-0.032018
-0.031644
-0.030311
-0.027877
-0.026623
-0.027686
-0.029771
-0.031185
-0.031025
-0.030201
-0.029888
-0.029514
-0.028294
-0.027267
-0.028457
-0.031249
-0.031805
-0.028692
-0.025782
-0.027256
-0.031956
-0.034396
-0.031257
-0.025523
-0.023824
-0.028721
-0.033981
-0.032763
-0.027833
-0.025830
-0.027480
-0.029479
-0.029709
-0.028672
-0.028569
-0.030336
-0.031719
-0.029751
-0.025858
-0.025512
-0.029839
-0.032790
-0.030296
-0.026527
-0.026786
-0.029286
-0.029705
-0.028670
-0.029186
-0.030684
-0.029459
-0.025503
-0.024117
-0.027633
-0.032721
-0.034929
-0.031233
-0.024368
-0.022149
-0.026716
-0.031652
-0.031667
-0.028710
-0.027669
-0.029310
-0.030035
-0.028072
-0.026389
-0.027287
-0.028588
-0.028727
-0.028804
-0.028508
-0.027283
-0.026752
-0.027884
-0.029306
-0.029139
-0.027269
-0.025715
-0.026268
-0.028346
-0.029578
-0.028676
-0.026925
-0.025915
-0.026242
-0.027775
-0.029164
-0.029275
-0.027902
-0.025546
-0.024787
-0.026816
-0.028398
-0.027864
-0.027218
-0.026777
-0.025610
-0.025324
-0.027428
-0.029284
-0.027928
-0.025367
-0.024857
-0.025881
-0.026415
-0.026449
-0.027146
-0.027769
-0.026801
-0.025536
-0.025222
-0.024411
-0.023888
-0.026528
-0.030179
-0.029723
-0.025871
-0.023595
-0.024112
-0.025407
-0.026429
-0.026896
-0.026908
-0.026344
-0.024851
-0.024216
-0.026118
-0.028257
-0.027410
-0.023968
-0.021742
-0.023185
-0.025871
-0.026560
-0.025512
-0.024489
-0.024254
-0.024398
-0.024129
-0.023345
-0.023128
-0.024839
-0.026848
-0.025308
-0.021441
-0.020771
-0.024029
-0.026579
-0.025381
-0.022267
-0.020923
-0.022085
-0.023437
-0.023731
-0.024342
-0.025547
-0.024875
-0.022027
-0.020382
-0.021872
-0.024662
-0.025713
-0.023956
-0.020739
-0.018522
-0.019998
-0.024668
-0.027379
-0.024852
-0.020161
-0.018495
-0.020910
-0.023196
-0.022387
-0.020964
-0.021218
-0.021833
-0.021682
-0.021627
-0.022316
-0.022523
-0.021541
-0.020884
-0.020891
-0.020129
-0.019002
-0.019658
-0.022276
-0.023848
-0.022340
-0.019360
-0.016951
-0.016588
-0.019487
-0.022897
-0.022473
-0.019576
-0.018624
-0.019993
-0.020321
-0.017888
-0.015903
-0.017891
-0.020950
-0.020032
-0.017092
-0.017507
-0.020499
-0.021881
-0.020623
-0.017260
-0.013504
-0.013101
-0.017182
-0.021632
-0.021471
-0.017538
-0.015585
-0.017237
-0.018531
-0.017458
-0.016191
-0.016785
-0.018055
-0.017132
-0.014225
-0.013552
-0.016833
-0.019495
-0.017821
-0.014451
-0.012645
-0.012682
-0.014763
-0.017818
-0.018785
-0.016832
-0.013999
-0.012409
-0.012408
-0.013008
-0.014081
-0.015238
-0.014728
-0.012998
-0.012848
-0.014512
-0.015395
-0.014543
-0.013197
-0.012447
-0.012516
-0.012101
-0.010592
-0.011130
-0.014634
-0.015821
-0.012644
-0.009968
-0.010488
-0.011936
-0.012653
-0.012896
-0.012035
-0.009826
-0.008907
-0.010421
-0.010885
-0.009131
-0.009604
-0.012983
-0.012782
-0.007367
-0.004310
-0.008028
-0.013698
-0.015003
-0.010987
-0.005683
-0.003551
-0.005610
-0.009436
-0.011356
-0.009703
-0.006925
-0.006260
-0.007220
-0.007263
-0.006583
-0.007379
-0.008841
-0.008012
-0.004913
-0.002624
-0.003664
-0.006802
-0.008247
-0.006898
-0.004458
-0.002429
-0.002453
-0.004862
-0.006884
-0.006268
-0.004044
-0.002277
-0.001808
-0.002241
-0.002847
-0.003527
-0.004564
-0.004716
-0.002197
0.000583
-0.000643
-0.004066
-0.004592
-0.002045
0.000335
0.001237
0.001175
0.000023
-0.002417
-0.004229
-0.002941
0.000745
0.003378
0.003343
0.002174
0.000295
-0.002553
-0.002834
0.001742
0.006298
0.005826
0.002152
-0.000690
-0.001641
0.000016
0.005004
0.009213
0.007525
0.002113
-0.000790
0.001104
0.005196
0.007895
0.007852
0.005768
0.003291
0.002641
0.004215
0.005991
0.006948
0.007735
0.008479
0.008304
0.006507
0.003973
0.003885
0.008648
0.013979
0.012664
0.006411
0.003797
0.007481
0.012387
0.013633
0.011012
0.007383
0.005970
0.008338
0.012561
0.015050
0.014388
0.011688
0.009461
0.009646
0.011049
0.012037
0.013479
0.015239
0.015047
0.012785
0.011697
0.013251
0.014372
0.014060
0.015395
0.017480
0.015906
0.011714
0.011044
0.015770
0.020735
0.021447
0.018330
0.013816
0.011590
0.014900
0.021270
0.023928
0.020654
0.017018
0.017583
0.019147
0.018820
0.019728
0.022860
0.023685
0.019920
0.016045
0.017412
0.022649
0.026416
0.026536
0.024316
0.022142
0.021728
0.022623
0.023480
0.024157
0.025278
0.026150
0.025385
0.023899
0.023749
0.025439
0.028365
0.030371
0.028773
0.024975
0.023717
0.026350
0.029241
0.030055
0.030754
0.031602
0.029516
0.025663
0.026004
0.031830
0.036698
0.035521
0.030975
0.027725
0.027828
0.031906
0.037208
0.038661
0.034995
0.030037
0.028882
0.032458
0.036596
0.038665
0.039003
0.036348
0.031403
0.030428
0.036405
0.042322
0.041062
0.036439
0.035778
0.038086
0.038760
0.038685
0.040446
0.042232
0.042060
0.041381
0.040673
0.039083
0.038713
0.041937
0.046192
0.046679
0.042991
0.039999
0.041947
0.046797
0.048841
0.046914
0.044609
0.043482
0.043312
0.044866
0.047522
0.049821
0.051203
0.050649
0.048550
0.046789
0.045881
0.047117
0.051077
0.053812
0.052591
0.049969
0.049333
0.051485
0.054630
0.056224
0.054999
0.051915
0.049898
0.051242
0.055423
0.059434
0.060091
0.057518
0.054894
0.054024
0.054160
0.055602
0.059842
0.063792
0.061508
0.055621
0.055042
0.059945
0.063675
0.064486
0.063291
0.060047
0.058154
0.061132
0.065398
0.065611
0.063080
0.062694
0.065786
0.069200
0.069856
0.068854
0.069157
0.071465
0.075786
0.081810
0.091190
0.122814
0.218234
0.407850
0.650414
0.810580
0.749306
0.487868
0.263499
0.336134
0.667440
0.863323
0.592045
-0.009032
-0.555933
-0.890128
-1.000288
-0.662146
0.366835
1.747064
2.528429
2.025577
0.641581
-0.555510
-1.162479
-1.794021
-2.799499
-3.334524
-2.388558
-0.200054
2.081346
3.571735
3.837027
2.718950
0.692866
-1.139906
-1.728807
-0.846390
0.316539
-0.050633
-2.100164
-3.794942
-3.332601
-0.946646
2.132144
5.027424
6.682719
5.547004
1.495950
-2.956068
-4.953690
-4.098446
-2.265604
-1.147764
-0.534775
0.246238
0.520515
0.192528
1.357162
4.952268
8.055290
7.314803
3.171567
-1.309591
-4.059984
-4.792057
-3.704525
-1.364167
0.865816
1.511915
0.149404
-1.782060
-1.920926
0.138446
2.065548
2.007805
1.033763
1.074223
1.965202
2.038122
0.505436
-1.967729
-4.295441
-5.523189
-4.811020
-2.072154
1.473658
4.376572
6.057706
5.889554
3.020589
-1.000715
-2.070118
1.269967
5.005211
4.546433
0.054468
-4.876277
-7.406762
-6.980329
-4.453268
-1.119616
1.587416
2.375605
0.820648
-1.840254
-2.958882
-0.956389
2.537517
4.705791
4.706558
3.219417
0.757231
-1.965047
-3.705003
-3.896631
-2.980075
-1.047172
2.146596
4.981448
4.541218
0.986509
-1.776315
-0.941155
2.232946
4.473960
4.076243
1.961353
-0.588228
-3.336956
-5.168275
-3.659985
1.332556
6.442343
9.022492
10.004285
10.778031
9.990418
6.333073
2.138637
0.903259
3.087746
6.572212
9.301871
10.013949
8.422476
5.958310
4.734096
5.254081
6.147058
5.884495
3.924071
0.469554
-3.781721
-7.286849
-8.198536
-6.074369
-2.352279
0.643933
0.186571
-5.054410
-11.243505
-11.007203
-2.344622
7.747303
11.603918
9.211699
5.915439
5.147779
6.157040
7.673844
10.313821
13.633702
13.998905
8.667793
0.321797
-5.228251
-5.262345
-1.980696
1.699422
5.355672
8.665357
9.002086
4.601399
-1.569132
-3.687309
0.787114
7.583940
9.329127
3.093425
-5.794505
-8.083794
-0.290332
10.996913
17.394239
18.868538
20.911102
24.947689
27.264086
25.119471
19.089727
10.555620
1.123291
-5.867860
-6.527948
0.174689
10.376515
17.513744
17.995361
13.885186
9.432785
6.791347
5.879292
7.028369
11.539747
18.777597
24.469719
22.828869
10.788420
-7.998984
-23.743324
-27.183559
-16.942406
-0.887520
11.276417
17.484537
22.900366
29.723587
31.059189
19.137623
-1.280425
-15.762268
-16.480406
-6.455577
7.243031
14.612772
6.711374
-11.265461
-20.377188
-10.256293
8.717529
21.655672
24.950134
22.218287
16.457434
8.959553
1.945433
0.519659
8.332378
22.651539
37.933468
49.669586
52.112785
39.387272
13.462739
-11.591293
-18.131552
-0.940599
26.054659
42.011017
37.943302
20.653763
1.013323
-15.152821
-25.382259
-26.460848
-16.569912
-0.279662
14.716381
26.136618
34.455666
33.948021
19.170506
-2.393108
-16.810511
-18.967485
-13.795966
-7.002735
0.635487
10.791326
21.635008
26.187645
18.560007
1.715544
-12.776827
-12.980618
4.512673
31.799467
54.699268
62.166851
52.758736
32.491535
9.322299
-9.615054
-18.863445
-15.242434
-1.301868
11.568005
10.228912
-7.004023
-27.387772
-35.561069
-26.777435
-7.657331
11.983702
25.070799
31.959778
41.189224
56.133465
64.442902
53.489765
30.410122
14.731835
16.345343
28.412037
36.540661
29.352224
5.116023
-25.322248
-45.129295
-44.761868
-25.444883
6.396580
38.826962
54.478306
45.125641
22.279669
-0.202135
-22.555311
-43.415073
-49.033722
-35.739773
-21.698643
-21.845718
-27.468519
-20.576712
0.613154
19.341501
21.276123
9.523296
-1.707745
-2.115216
7.666672
20.630886
32.026234
43.407227
56.083988
61.297146
46.989391
17.556656
-4.610491
-3.621877
13.408389
29.684895
37.226616
37.285881
33.840237
31.575766
33.537132
37.341339
35.477997
21.776926
-1.262115
-23.172056
-32.949482
-24.528610
-0.229163
25.728638
32.091286
10.232600
-22.429331
-40.751160
-40.166832
-36.168255
-41.386070
-51.252346
-50.638840
-34.334137
-18.920048
-25.895697
-54.962177
-84.083199
-91.663834
-71.181847
-32.741035
3.507701
23.081779
27.602709
25.619112
20.421320
12.790630
7.599057
10.085328
18.820873
27.024298
28.430475
18.411453
-4.797026
-31.634003
-43.990196
-38.649548
-35.273289
-52.050152
-79.797638
-84.567513
-50.998280
-17.974998
-30.935575
-73.182022
-97.279327
-97.217026
-98.324860
-105.231705
-104.661247
-101.359901
-113.299660
-139.015915
-154.870239
-138.689026
-88.761734
-27.514648
16.058388
28.972273
17.607237
-1.755414
-15.946466
-23.248367
-26.972427
-28.318565
-26.710873
-20.708403
-14.073454
-25.720036
-77.417641
-148.497635
-170.345871
-115.267357
-53.084126
-58.322987
-106.914085
-128.054169
-115.423569
-117.268929
-142.281357
-152.734314
-141.390518
-140.353333
-158.344406
-170.687546
-165.128647
-153.193558
-144.836807
-137.784210
-126.062927
-113.947350
-115.972794
-132.264694
-143.378265
-142.017456
-139.831345
-139.903275
-136.617996
-136.823593
-149.736984
-164.003357
-161.952652
-148.644058
-142.801117
-148.411194
-152.553024
-142.790482
-121.116638
-103.433846
-97.881317
-91.116226
-72.974831
-54.194462
-42.961811
-31.077635
-10.566410
16.173403
40.668278
55.151539
60.125515
63.911488
71.480583
78.979004
79.040527
67.546707
46.163155
18.012461
-16.219826
-53.054798
-78.990005
-76.516617
-45.923874
-12.972060
-2.261596
-13.576996
-29.910984
-36.002998
-28.044815
-10.162716
14.489303
43.685493
72.852112
95.687027
105.818085
102.713776
96.378029
99.172073
113.006630
129.401871
140.985825
148.530426
156.153717
163.182663
166.028275
167.058838
173.131271
183.689819
187.925888
176.445679
150.454285
117.476677
84.110809
56.163219
36.719479
18.020012
-12.286130
-46.027515
-45.288410
17.278889
105.638725
155.368484
168.416428
198.076813
245.329163
258.340790
219.300400
162.517456
124.493111
113.501373
116.803467
122.639641
131.740540
147.152954
161.330643
160.457901
142.755127
126.831535
131.691467
153.998550
175.284286
181.293427
169.982864
151.953384
139.739487
135.117249
136.224960
145.457886
160.763916
174.133652
181.882339
186.519897
190.468536
194.365356
199.594849
205.782654
208.411285
205.835709
201.824921
195.257996
180.494446
163.559326
159.823212
173.995056
196.942993
212.945389
207.699158
182.153488
146.223450
96.961578
25.931124
-60.678711
-152.378372
-248.609726
-339.049591
-387.636169
-365.054565
-284.983917
-183.056351
-79.298256
8.532222
39.093231
-27.105577
-181.113068
-351.671722
-437.427765
-376.213196
-201.138153
-19.058296
79.285759
81.385529
27.152687
-35.719898
-63.221310
-41.224651
-7.808478
-12.019109
-56.586693
-90.819908
-62.005684
12.087146
50.313560
9.177267
-72.007820
-131.219452
-138.853668
-103.134644
-52.630947
-17.206129
-19.498577
-63.061207
-122.819717
-168.139771
-194.209732
-213.311340
-228.006699
-232.914566
-230.927917
-230.877350
-232.365692
-225.903732
-213.215210
-210.972824
-220.882538
-217.355820
-183.102325
-135.827332
-107.328972
-110.683052
-128.717010
-130.645340
-104.742241
-67.981979
-39.389740
-18.374102
4.892910
29.581680
41.650257
34.840137
29.730455
51.554848
94.867912
132.888687
146.541351
126.845612
79.101662
49.633801
97.756538
204.507263
278.842010
276.828064
235.231262
190.334915
135.419739
55.533390
-40.381042
-127.787445
-180.736679
-174.517197
-104.776360
-15.061636
21.485399
-26.023203
-105.504509
-142.315765
-122.430832
-85.186798
-64.300369
-67.072266
-87.239159
-116.665833
-144.580505
-152.575745
-128.664734
-85.390007
-47.369324
-22.720140
2.476432
39.590233
81.471802
116.658569
137.513321
134.920990
115.659958
118.134193
173.576294
254.084030
299.408905
293.888824
269.506805
245.769897
220.073502
199.468552
199.293060
218.726288
240.542282
250.318985
241.433563
211.991135
170.628403
134.635696
112.697708
98.221436
86.636818
84.924553
98.354469
125.013519
158.297531
182.350296
182.066711
161.081314
132.734207
101.719528
70.300705
48.036114
39.104366
34.180099
27.703159
27.901991
39.778389
53.568386
58.584644
53.833092
38.226192
7.165410
-34.228912
-67.528870
-76.679108
-67.352303
-66.727478
-95.781555
-150.119476
-213.892563
-274.392273
-317.802979
-330.399750
-312.575378
-280.367676
-248.665100
-223.028198
-206.558594
-201.765594
-209.202042
-227.882050
-243.395233
-228.125183
-183.701950
-154.663483
-162.651520
-167.344131
-121.280067
-31.695807
47.606613
76.243095
64.338417
47.548260
46.786709
60.222157
81.655167
113.164352
152.690399
178.527115
163.249832
113.016479
80.884865
106.875412
155.208923
165.374054
139.062561
114.809341
100.277519
79.069153
48.176201
25.721170
33.734795
71.575890
111.048073
126.473015
115.917290
88.641594
50.355518
7.419577
-27.196674
-43.560768
-46.133907
-44.837662
-39.934189
-28.050703
-17.457287
-25.165009
-55.722134
-91.227402
-113.569016
-122.419853
-122.680672
-116.803009
-112.271294
-119.522011
-139.227783
-157.100388
-155.067566
-127.369987
-85.840744
-48.979740
-30.664791
-44.201492
-97.051315
-169.102692
-221.344055
-235.181564
-222.208206
-195.106125
-151.731003
-94.482231
-46.576393
-31.566860
-43.010399
-51.833370
-40.694756
-15.485036
9.966331
28.474874
45.962597
73.646118
108.610283
129.156433
116.203384
80.312454
60.579121
87.981590
148.966095
192.590027
185.072754
142.912827
97.512962
59.543110
32.958790
26.914879
37.126122
42.119129
30.364109
12.645282
3.747909
4.282026
3.118361
-6.308011
-18.890944
-26.414606
-24.717321
-14.533327
-2.559803
2.338739
-1.021921
-5.886814
-7.152406
-3.135626
6.718921
18.153118
24.350342
25.584211
27.920847
32.738724
37.485035
45.537762
63.794025
90.169113
112.678612
121.344063
116.434669
107.645142
107.948540
122.878494
145.653259
167.940689
189.139755
210.002716
226.085953
233.056091
232.562714
228.660904
222.309662
212.624771
200.634201
188.347183
174.582260
155.339859
131.111008
110.435692
101.780663
104.633575
110.787315
110.375359
96.944092
72.892059
48.814636
31.867455
17.341223
-7.399007
-52.025890
-109.042107
-154.290054
-172.683807
-172.424225
-166.340866
-155.530640
-139.328201
-129.230377
-138.358231
-160.145020
-173.698929
-168.729584
-152.840759
-139.579102
-138.572800
-151.576614
-170.545792
-181.422806
-173.900635
-149.520660
-120.406258
-98.293152
-86.294495
-82.648796
-85.319221
-90.151680
-92.436676
-91.987144
-92.152206
-94.666168
-97.614738
-97.222527
-90.839561
-80.799568
-76.227974
-82.326126
-85.841415
-67.041756
-29.256100
-0.377562
-0.758460
-22.409943
-43.649910
-51.825008
-49.603546
-45.738068
-42.274254
-36.531342
-29.909771
-23.485661
-14.259463
-2.748893
6.423909
11.757799
14.280897
15.632247
21.902399
39.168949
62.410862
79.977623
88.990677
97.087364
108.334778
110.787354
86.500328
47.227055
44.903103
109.028664
191.802475
224.799637
200.376846
153.060623
103.763268
61.088505
41.963409
55.883778
85.024330
103.244385
103.530708
91.370163
63.314411
11.846526
-51.368717
-97.973213
-112.555061
-104.809677
-91.558746
-82.098289
-83.151062
-99.817711
-125.638184
-146.521027
-155.498413
-157.153854
-162.755096
-175.866318
-181.955994
-168.688705
-147.786606
-137.562195
-136.819931
-132.588501
-122.696594
-115.436180
-113.125000
-108.857101
-97.669456
-80.862816
-59.469788
-32.835796
-1.980934
30.644539
58.149101
67.679565
56.244701
45.418297
63.576439
112.719055
162.359528
182.236664
174.105499
155.848450
127.088081
74.273186
1.854110
-61.859463
-91.668816
-87.783928
-71.140167
-61.330185
-59.870876
-54.352852
-30.509409
17.272259
74.688164
113.466660
117.555847
96.764694
72.202454
57.680470
56.004059
61.173462
63.346348
58.316086
50.219910
46.088318
50.487923
61.270161
71.174896
74.560860
67.134087
49.313004
35.457893
40.122276
58.316357
72.493317
68.908508
46.779922
15.933319
-15.716898
-46.981422
-76.213257
-96.941879
-103.175301
-94.289619
-76.887337
-67.236694
-79.909920
-108.901962
-134.338425
