EVENT_NAME: L_AQUILA
EVENT_ID: IT-2009-0009
EVENT_DATE_YYYYMMDD: 20090406
EVENT_TIME_HHMMSS: 013240
EVENT_LATITUDE_DEGREE: 42.3420
EVENT_LONGITUDE_DEGREE: 13.3800
EVENT_DEPTH_KM: 8.3
HYPOCENTER_REFERENCE: INGV-CNT_Seismic_Bulletin
MAGNITUDE_W: 6.1
MAGNITUDE_W_REFERENCE: INGV-CNT_Seismic_Bulletin
MAGNITUDE_L: 
MAGNITUDE_L_REFERENCE: 
FOCAL_MECHANISM: Normal faulting
NETWORK: IT
STATION_CODE: AQG
STATION_NAME: 
STATION_LATITUDE_DEGREE: 42.373474
STATION_LONGITUDE_DEGREE: 13.337026
STATION_ELEVATION_M: 721
LOCATION: 
SENSOR_DEPTH_M: 0.0
VS30_M/S: 696
SITE_CLASSIFICATION_EC8: B
MORPHOLOGIC_CLASSIFICATION: 
EPICENTRAL_DISTANCE_KM: 5.0
EARTHQUAKE_BACKAZIMUTH_DEGREE: 314.7
DATE_TIME_FIRST_SAMPLE_YYYYMMDD_HHMMSS: 20090406_013212.000
DATE_TIME_FIRST_SAMPLE_PRECISION: seconds
SAMPLING_INTERVAL_S: 0.005000
NDATA: 20000
DURATION_S: 100.000
STREAM: HNZ
UNITS: cm/s^2
INSTRUMENT: sensor = FBA-3 [Kinemetrics] | digitizer = Everest [Kinemetrics]
INSTRUMENT_ANALOG/DIGITAL: D
INSTRUMENTAL_FREQUENCY_HZ: 208.000
INSTRUMENTAL_DAMPING: 0.000000
FULL_SCALE_G: 1.0
N_BIT_DIGITAL_CONVERTER: 24
PGA_CM/S^2: 234.616608
TIME_PGA_S: 33.555000
BASELINE_CORRECTION: BASELINE REMOVED
FILTER_TYPE: BUTTERWORTH
FILTER_ORDER: 2
LOW_CUT_FREQUENCY_HZ: 0.100
HIGH_CUT_FREQUENCY_HZ: 40.000
LATE/NORMAL_TRIGGERED: NT
DATABASE_VERSION: 0.5
HEADER_FORMAT: DYNA 1.2
DATA_TYPE: ACCELERATION
PROCESSING: manual (Paolucci et al., 2011)
DATA_TIMESTAMP_YYYYMMDD_HHMMSS: 20211011_155348.607
DATA_LICENSE: CC-BY3_0-IT (http://creativecommons.org/licenses/by/3.0/deed.en)
DATA_CITATION: Luzi L, Pacor F, Puglia R (2019). Italian Accelerometric Archive v 3.0 - Istituto Nazionale di Geofisica e Vulcanologia, Dipartimento della Protezione Civile Nazionale. doi: 10.13127/itaca.3.1
DATA_CREATOR: ITACA working group
ORIGINAL_DATA_MEDIATOR_CITATION: data obtained within the DPC-INGV data exchange agreements
ORIGINAL_DATA_MEDIATOR: Archive of Italian Department of Civil Protection
ORIGINAL_DATA_CREATOR_CITATION: Presidency Of Counsil Of Ministers-Civil Protection Department. (1972). Italian Strong Motion Network. Presidency of Counsil of Ministers - Civil Protection Department. https://doi.org/10.7914/SN/IT http://www.fdsn.org/networks/detail/IT/
ORIGINAL_DATA_CREATOR: network: IT (Italian Strong Motion Network (RAN)); owner: Presidency of Counsil of Ministers - Civil Protection Department (PCM - DPC)
USER1: 
USER2: 
USER3: 
USER4: 
USER5: 
[...]
0.037987
0.038882
0.039241
0.038982
0.038706
0.038763
0.039215
0.039839
0.039961
0.039647
0.039884
0.040683
0.040886
0.040050
0.039465
0.040455
0.042010
0.042345
0.041541
0.040724
0.040824
0.041852
0.042628
0.042663
0.042517
0.042402
0.042410
0.042627
0.043105
0.043958
0.044548
0.044055
0.042833
0.042369
0.043614
0.045374
0.045985
0.045460
0.044560
0.044079
0.044617
0.045518
0.045935
0.046134
0.046371
0.046458
0.046426
0.046494
0.046595
0.046582
0.046839
0.047333
0.047436
0.047338
0.047415
0.047633
0.048009
0.048338
0.048644
0.048875
0.048448
0.047814
0.048279
0.049910
0.051015
0.050088
0.048339
0.048184
0.049849
0.051633
0.051807
0.050557
0.050120
0.051141
0.051896
0.051631
0.051385
0.051994
0.052581
0.052278
0.051889
0.052004
0.052539
0.053302
0.053729
0.053737
0.053467
0.053252
0.053710
0.054410
0.054829
0.055033
0.055036
0.055185
0.055232
0.054730
0.054654
0.055720
0.056920
0.056955
0.055858
0.055149
0.055975
0.057502
0.058070
0.057327
0.056636
0.056924
0.057451
0.057876
0.058480
0.058781
0.058724
0.058659
0.058363
0.058124
0.058671
0.059872
0.060733
0.060561
0.059817
0.059450
0.059895
0.060749
0.061121
0.060886
0.060934
0.061578
0.062025
0.061781
0.061413
0.061805
0.062993
0.063714
0.062971
0.061808
0.062107
0.063753
0.064751
0.064406
0.063749
0.063439
0.063713
0.064433
0.065031
0.065452
0.065796
0.065925
0.065694
0.065214
0.065354
0.066548
0.067636
0.067520
0.066880
0.066964
0.067463
0.067421
0.067251
0.067892
0.068988
0.069070
0.067895
0.067378
0.068570
0.070139
0.070696
0.069999
0.068876
0.068746
0.069886
0.071240
0.071748
0.071194
0.070715
0.071266
0.071867
0.071649
0.071483
0.072031
0.072813
0.073270
0.073057
0.072380
0.072500
0.073813
0.074653
0.074200
0.073513
0.073465
0.074342
0.075445
0.075583
0.075283
0.075505
0.075687
0.075275
0.074955
0.075838
0.077633
0.078493
0.077396
0.075594
0.075540
0.077384
0.078538
0.078341
0.078120
0.078220
0.078669
0.079132
0.079052
0.078885
0.079002
0.079341
0.079969
0.080450
0.080384
0.080358
0.080954
0.081553
0.081551
0.081441
0.081335
0.081131
0.081694
0.082924
0.083486
0.083282
0.082976
0.082923
0.083464
0.084101
0.084240
0.084416
0.084739
0.084661
0.084447
0.084791
0.085508
0.085938
0.086163
0.086147
0.085750
0.085875
0.086667
0.087228
0.087540
0.087662
0.087431
0.087376
0.087833
0.088371
0.088697
0.089023
0.089325
0.089415
0.089309
0.088888
0.088797
0.089989
0.091375
0.091513
0.091049
0.090743
0.090612
0.090982
0.091718
0.092322
0.092553
0.092257
0.092097
0.092723
0.093485
0.093835
0.093896
0.093577
0.093056
0.093320
0.094566
0.095405
0.095248
0.095015
0.095225
0.095652
0.095780
0.095499
0.095719
0.096727
0.097345
0.096938
0.096411
0.096915
0.098208
0.098862
0.098429
0.097842
0.097776
0.098179
0.098721
0.099327
0.099961
0.100198
0.100004
0.099620
0.099447
0.100175
0.101237
0.101639
0.101492
0.101096
0.101018
0.101647
0.102495
0.103009
0.102911
0.102536
0.102546
0.103129
0.103952
0.104303
0.104023
0.103895
0.104403
0.105168
0.105554
0.105495
0.105548
0.105709
0.105628
0.105835
0.106400
0.106591
0.106779
0.107426
0.108018
0.108264
0.107978
0.107295
0.107335
0.108627
0.109813
0.109644
0.109084
0.109265
0.109772
0.110011
0.109762
0.109653
0.110481
0.111175
0.110785
0.110398
0.110808
0.111747
0.112759
0.113052
0.112371
0.111516
0.111494
0.112679
0.113987
0.114138
0.113632
0.113640
0.114105
0.114192
0.114055
0.114450
0.115184
0.115683
0.115473
0.114798
0.115046
0.116241
0.117003
0.117087
0.116690
0.116196
0.116622
0.117813
0.118746
0.119157
0.118993
0.118374
0.117961
0.118227
0.119090
0.120014
0.120246
0.119659
0.119240
0.119755
0.120483
0.120827
0.121124
0.121285
0.121302
0.121520
0.121713
0.121768
0.121901
0.122254
0.122902
0.123218
0.122823
0.122703
0.123363
0.124096
0.124381
0.124303
0.124282
0.124661
0.125256
0.125370
0.125098
0.125745
0.126899
0.126651
0.125594
0.125627
0.126734
0.127847
0.128250
0.127621
0.126376
0.125962
0.127122
0.128523
0.129013
0.128913
0.128703
0.128814
0.129131
0.129138
0.129435
0.130324
0.130830
0.130608
0.130081
0.129810
0.130345
0.131418
0.132141
0.132043
0.131427
0.131015
0.131344
0.132380
0.133231
0.133110
0.132746
0.132938
0.133261
0.133380
0.133405
0.133641
0.134375
0.134958
0.134620
0.134083
0.134582
0.135742
0.136238
0.136017
0.135832
0.135788
0.135913
0.136340
0.136900
0.137514
0.137833
0.137420
0.136847
0.136960
0.137766
0.138553
0.138784
0.138804
0.138707
0.138245
0.138129
0.138858
0.139881
0.140510
0.140320
0.139709
0.139455
0.139758
0.140556
0.141518
0.141971
0.141396
0.140262
0.140229
0.141545
0.142407
0.142359
0.142301
0.142437
0.142598
0.142468
0.142356
0.143075
0.144073
0.144367
0.143903
0.142995
0.142355
0.142922
0.144676
0.145822
0.144959
0.143538
0.143538
0.144883
0.146217
0.146420
0.145843
0.145386
0.145086
0.145228
0.146155
0.147125
0.147532
0.147426
0.146997
0.146548
0.146325
0.146813
0.147837
0.148193
0.147942
0.147981
0.148237
0.148304
0.148192
0.148649
0.149799
0.150187
0.149186
0.148031
0.148151
0.149587
0.150957
0.151258
0.150579
0.149626
0.149578
0.150485
0.150916
0.150799
0.151192
0.151600
0.151113
0.150307
0.150367
0.151467
0.152520
0.152652
0.151938
0.151110
0.151099
0.152017
0.153088
0.153381
0.152990
0.153002
0.153155
0.152657
0.152406
0.153124
0.154015
0.154224
0.153855
0.153570
0.153649
0.154075
0.154858
0.155598
0.155629
0.154898
0.154129
0.153911
0.154260
0.155202
0.156446
0.156590
0.155107
0.153903
0.154550
0.156294
0.157421
0.157176
0.156219
0.155274
0.154995
0.156103
0.157742
0.158295
0.157489
0.156080
0.155105
0.155479
0.157120
0.158543
0.158440
0.157261
0.156263
0.156446
0.157751
0.158631
0.158436
0.158189
0.158098
0.157823
0.157777
0.157991
0.158182
0.158626
0.159226
0.159187
0.158313
0.157681
0.158171
0.159235
0.159854
0.159464
0.158487
0.158104
0.158604
0.159334
0.159745
0.159724
0.159825
0.159918
0.159146
0.158318
0.158436
0.159215
0.160443
0.161064
0.160012
0.158574
0.158349
0.159136
0.160171
0.160974
0.160726
0.159453
0.158798
0.159384
0.160364
0.161141
0.160946
0.159803
0.159126
0.159203
0.159497
0.160095
0.160685
0.160947
0.160968
0.160319
0.159307
0.159562
0.161125
0.161760
0.160649
0.159432
0.159021
0.159370
0.160603
0.161344
0.160502
0.159684
0.160031
0.160720
0.159944
0.155376
0.146737
0.137101
0.130495
0.127977
0.124798
0.111144
0.065122
-0.073341
-0.423380
-1.120858
-2.177751
-3.332942
-4.082072
-3.947330
-2.810133
-1.017332
0.878615
2.474239
3.540394
3.817647
3.044734
1.225243
-1.196718
-3.398716
-4.544285
-4.286139
-2.895304
-0.926482
1.026814
2.478662
3.383815
3.988208
4.202556
3.693825
2.446961
0.697009
-1.410682
-3.608858
-5.208600
-5.468289
-4.074566
-1.226542
2.227994
4.943235
6.078041
5.866278
4.697702
2.544941
-0.071396
-1.880081
-2.263992
-1.603237
-0.074367
2.536822
5.704576
7.875538
7.724319
5.423914
2.312732
-0.611391
-3.210360
-5.194532
-5.750064
-4.636328
-2.658543
-0.722051
0.849692
2.093421
3.063609
3.647524
3.580006
2.676695
0.946247
-1.244302
-2.795253
-2.416045
-0.225387
1.858324
1.968566
0.304788
-1.079865
-0.709594
0.547133
0.846277
-0.264512
-1.868919
-2.875687
-2.299920
0.074916
2.682269
3.364408
1.923834
-0.073167
-1.815603
-3.515219
-4.867360
-5.389192
-5.472346
-5.674043
-5.908838
-6.025622
-5.889563
-4.714830
-1.809811
2.298378
6.522651
9.982499
11.537671
10.311998
7.204266
4.093036
1.633526
-0.671868
-3.045999
-5.245978
-7.052051
-8.103764
-7.699382
-5.717292
-3.472400
-2.406491
-2.087602
-1.096083
0.508784
1.680660
2.533047
3.922211
5.855806
7.764567
9.159782
8.970857
5.832337
-0.018680
-6.447259
-11.218736
-13.408731
-13.638852
-13.305059
-13.028102
-12.312159
-11.306269
-11.274051
-12.384250
-13.065403
-12.374635
-11.100806
-10.175681
-9.855861
-10.348951
-11.493733
-12.074142
-10.734831
-7.615035
-4.232736
-1.641834
0.239288
1.722481
3.244110
5.512238
8.377033
10.619753
12.088137
14.308716
17.480825
19.265364
18.314781
15.984861
12.557190
5.515936
-5.843005
-17.948561
-27.286430
-33.245602
-35.256321
-31.651598
-23.684839
-16.419825
-12.064359
-5.820757
7.584985
25.369705
38.283405
40.093777
32.961628
23.688360
17.345207
14.589330
12.611893
8.758143
4.334797
3.378800
6.909180
10.737222
10.591442
6.906206
2.276541
-2.796642
-8.736032
-13.835218
-15.269875
-12.615700
-8.340010
-4.511438
-0.943306
2.471949
3.446622
-0.098032
-5.248216
-6.371486
-3.814010
-4.426344
-11.703263
-21.940334
-30.887838
-37.373497
-40.019939
-36.741001
-27.375578
-12.770783
6.253996
26.399923
41.234566
44.598007
34.549877
15.520141
-3.923756
-18.356012
-29.074278
-36.767685
-36.273434
-26.115198
-14.632478
-7.636648
-0.378858
12.159301
27.683653
41.880611
52.122421
52.281006
32.217999
-7.302390
-44.583275
-54.706142
-36.042664
-10.114345
3.642469
2.646726
-8.053412
-23.015554
-32.230869
-27.585836
-15.823057
-11.092006
-15.244331
-16.397358
-6.406734
8.731418
17.419054
17.410545
19.457941
33.004784
51.701626
61.013969
55.624409
41.252422
23.919207
5.838976
-8.500688
-12.710105
-9.458627
-8.200647
-6.795657
9.625244
45.969818
83.866074
96.732773
75.886665
35.894531
-5.036726
-38.200520
-58.656933
-62.239166
-51.284061
-35.594421
-26.734598
-29.722164
-38.070000
-40.605099
-31.634995
-12.523981
11.133901
34.236191
55.146591
69.483238
67.456421
45.155827
11.071043
-22.071848
-45.339535
-53.870918
-46.255943
-27.984453
-11.229161
-3.500958
0.754792
9.932056
19.852291
17.483021
-1.017943
-25.389433
-44.784752
-56.634293
-59.987247
-50.823811
-29.419012
-4.814929
12.231517
18.280554
17.877850
16.169203
14.663481
14.932747
20.482477
32.533634
46.572021
53.256279
46.375759
34.169037
34.939907
55.218079
80.090691
92.015953
91.197090
87.503258
81.810493
67.153603
42.017487
15.120170
-3.808210
-16.970034
-36.512131
-67.021683
-95.565681
-102.784370
-81.624985
-43.243587
-6.646234
15.941872
27.694923
43.119675
71.346230
104.871704
127.673248
128.082916
101.053268
48.907009
-14.177139
-67.490906
-98.426865
-108.597626
-106.114700
-95.847534
-80.886215
-69.827934
-72.307869
-85.883392
-94.990280
-85.626526
-57.702396
-23.855236
-1.504510
-3.623907
-28.115196
-57.629189
-77.660057
-88.824951
-95.679108
-94.438148
-76.678917
-38.988258
9.344016
46.478859
54.986214
41.313587
27.098635
21.499786
16.877113
6.945469
-7.251200
-21.653048
-28.400665
-21.442295
-5.899794
7.474950
11.904176
4.653472
-13.464097
-37.832626
-63.000935
-84.020706
-95.563911
-93.638626
-80.133812
-64.030899
-54.515568
-53.129154
-55.157082
-56.705437
-58.020065
-61.008118
-65.931236
-73.071724
-85.468018
-103.364090
-115.568382
-105.716949
-72.292938
-34.290287
-12.178014
-8.682891
-8.950007
3.943152
35.056244
77.127541
114.894745
128.711349
107.915504
63.066521
14.700816
-24.754210
-51.340893
-63.859840
-62.309078
-45.790150
-14.937239
20.889174
46.956772
58.086323
60.619698
58.115471
47.224613
25.785887
-4.770819
-38.571762
-62.708927
-67.785461
-55.563995
-26.259542
21.625875
74.481697
108.499794
114.503906
105.627968
96.333122
85.933212
70.385345
55.551247
50.077763
54.814499
62.454159
64.164291
57.686901
49.534458
50.387424
66.953308
92.745728
111.418289
114.225121
105.801094
92.826920
76.901192
56.999908
34.366955
13.826066
-0.028565
-4.771529
-0.174424
10.482031
22.187735
32.076981
39.687523
46.524933
57.748524
76.589539
95.137260
100.685356
90.326057
71.326218
50.154644
26.331789
-4.172447
-40.994759
-76.665276
-103.398491
-118.279831
-120.665573
-110.018555
-86.625412
-51.777515
-10.046884
26.940796
47.419159
53.118641
53.958195
51.545967
44.134724
40.042953
48.308365
62.775482
68.170784
57.509125
36.700371
15.854018
1.838293
-2.826130
0.385436
6.549120
9.761705
6.736704
-1.055726
-9.374465
-15.972385
-21.839340
-27.664671
-32.468899
-36.225464
-40.385326
-44.380024
-43.367256
-31.692204
-9.375471
15.595404
33.022350
39.214066
40.080830
46.411354
61.908890
72.881783
61.114964
32.868484
17.748711
29.479010
48.674278
54.977585
51.397003
46.209766
37.536503
26.863628
22.086941
18.749340
1.286186
-35.583176
-82.791985
-128.704239
-163.994461
-180.182083
-173.898361
-152.057709
-125.756294
-100.496300
-76.857323
-56.488918
-42.383450
-35.777725
-33.951653
-30.791492
-22.245136
-9.685811
3.879387
17.996433
33.015587
45.629181
50.933899
48.764568
42.520847
33.180149
19.012390
-1.090383
-26.108646
-51.859379
-72.126358
-83.834503
-89.288841
-92.698990
-98.345627
-111.233665
-133.776932
-161.187393
-181.568726
-178.548859
-137.200638
-56.255787
41.636086
115.386093
132.673264
100.375076
60.931534
51.916126
72.877106
93.549782
93.966309
92.247833
123.168312
187.158096
234.616608
218.804474
158.638763
121.946381
138.975632
164.111008
147.387497
106.257927
85.710167
86.621910
78.233002
47.364548
4.638333
-31.303345
-45.620007
-46.439281
-63.819096
-102.793327
-124.198799
-102.933281
-67.441109
-56.654228
-70.663513
-77.013321
-48.669319
6.376167
53.061466
70.131180
68.248672
63.507565
55.438744
36.757038
6.386799
-31.795259
-71.581482
-105.258339
-127.793877
-139.351822
-144.135651
-147.262543
-147.492432
-133.803238
-97.405869
-44.122612
10.961469
54.118595
78.433022
86.871155
87.980614
85.427017
74.469070
49.967705
14.908530
-20.325123
-44.900433
-53.215508
-44.954803
-23.224930
5.024514
28.899256
38.786549
39.748585
49.570309
64.632469
53.095558
9.400656
-24.069876
-18.016945
5.754043
18.233652
21.589718
27.723396
31.968084
23.501621
2.459227
-25.533092
-50.941936
-47.857018
2.920562
71.203690
100.252983
72.759140
24.265566
-3.373412
-6.412137
-12.996514
-39.584198
-74.521957
-98.987846
-101.811470
-85.507278
-65.918152
-53.069031
-39.178490
-12.617187
24.255550
54.428272
63.893478
58.245419
57.216961
67.640457
66.260925
29.937876
-22.271902
-49.241234
-41.258411
-23.843035
-18.333593
-20.834072
-18.101564
-6.978213
7.268297
19.441408
26.857750
28.449345
24.120565
16.182344
9.630663
8.853653
14.115129
21.911446
26.409990
21.877777
11.102075
4.952571
6.678055
8.528900
5.037783
-2.827487
-13.224164
-22.852762
-25.814781
-20.936819
-16.129923
-21.180931
-36.691219
-51.130630
-51.154957
-33.282021
-3.859943
27.619566
53.372318
69.588158
77.387016
82.988396
95.081299
116.899414
136.927765
130.223495
77.485313
-11.764556
-94.980721
-124.007431
-93.080109
-53.585033
-56.056606
-88.619987
-101.984406
-78.990341
-46.058056
-25.857590
-13.561283
-1.398674
3.557484
-3.688140
-12.915428
-15.886204
-18.327688
-26.046316
-36.474476
-42.912498
-39.158070
-25.972406
-10.626321
2.174346
12.551980
19.871794
22.903856
25.713102
34.558262
42.253414
27.286613
-12.329610
-45.916008
-53.582706
-47.566864
-39.690090
-26.237228
-4.685437
18.781242
35.335690
39.111153
29.059544
11.339076
-0.185936
5.085528
22.773840
37.977074
39.486404
28.545254
15.160831
7.150648
5.676262
8.276417
9.713873
6.151760
1.051011
-1.244147
-5.096150
-20.973734
-51.017693
-81.285011
-96.706306
-96.396378
-87.494537
-76.347641
-73.216156
-89.307274
-115.051270
-117.515182
-76.871727
-15.082890
27.853031
40.500156
43.401573
48.491245
41.613426
11.777111
-25.154867
-45.448563
-47.672859
-49.012608
-57.374290
-61.184887
-47.334564
-19.904799
5.178137
17.311760
15.828306
6.984769
0.921626
3.791741
13.289545
23.719477
29.126060
20.979504
-3.551981
-27.072380
-24.926785
3.156643
32.203506
43.197819
40.318069
37.027348
39.677700
46.557697
52.033112
51.388920
46.232491
43.460747
46.007835
47.484360
41.586342
32.024303
26.798120
28.673618
35.909649
46.816662
59.403660
70.193176
76.257416
75.644318
67.016190
52.479637
37.297112
25.185019
16.640442
10.285347
5.490575
4.374125
7.803918
11.504426
11.495620
9.944629
10.859577
12.907846
10.961535
4.138839
-2.200984
-3.530624
-1.515249
-0.892757
-3.695459
-9.172730
-17.727837
-31.155619
-48.755955
-65.040146
-72.585602
-68.660080
-59.189064
-54.171593
-58.810246
-70.412613
-81.833237
-85.842125
-79.689285
-67.822052
-57.456188
-50.852989
-43.508015
-29.278862
-6.747369
18.367680
35.782169
37.201694
24.908146
11.858351
6.887215
5.199373
-0.343505
-7.567825
-10.155650
-8.965693
-12.880379
-25.911945
-39.513962
-43.413471
-37.880489
-30.825865
-26.526731
-21.943794
-14.272207
-6.212751
-1.579485
-0.416510
-0.752452
-2.336051
-5.476882
-8.492082
-10.675014
-15.122477
-24.358528
-36.082050
-46.657188
-55.803314
-64.571938
-71.182938
-72.044914
-65.222145
-50.651012
-30.664671
-13.686991
-8.467500
-10.218307
-7.048322
0.377298
3.245134
1.591072
1.746701
4.780260
6.893686
6.596517
6.088292
6.372160
5.413467
2.483795
-0.330585
-0.858039
3.073672
12.481720
23.576345
31.323923
35.761532
38.953728
40.254986
38.656662
36.083267
36.556763
44.373070
61.586445
77.148758
67.217369
30.416092
3.643987
12.773369
36.991341
48.296398
50.732246
58.899204
70.321167
75.665764
74.715698
72.929352
75.114769
85.963272
104.090874
114.457390
101.573334
70.553207
42.466476
30.216024
28.931948
28.712090
27.042198
26.817286
29.627668
33.117165
33.091354
30.721949
33.781124
45.039310
55.409985
54.523151
44.804668
37.878139
37.969654
38.871323
36.385258
33.429291
32.883202
33.189255
31.341963
25.206572
14.607470
2.628633
-7.531099
-17.840277
-31.765310
-43.181431
-40.093754
-25.999033
-22.444345
-38.955528
-56.283897
-52.976585
-33.314205
-15.524786
-4.830360
7.015831
22.735338
35.390305
40.413502
40.546204
39.500797
38.544827
38.635605
39.378029
39.167423
36.344376
26.522795
8.383421
-10.908148
-25.036919
-32.917862
-33.589077
-26.227491
-13.165149
0.512934
9.805511
9.723868
-4.635478
-31.335094
-58.860847
-75.752457
-78.422615
-68.737190
-52.188896
-38.443493
-34.979668
-38.532204
-38.566647
-30.366091
-19.326637
-12.354155
-11.524866
-17.677902
-32.855091
-53.587521
-68.605034
-69.258820
-56.624928
-37.096714
-17.173668
-2.300614
3.448590
-1.235733
-12.308055
-20.369066
-18.769260
-13.348144
-15.958658
-28.156578
-40.897118
-46.277573
-43.707993
-40.183006
-43.854271
-53.436569
-58.431873
-50.825729
-31.594986
-7.746090
13.438150
29.889662
43.977928
55.637554
61.566486
59.984520
51.762199
