EVENT_NAME: L_AQUILA
EVENT_ID: IT-2009-0009
EVENT_DATE_YYYYMMDD: 20090406
EVENT_TIME_HHMMSS: 013240
EVENT_LATITUDE_DEGREE: 42.3420
EVENT_LONGITUDE_DEGREE: 13.3800
EVENT_DEPTH_KM: 8.3
HYPOCENTER_REFERENCE: INGV-CNT_Seismic_Bulletin
MAGNITUDE_W: 6.1
MAGNITUDE_W_REFERENCE: INGV-CNT_Seismic_Bulletin
MAGNITUDE_L: 
MAGNITUDE_L_REFERENCE: 
FOCAL_MECHANISM: Normal faulting
NETWORK: IT
STATION_CODE: AQG
STATION_NAME: 
STATION_LATITUDE_DEGREE: 42.373474
STATION_LONGITUDE_DEGREE: 13.337026
STATION_ELEVATION_M: 721
LOCATION: 
SENSOR_DEPTH_M: 0.0
VS30_M/S: 696
SITE_CLASSIFICATION_EC8: B
MORPHOLOGIC_CLASSIFICATION: 
EPICENTRAL_DISTANCE_KM: 5.0
EARTHQUAKE_BACKAZIMUTH_DEGREE: 314.7
DATE_TIME_FIRST_SAMPLE_YYYYMMDD_HHMMSS: 
DATE_TIME_FIRST_SAMPLE_PRECISION: 
SAMPLING_INTERVAL_S: 
NDATA: 105
DURATION_S: 
STREAM: HNZ
UNITS: cm/s^2
INSTRUMENT: sensor = FBA-3 [Kinemetrics] | digitizer = Everest [Kinemetrics]
INSTRUMENT_ANALOG/DIGITAL: D
INSTRUMENTAL_FREQUENCY_HZ: 208.000
INSTRUMENTAL_DAMPING: 0.000000
FULL_SCALE_G: 1.0
N_BIT_DIGITAL_CONVERTER: 24
PGA_CM/S^2: 234.616603
TIME_PGA_S: 
BASELINE_CORRECTION: BASELINE REMOVED
FILTER_TYPE: BUTTERWORTH
FILTER_ORDER: 2
LOW_CUT_FREQUENCY_HZ: 0.100
HIGH_CUT_FREQUENCY_HZ: 40.000
LATE/NORMAL_TRIGGERED: NT
DATABASE_VERSION: 0.5
HEADER_FORMAT: DYNA 1.2
DATA_TYPE: ACCELERATION RESPONSE SPECTRUM
PROCESSING: manual (Paolucci et al., 2011)
DATA_TIMESTAMP_YYYYMMDD_HHMMSS: 20211011_155349.609
DATA_LICENSE: CC-BY3_0-IT (http://creativecommons.org/licenses/by/3.0/deed.en)
DATA_CITATION: Luzi L, Pacor F, Puglia R (2019). Italian Accelerometric Archive v 3.0 - Istituto Nazionale di Geofisica e Vulcanologia, Dipartimento della Protezione Civile Nazionale. doi: 10.13127/itaca.3.1
DATA_CREATOR: ITACA working group
ORIGINAL_DATA_MEDIATOR_CITATION: data obtained within the DPC-INGV data exchange agreements
ORIGINAL_DATA_MEDIATOR: Archive of Italian Department of Civil Protection
ORIGINAL_DATA_CREATOR_CITATION: Presidency Of Counsil Of Ministers-Civil Protection Department. (1972). Italian Strong Motion Network. Presidency of Counsil of Ministers - Civil Protection Department. https://doi.org/10.7914/SN/IT http://www.fdsn.org/networks/detail/IT/
ORIGINAL_DATA_CREATOR: network: IT (Italian Strong Motion Network (RAN)); owner: Presidency of Counsil of Ministers - Civil Protection Department (PCM - DPC)
USER1: 
USER2: 
USER3: 
USER4: 
USER5: 
    0.010000   239.953583
    0.020000   280.173523
    0.022000   305.431854
    0.025000   352.710724
    0.029000   365.962036
    0.030000   363.010071
    0.032000   311.182587
    0.035001   335.336548
    0.036000   311.778717
    0.040000   348.456573
    0.041999   413.588135
    0.044001   440.064056
    0.045000   448.361237
    0.046000   454.950745
    0.048001   471.263672
    0.050000   494.223206
    0.054999   518.861938
    0.059999   416.388672
    0.064998   431.080505
    0.067002   497.129303
    0.069999   538.885254
    0.075002   494.365417
    0.080000   474.368195
    0.084998   471.708649
    0.090001   515.447021
    0.095003   527.141479
    0.100000   514.496399
    0.109999   424.252869
    0.120005   441.834290
    0.130005   429.604156
    0.132996   499.492554
    0.139997   637.779419
    0.149993   748.943848
    0.160000   671.894409
    0.170010   616.578796
    0.179986   568.534607
    0.190006   419.596527
    0.200000   283.431854
    0.220022   326.099335
    0.239981   243.842346
    0.250000   212.539413
    0.260010   226.243088
    0.280034   262.643890
    0.290023   243.873337
    0.300030   233.130630
    0.320000   290.597870
    0.340020   346.592072
    0.350017   340.924316
    0.359971   316.761169
    0.379939   262.827850
    0.400000   235.532608
    0.419992   218.331619
    0.439947   208.267838
    0.450045   186.125565
    0.459982   159.638412
    0.480077   140.262390
    0.500000   141.164200
    0.550055   145.819931
    0.599880   163.468399
    0.650195   236.546570
    0.667111   239.812439
    0.699790   217.964432
    0.750188   155.533798
    0.800000   156.119873
    0.850340   155.144485
    0.900090   150.784409
    0.949668   130.537064
    1.000000   111.166618
    1.100110    90.290123
    1.200480    88.487564
    1.300390    71.759605
    1.400560    58.441589
    1.499250    47.698765
    1.600000    38.774567
    1.700680    31.695002
    1.798561    29.534199
    1.901141    35.321209
    2.000000    35.329887
    2.197802    33.647675
    2.398082    27.024130
    2.500000    23.858900
    2.597403    21.900707
    2.801121    17.704813
    3.003003    17.062752
    3.205128    15.530049
    3.401361    13.601000
    3.496503    12.576522
    3.597122    11.543772
    3.802281     9.545318
    4.000000     7.729793
    4.201681     6.469502
    4.405286     5.910845
    4.608295     5.365500
    4.807692     4.847887
    5.000000     4.526587
    5.494505     3.932075
    5.988024     3.439289
    6.493506     3.025514
    6.993007     2.675680
    7.518797     2.377744
    8.000000     2.122469
    8.474576     1.902802
    9.009009     1.713707
    9.523809     1.550550
   10.000000     1.408663
