EVENT_NAME: L_AQUILA
EVENT_ID: IT-2009-0009
EVENT_DATE_YYYYMMDD: 20090406
EVENT_TIME_HHMMSS: 013240
EVENT_LATITUDE_DEGREE: 42.3420
EVENT_LONGITUDE_DEGREE: 13.3800
EVENT_DEPTH_KM: 8.3
HYPOCENTER_REFERENCE: INGV-CNT_Seismic_Bulletin
MAGNITUDE_W: 6.1
MAGNITUDE_W_REFERENCE: INGV-CNT_Seismic_Bulletin
MAGNITUDE_L: 
MAGNITUDE_L_REFERENCE: 
FOCAL_MECHANISM: Normal faulting
NETWORK: IT
STATION_CODE: AQG
STATION_NAME: 
STATION_LATITUDE_DEGREE: 42.373474
STATION_LONGITUDE_DEGREE: 13.337026
STATION_ELEVATION_M: 721
LOCATION: 
SENSOR_DEPTH_M: 0.0
VS30_M/S: 696
SITE_CLASSIFICATION_EC8: B
MORPHOLOGIC_CLASSIFICATION: 
EPICENTRAL_DISTANCE_KM: 5.0
EARTHQUAKE_BACKAZIMUTH_DEGREE: 314.7
DATE_TIME_FIRST_SAMPLE_YYYYMMDD_HHMMSS: 
DATE_TIME_FIRST_SAMPLE_PRECISION: 
SAMPLING_INTERVAL_S: 
NDATA: 105
DURATION_S: 
STREAM: HNE
UNITS: cm
INSTRUMENT: sensor = FBA-3 [Kinemetrics] | digitizer = Everest [Kinemetrics]
INSTRUMENT_ANALOG/DIGITAL: D
INSTRUMENTAL_FREQUENCY_HZ: 202.000
INSTRUMENTAL_DAMPING: 0.000000
FULL_SCALE_G: 1.0
N_BIT_DIGITAL_CONVERTER: 24
PGD_CM: 5.994826
TIME_PGD_S: 
BASELINE_CORRECTION: BASELINE REMOVED
FILTER_TYPE: BUTTERWORTH
FILTER_ORDER: 2
LOW_CUT_FREQUENCY_HZ: 0.100
HIGH_CUT_FREQUENCY_HZ: 40.000
LATE/NORMAL_TRIGGERED: NT
DATABASE_VERSION: 0.5
HEADER_FORMAT: DYNA 1.2
DATA_TYPE: DISPLACEMENT RESPONSE SPECTRUM
PROCESSING: manual (Paolucci et al., 2011)
DATA_TIMESTAMP_YYYYMMDD_HHMMSS: 20211011_155349.170
DATA_LICENSE: CC-BY3_0-IT (http://creativecommons.org/licenses/by/3.0/deed.en)
DATA_CITATION: Luzi L, Pacor F, Puglia R (2019). Italian Accelerometric Archive v 3.0 - Istituto Nazionale di Geofisica e Vulcanologia, Dipartimento della Protezione Civile Nazionale. doi: 10.13127/itaca.3.1
DATA_CREATOR: ITACA working group
ORIGINAL_DATA_MEDIATOR_CITATION: data obtained within the DPC-INGV data exchange agreements
ORIGINAL_DATA_MEDIATOR: Archive of Italian Department of Civil Protection
ORIGINAL_DATA_CREATOR_CITATION: Presidency Of Counsil Of Ministers-Civil Protection Department. (1972). Italian Strong Motion Network. Presidency of Counsil of Ministers - Civil Protection Department. https://doi.org/10.7914/SN/IT http://www.fdsn.org/networks/detail/IT/
ORIGINAL_DATA_CREATOR: network: IT (Italian Strong Motion Network (RAN)); owner: Presidency of Counsil of Ministers - Civil Protection Department (PCM - DPC)
USER1: 
USER2: 
USER3: 
USER4: 
USER5: 
    0.010000     0.001116
    0.020000     0.005183
    0.022000     0.006963
    0.025000     0.009279
    0.029000     0.013131
    0.030000     0.014029
    0.032000     0.016198
    0.035001     0.022093
    0.036000     0.024310
    0.040000     0.035569
    0.041999     0.037201
    0.044001     0.041760
    0.045000     0.045207
    0.046000     0.049373
    0.048001     0.056591
    0.050000     0.057433
    0.054999     0.077621
    0.059999     0.085300
    0.064998     0.088162
    0.067002     0.093358
    0.069999     0.100721
    0.075002     0.114898
    0.080000     0.101777
    0.084998     0.098765
    0.090001     0.127918
    0.095003     0.175733
    0.100000     0.183636
    0.109999     0.179411
    0.120005     0.173697
    0.130005     0.196453
    0.132996     0.225068
    0.139997     0.344609
    0.149993     0.461246
    0.160000     0.475735
    0.170010     0.496788
    0.179986     0.554684
    0.190006     0.740712
    0.200000     0.879457
    0.220022     1.429547
    0.239981     1.467640
    0.250000     1.384164
    0.260010     1.304492
    0.280034     1.978587
    0.290023     2.190511
    0.300030     2.205681
    0.320000     2.160041
    0.340020     2.542265
    0.350017     2.743324
    0.359971     2.842741
    0.379939     2.647778
    0.400000     2.688566
    0.419992     3.188221
    0.439947     3.079889
    0.450045     3.080053
    0.459982     3.206433
    0.480077     3.377720
    0.500000     3.386806
    0.550055     3.262642
    0.599880     3.593120
    0.650195     5.303741
    0.667111     5.862827
    0.699790     6.814109
    0.750188     8.148905
    0.800000     9.900644
    0.850340    11.146989
    0.900090    11.603276
    0.949668    11.332376
    1.000000    11.166493
    1.100110    12.002001
    1.200480    11.890717
    1.300390    12.512974
    1.400560    12.944817
    1.499250    13.137092
    1.600000    13.029044
    1.700680    12.597679
    1.798561    11.899765
    1.901141    11.007112
    2.000000    10.851912
    2.197802    11.406327
    2.398082    11.807445
    2.500000    11.938907
    2.597403    12.023520
    2.801121    12.074484
    3.003003    12.011330
    3.205128    11.874851
    3.401361    11.685975
    3.496503    11.578081
    3.597122    11.462852
    3.802281    11.217749
    4.000000    10.961744
    4.201681    10.702591
    4.405286    10.444873
    4.608295    10.192566
    4.807692     9.947541
    5.000000     9.711559
    5.494505     9.164910
    5.988024     8.684093
    6.493506     8.262241
    6.993007     7.897702
    7.518797     7.583680
    8.000000     7.309699
    8.474576     7.073403
    9.009009     6.873027
    9.523809     6.703633
   10.000000     6.557218
