EVENT_NAME: L_AQUILA
EVENT_ID: IT-2009-0009
EVENT_DATE_YYYYMMDD: 20090406
EVENT_TIME_HHMMSS: 013240
EVENT_LATITUDE_DEGREE: 42.3420
EVENT_LONGITUDE_DEGREE: 13.3800
EVENT_DEPTH_KM: 8.3
HYPOCENTER_REFERENCE: INGV-CNT_Seismic_Bulletin
MAGNITUDE_W: 6.1
MAGNITUDE_W_REFERENCE: INGV-CNT_Seismic_Bulletin
MAGNITUDE_L: 
MAGNITUDE_L_REFERENCE: 
FOCAL_MECHANISM: Normal faulting
NETWORK: IT
STATION_CODE: AQG
STATION_NAME: 
STATION_LATITUDE_DEGREE: 42.373474
STATION_LONGITUDE_DEGREE: 13.337026
STATION_ELEVATION_M: 721
LOCATION: 
SENSOR_DEPTH_M: 0.0
VS30_M/S: 696
SITE_CLASSIFICATION_EC8: B
MORPHOLOGIC_CLASSIFICATION: 
EPICENTRAL_DISTANCE_KM: 5.0
EARTHQUAKE_BACKAZIMUTH_DEGREE: 314.7
DATE_TIME_FIRST_SAMPLE_YYYYMMDD_HHMMSS: 20090406_013212.000
DATE_TIME_FIRST_SAMPLE_PRECISION: seconds
SAMPLING_INTERVAL_S: 0.005000
NDATA: 61400
DURATION_S: 307.000
STREAM: HNN
UNITS: cm/s^2
INSTRUMENT: sensor = FBA-3 [Kinemetrics] | digitizer = Everest [Kinemetrics]
INSTRUMENT_ANALOG/DIGITAL: D
INSTRUMENTAL_FREQUENCY_HZ: 212.000
INSTRUMENTAL_DAMPING: 0.000000
FULL_SCALE_G: 1.0
N_BIT_DIGITAL_CONVERTER: 24
PGA_CM/S^2: -504.920502
TIME_PGA_S: 33.670000
BASELINE_CORRECTION: BASELINE NOT REMOVED
FILTER_TYPE: 
FILTER_ORDER: 
LOW_CUT_FREQUENCY_HZ: 
HIGH_CUT_FREQUENCY_HZ: 
LATE/NORMAL_TRIGGERED: NT
DATABASE_VERSION: 0.5
HEADER_FORMAT: DYNA 1.2
DATA_TYPE: ACCELERATION
PROCESSING: converted to cm/s^2
DATA_TIMESTAMP_YYYYMMDD_HHMMSS: 20211011_155347.749
DATA_LICENSE: CC-BY3_0-IT (http://creativecommons.org/licenses/by/3.0/deed.en)
DATA_CITATION: Luzi L, Pacor F, Puglia R (2019). Italian Accelerometric Archive v 3.0 - Istituto Nazionale di Geofisica e Vulcanologia, Dipartimento della Protezione Civile Nazionale. doi: 10.13127/itaca.3.1
DATA_CREATOR: ITACA working group
ORIGINAL_DATA_MEDIATOR_CITATION: data obtained within the DPC-INGV data exchange agreements
ORIGINAL_DATA_MEDIATOR: Archive of Italian Department of Civil Protection
ORIGINAL_DATA_CREATOR_CITATION: Presidency Of Counsil Of Ministers-Civil Protection Department. (1972). Italian Strong Motion Network. Presidency of Counsil of Ministers - Civil Protection Department. https://doi.org/10.7914/SN/IT http://www.fdsn.org/networks/detail/IT/
ORIGINAL_DATA_CREATOR: network: IT (Italian Strong Motion Network (RAN)); owner: Presidency of Counsil of Ministers - Civil Protection Department (PCM - DPC)
USER1: 
USER2: 
USER3: 
USER4: 
USER5: 
[...]
0.141874
0.145616
0.141991
0.143628
0.141640
0.139652
0.145733
0.143511
0.142810
0.146552
0.140237
0.140120
0.147020
0.146669
0.146084
0.140938
0.139769
0.144330
0.144564
0.147838
0.143745
0.139184
0.145967
0.145499
0.140938
0.143745
0.143277
0.144096
0.145850
0.141757
0.144564
0.144681
0.138366
0.141172
0.144681
0.147955
0.148657
0.138716
0.137898
0.144330
0.145967
0.149124
0.143277
0.138366
0.143511
0.143043
0.146435
0.149124
0.140938
0.140821
0.144564
0.144447
0.144096
0.141055
0.145148
0.146318
0.141991
0.143979
0.140003
0.142810
0.147955
0.141640
0.143628
0.145382
0.143043
0.146318
0.145031
0.139769
0.143160
0.148072
0.145031
0.143979
0.143160
0.142342
0.144798
0.146786
0.145265
0.139301
0.141874
0.145967
0.141874
0.144915
0.146318
0.141406
0.144330
0.144213
0.141991
0.144564
0.141523
0.143394
0.148657
0.143277
0.138599
0.141406
0.147136
0.147604
0.140237
0.139418
0.145850
0.144447
0.140588
0.143277
0.144330
0.143277
0.145616
0.145499
0.143862
0.141640
0.140471
0.145031
0.147253
0.147020
0.141523
0.136962
0.145850
0.149358
0.143511
0.141406
0.143979
0.145031
0.142693
0.141874
0.144915
0.146786
0.142693
0.141289
0.142810
0.145265
0.143862
0.140705
0.145733
0.144798
0.146435
0.145382
0.137781
0.144681
0.146786
0.145499
0.148189
0.142108
0.139652
0.142225
0.145967
0.148657
0.145031
0.137898
0.137781
0.147487
0.147020
0.141640
0.142693
0.142810
0.144564
0.146902
0.143511
0.137547
0.145031
0.148891
0.141757
0.145031
0.144447
0.138249
0.144447
0.148774
0.140471
0.143160
0.148540
0.142926
0.139535
0.141406
0.148423
0.145850
0.145733
0.145499
0.135208
0.143745
0.150177
0.143862
0.145382
0.141406
0.137898
0.145616
0.147721
0.143160
0.141640
0.141874
0.143277
0.145499
0.145265
0.141172
0.140938
0.146201
0.145265
0.141757
0.145148
0.144564
0.139418
0.144915
0.148423
0.142926
0.146084
0.143979
0.138483
0.146902
0.146786
0.142459
0.145850
0.145499
0.142693
0.140003
0.145733
0.148540
0.143277
0.147253
0.143862
0.139769
0.148189
0.145265
0.140120
0.147487
0.145031
0.138716
0.144798
0.146084
0.144330
0.142225
0.142926
0.146318
0.142459
0.145031
0.142576
0.139886
0.147020
0.145148
0.143628
0.144798
0.141406
0.143511
0.148189
0.143511
0.144798
0.147604
0.143160
0.143862
0.143043
0.144330
0.145850
0.144681
0.143160
0.138950
0.144681
0.148306
0.141757
0.143043
0.147136
0.145382
0.143277
0.141172
0.142926
0.146902
0.144915
0.143043
0.145031
0.143394
0.142342
0.145733
0.146435
0.146786
0.142342
0.141055
0.146435
0.144213
0.144915
0.143394
0.142342
0.147370
0.144330
0.141289
0.143277
0.146201
0.146084
0.143394
0.142459
0.143862
0.145148
0.144330
0.145382
0.147370
0.143277
0.138599
0.145850
0.150411
0.141991
0.138950
0.145265
0.148306
0.145499
0.141757
0.141406
0.147136
0.145850
0.140120
0.145499
0.145967
0.140354
0.144213
0.146084
0.143862
0.145967
0.143277
0.140821
0.146552
0.148657
0.143979
0.139301
0.143628
0.148540
0.144915
0.145733
0.143979
0.141055
0.145733
0.145850
0.146669
0.143628
0.137781
0.146201
0.149709
0.142108
0.142108
0.142342
0.142693
0.145967
0.144915
0.146318
0.143043
0.142459
0.147370
0.142576
0.145616
0.145265
0.139418
0.146669
0.145850
0.140471
0.142342
0.144096
0.146318
0.146669
0.141757
0.139535
0.145265
0.146084
0.144213
0.146318
0.144681
0.143043
0.143160
0.146201
0.148072
0.143043
0.141757
0.142576
0.144564
0.146435
0.141991
0.144096
0.147721
0.142108
0.141757
0.145967
0.143160
0.141757
0.143979
0.144096
0.146084
0.144213
0.141289
0.144330
0.146084
0.146786
0.142342
0.141991
0.148657
0.144213
0.143862
0.146786
0.142342
0.145733
0.146084
0.143043
0.144915
0.142926
0.144096
0.147370
0.147020
0.142926
0.139301
0.145967
0.147721
0.141874
0.143628
0.143277
0.139301
0.146084
0.149592
0.142459
0.143628
0.143160
0.142810
0.147838
0.144096
0.141055
0.143277
0.146318
0.145733
0.142108
0.142459
0.143862
0.144915
0.147370
0.144798
0.141289
0.146435
0.145616
0.140821
0.145733
0.145967
0.141406
0.144681
0.147838
0.143862
0.142108
0.144681
0.146084
0.145733
0.144564
0.144330
0.143394
0.145733
0.147253
0.143745
0.145148
0.144915
0.143394
0.143862
0.143160
0.147253
0.144681
0.143043
0.148540
0.144213
0.142810
0.145031
0.142693
0.146201
0.148072
0.141406
0.141289
0.145031
0.144213
0.146084
0.145733
0.147370
0.143745
0.136728
0.147370
0.150294
0.141172
0.143979
0.143979
0.141289
0.148423
0.144447
0.140705
0.146902
0.143511
0.146318
0.147370
0.143511
0.143160
0.142225
0.150177
0.147136
0.139652
0.140120
0.139769
0.148072
0.151931
0.143862
0.141874
0.143862
0.141523
0.144915
0.146552
0.145148
0.146786
0.139535
0.140120
0.147838
0.145499
0.145499
0.144213
0.143628
0.148891
0.141406
0.140821
0.148657
0.143277
0.142108
0.145265
0.147020
0.143628
0.138132
0.144564
0.151463
0.147721
0.141991
0.143043
0.142693
0.144096
0.147370
0.145031
0.144798
0.143511
0.142576
0.145616
0.145967
0.144096
0.143862
0.147136
0.148189
0.141289
0.141172
0.145733
0.145031
0.149007
0.144798
0.138483
0.147136
0.146435
0.141289
0.145616
0.145850
0.144681
0.145382
0.144330
0.144564
0.145382
0.144681
0.146318
0.147136
0.144915
0.144213
0.145265
0.146084
0.143160
0.144096
0.148891
0.144564
0.142225
0.143628
0.141874
0.146084
0.149592
0.145733
0.141523
0.140938
0.144330
0.146435
0.146435
0.149358
0.146201
0.138950
0.140938
0.143979
0.149943
0.148774
0.141757
0.146084
0.141055
0.139886
0.151697
0.147370
0.141991
0.144330
0.141991
0.144798
0.147721
0.142342
0.142810
0.148072
0.146552
0.142810
0.141406
0.144564
0.142926
0.144798
0.151463
0.141406
0.140237
0.145967
0.144447
0.148891
0.144330
0.141523
0.146902
0.145967
0.142576
0.144915
0.146201
0.143628
0.148540
0.146084
0.141406
0.143745
0.143043
0.144798
0.147955
0.149358
0.141640
0.138015
0.147721
0.147136
0.143862
0.150177
0.145148
0.139652
0.146669
0.144096
0.141874
0.147604
0.144915
0.142693
0.147370
0.144330
0.137430
0.144447
0.150528
0.144681
0.140938
0.144447
0.145967
0.144798
0.147838
0.143745
0.141172
0.146552
0.143160
0.146084
0.149007
0.139067
0.142108
0.150411
0.151463
0.149241
0.139769
0.134740
0.133922
0.142459
0.156024
0.171578
0.212040
0.274606
0.337873
0.269811
-0.115053
-0.864198
-1.769932
-2.286241
-1.900442
-0.717784
0.461600
1.129001
1.422765
1.296465
0.860847
0.239055
-0.338066
-0.792511
-1.215616
-0.952725
-0.737781
-0.471733
0.365355
0.205959
-0.489508
-0.532661
0.779922
2.982451
3.942915
3.631258
2.000587
-1.654157
-4.416148
-5.311122
-5.107522
-1.923246
1.381601
3.860352
5.473950
3.633948
1.887385
-0.435831
-3.447381
-3.073627
-0.971904
1.291670
1.843180
0.218472
-1.012951
-0.311636
0.349216
-1.004648
0.371786
3.799307
4.516527
2.404863
-0.984183
-2.434058
-3.926151
-5.289488
-4.105309
-2.184382
0.314484
2.745756
4.658497
3.986886
3.172486
2.591740
-2.830500
-5.823573
-3.695654
-0.181360
3.511390
3.287559
1.008197
-1.318644
-1.849103
0.741097
1.743075
1.445452
1.797688
-0.228255
-2.918208
-2.812724
-2.307408
-1.721868
-0.068860
2.707749
4.849350
2.933802
1.228404
1.502755
-0.422850
-2.969079
-4.768735
-5.452859
-4.835276
-3.390663
0.021655
1.508368
1.400663
3.922450
4.438174
1.918492
1.386395
3.066417
3.715692
2.279031
1.299740
-0.302982
-5.241658
-9.111345
-8.170878
-2.660112
3.621435
5.156914
5.210007
2.890299
-4.988239
-8.890437
-6.446769
-0.717433
6.326123
6.650877
4.175868
3.987471
1.669634
-0.382153
-2.638594
-4.395215
-2.259344
-1.971778
-4.427374
-5.324454
-5.923209
-8.892075
-9.319506
-5.202949
-3.510063
-2.854824
-0.507869
-0.876009
-4.722074
-7.462547
-8.207600
-8.698531
-6.181071
-1.662577
1.263721
0.010312
-3.918783
-4.934562
-4.201087
-0.564236
4.637447
7.070357
9.395794
9.517300
7.970360
6.505750
5.130952
6.546446
7.811199
6.282269
-0.085232
-6.460568
-5.786033
-7.688015
-15.789680
-18.314739
-12.033780
-5.667686
-10.024560
-17.149750
-9.167595
6.570537
13.665780
11.753510
10.648500
8.678107
0.994515
-5.875028
-8.658887
-4.442460
-2.084746
-4.528882
-2.564802
-1.946284
-2.730395
-0.847943
6.004175
10.564770
7.091407
4.253519
-0.976231
-1.906757
1.243372
-8.000725
-18.753401
-17.677160
-10.653370
-4.863460
-1.040901
3.494083
11.165980
13.889380
6.810273
-1.388927
-11.907600
-21.557961
-27.516859
-29.326811
-21.441601
-12.124060
0.549659
12.940960
17.373850
20.298401
18.828871
13.414590
8.628990
5.731111
-9.914752
-25.965830
-16.342480
2.465441
19.794720
18.881029
10.212880
13.262090
8.732252
16.393860
30.000099
24.761580
16.674990
-8.432249
-37.285801
-33.411209
-19.923080
-13.528680
-8.043409
-2.091061
2.525667
-7.213339
-20.185619
-16.012110
-10.236930
-16.675070
-19.859110
-15.423650
-8.782030
-2.073870
-15.238880
-34.123859
-17.606649
11.748710
22.930929
21.601271
0.104803
-19.650129
-10.556430
-14.618720
-42.930119
-39.448219
-3.336401
14.834990
7.470306
10.190780
33.357571
51.976971
58.782310
40.073910
7.343656
1.956733
-2.932943
-24.471161
-25.951441
8.107302
53.340080
67.094254
34.703480
-12.965710
-24.506479
-0.513482
9.039465
2.935440
10.237790
18.206499
15.602380
13.472470
0.446982
-22.610689
-29.077709
-30.356030
-41.617069
-36.230610
-6.096637
26.029369
36.606750
30.103710
28.673010
29.278431
16.655930
-9.464750
-17.587351
-2.505862
-0.465067
-18.587339
-42.530170
-53.314770
-41.507370
-15.640460
-3.049069
-27.219469
-56.447250
-67.927902
-69.235809
-64.770638
-44.421749
6.565391
36.072899
28.500521
8.664425
-22.473869
-26.319820
-8.905991
3.617927
13.865520
32.260040
55.305561
57.750980
43.178429
19.042761
11.584760
16.026770
7.985563
-4.139224
-23.652901
-28.896330
-11.804920
29.279020
78.702026
80.538750
37.585918
-4.111858
-7.731051
2.389777
-7.464184
3.713353
38.552471
43.672291
8.664541
-40.927799
-72.141052
-72.568947
-61.838261
-52.891899
-43.972450
-30.917370
-24.109449
-33.974529
-45.191238
-42.582329
-20.157669
19.675791
55.039860
64.720161
68.974358
73.118637
57.120178
35.229149
1.086316
-31.691540
-17.241199
43.634979
107.988899
131.035400
111.696701
63.267948
32.237591
51.429562
67.716621
51.398449
39.280800
56.043949
57.164970
23.851509
4.303454
1.376923
-15.260630
-40.707130
-54.968601
-66.284126
-77.696136
-74.447433
-78.000198
-87.598053
-76.105927
-45.657139
-2.061591
22.502911
43.254330
86.550858
107.117401
89.412827
73.564774
91.668221
91.689621
71.516273
58.167419
76.666611
171.485397
222.343307
177.138397
114.934898
73.526299
84.072456
124.120003
142.358093
146.980896
157.458405
136.624496
80.633362
19.460020
-4.499880
-4.421878
-26.013769
-61.182091
-94.335800
-80.989182
-80.740791
-92.291962
-70.648849
-59.353432
-31.681009
-42.080872
-28.220751
51.092869
37.459862
-58.058159
-112.658096
-49.664360
59.282139
100.314301
95.088837
106.215500
109.103302
89.736313
66.831589
32.140530
47.683361
92.552208
96.228577
89.195084
96.945221
88.591187
52.597599
25.041189
21.182961
56.893780
72.401299
46.454159
41.140911
33.432178
24.959209
7.508547
-16.372999
-24.815680
-28.977381
-28.120760
-53.518021
-77.697311
-84.076508
-88.058342
-105.859703
-151.741501
-177.476303
-184.636902
-187.455200
-197.897202
-216.882004
-222.751907
-224.692001
-230.790298
-233.099106
-229.020004
-232.357498
-236.524994
-251.070801
-252.851395
-233.231598
-218.239197
-201.389008
-185.495804
-157.050293
-135.858200
-100.001198
-64.001732
-89.917061
-127.857399
-164.321594
-197.786499
-206.202393
-198.617493
-197.928696
-207.181305
-202.954803
-201.915894
-210.038193
-216.168396
-223.968094
-240.110504
-257.446106
-273.051788
-292.822388
-309.049194
-314.874298
-301.188812
-274.601013
-230.738007
-174.026093
-120.558998
-81.514610
-59.420090
-32.318481
20.585381
79.459122
126.525803
212.064606
296.234894
395.568298
379.438690
164.018097
131.684601
142.663101
42.952141
68.545761
68.688080
65.591278
125.166000
151.659500
182.888306
227.607498
260.546997
267.114014
268.168915
243.266907
208.417496
197.882507
192.188797
199.679306
202.623703
205.463898
231.697693
272.533112
297.645996
291.671387
257.721802
210.530899
186.210800
175.158401
180.665604
193.894302
188.612595
172.514496
138.620193
108.946701
79.724701
57.794830
52.421478
37.196152
40.924450
44.345772
39.296349
53.251671
54.739780
23.716789
-18.758671
-9.732670
31.807819
65.284531
106.782204
143.961594
200.037903
222.797394
193.963593
135.911697
-1.281338
-79.508430
9.185880
137.707901
180.902298
150.894196
64.500893
-15.377100
-5.290189
10.807660
27.511290
-1.840215
-90.699768
-98.759102
-47.546501
12.217540
45.525040
27.132851
4.043721
24.396120
49.117100
49.085411
15.737570
4.792515
49.924721
-39.387642
-163.702393
-178.135101
-145.639404
-157.676300
-312.938599
-443.686310
-504.920502
-439.686401
-239.677902
-112.948402
-61.993099
-83.243050
-112.684601
-103.490997
-81.717743
-16.537189
43.855659
74.779709
102.758400
99.633423
76.247833
80.791107
60.496010
55.377949
93.462151
85.169983
48.146690
4.781523
13.341730
66.932037
76.136848
109.373497
129.583893
95.626671
109.876198
125.507797
97.073967
66.894157
56.888519
34.483391
4.246502
6.859389
-0.951438
-12.437830
-42.493801
-23.253651
22.278151
-129.335098
-269.887207
-210.729401
-152.432098
-165.140793
-200.483200
-206.499496
-164.321701
-97.880257
-10.798030
68.806313
78.569763
20.496620
-27.030840
-57.731640
-130.157700
-185.967896
-176.386398
-169.136505
-151.636200
-118.022797
-98.798508
-53.444111
-29.588060
-36.884331
-17.298731
-25.627621
-27.469030
-8.177662
-21.376579
-40.098080
-68.237343
-93.028709
-101.768204
-122.528999
-138.079193
-94.760773
-105.109901
-204.589798
-216.929504
-147.451904
-79.967087
-87.962677
-154.785507
-183.946396
-167.145004
-109.264999
-64.180542
-27.573339
14.483110
23.533430
49.297779
94.302040
104.499001
94.096573
93.518402
96.804527
86.232536
68.637558
64.323250
66.684822
74.113724
83.637894
70.856110
52.528252
36.274391
32.241798
55.656509
56.513130
35.321651
24.091841
25.181410
32.518379
21.244711
-3.187999
-38.273979
-75.025719
-90.599899
-88.498413
-72.281967
-50.525650
-22.399139
0.660171
4.958810
29.650200
83.986740
149.939896
209.127808
241.255402
236.816803
122.205002
-44.807659
-131.518005
-105.821098
36.584179
208.298004
280.093201
162.080994
95.408447
216.866592
280.447815
296.405701
268.104309
209.405396
198.618896
180.255402
200.718796
211.791397
185.686798
167.604004
162.251007
181.815994
163.815399
159.564194
177.187500
187.711304
248.935898
205.986404
78.704826
131.568100
259.119110
247.087799
177.048294
126.169296
90.013580
66.175301
16.648451
-28.872829
-50.454430
-52.190010
-51.935539
-74.741783
-106.950798
-151.306595
-154.274994
-135.673401
-130.094604
-134.677994
-156.913193
-138.790695
-151.822800
-168.452103
-164.597107
-187.001404
-147.535599
-165.990005
-208.079697
-153.952499
-114.475998
-100.736397
-114.699997
-135.550003
-163.645004
-235.603195
-304.091492
-343.673492
-300.279907
-117.621902
48.322109
12.312500
-109.181198
-141.470596
-67.841713
9.311594
15.247450
15.551860
3.539340
-16.027670
-7.007166
-20.168550
-50.210369
-77.534866
-90.254913
-72.519371
-42.554611
-22.738159
-26.556629
-34.238701
-24.711950
-26.268709
-18.211370
-18.059690
-90.740578
-108.650703
-31.512960
20.073280
14.143030
-24.201370
-38.894489
-37.073200
-44.654930
-40.184620
-26.660709
-19.420450
-7.196031
-1.702572
6.857284
41.892632
56.198200
73.799950
89.230400
83.389732
97.066727
94.842796
84.355110
68.897293
54.047939
59.375801
54.094021
57.102409
74.380577
79.900124
77.602043
82.420273
76.229233
74.466423
84.359787
71.322372
50.964230
26.034510
6.693679
3.734052
12.128080
23.544540
27.664249
30.075991
22.773291
26.647539
35.285160
32.876110
44.639191
57.379452
55.786079
47.326328
33.290440
21.728741
20.783251
19.265890
20.287519
29.820589
22.586531
6.757998
-8.057325
-27.918329
-27.708410
-27.167200
-26.970850
-15.175490
-12.079390
-0.314443
6.535804
12.586390
26.453991
51.015221
87.573532
108.116600
123.159103
107.619698
90.477966
87.637497
57.950371
43.735088
37.858631
21.934681
20.933399
28.098000
24.527691
20.282610
12.115690
6.308581
17.994591
16.131201
15.639450
13.437270
4.605053
4.604820
-13.589030
-31.271240
-32.657261
-35.920589
-47.514339
-62.341469
-67.084846
-56.277439
-48.581341
-33.791039
-20.035351
-13.419340
7.229167
-28.316641
-44.874081
19.932711
62.268311
75.057808
51.741570
28.523560
25.304430
19.925579
22.190790
6.288233
-13.844900
-19.802280
-12.939400
-12.776850
-25.769131
-38.306610
-41.264019
-37.482849
-45.585220
-42.457779
-34.911598
-21.280220
-11.579340
-27.114450
-24.551970
-51.384029
-59.697941
-10.406970
-74.305580
-169.143799
-119.794098
-16.535549
9.924382
-40.588661
-72.328987
-60.363239
-35.317039
-16.530060
-16.880070
6.219353
33.432880
33.345169
36.236389
34.119110
48.416950
71.425400
86.889526
109.493301
106.480003
99.845093
84.212440
17.342510
-25.497820
-19.979799
-30.645000
-42.276630
-47.804131
-45.834671
-47.972061
-74.874977
-77.061836
-75.978813
-84.716904
-96.324318
-110.065002
-110.961502
-144.546494
-165.940308
-165.253494
-178.765503
-185.840500
-197.233200
-192.987900
-191.049103
-174.946594
-139.123505
-108.612801
-79.545151
-130.043198
-189.469803
-160.310501
-105.597298
-86.393997
-108.119102
-101.982803
-49.666111
-0.159842
61.304798
119.596497
116.731003
125.350304
150.514404
182.580902
242.854294
198.440796
98.400467
50.138260
43.366829
64.857101
81.298767
95.611473
87.181541
88.783211
102.070198
113.400703
142.190704
149.130905
144.093994
118.013000
90.099998
69.217720
47.002159
43.497810
43.984760
59.315109
27.093210
-6.227147
41.863041
83.514977
79.110863
44.648769
29.045481
37.307709
33.186481
34.699970
40.509300
19.521879
-3.933635
-15.568540
-38.418060
-49.293758
-76.276207
-95.496353
-92.532288
-116.778603
-119.058197
-125.192497
-149.267593
-147.373199
-127.243202
-97.428040
-63.024311
-33.383839
-25.621309
-15.562580
-31.569799
-62.071449
-52.883251
-41.380840
-32.012779
-34.753490
-39.173168
-23.968531
-6.884491
2.672432
3.221719
23.852329
45.033760
42.965130
47.697510
51.624271
49.641010
