EVENT_NAME: L_AQUILA
EVENT_ID: IT-2009-0009
EVENT_DATE_YYYYMMDD: 20090406
EVENT_TIME_HHMMSS: 013240
EVENT_LATITUDE_DEGREE: 42.3420
EVENT_LONGITUDE_DEGREE: 13.3800
EVENT_DEPTH_KM: 8.3
HYPOCENTER_REFERENCE: INGV-CNT_Seismic_Bulletin
MAGNITUDE_W: 6.1
MAGNITUDE_W_REFERENCE: INGV-CNT_Seismic_Bulletin
MAGNITUDE_L: 
MAGNITUDE_L_REFERENCE: 
FOCAL_MECHANISM: Normal faulting
NETWORK: IT
STATION_CODE: AQG
STATION_NAME: 
STATION_LATITUDE_DEGREE: 42.373474
STATION_LONGITUDE_DEGREE: 13.337026
STATION_ELEVATION_M: 721
LOCATION: 
SENSOR_DEPTH_M: 0.0
VS30_M/S: 696
SITE_CLASSIFICATION_EC8: B
MORPHOLOGIC_CLASSIFICATION: 
EPICENTRAL_DISTANCE_KM: 5.0
EARTHQUAKE_BACKAZIMUTH_DEGREE: 314.7
DATE_TIME_FIRST_SAMPLE_YYYYMMDD_HHMMSS: 20090406_013212.000
DATE_TIME_FIRST_SAMPLE_PRECISION: seconds
SAMPLING_INTERVAL_S: 0.005000
NDATA: 61400
DURATION_S: 307.000
STREAM: HNZ
UNITS: cm/s^2
INSTRUMENT: sensor = FBA-3 [Kinemetrics] | digitizer = Everest [Kinemetrics]
INSTRUMENT_ANALOG/DIGITAL: D
INSTRUMENTAL_FREQUENCY_HZ: 208.000
INSTRUMENTAL_DAMPING: 0.000000
FULL_SCALE_G: 1.0
N_BIT_DIGITAL_CONVERTER: 24
PGA_CM/S^2: 267.777191
TIME_PGA_S: 33.555000
BASELINE_CORRECTION: BASELINE NOT REMOVED
FILTER_TYPE: 
FILTER_ORDER: 
LOW_CUT_FREQUENCY_HZ: 
HIGH_CUT_FREQUENCY_HZ: 
LATE/NORMAL_TRIGGERED: NT
DATABASE_VERSION: 0.5
HEADER_FORMAT: DYNA 1.2
DATA_TYPE: ACCELERATION
PROCESSING: converted to cm/s^2
DATA_TIMESTAMP_YYYYMMDD_HHMMSS: 20211011_155348.383
DATA_LICENSE: CC-BY3_0-IT (http://creativecommons.org/licenses/by/3.0/deed.en)
DATA_CITATION: Luzi L, Pacor F, Puglia R (2019). Italian Accelerometric Archive v 3.0 - Istituto Nazionale di Geofisica e Vulcanologia, Dipartimento della Protezione Civile Nazionale. doi: 10.13127/itaca.3.1
DATA_CREATOR: ITACA working group
ORIGINAL_DATA_MEDIATOR_CITATION: data obtained within the DPC-INGV data exchange agreements
ORIGINAL_DATA_MEDIATOR: Archive of Italian Department of Civil Protection
ORIGINAL_DATA_CREATOR_CITATION: Presidency Of Counsil Of Ministers-Civil Protection Department. (1972). Italian Strong Motion Network. Presidency of Counsil of Ministers - Civil Protection Department. https://doi.org/10.7914/SN/IT http://www.fdsn.org/networks/detail/IT/
ORIGINAL_DATA_CREATOR: network: IT (Italian Strong Motion Network (RAN)); owner: Presidency of Counsil of Ministers - Civil Protection Department (PCM - DPC)
USER1: 
USER2: 
USER3: 
USER4: 
USER5: 
[...]
-0.008751
-0.007816
-0.008517
-0.002319
-0.010271
-0.011792
-0.003839
-0.009219
-0.006412
-0.008751
-0.010739
-0.001734
-0.011558
-0.008868
-0.004775
-0.013546
-0.003138
-0.008400
-0.010154
-0.002436
-0.014014
-0.005944
-0.005477
-0.011909
-0.002553
-0.010037
-0.008868
-0.004073
-0.010505
-0.009102
-0.007465
-0.006763
-0.006061
-0.007816
-0.010973
-0.008283
-0.006412
-0.006880
-0.005944
-0.012026
-0.007231
-0.005594
-0.012376
-0.004541
-0.006997
-0.010505
-0.005126
-0.009336
-0.009219
-0.008283
-0.008400
-0.005243
-0.007582
-0.008634
-0.008166
-0.009570
-0.007231
-0.006646
-0.008751
-0.008868
-0.007582
-0.006529
-0.008634
-0.008049
-0.009219
-0.008049
-0.004658
-0.008283
-0.009102
-0.011090
-0.006880
-0.003722
-0.011090
-0.006295
-0.008283
-0.011441
-0.004775
-0.009570
-0.007699
-0.005711
-0.009921
-0.005477
-0.008985
-0.010505
-0.006412
-0.006997
-0.005477
-0.009687
-0.008985
-0.005360
-0.008985
-0.008517
-0.008400
-0.007699
-0.004541
-0.009102
-0.012376
-0.005944
-0.007114
-0.007582
-0.005009
-0.010973
-0.009570
-0.007114
-0.008166
-0.005827
-0.006412
-0.010973
-0.007699
-0.004892
-0.009921
-0.008400
-0.007699
-0.007348
-0.007582
-0.007114
-0.006997
-0.012493
-0.005827
-0.004307
-0.010856
-0.006763
-0.008283
-0.011324
-0.003606
-0.006997
-0.011207
-0.004775
-0.008985
-0.007816
-0.008049
-0.012026
-0.003255
-0.007114
-0.006763
-0.007348
-0.016352
-0.003138
-0.005126
-0.013078
-0.003255
-0.009804
-0.009921
-0.003372
-0.010856
-0.008049
-0.006646
-0.010505
-0.006763
-0.007465
-0.007582
-0.008634
-0.009102
-0.004541
-0.008985
-0.009453
-0.005126
-0.010037
-0.010622
-0.004424
-0.006997
-0.009804
-0.004892
-0.010037
-0.009336
-0.003606
-0.010505
-0.007465
-0.006061
-0.008985
-0.006997
-0.010505
-0.005594
-0.006880
-0.010973
-0.003021
-0.010271
-0.010973
-0.003372
-0.010271
-0.007465
-0.005477
-0.009804
-0.007465
-0.008751
-0.006763
-0.007582
-0.009102
-0.004892
-0.009570
-0.007816
-0.005711
-0.012259
-0.008283
-0.003372
-0.008283
-0.009219
-0.005009
-0.010388
-0.008985
-0.004892
-0.010739
-0.005126
-0.006997
-0.011675
-0.005243
-0.007932
-0.007582
-0.007114
-0.007932
-0.007348
-0.011792
-0.006178
-0.005009
-0.010037
-0.006646
-0.007932
-0.008985
-0.005594
-0.008868
-0.010271
-0.005944
-0.006880
-0.007932
-0.008283
-0.010037
-0.006178
-0.005243
-0.009219
-0.007582
-0.008517
-0.009453
-0.005711
-0.010388
-0.006061
-0.005594
-0.011792
-0.003138
-0.012142
-0.009687
-0.001968
-0.012961
-0.003722
-0.008634
-0.011441
-0.004190
-0.010973
-0.005009
-0.007348
-0.010037
-0.006178
-0.010154
-0.006529
-0.006295
-0.008868
-0.008049
-0.008049
-0.007348
-0.006646
-0.007231
-0.009687
-0.005477
-0.007816
-0.011558
-0.003839
-0.008517
-0.010505
-0.003956
-0.009102
-0.007114
-0.005477
-0.010154
-0.008166
-0.009453
-0.003956
-0.006178
-0.012142
-0.003722
-0.009687
-0.008049
-0.004307
-0.013078
-0.006763
-0.004424
-0.010154
-0.009102
-0.006529
-0.009570
-0.006529
-0.004775
-0.010271
-0.006529
-0.010622
-0.009570
-0.003489
-0.009102
-0.007114
-0.009102
-0.007816
-0.005243
-0.012026
-0.006295
-0.006997
-0.010271
-0.003372
-0.010856
-0.011558
-0.003021
-0.009570
-0.008166
-0.004541
-0.011675
-0.008751
-0.005243
-0.008517
-0.006295
-0.005827
-0.009102
-0.007932
-0.008634
-0.008283
-0.006412
-0.007348
-0.006529
-0.010622
-0.008517
-0.004658
-0.010856
-0.006529
-0.005827
-0.010856
-0.005827
-0.007699
-0.009687
-0.005944
-0.009336
-0.008634
-0.004307
-0.009804
-0.009570
-0.005944
-0.008985
-0.006178
-0.007932
-0.008751
-0.006412
-0.009804
-0.004073
-0.008751
-0.012142
-0.000916
-0.007932
-0.010856
-0.006763
-0.008751
-0.005711
-0.007231
-0.006763
-0.007699
-0.012493
-0.007816
-0.004892
-0.009687
-0.006295
-0.006529
-0.011792
-0.003722
-0.008751
-0.011207
-0.003255
-0.008985
-0.007114
-0.006997
-0.010154
-0.007932
-0.007231
-0.006880
-0.006763
-0.008283
-0.009102
-0.007699
-0.009804
-0.004658
-0.006880
-0.011324
-0.004775
-0.009219
-0.008283
-0.006295
-0.010271
-0.006997
-0.006529
-0.007114
-0.009336
-0.009453
-0.005477
-0.006412
-0.008868
-0.007114
-0.006997
-0.009921
-0.006295
-0.007465
-0.008868
-0.004307
-0.008400
-0.009102
-0.007114
-0.009687
-0.005126
-0.006997
-0.010154
-0.003839
-0.009687
-0.010271
-0.005126
-0.009921
-0.005009
-0.006295
-0.010388
-0.006061
-0.009570
-0.007816
-0.005711
-0.008166
-0.005243
-0.008400
-0.013078
-0.004424
-0.005711
-0.011324
-0.003839
-0.009570
-0.008517
-0.003722
-0.013078
-0.005944
-0.005360
-0.009336
-0.004658
-0.010154
-0.008517
-0.009219
-0.009921
-0.001617
-0.008634
-0.011207
-0.006997
-0.010154
-0.005243
-0.005360
-0.010622
-0.006295
-0.007699
-0.011441
-0.006178
-0.006412
-0.008868
-0.004541
-0.009570
-0.008283
-0.005944
-0.013663
-0.003372
-0.006763
-0.011675
-0.003489
-0.011207
-0.005944
-0.006763
-0.012259
-0.003255
-0.006880
-0.008283
-0.007932
-0.011675
-0.006295
-0.005711
-0.007932
-0.005594
-0.008400
-0.011090
-0.006178
-0.005126
-0.011441
-0.006529
-0.005477
-0.009687
-0.006763
-0.011792
-0.006529
-0.005944
-0.009219
-0.004658
-0.011675
-0.008283
-0.007348
-0.009687
-0.002787
-0.010505
-0.009453
-0.003021
-0.011324
-0.008868
-0.007114
-0.008517
-0.005126
-0.009687
-0.007582
-0.007699
-0.008868
-0.006646
-0.007231
-0.005360
-0.008400
-0.008400
-0.008985
-0.007816
-0.008400
-0.008283
-0.002085
-0.010388
-0.010739
-0.007348
-0.009336
-0.003138
-0.007932
-0.008985
-0.005360
-0.012259
-0.008283
-0.004073
-0.007816
-0.005711
-0.008868
-0.009921
-0.008985
-0.009687
-0.003138
-0.007699
-0.008751
-0.006529
-0.012493
-0.006178
-0.004424
-0.009570
-0.007699
-0.005360
-0.009453
-0.008868
-0.005477
-0.009921
-0.006763
-0.007114
-0.006646
-0.006529
-0.011792
-0.006178
-0.007816
-0.007231
-0.004892
-0.010037
-0.009102
-0.006646
-0.008868
-0.006646
-0.005126
-0.012259
-0.002553
-0.007348
-0.014598
-0.001968
-0.012376
-0.007582
-0.001851
-0.010271
-0.008166
-0.010388
-0.006763
-0.008049
-0.008166
-0.003021
-0.010271
-0.011090
-0.004658
-0.009687
-0.007582
-0.002319
-0.012026
-0.008751
-0.005711
-0.011441
-0.006880
-0.005827
-0.008985
-0.006646
-0.005477
-0.010154
-0.010037
-0.006178
-0.003722
-0.008517
-0.011324
-0.004424
-0.011675
-0.009804
0.000254
-0.012142
-0.008868
-0.004775
-0.012026
-0.004658
-0.011558
-0.022317
-0.029216
-0.041145
-0.041729
-0.039507
-0.065118
-0.123941
-0.259012
-0.582948
-1.195619
-2.246480
-3.500474
-4.347151
-4.285989
-3.057957
-1.075751
0.832429
2.207227
3.301708
3.794395
2.948303
1.189811
-1.287654
-3.753074
-4.953274
-4.509704
-2.869794
-1.327883
1.006793
2.807736
2.667753
3.714522
4.392214
3.535363
2.198456
0.354712
-1.127908
-3.775761
-5.753874
-5.504315
-4.403050
-1.761746
2.109227
5.553939
5.951667
4.873323
4.934251
3.225227
-0.830753
-2.822665
-1.863956
-1.365539
-0.727374
1.904458
5.545285
8.347271
8.107886
4.995998
1.464981
-0.576282
-2.674848
-5.779485
-6.591897
-4.548061
-2.468909
-0.982079
0.739810
1.920713
2.698627
3.611494
3.531972
2.368025
1.026791
-0.833793
-3.598240
-3.536961
-0.234337
2.408137
2.706462
0.012065
-2.481656
-1.505170
1.589878
1.288044
-1.274673
-1.535810
-2.916455
-3.444575
-0.671708
3.446486
4.721179
0.496682
-1.085457
-0.719422
-3.715535
-5.822404
-5.602431
-4.840305
-6.003551
-6.770705
-5.201078
-5.900289
-5.973028
-1.934239
2.738856
6.091532
9.081681
12.603110
11.086570
5.535930
3.717212
2.057421
-0.837068
-3.218989
-5.661956
-6.651539
-8.277650
-8.738294
-6.173354
-2.690635
-1.358171
-3.813768
-2.046740
1.927379
1.590112
1.679106
3.419822
6.469262
7.361664
7.843007
10.156750
6.418391
-0.563301
-6.874084
-11.831350
-13.839990
-13.814500
-12.197150
-13.580370
-13.923600
-10.477490
-10.206760
-13.058920
-14.564340
-12.024660
-10.415980
-11.153660
-9.844235
-9.795820
-11.573260
-12.657210
-11.907600
-7.265497
-3.369497
-2.497209
0.055334
2.307214
2.728798
4.388238
8.487136
12.306300
11.290760
11.883900
18.105459
21.431231
17.702000
12.811270
13.442420
8.861008
-7.069030
-20.408871
-26.796949
-31.442909
-36.446381
-35.133209
-22.741091
-12.082200
-11.778610
-10.147360
4.600492
26.830441
42.023022
41.182781
31.004061
22.764050
16.177389
13.611400
14.744240
10.234870
2.932164
0.410611
6.360504
14.187470
11.038860
4.398763
1.970298
-1.461433
-8.056508
-15.153160
-16.990351
-12.360990
-6.678202
-4.911057
-2.414062
1.582861
5.089553
3.600618
-8.953938
-11.573840
-0.608208
-0.239482
-13.086630
-25.312460
-29.163549
-35.691971
-43.201778
-36.681789
-25.459110
-14.879390
4.724453
26.876860
41.872871
46.237808
36.570259
15.059640
-8.734317
-19.308420
-22.482410
-37.041618
-46.406410
-23.992861
-4.641851
-11.999400
-4.862408
13.453880
28.906780
42.668320
45.292549
54.022091
44.945930
-5.473325
-55.220261
-65.582352
-33.325600
1.050531
3.239026
-3.859727
-1.830393
-19.234631
-43.540451
-31.528749
-8.241397
-4.350893
-17.930700
-24.683420
-6.637740
11.148670
23.406191
20.237579
7.978195
29.480980
59.227051
64.255074
54.528809
37.335312
24.742861
11.720300
-13.411620
-21.990770
-0.912848
1.469308
-14.085220
0.766824
41.304161
90.464279
109.967102
72.996658
27.340200
-2.343310
-35.237759
-64.056343
-63.923382
-50.543541
-37.310829
-19.560671
-27.317940
-44.814678
-39.598850
-32.774559
-15.566320
16.927010
33.753658
47.010460
73.498589
75.101784
42.676861
9.819600
-23.282770
-45.570610
-53.478500
-53.044750
-26.191410
-3.710857
-1.805951
-5.673884
2.648575
26.820259
24.152531
-2.349976
-31.454029
-45.443722
-49.726688
-64.462021
-54.942520
-28.843361
-3.457556
17.320520
16.773109
14.765530
16.803980
17.536400
12.952300
18.018570
33.328449
41.953560
60.544659
54.302292
27.259390
25.943300
50.925529
93.494308
97.043800
79.772987
87.302689
84.044510
70.748871
45.000771
8.721025
-9.839558
-13.520500
-27.963711
-64.986519
-100.440300
-110.303001
-82.998627
-40.166729
-3.802659
23.055120
25.742149
33.738918
69.442719
109.311401
129.685806
125.049500
107.404800
53.763882
-20.571770
-70.845886
-101.684502
-105.409698
-102.228996
-101.960899
-82.697502
-64.775200
-65.523293
-87.343697
-101.650803
-88.168510
-58.244678
-23.728920
0.755012
6.404592
-28.830610
-70.382332
-75.657692
-82.106354
-96.825897
-95.050453
-79.055496
-45.286430
7.315705
57.395592
66.210381
30.152710
16.434441
29.803160
20.469481
1.494217
-3.308803
-16.754829
-39.676491
-22.151340
1.302312
3.208387
14.185830
7.164145
-15.164850
-37.793579
-62.597580
-83.399277
-97.208893
-96.606163
-81.704292
-58.924358
-52.469730
-55.215240
-55.590858
-58.799931
-55.597408
-60.158470
-68.990807
-73.529877
-81.058060
-96.832329
-121.814400
-117.686996
-69.766739
-26.895420
-7.568967
-5.846494
-17.022280
0.995684
37.412029
71.614143
114.705002
140.273605
114.044296
50.801800
16.091789
-22.061760
-57.278481
-58.288540
-64.099136
-46.348640
-22.421249
25.470720
58.867569
48.083778
59.794701
59.095139
51.494339
20.498369
0.637015
-30.369370
-85.110649
-55.259911
-48.187119
-42.127300
21.127060
76.592110
123.075500
114.082001
91.939194
97.804291
94.945122
69.178307
50.566509
50.696201
51.114738
66.494324
68.163933
55.961849
52.157299
46.090931
58.295589
98.304703
121.318703
108.258904
105.205902
93.463547
74.037117
64.185257
29.780239
13.657130
2.533267
-9.347222
1.578300
9.656696
25.789980
29.030741
41.420521
52.298691
47.093960
74.991028
101.663597
104.620697
88.328758
68.236443
49.853031
25.817459
2.061982
-41.919022
-81.498466
-100.634300
-118.918098
-120.838402
-110.204002
-86.106194
-53.124859
-16.914921
36.547810
55.406601
41.521099
50.865421
62.613171
45.627831
29.135990
45.867100
67.745628
73.570633
57.559780
33.756580
16.625290
0.291211
-3.633440
0.109363
7.165198
11.641940
8.037836
-1.551130
-12.276680
-14.460260
-20.147381
-28.952471
-33.233799
-35.803181
-38.012611
-43.419300
-45.493191
-34.251331
-11.197870
18.859510
36.758419
39.070648
42.563301
37.916061
53.827850
85.147987
76.704033
26.661221
-6.704047
34.441292
67.577583
51.997551
40.056259
48.832218
52.517250
13.011590
13.091820
32.219349
2.962687
-35.354820
-86.303947
-126.100601
-162.816101
-187.655106
-173.902695
-149.029297
-121.904099
-104.530998
-76.678612
-53.987209
-44.818539
-30.289730
-36.108410
-34.346169
-20.525459
-9.980242
6.934584
15.072740
30.309999
50.344311
52.512341
46.187881
41.210258
35.315681
18.550659
-0.757545
-23.024679
-53.776360
-74.969818
-83.180023
-87.760384
-94.464684
-98.856400
-106.652603
-133.067093
-160.666504
-178.719406
-182.282700
-144.399796
-62.645409
39.598770
129.984207
151.103302
93.999039
47.135361
40.448601
73.896782
114.965797
100.844803
82.374779
96.700813
182.182602
267.777191
242.685303
146.731903
75.179657
135.304703
212.408295
161.517395
65.412819
74.913841
112.602402
76.288177
48.192539
6.511947
-32.018978
-67.192909
-44.733749
-17.542450
-119.691399
-158.697006
-98.826233
-45.964470
-47.999771
-74.935089
-83.623123
-70.378593
17.747721
73.405617
65.184196
57.886051
61.969391
64.375061
33.214081
6.913885
-28.046619
-74.986427
-105.785103
-128.602707
-139.733200
-144.711304
-140.291794
-144.870499
-146.180099
-96.650131
-40.483299
7.694488
61.286560
79.581558
84.953163
84.176888
83.726768
81.378059
49.237320
17.197729
-23.276581
-47.655022
-49.708801
-49.573959
-21.660061
3.632076
27.651621
56.387531
34.809669
17.316669
78.409767
92.923851
-3.269860
-61.464039
-10.891350
30.745029
14.241850
10.644410
24.672110
42.270012
27.380310
-11.195290
-11.698390
-34.921188
-82.994766
-15.380730
102.356300
116.075798
73.208443
11.212170
-25.220659
5.972015
7.453232
-51.493839
-74.892517
-93.251373
-121.029999
-76.557457
-54.752720
-57.480331
-39.355831
-23.542271
26.919661
63.303612
68.240181
59.272430
40.766338
55.895191
96.316406
46.081230
-51.126980
-58.485939
-36.911110
-10.866680
-13.231640
-34.833481
-14.075400
-7.368758
6.914820
22.991739
22.752350
32.373131
23.801809
16.585880
9.301537
4.413381
19.367050
16.582960
27.426729
34.785221
1.247465
-1.409627
12.618080
11.391450
2.971341
-4.675531
-6.523368
-26.631359
-30.546770
-19.642300
-15.630640
-13.675800
-36.013680
-57.353451
-52.803490
-33.105511
-3.655543
29.267559
54.227798
70.754143
79.497833
81.879753
91.582031
109.947403
136.486099
141.287003
87.369469
-5.762645
-103.025200
-156.269302
-98.892769
-13.128850
-40.916691
-110.881798
-124.371498
-71.132179
-24.008650
-33.763908
-22.777340
-1.620010
16.686340
-1.664566
-33.793259
-2.788868
-15.689580
-32.594929
-26.166040
-52.310810
-40.062180
-23.961870
-7.668487
2.108409
6.669003
28.396790
20.397909
28.515600
19.490540
40.076481
66.886436
-29.331841
-73.209343
-36.113548
-39.062771
-48.604961
-26.236549
-5.323051
18.689831
40.296810
34.024849
38.677132
10.284100
-9.415518
4.841631
21.707569
45.582340
40.287220
29.955540
7.766057
10.691070
6.943588
-1.260055
25.011600
-0.065235
-1.430560
-1.210588
-10.899420
-2.780565
-55.788849
-89.288597
-97.625557
-93.089409
-85.251694
-88.719307
-62.264759
-73.816399
-119.875603
-136.960007
-87.874634
1.593854
46.899021
31.680590
24.353910
54.157871
56.107441
16.904551
-38.738140
-56.007179
-37.599800
-41.910839
-55.264820
-70.256729
-54.960300
-10.525320
6.756828
14.851010
22.939699
3.257621
-3.570875
5.187669
13.653030
25.062941
20.965799
34.389252
7.233142
-45.525581
-33.474701
5.901731
46.803471
44.073521
31.317711
40.862228
35.738091
46.890011
55.406479
52.468021
48.269249
35.347610
45.693550
56.037159
41.315041
28.493500
25.407339
30.604000
36.403961
44.292332
60.754581
72.143082
73.251831
77.746353
70.710403
48.586761
37.813381
25.356590
14.648820
13.883300
6.128487
-0.463080
8.036550
16.459700
11.501490
7.628297
8.054325
15.216810
15.520050
2.198339
-4.412640
-5.142957
0.654323
1.373648
-5.931279
-9.558307
-16.935970
-29.153959
-47.543461
-66.105911
-75.842697
-71.138023
-55.980869
-51.057522
-58.761688
-70.133476
-81.731422
-89.474190
-81.301888
-64.329880
-55.571331
-49.897900
-45.185390
-31.867661
-7.294031
17.908520
37.982601
44.150360
25.199530
0.075683
8.736929
12.848220
-2.003119
-7.332155
-17.128460
-7.794202
-2.444818
-28.156660
-44.296970
-45.991951
-36.532921
-25.040331
-27.848749
-26.258539
-12.903380
-4.609340
-0.138442
-1.964645
-2.371494
1.226181
-5.861580
-11.638630
-10.431180
-11.497360
-23.897200
-38.756729
-47.264431
-53.408920
-63.508930
-72.868797
-72.416687
-64.405083
-50.805389
-38.473961
-4.698569
2.372469
-26.137501
-9.654669
10.164940
4.752403
-3.403878
0.271330
7.350789
7.967202
7.644670
1.446036
8.961579
8.186707
-0.418758
0.567434
1.136719
0.231570
8.820779
30.812740
30.844549
31.507620
42.260422
38.841789
42.066292
33.973282
35.994308
49.800289
42.161480
81.166740
101.464302
23.163759
-30.510521
14.002000
65.895683
45.563629
34.694241
61.945419
76.212509
77.534447
70.039383
75.583351
78.318443
75.446533
101.023499
126.729500
109.161201
64.303139
34.292191
29.825609
34.895500
30.094351
23.923550
28.626940
26.474930
33.326229
41.926071
25.726250
28.433630
44.537560
59.586189
64.003410
36.486408
32.446331
42.303692
41.946659
36.993832
27.795460
36.463959
32.680931
30.106400
29.029221
13.516680
2.553616
-12.932150
-12.440630
-23.554079
-50.642132
-52.746891
-22.793831
-1.179130
-40.705021
-72.282791
-57.347019
-24.889000
-5.464203
-13.533130
2.085254
27.434219
37.504879
42.055889
34.950230
43.533939
39.785641
30.540380
50.373081
31.848520
31.966980
43.408459
-2.492648
-12.159030
-19.696791
-37.427540
-30.349951
-30.873510
-10.872640
2.525198
5.081367
13.170520
0.663796
-31.005430
-65.647018
-74.112617
-77.456291
-73.172623
-51.050621
-35.270851
-28.613560
-43.414391
-43.748730
-28.564680
-17.171619
-10.137410
-16.713190
-15.216890
-26.092710
-56.095482
-74.482643
-68.058647
-56.007420
-37.912861
-15.171520
-3.921357
6.521536
-0.240301
-10.156710
-25.270710
-27.632750
-1.576390
-12.741650
-33.103642
-39.443069
-49.972389
-45.928459
-35.803421
-37.618511
-56.991039
-62.571972
-49.753590
-33.693741
-5.596467
17.818821
26.820141
40.542629
60.362461
60.497540
59.130692
56.522369
35.035721
