EVENT_NAME: L_AQUILA
EVENT_ID: IT-2009-0009
EVENT_DATE_YYYYMMDD: 20090406
EVENT_TIME_HHMMSS: 013240
EVENT_LATITUDE_DEGREE: 42.3420
EVENT_LONGITUDE_DEGREE: 13.3800
EVENT_DEPTH_KM: 8.3
HYPOCENTER_REFERENCE: INGV-CNT_Seismic_Bulletin
MAGNITUDE_W: 6.1
MAGNITUDE_W_REFERENCE: INGV-CNT_Seismic_Bulletin
MAGNITUDE_L: 
MAGNITUDE_L_REFERENCE: 
FOCAL_MECHANISM: Normal faulting
NETWORK: IT
STATION_CODE: AQG
STATION_NAME: 
STATION_LATITUDE_DEGREE: 42.373474
STATION_LONGITUDE_DEGREE: 13.337026
STATION_ELEVATION_M: 721
LOCATION: 
SENSOR_DEPTH_M: 0.0
VS30_M/S: 696
SITE_CLASSIFICATION_EC8: B
MORPHOLOGIC_CLASSIFICATION: 
EPICENTRAL_DISTANCE_KM: 5.0
EARTHQUAKE_BACKAZIMUTH_DEGREE: 314.7
DATE_TIME_FIRST_SAMPLE_YYYYMMDD_HHMMSS: 20090406_013212.000
DATE_TIME_FIRST_SAMPLE_PRECISION: seconds
SAMPLING_INTERVAL_S: 0.005000
NDATA: 20000
DURATION_S: 100.000
STREAM: HNN
UNITS: cm/s^2
INSTRUMENT: sensor = FBA-3 [Kinemetrics] | digitizer = Everest [Kinemetrics]
INSTRUMENT_ANALOG/DIGITAL: D
INSTRUMENTAL_FREQUENCY_HZ: 212.000
INSTRUMENTAL_DAMPING: 0.000000
FULL_SCALE_G: 1.0
N_BIT_DIGITAL_CONVERTER: 24
PGA_CM/S^2: -479.266876
TIME_PGA_S: 33.670000
BASELINE_CORRECTION: BASELINE REMOVED
FILTER_TYPE: BUTTERWORTH
FILTER_ORDER: 2
LOW_CUT_FREQUENCY_HZ: 0.100
HIGH_CUT_FREQUENCY_HZ: 40.000
LATE/NORMAL_TRIGGERED: NT
DATABASE_VERSION: 0.5
HEADER_FORMAT: DYNA 1.2
DATA_TYPE: ACCELERATION
PROCESSING: manual (Paolucci et al., 2011)
DATA_TIMESTAMP_YYYYMMDD_HHMMSS: 20211011_155347.976
DATA_LICENSE: CC-BY3_0-IT (http://creativecommons.org/licenses/by/3.0/deed.en)
DATA_CITATION: Luzi L, Pacor F, Puglia R (2019). Italian Accelerometric Archive v 3.0 - Istituto Nazionale di Geofisica e Vulcanologia, Dipartimento della Protezione Civile Nazionale. doi: 10.13127/itaca.3.1
DATA_CREATOR: ITACA working group
ORIGINAL_DATA_MEDIATOR_CITATION: data obtained within the DPC-INGV data exchange agreements
ORIGINAL_DATA_MEDIATOR: Archive of Italian Department of Civil Protection
ORIGINAL_DATA_CREATOR_CITATION: Presidency Of Counsil Of Ministers-Civil Protection Department. (1972). Italian Strong Motion Network. Presidency of Counsil of Ministers - Civil Protection Department. https://doi.org/10.7914/SN/IT http://www.fdsn.org/networks/detail/IT/
ORIGINAL_DATA_CREATOR: network: IT (Italian Strong Motion Network (RAN)); owner: Presidency of Counsil of Ministers - Civil Protection Department (PCM - DPC)
USER1: 
USER2: 
USER3: 
USER4: 
USER5: 
[...]
0.017336
0.016623
0.015969
0.016395
0.017749
0.018848
0.019047
0.018234
0.017215
0.017928
0.020409
0.021880
0.020593
0.018183
0.017536
0.019362
0.021631
0.022041
0.020660
0.019844
0.020556
0.021074
0.020654
0.020519
0.021211
0.022037
0.022357
0.022299
0.021938
0.020771
0.019614
0.020628
0.023829
0.026068
0.024612
0.021073
0.019937
0.022680
0.026111
0.026606
0.024107
0.021877
0.022415
0.025010
0.027199
0.026962
0.024926
0.023900
0.024778
0.025691
0.025627
0.025734
0.026657
0.027174
0.026416
0.025284
0.025260
0.026610
0.027791
0.027796
0.027653
0.028200
0.028987
0.029106
0.028137
0.027453
0.028645
0.030521
0.030846
0.029690
0.028769
0.029278
0.030831
0.031568
0.030362
0.028795
0.028899
0.030182
0.031279
0.031903
0.031934
0.031563
0.031461
0.031561
0.031454
0.031371
0.032031
0.033515
0.034069
0.032438
0.030931
0.032259
0.034792
0.034974
0.033086
0.032437
0.033590
0.034247
0.033934
0.034062
0.034970
0.036118
0.037033
0.036992
0.035706
0.034420
0.035002
0.037498
0.039382
0.038327
0.035631
0.035187
0.037877
0.040017
0.039345
0.038020
0.038025
0.038443
0.038424
0.038880
0.040084
0.040525
0.039577
0.038836
0.039441
0.040290
0.040300
0.040397
0.041614
0.043069
0.043083
0.041461
0.040386
0.041749
0.044349
0.045714
0.044705
0.042192
0.040841
0.042524
0.045674
0.046688
0.044166
0.041220
0.041797
0.044972
0.046533
0.045497
0.044541
0.045374
0.046952
0.047125
0.045612
0.045035
0.046855
0.048771
0.048841
0.047768
0.046655
0.046668
0.048179
0.049345
0.049403
0.049816
0.050145
0.048893
0.047709
0.049094
0.052021
0.053551
0.052393
0.049677
0.048540
0.050874
0.054010
0.054446
0.052311
0.050146
0.050418
0.052986
0.054731
0.053900
0.052358
0.052378
0.053924
0.055200
0.054857
0.053846
0.054153
0.055607
0.056448
0.056397
0.056099
0.055637
0.055842
0.057475
0.059148
0.059372
0.058374
0.057177
0.057260
0.058891
0.060258
0.060555
0.060487
0.059886
0.058857
0.059112
0.061158
0.063014
0.063282
0.062393
0.061399
0.061517
0.062559
0.063035
0.063071
0.063217
0.062752
0.062343
0.063352
0.064629
0.064587
0.064076
0.064469
0.065354
0.065638
0.065108
0.064537
0.065147
0.066829
0.067887
0.067571
0.066782
0.066785
0.068012
0.069381
0.069985
0.070284
0.070344
0.069758
0.069165
0.069511
0.070673
0.071483
0.070897
0.069558
0.069542
0.071302
0.072636
0.072604
0.072902
0.073898
0.073903
0.072697
0.072161
0.073371
0.075034
0.075566
0.075198
0.074799
0.074724
0.075480
0.077127
0.078316
0.077778
0.076398
0.076235
0.077479
0.078445
0.078367
0.078192
0.078847
0.079594
0.079253
0.078704
0.079552
0.081148
0.081622
0.080835
0.080312
0.080894
0.082063
0.083248
0.084033
0.083538
0.082062
0.082098
0.084323
0.085445
0.083900
0.082997
0.084905
0.086953
0.086519
0.085098
0.085324
0.086697
0.087129
0.086883
0.087130
0.087299
0.087242
0.087996
0.089304
0.089936
0.089493
0.088820
0.089529
0.091589
0.092392
0.090811
0.089589
0.091027
0.093465
0.094334
0.093454
0.092269
0.092344
0.093985
0.095514
0.095079
0.093332
0.093206
0.095541
0.097196
0.096168
0.094488
0.094429
0.095963
0.097825
0.098819
0.098595
0.098023
0.098259
0.099156
0.099785
0.099768
0.099376
0.099562
0.100473
0.100572
0.099731
0.099969
0.101895
0.103593
0.103192
0.101467
0.101079
0.102818
0.104824
0.105739
0.105689
0.105075
0.104746
0.105737
0.107466
0.107925
0.106609
0.105455
0.106033
0.107531
0.108351
0.108576
0.109123
0.109468
0.109078
0.108983
0.109461
0.109597
0.109648
0.110528
0.111869
0.112422
0.111904
0.111696
0.112909
0.114416
0.114522
0.113850
0.114280
0.115596
0.116256
0.116220
0.116227
0.116578
0.117245
0.117638
0.117405
0.117122
0.117623
0.119179
0.120643
0.120270
0.118582
0.118302
0.120110
0.121505
0.121045
0.119860
0.119359
0.120564
0.123149
0.124652
0.123855
0.122613
0.122810
0.124264
0.125285
0.124784
0.124141
0.125077
0.126645
0.126862
0.125938
0.125729
0.127044
0.128877
0.129671
0.129198
0.128910
0.129430
0.129780
0.129917
0.130428
0.130819
0.131160
0.132187
0.133005
0.132616
0.132249
0.133188
0.134609
0.135167
0.134835
0.134581
0.135217
0.136477
0.137274
0.137276
0.137099
0.136975
0.136862
0.137196
0.138223
0.139256
0.139787
0.140338
0.140869
0.140615
0.140017
0.140210
0.141485
0.142914
0.142904
0.141543
0.140976
0.142150
0.144003
0.145599
0.146371
0.145510
0.143652
0.143658
0.146273
0.148101
0.147317
0.146063
0.146200
0.147553
0.148754
0.148720
0.148411
0.149154
0.150631
0.151828
0.151848
0.150807
0.150559
0.152431
0.154467
0.153589
0.150442
0.149026
0.151686
0.156254
0.158331
0.156660
0.154198
0.153485
0.154588
0.156639
0.158435
0.158725
0.157234
0.155680
0.156425
0.158987
0.160683
0.160730
0.160605
0.161083
0.161157
0.160564
0.160799
0.161847
0.162284
0.162639
0.163680
0.163861
0.162493
0.162318
0.165288
0.168522
0.168437
0.166021
0.164568
0.165333
0.167353
0.168993
0.169256
0.168539
0.168035
0.168585
0.169807
0.170572
0.170881
0.171810
0.172994
0.172649
0.171019
0.170685
0.172645
0.175019
0.175504
0.174091
0.173324
0.174378
0.175413
0.175652
0.176230
0.177163
0.177669
0.177760
0.177860
0.178227
0.178915
0.179898
0.180906
0.181325
0.181084
0.180973
0.181289
0.181522
0.181887
0.183027
0.184010
0.183470
0.182118
0.181779
0.183369
0.186120
0.187634
0.186375
0.184059
0.183578
0.185550
0.188444
0.190617
0.190719
0.188318
0.185627
0.185932
0.189437
0.192785
0.193163
0.191269
0.189347
0.189036
0.191243
0.194260
0.194841
0.193111
0.191924
0.192614
0.194186
0.194927
0.194821
0.195550
0.197016
0.197180
0.195854
0.194979
0.195650
0.197600
0.199779
0.200178
0.198448
0.197453
0.198996
0.201346
0.202181
0.201456
0.201102
0.201877
0.202461
0.202461
0.202845
0.203880
0.205159
0.205891
0.205210
0.203802
0.203392
0.204714
0.207238
0.209182
0.208450
0.205917
0.205259
0.207525
0.210126
0.211430
0.211342
0.210031
0.208983
0.209291
0.210124
0.211003
0.211962
0.212573
0.212865
0.212578
0.211358
0.211146
0.213525
0.215852
0.215431
0.214088
0.214495
0.216257
0.217632
0.217635
0.216627
0.216159
0.217088
0.218725
0.219702
0.218869
0.217630
0.219340
0.223757
0.226249
0.223565
0.217419
0.212635
0.212803
0.217818
0.227631
0.250637
0.303386
0.385765
0.436773
0.316781
-0.121447
-0.874832
-1.666519
-2.035250
-1.668078
-0.694254
0.406957
1.194050
1.501264
1.374416
0.939660
0.347040
-0.259180
-0.748738
-0.999230
-0.946759
-0.622307
-0.157678
0.149155
0.024480
-0.290972
-0.065362
1.129829
2.814183
3.929480
3.604000
1.627059
-1.354738
-4.059479
-5.288208
-4.482733
-1.922013
1.340285
3.962216
4.945555
4.066306
1.847401
-0.777867
-2.584334
-2.553083
-0.911224
0.842435
1.344567
0.636915
-0.185414
-0.485458
-0.482236
-0.060223
1.343221
3.199954
3.835222
2.429153
-0.118757
-2.512200
-4.144779
-4.730923
-4.001027
-2.074884
0.459619
2.816935
4.291527
4.573103
3.555431
1.028143
-2.335481
-4.349537
-3.326180
-0.143061
2.583410
2.941696
1.227587
-0.619907
-0.943596
0.200756
1.524809
1.993616
1.294013
-0.332464
-2.007226
-2.809110
-2.549187
-1.390010
0.567682
2.702370
3.808749
3.408894
2.269620
1.004872
-0.635958
-2.706235
-4.513611
-5.276278
-4.642770
-2.813168
-0.573104
1.279340
2.647372
3.542510
3.510544
2.726224
2.331743
2.788763
3.275877
2.963297
1.500603
-1.421125
-5.297760
-7.929498
-6.989360
-2.602598
2.550234
5.617527
5.178341
1.270551
-4.110806
-7.261278
-5.664581
-0.500255
4.457681
6.412862
5.633818
3.797157
1.694129
-0.557961
-2.414076
-3.097877
-2.790897
-2.713804
-3.580987
-5.098956
-6.855482
-8.171695
-7.952442
-6.081359
-3.706116
-1.778140
-0.871997
-1.696710
-4.168073
-6.927730
-8.490383
-7.996007
-5.351085
-1.819293
0.253114
-0.500680
-2.941952
-4.537059
-3.592609
-0.253405
3.975861
7.458029
9.304999
9.359463
8.096796
6.648523
6.236400
6.961128
7.167799
4.915862
0.511590
-3.703195
-6.866422
-10.451313
-14.175353
-14.908231
-12.068728
-9.981562
-11.397273
-12.092376
-6.547505
3.524451
11.374454
13.626077
11.652998
7.082316
0.867024
-4.624050
-6.686227
-5.469934
-3.641973
-2.862846
-2.802307
-2.793601
-1.895676
1.137440
5.635327
8.498991
7.578220
4.141121
1.187434
-0.306095
-2.979805
-8.947148
-15.038888
-16.212996
-12.070407
-6.066184
-0.275911
5.555581
10.612568
11.925093
7.572475
-1.258800
-11.816919
-21.381489
-27.383196
-27.728760
-21.896734
-11.403764
0.837596
11.451908
18.015303
20.077051
18.660442
15.213942
9.854753
0.662018
-11.542044
-18.904676
-13.639038
1.302030
14.386851
17.938519
14.404838
10.847506
12.237477
19.098667
26.243683
25.394030
11.902443
-10.009483
-27.969358
-32.014553
-24.436510
-14.112129
-5.937830
-1.176779
-1.815107
-7.839861
-13.965594
-15.665487
-15.253876
-16.290680
-16.773087
-13.280729
-8.431016
-9.596202
-18.131227
-23.058653
-13.258603
6.422195
19.762960
16.995979
3.336521
-9.089416
-16.837156
-25.681717
-33.355709
-28.317503
-10.735055
4.698473
11.367959
18.638060
33.824215
49.465710
52.167866
38.431152
18.081877
0.860516
-13.028708
-21.949532
-14.683850
13.654157
45.632244
54.175961
31.793900
0.069274
-14.557250
-8.752722
2.099296
8.366687
12.357551
16.212439
16.965569
10.991055
-1.854932
-16.860458
-28.866159
-36.847271
-38.867062
-28.663372
-5.496476
19.257502
33.160767
35.382282
32.148209
24.779200
11.173186
-3.484108
-9.194191
-6.274168
-7.416711
-20.957745
-39.329498
-46.916538
-36.757195
-19.227203
-13.204970
-26.739685
-49.829662
-67.642281
-72.781754
-62.135445
-34.212528
2.248767
27.377457
27.236446
7.101451
-14.404850
-21.756664
-13.921464
0.820393
17.758137
36.281475
51.152557
53.450378
41.640312
25.550564
15.821692
12.166467
5.925222
-7.698278
-22.605412
-25.033449
-4.338695
34.236649
66.756622
68.925644
41.538647
9.439558
-7.282286
-9.028486
-1.601269
14.807967
32.677273
32.919796
5.892085
-34.471127
-64.515358
-73.020500
-65.820633
-53.294121
-40.727390
-31.092899
-28.938601
-35.459381
-42.785881
-38.362988
-15.978763
17.674631
48.239716
66.588737
73.459061
71.040573
57.065781
29.698530
-3.504889
-22.060076
-5.288644
44.743126
98.398537
122.037811
106.005386
71.193855
48.288170
47.501331
53.816666
53.979927
52.013966
51.892021
45.867546
29.873148
11.729870
-3.285983
-18.918222
-37.276794
-54.520782
-66.844032
-73.808571
-78.158920
-82.582390
-83.237701
-71.230072
-44.126915
-10.130871
22.814770
54.357437
81.861816
95.379616
93.194534
87.909737
86.465363
80.578514
67.741455
67.844360
103.163246
160.987595
194.692108
175.211105
124.482109
87.741936
87.916031
113.259537
140.179779
155.544449
153.301178
126.883728
79.807037
32.294544
2.441062
-13.918128
-33.386002
-59.641178
-80.388382
-87.988350
-87.483231
-82.790932
-72.244858
-58.433632
-46.283039
-29.721081
0.066959
24.063816
6.124327
-46.965977
-75.796700
-40.257816
32.015137
87.727776
109.058754
110.968231
103.915367
86.126808
61.580902
47.059574
55.356674
77.388313
94.109322
99.260368
94.975548
78.924263
52.935371
32.569366
33.013489
48.800838
59.410969
55.209591
44.106075
33.547661
21.485718
5.145520
-11.489647
-22.199251
-27.909899
-36.824375
-53.004280
-69.970665
-81.401314
-92.958916
-114.862045
-145.349365
-171.139725
-184.665939
-191.750397
-200.846848
-212.365341
-221.702194
-227.167770
-229.922501
-230.527023
-230.405731
-233.152420
-240.505264
-247.876541
-247.287094
-236.254730
-219.740723
-202.308304
-183.266647
-159.215622
-128.226379
-96.025391
-78.885345
-90.154068
-124.634109
-164.080566
-192.321564
-203.460999
-203.251465
-201.580475
-202.058289
-202.956421
-204.440781
-208.405441
-215.391281
-225.638931
-239.490723
-256.231903
-274.796051
-293.618439
-308.484436
-312.950500
-301.748657
-272.800903
-227.910370
-174.493515
-124.485191
-86.403061
-57.081032
-24.807388
17.708672
70.169167
136.033234
222.185867
314.723267
363.866882
326.306824
230.185715
145.912018
98.589745
71.965591
59.358147
62.733788
81.712151
113.512619
151.041687
189.534286
226.929565
256.419830
269.601715
263.158173
241.236710
215.603210
198.584320
193.410080
194.958038
199.642502
211.969910
237.683319
270.498016
291.976196
286.824249
256.285126
217.026337
187.900742
177.614365
182.234802
189.669800
187.376282
169.978668
141.099915
108.917465
80.801804
60.498249
47.830433
41.162292
39.451141
41.956367
47.823277
51.935516
43.148636
18.517864
-4.307687
-3.342447
23.591036
63.142883
106.924889
154.534256
198.872940
218.616165
189.306198
106.219322
8.472396
-32.623844
17.495243
110.461052
164.051193
141.164444
70.808846
11.004935
-4.470349
9.332997
11.120788
-22.056986
-67.860199
-81.531082
-48.315334
1.695777
30.184486
29.230309
21.633554
26.833664
37.631069
38.535744
32.800529
28.183002
5.680651
-54.744942
-123.749321
-154.494904
-159.638092
-202.961319
-311.746552
-432.610382
-479.266876
-410.045563
-265.489471
-133.430069
-72.825783
-76.930321
-100.447495
-103.794266
-73.624290
-19.742989
36.849171
78.434425
97.896744
97.232376
85.082138
71.557571
65.195557
71.194572
80.734734
73.532753
45.556217
20.617992
23.076054
50.612686
83.680603
106.970963
114.952103
113.738701
113.499710
111.278122
97.814041
75.476562
52.172607
30.996149
14.295897
3.008246
-7.388988
-16.811632
-15.604990
-11.644793
-44.871784
-128.403503
-203.127258
-213.542755
-185.704254
-175.802063
-190.903336
-196.012527
-163.061966
-92.412163
-8.068259
53.636295
66.069435
34.059372
-17.672791
-74.240837
-129.574234
-169.545227
-182.139679
-171.919815
-149.967880
-121.918655
-89.801277
-58.781433
-37.088589
-27.215696
-24.370466
-22.864452
-19.217415
-16.294521
-22.457926
-40.953587
-66.052002
-90.266930
-109.453415
-118.869957
-115.249146
-113.813301
-139.068848
-179.349808
-187.819290
-148.926910
-105.765297
-105.016266
-141.390930
-170.498123
-160.897400
-118.482613
-67.532181
-24.948503
5.870289
30.971375
58.064629
84.308578
98.998650
100.592682
97.176300
92.145271
83.117104
72.030113
65.844376
68.298050
75.345589
77.728561
68.940079
52.582539
40.387966
40.671947
47.916595
48.579044
39.133156
29.650511
27.786642
28.077465
18.924696
-5.215235
-39.273232
-71.039581
-88.853912
-88.349800
-72.693886
-48.779041
-24.987459
-7.302653
8.480102
36.239235
85.458504
150.666656
213.309143
244.537811
211.191879
104.031639
-31.273560
-111.795792
-79.914467
46.186905
176.448776
221.816956
186.735413
160.421204
197.649887
260.160767
287.240540
265.968750
224.866013
195.572205
189.442596
196.750671
199.073395
188.354797
174.504929
168.576736
167.399078
164.388397
165.418304
181.552704
206.904449
210.736237
174.906555
139.808762
158.846069
211.200653
229.134750
192.887741
137.636932
92.186340
54.328148
14.493389
-22.515839
-44.796333
-52.106709
-58.724792
-78.764633
-111.230240
-139.615356
-148.792114
-142.029907
-135.444458
-137.530396
-143.233688
-147.927780
-154.483459
-163.626160
-169.592773
-168.968582
-169.023895
-176.407486
-177.814667
-156.957672
-124.712112
-105.401352
-108.214478
-130.893906
-175.705353
-243.054138
-310.346252
-328.356232
-256.201141
-119.310257
-13.582383
-10.286667
-72.523048
-106.611542
-74.767593
-17.404263
16.344185
17.728056
4.934187
-5.758527
-13.086891
-26.777077
-50.967113
-75.045135
-83.234901
-70.215103
-46.864861
-30.059517
-26.287390
-27.988001
-25.678507
-19.661285
-22.196339
-45.406746
-75.846825
-77.550438
-40.554802
-0.527413
7.534198
-11.889935
-33.238960
-43.201973
-43.638546
-38.128231
-28.872602
-19.015654
-10.510168
-1.004894
14.280343
35.593655
57.234249
73.964249
84.537483
90.860939
94.338852
92.477242
83.027817
69.603127
58.921864
54.255108
55.239124
61.454529
70.640343
77.760033
80.144905
79.320946
78.459381
79.424339
78.764961
69.528587
49.939602
26.705774
9.811520
5.366224
11.607041
21.117289
27.067553
27.728376
26.440847
27.195965
30.858452
37.221786
46.131714
53.860523
54.498520
46.479172
34.243031
24.009460
19.198826
19.758953
23.542824
25.775002
20.774393
7.369982
-9.573055
-23.092833
-29.250137
-28.924797
-24.585640
-17.807226
-9.894990
-2.247752
4.622991
13.246896
28.976114
54.451389
84.444122
108.061302
116.648956
110.392387
96.328514
79.592415
61.819477
45.562195
33.086796
25.409538
23.355417
24.555544
23.766680
18.828547
13.065159
11.216396
13.590446
16.110975
15.853271
12.952496
7.729292
-1.153571
-13.699789
-25.523853
-33.187382
-39.854679
-49.629799
-59.840889
-63.887287
-59.139603
-47.997257
-33.573555
-18.744768
-9.517603
-13.371145
-24.322212
-18.878185
13.819020
51.717506
66.578293
55.445698
36.433949
24.898378
20.989946
15.823972
4.203333
-8.977848
-15.585539
-15.853201
-17.725657
-25.376764
-34.553234
-40.217468
-42.778175
-43.763721
-41.004627
-32.542324
-22.235491
-17.682314
-22.727379
-33.394913
-39.766510
-39.359089
-51.860851
-90.898018
-121.941383
-100.795235
-45.733307
-15.630873
-29.878584
-54.987343
-58.753155
-42.854881
-24.071764
-7.935878
9.252440
25.258198
33.584385
35.156128
38.361187
49.825436
68.857567
89.573013
105.321030
110.562363
99.683617
68.515556
24.908201
-10.900430
-28.227318
-34.996243
-40.109756
-44.110596
-47.998611
-55.935333
-66.962700
-75.221680
-79.977684
-85.848831
-94.689369
-105.926056
-121.421303
-141.153625
-158.888870
-170.438263
-178.917496
-187.465118
-194.589737
-196.845276
-189.920471
-169.071442
-135.940063
-106.735397
-105.110840
-133.751694
-160.028992
-152.596420
-122.484322
-102.641724
-99.507423
-89.362259
-53.579155
3.112017
61.642914
102.262497
120.114548
132.033737
158.351959
196.273392
213.961075
182.542938
116.497833
61.613400
45.373928
59.001434
78.877869
89.435555
90.532990
91.680191
100.938354
118.729462
137.894012
147.554596
140.700592
119.337440
91.807487
66.814804
50.770920
46.237267
47.132172
40.477718
24.979671
20.760050
41.091892
66.729431
70.745132
53.870594
36.874886
31.572803
34.287041
37.110474
33.282520
19.876245
0.868712
-18.080593
-36.054882
-54.959770
-74.048477
-89.701820
-101.021767
-110.544289
-120.738731
-133.105606
-144.099701
-144.116989
-127.226707
-97.275063
-63.848934
-36.528702
-21.744028
-22.535498
-36.024891
-49.973984
-52.220177
-44.403008
-37.293846
-35.310345
-32.654896
-23.764011
-11.413176
-0.499427
10.490476
24.492682
37.838963
45.376610
47.937618
