EVENT_NAME: L_AQUILA
EVENT_ID: IT-2009-0009
EVENT_DATE_YYYYMMDD: 20090406
EVENT_TIME_HHMMSS: 013240
EVENT_LATITUDE_DEGREE: 42.3420
EVENT_LONGITUDE_DEGREE: 13.3800
EVENT_DEPTH_KM: 8.3
HYPOCENTER_REFERENCE: INGV-CNT_Seismic_Bulletin
MAGNITUDE_W: 6.1
MAGNITUDE_W_REFERENCE: INGV-CNT_Seismic_Bulletin
MAGNITUDE_L: 
MAGNITUDE_L_REFERENCE: 
FOCAL_MECHANISM: Normal faulting
NETWORK: IT
STATION_CODE: AQG
STATION_NAME: 
STATION_LATITUDE_DEGREE: 42.373474
STATION_LONGITUDE_DEGREE: 13.337026
STATION_ELEVATION_M: 721
LOCATION: 
SENSOR_DEPTH_M: 0.0
VS30_M/S: 696
SITE_CLASSIFICATION_EC8: B
MORPHOLOGIC_CLASSIFICATION: 
EPICENTRAL_DISTANCE_KM: 5.0
EARTHQUAKE_BACKAZIMUTH_DEGREE: 314.7
DATE_TIME_FIRST_SAMPLE_YYYYMMDD_HHMMSS: 
DATE_TIME_FIRST_SAMPLE_PRECISION: 
SAMPLING_INTERVAL_S: 
NDATA: 105
DURATION_S: 
STREAM: HNN
UNITS: cm/s^2
INSTRUMENT: sensor = FBA-3 [Kinemetrics] | digitizer = Everest [Kinemetrics]
INSTRUMENT_ANALOG/DIGITAL: D
INSTRUMENTAL_FREQUENCY_HZ: 212.000
INSTRUMENTAL_DAMPING: 0.000000
FULL_SCALE_G: 1.0
N_BIT_DIGITAL_CONVERTER: 24
PGA_CM/S^2: -479.266874
TIME_PGA_S: 
BASELINE_CORRECTION: BASELINE REMOVED
FILTER_TYPE: BUTTERWORTH
FILTER_ORDER: 2
LOW_CUT_FREQUENCY_HZ: 0.100
HIGH_CUT_FREQUENCY_HZ: 40.000
LATE/NORMAL_TRIGGERED: NT
DATABASE_VERSION: 0.5
HEADER_FORMAT: DYNA 1.2
DATA_TYPE: ACCELERATION RESPONSE SPECTRUM
PROCESSING: manual (Paolucci et al., 2011)
DATA_TIMESTAMP_YYYYMMDD_HHMMSS: 20211011_155349.315
DATA_LICENSE: CC-BY3_0-IT (http://creativecommons.org/licenses/by/3.0/deed.en)
DATA_CITATION: Luzi L, Pacor F, Puglia R (2019). Italian Accelerometric Archive v 3.0 - Istituto Nazionale di Geofisica e Vulcanologia, Dipartimento della Protezione Civile Nazionale. doi: 10.13127/itaca.3.1
DATA_CREATOR: ITACA working group
ORIGINAL_DATA_MEDIATOR_CITATION: data obtained within the DPC-INGV data exchange agreements
ORIGINAL_DATA_MEDIATOR: Archive of Italian Department of Civil Protection
ORIGINAL_DATA_CREATOR_CITATION: Presidency Of Counsil Of Ministers-Civil Protection Department. (1972). Italian Strong Motion Network. Presidency of Counsil of Ministers - Civil Protection Department. https://doi.org/10.7914/SN/IT http://www.fdsn.org/networks/detail/IT/
ORIGINAL_DATA_CREATOR: network: IT (Italian Strong Motion Network (RAN)); owner: Presidency of Counsil of Ministers - Civil Protection Department (PCM - DPC)
USER1: 
USER2: 
USER3: 
USER4: 
USER5: 
    0.010000   479.997253
    0.020000   560.272644
    0.022000   622.076050
    0.025000   657.565308
    0.029000   697.203064
    0.030000   763.419556
    0.032000   735.415894
    0.035001   654.716492
    0.036000   651.550110
    0.040000   698.925293
    0.041999   690.406982
    0.044001   669.789429
    0.045000   663.113281
    0.046000   661.557983
    0.048001   677.478333
    0.050000   739.959167
    0.054999   659.990662
    0.059999   668.566345
    0.064998   659.039062
    0.067002   672.521057
    0.069999   687.513367
    0.075002   786.322388
    0.080000   749.787415
    0.084998   690.508545
    0.090001   694.833313
    0.095003   706.438843
    0.100000   811.352844
    0.109999   686.052002
    0.120005   674.074036
    0.130005   791.465515
    0.132996   782.420776
    0.139997   775.692505
    0.149993   803.112610
    0.160000   677.669312
    0.170010   565.823364
    0.179986   670.483154
    0.190006   835.118958
    0.200000   870.584045
    0.220022   706.763489
    0.239981   710.562012
    0.250000   753.777466
    0.260010   814.715698
    0.280034   653.271729
    0.290023   741.535828
    0.300030   789.124451
    0.320000   758.390015
    0.340020   642.261963
    0.350017   599.975464
    0.359971   607.453674
    0.379939   622.849792
    0.400000   643.704041
    0.419992   665.435425
    0.439947   681.417419
    0.450045   685.976624
    0.459982   688.187744
    0.480077   696.183167
    0.500000   792.711853
    0.550055   731.803162
    0.599880   660.665771
    0.650195   621.289062
    0.667111   612.715515
    0.699790   596.312378
    0.750188   565.735107
    0.800000   600.967224
    0.850340   603.235229
    0.900090   574.474976
    0.949668   528.715271
    1.000000   457.645721
    1.100110   315.924530
    1.200480   243.019196
    1.300390   180.037033
    1.400560   154.631348
    1.499250   132.759171
    1.600000   113.896759
    1.700680    97.710205
    1.798561    83.883430
    1.901141    72.161507
    2.000000    62.266773
    2.197802    46.978878
    2.398082    40.076443
    2.500000    35.877941
    2.597403    31.593626
    2.801121    23.217699
    3.003003    19.493010
    3.205128    17.153717
    3.401361    15.181223
    3.496503    14.314351
    3.597122    13.518378
    3.802281    12.108604
    4.000000    10.908767
    4.201681     9.881186
    4.405286     8.997662
    4.608295     8.235083
    4.807692     7.574796
    5.000000     6.997779
    5.494505     5.847661
    5.988024     4.988472
    6.493506     4.380075
    6.993007     3.897032
    7.518797     3.499213
    8.000000     3.157823
    8.474576     2.863988
    9.009009     2.616615
    9.523809     2.413412
   10.000000     2.240687
