EVENT_NAME: L_AQUILA
EVENT_ID: IT-2009-0009
EVENT_DATE_YYYYMMDD: 20090406
EVENT_TIME_HHMMSS: 013240
EVENT_LATITUDE_DEGREE: 42.3420
EVENT_LONGITUDE_DEGREE: 13.3800
EVENT_DEPTH_KM: 8.3
HYPOCENTER_REFERENCE: INGV-CNT_Seismic_Bulletin
MAGNITUDE_W: 6.1
MAGNITUDE_W_REFERENCE: INGV-CNT_Seismic_Bulletin
MAGNITUDE_L: 
MAGNITUDE_L_REFERENCE: 
FOCAL_MECHANISM: Normal faulting
NETWORK: IT
STATION_CODE: AQV
STATION_NAME: 
STATION_LATITUDE_DEGREE: 42.377222
STATION_LONGITUDE_DEGREE: 13.343888
STATION_ELEVATION_M: 692
LOCATION: 
SENSOR_DEPTH_M: 0.0
VS30_M/S: 474
SITE_CLASSIFICATION_EC8: B
MORPHOLOGIC_CLASSIFICATION: 
EPICENTRAL_DISTANCE_KM: 4.9
EARTHQUAKE_BACKAZIMUTH_DEGREE: 322.8
DATE_TIME_FIRST_SAMPLE_YYYYMMDD_HHMMSS: 20090406_013212.000
DATE_TIME_FIRST_SAMPLE_PRECISION: seconds
SAMPLING_INTERVAL_S: 0.005000
NDATA: 112600
DURATION_S: 563.000
STREAM: HNN
UNITS: cm/s^2
INSTRUMENT: sensor = FBA-3 [Kinemetrics] | digitizer = Etna [Kinemetrics]
INSTRUMENT_ANALOG/DIGITAL: D
INSTRUMENTAL_FREQUENCY_HZ: 200.000
INSTRUMENTAL_DAMPING: 0.700000
FULL_SCALE_G: 1.0
N_BIT_DIGITAL_CONVERTER: 18
PGA_CM/S^2: -550.160522
TIME_PGA_S: 33.875000
BASELINE_CORRECTION: BASELINE NOT REMOVED
FILTER_TYPE: 
FILTER_ORDER: 
LOW_CUT_FREQUENCY_HZ: 
HIGH_CUT_FREQUENCY_HZ: 
LATE/NORMAL_TRIGGERED: NT
DATABASE_VERSION: 0.5
HEADER_FORMAT: DYNA 1.2
DATA_TYPE: ACCELERATION
PROCESSING: converted to cm/s^2
DATA_TIMESTAMP_YYYYMMDD_HHMMSS: 20211011_155630.881
DATA_LICENSE: CC-BY3_0-IT (http://creativecommons.org/licenses/by/3.0/deed.en)
DATA_CITATION: Luzi L, Pacor F, Puglia R (2019). Italian Accelerometric Archive v 3.0 - Istituto Nazionale di Geofisica e Vulcanologia, Dipartimento della Protezione Civile Nazionale. doi: 10.13127/itaca.3.1
DATA_CREATOR: ITACA working group
ORIGINAL_DATA_MEDIATOR_CITATION: data obtained within the DPC-INGV data exchange agreements
ORIGINAL_DATA_MEDIATOR: Archive of Italian Department of Civil Protection
ORIGINAL_DATA_CREATOR_CITATION: Presidency Of Counsil Of Ministers-Civil Protection Department. (1972). Italian Strong Motion Network. Presidency of Counsil of Ministers - Civil Protection Department. https://doi.org/10.7914/SN/IT http://www.fdsn.org/networks/detail/IT/
ORIGINAL_DATA_CREATOR: network: IT (Italian Strong Motion Network (RAN)); owner: Presidency of Counsil of Ministers - Civil Protection Department (PCM - DPC)
USER1: 
USER2: 
USER3: 
USER4: 
USER5: 
[...]
-0.034478
-0.028385
-0.030026
-0.034244
-0.026276
-0.029791
-0.032838
-0.035650
-0.027916
-0.026276
-0.034947
-0.032135
-0.029557
-0.031432
-0.032369
-0.031666
-0.030963
-0.029791
-0.031197
-0.032369
-0.035181
-0.032604
-0.027448
-0.031197
-0.034244
-0.033541
-0.029557
-0.028151
-0.026041
-0.030729
-0.036119
-0.038462
-0.035416
-0.026041
-0.029088
-0.034244
-0.038697
-0.034010
-0.031197
-0.031666
-0.029791
-0.034947
-0.031197
-0.029557
-0.027448
-0.030260
-0.033307
-0.031197
-0.033775
-0.028854
-0.029322
-0.025573
-0.027916
-0.037056
-0.031197
-0.031432
-0.026510
-0.023932
-0.029791
-0.029088
-0.031666
-0.029791
-0.027682
-0.034010
-0.033775
-0.028385
-0.029322
-0.027213
-0.029791
-0.029322
-0.027448
-0.032135
-0.026510
-0.028854
-0.035650
-0.035181
-0.029557
-0.032135
-0.030026
-0.024167
-0.032135
-0.029791
-0.031666
-0.027213
-0.025807
-0.031900
-0.029557
-0.036353
-0.028151
-0.027916
-0.031432
-0.029791
-0.035181
-0.025104
-0.029557
-0.027448
-0.026276
-0.036588
-0.030260
-0.037291
-0.030729
-0.026979
-0.034244
-0.026276
-0.031900
-0.030260
-0.025807
-0.032369
-0.032135
-0.034010
-0.036588
-0.030963
-0.028619
-0.034713
-0.032604
-0.032135
-0.034713
-0.032135
-0.030026
-0.026979
-0.029791
-0.029088
-0.027916
-0.036353
-0.031666
-0.031900
-0.036588
-0.034244
-0.034713
-0.020417
-0.025807
-0.038931
-0.032838
-0.032369
-0.027448
-0.030729
-0.034478
-0.034244
-0.037291
-0.029088
-0.028385
-0.027448
-0.023229
-0.030260
-0.028619
-0.025104
-0.032604
-0.033541
-0.031197
-0.029557
-0.027916
-0.032604
-0.027916
-0.027916
-0.029557
-0.026276
-0.036353
-0.028854
-0.027448
-0.030494
-0.022526
-0.031197
-0.030026
-0.029088
-0.030260
-0.027448
-0.030963
-0.028151
-0.029088
-0.028854
-0.034010
-0.035650
-0.027213
-0.029791
-0.026510
-0.027916
-0.034010
-0.031197
-0.031432
-0.030026
-0.031666
-0.028151
-0.030260
-0.034010
-0.023698
-0.030026
-0.029791
-0.022292
-0.032604
-0.028385
-0.026041
-0.029557
-0.030729
-0.037525
-0.031666
-0.029088
-0.028854
-0.026745
-0.029322
-0.030026
-0.033072
-0.030963
-0.027448
-0.031432
-0.030729
-0.029557
-0.029791
-0.025104
-0.028385
-0.028854
-0.032604
-0.031432
-0.029322
-0.034713
-0.029791
-0.032838
-0.031197
-0.031666
-0.028385
-0.028619
-0.036353
-0.028385
-0.034010
-0.033775
-0.029088
-0.027448
-0.024870
-0.034244
-0.031900
-0.028385
-0.030494
-0.027682
-0.027682
-0.031900
-0.030729
-0.026979
-0.030026
-0.029791
-0.028619
-0.026510
-0.023932
-0.031197
-0.033072
-0.031432
-0.026745
-0.028151
-0.032135
-0.026745
-0.031900
-0.032604
-0.030494
-0.033541
-0.031432
-0.028619
-0.030026
-0.036822
-0.032838
-0.026276
-0.027448
-0.032369
-0.033072
-0.026041
-0.030963
-0.035181
-0.035650
-0.034010
-0.024635
-0.030729
-0.029557
-0.030963
-0.037759
-0.030963
-0.033775
-0.029557
-0.029791
-0.031666
-0.028385
-0.031432
-0.025573
-0.029322
-0.029791
-0.031432
-0.037994
-0.031666
-0.028385
-0.029791
-0.036822
-0.035650
-0.031666
-0.031666
-0.027213
-0.027213
-0.026276
-0.032135
-0.036353
-0.031900
-0.037056
-0.035416
-0.027448
-0.028854
-0.033072
-0.033307
-0.028854
-0.030729
-0.035416
-0.033775
-0.035650
-0.037525
-0.030260
-0.035181
-0.034713
-0.028385
-0.038931
-0.030494
-0.022760
-0.028385
-0.032369
-0.033775
-0.030026
-0.033072
-0.033775
-0.028385
-0.025807
-0.026510
-0.027682
-0.028619
-0.023932
-0.030026
-0.030260
-0.026979
-0.037994
-0.034244
-0.026510
-0.029557
-0.036822
-0.035650
-0.037759
-0.033072
-0.031900
-0.040572
-0.029088
-0.030026
-0.030963
-0.029322
-0.037994
-0.029088
-0.029557
-0.030494
-0.026276
-0.036588
-0.030963
-0.034010
-0.034947
-0.024401
-0.035416
-0.032369
-0.034478
-0.035885
-0.028619
-0.031432
-0.028385
-0.033307
-0.031900
-0.026276
-0.030260
-0.034010
-0.031432
-0.027682
-0.031197
-0.034713
-0.029322
-0.027682
-0.035885
-0.027448
-0.025104
-0.032838
-0.030963
-0.028385
-0.030729
-0.032135
-0.030260
-0.034244
-0.023229
-0.026510
-0.032838
-0.031432
-0.034478
-0.021120
-0.029557
-0.038228
-0.035650
-0.033775
-0.033541
-0.032369
-0.026979
-0.031197
-0.030729
-0.031900
-0.027682
-0.030026
-0.032604
-0.024870
-0.033541
-0.027916
-0.034713
-0.039166
-0.023932
-0.035650
-0.028854
-0.030494
-0.037525
-0.027213
-0.029322
-0.021120
-0.033541
-0.034478
-0.028151
-0.035181
-0.024870
-0.028619
-0.032369
-0.034478
-0.030260
-0.024167
-0.036822
-0.033541
-0.027213
-0.033307
-0.029791
-0.030494
-0.028385
-0.028854
-0.036822
-0.026510
-0.028151
-0.036353
-0.031197
-0.031666
-0.026041
-0.026979
-0.032604
-0.024401
-0.025338
-0.031666
-0.029791
-0.029791
-0.032838
-0.033072
-0.030963
-0.031900
-0.032369
-0.030729
-0.031666
-0.026979
-0.029791
-0.036119
-0.025807
-0.026510
-0.035650
-0.036119
-0.030260
-0.027682
-0.034244
-0.038931
-0.034010
-0.029557
-0.033072
-0.036353
-0.032369
-0.025573
-0.031666
-0.026276
-0.023464
-0.038462
-0.038697
-0.030729
-0.021823
-0.030026
-0.035650
-0.031900
-0.033775
-0.028854
-0.031432
-0.029322
-0.029322
-0.031666
-0.030729
-0.031197
-0.026979
-0.035416
-0.028385
-0.026979
-0.036119
-0.028151
-0.036822
-0.033072
-0.026510
-0.034947
-0.036588
-0.034947
-0.030963
-0.034947
-0.032369
-0.029557
-0.036822
-0.035650
-0.031666
-0.030963
-0.035650
-0.037525
-0.025338
-0.029088
-0.036119
-0.030963
-0.032369
-0.027213
-0.032369
-0.031197
-0.026041
-0.037525
-0.034244
-0.027213
-0.028619
-0.034244
-0.035650
-0.030729
-0.033072
-0.036353
-0.033307
-0.026041
-0.028854
-0.036822
-0.032604
-0.031900
-0.034478
-0.034010
-0.026276
-0.024635
-0.035181
-0.033307
-0.035416
-0.031432
-0.033541
-0.037525
-0.019479
-0.026510
-0.044556
-0.071272
-0.198529
-0.377109
-0.493819
-0.630215
-0.779969
-0.788172
-0.681070
-0.382733
0.376584
1.251440
1.965527
2.524704
1.822335
-0.096583
-1.554989
-2.604441
-3.459142
-3.807632
-3.714592
-2.343601
-0.552174
0.908107
2.443382
3.173640
3.388076
2.770545
1.238785
0.158398
-0.772470
-2.937463
-5.181903
-5.658820
-5.708270
-4.278456
-0.745987
3.646104
8.618698
10.206940
8.064443
5.633220
1.735857
-2.866453
-5.530159
-7.358614
-8.312683
-6.997235
-3.515388
-0.235323
1.834287
4.521194
5.799379
4.576737
3.493772
3.670477
4.426045
2.695316
-1.741772
-5.116283
-6.425169
-4.799432
-0.293443
3.174811
3.636495
1.697423
0.351040
1.510171
2.923815
3.526113
2.640242
0.123244
-2.564131
-3.816303
-2.318759
-0.587093
-2.348523
-6.381344
-8.273311
-5.457039
1.017083
6.813444
9.176703
7.674707
4.233403
2.649148
1.638130
0.077310
-2.882389
-6.811156
-7.930446
-6.606796
-4.313141
-3.044799
-4.098703
-5.574687
-3.895281
2.433539
10.167800
13.585900
11.580040
8.028821
2.393698
-3.537418
-5.024884
-4.241427
-3.440628
-3.719982
-7.371504
-10.089580
-9.588758
-7.874903
-3.013863
2.574388
6.589163
9.938130
11.316150
11.205300
7.809462
-0.958315
-7.721165
-9.948497
-10.081380
-5.537892
-0.800358
2.752499
3.831949
-0.908631
-2.988787
0.606255
2.943501
2.105439
1.606492
-1.051589
-6.575392
-9.756324
-10.052320
-8.042234
-4.307750
-1.547958
0.853736
3.787421
4.098882
2.382449
-2.793802
-9.744372
-12.299100
-13.802500
-10.743670
0.542041
7.434959
5.925229
2.335577
-0.962299
-1.701228
-0.688335
-0.906053
-6.867402
-14.112320
-14.883360
-17.115379
-18.534651
-11.703600
1.298078
14.145780
16.341240
13.255220
12.945170
14.403570
13.099140
8.159826
2.083175
-5.323455
-6.098475
-1.538116
3.015448
8.167326
9.750644
4.770785
-4.527109
-3.841614
4.784143
-0.521004
-12.814450
-20.658159
-23.777460
-15.520340
-7.904667
0.022236
14.615670
18.775511
22.437111
29.364950
18.562250
1.104498
-7.433843
-13.130600
-17.886881
-26.166031
-31.030350
-20.226940
-9.931155
-5.848181
-1.966520
3.475023
14.170620
18.395849
16.880730
13.212570
7.432381
6.893359
-1.583346
-14.430110
-11.348780
-1.120725
-2.635611
-9.157308
-8.357446
0.168006
6.713841
-6.495008
-18.173500
-11.945220
-11.866950
-16.307079
-15.060070
-8.574460
2.215352
3.378702
4.001390
20.439920
36.238411
35.775558
22.755840
8.010776
-0.203450
0.340493
2.445257
5.865937
6.348713
-9.263940
-30.289539
-33.625389
-18.076481
-6.775064
-7.533211
-14.388400
-22.033840
-20.802990
-14.604240
-7.440405
-1.475073
-7.035670
-11.631890
-5.490317
-0.169234
7.866411
18.498030
24.324631
18.732149
1.078016
-8.912403
1.908578
15.859640
6.971166
-18.425911
-36.650242
-39.532829
-37.362450
-33.953960
-21.497629
-4.118624
6.897109
18.644970
38.773930
49.520618
43.083061
28.034740
11.789320
-9.227145
-33.089882
-48.713310
-47.537071
-28.840040
0.946307
40.366859
68.697609
81.570862
77.431641
64.820869
54.342049
23.639130
-19.839319
-60.315170
-60.379860
-36.482441
-28.046511
-24.139540
-38.808670
-50.133289
-43.934528
-18.135300
18.832701
32.287849
36.734081
49.053070
62.899849
78.787163
79.900124
43.502560
2.784137
-36.900532
-68.707512
-60.308140
-32.375092
13.781360
12.591760
-35.794361
-61.033951
-80.100327
-64.307213
-58.773800
-67.637444
-48.414509
-20.229050
32.903271
53.095039
42.564190
51.947151
41.239128
23.527340
14.907210
-31.451960
-52.885342
-41.366440
-50.637390
-84.290398
-119.858803
-82.462410
-48.036018
-26.511471
11.372630
27.917320
60.424332
74.169388
91.258957
96.670502
77.392967
113.508102
114.458000
68.676750
11.704950
-57.520931
-96.339180
-126.048897
-109.137398
-91.643127
-78.540672
-41.122478
-25.563259
-3.903484
19.427259
39.686520
48.388439
62.273640
68.050079
62.158100
60.856720
26.320881
-17.429649
-27.902611
-22.136250
-25.051661
-0.526394
28.918261
41.608009
40.043671
48.052601
46.188999
10.224510
25.988091
2.904363
-7.740617
45.062199
28.794291
30.722580
18.211880
-28.475149
-26.009710
-63.340721
-130.121597
-139.968597
-134.162094
-103.925797
-51.974159
-63.298069
-74.368179
-64.437752
-51.023369
-24.825270
18.328590
104.548698
109.702202
99.902527
133.058899
119.301003
146.622803
148.833099
122.689598
129.406494
91.450661
76.497963
73.201019
42.335690
37.551521
15.476700
15.633950
37.139519
26.436890
35.933281
13.902520
17.445999
64.815948
55.225349
39.208889
-11.360970
-68.682899
-99.068039
-152.105698
-169.965805
-150.634598
-131.588196
-87.982697
-38.515251
8.798684
67.482002
117.862503
165.968094
173.062805
155.970398
162.907394
186.015305
197.614502
184.066803
187.352493
169.555603
135.523193
138.462997
145.281403
138.344894
114.206299
56.883888
12.834790
10.371690
-5.035899
-45.395050
-38.861870
-2.388364
-25.629820
-29.725439
-30.111900
-54.388512
-16.101780
-7.231827
-0.040103
29.259251
24.712021
41.228352
33.960701
24.401960
24.939341
-1.861060
-6.982705
-16.279659
-21.551531
-7.042232
-18.907040
-24.674339
-34.477749
-58.570148
-42.706730
-30.940350
-16.248960
4.875074
-11.146060
-21.812840
-38.437450
-67.600639
-75.577698
-90.127296
-127.409599
-153.305405
-172.622498
-172.306396
-150.205307
-131.514999
-94.817497
-60.824429
-47.023602
-45.715649
-39.474010
-42.410271
-73.317787
-77.676826
-81.271408
-106.332397
-113.423599
-137.187698
-158.113205
-163.988297
-170.976105
-160.999298
-154.815308
-135.182693
-107.081596
-107.000099
-122.180801
-122.945099
-123.714203
-128.490906
-115.942497
-102.183800
-53.800270
14.930880
68.111717
144.021896
217.877502
282.258087
351.860413
398.952606
406.936401
390.938995
371.632599
337.320312
282.664215
207.797607
114.254097
21.002140
-44.625889
-100.871696
-140.561707
-152.190308
-143.907898
-77.206482
-25.473730
4.216295
48.296799
44.296791
44.840271
25.254089
-46.500271
-101.324699
-135.596405
-155.024597
-193.472595
-224.755295
-244.828506
-261.783508
-261.457794
-284.718689
-271.931885
-239.650803
-241.315704
-254.245895
-252.851196
-248.741302
-237.847900
-223.572006
-281.446106
-270.933502
-247.866394
-283.124603
-246.766403
-276.279205
-286.266388
-266.114014
-310.131714
-291.831390
-328.119812
-370.690094
-360.407898
-402.130310
-360.504913
-333.096313
-327.337189
-247.298401
-221.971100
-146.582397
-57.624981
9.222872
131.009705
236.740295
324.489502
422.829895
520.157471
527.530212
508.517914
508.311005
463.336609
425.129608
434.647308
427.659912
404.584015
423.427704
406.074493
405.404907
420.236908
403.420807
404.634613
356.829895
291.186188
239.266205
164.577194
122.055603
104.678703
56.435570
67.132103
75.442650
69.376083
130.332901
136.519699
150.392899
143.475906
104.636101
130.865097
139.892303
168.374496
184.274704
186.886398
218.394806
240.249496
207.290894
135.958603
132.475204
95.051804
101.363701
31.374331
-9.351824
156.199799
83.751083
84.277222
152.851593
113.549202
151.427200
32.410889
-6.418373
0.373069
-90.584068
-53.117592
-72.639793
-129.266907
-110.941704
-180.593002
-256.329102
-335.380188
-439.107697
-493.217285
-550.160522
-529.961426
-503.126801
-529.183594
-473.004395
-437.209595
-401.091888
-281.998505
-203.299194
-96.860626
3.923817
54.607811
124.232597
142.184296
96.472473
66.863762
50.592331
7.711267
57.675320
25.152140
-31.791309
-9.861082
-81.578888
-37.498611
-47.921421
-110.624199
-65.837570
-135.433502
-142.338104
-111.967499
-185.889893
-123.389900
-78.832687
-77.891037
7.327389
-26.148211
-21.298420
6.706811
-45.521599
-22.443260
-11.779530
-26.708330
-18.603081
-13.932810
12.910950
22.550770
17.290859
13.737530
-0.312661
9.218887
-15.432690
-1.901838
19.518660
9.646824
60.957489
79.943024
126.705299
135.839096
101.440399
129.852707
133.188507
165.025299
199.582001
211.746506
253.699097
262.510193
235.123199
214.118195
172.126297
142.414703
123.343399
95.131706
118.549202
94.796112
40.737839
68.243896
48.125961
25.175810
63.588390
47.368980
52.565861
83.777100
108.218498
176.828705
217.421997
246.314194
270.125610
255.627396
274.729614
269.653015
229.469299
227.285599
187.403107
138.198196
133.327301
100.811096
76.386414
56.824360
0.429784
-42.058971
-102.392403
-160.600006
-180.707108
-209.898193
-228.022507
-231.620605
-235.783401
-230.535706
-238.947495
-234.162201
-244.690002
-272.322113
-290.996185
-313.064209
-277.541687
-298.320099
-322.961792
-322.805206
-349.589203
-304.067413
-305.308807
-258.445099
-136.005600
-94.179337
-51.989399
-3.451174
3.343783
36.055149
57.231209
66.398567
131.601898
134.690506
146.041901
188.237396
186.905594
216.089600
213.231400
183.872299
182.628601
169.127502
161.121796
158.659195
107.168503
83.038406
93.239037
103.011497
134.764404
138.821106
127.489899
67.305763
33.199970
51.096901
9.340519
-38.843349
-68.139664
-103.052299
-129.478195
-136.343307
-157.136200
-155.047302
-139.251205
-134.264099
-98.768761
-72.619400
-33.231899
10.203420
23.713421
48.340858
72.522789
81.404243
110.253601
98.479042
60.511509
35.132019
-35.657501
-64.237137
-66.486267
-66.982170
-66.912567
-105.099197
-70.039833
-44.830719
-73.273956
-60.993172
-77.325768
-73.832909
-42.737202
-42.032959
-30.616940
-15.583150
-1.477182
14.194060
36.367550
20.711069
-16.019760
-27.846600
-6.441339
24.735220
24.302601
50.164398
45.177509
5.059747
7.722750
-3.846301
-3.381570
23.561319
39.845638
76.568031
94.292236
101.895699
121.567703
106.000504
109.325798
121.158997
104.010300
115.050400
127.161797
114.672699
123.239098
122.363998
99.326477
84.929672
69.078911
54.402748
29.227150
-7.142068
-37.475639
-72.158417
-110.792198
-128.895203
-138.732803
-140.211807
-120.609901
-113.884102
-104.397797
-84.886139
-72.588943
-57.179241
-50.285622
-36.484310
-6.801781
4.750865
13.708240
24.170420
16.757460
5.231531
-5.659289
-11.571660
-27.135090
-39.791328
-40.979519
-48.166088
-53.914169
-65.783669
-70.354797
-62.260342
-55.688721
-47.048439
-41.569870
-45.574100
-46.456680
-50.642311
-53.355930
-52.923309
-69.333008
-65.298080
-52.729031
-44.642761
-15.492920
10.683620
41.248268
74.001823
85.447838
93.220757
102.353897
93.201782
81.660851
73.749649
56.087540
46.583179
39.107891
31.420731
32.421440
32.165051
43.797611
59.953499
73.753868
100.875298
119.125198
136.917404
164.140594
166.903900
161.206406
167.916504
171.915802
169.450699
158.714706
144.705307
138.107498
132.011093
128.786606
114.751900
99.904404
98.496849
88.903900
85.452049
67.448250
46.761059
38.325600
17.871599
8.871804
-7.650858
-31.049801
-35.102539
-61.386650
-88.197838
-74.533157
-83.372887
-88.637497
-87.020660
-112.076698
-97.839996
-86.096588
-88.281036
-78.186096
-99.798058
-103.359802
-94.432693
-126.460899
-126.955399
-127.146599
-134.806793
-115.218102
-135.938293
-125.035500
-93.983650
-87.962067
-83.235558
-93.573517
-95.951553
-99.886650
-82.029083
-63.972321
-55.252819
-35.597969
-14.486590
28.772261
54.008560
65.858597
91.268570
104.880997
125.602898
136.938202
131.072098
135.693298
122.092201
110.141602
89.261528
49.083771
34.558311
12.040550
4.887026
8.350594
-0.877227
14.055320
-10.502280
-37.638988
-36.452911
-56.871059
-56.835201
-78.011017
-105.552902
-118.488998
-152.858200
-152.876999
-160.007294
-175.406204
-164.438705
-165.207901
-150.198898
-137.271301
-134.726898
-126.594902
-137.405197
-142.548599
-140.539001
-139.015701
-131.684494
-129.778503
-117.582497
-92.038254
-74.665337
-46.745178
3.333002
37.746971
62.280201
74.015411
63.621899
58.472370
49.868870
34.467850
30.281290
42.585751
38.850800
18.699341
16.260620
36.262081
68.352638
80.516022
80.328773
75.865433
47.249229
33.977570
44.047440
48.925350
66.234047
72.240158
68.545036
71.330849
56.640629
58.037628
70.865646
81.270653
102.430099
106.501099
106.440201
100.777100
76.597328
68.927750
53.398762
29.178869
13.943770
-12.127080
-21.664490
-34.332439
-47.573631
-33.012779
-17.429420
2.341671
13.618010
14.417400
19.330700
20.924801
27.494539
37.671280
22.002140
-16.639400
-38.725700
-48.746120
-50.567551
-49.226551
-50.089691
-39.145908
-45.155769
-60.729519
-69.898514
-72.627136
-63.881859
-63.353378
-66.037949
-74.356216
-68.903664
-58.813412
-66.217697
-65.988029
-74.605812
-75.109688
-70.235992
-78.603012
-75.834549
-74.028358
-66.869911
-50.042122
-45.414028
-41.384491
-28.421009
-20.428020
-11.611970
-5.706864
0.933183
13.408730
9.726740
7.598072
1.226599
-13.768050
-7.907011
-3.635145
1.597352
16.202030
16.539740
15.361630
11.221240
