EVENT_NAME: L_AQUILA
EVENT_ID: IT-2009-0009
EVENT_DATE_YYYYMMDD: 20090406
EVENT_TIME_HHMMSS: 013240
EVENT_LATITUDE_DEGREE: 42.3420
EVENT_LONGITUDE_DEGREE: 13.3800
EVENT_DEPTH_KM: 8.3
HYPOCENTER_REFERENCE: INGV-CNT_Seismic_Bulletin
MAGNITUDE_W: 6.1
MAGNITUDE_W_REFERENCE: INGV-CNT_Seismic_Bulletin
MAGNITUDE_L: 
MAGNITUDE_L_REFERENCE: 
FOCAL_MECHANISM: Normal faulting
NETWORK: IT
STATION_CODE: AQV
STATION_NAME: 
STATION_LATITUDE_DEGREE: 42.377222
STATION_LONGITUDE_DEGREE: 13.343888
STATION_ELEVATION_M: 692
LOCATION: 
SENSOR_DEPTH_M: 0.0
VS30_M/S: 474
SITE_CLASSIFICATION_EC8: B
MORPHOLOGIC_CLASSIFICATION: 
EPICENTRAL_DISTANCE_KM: 4.9
EARTHQUAKE_BACKAZIMUTH_DEGREE: 322.8
DATE_TIME_FIRST_SAMPLE_YYYYMMDD_HHMMSS: 20090406_013212.000
DATE_TIME_FIRST_SAMPLE_PRECISION: seconds
SAMPLING_INTERVAL_S: 0.005000
NDATA: 20001
DURATION_S: 100.005
STREAM: HNE
UNITS: cm/s^2
INSTRUMENT: sensor = FBA-3 [Kinemetrics] | digitizer = Etna [Kinemetrics]
INSTRUMENT_ANALOG/DIGITAL: D
INSTRUMENTAL_FREQUENCY_HZ: 210.000
INSTRUMENTAL_DAMPING: 0.700000
FULL_SCALE_G: 1.0
N_BIT_DIGITAL_CONVERTER: 18
PGA_CM/S^2: 644.246826
TIME_PGA_S: 33.630000
BASELINE_CORRECTION: BASELINE REMOVED
FILTER_TYPE: BUTTERWORTH
FILTER_ORDER: 2
LOW_CUT_FREQUENCY_HZ: 0.100
HIGH_CUT_FREQUENCY_HZ: 40.000
LATE/NORMAL_TRIGGERED: NT
DATABASE_VERSION: 0.5
HEADER_FORMAT: DYNA 1.2
DATA_TYPE: ACCELERATION
PROCESSING: manual (Paolucci et al., 2011)
DATA_TIMESTAMP_YYYYMMDD_HHMMSS: 20211011_155630.448
DATA_LICENSE: CC-BY3_0-IT (http://creativecommons.org/licenses/by/3.0/deed.en)
DATA_CITATION: Luzi L, Pacor F, Puglia R (2019). Italian Accelerometric Archive v 3.0 - Istituto Nazionale di Geofisica e Vulcanologia, Dipartimento della Protezione Civile Nazionale. doi: 10.13127/itaca.3.1
DATA_CREATOR: ITACA working group
ORIGINAL_DATA_MEDIATOR_CITATION: data obtained within the DPC-INGV data exchange agreements
ORIGINAL_DATA_MEDIATOR: Archive of Italian Department of Civil Protection
ORIGINAL_DATA_CREATOR_CITATION: Presidency Of Counsil Of Ministers-Civil Protection Department. (1972). Italian Strong Motion Network. Presidency of Counsil of Ministers - Civil Protection Department. https://doi.org/10.7914/SN/IT http://www.fdsn.org/networks/detail/IT/
ORIGINAL_DATA_CREATOR: network: IT (Italian Strong Motion Network (RAN)); owner: Presidency of Counsil of Ministers - Civil Protection Department (PCM - DPC)
USER1: 
USER2: 
USER3: 
USER4: 
USER5: 
[...]
-0.047623
-0.048293
-0.046520
-0.044836
-0.044324
-0.045124
-0.047158
-0.048525
-0.047502
-0.045020
-0.043252
-0.043241
-0.044599
-0.046128
-0.046908
-0.047119
-0.047109
-0.047379
-0.048304
-0.048602
-0.047202
-0.045749
-0.046937
-0.050960
-0.054148
-0.052933
-0.048889
-0.046255
-0.045946
-0.046644
-0.048457
-0.051026
-0.052028
-0.050474
-0.048856
-0.049525
-0.050934
-0.051142
-0.050811
-0.050780
-0.051486
-0.052153
-0.050653
-0.047776
-0.046331
-0.046330
-0.046618
-0.047525
-0.048990
-0.049889
-0.049771
-0.049197
-0.048957
-0.049600
-0.050987
-0.051917
-0.051444
-0.050028
-0.048928
-0.049606
-0.051725
-0.053396
-0.054145
-0.053579
-0.051078
-0.048552
-0.048459
-0.050500
-0.052584
-0.053350
-0.052818
-0.051648
-0.050339
-0.049086
-0.048499
-0.048745
-0.048984
-0.049462
-0.051185
-0.053041
-0.052895
-0.051380
-0.050954
-0.052126
-0.053598
-0.054020
-0.052450
-0.049654
-0.048422
-0.050292
-0.053044
-0.053320
-0.050889
-0.048711
-0.048864
-0.050341
-0.051284
-0.051109
-0.050638
-0.051327
-0.052940
-0.053198
-0.051574
-0.050671
-0.051850
-0.053039
-0.052908
-0.052604
-0.052835
-0.052868
-0.051806
-0.050472
-0.050961
-0.053143
-0.054343
-0.053418
-0.052571
-0.053214
-0.053334
-0.051684
-0.050277
-0.051050
-0.053244
-0.054856
-0.054684
-0.053070
-0.052015
-0.052352
-0.052675
-0.053014
-0.054242
-0.055807
-0.056862
-0.056540
-0.055170
-0.054472
-0.054664
-0.054986
-0.055986
-0.057665
-0.057543
-0.054285
-0.051258
-0.052481
-0.056699
-0.059329
-0.058899
-0.057394
-0.055812
-0.053679
-0.051697
-0.051318
-0.052794
-0.055277
-0.056827
-0.055868
-0.053714
-0.052301
-0.051727
-0.051862
-0.052875
-0.054198
-0.055132
-0.055506
-0.055007
-0.054273
-0.054722
-0.055414
-0.054922
-0.054528
-0.055690
-0.057272
-0.057006
-0.055091
-0.053920
-0.054383
-0.055292
-0.056029
-0.057317
-0.058284
-0.056923
-0.054135
-0.052519
-0.053150
-0.055140
-0.056574
-0.056568
-0.055538
-0.054340
-0.054456
-0.056163
-0.057487
-0.057131
-0.056342
-0.056432
-0.056637
-0.056723
-0.057478
-0.057959
-0.057532
-0.057007
-0.056303
-0.055410
-0.055342
-0.056394
-0.057631
-0.058277
-0.058448
-0.058394
-0.057889
-0.056518
-0.054531
-0.053008
-0.052987
-0.054579
-0.056439
-0.057353
-0.057636
-0.057335
-0.056078
-0.054492
-0.053911
-0.055430
-0.057967
-0.058526
-0.056152
-0.053765
-0.054588
-0.057588
-0.059539
-0.059539
-0.057956
-0.055201
-0.052960
-0.052763
-0.054202
-0.055882
-0.056223
-0.055110
-0.055098
-0.057932
-0.061609
-0.062053
-0.058064
-0.053789
-0.053304
-0.055859
-0.057884
-0.057338
-0.055402
-0.053723
-0.052859
-0.053452
-0.056003
-0.059292
-0.060383
-0.058446
-0.056294
-0.055932
-0.056457
-0.056586
-0.056356
-0.056619
-0.057258
-0.056635
-0.054210
-0.052267
-0.053446
-0.057304
-0.060340
-0.059869
-0.057388
-0.056076
-0.055782
-0.054676
-0.053475
-0.054207
-0.057023
-0.059244
-0.058808
-0.057276
-0.056267
-0.055504
-0.055076
-0.055454
-0.056092
-0.055377
-0.053413
-0.052895
-0.054585
-0.056207
-0.056574
-0.056440
-0.056211
-0.055691
-0.054893
-0.053879
-0.052812
-0.052170
-0.052495
-0.053770
-0.054954
-0.055246
-0.055242
-0.055359
-0.054729
-0.053323
-0.053020
-0.054555
-0.055919
-0.055806
-0.055511
-0.055442
-0.054312
-0.053370
-0.054878
-0.057175
-0.057484
-0.055758
-0.053316
-0.051935
-0.052998
-0.055629
-0.057341
-0.056761
-0.055516
-0.056002
-0.057320
-0.057086
-0.055566
-0.054046
-0.052078
-0.050063
-0.051039
-0.054768
-0.055767
-0.052875
-0.051487
-0.053320
-0.054145
-0.052102
-0.050627
-0.051863
-0.052883
-0.052075
-0.052159
-0.053854
-0.055139
-0.055723
-0.056185
-0.056001
-0.054758
-0.053692
-0.054170
-0.055335
-0.055735
-0.055579
-0.055416
-0.054619
-0.053352
-0.053424
-0.054371
-0.053108
-0.049759
-0.048311
-0.049825
-0.050827
-0.049515
-0.047884
-0.048125
-0.050328
-0.052621
-0.053309
-0.052835
-0.052262
-0.051354
-0.049759
-0.048435
-0.048996
-0.051734
-0.054229
-0.053517
-0.050191
-0.047995
-0.048619
-0.050010
-0.050484
-0.050360
-0.049531
-0.048191
-0.048261
-0.050080
-0.051178
-0.050294
-0.049262
-0.049680
-0.050099
-0.048700
-0.046203
-0.044274
-0.043998
-0.046334
-0.050808
-0.053992
-0.053011
-0.049503
-0.047180
-0.047031
-0.047155
-0.046876
-0.047431
-0.048544
-0.048588
-0.047483
-0.046663
-0.046373
-0.045570
-0.044796
-0.045245
-0.046130
-0.046017
-0.044283
-0.041622
-0.040121
-0.040572
-0.041564
-0.042377
-0.043361
-0.044155
-0.044422
-0.044381
-0.043869
-0.042821
-0.041484
-0.040376
-0.040611
-0.042140
-0.043519
-0.044065
-0.043598
-0.042206
-0.041367
-0.041810
-0.041874
-0.041094
-0.041099
-0.041938
-0.041816
-0.040093
-0.038752
-0.039531
-0.040509
-0.039209
-0.037283
-0.037859
-0.039990
-0.040245
-0.038389
-0.037214
-0.037928
-0.038920
-0.038709
-0.037905
-0.037595
-0.037473
-0.036909
-0.036331
-0.036423
-0.036813
-0.036305
-0.035179
-0.035441
-0.037424
-0.038592
-0.036740
-0.033561
-0.032715
-0.034558
-0.036338
-0.036534
-0.036158
-0.035613
-0.033870
-0.032535
-0.033657
-0.034290
-0.032011
-0.029904
-0.030398
-0.031862
-0.032577
-0.032912
-0.033180
-0.032631
-0.031898
-0.032461
-0.033147
-0.031624
-0.029080
-0.028797
-0.030543
-0.031462
-0.030818
-0.029568
-0.027683
-0.025467
-0.025434
-0.028539
-0.031097
-0.030083
-0.027708
-0.026838
-0.026240
-0.023805
-0.020762
-0.019913
-0.022358
-0.026724
-0.029754
-0.028832
-0.025332
-0.023547
-0.024659
-0.024937
-0.022772
-0.021570
-0.022603
-0.022830
-0.021245
-0.020361
-0.021424
-0.022827
-0.023228
-0.023033
-0.022242
-0.020406
-0.018961
-0.019238
-0.019710
-0.018815
-0.017778
-0.017734
-0.017098
-0.015579
-0.015764
-0.017234
-0.016686
-0.014785
-0.015504
-0.018826
-0.019963
-0.017282
-0.014798
-0.014393
-0.013835
-0.012945
-0.013390
-0.014484
-0.014120
-0.012559
-0.012227
-0.013227
-0.014046
-0.014815
-0.014684
-0.011838
-0.007885
-0.006517
-0.008122
-0.009596
-0.009599
-0.009783
-0.010326
-0.009175
-0.006639
-0.006076
-0.008082
-0.009439
-0.009314
-0.009501
-0.008948
-0.005530
-0.001588
-0.000923
-0.002637
-0.003434
-0.002847
-0.002409
-0.001982
-0.000128
0.001977
0.001722
-0.000573
-0.002451
-0.000433
0.010514
0.033925
0.067430
0.101144
0.122868
0.130029
0.131032
0.128122
0.109656
0.065266
0.009240
-0.004732
0.091046
0.332868
0.710277
1.134762
1.418856
1.410930
1.188378
1.043089
1.183281
1.424296
1.414612
1.183212
1.004440
0.763160
-0.057285
-1.689374
-3.625487
-5.004105
-5.171463
-3.767949
-0.942921
2.400853
5.048597
6.149625
5.585570
3.836063
1.490379
-0.864602
-2.707471
-4.009064
-4.987865
-5.393655
-4.724057
-3.018654
-0.982870
0.723253
2.132812
3.732793
5.656979
7.074812
6.464107
3.014138
-2.313168
-7.474384
-10.760861
-11.304614
-8.923505
-4.501033
-0.171157
2.127627
2.428573
2.514162
3.768761
5.647027
6.633635
6.188683
5.156643
4.372827
3.292961
0.527858
-4.199093
-9.059665
-11.352224
-9.629866
-4.539003
1.901064
7.357039
10.064961
9.595051
7.053741
4.230284
2.123295
0.322992
-1.651641
-2.849370
-1.845283
1.150789
3.907890
3.736502
-0.253138
-5.938099
-9.487189
-8.190224
-2.457245
4.298790
8.068384
7.328715
4.024513
1.694934
2.396363
4.981349
6.436092
4.866857
1.045405
-2.757207
-4.909837
-5.007062
-3.152518
0.161385
3.458406
4.521480
2.095642
-2.998669
-8.733402
-13.090025
-14.724248
-13.365588
-9.671139
-4.857735
-0.148698
4.116461
8.457860
13.021199
16.616280
17.296497
14.261459
8.587710
1.995745
-3.694607
-6.613994
-6.181505
-3.833662
-1.798466
-1.268130
-1.421923
-0.592582
1.477486
3.245173
3.040522
1.247182
1.010405
5.234524
12.837844
19.555529
21.894859
19.820879
16.334759
14.644548
16.279291
21.278240
27.928020
32.330353
30.233870
20.608639
7.333746
-3.783029
-9.885355
-12.266059
-13.429019
-14.418742
-14.736803
-13.985293
-13.114823
-13.124428
-13.520215
-13.701013
-13.769084
-12.086563
-4.949200
8.204413
21.312019
26.630617
21.974953
11.611519
1.840446
-3.561244
-4.728730
-3.593439
-2.051526
-1.854592
-3.305790
-4.141320
-1.928408
2.263490
3.800786
-0.596868
-8.611096
-14.656050
-15.154442
-11.037348
-6.747430
-5.378787
-4.432080
0.868823
11.311405
23.328918
33.293434
39.356209
40.352264
37.206886
34.038700
34.077442
36.616741
39.323357
40.797993
40.086647
35.704445
26.779205
14.890313
4.581607
1.503453
7.693126
19.070250
29.290550
34.821301
36.340050
35.876858
33.141048
26.898756
17.155531
3.569516
-12.089042
-21.523094
-16.246389
1.329756
19.028555
27.121733
25.583921
19.500166
12.167865
4.941300
0.276858
0.472389
3.443065
3.948025
-0.078077
-5.122087
-6.516661
-3.590697
2.105547
10.348143
18.305696
18.846827
8.790570
-5.930662
-16.208132
-17.681448
-12.842869
-8.770673
-10.655133
-15.939171
-19.262510
-18.925840
-13.178066
0.904028
20.997772
39.553932
50.339066
50.771523
39.743626
16.617371
-14.391587
-39.089851
-41.431202
-21.152399
4.236533
18.960777
23.792246
27.432898
31.264627
29.672548
20.290024
7.874968
-1.177392
-4.076428
-0.500204
9.030457
21.712528
31.713102
32.628311
22.418741
6.529218
-5.646575
-9.381584
-8.134291
-7.612081
-9.889019
-12.646149
-10.841940
-0.354300
17.979439
36.513954
45.057327
42.081821
39.171764
47.496014
62.484184
69.026024
59.944759
42.617363
26.827524
12.945719
-3.946387
-23.632210
-38.955544
-42.559399
-32.045986
-10.622863
13.484684
31.313145
37.494247
33.706352
32.162605
45.107735
70.203400
96.067566
114.954475
122.602493
112.549202
81.007172
37.758076
-0.137064
-27.892866
-58.002110
-106.105751
-170.587692
-226.385971
-246.008057
-221.112946
-162.001846
-87.811302
-18.908730
31.602531
69.554817
112.813263
162.211594
197.439758
204.295639
186.826691
155.568481
117.941788
78.796204
40.920200
2.621710
-42.430099
-97.659508
-153.201950
-190.054947
-196.295288
-174.016129
-133.769501
-87.033905
-40.800812
3.345481
45.577412
86.077538
124.543571
157.038025
172.524887
158.064575
116.947655
71.222420
38.585743
20.609249
9.354861
-1.500662
-10.330708
-16.855797
-24.621346
-31.405035
-34.912037
-40.088680
-48.242161
-48.231876
-30.942814
-5.071276
15.472148
25.746260
25.915504
18.079758
3.766733
-15.237214
-37.190514
-68.950439
-113.016335
-147.400024
-142.282013
-89.138817
-10.013434
53.257671
68.717094
40.341587
0.235432
-21.973646
-15.819160
12.147759
43.895485
60.469048
53.080173
26.254320
-6.055563
-32.215626
-49.563198
-61.669563
-80.950111
-122.129639
-182.390656
-241.281830
-278.852692
-289.208099
-283.195679
-275.809570
-270.750916
-262.385437
-250.784454
-242.003036
-233.116028
-218.138382
-205.347137
-210.057816
-230.333008
-237.945038
-203.383621
-121.838531
-7.438922
117.760445
223.838760
279.673340
270.949432
208.428421
113.286781
2.777111
-110.758537
-217.627716
-305.640503
-359.198700
-369.441284
-344.277740
-305.772583
-274.447327
-256.531769
-243.933792
-227.076889
-209.858658
-200.445358
-194.821518
-184.285355
-167.087860
-148.323502
-134.046402
-127.455482
-131.650055
-146.291367
-164.008621
-179.155670
-187.483704
-180.562225
-155.810226
-120.206154
-84.308830
-60.360180
-51.647060
-48.541901
-45.243443
-46.791290
-58.219215
-74.740334
-81.761719
-68.546623
-41.251865
-14.808697
1.351624
3.321472
-7.921952
-21.722776
-25.668337
-17.639063
-2.707330
12.156205
20.467947
21.410192
20.072533
25.052828
43.217018
72.984047
107.542534
140.564514
170.722473
203.843033
245.523331
296.510132
352.746613
405.107361
443.649384
459.504883
448.180695
417.301147
382.507568
356.186615
343.938232
344.857239
353.770813
367.334747
385.108704
404.241791
419.252594
425.658264
420.237732
402.636322
377.385254
351.021790
330.464905
321.589630
321.148651
316.060272
299.108063
276.912689
258.820038
248.954590
247.620026
249.527893
243.580292
221.182159
181.617920
128.044159
63.605053
-7.217805
-76.222466
-134.573364
-178.730911
-208.822449
-224.694366
-227.320786
-218.987671
-200.619308
-170.468384
-126.292610
-69.013245
-3.412357
61.260323
109.114296
123.149979
99.444267
51.269749
-3.215508
-52.588066
-92.984344
-121.032784
-131.535767
-124.787155
-107.008705
-84.499741
-65.041473
-58.523041
-70.631035
-98.981369
-137.056244
-179.190048
-221.007812
-261.135712
-298.286316
-323.931885
-334.114471
-340.343018
-351.347656
-358.178101
-348.784058
-331.647064
-327.503784
-339.070801
-352.422424
-359.477539
-364.846039
-372.378204
-372.057404
-352.500153
-313.888885
-261.411499
-195.199951
-110.903450
-19.639456
52.091747
93.606743
117.408356
142.580795
176.311478
207.607071
229.801331
250.991516
272.077240
274.903595
239.021942
167.631668
88.411858
25.904982
-10.091331
-9.574946
35.646458
111.876190
191.865204
262.712341
329.751160
400.036194
471.410736
534.999084
583.700195
618.860291
644.246826
642.523865
578.382263
443.279816
265.845093
79.287125
-92.392540
-229.040619
-308.425873
-322.373962
-297.882294
-266.564575
-235.555435
-204.097321
-172.909698
-146.723450
-134.312668
-133.939270
-130.250748
-105.619568
-61.314140
-18.924307
14.265231
44.988689
62.595295
50.102814
9.999671
-45.520142
-99.533005
-117.697792
-94.304527
-82.498375
-108.678429
-143.118439
-166.643326
-173.238525
-161.557205
-144.366608
-123.005150
-100.160339
-89.889526
-86.682693
-80.194725
-69.327774
-53.233974
-37.711117
-25.267567
-13.024561
-2.003199
7.955440
18.078415
29.189817
38.500118
40.959522
36.761703
30.611511
30.660971
37.786339
41.584801
35.653038
19.711927
0.640777
-6.373293
7.307689
40.552193
88.117661
138.207504
175.231186
192.935928
202.103577
213.044708
218.565704
211.819031
204.997574
210.929825
214.375427
184.131683
113.918121
24.316235
-66.522308
-143.340057
-189.461990
-206.147171
-209.160263
-205.500793
-193.962067
-176.433212
-162.156570
-160.140015
-162.710083
-154.723343
-137.669067
-123.316368
-118.378700
-123.017601
-127.558891
-119.140427
-96.597801
-71.762291
-62.582466
-78.740311
-108.685822
-131.948746
-140.891678
-143.091599
-145.723572
-144.852539
-139.610245
-140.514313
-148.579193
-151.979309
-147.240112
-142.791321
-141.628540
-132.517960
-109.877502
-82.869186
-54.061264
-20.455324
12.468867
41.535816
67.200455
81.469421
81.678795
82.909660
94.273041
105.607559
108.793564
105.080856
94.669998
80.402672
69.424759
65.239220
67.854515
76.813965
91.645142
113.498146
146.926193
193.983704
244.531570
286.198029
319.753418
351.413361
381.041626
404.869659
424.964722
444.367371
449.644775
420.293182
354.263641
268.541473
184.682800
116.717201
68.164009
38.265434
24.282070
20.561806
18.336346
9.458662
-4.250689
-12.316895
-7.666638
6.298485
19.524525
28.950607
40.154690
56.055573
78.127403
106.521713
132.613434
141.440491
122.126511
79.862953
28.717360
-26.434042
-81.088387
-123.813744
-153.724182
-180.255096
-204.763412
-222.521927
-233.625137
-240.805191
-244.758667
-239.518921
-216.804565
-182.070099
-148.886002
-121.621590
-96.903954
-70.043015
-42.348518
-23.350613
-19.114059
-26.942991
-38.486465
-45.187294
-46.248306
-47.522377
-51.685612
-49.999191
-30.908962
5.088344
52.122807
105.434677
157.211472
200.950134
233.923630
255.447617
264.590729
254.758804
218.530014
159.936737
94.961258
35.996506
-21.797525
-88.226059
-156.940918
-210.185898
-234.357819
-224.040253
-181.972427
-119.029144
-52.463612
3.576421
48.236523
88.827202
130.212250
169.093765
195.737198
201.516800
183.890152
151.077560
116.331787
83.144592
45.901325
-0.052708
-50.245872
-93.249153
-123.111076
-134.861038
-123.962662
-104.740799
-96.773918
-97.064262
-94.634743
-95.129799
-106.655121
-118.268944
-119.998787
-123.069366
-136.789597
-154.152710
-168.135574
-180.046448
-194.009277
-208.877914
-217.247437
-214.051086
-201.076523
-186.680313
-178.150467
-171.413803
-160.526047
-145.747696
-124.564148
-94.403557
-60.241371
-31.203348
-13.693592
-4.921312
2.076981
9.189389
14.973575
17.963530
18.841497
18.990499
15.341101
4.931047
-10.656901
-28.011532
-41.928787
-49.598457
-53.744953
-55.439816
-50.656727
-35.336105
-12.277626
10.196559
28.461294
42.584805
48.687580
43.556850
30.220051
15.137253
3.651495
-2.755340
-4.329519
-0.012713
10.550430
25.774698
43.971775
63.798302
83.797440
102.318924
117.448395
127.763458
134.572372
141.718063
150.577896
157.898392
160.667557
160.002457
158.088791
154.858215
148.861328
135.619232
107.908386
63.942238
9.947791
-46.598381
-100.173317
-142.253830
-160.552124
-151.682556
-124.642258
-87.757645
-48.299019
-16.363289
6.489862
29.681149
59.673386
91.551971
112.535027
111.668938
87.813942
48.232864
0.234281
-51.636810
-99.497688
-131.958862
-144.783844
-145.436356
-143.622025
-141.957535
-137.283737
-124.693779
-99.183571
-58.958439
-9.203693
37.030865
65.120789
68.716995
52.559559
29.021055
8.771583
-8.352829
-27.499975
-47.659084
-62.598171
-68.728188
-66.818024
-56.368771
-36.322617
-12.363715
6.726752
17.008144
19.493376
18.528513
16.042274
9.652322
0.958840
-3.411883
2.291330
18.530340
42.343346
73.818016
110.981163
147.677475
183.086090
217.475113
245.799942
264.321899
273.164673
274.622192
272.710602
271.339844
271.920868
269.337372
254.301575
225.371933
191.577789
158.647507
120.650635
72.870697
23.845188
-17.969599
-56.096127
-91.724701
-115.766472
-124.415970
-126.125359
-128.686035
-130.216736
-124.852798
-110.783905
-92.198708
-77.389793
-72.948051
-79.056816
-93.617645
-115.983665
-142.374222
-164.415863
-177.228378
-184.705231
-193.067322
-201.440063
-201.156952
-186.251465
-160.956665
-131.792099
-102.662308
-80.740067
-73.858093
-82.317642
-98.595779
-113.955559
-125.257446
-134.481644
-143.773499
-153.143295
-162.625732
-175.737106
-195.238464
-215.039169
-221.776047
-205.647949
-168.689926
-120.430725
-68.188919
-15.120869
36.058491
79.695808
109.970444
126.883736
133.141357
130.300323
124.205284
124.503311
134.669861
149.281723
160.582230
163.297058
154.725784
134.537949
105.613174
73.653206
46.434559
31.536892
29.745956
34.088268
39.086414
45.286434
54.206089
61.185734
56.061169
37.085712
15.367484
0.306403
-7.290193
-9.546145
-6.120438
5.512081
23.764708
41.885822
53.823833
59.218075
64.750008
78.121353
98.903130
116.355019
120.126015
