EVENT_NAME: L_AQUILA
EVENT_ID: IT-2009-0009
EVENT_DATE_YYYYMMDD: 20090406
EVENT_TIME_HHMMSS: 013240
EVENT_LATITUDE_DEGREE: 42.3420
EVENT_LONGITUDE_DEGREE: 13.3800
EVENT_DEPTH_KM: 8.3
HYPOCENTER_REFERENCE: INGV-CNT_Seismic_Bulletin
MAGNITUDE_W: 6.1
MAGNITUDE_W_REFERENCE: INGV-CNT_Seismic_Bulletin
MAGNITUDE_L: 
MAGNITUDE_L_REFERENCE: 
FOCAL_MECHANISM: Normal faulting
NETWORK: IT
STATION_CODE: AQV
STATION_NAME: 
STATION_LATITUDE_DEGREE: 42.377222
STATION_LONGITUDE_DEGREE: 13.343888
STATION_ELEVATION_M: 692
LOCATION: 
SENSOR_DEPTH_M: 0.0
VS30_M/S: 474
SITE_CLASSIFICATION_EC8: B
MORPHOLOGIC_CLASSIFICATION: 
EPICENTRAL_DISTANCE_KM: 4.9
EARTHQUAKE_BACKAZIMUTH_DEGREE: 322.8
DATE_TIME_FIRST_SAMPLE_YYYYMMDD_HHMMSS: 20090406_013212.000
DATE_TIME_FIRST_SAMPLE_PRECISION: seconds
SAMPLING_INTERVAL_S: 0.005000
NDATA: 20001
DURATION_S: 100.005
STREAM: HNZ
UNITS: cm/s^2
INSTRUMENT: sensor = FBA-3 [Kinemetrics] | digitizer = Etna [Kinemetrics]
INSTRUMENT_ANALOG/DIGITAL: D
INSTRUMENTAL_FREQUENCY_HZ: 208.000
INSTRUMENTAL_DAMPING: 0.700000
FULL_SCALE_G: 1.0
N_BIT_DIGITAL_CONVERTER: 18
PGA_CM/S^2: 486.651398
TIME_PGA_S: 32.155000
BASELINE_CORRECTION: BASELINE REMOVED
FILTER_TYPE: BUTTERWORTH
FILTER_ORDER: 2
LOW_CUT_FREQUENCY_HZ: 0.100
HIGH_CUT_FREQUENCY_HZ: 40.000
LATE/NORMAL_TRIGGERED: NT
DATABASE_VERSION: 0.5
HEADER_FORMAT: DYNA 1.2
DATA_TYPE: ACCELERATION
PROCESSING: manual (Paolucci et al., 2011)
DATA_TIMESTAMP_YYYYMMDD_HHMMSS: 20211011_155632.029
DATA_LICENSE: CC-BY3_0-IT (http://creativecommons.org/licenses/by/3.0/deed.en)
DATA_CITATION: Luzi L, Pacor F, Puglia R (2019). Italian Accelerometric Archive v 3.0 - Istituto Nazionale di Geofisica e Vulcanologia, Dipartimento della Protezione Civile Nazionale. doi: 10.13127/itaca.3.1
DATA_CREATOR: ITACA working group
ORIGINAL_DATA_MEDIATOR_CITATION: data obtained within the DPC-INGV data exchange agreements
ORIGINAL_DATA_MEDIATOR: Archive of Italian Department of Civil Protection
ORIGINAL_DATA_CREATOR_CITATION: Presidency Of Counsil Of Ministers-Civil Protection Department. (1972). Italian Strong Motion Network. Presidency of Counsil of Ministers - Civil Protection Department. https://doi.org/10.7914/SN/IT http://www.fdsn.org/networks/detail/IT/
ORIGINAL_DATA_CREATOR: network: IT (Italian Strong Motion Network (RAN)); owner: Presidency of Counsil of Ministers - Civil Protection Department (PCM - DPC)
USER1: 
USER2: 
USER3: 
USER4: 
USER5: 
[...]
0.008166
0.008953
0.007972
0.007391
0.008197
0.009501
0.010213
0.010150
0.010055
0.010299
0.010401
0.009914
0.009093
0.008801
0.009056
0.008790
0.007822
0.007585
0.009187
0.011339
0.011858
0.010353
0.008216
0.007365
0.008417
0.009938
0.010786
0.011605
0.012246
0.011280
0.009206
0.007950
0.008319
0.009717
0.010874
0.011494
0.012171
0.013051
0.014091
0.014788
0.014217
0.012473
0.010940
0.010823
0.011677
0.012558
0.013780
0.015071
0.015097
0.014355
0.014554
0.015920
0.017003
0.016065
0.013479
0.011939
0.012655
0.013865
0.014398
0.015320
0.016636
0.016370
0.014409
0.013264
0.014007
0.015031
0.015109
0.014625
0.014293
0.014935
0.016802
0.018448
0.018570
0.017505
0.016184
0.015685
0.016393
0.017104
0.016614
0.015602
0.015752
0.016900
0.017491
0.017887
0.019040
0.020053
0.020134
0.019138
0.016964
0.014929
0.014657
0.016051
0.017983
0.018817
0.017531
0.015785
0.016087
0.018046
0.019317
0.019382
0.019545
0.020034
0.019856
0.018599
0.016816
0.015715
0.016476
0.018822
0.021110
0.022424
0.023604
0.025303
0.026022
0.024229
0.021180
0.019343
0.019705
0.021421
0.022917
0.023526
0.023248
0.021838
0.020174
0.020186
0.021879
0.023259
0.024208
0.026099
0.027486
0.025988
0.022883
0.021251
0.021728
0.022738
0.023702
0.025080
0.026163
0.026345
0.026282
0.026173
0.025987
0.026305
0.027351
0.028471
0.028653
0.027562
0.026113
0.025679
0.026376
0.026911
0.026867
0.027468
0.029274
0.030713
0.030319
0.028933
0.028113
0.028247
0.029017
0.029879
0.029892
0.028743
0.027882
0.028623
0.029789
0.029662
0.028726
0.028952
0.031324
0.033843
0.033579
0.030954
0.028653
0.028134
0.029436
0.031388
0.031987
0.031005
0.030755
0.032181
0.032982
0.031702
0.030238
0.030733
0.032576
0.033945
0.034541
0.034589
0.033823
0.033070
0.033159
0.033222
0.032691
0.032442
0.033428
0.035501
0.037234
0.037445
0.036759
0.036188
0.035760
0.035771
0.036583
0.037444
0.037565
0.036787
0.035697
0.035721
0.037229
0.038709
0.039198
0.039396
0.039526
0.039028
0.038306
0.038092
0.038609
0.039831
0.041229
0.041821
0.040715
0.038299
0.036481
0.036205
0.036457
0.036804
0.038313
0.040935
0.042250
0.040735
0.038713
0.039129
0.041029
0.041645
0.041301
0.042235
0.044012
0.044639
0.044206
0.043974
0.043959
0.043402
0.042699
0.042716
0.042584
0.041059
0.039600
0.040964
0.044762
0.047832
0.048711
0.048186
0.046621
0.043946
0.041258
0.040391
0.041892
0.044162
0.045524
0.046300
0.047417
0.048164
0.047391
0.046144
0.045824
0.045746
0.045675
0.046893
0.049194
0.050212
0.049211
0.048684
0.049982
0.051163
0.050738
0.049873
0.050009
0.050920
0.051601
0.051202
0.049728
0.048406
0.048709
0.050682
0.051933
0.050905
0.049782
0.050668
0.052691
0.054115
0.054514
0.054406
0.053809
0.052559
0.051372
0.051610
0.052999
0.053215
0.052116
0.051883
0.052614
0.052743
0.052313
0.052543
0.053220
0.053327
0.053250
0.054284
0.056447
0.057751
0.057323
0.056512
0.055699
0.055027
0.055904
0.058051
0.059297
0.058869
0.058090
0.058302
0.058968
0.058844
0.058595
0.059576
0.061347
0.062714
0.063568
0.064378
0.064773
0.064152
0.063511
0.064073
0.064828
0.064855
0.064983
0.064978
0.063849
0.062437
0.062304
0.063742
0.065769
0.066703
0.065395
0.062929
0.061815
0.063018
0.065242
0.066827
0.066923
0.066149
0.066156
0.066602
0.065486
0.063420
0.063350
0.065961
0.068188
0.067632
0.066286
0.066684
0.067565
0.067192
0.067193
0.068872
0.070001
0.069495
0.069424
0.070611
0.072188
0.073534
0.073533
0.071691
0.070100
0.070842
0.072798
0.073550
0.072234
0.069447
0.067061
0.067365
0.070139
0.072550
0.072934
0.072192
0.071957
0.073110
0.074710
0.075444
0.075800
0.076311
0.076875
0.078060
0.079642
0.079905
0.078127
0.076159
0.076007
0.077044
0.077702
0.077769
0.077776
0.078217
0.079302
0.080353
0.080053
0.078567
0.078225
0.080082
0.082242
0.083188
0.083371
0.082711
0.080747
0.079205
0.080159
0.082639
0.083942
0.083197
0.082161
0.082614
0.084208
0.085679
0.086398
0.086421
0.086646
0.087678
0.088612
0.088839
0.088717
0.088169
0.087659
0.088068
0.088919
0.089574
0.089643
0.088478
0.087087
0.087143
0.088293
0.089562
0.090633
0.091429
0.092104
0.091669
0.088823
0.085440
0.084884
0.087508
0.090473
0.091544
0.091560
0.091835
0.092360
0.092870
0.092845
0.092711
0.093777
0.095757
0.097414
0.098081
0.097893
0.097611
0.097539
0.097662
0.097867
0.097560
0.096951
0.096686
0.096299
0.095743
0.096097
0.097442
0.098260
0.097881
0.097914
0.099247
0.100196
0.099290
0.097287
0.096168
0.096958
0.098992
0.100883
0.101686
0.101836
0.102063
0.102273
0.102769
0.103976
0.104518
0.102947
0.101143
0.101437
0.102746
0.103790
0.105068
0.106328
0.106868
0.106978
0.107219
0.107397
0.106960
0.106787
0.107989
0.109541
0.110143
0.109855
0.109363
0.109010
0.108718
0.109129
0.110675
0.112153
0.112520
0.112393
0.112358
0.112026
0.111529
0.111468
0.111502
0.110799
0.109657
0.109241
0.110057
0.111851
0.113752
0.114797
0.114543
0.113012
0.111576
0.112020
0.113795
0.114959
0.115235
0.115610
0.116428
0.117169
0.116398
0.114439
0.114769
0.118072
0.120673
0.120748
0.119899
0.119160
0.117357
0.114499
0.113750
0.117119
0.121727
0.123253
0.121695
0.120558
0.120899
0.120846
0.120673
0.122213
0.124262
0.124673
0.124306
0.124631
0.125342
0.125903
0.125915
0.124439
0.121764
0.120321
0.121581
0.123745
0.124582
0.125080
0.127281
0.130087
0.130965
0.129927
0.129126
0.129227
0.128561
0.126810
0.125962
0.126905
0.128713
0.130449
0.131331
0.131114
0.130928
0.131326
0.131381
0.131114
0.131797
0.133773
0.135495
0.135226
0.133493
0.132510
0.133638
0.135955
0.137576
0.138327
0.138873
0.138657
0.137930
0.138492
0.140210
0.140595
0.138778
0.137078
0.137305
0.137992
0.137503
0.137254
0.139393
0.142380
0.142616
0.140767
0.140517
0.141845
0.141842
0.140514
0.140596
0.141998
0.141798
0.140214
0.140630
0.143586
0.145486
0.144364
0.142821
0.143151
0.144705
0.146170
0.146695
0.146526
0.146341
0.146116
0.146024
0.146320
0.146821
0.147634
0.148815
0.149806
0.150327
0.150640
0.150716
0.150282
0.149293
0.148509
0.149372
0.151890
0.153724
0.153501
0.152686
0.151890
0.150409
0.149690
0.151188
0.153238
0.153631
0.152548
0.151494
0.151592
0.153449
0.156015
0.157249
0.157243
0.157337
0.157706
0.157883
0.157713
0.157305
0.156567
0.155803
0.156009
0.157037
0.157642
0.157722
0.158311
0.159545
0.160145
0.159559
0.158958
0.159282
0.160401
0.161770
0.162524
0.162429
0.162642
0.163699
0.163875
0.162144
0.160696
0.161620
0.163592
0.163887
0.162748
0.163070
0.165328
0.167119
0.167337
0.167079
0.167198
0.167065
0.166218
0.165635
0.166031
0.166567
0.166606
0.166594
0.166545
0.166558
0.167270
0.167891
0.167339
0.166795
0.168088
0.170708
0.172165
0.171591
0.170959
0.171392
0.171760
0.171706
0.172191
0.173477
0.174694
0.174675
0.173799
0.173873
0.174902
0.175045
0.173920
0.173189
0.173777
0.174476
0.174599
0.175346
0.176692
0.176771
0.175532
0.174601
0.174437
0.175024
0.176411
0.177751
0.178320
0.178532
0.178857
0.178663
0.177885
0.178046
0.179082
0.179079
0.177889
0.177265
0.178402
0.180217
0.180095
0.177691
0.176014
0.177478
0.181153
0.184078
0.184130
0.182311
0.181373
0.181497
0.180732
0.179060
0.177927
0.178330
0.180599
0.183423
0.184738
0.184534
0.184901
0.186557
0.187409
0.186202
0.184749
0.185012
0.186420
0.187624
0.188627
0.189449
0.189250
0.187674
0.185689
0.185039
0.186385
0.188113
0.188609
0.188586
0.188860
0.188625
0.187843
0.187780
0.188536
0.189299
0.190283
0.191792
0.192717
0.191747
0.189831
0.189592
0.191352
0.192873
0.193061
0.192284
0.190952
0.190445
0.192246
0.194753
0.194704
0.192285
0.190777
0.191821
0.194690
0.197570
0.198334
0.197420
0.197041
0.196937
0.196207
0.196014
0.196568
0.195874
0.193822
0.193422
0.195278
0.196352
0.196058
0.196752
0.198609
0.199689
0.199445
0.198548
0.197424
0.196710
0.196807
0.197483
0.198204
0.197844
0.196374
0.195547
0.196060
0.197114
0.198384
0.199856
0.200620
0.199691
0.197877
0.197365
0.198736
0.200005
0.200186
0.200616
0.201634
0.201910
0.200907
0.199699
0.199509
0.200430
0.201833
0.203120
0.203713
0.203300
0.202751
0.203312
0.204700
0.205661
0.205931
0.206176
0.206074
0.204743
0.203293
0.203553
0.204734
0.204912
0.204270
0.204048
0.204357
0.204373
0.203725
0.203204
0.203559
0.204577
0.205794
0.207160
0.208597
0.209593
0.209855
0.209026
0.206771
0.204163
0.202480
0.202009
0.203153
0.205479
0.206725
0.205453
0.203359
0.202991
0.203891
0.204209
0.204556
0.206085
0.207376
0.206563
0.204644
0.204045
0.205383
0.207356
0.208283
0.208125
0.208272
0.208497
0.207727
0.206827
0.207244
0.208727
0.209848
0.209805
0.208922
0.207717
0.206550
0.206155
0.207274
0.209380
0.210713
0.209984
0.207795
0.206122
0.205848
0.206026
0.206237
0.207272
0.209282
0.210769
0.210101
0.208096
0.207019
0.207464
0.208330
0.208466
0.207608
0.206559
0.206169
0.206066
0.205665
0.205508
0.206398
0.208242
0.209457
0.208347
0.205980
0.205255
0.206672
0.208153
0.208971
0.209782
0.210160
0.209750
0.209269
0.209173
0.209117
0.208128
0.206078
0.204930
0.205814
0.207048
0.207411
0.207851
0.208727
0.208665
0.207542
0.207489
0.208988
0.209561
0.207912
0.206006
0.206280
0.208552
0.210318
0.209790
0.208012
0.207239
0.208089
0.209849
0.210817
0.208429
0.203616
0.200900
0.201830
0.203960
0.204286
0.200513
0.193113
0.185859
0.180138
0.172157
0.159154
0.142375
0.113432
0.015575
-0.290254
-0.957439
-1.984207
-3.158805
-4.226984
-5.043808
-5.503014
-5.332129
-3.963525
-0.717653
4.610051
10.954051
15.518075
14.809761
7.561793
-3.212151
-12.279565
-16.481203
-16.102058
-12.521298
-6.393430
1.438576
8.888178
13.517740
14.085084
11.080670
6.188231
1.434362
-1.545816
-2.208811
-1.504582
-1.538230
-4.529975
-11.087686
-18.251238
-19.743204
-10.569326
7.129815
23.936617
30.336708
23.951263
10.299782
-1.836298
-6.510453
-4.237715
0.223948
3.257014
3.972125
2.077356
-2.168838
-6.759383
-9.877762
-11.721394
-11.944564
-7.621202
3.088078
16.529156
25.414452
24.778479
15.548377
3.570517
-5.208132
-10.029818
-14.470691
-19.472240
-20.472832
-13.573341
-1.514718
8.862527
12.824701
10.290606
4.985925
2.137767
4.531289
9.354709
10.107364
2.712293
-10.057356
-19.846428
-18.969259
-7.113732
7.735007
15.923635
13.594807
3.551511
-8.705325
-17.809248
-19.804663
-13.871032
-3.316992
5.875188
8.302837
2.312645
-8.512518
-16.629297
-14.863199
-1.888068
15.614381
27.316017
27.042524
16.786978
3.900154
-4.882290
-7.390035
-5.470050
-1.975296
0.436688
-1.130409
-8.174456
-17.772919
-22.993795
-18.411024
-5.705653
7.577633
15.592808
18.924589
20.307894
18.140896
8.743221
-5.860723
-17.618217
-20.278715
-13.928574
-2.438312
8.995903
13.450366
5.337212
-12.452938
-27.696014
-28.554621
-14.340622
2.489260
5.130150
-12.718763
-39.133480
-54.611122
-51.162193
-37.058895
-22.897610
-9.577852
6.362707
21.100124
24.319180
11.747311
-8.156414
-22.674231
-25.827234
-17.521931
1.765453
28.003658
49.213726
52.293381
35.665451
11.836948
-4.481531
-9.351241
-8.415749
-5.830257
-2.267650
-2.482015
-11.754540
-22.593031
-19.570408
-3.074447
4.866245
-12.489147
-41.970421
-52.372803
-29.100632
9.461092
32.494167
30.166269
20.280895
22.208647
35.052414
46.616219
52.156540
53.901421
49.935715
34.223892
5.761497
-25.190516
-40.387894
-29.760197
-6.124021
5.823765
-3.172950
-20.662037
-31.862900
-31.730526
-20.496227
-4.073393
2.657672
-11.425277
-38.271759
-57.362358
-55.975555
-38.200626
-16.583979
0.461702
12.657488
21.838182
25.620541
21.356642
12.084393
-0.440102
-22.965258
-58.688663
-93.251541
-106.234879
-91.019409
-51.039856
9.892175
75.423164
111.980911
99.895775
58.539131
21.663116
-2.865748
-30.221285
-64.569183
-89.582520
-88.232788
-55.792366
0.892414
63.404758
103.994522
100.470985
55.143181
-4.015487
-45.575134
-58.906357
-55.884438
-51.267990
-46.094898
-29.940159
3.809235
43.318844
59.943493
33.923729
-18.639566
-55.328365
-48.756657
-8.028979
41.255848
83.588799
118.656410
149.776291
169.565598
157.580429
98.002594
3.313250
-86.133232
-133.422180
-131.352753
-95.052544
-42.406372
7.280632
30.188597
18.154787
-0.625976
13.970710
64.005188
108.782616
114.572906
86.623573
46.611824
2.292771
-50.097820
-106.525978
-145.541595
-138.322433
-76.164650
9.905122
69.904266
81.332947
64.066742
45.237617
23.983147
-19.076294
-85.339478
-139.843689
-131.109634
-35.402134
110.756912
226.027115
243.915924
159.385681
14.909382
-144.320328
-284.294250
-364.064667
-336.765778
-188.380234
29.583624
221.192001
306.850342
265.204803
130.662521
-31.379852
-155.462463
-207.678146
-192.805893
-126.738472
-16.915813
119.038635
233.797546
270.080902
201.964279
53.528984
-114.851440
-225.956863
-205.789001
-27.425144
239.990433
451.429596
486.651398
331.958557
74.358879
-163.703552
-295.012268
-303.889496
-239.047943
-174.957565
-157.577393
-172.113968
-168.507401
-118.928818
-38.801640
44.713757
121.675568
194.884476
265.483917
322.488098
337.833862
281.641724
153.918304
-0.915699
-121.413620
-175.560455
-177.307007
-163.487320
-162.955124
-183.254959
-211.331558
-217.592758
-171.473785
-70.461601
45.341553
119.992012
130.393738
102.254044
76.757736
71.701202
75.974236
69.369377
40.512463
-11.353874
-85.704582
-181.075348
-279.188873
-337.076843
-307.893036
-175.318390
25.087072
207.660309
273.750244
183.418243
-0.986712
-158.512558
-200.462143
-120.345062
25.637444
160.602631
214.731674
153.681747
2.467609
-167.391724
-281.078644
-298.014435
-223.382675
-98.065704
25.136431
106.427567
128.131882
97.079735
42.189289
-9.822289
-54.182739
-91.168282
-101.140411
-57.642776
28.900824
102.977303
115.682724
68.346283
-0.597614
-52.658291
-69.525009
-55.161533
-27.887672
-3.628314
14.457221
27.421850
30.687027
19.017214
-2.776615
-18.694653
-14.933089
7.489046
35.010105
51.544216
50.243290
37.863071
22.219219
-0.286785
-39.097965
-92.933846
-141.574814
-153.934753
-106.881233
-7.070823
104.552391
177.119583
184.403305
141.162476
84.448135
41.959335
20.264061
11.945235
9.060219
11.962868
27.297070
57.086578
86.781425
91.338913
58.871143
2.923150
-48.537098
-73.915359
-72.666786
-63.066883
-62.174854
-66.345100
-57.211639
-24.298782
25.377581
74.185165
105.895546
112.422691
92.888351
54.327827
11.157027
-20.747604
-28.516785
-6.046361
40.053432
84.839005
91.602341
43.082123
-32.642002
-85.173775
-90.816902
-70.282555
-56.961895
-50.493130
-15.383252
67.598724
163.159012
207.232269
170.224884
85.426872
9.475182
-33.593857
-59.575573
-90.142746
-128.804504
-165.842529
-190.530533
-192.471100
-160.351196
-91.806168
-7.569729
53.974190
65.006744
29.498489
-22.143410
-55.617493
-50.735806
-3.202934
77.578362
167.242264
230.996521
238.533447
183.366821
88.443352
-8.565203
-74.148705
-91.773819
-65.052475
-9.528727
58.903183
128.781677
189.072632
224.393692
220.567215
180.627762
130.342590
99.180046
97.890366
115.265518
130.808319
128.364197
99.328850
42.373428
-29.445261
-85.725578
-94.718452
-48.869972
25.389519
85.094757
100.599640
73.513832
30.138229
0.523945
2.558522
36.790359
87.710365
131.849686
150.731262
138.419617
101.406754
54.962318
14.349966
-15.387114
-40.610828
-68.755501
-98.769043
-125.137856
-147.258118
-169.200424
-192.263550
-211.169510
-217.501297
-206.563812
-182.403305
-155.032394
-131.184479
-109.907249
-86.703598
-60.384357
-35.301208
-18.366146
-17.152815
-34.366978
-60.487499
-79.659897
-82.233788
-69.253738
-49.576710
-32.505173
-21.008308
-12.484087
-5.069717
-1.516914
-6.105624
-19.273474
-35.304382
-44.359734
-39.776306
-22.670681
1.974783
30.850437
59.530655
74.279610
57.299637
1.782255
-81.270752
-168.075073
-235.933792
-269.872314
-262.169861
-215.343231
-138.740234
-43.911369
55.721596
145.757614
210.456207
238.512161
229.528137
191.537094
137.102936
81.227806
39.070423
19.092138
17.264923
23.310377
31.767551
44.665562
68.114571
110.669037
174.417114
246.093292
307.994873
349.718170
366.524384
356.170837
316.790466
250.524185
169.620483
88.897621
14.507834
-53.080227
-107.290543
-129.057571
-101.756493
-36.245178
27.820604
47.192871
8.154778
-63.842903
-131.748657
-171.699295
-177.524582
-158.170029
-128.623123
-103.394638
-90.913353
-88.034073
-86.029755
-78.742149
-69.068245
-68.238640
-81.587051
-104.491234
-128.165848
-140.602982
-132.839569
-106.485291
-71.947868
-40.708935
-21.552322
-20.183331
-33.006721
-52.228889
-79.695724
-116.315681
-146.802933
-148.886673
-113.358765
-57.563091
-8.511059
24.721411
43.722057
50.722202
53.552715
58.683235
66.508614
76.535812
90.731697
111.043274
134.495087
149.638184
136.600174
86.253830
17.404173
-37.159348
-52.167057
-21.724911
41.891399
117.316628
177.997986
201.121170
178.931824
121.501320
53.731510
2.433655
-17.820601
-7.890843
19.262020
45.731216
55.980827
41.851002
6.909588
-33.228592
-58.136742
-55.282284
-26.235044
19.728266
71.594170
114.971603
131.159958
104.976006
40.051254
-35.958088
-91.422287
-114.074181
-110.102455
-90.958954
-65.966827
-40.583740
-17.664619
1.490527
16.943401
27.823408
32.785862
34.824829
37.488808
36.963497
27.372284
9.782542
-9.634164
-26.964104
-43.434479
-59.241348
-67.346092
-60.312141
-40.213497
-15.365068
10.709384
39.197170
62.151619
63.975594
41.570965
9.174393
-15.651678
-24.272993
-14.515066
15.954461
59.477619
91.053032
86.194199
40.322540
-30.076920
-98.405510
-144.604370
-165.883698
-169.364151
-157.714355
-129.672394
-90.175392
-48.779507
-11.983326
18.084780
41.678623
58.563423
67.569435
67.118355
56.210461
38.829842
21.929461
7.337584
-10.425155
-38.120117
-74.273453
-108.605133
-129.645584
-129.085068
-105.597984
-65.956001
-20.947647
18.257196
44.477829
55.342937
48.527317
20.921301
-25.183537
-75.809532
-110.527191
-117.422302
-99.841560
-70.629822
-41.500538
-15.103916
9.077171
23.874008
18.519581
-8.637161
-46.870270
-83.349625
-111.460487
-130.031265
-143.886459
-158.957809
-172.126831
-173.821716
-158.689011
-129.001663
-88.674355
-39.711765
10.855943
48.417530
63.925697
65.056473
66.456078
72.877640
75.839165
62.672119
30.486408
-9.604735
-43.905167
-65.169098
-71.696533
-61.218906
-28.868546
