EVENT_NAME: L_AQUILA
EVENT_ID: IT-2009-0009
EVENT_DATE_YYYYMMDD: 20090406
EVENT_TIME_HHMMSS: 013240
EVENT_LATITUDE_DEGREE: 42.3420
EVENT_LONGITUDE_DEGREE: 13.3800
EVENT_DEPTH_KM: 8.3
HYPOCENTER_REFERENCE: INGV-CNT_Seismic_Bulletin
MAGNITUDE_W: 6.1
MAGNITUDE_W_REFERENCE: INGV-CNT_Seismic_Bulletin
MAGNITUDE_L: 
MAGNITUDE_L_REFERENCE: 
FOCAL_MECHANISM: Normal faulting
NETWORK: IT
STATION_CODE: AQV
STATION_NAME: 
STATION_LATITUDE_DEGREE: 42.377222
STATION_LONGITUDE_DEGREE: 13.343888
STATION_ELEVATION_M: 692
LOCATION: 
SENSOR_DEPTH_M: 0.0
VS30_M/S: 474
SITE_CLASSIFICATION_EC8: B
MORPHOLOGIC_CLASSIFICATION: 
EPICENTRAL_DISTANCE_KM: 4.9
EARTHQUAKE_BACKAZIMUTH_DEGREE: 322.8
DATE_TIME_FIRST_SAMPLE_YYYYMMDD_HHMMSS: 
DATE_TIME_FIRST_SAMPLE_PRECISION: 
SAMPLING_INTERVAL_S: 
NDATA: 105
DURATION_S: 
STREAM: HNZ
UNITS: cm/s^2
INSTRUMENT: sensor = FBA-3 [Kinemetrics] | digitizer = Etna [Kinemetrics]
INSTRUMENT_ANALOG/DIGITAL: D
INSTRUMENTAL_FREQUENCY_HZ: 208.000
INSTRUMENTAL_DAMPING: 0.700000
FULL_SCALE_G: 1.0
N_BIT_DIGITAL_CONVERTER: 18
PGA_CM/S^2: 486.651391
TIME_PGA_S: 
BASELINE_CORRECTION: BASELINE REMOVED
FILTER_TYPE: BUTTERWORTH
FILTER_ORDER: 2
LOW_CUT_FREQUENCY_HZ: 0.100
HIGH_CUT_FREQUENCY_HZ: 40.000
LATE/NORMAL_TRIGGERED: NT
DATABASE_VERSION: 0.5
HEADER_FORMAT: DYNA 1.2
DATA_TYPE: ACCELERATION RESPONSE SPECTRUM
PROCESSING: manual (Paolucci et al., 2011)
DATA_TIMESTAMP_YYYYMMDD_HHMMSS: 20211011_155633.037
DATA_LICENSE: CC-BY3_0-IT (http://creativecommons.org/licenses/by/3.0/deed.en)
DATA_CITATION: Luzi L, Pacor F, Puglia R (2019). Italian Accelerometric Archive v 3.0 - Istituto Nazionale di Geofisica e Vulcanologia, Dipartimento della Protezione Civile Nazionale. doi: 10.13127/itaca.3.1
DATA_CREATOR: ITACA working group
ORIGINAL_DATA_MEDIATOR_CITATION: data obtained within the DPC-INGV data exchange agreements
ORIGINAL_DATA_MEDIATOR: Archive of Italian Department of Civil Protection
ORIGINAL_DATA_CREATOR_CITATION: Presidency Of Counsil Of Ministers-Civil Protection Department. (1972). Italian Strong Motion Network. Presidency of Counsil of Ministers - Civil Protection Department. https://doi.org/10.7914/SN/IT http://www.fdsn.org/networks/detail/IT/
ORIGINAL_DATA_CREATOR: network: IT (Italian Strong Motion Network (RAN)); owner: Presidency of Counsil of Ministers - Civil Protection Department (PCM - DPC)
USER1: 
USER2: 
USER3: 
USER4: 
USER5: 
    0.010000   504.402832
    0.020000   613.933960
    0.022000   640.704346
    0.025000   703.900513
    0.029000   872.758545
    0.030000   929.116577
    0.032000   977.760925
    0.035001  1088.900879
    0.036000  1172.480591
    0.040000  1429.986206
    0.041999  1574.947876
    0.044001  1563.066650
    0.045000  1740.621338
    0.046000  1920.733154
    0.048001  2229.622314
    0.050000  2252.190430
    0.054999  1651.034180
    0.059999  1241.802612
    0.064998   880.805298
    0.067002   984.762268
    0.069999  1019.500488
    0.075002  1002.411865
    0.080000  1126.735596
    0.084998  1392.489380
    0.090001  1446.426758
    0.095003  1229.731445
    0.100000  1014.504883
    0.109999   920.563965
    0.120005   721.538635
    0.130005   584.382080
    0.132996   549.085449
    0.139997   462.340027
    0.149993   473.457794
    0.160000   591.684204
    0.170010   598.482666
    0.179986   659.787170
    0.190006   618.955994
    0.200000   558.938110
    0.220022   563.757507
    0.239981   552.454407
    0.250000   518.027405
    0.260010   474.462158
    0.280034   424.110535
    0.290023   391.661682
    0.300030   361.639862
    0.320000   363.698822
    0.340020   466.441376
    0.350017   509.590393
    0.359971   527.663879
    0.379939   516.401855
    0.400000   523.677185
    0.419992   539.398926
    0.439947   529.174072
    0.450045   510.418030
    0.459982   481.490845
    0.480077   421.361877
    0.500000   372.238220
    0.550055   262.636658
    0.599880   183.336777
    0.650195   144.339142
    0.667111   138.089447
    0.699790   129.452621
    0.750188   116.721634
    0.800000   123.139404
    0.850340   125.694344
    0.900090   146.542877
    0.949668   170.200195
    1.000000   165.238602
    1.100110   118.246071
    1.200480   100.039040
    1.300390    87.208389
    1.400560    88.861465
    1.499250    76.278954
    1.600000    52.457123
    1.700680    49.271080
    1.798561    45.040497
    1.901141    39.015324
    2.000000    35.414097
    2.197802    38.246052
    2.398082    34.717564
    2.500000    33.174717
    2.597403    30.806414
    2.801121    23.435619
    3.003003    18.629108
    3.205128    15.811533
    3.401361    12.748240
    3.496503    12.596206
    3.597122    12.371330
    3.802281    11.760273
    4.000000    11.009917
    4.201681    10.192806
    4.405286     9.361012
    4.608295     8.543906
    4.807692     7.763266
    5.000000     7.031112
    5.494505     5.453092
    5.988024     4.223328
    6.493506     3.311242
    6.993007     2.982607
    7.518797     2.683942
    8.000000     2.413564
    8.474576     2.171425
    9.009009     1.957569
    9.523809     1.769538
   10.000000     1.603469
