EVENT_NAME: L_AQUILA
EVENT_ID: IT-2009-0009
EVENT_DATE_YYYYMMDD: 20090406
EVENT_TIME_HHMMSS: 013240
EVENT_LATITUDE_DEGREE: 42.3420
EVENT_LONGITUDE_DEGREE: 13.3800
EVENT_DEPTH_KM: 8.3
HYPOCENTER_REFERENCE: INGV-CNT_Seismic_Bulletin
MAGNITUDE_W: 6.1
MAGNITUDE_W_REFERENCE: INGV-CNT_Seismic_Bulletin
MAGNITUDE_L: 
MAGNITUDE_L_REFERENCE: 
FOCAL_MECHANISM: Normal faulting
NETWORK: IT
STATION_CODE: AQV
STATION_NAME: 
STATION_LATITUDE_DEGREE: 42.377222
STATION_LONGITUDE_DEGREE: 13.343888
STATION_ELEVATION_M: 692
LOCATION: 
SENSOR_DEPTH_M: 0.0
VS30_M/S: 474
SITE_CLASSIFICATION_EC8: B
MORPHOLOGIC_CLASSIFICATION: 
EPICENTRAL_DISTANCE_KM: 4.9
EARTHQUAKE_BACKAZIMUTH_DEGREE: 322.8
DATE_TIME_FIRST_SAMPLE_YYYYMMDD_HHMMSS: 
DATE_TIME_FIRST_SAMPLE_PRECISION: 
SAMPLING_INTERVAL_S: 
NDATA: 105
DURATION_S: 
STREAM: HNN
UNITS: cm/s^2
INSTRUMENT: sensor = FBA-3 [Kinemetrics] | digitizer = Etna [Kinemetrics]
INSTRUMENT_ANALOG/DIGITAL: D
INSTRUMENTAL_FREQUENCY_HZ: 200.000
INSTRUMENTAL_DAMPING: 0.700000
FULL_SCALE_G: 1.0
N_BIT_DIGITAL_CONVERTER: 18
PGA_CM/S^2: -535.203104
TIME_PGA_S: 
BASELINE_CORRECTION: BASELINE REMOVED
FILTER_TYPE: BUTTERWORTH
FILTER_ORDER: 2
LOW_CUT_FREQUENCY_HZ: 0.100
HIGH_CUT_FREQUENCY_HZ: 40.000
LATE/NORMAL_TRIGGERED: NT
DATABASE_VERSION: 0.5
HEADER_FORMAT: DYNA 1.2
DATA_TYPE: ACCELERATION RESPONSE SPECTRUM
PROCESSING: manual (Paolucci et al., 2011)
DATA_TIMESTAMP_YYYYMMDD_HHMMSS: 20211011_155632.746
DATA_LICENSE: CC-BY3_0-IT (http://creativecommons.org/licenses/by/3.0/deed.en)
DATA_CITATION: Luzi L, Pacor F, Puglia R (2019). Italian Accelerometric Archive v 3.0 - Istituto Nazionale di Geofisica e Vulcanologia, Dipartimento della Protezione Civile Nazionale. doi: 10.13127/itaca.3.1
DATA_CREATOR: ITACA working group
ORIGINAL_DATA_MEDIATOR_CITATION: data obtained within the DPC-INGV data exchange agreements
ORIGINAL_DATA_MEDIATOR: Archive of Italian Department of Civil Protection
ORIGINAL_DATA_CREATOR_CITATION: Presidency Of Counsil Of Ministers-Civil Protection Department. (1972). Italian Strong Motion Network. Presidency of Counsil of Ministers - Civil Protection Department. https://doi.org/10.7914/SN/IT http://www.fdsn.org/networks/detail/IT/
ORIGINAL_DATA_CREATOR: network: IT (Italian Strong Motion Network (RAN)); owner: Presidency of Counsil of Ministers - Civil Protection Department (PCM - DPC)
USER1: 
USER2: 
USER3: 
USER4: 
USER5: 
    0.010000   537.901428
    0.020000   561.105835
    0.022000   550.820190
    0.025000   578.679871
    0.029000   587.657043
    0.030000   577.758667
    0.032000   596.296082
    0.035001   592.050659
    0.036000   615.399780
    0.040000   678.241028
    0.041999   698.386230
    0.044001   697.451782
    0.045000   716.393372
    0.046000   754.085938
    0.048001   832.480164
    0.050000   846.721130
    0.054999   940.708130
    0.059999   787.663635
    0.064998   707.681458
    0.067002   732.581543
    0.069999   740.810059
    0.075002  1054.101807
    0.080000  1143.917847
    0.084998   942.660767
    0.090001   938.660828
    0.095003  1030.739258
    0.100000  1109.494995
    0.109999  1482.025757
    0.120005  1225.400513
    0.130005  1063.534668
    0.132996   977.260559
    0.139997   865.253113
    0.149993  1305.364136
    0.160000  1424.321289
    0.170010  1200.274414
    0.179986  1389.773682
    0.190006  1514.055664
    0.200000  1295.808716
    0.220022   930.156189
    0.239981   890.501526
    0.250000   983.045959
    0.260010  1046.230469
    0.280034  1159.498535
    0.290023  1229.326294
    0.300030  1293.390503
    0.320000  1347.221313
    0.340020  1333.103394
    0.350017  1319.806152
    0.359971  1305.336060
    0.379939  1276.387817
    0.400000  1340.394775
    0.419992  1324.569458
    0.439947  1252.960083
    0.450045  1205.823242
    0.459982  1155.561401
    0.480077  1144.151367
    0.500000  1129.990723
    0.550055   905.812683
    0.599880   771.128479
    0.650195   654.898987
    0.667111   619.669373
    0.699790   550.889709
    0.750188   464.731232
    0.800000   423.736450
    0.850340   397.329193
    0.900090   375.696899
    0.949668   344.876709
    1.000000   308.615234
    1.100110   232.321228
    1.200480   189.140472
    1.300390   171.465469
    1.400560   153.119064
    1.499250   135.402359
    1.600000   118.982658
    1.700680   104.119324
    1.798561    90.902748
    1.901141    79.297348
    2.000000    69.218567
    2.197802    53.748009
    2.398082    44.178596
    2.500000    42.189655
    2.597403    40.353939
    2.801121    33.837940
    3.003003    26.379469
    3.205128    19.815538
    3.401361    16.634254
    3.496503    15.528831
    3.597122    14.614619
    3.802281    13.140305
    4.000000    11.773781
    4.201681    10.581955
    4.405286     9.799681
    4.608295     9.141554
    4.807692     8.571922
    5.000000     8.071280
    5.494505     7.065900
    5.988024     6.276550
    6.493506     5.634013
    6.993007     5.109399
    7.518797     4.662176
    8.000000     4.276000
    8.474576     3.938663
    9.009009     3.645196
    9.523809     3.393861
   10.000000     3.170938
