EVENT_NAME: L_AQUILA
EVENT_ID: IT-2009-0009
EVENT_DATE_YYYYMMDD: 20090406
EVENT_TIME_HHMMSS: 013240
EVENT_LATITUDE_DEGREE: 42.3420
EVENT_LONGITUDE_DEGREE: 13.3800
EVENT_DEPTH_KM: 8.3
HYPOCENTER_REFERENCE: INGV-CNT_Seismic_Bulletin
MAGNITUDE_W: 6.1
MAGNITUDE_W_REFERENCE: INGV-CNT_Seismic_Bulletin
MAGNITUDE_L: 
MAGNITUDE_L_REFERENCE: 
FOCAL_MECHANISM: Normal faulting
NETWORK: IT
STATION_CODE: AQV
STATION_NAME: 
STATION_LATITUDE_DEGREE: 42.377222
STATION_LONGITUDE_DEGREE: 13.343888
STATION_ELEVATION_M: 692
LOCATION: 
SENSOR_DEPTH_M: 0.0
VS30_M/S: 474
SITE_CLASSIFICATION_EC8: B
MORPHOLOGIC_CLASSIFICATION: 
EPICENTRAL_DISTANCE_KM: 4.9
EARTHQUAKE_BACKAZIMUTH_DEGREE: 322.8
DATE_TIME_FIRST_SAMPLE_YYYYMMDD_HHMMSS: 20090406_013212.000
DATE_TIME_FIRST_SAMPLE_PRECISION: seconds
SAMPLING_INTERVAL_S: 0.005000
NDATA: 112600
DURATION_S: 563.000
STREAM: HNZ
UNITS: cm/s^2
INSTRUMENT: sensor = FBA-3 [Kinemetrics] | digitizer = Etna [Kinemetrics]
INSTRUMENT_ANALOG/DIGITAL: D
INSTRUMENTAL_FREQUENCY_HZ: 208.000
INSTRUMENTAL_DAMPING: 0.700000
FULL_SCALE_G: 1.0
N_BIT_DIGITAL_CONVERTER: 18
PGA_CM/S^2: 507.737000
TIME_PGA_S: 32.155000
BASELINE_CORRECTION: BASELINE NOT REMOVED
FILTER_TYPE: 
FILTER_ORDER: 
LOW_CUT_FREQUENCY_HZ: 
HIGH_CUT_FREQUENCY_HZ: 
LATE/NORMAL_TRIGGERED: NT
DATABASE_VERSION: 0.5
HEADER_FORMAT: DYNA 1.2
DATA_TYPE: ACCELERATION
PROCESSING: converted to cm/s^2
DATA_TIMESTAMP_YYYYMMDD_HHMMSS: 20211011_155631.674
DATA_LICENSE: CC-BY3_0-IT (http://creativecommons.org/licenses/by/3.0/deed.en)
DATA_CITATION: Luzi L, Pacor F, Puglia R (2019). Italian Accelerometric Archive v 3.0 - Istituto Nazionale di Geofisica e Vulcanologia, Dipartimento della Protezione Civile Nazionale. doi: 10.13127/itaca.3.1
DATA_CREATOR: ITACA working group
ORIGINAL_DATA_MEDIATOR_CITATION: data obtained within the DPC-INGV data exchange agreements
ORIGINAL_DATA_MEDIATOR: Archive of Italian Department of Civil Protection
ORIGINAL_DATA_CREATOR_CITATION: Presidency Of Counsil Of Ministers-Civil Protection Department. (1972). Italian Strong Motion Network. Presidency of Counsil of Ministers - Civil Protection Department. https://doi.org/10.7914/SN/IT http://www.fdsn.org/networks/detail/IT/
ORIGINAL_DATA_CREATOR: network: IT (Italian Strong Motion Network (RAN)); owner: Presidency of Counsil of Ministers - Civil Protection Department (PCM - DPC)
USER1: 
USER2: 
USER3: 
USER4: 
USER5: 
[...]
-0.060247
-0.058375
-0.060013
-0.061184
-0.062354
-0.065163
-0.064694
-0.060715
-0.058843
-0.057438
-0.058843
-0.056502
-0.052054
-0.056970
-0.061886
-0.060950
-0.063524
-0.059545
-0.056970
-0.061652
-0.056502
-0.060013
-0.063056
-0.063758
-0.060950
-0.054629
-0.064226
-0.057204
-0.051820
-0.058375
-0.060950
-0.064460
-0.060950
-0.059311
-0.062822
-0.059779
-0.054395
-0.061886
-0.057438
-0.056970
-0.061652
-0.056502
-0.060481
-0.055097
-0.057204
-0.058140
-0.058843
-0.063524
-0.057204
-0.059779
-0.059077
-0.060715
-0.058375
-0.053225
-0.057906
-0.058843
-0.059311
-0.059077
-0.059077
-0.058375
-0.056970
-0.058609
-0.062822
-0.060481
-0.056034
-0.060481
-0.059545
-0.060715
-0.061418
-0.051118
-0.055566
-0.061652
-0.059545
-0.063056
-0.061418
-0.058843
-0.056502
-0.059779
-0.063992
-0.057204
-0.056034
-0.060715
-0.061886
-0.062822
-0.057204
-0.057204
-0.061184
-0.054629
-0.058609
-0.062822
-0.057672
-0.059545
-0.061184
-0.060715
-0.060950
-0.058843
-0.055097
-0.056268
-0.059545
-0.057438
-0.057204
-0.062354
-0.056502
-0.057204
-0.060013
-0.055097
-0.062588
-0.060247
-0.059077
-0.056034
-0.056736
-0.060950
-0.052523
-0.060481
-0.058843
-0.057672
-0.061184
-0.056034
-0.057906
-0.055800
-0.056034
-0.060481
-0.064226
-0.061418
-0.061184
-0.063290
-0.061886
-0.059545
-0.054161
-0.058609
-0.064460
-0.061652
-0.057906
-0.056268
-0.062822
-0.060247
-0.053225
-0.058609
-0.056736
-0.059077
-0.057438
-0.056502
-0.063056
-0.058609
-0.060013
-0.059311
-0.065865
-0.064928
-0.055566
-0.055800
-0.055331
-0.057438
-0.055331
-0.061418
-0.063056
-0.065397
-0.064694
-0.057438
-0.062120
-0.058140
-0.060950
-0.055800
-0.056268
-0.066333
-0.056736
-0.061184
-0.062354
-0.060715
-0.060013
-0.052054
-0.061418
-0.061652
-0.056502
-0.056970
-0.056502
-0.062120
-0.057438
-0.058375
-0.059545
-0.054863
-0.063524
-0.059311
-0.063290
-0.063056
-0.051118
-0.064460
-0.062120
-0.059311
-0.060950
-0.053693
-0.061418
-0.056034
-0.058140
-0.061886
-0.057438
-0.068440
-0.056034
-0.057438
-0.067035
-0.059311
-0.063290
-0.058375
-0.064694
-0.063758
-0.057906
-0.065163
-0.059311
-0.064460
-0.060247
-0.052523
-0.064460
-0.059311
-0.057672
-0.065163
-0.062120
-0.057672
-0.058140
-0.059077
-0.060013
-0.062588
-0.056502
-0.059779
-0.062822
-0.058609
-0.058375
-0.055800
-0.057672
-0.055800
-0.055331
-0.054395
-0.060247
-0.058140
-0.051118
-0.061418
-0.056268
-0.054863
-0.059311
-0.060013
-0.061418
-0.058140
-0.059077
-0.054629
-0.057672
-0.061886
-0.063290
-0.061418
-0.057672
-0.060247
-0.054629
-0.060715
-0.062822
-0.054629
-0.060950
-0.063290
-0.064694
-0.062354
-0.053927
-0.060013
-0.064460
-0.060715
-0.058140
-0.059311
-0.066567
-0.058375
-0.053693
-0.064694
-0.059545
-0.056736
-0.060013
-0.056268
-0.055097
-0.058140
-0.063524
-0.060715
-0.056034
-0.059311
-0.059077
-0.061184
-0.066801
-0.066801
-0.062120
-0.057672
-0.062822
-0.060013
-0.061886
-0.064694
-0.053927
-0.061886
-0.060481
-0.055097
-0.061184
-0.057438
-0.056034
-0.055331
-0.056502
-0.063758
-0.060715
-0.057672
-0.061652
-0.058375
-0.060950
-0.059779
-0.059311
-0.059311
-0.055331
-0.062354
-0.063056
-0.059077
-0.055566
-0.057906
-0.059311
-0.054629
-0.060247
-0.064460
-0.061418
-0.058375
-0.056970
-0.058609
-0.062354
-0.060247
-0.057438
-0.058843
-0.056502
-0.056268
-0.060013
-0.056268
-0.053459
-0.059077
-0.055800
-0.054395
-0.062354
-0.056268
-0.055331
-0.061184
-0.053693
-0.057672
-0.063758
-0.059077
-0.058375
-0.060715
-0.056034
-0.056736
-0.061184
-0.052289
-0.060715
-0.067503
-0.063524
-0.066099
-0.055331
-0.059779
-0.063758
-0.054161
-0.063524
-0.058375
-0.055331
-0.065397
-0.056268
-0.057204
-0.057672
-0.052289
-0.058609
-0.056268
-0.055097
-0.059779
-0.055800
-0.055800
-0.062120
-0.057438
-0.058375
-0.062822
-0.059545
-0.061418
-0.055800
-0.059545
-0.064226
-0.055097
-0.059545
-0.057906
-0.061418
-0.066099
-0.059077
-0.064226
-0.056268
-0.058375
-0.061652
-0.055800
-0.060481
-0.057672
-0.060950
-0.053927
-0.057204
-0.067738
-0.058609
-0.058375
-0.062354
-0.058609
-0.055331
-0.060013
-0.055331
-0.059779
-0.057672
-0.053927
-0.066333
-0.053225
-0.057672
-0.057672
-0.053693
-0.062822
-0.053927
-0.060715
-0.060013
-0.056970
-0.056268
-0.054629
-0.060715
-0.053693
-0.058843
-0.059077
-0.058375
-0.060481
-0.056502
-0.065631
-0.060013
-0.062120
-0.062588
-0.054395
-0.062120
-0.055566
-0.059545
-0.064694
-0.061184
-0.060950
-0.056034
-0.063758
-0.056970
-0.058843
-0.063056
-0.050416
-0.067035
-0.065631
-0.053459
-0.057906
-0.054863
-0.060950
-0.058375
-0.057438
-0.065631
-0.067035
-0.063524
-0.055097
-0.054161
-0.060247
-0.062822
-0.057204
-0.057438
-0.064694
-0.060247
-0.053225
-0.058843
-0.060013
-0.056502
-0.057906
-0.057906
-0.058375
-0.056502
-0.063758
-0.065865
-0.063290
-0.060481
-0.057438
-0.065865
-0.057672
-0.054629
-0.055800
-0.055566
-0.062354
-0.055800
-0.057204
-0.063524
-0.062822
-0.061184
-0.059779
-0.060481
-0.056034
-0.058375
-0.063056
-0.055566
-0.060013
-0.060715
-0.058843
-0.060715
-0.052757
-0.057906
-0.059311
-0.060247
-0.061886
-0.055097
-0.055331
-0.058140
-0.055331
-0.052523
-0.060247
-0.057438
-0.054395
-0.054161
-0.055800
-0.063992
-0.057672
-0.057672
-0.059779
-0.060481
-0.063290
-0.051352
-0.052757
-0.063524
-0.058375
-0.056502
-0.055566
-0.060481
-0.064694
-0.053693
-0.057906
-0.063524
-0.061652
-0.060247
-0.050182
-0.060481
-0.063758
-0.054863
-0.062822
-0.055097
-0.055800
-0.061652
-0.054395
-0.060481
-0.059311
-0.058140
-0.059311
-0.058375
-0.058375
-0.054395
-0.059077
-0.055097
-0.056970
-0.058375
-0.056268
-0.062120
-0.058843
-0.059311
-0.050884
-0.056970
-0.062354
-0.051118
-0.062822
-0.062822
-0.058843
-0.058140
-0.055331
-0.062822
-0.058375
-0.060950
-0.063290
-0.052289
-0.056736
-0.058609
-0.054395
-0.058375
-0.055097
-0.057438
-0.059311
-0.055566
-0.062354
-0.060481
-0.057672
-0.059077
-0.058843
-0.060247
-0.057672
-0.055566
-0.059311
-0.060715
-0.057204
-0.060481
-0.056502
-0.056034
-0.057438
-0.058140
-0.058843
-0.051118
-0.061418
-0.061418
-0.059779
-0.059077
-0.052523
-0.064226
-0.060481
-0.055097
-0.056502
-0.054863
-0.058843
-0.056034
-0.056034
-0.058609
-0.060013
-0.059779
-0.056034
-0.060950
-0.060247
-0.056034
-0.063290
-0.059779
-0.056034
-0.061418
-0.060481
-0.061652
-0.056970
-0.053225
-0.058375
-0.060247
-0.056268
-0.056034
-0.060715
-0.056268
-0.057672
-0.056736
-0.052054
-0.060950
-0.057906
-0.055097
-0.056970
-0.056970
-0.062354
-0.057906
-0.056502
-0.059545
-0.060481
-0.055566
-0.054161
-0.063290
-0.057906
-0.059311
-0.063056
-0.056502
-0.058843
-0.056502
-0.058140
-0.059545
-0.053459
-0.061418
-0.061886
-0.054161
-0.059779
-0.060013
-0.060481
-0.062822
-0.056502
-0.056736
-0.062354
-0.065163
-0.062120
-0.058843
-0.055331
-0.054161
-0.059779
-0.063056
-0.055331
-0.060715
-0.065631
-0.059779
-0.067738
-0.060950
-0.058140
-0.058140
-0.056502
-0.063758
-0.053693
-0.055800
-0.057672
-0.060481
-0.061652
-0.054161
-0.060013
-0.056268
-0.055566
-0.056502
-0.057204
-0.061184
-0.061652
-0.062120
-0.055097
-0.059077
-0.061184
-0.056736
-0.058375
-0.060715
-0.062354
-0.056970
-0.060247
-0.059545
-0.056502
-0.057438
-0.054161
-0.062354
-0.062588
-0.056034
-0.057204
-0.058843
-0.057672
-0.058375
-0.063056
-0.060715
-0.054629
-0.054395
-0.062354
-0.062822
-0.057672
-0.061418
-0.053927
-0.049948
-0.061886
-0.055331
-0.052991
-0.060715
-0.057672
-0.058843
-0.054161
-0.061652
-0.067503
-0.053927
-0.058140
-0.061418
-0.059779
-0.055800
-0.054395
-0.059779
-0.055097
-0.059311
-0.062120
-0.056736
-0.062120
-0.059077
-0.055331
-0.064928
-0.061418
-0.061184
-0.060950
-0.059545
-0.060247
-0.055097
-0.060013
-0.059545
-0.064694
-0.060247
-0.054629
-0.063758
-0.057672
-0.058375
-0.057204
-0.058375
-0.062588
-0.059311
-0.061418
-0.057438
-0.058843
-0.056736
-0.055800
-0.061652
-0.056502
-0.057672
-0.054395
-0.056268
-0.058140
-0.052757
-0.057672
-0.060013
-0.061184
-0.054161
-0.058375
-0.060247
-0.056970
-0.061418
-0.055331
-0.061418
-0.060481
-0.059077
-0.060481
-0.055566
-0.059545
-0.053693
-0.053927
-0.056970
-0.052289
-0.057672
-0.063056
-0.059545
-0.063056
-0.064226
-0.057438
-0.058375
-0.057438
-0.063992
-0.065163
-0.056268
-0.063056
-0.062120
-0.059779
-0.057438
-0.056268
-0.065631
-0.059779
-0.061418
-0.060013
-0.052991
-0.062588
-0.057906
-0.055097
-0.060013
-0.059545
-0.060481
-0.056970
-0.056268
-0.057204
-0.057906
-0.059077
-0.059545
-0.061652
-0.060247
-0.057204
-0.055800
-0.056502
-0.058843
-0.063758
-0.059779
-0.059779
-0.063290
-0.058140
-0.060950
-0.053927
-0.055566
-0.062822
-0.058375
-0.061652
-0.057438
-0.059545
-0.059077
-0.061184
-0.063524
-0.057204
-0.065163
-0.060013
-0.061886
-0.061184
-0.054629
-0.059545
-0.060950
-0.066099
-0.057906
-0.057438
-0.062120
-0.055566
-0.056502
-0.058609
-0.057906
-0.057438
-0.060247
-0.055566
-0.061418
-0.065865
-0.058843
-0.059311
-0.059545
-0.060950
-0.057672
-0.055566
-0.060247
-0.062354
-0.055566
-0.055566
-0.059077
-0.060715
-0.062354
-0.056034
-0.056034
-0.054395
-0.059779
-0.060715
-0.053459
-0.061652
-0.052523
-0.051586
-0.068206
-0.064460
-0.062120
-0.062588
-0.060481
-0.061886
-0.071483
-0.085059
-0.082250
-0.088336
-0.108467
-0.123448
-0.180562
-0.289407
-0.507566
-1.108673
-2.245580
-3.514505
-4.489899
-5.271010
-5.674089
-5.464826
-4.333068
-1.256609
3.873867
10.058150
15.617920
16.425720
8.370933
-4.700801
-14.096370
-16.751261
-15.369750
-12.940270
-7.554421
1.237470
9.015109
13.806180
14.130600
10.732990
5.971187
0.884951
-2.268987
-2.808766
-1.779301
-1.655474
-3.901433
-9.673042
-18.337130
-22.399050
-14.145760
6.925280
26.897100
32.156792
24.457100
9.495901
-4.613023
-8.731823
-3.086146
1.788718
1.949529
3.167425
3.667177
-2.283968
-9.182652
-9.836193
-9.773227
-12.185380
-10.661780
1.152032
17.925440
26.773510
25.859449
16.195150
0.965239
-8.185490
-8.834816
-11.128530
-19.904970
-24.634239
-15.048360
0.114374
9.711720
13.279040
10.854480
4.422774
-0.347927
2.463793
10.263670
12.177470
4.334528
-10.101870
-22.583031
-22.486820
-8.108947
10.438990
18.101700
12.889530
3.113120
-8.725503
-18.978260
-21.356939
-14.942790
-3.389508
6.687225
9.487474
3.401501
-8.508748
-18.483191
-18.007549
-3.736409
17.082529
30.191959
28.190840
16.035509
2.087165
-6.778694
-7.174282
-4.916386
-3.216527
0.170318
0.263012
-6.657443
-17.916491
-26.146839
-21.311291
-5.045596
10.598400
16.821310
15.498540
17.733971
21.494400
11.799210
-7.865274
-20.842680
-20.938410
-13.061760
-3.841275
7.168953
16.474640
9.747767
-13.114190
-32.062870
-32.601479
-16.885389
4.707177
12.889530
-9.116176
-45.035820
-62.404961
-51.415329
-30.685329
-21.056850
-14.609000
2.522780
23.116310
30.437731
13.339430
-13.635950
-25.222231
-22.818041
-18.014570
-3.372187
26.421930
53.504978
57.883598
36.390991
6.392523
-9.500060
-7.105464
-3.648162
-10.375970
-7.187858
5.085209
-4.537183
-30.060820
-32.866219
-1.375051
19.442720
-4.909130
-49.370911
-66.689720
-34.678669
18.781691
45.958141
29.142130
7.567818
18.096790
42.364841
50.436710
46.082432
52.012039
52.960049
35.523499
10.523260
-25.158800
-51.479931
-37.650028
2.544549
17.464550
-6.715961
-28.543070
-29.379190
-29.802401
-29.440050
-4.795602
13.817640
-7.771877
-42.564919
-64.419418
-58.494949
-34.923512
-14.595890
2.416276
8.767223
18.997040
32.188389
21.642099
4.172079
-1.678414
-12.133650
-53.707161
-105.064102
-111.582199
-81.004387
-54.171570
-6.909776
79.806213
132.817902
106.626198
42.045792
7.316186
9.316365
-19.166691
-70.723778
-94.181686
-88.709244
-58.281239
-4.324642
62.715160
112.443901
110.485100
56.121250
-12.964620
-54.910080
-58.696960
-48.290180
-48.433430
-46.903511
-34.965641
-5.677132
43.545750
73.789291
48.654461
-26.747240
-75.215698
-49.220871
-1.261525
44.646610
86.193909
113.889801
143.442307
168.382599
166.424393
112.461403
1.166311
-101.538696
-139.869598
-126.398499
-92.484650
-51.090900
7.065959
49.257671
28.480391
-18.892820
-10.026030
71.033051
132.303101
115.637802
74.403038
43.639381
6.433018
-45.049870
-101.495598
-148.349899
-155.527405
-87.650978
22.570440
90.611160
82.104141
46.714901
37.298500
32.446339
-5.856201
-77.638847
-146.882004
-151.368805
-54.577221
114.402901
253.286697
260.349213
150.223007
4.792849
-137.446396
-274.061096
-371.696899
-361.142212
-206.905899
38.346218
243.937698
318.003693
271.026306
133.765396
-40.831120
-173.639893
-210.110107
-176.660202
-131.972305
-32.228600
114.041496
242.860001
291.471710
204.990906
55.624298
-110.506897
-230.655899
-233.638504
-71.081917
256.038910
494.054810
507.737000
346.182007
57.147671
-186.060501
-308.144409
-316.799988
-229.183105
-152.000504
-141.293503
-184.765793
-192.198898
-117.012802
-25.243771
44.777691
118.024696
197.997894
254.033096
319.104614
347.549011
295.730896
167.546494
-19.324690
-136.195999
-180.080994
-174.065903
-152.322403
-164.916397
-174.980499
-207.762100
-225.937897
-186.381393
-82.556084
60.974812
140.768707
132.961594
89.615868
66.428307
72.460678
78.677032
75.053307
39.833069
-17.583170
-79.413383
-170.313507
-275.062012
-347.929993
-322.285614
-185.624100
9.689482
221.423096
318.012390
201.304199
-16.279369
-188.743195
-219.323593
-111.791199
20.642361
163.872498
241.087601
163.654297
4.558304
-181.176895
-294.051605
-302.676788
-234.024506
-85.764091
31.307329
102.268799
146.866898
95.353539
24.079060
-7.283595
-47.021961
-78.636948
-113.276199
-88.796783
38.571640
126.246902
124.728401
63.863071
-8.472935
-54.683731
-77.311142
-54.316929
-18.467510
-3.377805
7.856668
29.022511
32.988232
23.690969
0.844222
-31.617189
-13.163820
6.595467
32.085400
66.056374
44.889111
33.586761
19.958630
0.115778
-25.863131
-96.517540
-137.586594
-161.340393
-126.088097
-2.041934
104.684303
195.965195
195.028702
125.486397
86.354477
32.886871
22.028790
18.624161
5.851808
18.015091
17.876751
49.408180
94.500328
100.823700
61.776989
2.096996
-56.563358
-79.984756
-73.802582
-55.000900
-49.477180
-79.317413
-58.542240
-26.901501
21.857220
85.636108
98.992706
117.513702
97.250954
50.608990
13.045190
-22.456631
-31.625851
-9.133263
32.838650
82.350151
118.555801
51.500591
-48.475571
-97.162422
-102.909203
-52.322140
-35.702049
-59.512951
-38.134800
53.672581
176.296295
235.731903
179.120605
64.875923
-5.755782
-30.101780
-50.230671
-85.958611
-133.316803
-164.925995
-188.160599
-192.698395
-166.714996
-104.395798
-0.779094
66.218811
70.302498
33.945831
-32.994961
-57.810520
-48.654869
-13.263060
79.378090
163.499802
237.479706
254.034103
180.099304
90.770798
-14.286910
-81.408173
-92.616898
-66.180832
-4.186771
57.054970
127.967796
186.378403
227.244095
234.781296
179.901703
121.178902
94.895683
93.520020
119.576599
135.165405
124.142097
105.115196
49.171299
-26.710489
-92.653648
-108.856598
-51.751461
28.360781
97.348557
108.547897
71.616364
26.721310
-4.217669
0.028234
31.643690
91.283417
137.162292
150.593307
143.639893
101.424797
50.860390
11.018330
-17.778391
-33.689232
-66.542480
-103.867798
-125.504303
-146.884094
-165.337296
-191.613205
-212.551300
-218.332306
-212.440094
-178.003098
-151.806503
-132.317093
-107.028000
-94.282112
-56.205688
-35.122238
-24.348431
-4.603426
-35.119671
-63.992691
-81.115578
-85.248657
-69.715851
-45.926949
-30.222561
-22.535749
-12.528770
-9.598840
5.637394
-9.854685
-13.806120
-35.157120
-53.313919
-32.260899
-30.667780
13.097630
21.609800
52.254539
90.278770
48.932301
17.294840
-85.798500
-179.110306
-220.750305
-286.901093
-258.925995
-208.639694
-152.657593
-28.751400
44.657841
146.542007
223.279297
227.903000
242.061996
183.062698
141.839798
83.232620
26.296700
26.040850
11.188740
35.255951
25.228840
45.668121
78.534477
88.543800
182.458801
251.363007
302.959686
355.948395
363.835785
353.737000
324.239502
254.402695
158.689804
92.210373
14.187250
-50.303001
-94.392357
-151.324997
-105.900497
-35.446442
25.158621
80.451103
-1.781173
-73.480957
-122.213699
-191.511398
-167.814301
-157.694702
-137.726593
-84.796661
-98.797897
-89.224426
-77.908043
-98.868134
-55.552151
-61.314400
-95.461861
-87.534409
-137.785095
-141.970901
-132.293701
-114.421097
-57.521671
-53.340370
-15.145970
-7.737000
-50.825691
-52.640011
-61.160610
-124.662804
-145.258896
-151.304901
-142.139206
-18.254499
-17.164881
7.403731
75.810066
24.606670
64.608833
56.518242
60.890072
92.460587
69.057213
128.652695
120.145897
143.166595
170.261307
69.061432
25.164240
-41.999390
-69.103737
-5.099199
27.060020
120.141701
189.583603
194.720596
192.425003
120.187599
45.228291
4.573519
-25.493299
-7.274232
22.253269
43.257599
63.202740
42.471581
10.531690
-33.934540
-68.124840
-52.452991
-26.432640
19.341600
69.242371
114.223999
135.244995
115.393700
46.317440
-52.844601
-92.069397
-113.293800
-111.623901
-86.090874
-68.675613
-37.840099
-19.472860
5.100658
11.175630
31.478201
39.507469
22.250931
41.818272
39.202942
29.686819
8.377253
-11.782070
-28.408239
-38.671539
-54.486641
-79.337784
-55.207588
-44.737381
-5.206640
7.843560
21.234341
83.359016
61.375778
44.838791
7.608547
-27.044750
-10.434720
-19.636950
3.630428
61.875771
101.146896
88.242767
45.603512
-31.064770
-107.977898
-145.942398
-164.530197
-160.654297
-167.185501
-131.636597
-81.949127
-55.561749
-4.423188
14.415470
39.358841
65.448463
58.482140
74.364182
59.275181
31.255831
25.565910
1.373702
-6.341674
-29.286501
-83.381897
-102.875702
-131.698395
-137.091995
-97.872368
-73.106667
-16.991659
22.589170
39.609760
57.990810
46.231300
26.557690
-20.193350
-80.576027
-117.305801
-116.058899
-103.058998
-65.840492
-33.999378
-28.229639
13.136250
24.676889
23.432779
-3.212547
-60.567459
-73.473701
-116.724800
-136.968201
-130.409393
-162.664093
-171.215393
-177.509903
-161.547104
-120.911499
-93.958847
-43.240231
10.589740
57.376129
69.616890
53.660400
67.897614
68.981842
76.043907
76.580177
23.434420
-10.936120
-42.082958
-72.109512
-60.677010
-65.461052
-40.396210
28.801540
