EVENT_NAME: L_AQUILA
EVENT_ID: IT-2009-0009
EVENT_DATE_YYYYMMDD: 20090406
EVENT_TIME_HHMMSS: 013240
EVENT_LATITUDE_DEGREE: 42.3420
EVENT_LONGITUDE_DEGREE: 13.3800
EVENT_DEPTH_KM: 8.3
HYPOCENTER_REFERENCE: INGV-CNT_Seismic_Bulletin
MAGNITUDE_W: 6.1
MAGNITUDE_W_REFERENCE: INGV-CNT_Seismic_Bulletin
MAGNITUDE_L: 
MAGNITUDE_L_REFERENCE: 
FOCAL_MECHANISM: Normal faulting
NETWORK: IT
STATION_CODE: AQV
STATION_NAME: 
STATION_LATITUDE_DEGREE: 42.377222
STATION_LONGITUDE_DEGREE: 13.343888
STATION_ELEVATION_M: 692
LOCATION: 
SENSOR_DEPTH_M: 0.0
VS30_M/S: 474
SITE_CLASSIFICATION_EC8: B
MORPHOLOGIC_CLASSIFICATION: 
EPICENTRAL_DISTANCE_KM: 4.9
EARTHQUAKE_BACKAZIMUTH_DEGREE: 322.8
DATE_TIME_FIRST_SAMPLE_YYYYMMDD_HHMMSS: 20090406_013212.000
DATE_TIME_FIRST_SAMPLE_PRECISION: seconds
SAMPLING_INTERVAL_S: 0.005000
NDATA: 112600
DURATION_S: 563.000
STREAM: HNE
UNITS: cm/s^2
INSTRUMENT: sensor = FBA-3 [Kinemetrics] | digitizer = Etna [Kinemetrics]
INSTRUMENT_ANALOG/DIGITAL: D
INSTRUMENTAL_FREQUENCY_HZ: 210.000
INSTRUMENTAL_DAMPING: 0.700000
FULL_SCALE_G: 1.0
N_BIT_DIGITAL_CONVERTER: 18
PGA_CM/S^2: 662.598877
TIME_PGA_S: 33.635000
BASELINE_CORRECTION: BASELINE NOT REMOVED
FILTER_TYPE: 
FILTER_ORDER: 
LOW_CUT_FREQUENCY_HZ: 
HIGH_CUT_FREQUENCY_HZ: 
LATE/NORMAL_TRIGGERED: NT
DATABASE_VERSION: 0.5
HEADER_FORMAT: DYNA 1.2
DATA_TYPE: ACCELERATION
PROCESSING: converted to cm/s^2
DATA_TIMESTAMP_YYYYMMDD_HHMMSS: 20211011_155630.049
DATA_LICENSE: CC-BY3_0-IT (http://creativecommons.org/licenses/by/3.0/deed.en)
DATA_CITATION: Luzi L, Pacor F, Puglia R (2019). Italian Accelerometric Archive v 3.0 - Istituto Nazionale di Geofisica e Vulcanologia, Dipartimento della Protezione Civile Nazionale. doi: 10.13127/itaca.3.1
DATA_CREATOR: ITACA working group
ORIGINAL_DATA_MEDIATOR_CITATION: data obtained within the DPC-INGV data exchange agreements
ORIGINAL_DATA_MEDIATOR: Archive of Italian Department of Civil Protection
ORIGINAL_DATA_CREATOR_CITATION: Presidency Of Counsil Of Ministers-Civil Protection Department. (1972). Italian Strong Motion Network. Presidency of Counsil of Ministers - Civil Protection Department. https://doi.org/10.7914/SN/IT http://www.fdsn.org/networks/detail/IT/
ORIGINAL_DATA_CREATOR: network: IT (Italian Strong Motion Network (RAN)); owner: Presidency of Counsil of Ministers - Civil Protection Department (PCM - DPC)
USER1: 
USER2: 
USER3: 
USER4: 
USER5: 
[...]
-0.015325
-0.020707
-0.005732
-0.013921
-0.012517
-0.006434
-0.016495
-0.013687
-0.015559
-0.009008
-0.008540
-0.010645
-0.006902
-0.016027
-0.009944
-0.012049
-0.015793
-0.008306
-0.014857
-0.015559
-0.011581
-0.011113
-0.009476
-0.014857
-0.022111
-0.019771
-0.010177
-0.008774
-0.014623
-0.009476
-0.010411
-0.017665
-0.015793
-0.017665
-0.008306
-0.012049
-0.022111
-0.008306
-0.017197
-0.016729
-0.008072
-0.021877
-0.014857
-0.007370
-0.009944
-0.012049
-0.008540
-0.009008
-0.014623
-0.011113
-0.014389
-0.010645
-0.012283
-0.012517
-0.010879
-0.019537
-0.009710
-0.014857
-0.012517
-0.005264
-0.021409
-0.012751
-0.013219
-0.021643
-0.009944
-0.010645
-0.009008
-0.012751
-0.016027
-0.012751
-0.017197
-0.010177
-0.013453
-0.011581
-0.005966
-0.013453
-0.009710
-0.009944
-0.010411
-0.016027
-0.016261
-0.008540
-0.012517
-0.013453
-0.013453
-0.015091
-0.014623
-0.009944
-0.006434
-0.010411
-0.014857
-0.015091
-0.010879
-0.006434
-0.009242
-0.012049
-0.009710
-0.012985
-0.009944
-0.008306
-0.014857
-0.013921
-0.012049
-0.005966
-0.012517
-0.016729
-0.007370
-0.014857
-0.010411
-0.011815
-0.015091
-0.005030
-0.011113
-0.011113
-0.016027
-0.013453
-0.005732
-0.015325
-0.013453
-0.009476
-0.008540
-0.007604
-0.014857
-0.011347
-0.014155
-0.014623
-0.002456
-0.016963
-0.011347
-0.005264
-0.019303
-0.008774
-0.016261
-0.018133
-0.008540
-0.013921
-0.012751
-0.013921
-0.011113
-0.014857
-0.019537
-0.011347
-0.006902
-0.006902
-0.017431
-0.019069
-0.013453
-0.015091
-0.012985
-0.013453
-0.005732
-0.009476
-0.011347
-0.007604
-0.020239
-0.011113
-0.008072
-0.012283
-0.006668
-0.010177
-0.007604
-0.013219
-0.011581
-0.009242
-0.018367
-0.004796
-0.011113
-0.017665
-0.006434
-0.014155
-0.008306
-0.015793
-0.016963
-0.006200
-0.013687
-0.007136
-0.015559
-0.011581
-0.008306
-0.021643
-0.010645
-0.009242
-0.010177
-0.006434
-0.012751
-0.014389
-0.009476
-0.014389
-0.010177
-0.006434
-0.015793
-0.011581
-0.016027
-0.008774
-0.011113
-0.019303
-0.004094
-0.016963
-0.016261
-0.008072
-0.016261
-0.011113
-0.011113
-0.010177
-0.011815
-0.014623
-0.012751
-0.014389
-0.013687
-0.012985
-0.013687
-0.008540
-0.009008
-0.008540
-0.007136
-0.016729
-0.009944
-0.011815
-0.016729
-0.007370
-0.013219
-0.007838
-0.007604
-0.017197
-0.012517
-0.014623
-0.005732
-0.006668
-0.019069
-0.011581
-0.015091
-0.014389
-0.010879
-0.006200
-0.008072
-0.011581
-0.006434
-0.018601
-0.006668
-0.008540
-0.015793
-0.011347
-0.027024
-0.009008
-0.006434
-0.011113
-0.006668
-0.020239
-0.008774
-0.010177
-0.011581
-0.005030
-0.011815
-0.007370
-0.015559
-0.020005
-0.010879
-0.010411
-0.012283
-0.011815
-0.012283
-0.012283
-0.009710
-0.013687
-0.013687
-0.009476
-0.006902
-0.006902
-0.013687
-0.016729
-0.018133
-0.009944
-0.008540
-0.017665
-0.006668
-0.010177
-0.009710
-0.008072
-0.023280
-0.010411
-0.010879
-0.016495
-0.007370
-0.013687
-0.009242
-0.010879
-0.016729
-0.005498
-0.007136
-0.012751
-0.012751
-0.012049
-0.011581
-0.013921
-0.010645
-0.011347
-0.010879
-0.007838
-0.009944
-0.007136
-0.010177
-0.012985
-0.011113
-0.010879
-0.011581
-0.013687
-0.009242
-0.007136
-0.012283
-0.014389
-0.012985
-0.008306
-0.015091
-0.015091
-0.003392
-0.013453
-0.017665
-0.011815
-0.014389
-0.011347
-0.006902
-0.010645
-0.013219
-0.015091
-0.017197
-0.009476
-0.012049
-0.019303
-0.013453
-0.012751
-0.010879
-0.012985
-0.009476
-0.000116
-0.017899
-0.020473
-0.005264
-0.006902
-0.014389
-0.015091
-0.010879
-0.004796
-0.009710
-0.020005
-0.004796
-0.008774
-0.018835
-0.010177
-0.016495
-0.014389
-0.015559
-0.016963
-0.008540
-0.015559
-0.015559
-0.015325
-0.015325
-0.012985
-0.019537
-0.010411
-0.010879
-0.017431
-0.015559
-0.009710
-0.002924
-0.014623
-0.013219
-0.008072
-0.009944
-0.007136
-0.011581
-0.015091
-0.015325
-0.012049
-0.014389
-0.013921
-0.010645
-0.011347
-0.008540
-0.013453
-0.017665
-0.017899
-0.011581
-0.006902
-0.012985
-0.014155
-0.012283
-0.011113
-0.016963
-0.009242
-0.008306
-0.016729
-0.013687
-0.016495
-0.008774
-0.013687
-0.017431
-0.010411
-0.011581
-0.007136
-0.010645
-0.007604
-0.014623
-0.023748
-0.016027
-0.015325
-0.009242
-0.013219
-0.016495
-0.008072
-0.014155
-0.015091
-0.014857
-0.014623
-0.009242
-0.015793
-0.013687
-0.007136
-0.014623
-0.013219
-0.011581
-0.014857
-0.007604
-0.005498
-0.010177
-0.010411
-0.008774
-0.011581
-0.014623
-0.010645
-0.013687
-0.014623
-0.008306
-0.014623
-0.008072
-0.007604
-0.015559
-0.011347
-0.014389
-0.014155
-0.014623
-0.007370
-0.013921
-0.017197
-0.006434
-0.015091
-0.011815
-0.014857
-0.014155
-0.005732
-0.012751
-0.014623
-0.013687
-0.006902
-0.008306
-0.016963
-0.013921
-0.011113
-0.009008
-0.012283
-0.014389
-0.012751
-0.011815
-0.010879
-0.015091
-0.009944
-0.012517
-0.011113
-0.011113
-0.017197
-0.006434
-0.012985
-0.012751
-0.016027
-0.018367
-0.004562
-0.011347
-0.012049
-0.015091
-0.016261
-0.009476
-0.016963
-0.016963
-0.003392
-0.012985
-0.022111
-0.005732
-0.009008
-0.011581
-0.011815
-0.015559
-0.009008
-0.017431
-0.014857
-0.010411
-0.014155
-0.015559
-0.018133
-0.006668
-0.010177
-0.016963
-0.013687
-0.014389
-0.011347
-0.014623
-0.010177
-0.004796
-0.014389
-0.019771
-0.015325
-0.009710
-0.012283
-0.015325
-0.009944
-0.005732
-0.007136
-0.008306
-0.013453
-0.019537
-0.017899
-0.013453
-0.007370
-0.013921
-0.020707
-0.007838
-0.007838
-0.015559
-0.014857
-0.010177
-0.009242
-0.013453
-0.014857
-0.015559
-0.011581
-0.017899
-0.013687
-0.007136
-0.015091
-0.012751
-0.014857
-0.008072
-0.011113
-0.018835
-0.004796
-0.009008
-0.016729
-0.014155
-0.009008
-0.008540
-0.016729
-0.022813
-0.012751
-0.005966
-0.019537
-0.011581
-0.008540
-0.014857
-0.011113
-0.019537
-0.009476
-0.008540
-0.021877
-0.010177
-0.015091
-0.020707
-0.013219
-0.010645
-0.005264
-0.013687
-0.016027
-0.010879
-0.013219
-0.015325
-0.017665
-0.010645
-0.006902
-0.017899
-0.018835
-0.011815
-0.016027
-0.019537
-0.016027
-0.004796
-0.008774
-0.015793
-0.011113
-0.014155
-0.009242
-0.014389
-0.015559
-0.002456
-0.012751
-0.013687
-0.010879
-0.016729
-0.001988
0.016262
0.052296
0.087159
0.117811
0.113599
0.097688
0.125532
0.087627
0.063293
0.015327
-0.056272
0.065399
0.329799
0.623914
1.079010
1.535743
1.435365
1.193427
0.904693
0.860236
1.752878
1.640567
0.752371
0.898141
0.760794
0.248607
-1.429280
-4.136922
-4.870222
-5.108182
-4.440865
-0.821862
2.494836
5.041732
6.641235
5.279224
3.657962
1.942170
-1.385057
-3.032292
-3.456736
-4.975748
-5.711388
-4.964283
-3.168469
-0.560270
0.866320
1.825413
3.649538
5.015760
7.181266
7.411270
3.114421
-2.505130
-7.985695
-10.719780
-11.277830
-9.973140
-4.426826
0.633274
2.698635
2.457867
1.251923
3.427489
6.285114
6.982615
6.392278
4.281524
3.841638
3.791800
1.202786
-3.688144
-9.832985
-12.106590
-9.845386
-4.685844
2.024064
7.524752
10.672980
9.683705
6.827953
3.533483
1.584645
1.564523
-1.455486
-3.888433
-2.382757
0.837072
4.248299
4.873499
0.402567
-6.634214
-10.342600
-9.215506
-3.060136
5.405341
9.159585
7.645253
3.730028
0.151972
1.660689
5.593228
7.197645
5.615925
0.234568
-3.399878
-4.605588
-5.280861
-3.285928
-0.600281
3.527166
5.832124
1.866360
-3.256915
-8.546551
-13.895850
-14.870150
-13.322360
-10.279420
-4.357099
0.331670
3.589873
8.178030
12.306650
16.712999
18.796610
13.553770
8.074843
3.101318
-4.683270
-7.581608
-6.091141
-3.967285
-1.021215
-0.555590
-2.612996
-1.398160
1.794527
3.022700
4.577044
1.917602
-1.783997
4.277546
13.587700
20.018000
23.474380
19.518909
14.753630
15.186500
15.754840
20.056841
27.716249
32.709900
32.439640
21.328300
5.722387
-5.646107
-10.016190
-11.187510
-13.658360
-13.817000
-15.958870
-14.831550
-11.061390
-13.806470
-14.809790
-13.139860
-11.843360
-12.689910
-9.135484
7.506267
24.281151
28.430361
21.883301
11.041500
-0.255157
-4.118905
-3.296926
-5.094611
-1.863551
-0.060718
-3.713414
-5.166210
-3.970795
1.993178
6.910782
0.611981
-10.939950
-15.058510
-16.643970
-12.553260
-2.252429
-4.977620
-7.306913
-0.263346
10.749030
25.942190
31.458790
38.682758
44.335300
35.240879
31.794319
34.267750
36.997391
39.735909
39.627579
39.979961
36.898178
26.736799
15.933600
4.387518
-3.083534
8.190197
20.466070
29.130899
37.577660
32.931240
34.598831
36.987789
24.184750
15.420480
8.868511
-10.776170
-27.670851
-20.265779
2.699805
23.847120
28.362970
22.489790
19.317221
12.452650
6.445860
-2.064073
-3.023634
7.070826
4.484621
1.214017
-7.054446
-10.712990
2.250559
0.009711
4.844252
21.840950
22.034220
10.226780
-9.597364
-17.816690
-17.785101
-16.531191
-2.213588
-8.584222
-23.607519
-16.275921
-15.589650
-18.124611
-1.710058
23.542709
40.161060
49.985741
50.997711
37.909679
21.590590
-9.758812
-47.384090
-49.773281
-20.278179
13.349500
22.721661
15.530450
25.915291
33.186520
32.073231
22.061131
2.718757
0.145187
-3.719264
-2.512851
9.225334
19.402161
33.713440
34.508980
24.246290
5.751400
-12.025160
-8.116725
-5.861371
-8.873892
-7.028240
-14.125860
-12.494530
-1.147565
13.599870
39.574471
51.601379
43.631020
29.695499
42.281639
67.876717
74.117958
62.753681
33.268181
26.708950
15.936410
-2.850722
-20.807690
-46.779949
-37.736771
-37.227619
-13.000640
21.901550
22.120090
47.932308
37.495529
17.200150
46.738300
72.595444
97.502136
113.394402
118.067802
119.998100
88.608482
27.100639
-5.875176
-26.352831
-60.101959
-88.191063
-171.770401
-241.394699
-242.339203
-229.512100
-157.398102
-88.705353
-19.823790
53.388069
51.258129
99.528900
174.095505
201.324005
206.980499
179.849792
158.765701
116.979797
75.729156
42.355339
-3.487855
-33.496780
-92.528137
-159.931595
-193.618301
-198.929901
-172.567398
-134.958298
-82.348053
-42.103111
0.121788
51.751598
77.950119
129.144501
149.411301
172.413696
182.825607
98.408821
68.225121
43.628670
6.912888
27.663370
-6.549279
-24.441200
2.445934
-32.160740
-37.792690
-30.004829
-39.756969
-35.895561
-70.867950
-30.618561
13.032690
-2.136139
38.131260
24.164160
6.482361
23.143530
-30.996679
-45.707611
-40.657330
-119.179398
-157.395004
-143.814697
-104.462196
-4.294626
65.289337
81.128532
35.655960
-12.736940
-16.210400
-25.981030
12.013930
52.267059
56.842819
61.331772
25.820061
-17.343809
-25.270660
-50.975010
-76.811798
-62.824341
-116.542702
-191.748306
-234.446304
-294.832214
-286.742310
-276.825195
-275.557007
-265.241608
-282.598206
-233.381500
-236.629395
-253.642899
-208.936905
-211.723801
-191.109497
-224.877396
-264.868408
-194.613403
-125.433998
-11.416340
118.286102
221.242905
298.770386
267.877502
201.027603
119.985497
-4.707839
-109.080299
-210.550201
-313.165894
-359.075500
-378.926788
-344.102509
-293.567505
-281.876190
-241.590500
-258.710297
-236.808395
-185.039093
-214.344696
-192.295303
-185.356094
-173.717896
-137.571106
-140.409805
-130.307404
-120.021500
-150.605606
-175.245499
-159.811798
-198.050598
-190.744293
-139.362503
-136.812805
-78.784027
-45.694969
-62.824341
-52.442551
-42.097031
-46.357140
-53.341042
-71.442139
-94.717522
-70.764992
-33.693790
-15.032300
-2.138012
9.244287
-1.248411
-36.152939
-22.649830
-13.183140
-13.583490
24.239969
17.753990
18.457340
31.210070
9.135486
48.271820
76.422920
97.370880
158.065598
160.738205
201.608994
253.697006
282.430695
361.984589
404.032013
437.435699
470.984985
449.108398
413.039093
382.300598
355.477386
340.209808
346.603607
357.789307
363.853210
382.838806
408.244110
417.674988
424.295685
425.892700
400.635895
375.971588
354.761108
328.224091
312.955811
323.805115
327.906311
294.265991
273.460999
261.942993
246.744705
243.813995
250.022797
250.097900
219.049103
181.358093
129.207901
62.514549
-1.546973
-82.670479
-136.199295
-172.697693
-214.477798
-222.357605
-227.372604
-219.051895
-196.979706
-175.270096
-124.873802
-69.742729
-5.356905
58.157101
111.851997
135.606094
94.342216
50.640419
-4.969430
-57.211571
-81.953087
-129.411194
-134.936707
-117.639397
-111.519501
-85.274231
-63.470829
-55.419971
-68.685593
-100.996696
-138.894806
-172.557999
-233.527206
-250.541901
-288.597290
-354.430298
-314.109985
-340.071991
-347.896790
-357.236206
-380.865387
-294.688110
-332.147186
-348.190491
-342.328888
-382.845612
-334.487305
-379.907898
-388.333588
-332.683014
-334.397186
-240.431595
-197.566696
-145.657303
17.388041
47.842461
88.431824
134.997299
108.471901
191.484100
223.361893
212.719894
253.874298
261.209198
286.982086
254.573196
159.652298
78.920212
28.198721
4.178338
-29.338680
27.869740
128.202194
193.461105
264.403015
324.376709
397.519012
474.963898
534.261780
589.686523
620.397217
612.545898
662.598877
612.120483
409.487701
283.589386
72.977768
-103.245201
-194.995697
-359.202087
-318.266907
-255.689102
-302.287109
-219.102493
-196.839996
-202.336197
-114.259903
-145.097595
-134.761002
-110.891800
-155.861298
-26.645781
-2.219906
-23.886660
62.515949
59.761749
71.546028
-18.631420
-29.088791
-56.942501
-226.845901
-48.822380
-4.333701
-200.432602
-112.966499
-130.467194
-253.823105
-97.664757
-138.074905
-200.094894
-5.804981
-131.699600
-109.779900
-16.745050
-141.640503
-7.659524
-37.199081
-59.564270
33.980179
-42.557030
32.544701
16.666901
4.600208
78.005341
6.763842
58.479290
35.039188
-4.073980
75.039848
24.613880
32.472641
45.235901
-22.739210
-2.665173
14.456010
27.188150
97.229088
130.432098
188.042694
202.081207
175.063705
224.349304
226.434494
216.220001
194.231598
190.918793
236.121902
201.479599
97.083549
19.449421
-43.510040
-163.039902
-202.617493
-181.987000
-218.188995
-205.552597
-189.087204
-190.700104
-147.731995
-147.321198
-184.751495
-156.297699
-120.863197
-138.775406
-107.067802
-114.179199
-146.834503
-109.472900
-104.179100
-73.715508
-46.972519
-75.968529
-118.690598
-133.712296
-142.934006
-137.686203
-132.340698
-176.727600
-119.127197
-127.469902
-171.605896
-138.198395
-163.151703
-121.750702
-138.907593
-164.483994
-82.851578
-80.057602
-74.280342
-8.444534
20.741240
26.577921
66.327057
102.475700
76.899071
61.862671
106.160004
116.850098
92.701530
112.833397
102.884903
67.109016
77.572472
62.539349
66.228783
82.728737
84.499977
125.824097
135.042007
185.653793
267.308899
276.154785
319.448792
353.166107
373.826691
424.934998
405.934906
434.307800
474.878906
412.935394
360.189301
268.691711
171.801102
127.465897
62.438042
37.423229
29.533590
10.817120
27.826691
15.729810
-13.180570
-7.737206
-15.437560
5.631134
39.379791
8.941982
46.182590
67.206596
56.107182
122.706001
121.382797
146.508499
143.757202
51.754410
36.583710
-11.379840
-95.881577
-129.683594
-143.754807
-174.133408
-217.868393
-215.278503
-232.231903
-249.429398
-223.581802
-257.621094
-226.108597
-157.910004
-163.982803
-114.310699
-91.931259
-89.743057
-26.003260
-24.369360
-24.056761
-12.665810
-55.262039
-39.291111
-46.100929
-51.347980
-29.428289
-78.146667
-23.005251
17.546209
29.837299
124.186401
150.557404
199.468796
243.326904
244.381897
266.434998
259.303894
222.938599
161.668304
86.545929
26.585180
-4.336742
-84.761810
-168.482498
-201.097504
-244.097198
-222.033997
-181.049194
-129.685699
-32.784771
-2.663536
47.187080
94.069633
114.382797
184.499496
188.333099
202.733307
201.129303
129.342896
122.368103
86.280121
36.469059
22.286921
-66.396309
-100.524300
-93.966202
-165.745193
-127.971802
-77.361191
-103.976898
-101.838097
-106.954597
-73.649063
-99.126450
-152.314301
-103.778900
-109.377899
-151.034698
-149.234695
-171.232300
-181.703201
-182.102402
-217.859100
-218.153198
-208.419296
-216.166199
-168.617493
-175.384293
-193.090393
-138.794403
-151.946106
-133.796799
-82.836143
-72.847908
-19.827299
-8.986203
-18.426920
11.591360
5.411191
12.223820
28.904881
6.785368
20.722750
25.447321
-6.528220
-2.329643
-26.516621
-53.861889
-39.310059
-55.489231
-55.899872
-47.076401
-47.881069
-2.477754
14.589610
17.480230
48.391151
51.080540
42.296619
32.319851
12.555140
1.524512
1.954571
-6.495697
-1.840152
13.575300
23.534981
45.764229
62.810768
84.179657
102.644600
116.497101
132.176407
132.085602
139.173401
151.542694
159.613693
162.948395
155.465393
159.850906
157.366501
140.452103
141.919205
112.316299
59.842701
12.538050
-51.080769
-91.771217
-142.861694
-177.517303
-138.904602
-121.991203
-101.753098
-36.713799
-11.055310
0.796593
28.763081
55.124222
92.965927
116.223099
114.643898
88.085762
43.315842
2.937531
-46.517651
-103.849800
-137.111603
-145.234299
-140.705597
-141.272995
-145.901794
-132.151901
-128.212799
-100.688301
-58.327202
-17.269640
47.975601
63.664810
70.310371
58.825119
16.625719
10.042400
-4.043797
-26.127510
-48.615299
-65.802933
-68.466591
-60.698139
-62.765850
-41.976059
0.721485
-2.521275
22.484171
24.518881
1.771363
31.919270
5.993806
-2.793630
5.555324
-14.587040
32.940601
42.692039
56.681370
130.264999
143.304596
173.023407
228.424805
241.785904
264.241394
277.822205
269.418915
276.267609
269.740692
264.635406
275.986603
259.411499
224.009293
184.720703
155.319901
133.562500
74.494202
8.007925
-12.679610
-44.373199
-99.583183
-122.149597
-122.087601
-120.732101
-127.735001
-133.960999
-124.708397
-112.169296
-94.531502
-71.002953
-72.962547
-83.790787
-90.020103
-113.959297
-142.064804
-170.877106
-177.227798
-180.393799
-192.803802
-196.085205
-213.008194
-185.539597
-150.465698
-143.571106
-99.688713
-76.488426
-74.921463
-77.261276
-104.956299
-114.939400
-122.619904
-137.114594
-139.271896
-157.212296
-165.627701
-167.442200
-196.225998
-213.133301
-227.362701
-211.327499
-160.789398
-123.564201
-66.141273
-15.198660
30.222200
87.495659
110.810303
120.307899
137.865707
134.684998
118.634003
121.618698
135.186798
150.537903
161.190002
162.764496
156.264206
135.558197
104.509697
75.770340
46.051090
23.075680
34.330460
38.263458
34.621300
49.826859
44.815670
62.551521
72.737930
24.648270
14.436350
3.794373
-13.801790
1.141015
-13.943580
3.108572
29.213030
36.312988
62.936420
56.636921
61.950420
77.175171
91.169418
129.257507
122.216301
103.471001
