EVENT_NAME: L_AQUILA
EVENT_ID: IT-2009-0009
EVENT_DATE_YYYYMMDD: 20090406
EVENT_TIME_HHMMSS: 013240
EVENT_LATITUDE_DEGREE: 42.3420
EVENT_LONGITUDE_DEGREE: 13.3800
EVENT_DEPTH_KM: 8.3
HYPOCENTER_REFERENCE: INGV-CNT_Seismic_Bulletin
MAGNITUDE_W: 6.1
MAGNITUDE_W_REFERENCE: INGV-CNT_Seismic_Bulletin
MAGNITUDE_L: 
MAGNITUDE_L_REFERENCE: 
FOCAL_MECHANISM: Normal faulting
NETWORK: IT
STATION_CODE: AQV
STATION_NAME: 
STATION_LATITUDE_DEGREE: 42.377222
STATION_LONGITUDE_DEGREE: 13.343888
STATION_ELEVATION_M: 692
LOCATION: 
SENSOR_DEPTH_M: 0.0
VS30_M/S: 474
SITE_CLASSIFICATION_EC8: B
MORPHOLOGIC_CLASSIFICATION: 
EPICENTRAL_DISTANCE_KM: 4.9
EARTHQUAKE_BACKAZIMUTH_DEGREE: 322.8
DATE_TIME_FIRST_SAMPLE_YYYYMMDD_HHMMSS: 20090406_013212.000
DATE_TIME_FIRST_SAMPLE_PRECISION: seconds
SAMPLING_INTERVAL_S: 0.005000
NDATA: 20001
DURATION_S: 100.005
STREAM: HNN
UNITS: cm
INSTRUMENT: sensor = FBA-3 [Kinemetrics] | digitizer = Etna [Kinemetrics]
INSTRUMENT_ANALOG/DIGITAL: D
INSTRUMENTAL_FREQUENCY_HZ: 200.000
INSTRUMENTAL_DAMPING: 0.700000
FULL_SCALE_G: 1.0
N_BIT_DIGITAL_CONVERTER: 18
PGD_CM: 3.306077
TIME_PGD_S: 33.370000
BASELINE_CORRECTION: BASELINE REMOVED
FILTER_TYPE: BUTTERWORTH
FILTER_ORDER: 2
LOW_CUT_FREQUENCY_HZ: 0.100
HIGH_CUT_FREQUENCY_HZ: 40.000
LATE/NORMAL_TRIGGERED: NT
DATABASE_VERSION: 0.5
HEADER_FORMAT: DYNA 1.2
DATA_TYPE: DISPLACEMENT
PROCESSING: manual (Paolucci et al., 2011)
DATA_TIMESTAMP_YYYYMMDD_HHMMSS: 20211011_155631.377
DATA_LICENSE: CC-BY3_0-IT (http://creativecommons.org/licenses/by/3.0/deed.en)
DATA_CITATION: Luzi L, Pacor F, Puglia R (2019). Italian Accelerometric Archive v 3.0 - Istituto Nazionale di Geofisica e Vulcanologia, Dipartimento della Protezione Civile Nazionale. doi: 10.13127/itaca.3.1
DATA_CREATOR: ITACA working group
ORIGINAL_DATA_MEDIATOR_CITATION: data obtained within the DPC-INGV data exchange agreements
ORIGINAL_DATA_MEDIATOR: Archive of Italian Department of Civil Protection
ORIGINAL_DATA_CREATOR_CITATION: Presidency Of Counsil Of Ministers-Civil Protection Department. (1972). Italian Strong Motion Network. Presidency of Counsil of Ministers - Civil Protection Department. https://doi.org/10.7914/SN/IT http://www.fdsn.org/networks/detail/IT/
ORIGINAL_DATA_CREATOR: network: IT (Italian Strong Motion Network (RAN)); owner: Presidency of Counsil of Ministers - Civil Protection Department (PCM - DPC)
USER1: 
USER2: 
USER3: 
USER4: 
USER5: 
[...]
-8.884314e-02
-8.856809e-02
-8.829097e-02
-8.801173e-02
-8.773037e-02
-8.744687e-02
-8.716123e-02
-8.687344e-02
-8.658346e-02
-8.629126e-02
-8.599683e-02
-8.570016e-02
-8.540126e-02
-8.510013e-02
-8.479674e-02
-8.449114e-02
-8.418337e-02
-8.387349e-02
-8.356145e-02
-8.324718e-02
-8.293062e-02
-8.261175e-02
-8.229061e-02
-8.196723e-02
-8.164161e-02
-8.131374e-02
-8.098358e-02
-8.065115e-02
-8.031643e-02
-7.997941e-02
-7.964004e-02
-7.929828e-02
-7.895415e-02
-7.860768e-02
-7.825890e-02
-7.790782e-02
-7.755443e-02
-7.719873e-02
-7.684071e-02
-7.648038e-02
-7.611770e-02
-7.575265e-02
-7.538521e-02
-7.501538e-02
-7.464320e-02
-7.426866e-02
-7.389179e-02
-7.351253e-02
-7.313084e-02
-7.274665e-02
-7.235998e-02
-7.197086e-02
-7.157933e-02
-7.118533e-02
-7.078884e-02
-7.038983e-02
-6.998831e-02
-6.958430e-02
-6.917779e-02
-6.876875e-02
-6.835718e-02
-6.794306e-02
-6.752637e-02
-6.710705e-02
-6.668512e-02
-6.626063e-02
-6.583362e-02
-6.540406e-02
-6.497191e-02
-6.453715e-02
-6.409978e-02
-6.365981e-02
-6.321726e-02
-6.277215e-02
-6.232448e-02
-6.187424e-02
-6.142139e-02
-6.096592e-02
-6.050785e-02
-6.004721e-02
-5.958396e-02
-5.911803e-02
-5.864939e-02
-5.817809e-02
-5.770411e-02
-5.722743e-02
-5.674809e-02
-5.626614e-02
-5.578160e-02
-5.529438e-02
-5.480442e-02
-5.431168e-02
-5.381620e-02
-5.331804e-02
-5.281722e-02
-5.231372e-02
-5.180751e-02
-5.129854e-02
-5.078679e-02
-5.027225e-02
-4.975491e-02
-4.923473e-02
-4.871169e-02
-4.818579e-02
-4.765706e-02
-4.712558e-02
-4.659134e-02
-4.605432e-02
-4.551444e-02
-4.497174e-02
-4.442627e-02
-4.387804e-02
-4.332700e-02
-4.277308e-02
-4.221621e-02
-4.165634e-02
-4.109351e-02
-4.052779e-02
-3.995924e-02
-3.938789e-02
-3.881371e-02
-3.823666e-02
-3.765667e-02
-3.707370e-02
-3.648779e-02
-3.589894e-02
-3.530712e-02
-3.471234e-02
-3.411464e-02
-3.351406e-02
-3.291059e-02
-3.230423e-02
-3.169493e-02
-3.108267e-02
-3.046744e-02
-2.984925e-02
-2.922807e-02
-2.860382e-02
-2.797642e-02
-2.734589e-02
-2.671227e-02
-2.607562e-02
-2.543593e-02
-2.479319e-02
-2.414736e-02
-2.349839e-02
-2.284620e-02
-2.219078e-02
-2.153213e-02
-2.087025e-02
-2.020513e-02
-1.953678e-02
-1.886523e-02
-1.819054e-02
-1.751274e-02
-1.683178e-02
-1.614763e-02
-1.546028e-02
-1.476980e-02
-1.407625e-02
-1.337960e-02
-1.267983e-02
-1.197692e-02
-1.127085e-02
-1.056157e-02
-9.849022e-03
-9.133194e-03
-8.414122e-03
-7.691821e-03
-6.966254e-03
-6.237365e-03
-5.505127e-03
-4.769562e-03
-4.030712e-03
-3.288605e-03
-2.543226e-03
-1.794527e-03
-1.042476e-03
-2.870875e-04
4.715949e-04
1.233557e-03
1.998831e-03
2.767476e-03
3.539529e-03
4.314991e-03
5.093854e-03
5.876142e-03
6.661882e-03
7.451064e-03
8.243667e-03
9.039709e-03
9.839210e-03
1.064217e-02
1.144857e-02
1.225845e-02
1.307180e-02
1.388866e-02
1.470906e-02
1.553301e-02
1.636051e-02
1.719153e-02
1.802610e-02
1.886421e-02
1.970584e-02
2.055101e-02
2.139975e-02
2.225215e-02
2.310819e-02
2.396781e-02
2.483100e-02
2.569781e-02
2.656829e-02
2.744240e-02
2.832004e-02
2.920117e-02
3.008583e-02
3.097407e-02
3.186595e-02
3.276150e-02
3.366074e-02
3.456365e-02
3.547024e-02
3.638053e-02
3.729454e-02
3.821228e-02
3.913376e-02
4.005898e-02
4.098790e-02
4.192047e-02
4.285670e-02
4.379665e-02
4.474035e-02
4.568780e-02
4.663898e-02
4.759388e-02
4.855258e-02
4.951516e-02
5.048163e-02
5.145192e-02
5.242598e-02
5.340381e-02
5.438549e-02
5.537104e-02
5.636047e-02
5.735372e-02
5.835080e-02
5.935174e-02
6.035657e-02
6.136525e-02
6.237777e-02
6.339415e-02
6.441444e-02
6.543863e-02
6.646677e-02
6.749884e-02
6.853484e-02
6.957477e-02
7.061865e-02
7.166647e-02
7.271820e-02
7.377386e-02
7.483349e-02
7.589716e-02
7.696488e-02
7.803665e-02
7.911251e-02
8.019246e-02
8.127646e-02
8.236450e-02
8.345655e-02
8.455260e-02
8.565265e-02
8.675672e-02
8.786480e-02
8.897692e-02
9.009309e-02
9.121336e-02
9.233773e-02
9.346619e-02
9.459875e-02
9.573546e-02
9.687629e-02
9.802118e-02
9.917014e-02
1.003232e-01
1.014804e-01
1.026416e-01
1.038069e-01
1.049763e-01
1.061498e-01
1.073274e-01
1.085091e-01
1.096949e-01
1.108850e-01
1.120793e-01
1.132780e-01
1.144809e-01
1.156879e-01
1.168990e-01
1.181144e-01
1.193341e-01
1.205580e-01
1.217862e-01
1.230186e-01
1.242552e-01
1.254961e-01
1.267412e-01
1.279907e-01
1.292445e-01
1.305025e-01
1.317649e-01
1.330316e-01
1.343027e-01
1.355780e-01
1.368577e-01
1.381418e-01
1.394302e-01
1.407229e-01
1.420199e-01
1.433212e-01
1.446269e-01
1.459369e-01
1.472511e-01
1.485697e-01
1.498926e-01
1.512198e-01
1.525515e-01
1.538874e-01
1.552278e-01
1.565724e-01
1.579215e-01
1.592749e-01
1.606327e-01
1.619948e-01
1.633615e-01
1.647326e-01
1.661081e-01
1.674881e-01
1.688726e-01
1.702616e-01
1.716551e-01
1.730531e-01
1.744556e-01
1.758626e-01
1.772740e-01
1.786900e-01
1.801105e-01
1.815356e-01
1.829651e-01
1.843991e-01
1.858376e-01
1.872805e-01
1.887280e-01
1.901802e-01
1.916369e-01
1.930981e-01
1.945639e-01
1.960342e-01
1.975090e-01
1.989885e-01
2.004726e-01
2.019614e-01
2.034548e-01
2.049528e-01
2.064553e-01
2.079624e-01
2.094740e-01
2.109904e-01
2.125115e-01
2.140376e-01
2.155682e-01
2.171018e-01
2.186358e-01
2.201665e-01
2.216900e-01
2.232028e-01
2.247019e-01
2.261861e-01
2.276585e-01
2.291289e-01
2.306147e-01
2.321383e-01
2.337192e-01
2.353624e-01
2.370503e-01
2.387471e-01
2.404138e-01
2.420192e-01
2.435422e-01
2.449746e-01
2.463258e-01
2.476244e-01
2.489111e-01
2.502282e-01
2.516101e-01
2.530775e-01
2.546324e-01
2.562585e-01
2.579289e-01
2.596123e-01
2.612711e-01
2.628597e-01
2.643335e-01
2.656662e-01
2.668613e-01
2.679625e-01
2.690567e-01
2.702569e-01
2.716613e-01
2.733113e-01
2.751806e-01
2.771936e-01
2.792510e-01
2.812534e-01
2.831207e-01
2.848038e-01
2.862927e-01
2.876224e-01
2.888626e-01
2.900943e-01
2.913894e-01
2.927991e-01
2.943424e-01
2.960097e-01
2.977870e-01
2.996725e-01
3.016579e-01
3.036960e-01
3.057011e-01
3.075915e-01
3.093394e-01
3.109897e-01
3.126308e-01
3.143360e-01
3.161235e-01
3.179685e-01
3.198489e-01
3.217745e-01
3.237739e-01
3.258601e-01
3.280084e-01
3.301623e-01
3.322669e-01
3.343048e-01
3.362946e-01
3.382469e-01
3.401233e-01
3.418550e-01
3.434134e-01
3.448616e-01
3.463346e-01
3.479638e-01
3.498093e-01
3.518499e-01
3.540251e-01
3.562817e-01
3.585803e-01
3.608719e-01
3.630851e-01
3.651501e-01
3.670378e-01
3.687708e-01
3.703926e-01
3.719225e-01
3.733444e-01
3.746490e-01
3.758941e-01
3.772175e-01
3.787746e-01
3.806537e-01
3.828365e-01
3.852190e-01
3.876615e-01
3.900478e-01
3.923258e-01
3.945004e-01
3.965851e-01
3.985573e-01
4.003567e-01
4.019270e-01
4.032607e-01
4.044154e-01
4.055004e-01
4.066433e-01
4.079589e-01
4.095316e-01
4.114031e-01
4.135494e-01
4.158615e-01
4.181691e-01
4.203124e-01
4.222096e-01
4.238783e-01
4.254131e-01
4.269320e-01
4.285121e-01
4.301520e-01
4.317995e-01
4.334257e-01
4.350587e-01
4.367467e-01
4.385071e-01
4.403071e-01
4.420649e-01
4.436765e-01
4.450640e-01
4.462120e-01
4.471666e-01
4.480058e-01
4.488121e-01
4.496597e-01
4.506032e-01
4.516529e-01
4.527506e-01
4.537743e-01
4.545811e-01
4.550699e-01
4.552371e-01
4.552026e-01
4.551580e-01
4.552470e-01
4.554879e-01
4.558086e-01
4.561356e-01
4.564439e-01
4.567320e-01
4.569589e-01
4.570186e-01
4.567822e-01
4.561473e-01
4.550612e-01
4.535608e-01
4.518213e-01
4.501197e-01
4.487007e-01
4.476713e-01
4.470268e-01
4.467438e-01
4.468121e-01
4.471914e-01
4.477710e-01
4.483918e-01
4.489211e-01
4.493275e-01
4.496913e-01
4.501487e-01
4.508049e-01
4.516590e-01
4.526050e-01
4.535398e-01
4.544595e-01
4.553948e-01
4.562625e-01
4.568497e-01
4.569547e-01
4.565238e-01
4.556708e-01
4.546138e-01
4.536112e-01
4.529126e-01
4.527208e-01
4.531638e-01
4.542330e-01
4.557321e-01
4.573540e-01
4.588257e-01
4.599535e-01
4.605734e-01
4.605510e-01
4.598691e-01
4.586682e-01
4.571531e-01
4.554898e-01
4.538128e-01
4.522827e-01
4.510743e-01
4.502974e-01
4.499510e-01
4.499564e-01
4.502052e-01
4.505526e-01
4.508122e-01
4.508452e-01
4.506557e-01
4.503253e-01
4.498750e-01
4.492755e-01
4.485644e-01
4.478451e-01
4.471338e-01
4.462928e-01
4.451617e-01
4.436760e-01
4.418256e-01
4.396069e-01
4.370688e-01
4.343406e-01
4.315661e-01
4.288652e-01
4.264168e-01
4.245129e-01
4.234150e-01
4.231459e-01
4.234638e-01
4.240407e-01
4.246598e-01
4.252865e-01
4.260059e-01
4.268811e-01
4.277954e-01
4.284214e-01
4.284241e-01
4.277265e-01
4.265295e-01
4.250673e-01
4.233888e-01
4.213655e-01
4.188595e-01
4.158643e-01
4.125134e-01
4.089712e-01
4.053104e-01
4.014909e-01
3.974635e-01
3.932768e-01
3.890960e-01
3.851613e-01
3.816976e-01
3.787737e-01
3.762202e-01
3.737567e-01
3.712600e-01
3.688559e-01
3.666749e-01
3.645557e-01
3.620629e-01
3.587711e-01
3.544774e-01
3.492038e-01
3.431285e-01
3.365394e-01
3.297799e-01
3.232103e-01
3.172163e-01
3.121687e-01
3.082741e-01
3.054599e-01
3.034048e-01
3.016326e-01
2.995832e-01
2.967141e-01
2.926779e-01
2.874963e-01
2.816181e-01
2.758242e-01
2.709938e-01
2.678229e-01
2.666480e-01
2.674631e-01
2.700214e-01
2.738343e-01
2.781015e-01
2.818494e-01
2.843564e-01
2.854855e-01
2.855511e-01
2.848758e-01
2.834794e-01
2.811212e-01
2.776141e-01
2.731373e-01
2.682628e-01
2.636618e-01
2.598061e-01
2.569682e-01
2.554243e-01
2.555417e-01
2.575961e-01
2.614557e-01
2.664360e-01
2.714833e-01
2.755680e-01
2.781172e-01
2.792875e-01
2.798078e-01
2.803481e-01
2.808997e-01
2.807866e-01
2.792477e-01
2.759184e-01
2.708101e-01
2.640272e-01
2.557122e-01
2.462816e-01
2.365354e-01
2.273677e-01
2.193537e-01
2.126567e-01
2.072044e-01
2.027925e-01
1.990415e-01
1.953596e-01
1.910950e-01
1.858212e-01
1.793278e-01
1.712624e-01
1.610519e-01
1.483711e-01
1.335303e-01
1.172941e-01
1.004962e-01
8.387893e-02
6.810595e-02
5.377247e-02
4.134784e-02
3.109813e-02
2.313635e-02
1.763195e-02
1.482207e-02
1.458927e-02
1.607744e-02
1.783064e-02
1.829953e-02
1.633112e-02
1.142386e-02
3.677400e-03
-6.457275e-03
-1.839154e-02
-3.150639e-02
-4.521470e-02
-5.896645e-02
-7.224005e-02
-8.458242e-02
-9.563842e-02
-1.051441e-01
-1.129459e-01
-1.190852e-01
-1.239304e-01
-1.281911e-01
-1.326357e-01
-1.377335e-01
-1.435534e-01
-1.498362e-01
-1.560828e-01
-1.617383e-01
-1.664085e-01
-1.699163e-01
-1.722731e-01
-1.736815e-01
-1.744653e-01
-1.749372e-01
-1.752601e-01
-1.752971e-01
-1.746934e-01
-1.732269e-01
-1.710278e-01
-1.685221e-01
-1.662744e-01
-1.649769e-01
-1.655737e-01
-1.690750e-01
-1.760268e-01
-1.862054e-01
-1.988558e-01
-2.132840e-01
-2.292679e-01
-2.469071e-01
-2.662082e-01
-2.868170e-01
-3.078911e-01
-3.281690e-01
-3.464371e-01
-3.620153e-01
-3.746837e-01
-3.842988e-01
-3.906268e-01
-3.934382e-01
-3.926885e-01
-3.885895e-01
-3.815424e-01
-3.720282e-01
-3.604953e-01
-3.473450e-01
-3.329960e-01
-3.178562e-01
-3.021781e-01
-2.859560e-01
-2.690364e-01
-2.513598e-01
-2.330432e-01
-2.141596e-01
-1.944593e-01
-1.734989e-01
-1.511543e-01
-1.279598e-01
-1.049984e-01
-8.355912e-02
-6.485504e-02
-4.981558e-02
-3.886124e-02
-3.180617e-02
-2.797307e-02
-2.636166e-02
-2.577109e-02
-2.486734e-02
-2.224224e-02
-1.659483e-02
-7.047576e-03
6.689627e-03
2.458491e-02
4.672369e-02
7.340127e-02
1.048677e-01
1.411321e-01
1.819401e-01
2.268438e-01
2.754298e-01
3.275581e-01
3.832548e-01
4.423052e-01
5.039841e-01
5.672426e-01
6.311625e-01
6.951295e-01
7.586674e-01
8.214500e-01
8.834916e-01
9.449951e-01
1.005992e+00
1.066281e+00
1.125641e+00
1.184067e+00
1.241845e+00
1.299396e+00
1.357129e+00
1.415397e+00
1.474457e+00
1.534425e+00
1.595269e+00
1.656826e+00
1.718821e+00
1.780911e+00
1.842785e+00
1.904276e+00
1.965371e+00
2.026115e+00
2.086446e+00
2.146124e+00
2.204815e+00
2.262302e+00
2.318668e+00
2.374275e+00
2.429549e+00
2.484728e+00
2.539725e+00
2.594179e+00
2.647608e+00
2.699545e+00
2.749564e+00
2.797143e+00
2.841594e+00
2.882226e+00
2.918614e+00
2.950753e+00
2.979040e+00
3.004157e+00
3.026912e+00
3.048021e+00
3.067934e+00
3.086840e+00
3.104722e+00
3.121354e+00
3.136390e+00
3.149514e+00
3.160449e+00
3.168864e+00
3.174334e+00
3.176377e+00
3.174554e+00
3.168586e+00
3.158396e+00
3.144112e+00
3.126066e+00
3.104738e+00
3.080534e+00
3.053573e+00
3.023722e+00
2.990805e+00
2.954717e+00
2.915450e+00
2.873208e+00
2.828588e+00
2.782678e+00
2.736941e+00
2.693030e+00
2.652709e+00
2.617799e+00
2.590093e+00
2.571150e+00
2.562010e+00
2.563019e+00
2.573949e+00
2.594210e+00
2.622873e+00
2.658545e+00
2.699320e+00
2.742972e+00
2.787315e+00
2.830496e+00
2.871095e+00
2.908180e+00
2.941472e+00
2.971494e+00
2.999400e+00
3.026509e+00
3.053912e+00
3.082326e+00
3.112047e+00
3.142867e+00
3.173975e+00
3.204078e+00
3.231855e+00
3.256306e+00
3.276666e+00
3.292200e+00
3.302193e+00
3.306077e+00
3.303452e+00
3.294047e+00
3.277789e+00
3.254903e+00
3.225737e+00
3.190435e+00
3.148916e+00
3.101140e+00
3.047252e+00
2.987388e+00
2.921397e+00
2.848924e+00
2.769777e+00
2.683984e+00
2.591607e+00
2.492616e+00
2.386872e+00
2.274214e+00
2.154488e+00
2.027479e+00
1.892807e+00
1.749876e+00
1.598011e+00
1.436712e+00
1.265873e+00
1.085820e+00
8.971907e-01
7.008383e-01
4.978523e-01
2.895800e-01
7.766379e-02
-1.359372e-01
-3.489507e-01
-5.588360e-01
-7.629490e-01
-9.586939e-01
-1.143691e+00
-1.316205e+00
-1.475522e+00
-1.621796e+00
-1.755661e+00
-1.877907e+00
-1.989162e+00
-2.089741e+00
-2.179792e+00
-2.259434e+00
-2.328762e+00
-2.387833e+00
-2.436629e+00
-2.475075e+00
-2.503225e+00
-2.521514e+00
-2.530928e+00
-2.532912e+00
-2.529087e+00
-2.520949e+00
-2.509677e+00
-2.496118e+00
-2.480812e+00
-2.463951e+00
-2.445373e+00
-2.424583e+00
-2.400876e+00
-2.373678e+00
-2.342850e+00
-2.308651e+00
-2.271369e+00
-2.230946e+00
-2.186971e+00
-2.138934e+00
-2.086372e+00
-2.028794e+00
-1.965712e+00
-1.897043e+00
-1.823402e+00
-1.745769e+00
-1.664967e+00
-1.581647e+00
-1.496575e+00
-1.410393e+00
-1.322960e+00
-1.233536e+00
-1.141582e+00
-1.046793e+00
-9.487894e-01
-8.474347e-01
-7.433410e-01
-6.377720e-01
-5.320274e-01
-4.270639e-01
-3.234916e-01
-2.216687e-01
-1.219279e-01
-2.474312e-02
6.916373e-02
1.585672e-01
2.416241e-01
3.161061e-01
3.798158e-01
4.310589e-01
4.689885e-01
4.935380e-01
5.049928e-01
5.037477e-01
4.904244e-01
4.660321e-01
4.321129e-01
3.907863e-01
3.445309e-01
2.958633e-01
2.470693e-01
1.999991e-01
1.558440e-01
1.148841e-01
7.656424e-02
4.000927e-02
4.556227e-03
-3.003259e-02
-6.382485e-02
-9.717336e-02
-1.307504e-01
-1.652000e-01
-2.008805e-01
-2.379271e-01
-2.765476e-01
-3.171366e-01
-3.601756e-01
-4.061571e-01
-4.555008e-01
-5.085167e-01
-5.652574e-01
-6.252464e-01
-6.875588e-01
-7.512012e-01
-8.154505e-01
-8.800050e-01
-9.448587e-01
-1.010142e+00
-1.076013e+00
-1.142504e+00
-1.209559e+00
-1.277155e+00
-1.345213e+00
-1.413458e+00
-1.481500e+00
-1.549078e+00
-1.616178e+00
-1.682955e+00
-1.749601e+00
-1.816290e+00
-1.883109e+00
-1.949986e+00
-2.016675e+00
-2.082732e+00
-2.147441e+00
-2.209926e+00
-2.269515e+00
-2.326004e+00
-2.379481e+00
-2.429893e+00
-2.476855e+00
-2.519724e+00
-2.557751e+00
-2.590185e+00
-2.616429e+00
-2.636301e+00
-2.650159e+00
-2.658756e+00
-2.662978e+00
-2.663625e+00
-2.661249e+00
-2.656120e+00
-2.648445e+00
-2.638626e+00
-2.627157e+00
-2.614376e+00
-2.600470e+00
-2.585489e+00
-2.569367e+00
-2.552007e+00
-2.533200e+00
-2.512397e+00
-2.488611e+00
-2.460595e+00
-2.427195e+00
-2.387618e+00
-2.341467e+00
-2.288589e+00
-2.228976e+00
-2.162829e+00
-2.090604e+00
-2.012959e+00
-1.930708e+00
-1.844668e+00
-1.755498e+00
-1.663751e+00
-1.570014e+00
-1.475070e+00
-1.379987e+00
-1.286085e+00
-1.194754e+00
-1.107205e+00
-1.024321e+00
-9.466974e-01
-8.747138e-01
-8.085542e-01
-7.482597e-01
-6.938113e-01
-6.452000e-01
-6.025221e-01
-5.661012e-01
-5.364651e-01
-5.140821e-01
-4.991096e-01
-4.915189e-01
-4.914472e-01
-4.992717e-01
-5.153588e-01
-5.398188e-01
-5.723986e-01
-6.123394e-01
-6.581987e-01
-7.080970e-01
-7.603362e-01
-8.137061e-01
-8.673868e-01
-9.207830e-01
-9.733792e-01
-1.024607e+00
-1.073765e+00
-1.120110e+00
-1.163035e+00
-1.202037e+00
-1.236597e+00
-1.266226e+00
-1.290642e+00
-1.309904e+00
-1.324327e+00
-1.334230e+00
-1.339826e+00
-1.341359e+00
-1.339331e+00
-1.334468e+00
-1.327316e+00
-1.317892e+00
-1.305747e+00
-1.290351e+00
-1.271581e+00
-1.249958e+00
-1.226354e+00
-1.201473e+00
-1.175800e+00
-1.149983e+00
-1.124951e+00
-1.101671e+00
-1.080953e+00
-1.063398e+00
-1.049422e+00
-1.039265e+00
-1.032948e+00
-1.030262e+00
-1.030783e+00
-1.033870e+00
-1.038685e+00
-1.044301e+00
-1.049877e+00
-1.054758e+00
-1.058403e+00
-1.060290e+00
-1.059919e+00
-1.057002e+00
-1.051707e+00
-1.044753e+00
-1.037262e+00
-1.030400e+00
-1.024960e+00
-1.021240e+00
-1.019338e+00
-1.019412e+00
-1.021526e+00
-1.025461e+00
-1.030954e+00
-1.037992e+00
-1.046743e+00
-1.057301e+00
-1.069522e+00
-1.083079e+00
-1.097650e+00
-1.112953e+00
-1.128659e+00
-1.144332e+00
-1.159533e+00
-1.174095e+00
-1.188326e+00
-1.202770e+00
-1.217675e+00
-1.232763e+00
-1.247480e+00
-1.261333e+00
-1.274112e+00
-1.285994e+00
-1.297419e+00
-1.308784e+00
-1.320249e+00
-1.331674e+00
-1.342620e+00
-1.352447e+00
-1.360485e+00
-1.366196e+00
-1.369238e+00
-1.369471e+00
-1.366890e+00
-1.361513e+00
-1.353345e+00
-1.342369e+00
-1.328509e+00
-1.311660e+00
-1.291756e+00
-1.268802e+00
-1.242951e+00
-1.214532e+00
-1.183951e+00
-1.151615e+00
-1.117984e+00
-1.083678e+00
-1.049475e+00
-1.016252e+00
-9.849048e-01
-9.562348e-01
-9.308010e-01
-9.088391e-01
-8.902845e-01
-8.748875e-01
-8.623436e-01
-8.523278e-01
-8.444813e-01
-8.384517e-01
-8.339338e-01
-8.306163e-01
-8.280899e-01
-8.258700e-01
-8.235269e-01
-8.207767e-01
-8.175196e-01
-8.138540e-01
-8.100149e-01
-8.062764e-01
-8.029205e-01
-8.002335e-01
-7.984542e-01
-7.977464e-01
-7.982596e-01
-8.001888e-01
-8.037286e-01
-8.089552e-01
-8.157723e-01
-8.239770e-01
-8.333762e-01
-8.438715e-01
-8.554711e-01
-8.682387e-01
-8.822469e-01
-8.975864e-01
-9.143972e-01
-9.328154e-01
-9.528455e-01
-9.742911e-01
-9.967559e-01
-1.019654e+00
-1.042256e+00
-1.063794e+00
-1.083611e+00
-1.101264e+00
-1.116513e+00
-1.129302e+00
-1.139751e+00
-1.148110e+00
-1.154696e+00
-1.159833e+00
-1.163806e+00
-1.166832e+00
