EVENT_NAME: L_AQUILA
EVENT_ID: IT-2009-0009
EVENT_DATE_YYYYMMDD: 20090406
EVENT_TIME_HHMMSS: 013240
EVENT_LATITUDE_DEGREE: 42.3420
EVENT_LONGITUDE_DEGREE: 13.3800
EVENT_DEPTH_KM: 8.3
HYPOCENTER_REFERENCE: INGV-CNT_Seismic_Bulletin
MAGNITUDE_W: 6.1
MAGNITUDE_W_REFERENCE: INGV-CNT_Seismic_Bulletin
MAGNITUDE_L: 
MAGNITUDE_L_REFERENCE: 
FOCAL_MECHANISM: Normal faulting
NETWORK: IT
STATION_CODE: AQV
STATION_NAME: 
STATION_LATITUDE_DEGREE: 42.377222
STATION_LONGITUDE_DEGREE: 13.343888
STATION_ELEVATION_M: 692
LOCATION: 
SENSOR_DEPTH_M: 0.0
VS30_M/S: 474
SITE_CLASSIFICATION_EC8: B
MORPHOLOGIC_CLASSIFICATION: 
EPICENTRAL_DISTANCE_KM: 4.9
EARTHQUAKE_BACKAZIMUTH_DEGREE: 322.8
DATE_TIME_FIRST_SAMPLE_YYYYMMDD_HHMMSS: 
DATE_TIME_FIRST_SAMPLE_PRECISION: 
SAMPLING_INTERVAL_S: 
NDATA: 105
DURATION_S: 
STREAM: HNE
UNITS: cm
INSTRUMENT: sensor = FBA-3 [Kinemetrics] | digitizer = Etna [Kinemetrics]
INSTRUMENT_ANALOG/DIGITAL: D
INSTRUMENTAL_FREQUENCY_HZ: 210.000
INSTRUMENTAL_DAMPING: 0.700000
FULL_SCALE_G: 1.0
N_BIT_DIGITAL_CONVERTER: 18
PGD_CM: 6.786824
TIME_PGD_S: 
BASELINE_CORRECTION: BASELINE REMOVED
FILTER_TYPE: BUTTERWORTH
FILTER_ORDER: 2
LOW_CUT_FREQUENCY_HZ: 0.100
HIGH_CUT_FREQUENCY_HZ: 40.000
LATE/NORMAL_TRIGGERED: NT
DATABASE_VERSION: 0.5
HEADER_FORMAT: DYNA 1.2
DATA_TYPE: DISPLACEMENT RESPONSE SPECTRUM
PROCESSING: manual (Paolucci et al., 2011)
DATA_TIMESTAMP_YYYYMMDD_HHMMSS: 20211011_155632.598
DATA_LICENSE: CC-BY3_0-IT (http://creativecommons.org/licenses/by/3.0/deed.en)
DATA_CITATION: Luzi L, Pacor F, Puglia R (2019). Italian Accelerometric Archive v 3.0 - Istituto Nazionale di Geofisica e Vulcanologia, Dipartimento della Protezione Civile Nazionale. doi: 10.13127/itaca.3.1
DATA_CREATOR: ITACA working group
ORIGINAL_DATA_MEDIATOR_CITATION: data obtained within the DPC-INGV data exchange agreements
ORIGINAL_DATA_MEDIATOR: Archive of Italian Department of Civil Protection
ORIGINAL_DATA_CREATOR_CITATION: Presidency Of Counsil Of Ministers-Civil Protection Department. (1972). Italian Strong Motion Network. Presidency of Counsil of Ministers - Civil Protection Department. https://doi.org/10.7914/SN/IT http://www.fdsn.org/networks/detail/IT/
ORIGINAL_DATA_CREATOR: network: IT (Italian Strong Motion Network (RAN)); owner: Presidency of Counsil of Ministers - Civil Protection Department (PCM - DPC)
USER1: 
USER2: 
USER3: 
USER4: 
USER5: 
    0.010000     0.001646
    0.020000     0.006731
    0.022000     0.008235
    0.025000     0.010322
    0.029000     0.014156
    0.030000     0.015590
    0.032000     0.018312
    0.035001     0.022294
    0.036000     0.024099
    0.040000     0.031671
    0.041999     0.035547
    0.044001     0.037663
    0.045000     0.038842
    0.046000     0.043081
    0.048001     0.051099
    0.050000     0.053111
    0.054999     0.064904
    0.059999     0.098657
    0.064998     0.117214
    0.067002     0.123452
    0.069999     0.128010
    0.075002     0.144959
    0.080000     0.218682
    0.084998     0.255281
    0.090001     0.287018
    0.095003     0.314774
    0.100000     0.392481
    0.109999     0.529983
    0.120005     0.475420
    0.130005     0.503085
    0.132996     0.540064
    0.139997     0.699709
    0.149993     0.716684
    0.160000     0.714225
    0.170010     0.777860
    0.179986     0.800463
    0.190006     0.957330
    0.200000     1.173804
    0.220022     1.307384
    0.239981     1.614743
    0.250000     1.745862
    0.260010     1.814449
    0.280034     1.840770
    0.290023     1.781815
    0.300030     1.889187
    0.320000     2.100421
    0.340020     2.735174
    0.350017     3.160394
    0.359971     3.663767
    0.379939     4.616276
    0.400000     5.076298
    0.419992     4.999708
    0.439947     5.037286
    0.450045     5.390943
    0.459982     5.747416
    0.480077     6.416957
    0.500000     6.981028
    0.550055     7.926679
    0.599880     8.685144
    0.650195     9.663702
    0.667111     9.928425
    0.699790    10.326040
    0.750188    10.478171
    0.800000    10.008401
    0.850340    10.566956
    0.900090    11.022039
    0.949668    11.385218
    1.000000    11.668962
    1.100110    11.958482
    1.200480    11.871591
    1.300390    11.430432
    1.400560    10.645871
    1.499250    10.888672
    1.600000    10.948436
    1.700680    11.535138
    1.798561    12.009778
    1.901141    12.382379
    2.000000    12.658822
    2.197802    12.967579
    2.398082    13.019301
    2.500000    12.972116
    2.597403    12.886174
    2.801121    12.628980
    3.003003    12.294400
    3.205128    11.918461
    3.401361    11.625340
    3.496503    11.489321
    3.597122    11.267629
    3.802281    10.734077
    4.000000    10.356293
    4.201681     9.996534
    4.405286     9.656822
    4.608295     9.336948
    4.807692     9.037075
    5.000000     8.756438
    5.494505     8.135447
    5.988024     7.614498
    6.493506     7.181383
    6.993007     6.821439
    7.518797     6.595605
    8.000000     6.690558
    8.474576     6.763762
    9.009009     6.820022
    9.523809     6.862260
   10.000000     6.890672
