EVENT_NAME: L_AQUILA
EVENT_ID: IT-2009-0009
EVENT_DATE_YYYYMMDD: 20090406
EVENT_TIME_HHMMSS: 013240
EVENT_LATITUDE_DEGREE: 42.3420
EVENT_LONGITUDE_DEGREE: 13.3800
EVENT_DEPTH_KM: 8.3
HYPOCENTER_REFERENCE: INGV-CNT_Seismic_Bulletin
MAGNITUDE_W: 6.1
MAGNITUDE_W_REFERENCE: INGV-CNT_Seismic_Bulletin
MAGNITUDE_L: 
MAGNITUDE_L_REFERENCE: 
FOCAL_MECHANISM: Normal faulting
NETWORK: IT
STATION_CODE: AQV
STATION_NAME: 
STATION_LATITUDE_DEGREE: 42.377222
STATION_LONGITUDE_DEGREE: 13.343888
STATION_ELEVATION_M: 692
LOCATION: 
SENSOR_DEPTH_M: 0.0
VS30_M/S: 474
SITE_CLASSIFICATION_EC8: B
MORPHOLOGIC_CLASSIFICATION: 
EPICENTRAL_DISTANCE_KM: 4.9
EARTHQUAKE_BACKAZIMUTH_DEGREE: 322.8
DATE_TIME_FIRST_SAMPLE_YYYYMMDD_HHMMSS: 20090406_013212.000
DATE_TIME_FIRST_SAMPLE_PRECISION: seconds
SAMPLING_INTERVAL_S: 0.005000
NDATA: 20001
DURATION_S: 100.005
STREAM: HNN
UNITS: cm/s^2
INSTRUMENT: sensor = FBA-3 [Kinemetrics] | digitizer = Etna [Kinemetrics]
INSTRUMENT_ANALOG/DIGITAL: D
INSTRUMENTAL_FREQUENCY_HZ: 200.000
INSTRUMENTAL_DAMPING: 0.700000
FULL_SCALE_G: 1.0
N_BIT_DIGITAL_CONVERTER: 18
PGA_CM/S^2: -535.203125
TIME_PGA_S: 33.880000
BASELINE_CORRECTION: BASELINE REMOVED
FILTER_TYPE: BUTTERWORTH
FILTER_ORDER: 2
LOW_CUT_FREQUENCY_HZ: 0.100
HIGH_CUT_FREQUENCY_HZ: 40.000
LATE/NORMAL_TRIGGERED: NT
DATABASE_VERSION: 0.5
HEADER_FORMAT: DYNA 1.2
DATA_TYPE: ACCELERATION
PROCESSING: manual (Paolucci et al., 2011)
DATA_TIMESTAMP_YYYYMMDD_HHMMSS: 20211011_155631.233
DATA_LICENSE: CC-BY3_0-IT (http://creativecommons.org/licenses/by/3.0/deed.en)
DATA_CITATION: Luzi L, Pacor F, Puglia R (2019). Italian Accelerometric Archive v 3.0 - Istituto Nazionale di Geofisica e Vulcanologia, Dipartimento della Protezione Civile Nazionale. doi: 10.13127/itaca.3.1
DATA_CREATOR: ITACA working group
ORIGINAL_DATA_MEDIATOR_CITATION: data obtained within the DPC-INGV data exchange agreements
ORIGINAL_DATA_MEDIATOR: Archive of Italian Department of Civil Protection
ORIGINAL_DATA_CREATOR_CITATION: Presidency Of Counsil Of Ministers-Civil Protection Department. (1972). Italian Strong Motion Network. Presidency of Counsil of Ministers - Civil Protection Department. https://doi.org/10.7914/SN/IT http://www.fdsn.org/networks/detail/IT/
ORIGINAL_DATA_CREATOR: network: IT (Italian Strong Motion Network (RAN)); owner: Presidency of Counsil of Ministers - Civil Protection Department (PCM - DPC)
USER1: 
USER2: 
USER3: 
USER4: 
USER5: 
[...]
0.035757
0.035410
0.036089
0.036887
0.036486
0.034943
0.032825
0.031836
0.032822
0.033896
0.033740
0.033054
0.032598
0.032955
0.034777
0.037162
0.037778
0.036110
0.034448
0.034646
0.035832
0.036092
0.034993
0.034046
0.034890
0.036877
0.037870
0.037381
0.036472
0.035940
0.036508
0.038051
0.038924
0.037865
0.035263
0.033375
0.034727
0.038845
0.042736
0.044438
0.043847
0.041707
0.039568
0.038746
0.039178
0.040279
0.041410
0.042059
0.042299
0.042279
0.042188
0.042390
0.042995
0.044281
0.045989
0.046562
0.045422
0.043867
0.043156
0.043293
0.043658
0.044377
0.045148
0.044514
0.043025
0.043324
0.045339
0.046052
0.044937
0.044401
0.044967
0.045224
0.045074
0.045449
0.046372
0.046861
0.046160
0.044863
0.044711
0.046380
0.047906
0.047325
0.045922
0.046365
0.049007
0.051652
0.051729
0.048558
0.044561
0.043603
0.046836
0.050662
0.050736
0.047543
0.045403
0.046583
0.049229
0.050676
0.050392
0.049967
0.051034
0.053053
0.053968
0.052998
0.051437
0.050835
0.051768
0.053980
0.056310
0.056815
0.054659
0.052077
0.052146
0.055043
0.058289
0.059393
0.058114
0.056443
0.056059
0.056508
0.056153
0.055027
0.055139
0.057019
0.058910
0.059555
0.059365
0.059200
0.059382
0.059908
0.060036
0.058525
0.056273
0.055782
0.057358
0.059585
0.061565
0.062272
0.061332
0.060490
0.061408
0.063229
0.063700
0.062142
0.060293
0.060291
0.062110
0.063439
0.062917
0.061938
0.062496
0.064553
0.066389
0.066652
0.065012
0.062474
0.060933
0.061508
0.063607
0.065387
0.065980
0.066119
0.066536
0.067372
0.067711
0.066518
0.064438
0.063108
0.063732
0.065748
0.066923
0.066468
0.065702
0.065426
0.065820
0.067356
0.069647
0.071342
0.071818
0.071296
0.069946
0.068569
0.067940
0.067292
0.066486
0.067715
0.071971
0.075543
0.074202
0.070202
0.069079
0.071485
0.073645
0.073039
0.070639
0.069078
0.070131
0.073372
0.076820
0.078904
0.079207
0.078573
0.078161
0.077405
0.075663
0.074590
0.075517
0.077158
0.077894
0.078151
0.078997
0.080024
0.080034
0.078782
0.077793
0.078665
0.080790
0.082560
0.082922
0.081880
0.080882
0.080992
0.081686
0.082217
0.082632
0.083148
0.083090
0.081627
0.079869
0.080172
0.082742
0.085334
0.086061
0.084754
0.082963
0.082483
0.083300
0.084358
0.085155
0.085439
0.085424
0.086161
0.087610
0.088700
0.089349
0.089486
0.089161
0.089463
0.089988
0.088867
0.086287
0.084864
0.086278
0.089234
0.091498
0.092095
0.091173
0.089729
0.089257
0.090216
0.091263
0.091338
0.091257
0.092159
0.093933
0.095309
0.095084
0.093589
0.092366
0.092177
0.092347
0.092372
0.092501
0.092846
0.093594
0.094889
0.095813
0.095397
0.094397
0.093836
0.093789
0.094930
0.097619
0.099865
0.099488
0.097543
0.096923
0.098227
0.099900
0.100736
0.100405
0.099772
0.100088
0.100927
0.101262
0.101700
0.103239
0.104940
0.104657
0.102324
0.100751
0.101779
0.103767
0.104549
0.104328
0.103898
0.103188
0.102481
0.102323
0.102960
0.104273
0.104924
0.103812
0.102852
0.104517
0.107291
0.107942
0.106950
0.107019
0.107732
0.106623
0.104271
0.103917
0.106693
0.109995
0.111011
0.109651
0.107457
0.106212
0.106886
0.108739
0.110399
0.111193
0.111484
0.112115
0.113395
0.114601
0.114542
0.112803
0.110459
0.109799
0.111807
0.113888
0.113158
0.110851
0.110254
0.112231
0.115365
0.118226
0.119581
0.118497
0.115691
0.113234
0.112197
0.112693
0.115036
0.117893
0.118731
0.117870
0.117769
0.118538
0.118300
0.116841
0.115493
0.115161
0.116066
0.117454
0.118321
0.118614
0.118624
0.119589
0.122786
0.125855
0.125537
0.123072
0.121631
0.121584
0.121960
0.123316
0.126043
0.128500
0.129268
0.129136
0.129368
0.129614
0.129096
0.127837
0.125890
0.124521
0.125788
0.128138
0.127837
0.125050
0.123145
0.123666
0.125036
0.125537
0.126233
0.128526
0.130837
0.131094
0.129755
0.129154
0.130637
0.132895
0.133944
0.133116
0.131350
0.130304
0.130887
0.132772
0.134137
0.133444
0.131775
0.131178
0.132486
0.134834
0.136353
0.136315
0.136070
0.137003
0.138070
0.137650
0.136892
0.137511
0.138404
0.138178
0.137994
0.138726
0.139332
0.140000
0.141508
0.142344
0.141701
0.141300
0.141646
0.141533
0.140936
0.141252
0.143427
0.145890
0.145757
0.143396
0.142513
0.144786
0.146920
0.145167
0.141316
0.139673
0.140891
0.143230
0.145630
0.147157
0.147226
0.146866
0.147301
0.148113
0.148593
0.149160
0.149789
0.149466
0.147808
0.146139
0.146564
0.148710
0.150121
0.149901
0.148940
0.149177
0.151922
0.155162
0.155475
0.152857
0.150753
0.151215
0.153377
0.155229
0.154909
0.153149
0.152948
0.154657
0.155243
0.154025
0.153693
0.154816
0.155781
0.156511
0.157429
0.157705
0.157048
0.157016
0.157973
0.157840
0.156580
0.156806
0.159106
0.161284
0.161949
0.162368
0.163407
0.163559
0.162350
0.161218
0.160547
0.159998
0.159961
0.160460
0.160904
0.161327
0.162271
0.163611
0.164198
0.163745
0.164086
0.165483
0.165099
0.162779
0.162239
0.164219
0.164987
0.162968
0.161412
0.162674
0.164477
0.164464
0.164286
0.166103
0.168978
0.171296
0.172030
0.169564
0.165288
0.164617
0.168958
0.172679
0.171643
0.168563
0.167528
0.168850
0.170695
0.171922
0.172423
0.172321
0.172013
0.172197
0.172766
0.172974
0.173204
0.173986
0.174184
0.173156
0.171992
0.171977
0.173331
0.174117
0.172764
0.171216
0.171603
0.173058
0.174249
0.174898
0.174511
0.173500
0.173673
0.174913
0.175107
0.174615
0.176001
0.178553
0.178997
0.177646
0.177491
0.178965
0.180278
0.180759
0.180718
0.179702
0.178429
0.179261
0.181527
0.181876
0.180157
0.179111
0.179249
0.179168
0.179567
0.181870
0.184196
0.183771
0.181728
0.180743
0.180868
0.181680
0.184112
0.187084
0.187357
0.184716
0.182399
0.181980
0.182138
0.182794
0.186551
0.193399
0.196485
0.180690
0.123340
0.012912
-0.132192
-0.284667
-0.431038
-0.550672
-0.592464
-0.470752
-0.081849
0.616666
1.511273
2.292062
2.493585
1.784406
0.357533
-1.199802
-2.456048
-3.295067
-3.624860
-3.248041
-2.105129
-0.473138
1.212627
2.596672
3.417879
3.497397
2.852810
1.769334
0.517629
-0.978900
-2.813371
-4.587193
-5.649069
-5.501133
-3.754650
-0.280275
4.240113
8.166177
9.825912
8.770445
5.747712
1.776389
-2.201300
-5.401302
-7.369094
-7.768035
-6.369813
-3.575052
-0.344800
2.538416
4.582322
5.344733
4.958990
4.401632
4.329126
3.994674
2.107460
-1.320421
-4.587243
-5.697750
-3.906763
-0.370335
2.567630
3.292616
2.296340
1.418116
1.809110
2.950167
3.475924
2.480468
0.221394
-1.965485
-2.673633
-1.922890
-1.496919
-3.038343
-5.787186
-6.932874
-4.406919
0.991254
6.246509
8.654983
7.801375
5.387547
3.252718
1.680011
-0.280277
-3.132881
-5.928632
-7.096572
-6.182795
-4.448748
-3.677410
-4.319525
-4.692865
-2.378573
3.127650
9.352788
12.877663
12.150145
7.985946
2.402693
-2.248885
-4.332900
-4.138549
-3.593312
-4.498049
-6.912440
-9.166735
-9.464885
-7.155517
-2.793310
2.319427
6.909035
10.283638
11.949916
10.993657
6.630595
-0.181887
-6.568915
-9.844236
-9.140268
-5.356680
-0.634926
2.448549
2.389991
0.307286
-0.857175
0.275814
2.198335
2.899846
1.577426
-1.684527
-5.846442
-8.967570
-9.576633
-7.737314
-4.614512
-1.318184
1.653081
3.835574
4.246100
1.923035
-2.962496
-8.671878
-12.723245
-12.864916
-8.067536
-0.401438
5.343096
6.074491
3.193650
0.251771
-0.751557
-0.803871
-2.447973
-6.689152
-11.845268
-15.937376
-18.050882
-16.570501
-9.564012
1.516485
11.303562
15.583674
15.397170
14.457906
14.054414
12.436359
8.015576
1.644310
-3.654054
-4.921042
-1.703102
3.744676
7.951708
7.915555
3.677784
-0.449596
-0.602284
0.621821
-2.701990
-11.222276
-19.286203
-21.435516
-16.884661
-8.159231
2.175260
12.157646
20.275209
25.391142
25.044706
17.198689
4.915228
-6.010950
-13.756054
-20.315266
-25.696320
-26.373564
-20.764229
-12.567326
-5.925029
-0.549575
5.872124
12.871237
17.261110
17.218233
14.075509
9.731209
3.946099
-3.513263
-9.063649
-8.896970
-5.640939
-4.789801
-5.972799
-4.462444
-0.328413
0.320041
-5.189933
-11.598848
-14.189628
-14.583757
-14.734441
-12.774716
-7.606101
-1.850460
2.944724
10.100606
21.776291
32.243446
33.149860
23.480904
10.359889
1.689499
0.300452
3.712085
6.231882
1.561617
-11.532736
-24.932032
-28.009592
-19.976749
-10.606312
-8.656995
-13.786080
-19.313726
-19.562254
-14.231027
-7.651010
-4.746902
-6.346552
-8.314807
-6.372600
0.238186
9.839638
18.841381
21.594830
14.813735
3.601634
-1.328721
3.700691
8.927796
2.472185
-14.946889
-31.958012
-40.077713
-39.195087
-32.067379
-20.551325
-6.814758
7.589922
23.029957
37.854221
46.120041
43.215446
30.364073
11.315312
-11.087144
-32.788269
-46.681084
-45.821804
-27.857290
3.366583
38.540081
66.381805
79.842949
79.597313
69.726288
50.185776
18.170731
-20.770084
-49.636894
-55.116631
-42.538284
-29.636459
-28.846388
-38.468243
-45.961403
-38.783546
-15.908251
10.936677
29.816082
40.710381
51.758904
66.452553
77.483841
72.203758
44.830276
2.678130
-38.504768
-61.419842
-55.155251
-25.999599
0.802074
0.448785
-26.584459
-57.036671
-71.611801
-71.164406
-66.981049
-61.282734
-44.625729
-12.623519
23.136759
46.152905
52.676434
49.790756
41.611969
26.439581
2.765909
-23.312616
-40.367786
-48.781662
-62.878250
-85.808571
-98.809708
-86.399055
-55.817085
-22.467854
7.223553
33.773186
57.579926
76.353668
86.997246
91.516808
98.295509
107.780914
103.082626
68.839447
10.600950
-51.372738
-97.491608
-117.553963
-113.568207
-95.528557
-71.983475
-47.223591
-23.738340
-1.737641
19.126108
37.249237
51.454578
62.014866
68.151215
66.502228
51.762089
23.383104
-7.356736
-26.128822
-28.883703
-18.514946
1.446233
23.643583
39.412994
46.496006
46.039822
37.938946
24.979069
12.478834
5.959798
11.436934
25.626007
34.510082
29.308010
12.263123
-10.321487
-38.008823
-75.768768
-116.179794
-138.021484
-129.072403
-98.874390
-71.110191
-62.224213
-66.217667
-66.472137
-52.309917
-18.611607
31.851311
80.388451
107.594437
116.395905
122.129417
131.483795
140.664200
142.446609
133.970367
117.921478
98.686600
80.749176
64.695007
47.946030
31.634245
21.531752
21.758863
27.901548
30.278210
25.603054
22.677994
32.664677
50.408546
55.367561
33.992481
-9.319909
-60.886536
-109.407555
-146.585098
-163.404678
-155.970963
-128.878571
-88.867905
-40.833214
12.526774
68.854301
120.892532
155.993332
167.598175
166.323166
169.740097
181.551575
191.555450
191.918060
181.741516
163.828583
147.296432
141.686874
142.738388
134.149017
105.136353
63.188187
26.451889
1.889906
-17.168873
-30.212086
-29.639011
-21.521751
-20.254175
-28.327648
-37.190052
-37.317867
-25.934462
-9.089900
7.301237
21.414816
31.636824
36.336632
35.051617
28.509642
17.528406
3.773214
-8.590438
-15.380145
-15.798754
-14.040435
-16.540209
-26.105528
-39.470802
-48.194656
-44.808750
-30.362204
-13.334120
-3.792225
-7.290182
-21.710386
-41.006504
-59.662357
-76.751778
-97.573532
-125.121414
-152.772308
-169.769730
-169.927246
-154.075851
-126.820129
-94.485954
-65.862785
-47.815144
-40.251335
-40.991604
-49.982979
-63.856258
-76.498299
-87.532654
-100.794434
-117.809807
-137.092422
-154.599396
-165.818741
-168.891373
-163.787888
-150.442123
-131.296021
-115.008400
-110.312119
-115.599464
-122.606506
-126.884926
-127.124077
-119.012283
-95.131676
-51.602077
6.920521
73.076332
143.548203
216.497772
288.104767
350.552094
392.115448
405.945404
396.857605
373.230713
336.074799
280.352905
204.155396
115.053726
27.629091
-46.445843
-103.292015
-140.584167
-151.692688
-130.813858
-84.624626
-31.894850
11.753788
40.450832
52.260483
43.994473
11.500730
-40.205406
-93.004150
-133.088181
-163.613159
-193.061340
-221.598114
-244.388809
-260.350983
-271.205902
-274.145081
-265.105408
-251.182419
-245.445602
-248.689713
-250.255295
-244.498749
-239.025986
-245.120163
-259.225403
-267.009430
-265.808197
-263.351990
-264.604858
-270.066010
-276.589294
-282.713043
-291.346558
-306.510101
-330.319519
-357.414459
-377.296082
-381.668762
-368.528290
-343.042450
-308.933624
-265.344452
-211.450836
-145.757065
-67.391983
23.500189
125.129829
230.889465
334.725525
429.915680
499.294861
527.939514
521.677124
496.363556
464.776306
439.617462
427.030060
421.146210
416.379822
412.530792
410.254395
411.055237
413.965820
411.857758
394.422241
355.001709
297.199280
232.372116
172.513397
125.361771
91.468399
69.895813
62.215759
68.644241
88.499924
116.691277
139.597534
145.244019
134.844345
123.291672
125.634224
142.097046
162.475204
181.004623
200.644623
220.124603
223.509628
198.895721
159.641708
126.773872
100.759323
70.033630
44.420929
50.037090
79.612846
101.230232
113.397079
128.567856
134.052277
109.565292
59.007576
7.026340
-31.244570
-55.647495
-69.977852
-83.281006
-102.243782
-131.116028
-180.135925
-253.859863
-343.000977
-430.887573
-498.666321
-532.540466
-535.203125
-523.786133
-507.997467
-483.128021
-442.759369
-381.078644
-296.292694
-197.154861
-96.486244
-5.055072
68.950592
116.604317
127.808884
105.598785
70.597420
44.076992
34.569088
31.862230
17.750244
-9.142654
-34.899181
-49.237720
-54.644306
-62.958687
-78.736786
-97.997765
-117.702255
-134.490707
-146.886230
-148.990463
-129.931396
-92.938171
-53.199429
-24.275845
-12.210161
-11.964272
-17.198639
-23.481070
-24.812983
-22.558613
-21.651392
-18.480064
-7.446777
8.075483
18.586630
19.114368
12.924472
5.218786
-1.678781
-5.251840
-2.271087
7.500326
25.254492
53.967541
88.935074
115.834244
123.985847
120.522766
122.556099
138.037247
163.710709
193.678818
223.702423
247.601822
254.909286
240.533417
210.457657
174.969391
143.006088
120.957527
110.106270
101.825218
85.740982
66.055832
52.415497
45.052250
42.979004
45.635899
49.534443
57.853081
79.866241
119.314568
169.186615
215.401978
247.054230
262.949646
269.072968
269.425110
261.325500
243.158386
216.777451
184.225769
151.610260
125.146790
103.129898
79.545876
48.327591
5.544253
-47.245945
-102.857689
-151.265198
-186.581543
-210.432922
-225.599304
-232.959274
-234.602142
-233.844620
-233.480957
-237.339783
-250.279114
-271.395386
-290.120697
-296.417206
-295.273804
-300.763397
-315.845795
-330.503540
-334.916565
-324.791504
-294.438843
-236.742096
-161.558563
-93.637093
-45.227108
-12.432502
11.377202
32.005917
54.721451
82.808777
112.525009
136.786987
156.910065
177.711349
197.216858
208.518814
206.167847
193.569458
180.765991
172.291870
162.539200
142.441971
113.397133
91.555923
90.855141
108.871544
130.011261
134.974243
114.154510
79.218292
51.061638
31.672291
5.770275
-31.359482
-70.118355
-102.482719
-126.514824
-143.172241
-152.752213
-153.591629
-145.222244
-128.302567
-102.638985
-69.118927
-32.034618
1.592217
27.820196
49.394733
70.371429
90.277367
101.880997
95.093719
66.340446
21.539059
-25.201578
-56.893368
-68.756592
-72.745735
-79.060921
-81.559418
-72.855049
-62.326408
-61.786259
-68.522591
-72.307060
-66.489510
-53.463409
-40.521770
-29.322027
-16.081577
1.290804
18.868917
25.576159
13.238075
-8.516353
-18.419092
-7.333896
14.843580
34.524162
42.997761
35.858410
18.290049
2.413849
-4.009456
1.586289
19.159943
44.774776
71.541771
93.129608
106.719322
112.341507
112.589638
111.832298
111.643539
112.303566
115.373161
119.571075
122.209030
121.953186
115.910400
102.743401
86.434464
70.237061
51.762589
27.039534
-4.158398
-39.178555
-75.040695
-107.083084
-129.444153
-138.881653
-136.289444
-126.303535
-114.126480
-101.120689
-86.773087
-72.678909
-60.462963
-48.018017
-31.645201
-12.260214
4.927735
16.285000
20.278515
16.336617
6.939109
-4.021162
-15.305344
-26.753700
-36.311359
-42.860119
-48.835712
-56.643471
-64.425728
-67.469788
-63.616936
-55.507393
-47.778614
-43.845661
-44.172054
-46.719238
-49.622280
-53.255005
-58.850296
-64.297424
-64.475204
-56.618584
-40.769615
-17.346451
11.862316
42.561710
68.824097
86.608391
96.111572
98.390610
93.632195
83.572273
70.947121
57.954830
46.545280
37.882187
32.343040
30.660433
34.124855
43.485390
58.085220
76.664467
97.811737
119.943665
141.151031
157.356873
164.924271
166.728088
168.470261
170.069626
167.073975
158.179871
147.262390
138.660614
132.375198
124.857132
114.461464
104.088303
96.641319
90.473289
81.273056
67.159828
50.664520
35.019238
20.722769
6.430756
-8.904947
-25.304323
-43.419476
-62.447182
-76.464745
-81.809662
-83.440445
-87.742935
-95.419144
-100.919037
-98.507362
-90.611092
-85.103699
-86.489342
-92.649628
-99.448265
-107.544724
-118.068008
-126.631310
-129.629333
-129.121338
-128.867798
-127.294769
-117.931458
-101.558327
-88.615257
-86.206924
-91.627396
-96.801216
-94.528076
-83.674171
-69.061783
-53.876019
-34.864223
-8.176634
22.722713
49.905067
70.898796
89.419296
107.751396
123.622833
133.309219
135.895767
132.859406
124.284233
108.246574
84.061790
55.939556
31.062359
14.166742
6.221558
5.287559
6.491038
2.439604
-10.980637
-28.396086
-42.024055
-51.575527
-62.508854
-79.360588
-101.644608
-124.870064
-143.928207
-156.553391
-164.626633
-169.272263
-168.616989
-161.804001
-150.801300
-139.607407
-132.438690
-131.562805
-135.725861
-140.285248
-141.348755
-138.977448
-134.682251
-127.647034
-115.461395
-97.441315
-73.078720
-40.113239
-0.501018
36.479733
61.290005
70.561806
67.459015
57.873203
46.548931
38.066238
35.944817
36.373173
31.410191
22.742998
22.846809
38.755844
62.297909
79.151726
81.229385
69.200165
51.306053
39.670975
40.759911
51.198250
63.235378
70.571297
70.940346
65.906479
60.236343
60.318333
69.183640
83.995712
98.568207
106.976837
106.200600
96.851990
82.685928
67.310822
50.641758
31.478828
11.010033
-8.285803
-24.823473
-37.145977
-41.293694
-33.696465
-17.269812
-0.165737
11.081959
15.968892
18.841116
24.078426
30.834202
30.770638
15.586313
-10.994267
-35.481220
-48.903610
-52.248772
-50.063068
-45.793922
-43.717243
-48.439613
-58.888557
-67.817680
-69.831940
-67.025307
-65.528969
-67.668724
-69.553276
-67.592606
-64.326897
-64.365433
-68.009033
-71.955475
-73.928818
-74.954796
-76.404221
-76.675797
-72.934174
-64.588356
-54.506294
-45.892323
-38.302277
-29.820152
-20.840355
-12.606078
-4.760063
3.244153
9.505440
10.917223
6.474976
-1.628969
-8.461067
-9.511252
-4.344522
4.354321
12.635554
16.529581
14.746712
9.738302
6.166990
