EVENT_NAME: L_AQUILA
EVENT_ID: IT-2009-0009
EVENT_DATE_YYYYMMDD: 20090406
EVENT_TIME_HHMMSS: 013240
EVENT_LATITUDE_DEGREE: 42.3420
EVENT_LONGITUDE_DEGREE: 13.3800
EVENT_DEPTH_KM: 8.3
HYPOCENTER_REFERENCE: INGV-CNT_Seismic_Bulletin
MAGNITUDE_W: 6.1
MAGNITUDE_W_REFERENCE: INGV-CNT_Seismic_Bulletin
MAGNITUDE_L: 
MAGNITUDE_L_REFERENCE: 
FOCAL_MECHANISM: Normal faulting
NETWORK: IT
STATION_CODE: AQV
STATION_NAME: 
STATION_LATITUDE_DEGREE: 42.377222
STATION_LONGITUDE_DEGREE: 13.343888
STATION_ELEVATION_M: 692
LOCATION: 
SENSOR_DEPTH_M: 0.0
VS30_M/S: 474
SITE_CLASSIFICATION_EC8: B
MORPHOLOGIC_CLASSIFICATION: 
EPICENTRAL_DISTANCE_KM: 4.9
EARTHQUAKE_BACKAZIMUTH_DEGREE: 322.8
DATE_TIME_FIRST_SAMPLE_YYYYMMDD_HHMMSS: 20090406_013212.000
DATE_TIME_FIRST_SAMPLE_PRECISION: seconds
SAMPLING_INTERVAL_S: 0.005000
NDATA: 20001
DURATION_S: 100.005
STREAM: HNZ
UNITS: cm
INSTRUMENT: sensor = FBA-3 [Kinemetrics] | digitizer = Etna [Kinemetrics]
INSTRUMENT_ANALOG/DIGITAL: D
INSTRUMENTAL_FREQUENCY_HZ: 208.000
INSTRUMENTAL_DAMPING: 0.700000
FULL_SCALE_G: 1.0
N_BIT_DIGITAL_CONVERTER: 18
PGD_CM: -2.452425
TIME_PGD_S: 33.085000
BASELINE_CORRECTION: BASELINE REMOVED
FILTER_TYPE: BUTTERWORTH
FILTER_ORDER: 2
LOW_CUT_FREQUENCY_HZ: 0.100
HIGH_CUT_FREQUENCY_HZ: 40.000
LATE/NORMAL_TRIGGERED: NT
DATABASE_VERSION: 0.5
HEADER_FORMAT: DYNA 1.2
DATA_TYPE: DISPLACEMENT
PROCESSING: manual (Paolucci et al., 2011)
DATA_TIMESTAMP_YYYYMMDD_HHMMSS: 20211011_155632.169
DATA_LICENSE: CC-BY3_0-IT (http://creativecommons.org/licenses/by/3.0/deed.en)
DATA_CITATION: Luzi L, Pacor F, Puglia R (2019). Italian Accelerometric Archive v 3.0 - Istituto Nazionale di Geofisica e Vulcanologia, Dipartimento della Protezione Civile Nazionale. doi: 10.13127/itaca.3.1
DATA_CREATOR: ITACA working group
ORIGINAL_DATA_MEDIATOR_CITATION: data obtained within the DPC-INGV data exchange agreements
ORIGINAL_DATA_MEDIATOR: Archive of Italian Department of Civil Protection
ORIGINAL_DATA_CREATOR_CITATION: Presidency Of Counsil Of Ministers-Civil Protection Department. (1972). Italian Strong Motion Network. Presidency of Counsil of Ministers - Civil Protection Department. https://doi.org/10.7914/SN/IT http://www.fdsn.org/networks/detail/IT/
ORIGINAL_DATA_CREATOR: network: IT (Italian Strong Motion Network (RAN)); owner: Presidency of Counsil of Ministers - Civil Protection Department (PCM - DPC)
USER1: 
USER2: 
USER3: 
USER4: 
USER5: 
[...]
-1.963835e-02
-1.896354e-02
-1.828548e-02
-1.760419e-02
-1.691967e-02
-1.623194e-02
-1.554104e-02
-1.484699e-02
-1.414976e-02
-1.344932e-02
-1.274562e-02
-1.203863e-02
-1.132837e-02
-1.061483e-02
-9.898007e-03
-9.177902e-03
-8.454519e-03
-7.727841e-03
-6.997818e-03
-6.264409e-03
-5.527618e-03
-4.787490e-03
-4.044050e-03
-3.297269e-03
-2.547088e-03
-1.793469e-03
-1.036391e-03
-2.758410e-04
4.881751e-04
1.255639e-03
2.026566e-03
2.800998e-03
3.578945e-03
4.360361e-03
5.145204e-03
5.933480e-03
6.725206e-03
7.520369e-03
8.318963e-03
9.121043e-03
9.926682e-03
1.073589e-02
1.154861e-02
1.236485e-02
1.318463e-02
1.400796e-02
1.483480e-02
1.566515e-02
1.649906e-02
1.733651e-02
1.817747e-02
1.902194e-02
1.987000e-02
2.072170e-02
2.157701e-02
2.243589e-02
2.329835e-02
2.416442e-02
2.503415e-02
2.590755e-02
2.678461e-02
2.766532e-02
2.854970e-02
2.943772e-02
3.032940e-02
3.122475e-02
3.212379e-02
3.302655e-02
3.393306e-02
3.484332e-02
3.575735e-02
3.667515e-02
3.759671e-02
3.852200e-02
3.945100e-02
4.038373e-02
4.132027e-02
4.226064e-02
4.320485e-02
4.415288e-02
4.510471e-02
4.606030e-02
4.701963e-02
4.798274e-02
4.894968e-02
4.992046e-02
5.089506e-02
5.187344e-02
5.285561e-02
5.384162e-02
5.483153e-02
5.582537e-02
5.682314e-02
5.782485e-02
5.883049e-02
5.984009e-02
6.085362e-02
6.187109e-02
6.289248e-02
6.391776e-02
6.494694e-02
6.598004e-02
6.701709e-02
6.805808e-02
6.910302e-02
7.015196e-02
7.120490e-02
7.226183e-02
7.332273e-02
7.438761e-02
7.545651e-02
7.652945e-02
7.760645e-02
7.868751e-02
7.977264e-02
8.086186e-02
8.195518e-02
8.305255e-02
8.415394e-02
8.525937e-02
8.636889e-02
8.748250e-02
8.860019e-02
8.972195e-02
9.084784e-02
9.197792e-02
9.311217e-02
9.425061e-02
9.539322e-02
9.654001e-02
9.769095e-02
9.884604e-02
1.000053e-01
1.011687e-01
1.023362e-01
1.035080e-01
1.046839e-01
1.058639e-01
1.070482e-01
1.082366e-01
1.094292e-01
1.106260e-01
1.118270e-01
1.130323e-01
1.142418e-01
1.154557e-01
1.166738e-01
1.178962e-01
1.191229e-01
1.203539e-01
1.215892e-01
1.228289e-01
1.240729e-01
1.253213e-01
1.265740e-01
1.278311e-01
1.290925e-01
1.303583e-01
1.316285e-01
1.329030e-01
1.341818e-01
1.354650e-01
1.367526e-01
1.380445e-01
1.393409e-01
1.406417e-01
1.419469e-01
1.432564e-01
1.445703e-01
1.458886e-01
1.472113e-01
1.485384e-01
1.498700e-01
1.512060e-01
1.525466e-01
1.538915e-01
1.552410e-01
1.565949e-01
1.579532e-01
1.593161e-01
1.606834e-01
1.620551e-01
1.634313e-01
1.648119e-01
1.661971e-01
1.675868e-01
1.689808e-01
1.703793e-01
1.717823e-01
1.731899e-01
1.746021e-01
1.760188e-01
1.774401e-01
1.788659e-01
1.802963e-01
1.817311e-01
1.831704e-01
1.846141e-01
1.860624e-01
1.875152e-01
1.889727e-01
1.904347e-01
1.919014e-01
1.933728e-01
1.948488e-01
1.963295e-01
1.978148e-01
1.993047e-01
2.007993e-01
2.022986e-01
2.038026e-01
2.053114e-01
2.068248e-01
2.083430e-01
2.098658e-01
2.113932e-01
2.129253e-01
2.144621e-01
2.160036e-01
2.175498e-01
2.191008e-01
2.206564e-01
2.222168e-01
2.237818e-01
2.253516e-01
2.269261e-01
2.285054e-01
2.300894e-01
2.316783e-01
2.332719e-01
2.348703e-01
2.364735e-01
2.380814e-01
2.396942e-01
2.413117e-01
2.429341e-01
2.445613e-01
2.461932e-01
2.478299e-01
2.494715e-01
2.511180e-01
2.527692e-01
2.544253e-01
2.560861e-01
2.577518e-01
2.594225e-01
2.610981e-01
2.627786e-01
2.644641e-01
2.661544e-01
2.678497e-01
2.695499e-01
2.712550e-01
2.729650e-01
2.746799e-01
2.763995e-01
2.781241e-01
2.798536e-01
2.815879e-01
2.833272e-01
2.850715e-01
2.868207e-01
2.885750e-01
2.903342e-01
2.920983e-01
2.938674e-01
2.956413e-01
2.974203e-01
2.992041e-01
3.009929e-01
3.027866e-01
3.045853e-01
3.063888e-01
3.081972e-01
3.100106e-01
3.118290e-01
3.136524e-01
3.154808e-01
3.173142e-01
3.191524e-01
3.209957e-01
3.228439e-01
3.246972e-01
3.265555e-01
3.284188e-01
3.302872e-01
3.321605e-01
3.340389e-01
3.359223e-01
3.378106e-01
3.397041e-01
3.416026e-01
3.435062e-01
3.454148e-01
3.473286e-01
3.492474e-01
3.511713e-01
3.531004e-01
3.550347e-01
3.569740e-01
3.589186e-01
3.608682e-01
3.628230e-01
3.647828e-01
3.667478e-01
3.687178e-01
3.706930e-01
3.726733e-01
3.746587e-01
3.766492e-01
3.786447e-01
3.806454e-01
3.826512e-01
3.846620e-01
3.866781e-01
3.886993e-01
3.907257e-01
3.927573e-01
3.947942e-01
3.968363e-01
3.988836e-01
4.009360e-01
4.029935e-01
4.050560e-01
4.071236e-01
4.091963e-01
4.112742e-01
4.133572e-01
4.154453e-01
4.175385e-01
4.196368e-01
4.217402e-01
4.238487e-01
4.259624e-01
4.280812e-01
4.302052e-01
4.323343e-01
4.344685e-01
4.366079e-01
4.387524e-01
4.409022e-01
4.430571e-01
4.452173e-01
4.473827e-01
4.495532e-01
4.517290e-01
4.539099e-01
4.560960e-01
4.582874e-01
4.604840e-01
4.626859e-01
4.648929e-01
4.671051e-01
4.693225e-01
4.715450e-01
4.737728e-01
4.760058e-01
4.782441e-01
4.804876e-01
4.827362e-01
4.849900e-01
4.872490e-01
4.895130e-01
4.917823e-01
4.940568e-01
4.963366e-01
4.986216e-01
5.009119e-01
5.032073e-01
5.055079e-01
5.078137e-01
5.101247e-01
5.124409e-01
5.147622e-01
5.170888e-01
5.194204e-01
5.217572e-01
5.240992e-01
5.264463e-01
5.287986e-01
5.311562e-01
5.335189e-01
5.358868e-01
5.382599e-01
5.406381e-01
5.430215e-01
5.454102e-01
5.478040e-01
5.502032e-01
5.526076e-01
5.550172e-01
5.574320e-01
5.598521e-01
5.622773e-01
5.647078e-01
5.671433e-01
5.695840e-01
5.720299e-01
5.744809e-01
5.769372e-01
5.793987e-01
5.818653e-01
5.843372e-01
5.868143e-01
5.892966e-01
5.917841e-01
5.942768e-01
5.967747e-01
5.992777e-01
6.017860e-01
6.042995e-01
6.068182e-01
6.093422e-01
6.118713e-01
6.144056e-01
6.169452e-01
6.194900e-01
6.220401e-01
6.245952e-01
6.271554e-01
6.297206e-01
6.322909e-01
6.348664e-01
6.374468e-01
6.400321e-01
6.426220e-01
6.452164e-01
6.478151e-01
6.504178e-01
6.530241e-01
6.556331e-01
6.582426e-01
6.608448e-01
6.634231e-01
6.659518e-01
6.684015e-01
6.707456e-01
6.729635e-01
6.750439e-01
6.769909e-01
6.788389e-01
6.806690e-01
6.826142e-01
6.848334e-01
6.874405e-01
6.904178e-01
6.935842e-01
6.966703e-01
6.994493e-01
7.018164e-01
7.037809e-01
7.054324e-01
7.069240e-01
7.084516e-01
7.102014e-01
7.122892e-01
7.147290e-01
7.174459e-01
7.203175e-01
7.232250e-01
7.260938e-01
7.289074e-01
7.316834e-01
7.344209e-01
7.370451e-01
7.393922e-01
7.412830e-01
7.426802e-01
7.438132e-01
7.451245e-01
7.470341e-01
7.497022e-01
7.529690e-01
7.564933e-01
7.599718e-01
7.632874e-01
7.664972e-01
7.697125e-01
7.730093e-01
7.764053e-01
7.798533e-01
7.832471e-01
7.864718e-01
7.894497e-01
7.921345e-01
7.945207e-01
7.967163e-01
7.989892e-01
8.016753e-01
8.049967e-01
8.089377e-01
8.132673e-01
8.176862e-01
8.219749e-01
8.260128e-01
8.296890e-01
8.328783e-01
8.355559e-01
8.378941e-01
8.401944e-01
8.427163e-01
8.455589e-01
8.486586e-01
8.518831e-01
8.551610e-01
8.585521e-01
8.621771e-01
8.660549e-01
8.700004e-01
8.736945e-01
8.768924e-01
8.796161e-01
8.821619e-01
8.849012e-01
8.880385e-01
8.915157e-01
8.950817e-01
8.984300e-01
9.013331e-01
9.037411e-01
9.058023e-01
9.077806e-01
9.099058e-01
9.122385e-01
9.146291e-01
9.168069e-01
9.185689e-01
9.199593e-01
9.213025e-01
9.230361e-01
9.254526e-01
9.285452e-01
9.320574e-01
9.356672e-01
9.391548e-01
9.424578e-01
9.456239e-01
9.487407e-01
9.518684e-01
9.549679e-01
9.578630e-01
9.603138e-01
9.621897e-01
9.636053e-01
9.648783e-01
9.663408e-01
9.681930e-01
9.705184e-01
9.733515e-01
9.766381e-01
9.801433e-01
9.835019e-01
9.864202e-01
9.888314e-01
9.908944e-01
9.928965e-01
9.951234e-01
9.976867e-01
1.000383e+00
1.002769e+00
1.004462e+00
1.005441e+00
1.006061e+00
1.006744e+00
1.007555e+00
1.008048e+00
1.007563e+00
1.005712e+00
1.002583e+00
9.985266e-01
9.938981e-01
9.890301e-01
9.843212e-01
9.801398e-01
9.765664e-01
9.732867e-01
9.698030e-01
9.657525e-01
9.610564e-01
9.559221e-01
9.508320e-01
9.464420e-01
9.432824e-01
9.414301e-01
9.404694e-01
9.398046e-01
9.390278e-01
9.380173e-01
9.367963e-01
9.354296e-01
9.340061e-01
9.325207e-01
9.307413e-01
9.283972e-01
9.255637e-01
9.226535e-01
9.198648e-01
9.167640e-01
9.126139e-01
9.071544e-01
9.009675e-01
8.950171e-01
8.898790e-01
8.854951e-01
8.816182e-01
8.782965e-01
8.758512e-01
8.745712e-01
8.745951e-01
8.759666e-01
8.785865e-01
8.820620e-01
8.856815e-01
8.886713e-01
8.906513e-01
8.918874e-01
8.929703e-01
8.941989e-01
8.953481e-01
8.959808e-01
8.958169e-01
8.948597e-01
8.933902e-01
8.918187e-01
8.903138e-01
8.885232e-01
8.857758e-01
8.815944e-01
8.760135e-01
8.694777e-01
8.625272e-01
8.555883e-01
8.489658e-01
8.428893e-01
8.374533e-01
8.325512e-01
8.279513e-01
8.233403e-01
8.181552e-01
8.115028e-01
8.025192e-01
7.908797e-01
7.769648e-01
7.617738e-01
7.468301e-01
7.337720e-01
7.235135e-01
7.157523e-01
7.094546e-01
7.036985e-01
6.978707e-01
6.912875e-01
6.830899e-01
6.726529e-01
6.600100e-01
6.459722e-01
6.319568e-01
6.195266e-01
6.096961e-01
6.023775e-01
5.964374e-01
5.903970e-01
5.832172e-01
5.745647e-01
5.645151e-01
5.531838e-01
5.407001e-01
5.274679e-01
5.143310e-01
5.022770e-01
4.917216e-01
4.820143e-01
4.718410e-01
4.602846e-01
4.475091e-01
4.345330e-01
4.225883e-01
4.127333e-01
4.058447e-01
4.027005e-01
4.037954e-01
4.088299e-01
4.163144e-01
4.238817e-01
4.292957e-01
4.313742e-01
4.301688e-01
4.265872e-01
4.219454e-01
4.174855e-01
4.137804e-01
4.105292e-01
4.072623e-01
4.043447e-01
4.030272e-01
4.044293e-01
4.086957e-01
4.151277e-01
4.227250e-01
4.303796e-01
4.367818e-01
4.405208e-01
4.406213e-01
4.372637e-01
4.320020e-01
4.269879e-01
4.237215e-01
4.224883e-01
4.228569e-01
4.243563e-01
4.264554e-01
4.280775e-01
4.275662e-01
4.235587e-01
4.162735e-01
4.081033e-01
4.027020e-01
4.029514e-01
4.092986e-01
4.196305e-01
4.303352e-01
4.374318e-01
4.374211e-01
4.283087e-01
4.107773e-01
3.885363e-01
3.670349e-01
3.510633e-01
3.427629e-01
3.410927e-01
3.426890e-01
3.435009e-01
3.404262e-01
3.321595e-01
3.190727e-01
3.028174e-01
2.861392e-01
2.724370e-01
2.645798e-01
2.634745e-01
2.674184e-01
2.727005e-01
2.751113e-01
2.718731e-01
2.634903e-01
2.544218e-01
2.513531e-01
2.595701e-01
2.799534e-01
3.086357e-01
3.391769e-01
3.656256e-01
3.846990e-01
3.961751e-01
4.016750e-01
4.028010e-01
3.999875e-01
3.928712e-01
3.815422e-01
3.672400e-01
3.519677e-01
3.378133e-01
3.267008e-01
3.204604e-01
3.208571e-01
3.293159e-01
3.462207e-01
3.701665e-01
3.979602e-01
4.257310e-01
4.504665e-01
4.708130e-01
4.867269e-01
4.985535e-01
5.063062e-01
5.094776e-01
5.073657e-01
4.998140e-01
4.879754e-01
4.743753e-01
4.619087e-01
4.524420e-01
4.462350e-01
4.425845e-01
4.408528e-01
4.409137e-01
4.428740e-01
4.465685e-01
4.512758e-01
4.556992e-01
4.579801e-01
4.557340e-01
4.465083e-01
4.288556e-01
4.035055e-01
3.737726e-01
3.446668e-01
3.207525e-01
3.036819e-01
2.911969e-01
2.786871e-01
2.622146e-01
2.407305e-01
2.162377e-01
1.923859e-01
1.725492e-01
1.580807e-01
1.474543e-01
1.368896e-01
1.221401e-01
1.003636e-01
7.113680e-02
3.632540e-02
-9.376431e-04
-3.757227e-02
-7.154622e-02
-1.023169e-01
-1.306605e-01
-1.579494e-01
-1.854839e-01
-2.143730e-01
-2.455412e-01
-2.792380e-01
-3.143758e-01
-3.487911e-01
-3.806320e-01
-4.095808e-01
-4.368210e-01
-4.640760e-01
-4.926476e-01
-5.229573e-01
-5.546460e-01
-5.870319e-01
-6.195085e-01
-6.516237e-01
-6.830533e-01
-7.137158e-01
-7.439028e-01
-7.741593e-01
-8.048831e-01
-8.359802e-01
-8.668901e-01
-8.969248e-01
-9.256709e-01
-9.531608e-01
-9.797042e-01
-1.005692e+00
-1.031687e+00
-1.058660e+00
-1.087956e+00
-1.120791e+00
-1.157475e+00
-1.196830e+00
-1.236363e+00
-1.273281e+00
-1.305772e+00
-1.333652e+00
-1.358004e+00
-1.380244e+00
-1.401435e+00
-1.422120e+00
-1.442506e+00
-1.462666e+00
-1.482526e+00
-1.501704e+00
-1.519455e+00
-1.535037e+00
-1.548334e+00
-1.560160e+00
-1.571914e+00
-1.584880e+00
-1.599694e+00
-1.616325e+00
-1.634533e+00
-1.654295e+00
-1.675716e+00
-1.698567e+00
-1.722025e+00
-1.744849e+00
-1.765818e+00
-1.784140e+00
-1.799652e+00
-1.812841e+00
-1.824672e+00
-1.836224e+00
-1.848295e+00
-1.861079e+00
-1.874014e+00
-1.885947e+00
-1.895760e+00
-1.903282e+00
-1.909727e+00
-1.916989e+00
-1.926380e+00
-1.938041e+00
-1.951459e+00
-1.966302e+00
-1.982406e+00
-1.998896e+00
-2.013695e+00
-2.024415e+00
-2.029955e+00
-2.031239e+00
-2.030387e+00
-2.029298e+00
-2.029049e+00
-2.030290e+00
-2.033784e+00
-2.040498e+00
-2.051359e+00
-2.066982e+00
-2.087418e+00
-2.111862e+00
-2.138601e+00
-2.165530e+00
-2.191109e+00
-2.215063e+00
-2.238279e+00
-2.262050e+00
-2.287210e+00
-2.313639e+00
-2.340148e+00
-2.364718e+00
-2.385106e+00
-2.399720e+00
-2.408370e+00
-2.412436e+00
-2.414291e+00
-2.416361e+00
-2.420283e+00
-2.426501e+00
-2.434344e+00
-2.442426e+00
-2.449035e+00
-2.452425e+00
-2.451088e+00
-2.444140e+00
-2.431679e+00
-2.414702e+00
-2.394467e+00
-2.371752e+00
-2.346590e+00
-2.318546e+00
-2.287232e+00
-2.252709e+00
-2.215702e+00
-2.177636e+00
-2.140307e+00
-2.105120e+00
-2.072302e+00
-2.040705e+00
-2.008474e+00
-1.974115e+00
-1.937241e+00
-1.898529e+00
-1.859064e+00
-1.819586e+00
-1.780044e+00
-1.739582e+00
-1.696927e+00
-1.650976e+00
-1.601257e+00
-1.548077e+00
-1.492362e+00
-1.435273e+00
-1.377825e+00
-1.320762e+00
-1.264714e+00
-1.210386e+00
-1.158526e+00
-1.109795e+00
-1.064745e+00
-1.023925e+00
-9.879121e-01
-9.571781e-01
-9.318818e-01
-9.117495e-01
-8.961772e-01
-8.844808e-01
-8.760640e-01
-8.703949e-01
-8.668934e-01
-8.649015e-01
-8.637921e-01
-8.631419e-01
-8.629205e-01
-8.635583e-01
-8.657082e-01
-8.698497e-01
-8.760470e-01
-8.839756e-01
-8.931437e-01
-9.031243e-01
-9.136302e-01
-9.244482e-01
-9.353930e-01
-9.463756e-01
-9.575109e-01
-9.691281e-01
-9.816278e-01
-9.952366e-01
-1.009840e+00
-1.025010e+00
-1.040130e+00
-1.054479e+00
-1.067340e+00
-1.078345e+00
-1.087916e+00
-1.097443e+00
-1.109002e+00
-1.124762e+00
-1.146421e+00
-1.174827e+00
-1.209787e+00
-1.250131e+00
-1.293943e+00
-1.338853e+00
-1.382370e+00
-1.422243e+00
-1.456854e+00
-1.485503e+00
-1.508413e+00
-1.526535e+00
-1.541230e+00
-1.553894e+00
-1.565581e+00
-1.576791e+00
-1.587569e+00
-1.597764e+00
-1.607165e+00
-1.615450e+00
-1.622031e+00
-1.625846e+00
-1.625301e+00
-1.618603e+00
-1.604205e+00
-1.581065e+00
-1.548761e+00
-1.507553e+00
-1.458425e+00
-1.403034e+00
-1.343403e+00
-1.281549e+00
-1.219333e+00
-1.158443e+00
-1.100236e+00
-1.045255e+00
-9.928180e-01
-9.412872e-01
-8.890609e-01
-8.356548e-01
-7.820448e-01
-7.300308e-01
-6.813106e-01
-6.368829e-01
-5.968933e-01
-5.608580e-01
-5.280382e-01
-4.978033e-01
-4.698412e-01
-4.440800e-01
-4.204695e-01
-3.988276e-01
-3.789123e-01
-3.607031e-01
-3.445335e-01
-3.309762e-01
-3.206230e-01
-3.137850e-01
-3.102679e-01
-3.094129e-01
-3.103567e-01
-3.123181e-01
-3.148184e-01
-3.178233e-01
-3.216533e-01
-3.267890e-01
-3.339172e-01
-3.439532e-01
-3.576593e-01
-3.750876e-01
-3.953498e-01
-4.170511e-01
-4.389652e-01
-4.602613e-01
-4.804643e-01
-4.993992e-01
-5.169954e-01
-5.331244e-01
-5.475908e-01
-5.601437e-01
-5.704283e-01
-5.779369e-01
-5.820831e-01
-5.824883e-01
-5.794786e-01
-5.743125e-01
-5.687112e-01
-5.640390e-01
-5.606709e-01
-5.578460e-01
-5.539738e-01
-5.471687e-01
-5.359136e-01
-5.196305e-01
-4.988740e-01
-4.750801e-01
-4.499429e-01
-4.247448e-01
-3.999922e-01
-3.754370e-01
-3.504001e-01
-3.242200e-01
-2.966404e-01
-2.680145e-01
-2.392158e-01
-2.112479e-01
-1.847333e-01
-1.596009e-01
-1.351243e-01
-1.101545e-01
-8.339485e-02
-5.376092e-02
-2.084798e-02
1.468935e-02
5.122797e-02
8.686764e-02
1.202217e-01
1.507240e-01
1.784737e-01
2.039494e-01
2.277760e-01
2.505879e-01
2.729582e-01
2.953658e-01
3.181970e-01
3.417238e-01
3.660702e-01
3.912873e-01
4.174415e-01
4.445199e-01
4.722825e-01
5.002897e-01
5.280561e-01
5.551484e-01
5.811548e-01
6.056801e-01
6.285218e-01
6.498558e-01
6.701843e-01
6.901288e-01
7.103410e-01
7.315331e-01
7.542790e-01
7.786242e-01
8.040088e-01
8.296227e-01
8.548454e-01
8.794612e-01
9.037141e-01
9.283659e-01
9.545046e-01
9.829197e-01
1.013490e+00
1.045068e+00
1.075894e+00
1.104260e+00
1.129010e+00
1.149614e+00
1.165984e+00
1.178410e+00
1.187595e+00
1.194526e+00
1.200237e+00
1.205648e+00
1.211512e+00
1.218418e+00
1.226787e+00
1.236846e+00
1.248583e+00
1.261725e+00
1.275838e+00
1.290499e+00
1.305344e+00
1.319928e+00
1.333558e+00
1.345333e+00
1.354391e+00
1.360209e+00
1.362800e+00
1.362751e+00
1.361052e+00
1.358831e+00
1.357065e+00
1.356412e+00
1.357142e+00
1.359085e+00
1.361551e+00
1.363388e+00
1.363329e+00
1.360508e+00
1.354751e+00
1.346497e+00
1.336478e+00
1.325422e+00
1.313987e+00
1.302780e+00
1.292170e+00
1.282022e+00
1.271659e+00
1.260124e+00
1.246505e+00
1.230100e+00
1.210444e+00
1.187190e+00
1.159963e+00
1.128433e+00
1.092557e+00
1.052714e+00
1.009646e+00
9.643605e-01
9.180826e-01
8.720762e-01
8.272801e-01
7.840823e-01
7.425108e-01
7.026007e-01
6.645126e-01
6.283205e-01
5.936951e-01
5.598320e-01
5.257287e-01
4.905277e-01
4.536976e-01
4.150750e-01
3.749220e-01
3.340472e-01
2.937210e-01
2.552683e-01
2.196966e-01
1.875726e-01
1.589880e-01
1.336533e-01
1.112822e-01
9.183711e-02
7.523483e-02
6.095861e-02
4.802432e-02
3.522975e-02
2.149955e-02
6.117893e-03
-1.121980e-02
-3.041396e-02
-5.095236e-02
-7.189582e-02
-9.198851e-02
-1.100187e-01
-1.252596e-01
-1.377084e-01
-1.480446e-01
-1.574353e-01
-1.673209e-01
-1.790615e-01
-1.933802e-01
-2.100171e-01
-2.280197e-01
-2.465369e-01
-2.654118e-01
-2.849622e-01
-3.052605e-01
-3.258002e-01
-3.459121e-01
-3.653762e-01
-3.845812e-01
-4.043061e-01
-4.254327e-01
-4.486308e-01
-4.740512e-01
-5.011962e-01
-5.291401e-01
-5.569494e-01
-5.839401e-01
-6.096973e-01
-6.339580e-01
-6.564962e-01
-6.771477e-01
-6.958826e-01
-7.128213e-01
-7.282741e-01
-7.427873e-01
-7.570504e-01
-7.716179e-01
-7.866468e-01
-8.018467e-01
-8.165661e-01
-8.299736e-01
-8.414075e-01
-8.507312e-01
-8.583881e-01
-8.650872e-01
-8.713707e-01
-8.773228e-01
-8.824800e-01
-8.860316e-01
-8.873036e-01
-8.861530e-01
-8.829807e-01
-8.784370e-01
-8.730976e-01
-8.673973e-01
-8.617072e-01
-8.562619e-01
-8.510248e-01
-8.456995e-01
-8.398756e-01
-8.332001e-01
-8.254883e-01
-8.167467e-01
-8.071200e-01
-7.968040e-01
-7.859613e-01
