EVENT_NAME: L_AQUILA
EVENT_ID: IT-2009-0009
EVENT_DATE_YYYYMMDD: 20090406
EVENT_TIME_HHMMSS: 013240
EVENT_LATITUDE_DEGREE: 42.3420
EVENT_LONGITUDE_DEGREE: 13.3800
EVENT_DEPTH_KM: 8.3
HYPOCENTER_REFERENCE: INGV-CNT_Seismic_Bulletin
MAGNITUDE_W: 6.1
MAGNITUDE_W_REFERENCE: INGV-CNT_Seismic_Bulletin
MAGNITUDE_L: 
MAGNITUDE_L_REFERENCE: 
FOCAL_MECHANISM: Normal faulting
NETWORK: IT
STATION_CODE: AQV
STATION_NAME: 
STATION_LATITUDE_DEGREE: 42.377222
STATION_LONGITUDE_DEGREE: 13.343888
STATION_ELEVATION_M: 692
LOCATION: 
SENSOR_DEPTH_M: 0.0
VS30_M/S: 474
SITE_CLASSIFICATION_EC8: B
MORPHOLOGIC_CLASSIFICATION: 
EPICENTRAL_DISTANCE_KM: 4.9
EARTHQUAKE_BACKAZIMUTH_DEGREE: 322.8
DATE_TIME_FIRST_SAMPLE_YYYYMMDD_HHMMSS: 20090406_013212.000
DATE_TIME_FIRST_SAMPLE_PRECISION: seconds
SAMPLING_INTERVAL_S: 0.005000
NDATA: 20001
DURATION_S: 100.005
STREAM: HNE
UNITS: cm/s
INSTRUMENT: sensor = FBA-3 [Kinemetrics] | digitizer = Etna [Kinemetrics]
INSTRUMENT_ANALOG/DIGITAL: D
INSTRUMENTAL_FREQUENCY_HZ: 210.000
INSTRUMENTAL_DAMPING: 0.700000
FULL_SCALE_G: 1.0
N_BIT_DIGITAL_CONVERTER: 18
PGV_CM/S: -40.205750
TIME_PGV_S: 32.980000
BASELINE_CORRECTION: BASELINE REMOVED
FILTER_TYPE: BUTTERWORTH
FILTER_ORDER: 2
LOW_CUT_FREQUENCY_HZ: 0.100
HIGH_CUT_FREQUENCY_HZ: 40.000
LATE/NORMAL_TRIGGERED: NT
DATABASE_VERSION: 0.5
HEADER_FORMAT: DYNA 1.2
DATA_TYPE: VELOCITY
PROCESSING: manual (Paolucci et al., 2011)
DATA_TIMESTAMP_YYYYMMDD_HHMMSS: 20211011_155630.741
DATA_LICENSE: CC-BY3_0-IT (http://creativecommons.org/licenses/by/3.0/deed.en)
DATA_CITATION: Luzi L, Pacor F, Puglia R (2019). Italian Accelerometric Archive v 3.0 - Istituto Nazionale di Geofisica e Vulcanologia, Dipartimento della Protezione Civile Nazionale. doi: 10.13127/itaca.3.1
DATA_CREATOR: ITACA working group
ORIGINAL_DATA_MEDIATOR_CITATION: data obtained within the DPC-INGV data exchange agreements
ORIGINAL_DATA_MEDIATOR: Archive of Italian Department of Civil Protection
ORIGINAL_DATA_CREATOR_CITATION: Presidency Of Counsil Of Ministers-Civil Protection Department. (1972). Italian Strong Motion Network. Presidency of Counsil of Ministers - Civil Protection Department. https://doi.org/10.7914/SN/IT http://www.fdsn.org/networks/detail/IT/
ORIGINAL_DATA_CREATOR: network: IT (Italian Strong Motion Network (RAN)); owner: Presidency of Counsil of Ministers - Civil Protection Department (PCM - DPC)
USER1: 
USER2: 
USER3: 
USER4: 
USER5: 
[...]
-0.030369
-0.030546
-0.030714
-0.030879
-0.031045
-0.031206
-0.031359
-0.031506
-0.031655
-0.031805
-0.031957
-0.032111
-0.032264
-0.032415
-0.032566
-0.032725
-0.032894
-0.033069
-0.033244
-0.033415
-0.033582
-0.033748
-0.033910
-0.034061
-0.034210
-0.034369
-0.034543
-0.034721
-0.034892
-0.035059
-0.035229
-0.035406
-0.035593
-0.035780
-0.035956
-0.036122
-0.036289
-0.036468
-0.036662
-0.036859
-0.037044
-0.037215
-0.037384
-0.037557
-0.037732
-0.037904
-0.038076
-0.038250
-0.038427
-0.038609
-0.038801
-0.039000
-0.039198
-0.039393
-0.039592
-0.039796
-0.039998
-0.040195
-0.040388
-0.040577
-0.040758
-0.040932
-0.041107
-0.041288
-0.041478
-0.041676
-0.041882
-0.042092
-0.042304
-0.042513
-0.042713
-0.042902
-0.043085
-0.043271
-0.043466
-0.043668
-0.043868
-0.044060
-0.044245
-0.044434
-0.044628
-0.044830
-0.045036
-0.045242
-0.045444
-0.045640
-0.045826
-0.046003
-0.046180
-0.046370
-0.046573
-0.046780
-0.046981
-0.047170
-0.047351
-0.047535
-0.047730
-0.047933
-0.048137
-0.048335
-0.048531
-0.048733
-0.048946
-0.049156
-0.049354
-0.049551
-0.049760
-0.049975
-0.050182
-0.050381
-0.050579
-0.050779
-0.050979
-0.051180
-0.051391
-0.051612
-0.051835
-0.052055
-0.052278
-0.052501
-0.052716
-0.052920
-0.053126
-0.053341
-0.053562
-0.053779
-0.053988
-0.054198
-0.054416
-0.054643
-0.054873
-0.055096
-0.055308
-0.055508
-0.055707
-0.055918
-0.056144
-0.056373
-0.056596
-0.056815
-0.057034
-0.057250
-0.057459
-0.057659
-0.057858
-0.058069
-0.058297
-0.058533
-0.058765
-0.058990
-0.059217
-0.059452
-0.059690
-0.059920
-0.060143
-0.060359
-0.060570
-0.060781
-0.060998
-0.061218
-0.061434
-0.061645
-0.061861
-0.062086
-0.062320
-0.062554
-0.062788
-0.063025
-0.063261
-0.063493
-0.063722
-0.063949
-0.064171
-0.064390
-0.064615
-0.064853
-0.065095
-0.065327
-0.065552
-0.065773
-0.065999
-0.066235
-0.066477
-0.066715
-0.066940
-0.067156
-0.067372
-0.067595
-0.067826
-0.068061
-0.068296
-0.068532
-0.068769
-0.069010
-0.069253
-0.069489
-0.069718
-0.069953
-0.070207
-0.070478
-0.070743
-0.070987
-0.071218
-0.071448
-0.071681
-0.071924
-0.072179
-0.072439
-0.072691
-0.072936
-0.073183
-0.073438
-0.073694
-0.073948
-0.074202
-0.074459
-0.074720
-0.074973
-0.075212
-0.075444
-0.075675
-0.075908
-0.076146
-0.076391
-0.076640
-0.076889
-0.077135
-0.077380
-0.077628
-0.077883
-0.078142
-0.078400
-0.078650
-0.078894
-0.079143
-0.079401
-0.079668
-0.079939
-0.080207
-0.080462
-0.080705
-0.080947
-0.081200
-0.081463
-0.081729
-0.081993
-0.082252
-0.082503
-0.082749
-0.082991
-0.083235
-0.083480
-0.083727
-0.083983
-0.084248
-0.084513
-0.084770
-0.085025
-0.085285
-0.085553
-0.085823
-0.086086
-0.086334
-0.086576
-0.086827
-0.087093
-0.087359
-0.087614
-0.087857
-0.088101
-0.088353
-0.088610
-0.088865
-0.089118
-0.089375
-0.089640
-0.089906
-0.090164
-0.090417
-0.090676
-0.090941
-0.091206
-0.091469
-0.091733
-0.091997
-0.092256
-0.092509
-0.092764
-0.093029
-0.093301
-0.093568
-0.093831
-0.094097
-0.094364
-0.094622
-0.094874
-0.095129
-0.095395
-0.095669
-0.095943
-0.096208
-0.096468
-0.096730
-0.096993
-0.097258
-0.097530
-0.097809
-0.098093
-0.098376
-0.098651
-0.098924
-0.099197
-0.099472
-0.099752
-0.100040
-0.100328
-0.100599
-0.100856
-0.101118
-0.101402
-0.101698
-0.101993
-0.102280
-0.102559
-0.102827
-0.103086
-0.103342
-0.103606
-0.103883
-0.104167
-0.104446
-0.104715
-0.104976
-0.105235
-0.105494
-0.105758
-0.106029
-0.106305
-0.106583
-0.106858
-0.107129
-0.107403
-0.107680
-0.107954
-0.108227
-0.108505
-0.108792
-0.109077
-0.109352
-0.109622
-0.109894
-0.110170
-0.110450
-0.110737
-0.111028
-0.111313
-0.111584
-0.111846
-0.112112
-0.112388
-0.112671
-0.112953
-0.113231
-0.113503
-0.113775
-0.114056
-0.114343
-0.114629
-0.114911
-0.115193
-0.115476
-0.115760
-0.116047
-0.116337
-0.116625
-0.116910
-0.117191
-0.117468
-0.117745
-0.118027
-0.118315
-0.118606
-0.118899
-0.119191
-0.119480
-0.119763
-0.120035
-0.120300
-0.120565
-0.120838
-0.121120
-0.121407
-0.121695
-0.121982
-0.122262
-0.122535
-0.122804
-0.123082
-0.123371
-0.123664
-0.123945
-0.124214
-0.124487
-0.124774
-0.125072
-0.125370
-0.125660
-0.125936
-0.126200
-0.126464
-0.126735
-0.127015
-0.127296
-0.127571
-0.127847
-0.128136
-0.128445
-0.128755
-0.129045
-0.129314
-0.129581
-0.129860
-0.130149
-0.130436
-0.130713
-0.130982
-0.131246
-0.131513
-0.131793
-0.132090
-0.132392
-0.132684
-0.132965
-0.133245
-0.133527
-0.133810
-0.134092
-0.134375
-0.134661
-0.134944
-0.135216
-0.135477
-0.135744
-0.136031
-0.136332
-0.136632
-0.136919
-0.137199
-0.137478
-0.137751
-0.138019
-0.138290
-0.138575
-0.138871
-0.139165
-0.139451
-0.139733
-0.140010
-0.140286
-0.140563
-0.140843
-0.141120
-0.141387
-0.141652
-0.141925
-0.142206
-0.142489
-0.142771
-0.143052
-0.143330
-0.143605
-0.143874
-0.144138
-0.144399
-0.144662
-0.144930
-0.145205
-0.145481
-0.145758
-0.146034
-0.146308
-0.146575
-0.146840
-0.147113
-0.147392
-0.147671
-0.147949
-0.148226
-0.148498
-0.148764
-0.149039
-0.149325
-0.149612
-0.149891
-0.150157
-0.150417
-0.150682
-0.150960
-0.151247
-0.151531
-0.151808
-0.152088
-0.152375
-0.152660
-0.152938
-0.153208
-0.153469
-0.153719
-0.153974
-0.154248
-0.154527
-0.154791
-0.155049
-0.155315
-0.155586
-0.155847
-0.156100
-0.156359
-0.156624
-0.156884
-0.157145
-0.157414
-0.157690
-0.157968
-0.158249
-0.158529
-0.158803
-0.159071
-0.159342
-0.159619
-0.159898
-0.160176
-0.160453
-0.160726
-0.160992
-0.161260
-0.161531
-0.161797
-0.162046
-0.162287
-0.162536
-0.162791
-0.163038
-0.163278
-0.163518
-0.163770
-0.164033
-0.164300
-0.164564
-0.164825
-0.165082
-0.165331
-0.165573
-0.165818
-0.166076
-0.166348
-0.166615
-0.166866
-0.167106
-0.167349
-0.167599
-0.167852
-0.168103
-0.168351
-0.168592
-0.168833
-0.169084
-0.169340
-0.169591
-0.169837
-0.170086
-0.170336
-0.170580
-0.170811
-0.171032
-0.171252
-0.171484
-0.171738
-0.172008
-0.172273
-0.172520
-0.172756
-0.172991
-0.173227
-0.173462
-0.173699
-0.173941
-0.174184
-0.174422
-0.174655
-0.174887
-0.175115
-0.175339
-0.175565
-0.175796
-0.176026
-0.176247
-0.176455
-0.176656
-0.176859
-0.177067
-0.177279
-0.177495
-0.177716
-0.177938
-0.178160
-0.178379
-0.178594
-0.178801
-0.179003
-0.179206
-0.179417
-0.179634
-0.179855
-0.180073
-0.180284
-0.180490
-0.180699
-0.180909
-0.181114
-0.181320
-0.181529
-0.181739
-0.181939
-0.182133
-0.182330
-0.182533
-0.182729
-0.182915
-0.183105
-0.183305
-0.183506
-0.183698
-0.183884
-0.184074
-0.184268
-0.184462
-0.184651
-0.184839
-0.185027
-0.185211
-0.185393
-0.185575
-0.185759
-0.185940
-0.186116
-0.186294
-0.186481
-0.186674
-0.186857
-0.187025
-0.187189
-0.187362
-0.187543
-0.187726
-0.187907
-0.188085
-0.188254
-0.188417
-0.188585
-0.188756
-0.188917
-0.189066
-0.189218
-0.189377
-0.189540
-0.189705
-0.189871
-0.190034
-0.190193
-0.190356
-0.190521
-0.190680
-0.190825
-0.190969
-0.191122
-0.191279
-0.191433
-0.191581
-0.191719
-0.191847
-0.191974
-0.192116
-0.192272
-0.192422
-0.192561
-0.192695
-0.192826
-0.192945
-0.193049
-0.193149
-0.193260
-0.193394
-0.193543
-0.193687
-0.193814
-0.193931
-0.194055
-0.194179
-0.194293
-0.194401
-0.194514
-0.194628
-0.194735
-0.194836
-0.194943
-0.195058
-0.195174
-0.195289
-0.195400
-0.195502
-0.195597
-0.195693
-0.195792
-0.195886
-0.195975
-0.196063
-0.196149
-0.196227
-0.196305
-0.196392
-0.196475
-0.196549
-0.196627
-0.196721
-0.196820
-0.196907
-0.196981
-0.197053
-0.197122
-0.197187
-0.197254
-0.197326
-0.197397
-0.197460
-0.197521
-0.197587
-0.197657
-0.197731
-0.197805
-0.197864
-0.197903
-0.197936
-0.197976
-0.198024
-0.198072
-0.198121
-0.198173
-0.198219
-0.198252
-0.198282
-0.198323
-0.198370
-0.198416
-0.198464
-0.198509
-0.198536
-0.198544
-0.198549
-0.198562
-0.198579
-0.198594
-0.198606
-0.198615
-0.198616
-0.198606
-0.198598
-0.198600
-0.198613
-0.198615
-0.198562
-0.198393
-0.198056
-0.197550
-0.196935
-0.196285
-0.195630
-0.194990
-0.194441
-0.194115
-0.194069
-0.194092
-0.193637
-0.191973
-0.188421
-0.182748
-0.175653
-0.168599
-0.162657
-0.157441
-0.151525
-0.144404
-0.137330
-0.131414
-0.126392
-0.122576
-0.122863
-0.131310
-0.149437
-0.174458
-0.200315
-0.219155
-0.223869
-0.211865
-0.186622
-0.155874
-0.127946
-0.108766
-0.101314
-0.105637
-0.119174
-0.139220
-0.164159
-0.191127
-0.214747
-0.229841
-0.234755
-0.231139
-0.220475
-0.201811
-0.173526
-0.138152
-0.105831
-0.090761
-0.102326
-0.139698
-0.193503
-0.250026
-0.294643
-0.317148
-0.318004
-0.307366
-0.295223
-0.282652
-0.263809
-0.235573
-0.202405
-0.171462
-0.145679
-0.123815
-0.107350
-0.104710
-0.125706
-0.171004
-0.227765
-0.275915
-0.298610
-0.289104
-0.252319
-0.201994
-0.154019
-0.118750
-0.097599
-0.086982
-0.085368
-0.093626
-0.107873
-0.117099
-0.111345
-0.091806
-0.073123
-0.074389
-0.104079
-0.151515
-0.192466
-0.204753
-0.183259
-0.142917
-0.106273
-0.086151
-0.077676
-0.065694
-0.040787
-0.008607
0.015727
0.020954
0.007168
-0.017381
-0.042416
-0.058179
-0.057372
-0.040080
-0.017472
-0.006994
-0.021987
-0.065654
-0.131105
-0.204726
-0.271554
-0.319909
-0.344198
-0.344942
-0.324359
-0.282070
-0.216964
-0.133883
-0.047400
0.023907
0.066846
0.076824
0.058351
0.025281
-0.005626
-0.024794
-0.033787
-0.040127
-0.047237
-0.050200
-0.042812
-0.026587
-0.011384
-0.005148
-0.000096
0.026077
0.090266
0.188043
0.297518
0.396622
0.478296
0.551519
0.632915
0.739306
0.878946
1.040598
1.191768
1.294811
1.331479
1.312564
1.263138
1.201807
1.134662
1.062568
0.988884
0.918958
0.853384
0.787762
0.720161
0.651656
0.582810
0.522377
0.497631
0.538653
0.645213
0.778367
0.888241
0.946299
0.955501
0.937695
0.914051
0.896084
0.885826
0.876554
0.860025
0.839318
0.829676
0.840993
0.859997
0.857013
0.813957
0.740677
0.664905
0.609718
0.575981
0.549087
0.526927
0.531271
0.587828
0.704473
0.870940
1.067721
1.269482
1.455516
1.625710
1.796097
1.979181
2.175798
2.379788
2.580221
2.758743
2.892639
2.967091
2.989999
2.997516
3.035982
3.131333
3.277786
3.451892
3.633592
3.812977
3.978682
4.113176
4.198953
4.216801
4.156356
4.048740
3.967508
3.974157
4.069300
4.204908
4.332828
4.430329
4.491168
4.515875
4.517259
4.519621
4.536836
4.556576
4.556186
4.530576
4.497992
4.480039
4.490567
4.542307
4.633836
4.728070
4.772023
4.742369
4.661329
4.572922
4.508707
4.464854
4.411578
4.331882
4.235570
4.140941
4.075050
4.079570
4.184559
4.382329
4.634024
4.887882
5.086600
5.169687
5.097729
4.902280
4.695124
4.589362
4.610544
4.705348
4.824309
4.961474
5.117797
5.266160
5.367610
5.406985
5.401098
5.380716
5.378215
5.423367
5.531930
5.690495
5.853637
5.965730
5.998376
5.970143
5.923236
5.882564
5.844504
5.795059
5.731828
5.677618
5.675847
5.765744
5.948314
6.173600
6.384009
6.579868
6.817348
7.129769
7.474899
7.774623
7.987710
8.121848
8.186576
8.166844
8.048683
7.853905
7.641108
7.480879
7.427764
7.495188
7.651753
7.839225
8.007756
8.168569
8.394108
8.745125
9.225463
9.800235
10.413248
10.975994
11.381030
11.569820
11.569135
11.429670
11.139660
10.609131
9.756193
8.624263
7.394222
6.288658
5.478649
5.039592
4.945048
5.103061
5.450835
6.014901
6.825959
7.813158
8.834636
9.768770
10.546612
11.136321
11.530302
11.734903
11.748012
11.535861
11.047564
10.281554
9.331279
8.349803
7.479722
6.810874
6.375705
6.171701
6.188428
6.416315
6.846703
7.469421
8.254611
9.117236
9.907558
10.492297
10.848409
11.041337
11.144384
11.191158
11.183655
11.132001
11.047722
10.924615
10.767590
10.593030
10.392587
10.151376
9.910217
9.755502
9.730146
9.807507
9.936238
10.065816
10.156214
10.175048
10.098862
9.912909
9.568157
9.003076
8.266075
7.554665
7.108971
7.058904
7.325192
7.668778
7.870486
7.871663
7.761795
7.682699
7.743438
7.962915
8.265260
8.530661
8.661933
8.631655
8.470577
8.222761
7.914413
7.509663
6.899014
5.987061
4.780652
3.386389
1.940348
0.524370
-0.854678
-2.208433
-3.520360
-4.774282
-5.984297
-7.149877
-8.240569
-9.267305
-10.317594
-11.469259
-12.658984
-13.675902
-14.285095
-14.322290
-13.733487
-12.614294
-11.215927
-9.861180
-8.819038
-8.252604
-8.238718
-8.792511
-9.880649
-11.408852
-13.204846
-15.052052
-16.773441
-18.302303
-19.674540
-20.957199
-22.176868
-23.312252
-24.361546
-25.363773
-26.337879
-27.259308
-28.094746
-28.836365
-29.506596
-30.143873
-30.802122
-31.533581
-32.353622
-33.249401
-34.186821
-35.089630
-35.868683
-36.469711
-36.891258
-37.193058
-37.451294
-37.694004
-37.920219
-38.154179
-38.445274
-38.818974
-39.227783
-39.570515
-39.776775
-39.850819
-39.844063
-39.827454
-39.867062
-39.975677
-40.104019
-40.192215
-40.205750
-40.144970
-40.042629
-39.935577
-39.835217
-39.709953
-39.493866
-39.128948
-38.591232
-37.888412
-37.034798
-36.015583
-34.787968
-33.305416
-31.541683
-29.516148
-27.297899
-25.000376
-22.759472
-20.672968
-18.760429
-16.979496
-15.259805
-13.535518
-11.766664
-9.929991
-8.004447
-5.983238
-3.886975
-1.758684
0.342505
2.355686
4.242613
5.997721
7.650046
9.257994
10.863737
12.444039
13.939579
15.324143
16.618242
17.863016
19.101116
20.348755
21.566656
22.672567
23.580656
24.220879
24.538902
24.502813
24.121702
23.448835
22.555180
21.511068
20.387596
19.250994
18.156054
17.152958
16.300615
15.669153
15.324086
15.307025
15.613326
16.158897
16.774649
17.271870
17.528217
17.512140
17.249201
16.784279
16.179113
15.521435
14.897500
14.362456
13.939957
13.614750
13.322135
12.968980
12.474073
11.788791
10.892841
9.787802
8.482124
6.990692
5.371033
3.700460
1.998745
0.242007
-1.548884
-3.292804
-4.951039
-6.588558
-8.283912
-10.046024
-11.843412
-13.667642
-15.529533
-17.389820
-19.152321
-20.721766
-22.028824
-23.004824
-23.559340
-23.657537
-23.397079
-22.929045
-22.342003
-21.629099
-20.747541
-19.709505
-18.560499
-17.305542
-15.945156
-14.570638
-13.375528
-12.537370
-12.095311
-11.965786
-12.016242
-12.064117
-11.885885
-11.326504
-10.367178
-9.053616
-7.404860
-5.404679
-3.047626
-0.372630
2.545871
5.640172
8.861407
12.074026
14.965937
17.182337
18.511562
18.907997
18.446035
17.300833
15.758702
14.146832
12.657421
11.324598
10.146821
9.126334
8.261786
7.528168
6.856605
6.186909
5.535655
5.007557
4.700987
4.606365
4.677691
4.902635
5.215611
5.466125
5.516123
5.288523
4.790858
4.202369
3.730846
3.318354
2.774962
2.059370
1.226153
0.359961
-0.447825
-1.169658
-1.784684
-2.285486
-2.734933
-3.168347
-3.569321
-3.915959
-4.182129
-4.370685
-4.497023
-4.562146
-4.572162
-4.532384
-4.441992
-4.296043
-4.103543
-3.898745
-3.714936
-3.561879
-3.408574
-3.219642
-3.011718
-2.833453
-2.734894
-2.731690
-2.763556
-2.727018
-2.524257
-2.083668
-1.392631
-0.516475
0.448205
1.458723
2.523946
3.616775
4.675870
5.700858
6.755507
7.827384
8.748042
9.317633
9.439214
9.106603
8.389902
7.442592
6.411856
5.366055
4.338551
3.368741
2.486575
1.675792
0.875092
0.061541
-0.712075
-1.400421
-2.017002
-2.608896
-3.223984
-3.861778
-4.457481
-4.940470
-5.299281
-5.612193
-6.005895
-6.549324
-7.209068
-7.913526
-8.628984
-9.357602
-10.081865
-10.779916
-11.482487
-12.225383
-12.985280
-13.721481
-14.435437
-15.143580
-15.806170
-16.355556
-16.769903
-17.040209
-17.142487
-17.080141
-16.872463
-16.536461
-16.129112
-15.720719
-15.306171
-14.834806
-14.306768
-13.762800
-13.237396
-12.764046
-12.362032
-12.014909
-11.688713
-11.349440
-10.965370
-10.507144
-9.939654
-9.205023
-8.235104
-7.012446
-5.581456
-3.982689
-2.225622
-0.320414
1.703934
3.828758
6.050595
8.298819
10.400284
12.171603
13.514310
14.437724
15.021310
15.362130
15.553457
15.674868
15.777677
15.869358
15.916652
15.895398
15.833814
15.795481
15.826973
15.924596
16.069349
16.270123
16.550400
16.941036
17.473646
18.136713
18.843916
19.454548
19.853863
19.997450
19.865278
19.459837
18.840769
18.072147
17.170872
16.147055
15.034445
13.866320
12.662294
11.438500
10.240906
9.156883
8.246533
7.502103
6.893995
6.409475
6.059260
5.847517
5.730764
5.635194
5.500479
5.308047
5.082110
4.850869
4.613257
4.354829
4.104833
3.950288
3.975730
4.236344
4.763517
5.549574
6.554325
7.723943
9.001181
10.324135
11.597929
12.690579
13.490263
13.965069
14.145052
14.036064
13.594934
12.810229
11.759300
10.587511
9.467309
8.557447
7.962301
7.699983
7.717865
7.959048
8.403184
9.054245
9.899714
10.878400
11.885984
12.805435
13.560823
14.142482
14.558205
14.787711
14.787448
14.536218
14.069973
13.454417
12.780112
12.160299
11.636595
11.152725
10.667404
10.194230
9.718581
9.185305
8.593961
7.993967
7.378620
6.694672
5.923908
5.083231
4.182998
3.212952
2.168562
1.082325
0.012070
-0.993313
-1.926714
-2.817467
-3.674536
-4.477166
-5.205905
-5.828725
-6.300743
-6.601950
-6.757967
-6.826435
-6.851041
-6.840656
-6.794709
-6.719842
-6.630024
-6.535816
-6.440864
-6.364158
-6.339503
-6.392788
-6.532845
-6.742489
-6.990482
-7.259206
-7.536405
-7.789689
-7.966370
-8.027758
-7.976775
-7.834468
-7.621544
-7.378106
-7.160322
-7.009222
-6.933536
-6.915278
-6.929055
-6.950703
-6.950766
-6.898014
-6.769140
-6.549282
-6.230290
-5.811303
-5.299708
-4.712466
-4.073649
-3.400787
-2.692197
-1.939307
-1.149815
-0.346478
0.453535
1.243979
2.018270
2.762576
3.440673
3.980215
4.299926
4.349665
4.116673
3.615806
2.904537
2.101776
1.343364
0.720152
0.281364
0.039869
-0.041947
-0.009498
0.138908
0.437275
0.895034
1.457710
2.016054
2.455124
2.696288
2.697460
2.439276
1.941787
1.281993
0.558074
-0.169108
-0.887218
-1.597006
-2.283425
-2.906894
-3.402811
-3.697604
-3.743622
-3.558468
-3.232864
-2.889279
-2.626481
-2.481376
-2.437518
-2.479282
-2.616782
-2.855077
-3.168068
-3.511709
-3.845799
-4.127643
-4.309256
-4.371075
-4.337441
-4.252400
-4.154933
-4.062291
-3.982079
-3.933818
-3.929024
-3.946083
-3.934626
-3.841975
-3.630258
-3.261168
-2.706262
-1.967875
-1.052444
0.034931
1.263931
2.585541
3.951364
5.324475
6.688028
8.044727
9.404332
10.751018
12.022526
13.149386
14.107275
14.900513
15.503766
15.868119
15.987345
15.897497
15.617017
15.158393
14.579561
13.957481
13.326854
12.683424
12.032340
11.408076
