EVENT_NAME: L_AQUILA
EVENT_ID: IT-2009-0009
EVENT_DATE_YYYYMMDD: 20090406
EVENT_TIME_HHMMSS: 013240
EVENT_LATITUDE_DEGREE: 42.3420
EVENT_LONGITUDE_DEGREE: 13.3800
EVENT_DEPTH_KM: 8.3
HYPOCENTER_REFERENCE: INGV-CNT_Seismic_Bulletin
MAGNITUDE_W: 6.1
MAGNITUDE_W_REFERENCE: INGV-CNT_Seismic_Bulletin
MAGNITUDE_L: 
MAGNITUDE_L_REFERENCE: 
FOCAL_MECHANISM: Normal faulting
NETWORK: IT
STATION_CODE: AQV
STATION_NAME: 
STATION_LATITUDE_DEGREE: 42.377222
STATION_LONGITUDE_DEGREE: 13.343888
STATION_ELEVATION_M: 692
LOCATION: 
SENSOR_DEPTH_M: 0.0
VS30_M/S: 474
SITE_CLASSIFICATION_EC8: B
MORPHOLOGIC_CLASSIFICATION: 
EPICENTRAL_DISTANCE_KM: 4.9
EARTHQUAKE_BACKAZIMUTH_DEGREE: 322.8
DATE_TIME_FIRST_SAMPLE_YYYYMMDD_HHMMSS: 20090406_013212.000
DATE_TIME_FIRST_SAMPLE_PRECISION: seconds
SAMPLING_INTERVAL_S: 0.005000
NDATA: 20001
DURATION_S: 100.005
STREAM: HNN
UNITS: cm/s
INSTRUMENT: sensor = FBA-3 [Kinemetrics] | digitizer = Etna [Kinemetrics]
INSTRUMENT_ANALOG/DIGITAL: D
INSTRUMENTAL_FREQUENCY_HZ: 200.000
INSTRUMENTAL_DAMPING: 0.700000
FULL_SCALE_G: 1.0
N_BIT_DIGITAL_CONVERTER: 18
PGV_CM/S: -42.720200
TIME_PGV_S: 33.530000
BASELINE_CORRECTION: BASELINE REMOVED
FILTER_TYPE: BUTTERWORTH
FILTER_ORDER: 2
LOW_CUT_FREQUENCY_HZ: 0.100
HIGH_CUT_FREQUENCY_HZ: 40.000
LATE/NORMAL_TRIGGERED: NT
DATABASE_VERSION: 0.5
HEADER_FORMAT: DYNA 1.2
DATA_TYPE: VELOCITY
PROCESSING: manual (Paolucci et al., 2011)
DATA_TIMESTAMP_YYYYMMDD_HHMMSS: 20211011_155631.530
DATA_LICENSE: CC-BY3_0-IT (http://creativecommons.org/licenses/by/3.0/deed.en)
DATA_CITATION: Luzi L, Pacor F, Puglia R (2019). Italian Accelerometric Archive v 3.0 - Istituto Nazionale di Geofisica e Vulcanologia, Dipartimento della Protezione Civile Nazionale. doi: 10.13127/itaca.3.1
DATA_CREATOR: ITACA working group
ORIGINAL_DATA_MEDIATOR_CITATION: data obtained within the DPC-INGV data exchange agreements
ORIGINAL_DATA_MEDIATOR: Archive of Italian Department of Civil Protection
ORIGINAL_DATA_CREATOR_CITATION: Presidency Of Counsil Of Ministers-Civil Protection Department. (1972). Italian Strong Motion Network. Presidency of Counsil of Ministers - Civil Protection Department. https://doi.org/10.7914/SN/IT http://www.fdsn.org/networks/detail/IT/
ORIGINAL_DATA_CREATOR: network: IT (Italian Strong Motion Network (RAN)); owner: Presidency of Counsil of Ministers - Civil Protection Department (PCM - DPC)
USER1: 
USER2: 
USER3: 
USER4: 
USER5: 
[...]
-0.025744
-0.025664
-0.025595
-0.025537
-0.025482
-0.025424
-0.025363
-0.025290
-0.025203
-0.025107
-0.025011
-0.024924
-0.024849
-0.024781
-0.024714
-0.024645
-0.024574
-0.024503
-0.024434
-0.024362
-0.024278
-0.024187
-0.024099
-0.024010
-0.023913
-0.023814
-0.023716
-0.023618
-0.023521
-0.023426
-0.023332
-0.023235
-0.023138
-0.023042
-0.022950
-0.022864
-0.022780
-0.022691
-0.022591
-0.022475
-0.022352
-0.022235
-0.022121
-0.022001
-0.021878
-0.021764
-0.021664
-0.021564
-0.021450
-0.021324
-0.021198
-0.021078
-0.020964
-0.020847
-0.020725
-0.020601
-0.020473
-0.020340
-0.020204
-0.020066
-0.019926
-0.019791
-0.019669
-0.019558
-0.019450
-0.019342
-0.019231
-0.019115
-0.018993
-0.018867
-0.018739
-0.018608
-0.018479
-0.018354
-0.018237
-0.018126
-0.018016
-0.017904
-0.017794
-0.017684
-0.017568
-0.017443
-0.017315
-0.017182
-0.017049
-0.016918
-0.016794
-0.016668
-0.016533
-0.016388
-0.016236
-0.016089
-0.015951
-0.015814
-0.015673
-0.015532
-0.015397
-0.015266
-0.015135
-0.015001
-0.014866
-0.014736
-0.014603
-0.014455
-0.014296
-0.014140
-0.013988
-0.013828
-0.013659
-0.013493
-0.013337
-0.013182
-0.013021
-0.012853
-0.012679
-0.012503
-0.012335
-0.012178
-0.012022
-0.011854
-0.011677
-0.011498
-0.011321
-0.011141
-0.010956
-0.010774
-0.010599
-0.010435
-0.010276
-0.010112
-0.009942
-0.009774
-0.009608
-0.009445
-0.009280
-0.009107
-0.008921
-0.008732
-0.008551
-0.008379
-0.008206
-0.008027
-0.007846
-0.007671
-0.007501
-0.007327
-0.007142
-0.006953
-0.006766
-0.006584
-0.006404
-0.006221
-0.006031
-0.005836
-0.005647
-0.005471
-0.005304
-0.005130
-0.004936
-0.004722
-0.004500
-0.004281
-0.004072
-0.003875
-0.003681
-0.003485
-0.003284
-0.003077
-0.002866
-0.002655
-0.002443
-0.002232
-0.002020
-0.001806
-0.001584
-0.001354
-0.001121
-0.000894
-0.000675
-0.000459
-0.000243
-0.000024
0.000197
0.000423
0.000646
0.000861
0.001078
0.001304
0.001535
0.001759
0.001981
0.002206
0.002432
0.002658
0.002885
0.003117
0.003351
0.003582
0.003806
0.004030
0.004262
0.004501
0.004738
0.004967
0.005199
0.005444
0.005702
0.005961
0.006204
0.006427
0.006645
0.006879
0.007132
0.007386
0.007624
0.007851
0.008083
0.008330
0.008583
0.008835
0.009085
0.009340
0.009605
0.009875
0.010140
0.010397
0.010651
0.010910
0.011180
0.011462
0.011746
0.012019
0.012279
0.012540
0.012815
0.013107
0.013404
0.013694
0.013977
0.014257
0.014539
0.014820
0.015095
0.015371
0.015656
0.015951
0.016248
0.016545
0.016841
0.017138
0.017438
0.017738
0.018031
0.018312
0.018591
0.018878
0.019176
0.019483
0.019795
0.020101
0.020404
0.020711
0.021027
0.021345
0.021656
0.021958
0.022259
0.022570
0.022887
0.023201
0.023511
0.023824
0.024146
0.024478
0.024812
0.025137
0.025449
0.025754
0.026061
0.026379
0.026706
0.027036
0.027367
0.027699
0.028036
0.028375
0.028707
0.029030
0.029345
0.029664
0.029993
0.030327
0.030659
0.030988
0.031315
0.031644
0.031981
0.032329
0.032686
0.033045
0.033402
0.033751
0.034094
0.034434
0.034770
0.035103
0.035441
0.035801
0.036179
0.036550
0.036901
0.037246
0.037604
0.037972
0.038337
0.038690
0.039036
0.039386
0.039753
0.040137
0.040532
0.040928
0.041321
0.041712
0.042099
0.042477
0.042850
0.043227
0.043613
0.044003
0.044393
0.044788
0.045188
0.045589
0.045983
0.046372
0.046765
0.047169
0.047582
0.047996
0.048406
0.048810
0.049215
0.049623
0.050035
0.050448
0.050863
0.051279
0.051687
0.052086
0.052487
0.052901
0.053328
0.053758
0.054182
0.054596
0.055009
0.055425
0.055847
0.056273
0.056700
0.057127
0.057558
0.057996
0.058440
0.058886
0.059334
0.059780
0.060227
0.060677
0.061121
0.061553
0.061977
0.062408
0.062855
0.063312
0.063772
0.064228
0.064677
0.065123
0.065574
0.066031
0.066487
0.066944
0.067404
0.067874
0.068351
0.068826
0.069294
0.069756
0.070217
0.070678
0.071140
0.071603
0.072067
0.072535
0.073009
0.073489
0.073966
0.074438
0.074907
0.075376
0.075850
0.076338
0.076838
0.077335
0.077823
0.078307
0.078799
0.079298
0.079802
0.080304
0.080803
0.081303
0.081808
0.082314
0.082823
0.083339
0.083863
0.084387
0.084898
0.085402
0.085911
0.086430
0.086953
0.087474
0.087994
0.088510
0.089022
0.089534
0.090048
0.090570
0.091094
0.091614
0.092128
0.092650
0.093187
0.093727
0.094261
0.094796
0.095335
0.095868
0.096390
0.096909
0.097443
0.097993
0.098548
0.099096
0.099633
0.100164
0.100699
0.101242
0.101794
0.102350
0.102908
0.103468
0.104035
0.104608
0.105181
0.105745
0.106297
0.106846
0.107405
0.107975
0.108541
0.109095
0.109646
0.110207
0.110784
0.111375
0.111973
0.112566
0.113144
0.113710
0.114271
0.114835
0.115410
0.115999
0.116593
0.117182
0.117771
0.118364
0.118955
0.119540
0.120117
0.120693
0.121273
0.121860
0.122452
0.123045
0.123638
0.124236
0.124850
0.125479
0.126107
0.126722
0.127331
0.127938
0.128548
0.129165
0.129795
0.130438
0.131084
0.131730
0.132376
0.133024
0.133670
0.134309
0.134939
0.135561
0.136190
0.136831
0.137470
0.138095
0.138711
0.139329
0.139954
0.140582
0.141213
0.141856
0.142510
0.143166
0.143814
0.144460
0.145113
0.145778
0.146448
0.147113
0.147770
0.148421
0.149076
0.149740
0.150410
0.151078
0.151736
0.152392
0.153055
0.153729
0.154411
0.155092
0.155773
0.156458
0.157148
0.157836
0.158521
0.159208
0.159900
0.160591
0.161281
0.161975
0.162671
0.163371
0.164079
0.164791
0.165499
0.166206
0.166914
0.167622
0.168326
0.169033
0.169750
0.170479
0.171208
0.171925
0.172637
0.173361
0.174096
0.174822
0.175528
0.176227
0.176931
0.177647
0.178376
0.179111
0.179847
0.180582
0.181318
0.182059
0.182802
0.183548
0.184297
0.185044
0.185783
0.186514
0.187246
0.187990
0.188741
0.189490
0.190235
0.190981
0.191740
0.192516
0.193294
0.194058
0.194812
0.195568
0.196335
0.197111
0.197885
0.198651
0.199416
0.200189
0.200965
0.201735
0.202504
0.203278
0.204057
0.204839
0.205626
0.206415
0.207200
0.207985
0.208775
0.209564
0.210347
0.211131
0.211927
0.212733
0.213543
0.214355
0.215172
0.215990
0.216801
0.217607
0.218410
0.219210
0.220010
0.220812
0.221617
0.222423
0.223235
0.224053
0.224874
0.225693
0.226513
0.227340
0.228166
0.228980
0.229791
0.230612
0.231437
0.232252
0.233059
0.233872
0.234695
0.235517
0.236338
0.237169
0.238014
0.238870
0.239730
0.240578
0.241405
0.242228
0.243073
0.243936
0.244794
0.245637
0.246475
0.247319
0.248172
0.249032
0.249894
0.250756
0.251616
0.252477
0.253341
0.254205
0.255072
0.255941
0.256812
0.257678
0.258538
0.259398
0.260265
0.261135
0.261999
0.262855
0.263713
0.264578
0.265450
0.266324
0.267197
0.268064
0.268933
0.269807
0.270683
0.271556
0.272436
0.273329
0.274224
0.275112
0.275999
0.276894
0.277795
0.278699
0.279603
0.280501
0.281393
0.282290
0.283197
0.284107
0.285008
0.285903
0.286799
0.287695
0.288593
0.289502
0.290423
0.291342
0.292251
0.293155
0.294059
0.294967
0.295888
0.296823
0.297760
0.298684
0.299596
0.300506
0.301416
0.302330
0.303263
0.304230
0.305212
0.306116
0.306733
0.306797
0.306136
0.304713
0.302558
0.299804
0.296842
0.294488
0.294079
0.297162
0.304719
0.316179
0.328647
0.337569
0.339357
0.333358
0.321077
0.304602
0.286478
0.270237
0.259712
0.257346
0.263409
0.276393
0.293482
0.310969
0.325233
0.334080
0.336668
0.331773
0.317707
0.294771
0.266525
0.239020
0.220246
0.218845
0.240045
0.280876
0.330006
0.373858
0.402597
0.411479
0.400472
0.373466
0.336620
0.297780
0.265931
0.248056
0.246332
0.259024
0.281935
0.308659
0.333454
0.355462
0.377108
0.397081
0.407618
0.401016
0.378080
0.349591
0.330058
0.328206
0.341044
0.357507
0.368989
0.376079
0.385125
0.399876
0.417255
0.429658
0.430765
0.420937
0.407569
0.397955
0.390470
0.375278
0.346342
0.311678
0.289643
0.294600
0.325832
0.369107
0.408114
0.435052
0.451315
0.459715
0.458314
0.442650
0.413006
0.377524
0.346610
0.324366
0.305979
0.284381
0.260917
0.249024
0.264662
0.311426
0.375815
0.436565
0.476495
0.488508
0.477264
0.455600
0.434907
0.416940
0.394450
0.359888
0.314054
0.266730
0.230952
0.216986
0.228583
0.263128
0.314546
0.374296
0.429264
0.462417
0.461507
0.428663
0.379442
0.333740
0.306957
0.303782
0.316025
0.327975
0.329511
0.325226
0.326605
0.337596
0.352096
0.359983
0.351560
0.322328
0.277490
0.229607
0.190920
0.167848
0.161257
0.169522
0.188700
0.209931
0.219546
0.204733
0.161374
0.097758
0.033433
-0.006905
-0.008912
0.017804
0.048176
0.064144
0.065403
0.061645
0.057626
0.045386
0.011940
-0.047286
-0.126973
-0.217227
-0.300080
-0.347900
-0.340317
-0.283800
-0.205881
-0.128895
-0.056606
0.013666
0.075848
0.115926
0.124148
0.105877
0.081272
0.072757
0.091480
0.131238
0.170816
0.189205
0.186957
0.183946
0.187055
0.173545
0.117434
0.021003
-0.086175
-0.170598
-0.211395
-0.200518
-0.139730
-0.038354
0.088602
0.213825
0.299819
0.324395
0.294340
0.225560
0.123984
-0.004498
-0.136366
-0.240187
-0.303024
-0.332649
-0.335397
-0.306036
-0.241680
-0.155374
-0.069283
0.001094
0.049750
0.069481
0.051915
0.006596
-0.037888
-0.066093
-0.090042
-0.119906
-0.142218
-0.143860
-0.142260
-0.168210
-0.226204
-0.297152
-0.370071
-0.443743
-0.507617
-0.545647
-0.554900
-0.540176
-0.489673
-0.380792
-0.219574
-0.053825
0.063579
0.115379
0.123826
0.125329
0.143889
0.175048
0.182857
0.125193
0.000533
-0.139515
-0.239399
-0.292431
-0.335716
-0.404646
-0.501215
-0.599026
-0.670181
-0.708436
-0.732171
-0.763903
-0.805477
-0.837340
-0.836149
-0.786951
-0.692744
-0.584770
-0.510701
-0.492693
-0.499337
-0.480833
-0.436194
-0.423834
-0.498568
-0.658358
-0.858747
-1.054722
-1.215059
-1.317816
-1.351889
-1.313940
-1.198790
-1.009519
-0.778919
-0.562841
-0.411021
-0.354444
-0.409880
-0.573822
-0.807227
-1.036336
-1.175622
-1.158789
-0.966089
-0.634180
-0.234965
0.163021
0.511653
0.762582
0.853435
0.749585
0.501400
0.225817
0.013126
-0.135057
-0.279288
-0.471630
-0.701437
-0.895354
-0.974896
-0.920212
-0.771132
-0.567580
-0.308785
0.023477
0.410896
0.771915
0.996067
1.009457
0.816934
0.509834
0.234058
0.104060
0.108070
0.110314
-0.022608
-0.307791
-0.665850
-1.021672
-1.356578
-1.662991
-1.886120
-1.949238
-1.833554
-1.602789
-1.339407
-1.090453
-0.882393
-0.750196
-0.736366
-0.852929
-1.054768
-1.298676
-1.613068
-2.042110
-2.536159
-2.968154
-3.247240
-3.359579
-3.323461
-3.154595
-2.866696
-2.484927
-2.049941
-1.592357
-1.100879
-0.561975
-0.046562
0.297635
0.350640
0.093777
-0.393682
-0.981451
-1.549292
-2.026935
-2.386853
-2.622970
-2.741662
-2.750350
-2.654720
-2.468474
-2.211201
-1.901126
-1.560370
-1.227859
-0.969049
-0.852133
-0.888917
-1.019561
-1.163980
-1.256554
-1.249323
-1.131105
-0.934040
-0.701560
-0.471361
-0.281666
-0.156771
-0.094377
-0.064578
-0.007393
0.120737
0.293287
0.439827
0.501143
0.449535
0.259491
-0.119352
-0.700251
-1.390359
-2.035721
-2.530093
-2.885644
-3.196765
-3.527853
-3.860214
-4.121763
-4.214821
-4.055565
-3.653623
-3.115650
-2.533671
-1.923024
-1.265605
-0.562284
0.149949
0.819801
1.409408
1.902841
2.306587
2.630062
2.869792
3.027964
3.135622
3.244417
3.383925
3.535316
3.663331
3.776721
3.940044
4.192087
4.468925
4.638887
4.592288
4.287855
3.740817
3.007892
2.190868
1.411014
0.766621
0.322281
0.118115
0.180749
0.525020
1.129483
1.909450
2.747441
3.579057
4.427757
5.335515
6.293292
7.252882
8.161590
8.980733
9.717215
10.425650
11.139342
11.810087
12.335768
12.651709
12.783969
12.793418
12.707574
12.556513
12.408318
12.300710
12.199439
12.057801
11.871850
11.685261
11.555589
11.510139
11.546645
11.653719
11.811903
11.993587
12.168845
12.311393
12.399035
12.417901
12.374949
12.298048
12.219054
12.148852
12.066151
11.935624
11.738269
11.497296
11.273252
11.121441
11.054771
11.035810
10.999359
10.890807
10.685774
10.387463
10.003704
9.515836
8.890229
8.126367
7.277519
6.427883
5.657503
5.023403
4.550973
4.221659
3.982583
3.781327
3.576369
3.326454
3.007172
2.624681
2.187018
1.683045
1.093996
0.408534
-0.364463
-1.193557
-2.038013
-2.856953
-3.609163
-4.265644
-4.840686
-5.392246
-5.970243
-6.583276
-7.217701
-7.853321
-8.448382
-8.924041
-9.182051
-9.147449
-8.782067
-8.064326
-6.981837
-5.541313
-3.788553
-1.827975
0.201752
2.186040
4.052193
5.732567
7.134332
8.155109
8.730377
8.868523
8.636294
8.119834
7.416913
6.658449
6.004380
5.581257
5.421783
5.480552
5.682806
5.944108
6.164080
6.221584
6.020557
5.555536
4.890095
4.072030
3.106723
1.998732
0.776788
-0.524967
-1.880996
-3.251722
-4.577249
-5.833161
-7.060389
-8.303837
-9.555114
-10.777608
-11.972738
-13.198338
-14.494465
-15.829513
-17.158552
-18.475313
-19.798338
-21.148668
-22.531614
-23.945179
-25.401913
-26.934464
-28.586060
-30.373133
-32.259613
-34.167957
-36.010597
-37.725811
-39.270477
-40.597202
-41.654453
-42.383240
-42.720200
-42.602699
-41.977051
-40.822601
-39.148975
-36.999397
-34.502922
-31.863226
-29.254839
-26.773022
-24.449141
-22.251053
-20.115904
-18.010172
-15.928272
-13.865619
-11.814346
-9.759070
-7.689241
-5.629952
-3.657841
-1.882833
-0.396836
0.765024
1.627591
2.254400
2.711742
3.061221
3.372300
3.715521
4.158021
4.741477
5.439465
6.165685
6.839906
7.456365
8.084536
8.795021
9.607397
10.512420
11.515643
12.616266
13.733815
14.728293
15.526502
16.160372
16.664167
17.014336
17.236441
17.486626
17.884689
18.390841
18.957827
19.600666
20.270927
20.818754
21.113792
21.148924
20.992701
20.714462
20.364574
19.948170
19.436951
18.781370
17.880690
16.611391
14.896386
12.741948
10.248617
7.585914
4.909899
2.290968
-0.249019
-2.664659
-4.878456
-6.783849
-8.265313
-9.251087
-9.733518
-9.758794
-9.414041
-8.831019
-8.191975
-7.663981
-7.310994
-7.090609
-6.917763
-6.758452
-6.669701
-6.715414
-6.889910
-7.136099
-7.409320
-7.724114
-8.117798
-8.607786
-9.196298
-9.868751
-10.603182
-11.348135
-11.997792
-12.462483
-12.728480
-12.849859
-12.910910
-12.970731
-13.056724
-13.174130
-13.298195
-13.410988
-13.519245
-13.611645
-13.648879
-13.608501
-13.515568
-13.419996
-13.355374
-13.329280
-13.337674
-13.363933
-13.375289
-13.337787
-13.211515
-12.941677
-12.497001
-11.917830
-11.297901
-10.695287
-10.082507
-9.392320
-8.573767
-7.605373
-6.486861
-5.248852
-3.974305
-2.771638
-1.719350
-0.844503
-0.129472
0.475315
1.025847
1.534973
1.963678
2.293957
2.556034
2.781295
2.996190
3.224370
3.472042
3.761308
4.160639
4.757212
5.603145
6.680155
7.915426
9.230174
10.575539
11.922664
13.229292
14.445084
15.528971
16.450100
17.208151
17.833885
18.349535
18.747265
18.988901
19.016623
18.780394
18.266106
17.509779
16.576872
15.524707
14.396710
13.231914
12.058903
10.889680
9.722275
8.535576
7.284181
5.927204
4.476600
2.994514
1.518145
0.014328
-1.564901
-3.217418
-4.892001
-6.515959
-7.988153
-9.171864
-9.979656
-10.447842
-10.673977
-10.736140
-10.679254
-10.519224
-10.245617
-9.831573
-9.268948
-8.585013
-7.800463
-6.911906
-5.925822
-4.883228
-3.852388
-2.884541
-1.980711
-1.119252
-0.306556
0.405654
0.972640
1.430419
1.884695
2.429053
3.079109
3.753980
4.324753
4.720844
4.976152
5.134514
5.163365
5.006568
4.655976
4.143563
3.510988
2.795127
2.031366
1.263408
0.537297
-0.104216
-0.617411
-0.963006
-1.123179
-1.115218
-0.976117
-0.729143
-0.377286
0.074101
0.583506
1.058975
1.390677
1.498372
1.372364
1.087897
0.744114
0.380386
-0.014919
-0.422716
-0.786991
-1.098623
-1.407555
-1.750168
-2.111703
-2.444150
-2.711467
-2.914076
-3.060686
-3.141094
-3.134640
-3.040296
-2.912415
-2.846225
-2.888806
-2.980902
-3.017571
-2.943353
-2.770733
-2.555744
-2.376452
-2.285001
-2.272932
-2.292979
-2.285048
-2.189248
-1.965374
-1.607666
-1.142018
-0.608421
-0.046713
0.516235
1.075396
1.633614
2.195132
2.771998
3.369853
3.980898
4.590664
5.170216
5.683933
6.116105
6.467291
6.726104
6.861301
6.840509
6.644617
6.269413
5.733998
5.086777
4.392369
3.710921
3.079404
2.508771
2.003168
1.569303
1.205908
0.903593
0.663503
0.505277
0.443976
0.468615
0.550040
0.651432
0.733115
0.767811
0.747705
0.671178
0.537410
0.355853
0.141552
-0.102626
-0.385843
-0.707972
-1.045321
-1.363406
-1.640943
-1.879836
-2.099064
-2.319924
-2.553520
-2.801632
-3.067907
-3.362158
-3.683646
-4.006022
-4.289114
-4.492963
-4.579695
-4.520383
-4.307575
-3.963454
-3.530412
-3.049854
-2.557901
-2.089740
-1.671879
-1.317143
-1.027369
-0.794643
-0.605232
-0.443517
-0.290215
-0.119590
0.097837
0.388263
0.771585
1.260644
1.860362
2.566117
3.352902
4.177523
5.011163
5.853515
6.703863
7.539233
8.330132
9.066444
9.759747
10.421623
11.045909
11.618216
12.138658
12.621864
13.074231
13.480596
13.816395
14.069718
14.244814
14.348428
14.380582
14.336057
14.209535
13.992438
13.680202
13.297878
12.888830
12.471628
12.032913
11.555817
11.051222
10.558685
10.105630
9.680111
9.247665
8.784416
8.287175
7.749452
7.159112
6.525955
5.877808
5.232202
4.587863
3.951389
3.361732
2.853940
2.410864
1.979829
1.521692
1.037686
0.565046
0.146675
-0.198634
-0.468014
-0.642335
-0.683219
-0.569605
-0.320080
0.034414
0.481511
1.020268
1.638382
2.304928
2.984407
3.648704
4.270125
4.811358
5.231667
5.511365
5.666677
5.737510
5.768618
5.795056
5.827511
5.839709
5.784806
5.642825
5.432705
5.174828
4.862283
4.465480
3.957257
3.332907
2.613266
1.830499
1.007366
0.161005
-0.682080
-1.491100
-2.245107
-2.943144
-3.605337
-4.263151
-4.941781
-5.643207
-6.349951
-7.044838
-7.718249
-8.356484
-8.933791
-9.420998
-9.786392
-9.986958
-9.989463
-9.807064
-9.500614
-9.147805
-8.810510
-8.521144
-8.288399
-8.098068
-7.918344
-7.736478
-7.579427
-7.465712
-7.351478
-7.157699
-6.846210
-6.450451
-6.044304
-5.698303
-5.441773
-5.243418
-5.039618
-4.783627
-4.467450
-4.114594
-3.759892
-3.430360
-3.129178
-2.827586
-2.481668
-2.061690
-1.568849
-1.033964
-0.502961
-0.018701
0.394728
0.731282
0.984491
1.141885
1.196935
1.155506
1.031389
0.845659
0.639191
0.470708
0.384359
0.383531
0.438940
0.518785
0.612990
0.733383
0.887554
1.041407
1.119338
1.064367
0.886961
0.642443
0.381199
0.130884
-0.098086
-0.316672
-0.558870
-0.853313
-1.192401
-1.541561
-1.876688
-2.204332
-2.542676
-2.890442
-3.228406
-3.550040
-3.871867
-4.211912
-4.571690
-4.941334
-5.316108
-5.698129
-6.081508
-6.446179
-6.769120
-7.041652
-7.271114
