EVENT_NAME: L_AQUILA
EVENT_ID: IT-2009-0009
EVENT_DATE_YYYYMMDD: 20090406
EVENT_TIME_HHMMSS: 013240
EVENT_LATITUDE_DEGREE: 42.3420
EVENT_LONGITUDE_DEGREE: 13.3800
EVENT_DEPTH_KM: 8.3
HYPOCENTER_REFERENCE: INGV-CNT_Seismic_Bulletin
MAGNITUDE_W: 6.1
MAGNITUDE_W_REFERENCE: INGV-CNT_Seismic_Bulletin
MAGNITUDE_L: 
MAGNITUDE_L_REFERENCE: 
FOCAL_MECHANISM: Normal faulting
NETWORK: IT
STATION_CODE: AQV
STATION_NAME: 
STATION_LATITUDE_DEGREE: 42.377222
STATION_LONGITUDE_DEGREE: 13.343888
STATION_ELEVATION_M: 692
LOCATION: 
SENSOR_DEPTH_M: 0.0
VS30_M/S: 474
SITE_CLASSIFICATION_EC8: B
MORPHOLOGIC_CLASSIFICATION: 
EPICENTRAL_DISTANCE_KM: 4.9
EARTHQUAKE_BACKAZIMUTH_DEGREE: 322.8
DATE_TIME_FIRST_SAMPLE_YYYYMMDD_HHMMSS: 
DATE_TIME_FIRST_SAMPLE_PRECISION: 
SAMPLING_INTERVAL_S: 
NDATA: 105
DURATION_S: 
STREAM: HNN
UNITS: cm
INSTRUMENT: sensor = FBA-3 [Kinemetrics] | digitizer = Etna [Kinemetrics]
INSTRUMENT_ANALOG/DIGITAL: D
INSTRUMENTAL_FREQUENCY_HZ: 200.000
INSTRUMENTAL_DAMPING: 0.700000
FULL_SCALE_G: 1.0
N_BIT_DIGITAL_CONVERTER: 18
PGD_CM: 3.306077
TIME_PGD_S: 
BASELINE_CORRECTION: BASELINE REMOVED
FILTER_TYPE: BUTTERWORTH
FILTER_ORDER: 2
LOW_CUT_FREQUENCY_HZ: 0.100
HIGH_CUT_FREQUENCY_HZ: 40.000
LATE/NORMAL_TRIGGERED: NT
DATABASE_VERSION: 0.5
HEADER_FORMAT: DYNA 1.2
DATA_TYPE: DISPLACEMENT RESPONSE SPECTRUM
PROCESSING: manual (Paolucci et al., 2011)
DATA_TIMESTAMP_YYYYMMDD_HHMMSS: 20211011_155632.892
DATA_LICENSE: CC-BY3_0-IT (http://creativecommons.org/licenses/by/3.0/deed.en)
DATA_CITATION: Luzi L, Pacor F, Puglia R (2019). Italian Accelerometric Archive v 3.0 - Istituto Nazionale di Geofisica e Vulcanologia, Dipartimento della Protezione Civile Nazionale. doi: 10.13127/itaca.3.1
DATA_CREATOR: ITACA working group
ORIGINAL_DATA_MEDIATOR_CITATION: data obtained within the DPC-INGV data exchange agreements
ORIGINAL_DATA_MEDIATOR: Archive of Italian Department of Civil Protection
ORIGINAL_DATA_CREATOR_CITATION: Presidency Of Counsil Of Ministers-Civil Protection Department. (1972). Italian Strong Motion Network. Presidency of Counsil of Ministers - Civil Protection Department. https://doi.org/10.7914/SN/IT http://www.fdsn.org/networks/detail/IT/
ORIGINAL_DATA_CREATOR: network: IT (Italian Strong Motion Network (RAN)); owner: Presidency of Counsil of Ministers - Civil Protection Department (PCM - DPC)
USER1: 
USER2: 
USER3: 
USER4: 
USER5: 
    0.010000     0.001363
    0.020000     0.005679
    0.022000     0.006754
    0.025000     0.009143
    0.029000     0.012501
    0.030000     0.013145
    0.032000     0.015438
    0.035001     0.018344
    0.036000     0.020155
    0.040000     0.027470
    0.041999     0.031246
    0.044001     0.034222
    0.045000     0.036813
    0.046000     0.040489
    0.048001     0.048461
    0.050000     0.053974
    0.054999     0.072148
    0.059999     0.072146
    0.064998     0.075779
    0.067002     0.082397
    0.069999     0.092039
    0.075002     0.149376
    0.080000     0.183569
    0.084998     0.172763
    0.090001     0.192577
    0.095003     0.233750
    0.100000     0.280566
    0.109999     0.453949
    0.120005     0.443271
    0.130005     0.454623
    0.132996     0.436416
    0.139997     0.428696
    0.149993     0.743846
    0.160000     0.922774
    0.170010     0.875088
    0.179986     1.139535
    0.190006     1.377177
    0.200000     1.309406
    0.220022     1.132277
    0.239981     1.295513
    0.250000     1.550467
    0.260010     1.783583
    0.280034     2.293358
    0.290023     2.607134
    0.300030     2.935050
    0.320000     3.477578
    0.340020     3.885649
    0.350017     4.075993
    0.359971     4.267614
    0.379939     4.645822
    0.400000     5.399602
    0.419992     5.887690
    0.439947     6.116358
    0.450045     6.158353
    0.459982     6.167343
    0.480077     6.642103
    0.500000     7.112322
    0.550055     6.903281
    0.599880     6.986573
    0.650195     6.960718
    0.667111     6.933656
    0.699790     6.784151
    0.750188     6.579631
    0.800000     6.818078
    0.850340     7.197140
    0.900090     7.615730
    0.949668     7.785230
    1.000000     7.716837
    1.100110     7.071618
    1.200480     6.780860
    1.300390     7.212635
    1.400560     7.458286
    1.499250     7.560399
    1.600000     7.543119
    1.700680     7.433512
    1.798561     7.255526
    1.901141     7.029713
    2.000000     6.774189
    2.197802     6.474810
    2.398082     6.272295
    2.500000     6.588476
    2.597403     6.802338
    2.801121     6.590117
    3.003003     5.877306
    3.205128     4.975462
    3.401361     4.669625
    3.496503     4.677016
    3.597122     4.688967
    3.802281     4.663303
    4.000000     4.596900
    4.201681     4.508859
    4.405286     4.409564
    4.608295     4.303474
    4.807692     4.192093
    5.000000     4.077422
    5.494505     3.774390
    5.988024     3.660493
    6.493506     3.699859
    6.993007     3.731291
    7.518797     3.750702
    8.000000     3.753008
    8.474576     3.737944
    9.009009     3.710030
    9.523809     3.673856
   10.000000     3.630480
