EVENT_NAME: L_AQUILA
EVENT_ID: IT-2009-0009
EVENT_DATE_YYYYMMDD: 20090406
EVENT_TIME_HHMMSS: 013240
EVENT_LATITUDE_DEGREE: 42.3420
EVENT_LONGITUDE_DEGREE: 13.3800
EVENT_DEPTH_KM: 8.3
HYPOCENTER_REFERENCE: INGV-CNT_Seismic_Bulletin
MAGNITUDE_W: 6.1
MAGNITUDE_W_REFERENCE: INGV-CNT_Seismic_Bulletin
MAGNITUDE_L: 
MAGNITUDE_L_REFERENCE: 
FOCAL_MECHANISM: Normal faulting
NETWORK: IT
STATION_CODE: AQV
STATION_NAME: 
STATION_LATITUDE_DEGREE: 42.377222
STATION_LONGITUDE_DEGREE: 13.343888
STATION_ELEVATION_M: 692
LOCATION: 
SENSOR_DEPTH_M: 0.0
VS30_M/S: 474
SITE_CLASSIFICATION_EC8: B
MORPHOLOGIC_CLASSIFICATION: 
EPICENTRAL_DISTANCE_KM: 4.9
EARTHQUAKE_BACKAZIMUTH_DEGREE: 322.8
DATE_TIME_FIRST_SAMPLE_YYYYMMDD_HHMMSS: 20090406_013212.000
DATE_TIME_FIRST_SAMPLE_PRECISION: seconds
SAMPLING_INTERVAL_S: 0.005000
NDATA: 20001
DURATION_S: 100.005
STREAM: HNZ
UNITS: cm/s
INSTRUMENT: sensor = FBA-3 [Kinemetrics] | digitizer = Etna [Kinemetrics]
INSTRUMENT_ANALOG/DIGITAL: D
INSTRUMENTAL_FREQUENCY_HZ: 208.000
INSTRUMENTAL_DAMPING: 0.700000
FULL_SCALE_G: 1.0
N_BIT_DIGITAL_CONVERTER: 18
PGV_CM/S: 12.443307
TIME_PGV_S: 33.630000
BASELINE_CORRECTION: BASELINE REMOVED
FILTER_TYPE: BUTTERWORTH
FILTER_ORDER: 2
LOW_CUT_FREQUENCY_HZ: 0.100
HIGH_CUT_FREQUENCY_HZ: 40.000
LATE/NORMAL_TRIGGERED: NT
DATABASE_VERSION: 0.5
HEADER_FORMAT: DYNA 1.2
DATA_TYPE: VELOCITY
PROCESSING: manual (Paolucci et al., 2011)
DATA_TIMESTAMP_YYYYMMDD_HHMMSS: 20211011_155632.319
DATA_LICENSE: CC-BY3_0-IT (http://creativecommons.org/licenses/by/3.0/deed.en)
DATA_CITATION: Luzi L, Pacor F, Puglia R (2019). Italian Accelerometric Archive v 3.0 - Istituto Nazionale di Geofisica e Vulcanologia, Dipartimento della Protezione Civile Nazionale. doi: 10.13127/itaca.3.1
DATA_CREATOR: ITACA working group
ORIGINAL_DATA_MEDIATOR_CITATION: data obtained within the DPC-INGV data exchange agreements
ORIGINAL_DATA_MEDIATOR: Archive of Italian Department of Civil Protection
ORIGINAL_DATA_CREATOR_CITATION: Presidency Of Counsil Of Ministers-Civil Protection Department. (1972). Italian Strong Motion Network. Presidency of Counsil of Ministers - Civil Protection Department. https://doi.org/10.7914/SN/IT http://www.fdsn.org/networks/detail/IT/
ORIGINAL_DATA_CREATOR: network: IT (Italian Strong Motion Network (RAN)); owner: Presidency of Counsil of Ministers - Civil Protection Department (PCM - DPC)
USER1: 
USER2: 
USER3: 
USER4: 
USER5: 
[...]
0.009557
0.009821
0.010091
0.010364
0.010636
0.010905
0.011168
0.011425
0.011683
0.011948
0.012214
0.012474
0.012734
0.012997
0.013261
0.013522
0.013785
0.014051
0.014318
0.014584
0.014855
0.015138
0.015426
0.015713
0.015995
0.016274
0.016549
0.016829
0.017119
0.017415
0.017710
0.018000
0.018292
0.018586
0.018881
0.019174
0.019472
0.019778
0.020092
0.020410
0.020732
0.021055
0.021376
0.021694
0.022014
0.022338
0.022663
0.022987
0.023312
0.023632
0.023944
0.024255
0.024574
0.024903
0.025236
0.025563
0.025878
0.026187
0.026502
0.026828
0.027163
0.027497
0.027828
0.028159
0.028492
0.028819
0.029136
0.029453
0.029783
0.030124
0.030462
0.030793
0.031127
0.031465
0.031800
0.032136
0.032481
0.032831
0.033178
0.033525
0.033878
0.034239
0.034607
0.034975
0.035333
0.035684
0.036038
0.036402
0.036770
0.037131
0.037478
0.037813
0.038150
0.038501
0.038864
0.039228
0.039589
0.039949
0.040315
0.040688
0.041065
0.041444
0.041826
0.042210
0.042601
0.042999
0.043398
0.043789
0.044170
0.044550
0.044935
0.045324
0.045712
0.046101
0.046492
0.046889
0.047291
0.047691
0.048084
0.048475
0.048875
0.049286
0.049702
0.050119
0.050533
0.050937
0.051333
0.051733
0.052147
0.052566
0.052982
0.053393
0.053806
0.054227
0.054656
0.055088
0.055520
0.055953
0.056391
0.056834
0.057279
0.057722
0.058163
0.058601
0.059042
0.059486
0.059934
0.060382
0.060825
0.061260
0.061696
0.062137
0.062585
0.063038
0.063495
0.063956
0.064414
0.064858
0.065286
0.065710
0.066148
0.066600
0.067058
0.067515
0.067975
0.068436
0.068901
0.069365
0.069829
0.070297
0.070776
0.071263
0.071754
0.072243
0.072731
0.073219
0.073707
0.074197
0.074684
0.075169
0.075653
0.076134
0.076613
0.077093
0.077580
0.078072
0.078561
0.079051
0.079547
0.080048
0.080544
0.081031
0.081512
0.081996
0.082491
0.082996
0.083504
0.084013
0.084524
0.085035
0.085549
0.086069
0.086591
0.087106
0.087612
0.088119
0.088633
0.089152
0.089677
0.090209
0.090743
0.091278
0.091814
0.092351
0.092886
0.093420
0.093960
0.094507
0.095058
0.095607
0.096154
0.096699
0.097243
0.097789
0.098342
0.098903
0.099465
0.100027
0.100589
0.101149
0.101707
0.102264
0.102822
0.103376
0.103924
0.104470
0.105020
0.105580
0.106148
0.106722
0.107295
0.107860
0.108418
0.108978
0.109547
0.110122
0.110698
0.111276
0.111858
0.112444
0.113026
0.113598
0.114172
0.114763
0.115366
0.115970
0.116569
0.117165
0.117752
0.118324
0.118893
0.119479
0.120087
0.120703
0.121312
0.121915
0.122519
0.123123
0.123727
0.124338
0.124959
0.125583
0.126204
0.126827
0.127454
0.128083
0.128713
0.129335
0.129944
0.130546
0.131154
0.131772
0.132395
0.133021
0.133657
0.134307
0.134962
0.135612
0.136258
0.136904
0.137546
0.138181
0.138810
0.139445
0.140088
0.140741
0.141397
0.142053
0.142708
0.143364
0.144021
0.144677
0.145336
0.146004
0.146682
0.147358
0.148026
0.148688
0.149356
0.150036
0.150724
0.151416
0.152110
0.152803
0.153493
0.154185
0.154886
0.155589
0.156283
0.156969
0.157655
0.158345
0.159033
0.159719
0.160416
0.161128
0.161841
0.162545
0.163247
0.163956
0.164666
0.165368
0.166071
0.166781
0.167490
0.168191
0.168894
0.169612
0.170340
0.171062
0.171776
0.172491
0.173215
0.173946
0.174679
0.175412
0.176144
0.176874
0.177604
0.178336
0.179070
0.179808
0.180552
0.181301
0.182053
0.182806
0.183560
0.184311
0.185058
0.185800
0.186547
0.187307
0.188075
0.188843
0.189606
0.190366
0.191118
0.191866
0.192622
0.193388
0.194156
0.194919
0.195677
0.196434
0.197202
0.197982
0.198768
0.199554
0.200341
0.201129
0.201919
0.202707
0.203494
0.204277
0.205056
0.205836
0.206621
0.207409
0.208198
0.208989
0.209787
0.210588
0.211386
0.212180
0.212977
0.213779
0.214588
0.215400
0.216212
0.217026
0.217844
0.218664
0.219474
0.220278
0.221086
0.221904
0.222723
0.223537
0.224352
0.225179
0.226015
0.226851
0.227687
0.228523
0.229358
0.230189
0.231017
0.231847
0.232680
0.233513
0.234346
0.235179
0.236012
0.236848
0.237688
0.238524
0.239358
0.240199
0.241052
0.241913
0.242771
0.243626
0.244483
0.245342
0.246200
0.247061
0.247928
0.248802
0.249675
0.250544
0.251414
0.252288
0.253163
0.254033
0.254899
0.255768
0.256640
0.257513
0.258390
0.259273
0.260157
0.261035
0.261908
0.262780
0.263655
0.264537
0.265426
0.266318
0.267210
0.268104
0.268998
0.269887
0.270777
0.271673
0.272568
0.273458
0.274344
0.275236
0.276137
0.277038
0.277926
0.278806
0.279694
0.280599
0.281520
0.282440
0.283352
0.284259
0.285166
0.286070
0.286965
0.287855
0.288746
0.289649
0.290567
0.291490
0.292413
0.293337
0.294270
0.295207
0.296138
0.297062
0.297987
0.298919
0.299857
0.300800
0.301748
0.302694
0.303632
0.304561
0.305486
0.306418
0.307358
0.308301
0.309244
0.310189
0.311132
0.312071
0.313010
0.313953
0.314899
0.315851
0.316810
0.317773
0.318732
0.319681
0.320629
0.321586
0.322550
0.323515
0.324477
0.325432
0.326384
0.327345
0.328319
0.329292
0.330254
0.331208
0.332167
0.333140
0.334128
0.335120
0.336107
0.337092
0.338077
0.339058
0.340038
0.341021
0.342000
0.342969
0.343936
0.344913
0.345894
0.346875
0.347858
0.348851
0.349850
0.350847
0.351840
0.352827
0.353811
0.354795
0.355782
0.356773
0.357762
0.358744
0.359722
0.360702
0.361688
0.362680
0.363679
0.364682
0.365680
0.366670
0.367657
0.368650
0.369650
0.370651
0.371654
0.372663
0.373672
0.374677
0.375675
0.376673
0.377675
0.378684
0.379700
0.380718
0.381735
0.382748
0.383765
0.384788
0.385817
0.386846
0.387877
0.388908
0.389931
0.390948
0.391966
0.392989
0.394014
0.395035
0.396055
0.397077
0.398099
0.399118
0.400134
0.401152
0.402174
0.403203
0.404239
0.405282
0.406330
0.407379
0.408425
0.409458
0.410479
0.411492
0.412502
0.413517
0.414545
0.415578
0.416606
0.417623
0.418637
0.419657
0.420678
0.421701
0.422731
0.423768
0.424801
0.425824
0.426844
0.427871
0.428908
0.429949
0.430990
0.432031
0.433074
0.434113
0.435147
0.436183
0.437227
0.438276
0.439325
0.440369
0.441408
0.442441
0.443471
0.444508
0.445555
0.446608
0.447658
0.448697
0.449728
0.450757
0.451787
0.452818
0.453855
0.454901
0.455955
0.457006
0.458046
0.459081
0.460118
0.461160
0.462202
0.463240
0.464273
0.465304
0.466334
0.467363
0.468390
0.469422
0.470463
0.471511
0.472552
0.473582
0.474609
0.475642
0.476683
0.477728
0.478777
0.479827
0.480876
0.481922
0.482968
0.484014
0.485055
0.486085
0.487110
0.488139
0.489174
0.490211
0.491250
0.492294
0.493337
0.494375
0.495412
0.496457
0.497505
0.498545
0.499575
0.500606
0.501649
0.502700
0.503749
0.504789
0.505826
0.506866
0.507915
0.508969
0.510012
0.511030
0.512034
0.513043
0.514063
0.515084
0.516087
0.517053
0.517982
0.518883
0.519743
0.520539
0.521251
0.521818
0.521896
0.520445
0.515658
0.505737
0.489943
0.468808
0.443589
0.416073
0.389413
0.369595
0.366007
0.389057
0.443827
0.521418
0.595467
0.633276
0.617215
0.555817
0.473411
0.392901
0.330294
0.298327
0.305520
0.349961
0.417550
0.487975
0.543378
0.574319
0.581491
0.573762
0.562718
0.555195
0.547504
0.524854
0.469416
0.378160
0.279444
0.226597
0.262246
0.381929
0.533613
0.653369
0.704868
0.695686
0.663134
0.641946
0.643065
0.659350
0.679211
0.689598
0.678754
0.644957
0.595568
0.536961
0.477238
0.439132
0.454572
0.537218
0.664290
0.788183
0.865925
0.883777
0.857737
0.807588
0.735234
0.637873
0.535509
0.467642
0.460068
0.504381
0.568505
0.619958
0.644887
0.655576
0.678233
0.725006
0.775543
0.789104
0.738818
0.639585
0.544739
0.509170
0.547846
0.627464
0.695438
0.713195
0.669669
0.580622
0.481599
0.412244
0.395659
0.425035
0.466549
0.478112
0.435550
0.352403
0.278087
0.268647
0.346719
0.483299
0.618512
0.702446
0.721947
0.697536
0.660586
0.633235
0.623359
0.625542
0.619890
0.579018
0.490153
0.375184
0.283129
0.254601
0.292489
0.370453
0.465076
0.566616
0.657320
0.701036
0.671733
0.583641
0.482248
0.412605
0.400413
0.445393
0.512645
0.539331
0.477066
0.338586
0.195813
0.124110
0.136556
0.162207
0.098613
-0.097054
-0.370110
-0.625921
-0.811215
-0.925703
-0.973593
-0.941779
-0.836278
-0.714683
-0.655946
-0.696728
-0.810099
-0.939235
-1.026845
-1.018018
-0.877999
-0.631931
-0.370464
-0.192137
-0.132952
-0.155360
-0.202116
-0.244195
-0.273346
-0.284684
-0.297094
-0.355867
-0.468832
-0.566684
-0.582056
-0.557725
-0.620171
-0.830023
-1.091887
-1.237390
-1.190085
-1.027614
-0.876782
-0.775378
-0.664335
-0.489073
-0.255992
0.004791
0.274298
0.523977
0.695096
0.723904
0.597951
0.396012
0.247211
0.216591
0.245709
0.229845
0.126534
-0.032780
-0.191433
-0.293914
-0.314281
-0.300992
-0.358119
-0.549478
-0.836289
-1.116167
-1.307170
-1.390090
-1.387782
-1.324494
-1.215303
-1.087201
-0.980417
-0.919995
-0.922196
-1.037022
-1.330466
-1.796723
-2.327898
-2.782995
-3.038194
-2.988733
-2.611617
-2.051713
-1.552234
-1.259538
-1.151223
-1.165551
-1.316658
-1.639504
-2.087416
-2.528580
-2.807542
-2.803080
-2.486056
-1.966084
-1.463729
-1.188013
-1.208090
-1.435966
-1.730498
-2.009920
-2.266260
-2.496734
-2.646435
-2.627389
-2.410795
-2.111077
-1.941458
-2.034656
-2.311298
-2.555081
-2.595226
-2.388947
-1.971003
-1.377721
-0.628840
0.218988
1.006890
1.496903
1.513470
1.082804
0.415693
-0.241071
-0.716334
-0.928366
-0.891963
-0.741020
-0.650246
-0.653376
-0.583522
-0.263496
0.280417
0.853282
1.286399
1.519459
1.530922
1.280433
0.747803
0.020095
-0.671517
-1.052340
-1.002814
-0.653293
-0.246628
0.073705
0.299893
0.419809
0.324428
-0.102270
-0.801488
-1.457036
-1.634047
-1.080262
0.049873
1.269453
2.066381
2.140928
1.419327
-0.002145
-1.822468
-3.506297
-4.448198
-4.300280
-3.194320
-1.660068
-0.334044
0.319268
0.162369
-0.614943
-1.653334
-2.617363
-3.251056
-3.335635
-2.740442
-1.571454
-0.221049
0.788772
1.056417
0.482160
-0.647625
-1.676570
-1.813695
-0.613743
1.643405
4.076662
5.736455
6.108249
5.289731
3.814670
2.295222
1.099983
0.225195
-0.562692
-1.423262
-2.265799
-2.860443
-3.054451
-2.830882
-2.222505
-1.248082
0.079337
1.691778
3.380947
4.789156
5.558747
5.554169
4.947101
4.069299
3.182763
2.365327
1.550551
0.634277
-0.422381
-1.510345
-2.367714
-2.720022
-2.493314
-1.893354
-1.241385
-0.730115
-0.346327
0.012179
0.392051
0.738897
0.941460
0.884690
0.456168
-0.449209
-1.845154
-3.530538
-5.070003
-5.946595
-5.821160
-4.782858
-3.414107
-2.497016
-2.501949
-3.294512
-4.296823
-4.898548
-4.770361
-3.967348
-2.893689
-2.125281
-2.112943
-2.949901
-4.355294
-5.845366
-6.962280
-7.452608
-7.326926
-6.794788
-6.154129
-5.668730
-5.457784
-5.506895
-5.777809
-6.233650
-6.739352
-7.027566
-6.883062
-6.368176
-5.789762
-5.448031
-5.451019
-5.714310
-6.061935
-6.337743
-6.477181
-6.495323
-6.423037
-6.285928
-6.132492
-6.037406
-6.051289
-6.144763
-6.219428
-6.181983
-6.006932
-5.749211
-5.497995
-5.308679
-5.197583
-5.199017
-5.394507
-5.859176
-6.567050
-7.336724
-7.871130
-7.906484
-7.383723
-6.498125
-5.576108
-4.870296
-4.448055
-4.238258
-4.136938
-4.077212
-4.031911
-3.972096
-3.835611
-3.550178
-3.116271
-2.659577
-2.365221
-2.350605
-2.593291
-2.962867
-3.326201
-3.641536
-3.952410
-4.284135
-4.570194
-4.691688
-4.564800
-4.193874
-3.664396
-3.102283
-2.637841
-2.366202
-2.310417
-2.414155
-2.556739
-2.586970
-2.386703
-1.962508
-1.504496
-1.289086
-1.452296
-1.878165
-2.332249
-2.683662
-2.968471
-3.220937
-3.297853
-2.959860
-2.144065
-1.107903
-0.256779
0.170355
0.217731
0.049762
-0.248116
-0.698830
-1.342852
-2.172065
-3.124717
-4.087073
-4.888829
-5.347860
-5.385708
-5.115837
-4.790804
-4.643311
-4.754028
-5.032116
-5.285795
-5.301809
-4.913918
-4.077706
-2.922724
-1.730057
-0.813222
-0.371006
-0.413832
-0.784575
-1.243444
-1.568707
-1.616350
-1.321834
-0.677926
0.267437
1.389406
2.492242
3.395380
4.047093
4.542994
5.032445
5.608773
6.262815
6.904636
7.401280
7.613147
7.465921
7.037293
6.563701
6.319351
6.446298
6.871772
7.374770
7.742339
7.893031
7.895650
7.908443
8.092395
8.530946
9.190195
9.943851
10.635949
11.142983
11.417795
11.489544
11.412609
11.209555
10.865777
10.371932
9.746243
9.009952
8.163950
7.202632
6.146785
5.059278
4.026459
3.114443
2.339281
1.683358
1.133822
0.700304
0.398382
0.221876
0.130046
0.044281
-0.127553
-0.429991
-0.828290
-1.239459
-1.585728
-1.833612
-1.996137
-2.101179
-2.163599
-2.188948
-2.196532
-2.227061
-2.323428
-2.499950
-2.721749
-2.920630
-3.033983
-3.024110
-2.869857
-2.572204
-2.200806
-1.914308
-1.905397
-2.311750
-3.152126
-4.331795
-5.681156
-6.992006
-8.068722
-8.762423
-8.981980
-8.703372
-7.974584
-6.922303
-5.729742
-4.582101
-3.624416
-2.938901
-2.532762
-2.337410
-2.241949
-2.155625
-2.039073
-1.880235
-1.656907
-1.316334
-0.762989
0.109096
1.339563
2.879537
4.628128
6.460750
8.241604
9.825557
11.078178
11.926280
12.370768
12.443307
12.177906
11.641453
10.996165
10.487383
10.306157
10.445260
10.681224
10.721998
10.402784
9.744041
8.885544
7.997921
7.207071
6.563955
6.046982
5.592415
5.152245
4.722096
4.328386
3.983044
3.641851
3.233916
2.711460
2.070631
1.367616
0.703418
0.170991
-0.188748
-0.392293
-0.500054
-0.600971
-0.766005
-1.027149
-1.425628
-2.007206
-2.741221
-3.485654
-4.052448
-4.340263
-4.382819
-4.259212
-4.040601
-3.786990
-3.519227
-3.225811
-2.893267
-2.510588
-2.056930
-1.501714
-0.829238
-0.081047
0.601954
1.033223
1.120244
0.934447
0.673612
0.564987
0.774444
1.361027
2.251017
3.256623
4.151282
4.758789
5.027446
5.039614
4.950511
4.911057
5.007367
5.236023
5.515928
5.725183
5.759731
5.593588
5.302904
5.026492
4.895317
4.993959
5.351929
5.926787
6.582587
7.107467
7.307723
7.127933
6.670822
6.100451
5.549938
5.095144
4.765309
4.562391
4.474068
4.481520
4.566237
4.705354
4.869284
5.043408
5.230852
5.415669
5.552531
5.601444
5.553273
5.418452
5.201280
4.905073
4.568343
4.266782
4.065714
3.988889
4.042436
4.238422
4.549180
4.869058
5.076913
5.122785
5.044526
4.923161
4.850586
4.930358
5.227746
5.683012
6.113983
6.315595
6.165211
5.673183
4.950161
4.120743
3.273922
2.485350
1.836988
1.386111
1.142214
1.082297
1.172721
1.381114
1.673931
2.011778
2.347370
2.628423
2.822572
2.932219
2.968907
2.916781
2.726181
2.354813
1.811788
1.163560
0.518134
-0.009856
-0.339636
-0.444374
-0.353088
-0.130699
0.146016
0.388653
0.493259
0.367341
-0.011706
-0.564342
-1.151454
-1.650661
-2.003811
-2.211313
-2.286833
-2.241447
-2.122077
-2.029479
-2.072665
-2.307016
-2.723764
-3.281067
-3.931223
-4.650655
-5.445444
-6.306079
-7.175187
-7.968632
-8.613641
-9.057012
-9.255571
-9.201291
-8.959204
-8.639575
-8.314293
-7.982013
-7.617624
-7.238429
-6.925068
-6.772636
-6.820660
-7.040185
-7.366031
-7.724514
-8.030608
-8.174951
-8.065252
-7.690540
-7.114336
-6.424794
-5.716926
-5.066936
-4.474217
-3.889021
-3.320455
-2.855246
-2.586857
-2.558915
-2.746040
-3.076331
-3.467538
-3.838832
-4.107682
-4.188691
-4.018538
-3.606030
-3.048185
-2.489763
-2.067237
-1.878145
-1.977128
-2.348112
-2.863745
-3.327382
-3.600518
-3.703440
-3.774965
-3.910082
-4.059662
-4.107942
-4.022385
-3.892823
-3.841001
-3.944965
-4.225318
-4.639638
-5.084080
-5.428987
-5.588791
-5.561851
-5.398134
-5.151439
-4.852155
-4.507635
-4.130309
-3.746961
-3.387742
-3.090576
-2.902627
-2.852618
-2.913503
-3.005778
-3.039986
-2.943877
-2.681496
-2.286791
-1.864742
-1.531376
-1.339826
-1.256692
-1.190419
-1.031446
-0.710314
-0.254401
0.230120
0.634455
0.908747
1.067875
1.140063
1.138026
1.089063
1.047419
1.065053
1.164789
1.335103
1.542355
1.748324
1.925329
2.063209
2.168536
2.267604
2.403986
2.618075
2.921535
3.281161
3.628879
3.902031
4.078456
4.175301
4.217914
4.212593
4.150544
4.025521
3.845274
3.643483
3.479844
3.408976
3.439176
3.528985
3.632549
3.737118
3.848098
3.960655
4.064843
4.161463
4.252140
4.319910
4.334323
4.272954
4.132692
3.930338
3.696774
3.458843
3.222089
2.982292
2.761366
2.623133
2.636092
2.816314
3.120767
3.484136
3.830768
4.069440
4.119702
3.960230
3.657219
3.337607
3.120129
3.059852
3.134712
3.277007
3.422171
3.525460
3.557457
3.510643
3.402647
3.264401
3.122939
2.983994
2.820639
2.587360
2.265084
1.896438
1.570602
1.370823
1.322346
1.367772
1.388440
1.274473
1.002177
0.650813
0.337281
0.123160
-0.023378
-0.187269
-0.442133
-0.805806
-1.229474
-1.635364
-1.979996
-2.279673
-2.569813
-2.844526
-3.048877
-3.136916
-3.131264
-3.116467
-3.169423
-3.306536
-3.495801
-3.678103
-3.763125
-3.645602
-3.271290
-2.715406
-2.191576
-1.957557
-2.171053
-2.786981
-3.584348
-4.309975
-4.815215
-5.086641
-5.171148
-5.089913
-4.833132
-4.415451
-3.912558
-3.437155
-3.079129
-2.866874
-2.764991
-2.689283
-2.539815
-2.250547
-1.826762
-1.347709
-0.928622
-0.649270
-0.490760
-0.343520
-0.102242
0.237680
0.583302
0.828814
0.928561
0.916374
0.891726
0.978914
1.250213
1.660550
2.060011
2.288788
2.289371
2.137678
1.962031
1.829873
1.703829
1.495947
1.156081
0.714948
0.259927
-0.123823
-0.392094
-0.550978
-0.660302
-0.814917
-1.093431
-1.512139
-2.020908
-2.534609
-2.962620
-3.223406
-3.267599
-3.115227
-2.865365
-2.637507
-2.485605
-2.384908
-2.313327
-2.317753
-2.465363
-2.739482
-3.015947
-3.146604
-3.057570
-2.767597
-2.336483
-1.836354
-1.357492
-0.980031
-0.724589
-0.549419
-0.392831
-0.210461
0.021961
0.323096
0.701431
1.142226
1.616941
2.089208
2.485485
2.669264
2.484132
1.859919
0.894540
-0.154939
-0.969122
-1.301751
-1.073498
-0.385314
0.527086
1.380927
1.953895
2.171100
2.116633
1.933294
1.693860
1.373451
0.922215
0.340205
-0.295616
-0.833732
-1.085987
-0.918874
-0.345890
0.453500
1.207503
1.670970
1.718204
1.374852
0.791751
0.182134
-0.255001
-0.410059
-0.295319
-0.002654
0.365544
0.721870
0.978477
1.054128
0.927003
0.671588
0.428894
0.332942
0.436516
0.673393
0.893219
0.955930
0.809267
0.499363
0.139209
-0.131585
-0.201288
-0.050844
0.228644
0.500300
0.667901
0.714141
0.691493
0.695912
0.831177
1.157906
1.646440
2.170721
2.560198
2.697956
2.605946
2.442365
2.404712
2.603445
2.997400
3.442562
3.807503
4.056523
4.237119
4.403040
4.564471
4.697289
4.772438
4.771662
4.688592
4.530211
4.315176
4.062043
3.781097
3.483517
3.208643
3.044279
3.101004
3.432399
3.957323
4.478008
4.807353
4.894635
4.835896
4.772757
4.786459
4.862109
4.904220
4.781394
4.406983
