EVENT_NAME: L_AQUILA
EVENT_ID: IT-2009-0009
EVENT_DATE_YYYYMMDD: 20090406
EVENT_TIME_HHMMSS: 013240
EVENT_LATITUDE_DEGREE: 42.3420
EVENT_LONGITUDE_DEGREE: 13.3800
EVENT_DEPTH_KM: 8.3
HYPOCENTER_REFERENCE: INGV-CNT_Seismic_Bulletin
MAGNITUDE_W: 6.1
MAGNITUDE_W_REFERENCE: INGV-CNT_Seismic_Bulletin
MAGNITUDE_L: 
MAGNITUDE_L_REFERENCE: 
FOCAL_MECHANISM: Normal faulting
NETWORK: IT
STATION_CODE: AQV
STATION_NAME: 
STATION_LATITUDE_DEGREE: 42.377222
STATION_LONGITUDE_DEGREE: 13.343888
STATION_ELEVATION_M: 692
LOCATION: 
SENSOR_DEPTH_M: 0.0
VS30_M/S: 474
SITE_CLASSIFICATION_EC8: B
MORPHOLOGIC_CLASSIFICATION: 
EPICENTRAL_DISTANCE_KM: 4.9
EARTHQUAKE_BACKAZIMUTH_DEGREE: 322.8
DATE_TIME_FIRST_SAMPLE_YYYYMMDD_HHMMSS: 
DATE_TIME_FIRST_SAMPLE_PRECISION: 
SAMPLING_INTERVAL_S: 
NDATA: 105
DURATION_S: 
STREAM: HNE
UNITS: cm/s^2
INSTRUMENT: sensor = FBA-3 [Kinemetrics] | digitizer = Etna [Kinemetrics]
INSTRUMENT_ANALOG/DIGITAL: D
INSTRUMENTAL_FREQUENCY_HZ: 210.000
INSTRUMENTAL_DAMPING: 0.700000
FULL_SCALE_G: 1.0
N_BIT_DIGITAL_CONVERTER: 18
PGA_CM/S^2: 644.246855
TIME_PGA_S: 
BASELINE_CORRECTION: BASELINE REMOVED
FILTER_TYPE: BUTTERWORTH
FILTER_ORDER: 2
LOW_CUT_FREQUENCY_HZ: 0.100
HIGH_CUT_FREQUENCY_HZ: 40.000
LATE/NORMAL_TRIGGERED: NT
DATABASE_VERSION: 0.5
HEADER_FORMAT: DYNA 1.2
DATA_TYPE: ACCELERATION RESPONSE SPECTRUM
PROCESSING: manual (Paolucci et al., 2011)
DATA_TIMESTAMP_YYYYMMDD_HHMMSS: 20211011_155632.454
DATA_LICENSE: CC-BY3_0-IT (http://creativecommons.org/licenses/by/3.0/deed.en)
DATA_CITATION: Luzi L, Pacor F, Puglia R (2019). Italian Accelerometric Archive v 3.0 - Istituto Nazionale di Geofisica e Vulcanologia, Dipartimento della Protezione Civile Nazionale. doi: 10.13127/itaca.3.1
DATA_CREATOR: ITACA working group
ORIGINAL_DATA_MEDIATOR_CITATION: data obtained within the DPC-INGV data exchange agreements
ORIGINAL_DATA_MEDIATOR: Archive of Italian Department of Civil Protection
ORIGINAL_DATA_CREATOR_CITATION: Presidency Of Counsil Of Ministers-Civil Protection Department. (1972). Italian Strong Motion Network. Presidency of Counsil of Ministers - Civil Protection Department. https://doi.org/10.7914/SN/IT http://www.fdsn.org/networks/detail/IT/
ORIGINAL_DATA_CREATOR: network: IT (Italian Strong Motion Network (RAN)); owner: Presidency of Counsil of Ministers - Civil Protection Department (PCM - DPC)
USER1: 
USER2: 
USER3: 
USER4: 
USER5: 
    0.010000   650.087524
    0.020000   664.780579
    0.022000   672.481201
    0.025000   652.033325
    0.029000   664.973938
    0.030000   683.183167
    0.032000   705.639648
    0.035001   717.712219
    0.036000   734.331177
    0.040000   780.660095
    0.041999   795.688965
    0.044001   768.063232
    0.045000   760.272583
    0.046000   804.419861
    0.048001   876.942810
    0.050000   840.734863
    0.054999   846.101562
    0.059999  1073.426147
    0.064998  1089.674072
    0.067002  1093.932251
    0.069999  1029.430420
    0.075002  1025.188843
    0.080000  1344.275513
    0.084998  1401.474243
    0.090001  1399.562134
    0.095003  1389.570068
    0.100000  1549.645020
    0.109999  1729.116455
    0.120005  1310.229980
    0.130005  1173.909546
    0.132996  1208.414795
    0.139997  1417.978516
    0.149993  1266.607544
    0.160000  1105.595825
    0.170010  1065.626099
    0.179986   980.103088
    0.190006  1052.678223
    0.200000  1164.687378
    0.220022  1070.364990
    0.239981  1113.261963
    0.250000  1108.008301
    0.260010  1064.007202
    0.280034   930.856995
    0.290023   839.833496
    0.300030   832.105835
    0.320000   811.688477
    0.340020   937.685913
    0.350017  1022.855164
    0.359971  1121.838867
    0.379939  1268.272583
    0.400000  1258.608032
    0.419992  1123.651123
    0.439947  1033.018433
    0.450045  1057.131470
    0.459982  1078.291382
    0.480077  1106.109253
    0.500000  1108.386230
    0.550055  1039.651855
    0.599880   958.324463
    0.650195   907.714539
    0.667111   885.420410
    0.699790   837.175964
    0.750188   741.762573
    0.800000   623.430786
    0.850340   580.775330
    0.900090   540.477966
    0.949668   500.857452
    1.000000   463.716827
    1.100110   393.718750
    1.200480   328.868073
    1.300390   270.053741
    1.400560   217.346985
    1.499250   193.530518
    1.600000   171.395676
    1.700680   160.301514
    1.798561   149.189194
    1.901141   138.272369
    2.000000   127.720116
    2.197802   108.348534
    2.398082    91.594627
    2.500000    84.224693
    2.597403    77.478897
    2.801121    65.738403
    3.003003    56.032551
    3.205128    48.018520
    3.401361    41.401119
    3.496503    38.536743
    3.597122    35.932869
    3.802281    31.395716
    4.000000    27.614492
    4.201681    24.442884
    4.405286    21.774126
    4.608295    19.505533
    4.807692    17.569231
    5.000000    15.914474
    5.494505    12.684152
    5.988024    10.384388
    6.493506     8.697150
    6.993007     7.429227
    7.518797     6.455691
    8.000000     5.690310
    8.474576     5.078883
    9.009009     4.585425
    9.523809     4.178611
   10.000000     3.835783
