EVENT_NAME: L_AQUILA
EVENT_ID: IT-2009-0009
EVENT_DATE_YYYYMMDD: 20090406
EVENT_TIME_HHMMSS: 013240
EVENT_LATITUDE_DEGREE: 42.3420
EVENT_LONGITUDE_DEGREE: 13.3800
EVENT_DEPTH_KM: 8.3
HYPOCENTER_REFERENCE: INGV-CNT_Seismic_Bulletin
MAGNITUDE_W: 6.1
MAGNITUDE_W_REFERENCE: INGV-CNT_Seismic_Bulletin
MAGNITUDE_L: 
MAGNITUDE_L_REFERENCE: 
FOCAL_MECHANISM: Normal faulting
NETWORK: IT
STATION_CODE: AQV
STATION_NAME: 
STATION_LATITUDE_DEGREE: 42.377222
STATION_LONGITUDE_DEGREE: 13.343888
STATION_ELEVATION_M: 692
LOCATION: 
SENSOR_DEPTH_M: 0.0
VS30_M/S: 474
SITE_CLASSIFICATION_EC8: B
MORPHOLOGIC_CLASSIFICATION: 
EPICENTRAL_DISTANCE_KM: 4.9
EARTHQUAKE_BACKAZIMUTH_DEGREE: 322.8
DATE_TIME_FIRST_SAMPLE_YYYYMMDD_HHMMSS: 20090406_013212.000
DATE_TIME_FIRST_SAMPLE_PRECISION: seconds
SAMPLING_INTERVAL_S: 0.005000
NDATA: 20001
DURATION_S: 100.005
STREAM: HNE
UNITS: cm
INSTRUMENT: sensor = FBA-3 [Kinemetrics] | digitizer = Etna [Kinemetrics]
INSTRUMENT_ANALOG/DIGITAL: D
INSTRUMENTAL_FREQUENCY_HZ: 210.000
INSTRUMENTAL_DAMPING: 0.700000
FULL_SCALE_G: 1.0
N_BIT_DIGITAL_CONVERTER: 18
PGD_CM: 6.786824
TIME_PGD_S: 32.645000
BASELINE_CORRECTION: BASELINE REMOVED
FILTER_TYPE: BUTTERWORTH
FILTER_ORDER: 2
LOW_CUT_FREQUENCY_HZ: 0.100
HIGH_CUT_FREQUENCY_HZ: 40.000
LATE/NORMAL_TRIGGERED: NT
DATABASE_VERSION: 0.5
HEADER_FORMAT: DYNA 1.2
DATA_TYPE: DISPLACEMENT
PROCESSING: manual (Paolucci et al., 2011)
DATA_TIMESTAMP_YYYYMMDD_HHMMSS: 20211011_155630.588
DATA_LICENSE: CC-BY3_0-IT (http://creativecommons.org/licenses/by/3.0/deed.en)
DATA_CITATION: Luzi L, Pacor F, Puglia R (2019). Italian Accelerometric Archive v 3.0 - Istituto Nazionale di Geofisica e Vulcanologia, Dipartimento della Protezione Civile Nazionale. doi: 10.13127/itaca.3.1
DATA_CREATOR: ITACA working group
ORIGINAL_DATA_MEDIATOR_CITATION: data obtained within the DPC-INGV data exchange agreements
ORIGINAL_DATA_MEDIATOR: Archive of Italian Department of Civil Protection
ORIGINAL_DATA_CREATOR_CITATION: Presidency Of Counsil Of Ministers-Civil Protection Department. (1972). Italian Strong Motion Network. Presidency of Counsil of Ministers - Civil Protection Department. https://doi.org/10.7914/SN/IT http://www.fdsn.org/networks/detail/IT/
ORIGINAL_DATA_CREATOR: network: IT (Italian Strong Motion Network (RAN)); owner: Presidency of Counsil of Ministers - Civil Protection Department (PCM - DPC)
USER1: 
USER2: 
USER3: 
USER4: 
USER5: 
[...]
-7.488661e-02
-7.535577e-02
-7.582625e-02
-7.629807e-02
-7.677118e-02
-7.724555e-02
-7.772119e-02
-7.819817e-02
-7.867651e-02
-7.915623e-02
-7.963727e-02
-8.011961e-02
-8.060326e-02
-8.108822e-02
-8.157452e-02
-8.206216e-02
-8.255121e-02
-8.304167e-02
-8.353355e-02
-8.402681e-02
-8.452142e-02
-8.501741e-02
-8.551477e-02
-8.601353e-02
-8.651373e-02
-8.701537e-02
-8.751837e-02
-8.802265e-02
-8.852824e-02
-8.903525e-02
-8.954374e-02
-9.005370e-02
-9.056510e-02
-9.107789e-02
-9.159203e-02
-9.210746e-02
-9.262417e-02
-9.314220e-02
-9.366161e-02
-9.418245e-02
-9.470468e-02
-9.522825e-02
-9.575313e-02
-9.627931e-02
-9.680678e-02
-9.733557e-02
-9.786572e-02
-9.839724e-02
-9.893016e-02
-9.946445e-02
-1.000001e-01
-1.005371e-01
-1.010755e-01
-1.016153e-01
-1.021564e-01
-1.026989e-01
-1.032429e-01
-1.037883e-01
-1.043350e-01
-1.048832e-01
-1.054326e-01
-1.059835e-01
-1.065357e-01
-1.070894e-01
-1.076446e-01
-1.082011e-01
-1.087590e-01
-1.093183e-01
-1.098788e-01
-1.104408e-01
-1.110041e-01
-1.115689e-01
-1.121350e-01
-1.127026e-01
-1.132714e-01
-1.138417e-01
-1.144134e-01
-1.149866e-01
-1.155611e-01
-1.161371e-01
-1.167145e-01
-1.172933e-01
-1.178735e-01
-1.184552e-01
-1.190383e-01
-1.196229e-01
-1.202088e-01
-1.207962e-01
-1.213849e-01
-1.219750e-01
-1.225666e-01
-1.231596e-01
-1.237541e-01
-1.243501e-01
-1.249475e-01
-1.255463e-01
-1.261465e-01
-1.267480e-01
-1.273508e-01
-1.279550e-01
-1.285606e-01
-1.291676e-01
-1.297761e-01
-1.303860e-01
-1.309973e-01
-1.316100e-01
-1.322240e-01
-1.328394e-01
-1.334563e-01
-1.340746e-01
-1.346943e-01
-1.353154e-01
-1.359378e-01
-1.365617e-01
-1.371871e-01
-1.378139e-01
-1.384422e-01
-1.390719e-01
-1.397029e-01
-1.403352e-01
-1.409689e-01
-1.416039e-01
-1.422404e-01
-1.428783e-01
-1.435175e-01
-1.441582e-01
-1.448004e-01
-1.454442e-01
-1.460894e-01
-1.467360e-01
-1.473839e-01
-1.480332e-01
-1.486839e-01
-1.493361e-01
-1.499897e-01
-1.506446e-01
-1.513008e-01
-1.519584e-01
-1.526174e-01
-1.532778e-01
-1.539398e-01
-1.546032e-01
-1.552680e-01
-1.559342e-01
-1.566019e-01
-1.572709e-01
-1.579414e-01
-1.586133e-01
-1.592866e-01
-1.599613e-01
-1.606374e-01
-1.613147e-01
-1.619935e-01
-1.626736e-01
-1.633553e-01
-1.640384e-01
-1.647230e-01
-1.654090e-01
-1.660964e-01
-1.667852e-01
-1.674753e-01
-1.681667e-01
-1.688596e-01
-1.695539e-01
-1.702498e-01
-1.709470e-01
-1.716457e-01
-1.723457e-01
-1.730472e-01
-1.737500e-01
-1.744542e-01
-1.751598e-01
-1.758667e-01
-1.765750e-01
-1.772846e-01
-1.779956e-01
-1.787081e-01
-1.794219e-01
-1.801372e-01
-1.808539e-01
-1.815719e-01
-1.822912e-01
-1.830119e-01
-1.837339e-01
-1.844572e-01
-1.851819e-01
-1.859079e-01
-1.866353e-01
-1.873641e-01
-1.880943e-01
-1.888258e-01
-1.895587e-01
-1.902929e-01
-1.910285e-01
-1.917654e-01
-1.925038e-01
-1.932435e-01
-1.939847e-01
-1.947271e-01
-1.954710e-01
-1.962162e-01
-1.969628e-01
-1.977108e-01
-1.984603e-01
-1.992111e-01
-1.999632e-01
-2.007166e-01
-2.014714e-01
-2.022276e-01
-2.029853e-01
-2.037443e-01
-2.045048e-01
-2.052666e-01
-2.060299e-01
-2.067946e-01
-2.075607e-01
-2.083280e-01
-2.090966e-01
-2.098665e-01
-2.106377e-01
-2.114104e-01
-2.121843e-01
-2.129596e-01
-2.137361e-01
-2.145141e-01
-2.152933e-01
-2.160738e-01
-2.168556e-01
-2.176387e-01
-2.184231e-01
-2.192088e-01
-2.199959e-01
-2.207844e-01
-2.215742e-01
-2.223655e-01
-2.231581e-01
-2.239521e-01
-2.247475e-01
-2.255442e-01
-2.263423e-01
-2.271418e-01
-2.279426e-01
-2.287449e-01
-2.295485e-01
-2.303535e-01
-2.311598e-01
-2.319675e-01
-2.327764e-01
-2.335867e-01
-2.343981e-01
-2.352108e-01
-2.360247e-01
-2.368399e-01
-2.376563e-01
-2.384739e-01
-2.392928e-01
-2.401129e-01
-2.409344e-01
-2.417572e-01
-2.425814e-01
-2.434068e-01
-2.442334e-01
-2.450613e-01
-2.458904e-01
-2.467208e-01
-2.475525e-01
-2.483856e-01
-2.492199e-01
-2.500554e-01
-2.508922e-01
-2.517302e-01
-2.525694e-01
-2.534100e-01
-2.542517e-01
-2.550947e-01
-2.559388e-01
-2.567843e-01
-2.576310e-01
-2.584789e-01
-2.593281e-01
-2.601785e-01
-2.610302e-01
-2.618831e-01
-2.627372e-01
-2.635923e-01
-2.644486e-01
-2.653060e-01
-2.661647e-01
-2.670247e-01
-2.678861e-01
-2.687487e-01
-2.696125e-01
-2.704774e-01
-2.713436e-01
-2.722109e-01
-2.730794e-01
-2.739491e-01
-2.748200e-01
-2.756921e-01
-2.765654e-01
-2.774398e-01
-2.783154e-01
-2.791921e-01
-2.800699e-01
-2.809489e-01
-2.818290e-01
-2.827103e-01
-2.835925e-01
-2.844758e-01
-2.853601e-01
-2.862454e-01
-2.871318e-01
-2.880193e-01
-2.889079e-01
-2.897976e-01
-2.906884e-01
-2.915803e-01
-2.924733e-01
-2.933673e-01
-2.942623e-01
-2.951583e-01
-2.960554e-01
-2.969536e-01
-2.978528e-01
-2.987532e-01
-2.996546e-01
-3.005571e-01
-3.014606e-01
-3.023651e-01
-3.032707e-01
-3.041773e-01
-3.050849e-01
-3.059936e-01
-3.069033e-01
-3.078140e-01
-3.087256e-01
-3.096383e-01
-3.105519e-01
-3.114665e-01
-3.123820e-01
-3.132986e-01
-3.142161e-01
-3.151346e-01
-3.160540e-01
-3.169744e-01
-3.178957e-01
-3.188180e-01
-3.197413e-01
-3.206655e-01
-3.215906e-01
-3.225166e-01
-3.234436e-01
-3.243715e-01
-3.253003e-01
-3.262300e-01
-3.271606e-01
-3.280920e-01
-3.290244e-01
-3.299578e-01
-3.308921e-01
-3.318272e-01
-3.327632e-01
-3.337000e-01
-3.346377e-01
-3.355763e-01
-3.365158e-01
-3.374563e-01
-3.383975e-01
-3.393396e-01
-3.402826e-01
-3.412263e-01
-3.421709e-01
-3.431162e-01
-3.440623e-01
-3.450092e-01
-3.459569e-01
-3.469054e-01
-3.478548e-01
-3.488050e-01
-3.497559e-01
-3.507077e-01
-3.516603e-01
-3.526137e-01
-3.535678e-01
-3.545227e-01
-3.554783e-01
-3.564347e-01
-3.573919e-01
-3.583498e-01
-3.593084e-01
-3.602676e-01
-3.612275e-01
-3.621880e-01
-3.631494e-01
-3.641115e-01
-3.650743e-01
-3.660378e-01
-3.670019e-01
-3.679667e-01
-3.689319e-01
-3.698976e-01
-3.708639e-01
-3.718309e-01
-3.727986e-01
-3.737671e-01
-3.747361e-01
-3.757058e-01
-3.766761e-01
-3.776470e-01
-3.786184e-01
-3.795904e-01
-3.805630e-01
-3.815361e-01
-3.825098e-01
-3.834840e-01
-3.844587e-01
-3.854340e-01
-3.864099e-01
-3.873863e-01
-3.883633e-01
-3.893408e-01
-3.903188e-01
-3.912973e-01
-3.922762e-01
-3.932557e-01
-3.942355e-01
-3.952159e-01
-3.961966e-01
-3.971777e-01
-3.981593e-01
-3.991412e-01
-4.001236e-01
-4.011063e-01
-4.020895e-01
-4.030731e-01
-4.040572e-01
-4.050417e-01
-4.060266e-01
-4.070119e-01
-4.079975e-01
-4.089834e-01
-4.099697e-01
-4.109563e-01
-4.119433e-01
-4.129306e-01
-4.139182e-01
-4.149061e-01
-4.158944e-01
-4.168831e-01
-4.178721e-01
-4.188614e-01
-4.198509e-01
-4.208406e-01
-4.218305e-01
-4.228206e-01
-4.238110e-01
-4.248016e-01
-4.257924e-01
-4.267835e-01
-4.277748e-01
-4.287662e-01
-4.297578e-01
-4.307497e-01
-4.317418e-01
-4.327341e-01
-4.337266e-01
-4.347193e-01
-4.357120e-01
-4.367048e-01
-4.376976e-01
-4.386905e-01
-4.396834e-01
-4.406765e-01
-4.416696e-01
-4.426626e-01
-4.436557e-01
-4.446486e-01
-4.456417e-01
-4.466347e-01
-4.476278e-01
-4.486206e-01
-4.496126e-01
-4.506028e-01
-4.515906e-01
-4.525753e-01
-4.535567e-01
-4.545348e-01
-4.555098e-01
-4.564820e-01
-4.574526e-01
-4.584229e-01
-4.593934e-01
-4.603616e-01
-4.613214e-01
-4.622635e-01
-4.631773e-01
-4.640555e-01
-4.648985e-01
-4.657118e-01
-4.664990e-01
-4.672567e-01
-4.679787e-01
-4.686653e-01
-4.693224e-01
-4.699544e-01
-4.705672e-01
-4.711816e-01
-4.718381e-01
-4.725853e-01
-4.734576e-01
-4.744592e-01
-4.755549e-01
-4.766743e-01
-4.777336e-01
-4.786667e-01
-4.794461e-01
-4.800858e-01
-4.806296e-01
-4.811362e-01
-4.816644e-01
-4.822603e-01
-4.829564e-01
-4.837772e-01
-4.847328e-01
-4.858065e-01
-4.869557e-01
-4.881295e-01
-4.892852e-01
-4.903876e-01
-4.913966e-01
-4.922643e-01
-4.929550e-01
-4.934842e-01
-4.939380e-01
-4.944496e-01
-4.951481e-01
-4.961156e-01
-4.973657e-01
-4.988390e-01
-5.004247e-01
-5.020147e-01
-5.035515e-01
-5.050277e-01
-5.064409e-01
-5.077600e-01
-5.089378e-01
-5.099499e-01
-5.108072e-01
-5.115356e-01
-5.121546e-01
-5.126914e-01
-5.132149e-01
-5.138435e-01
-5.146985e-01
-5.158373e-01
-5.172169e-01
-5.187099e-01
-5.201555e-01
-5.214171e-01
-5.224270e-01
-5.231971e-01
-5.237909e-01
-5.242789e-01
-5.247138e-01
-5.251406e-01
-5.256087e-01
-5.261481e-01
-5.267336e-01
-5.272903e-01
-5.277494e-01
-5.281150e-01
-5.284869e-01
-5.290073e-01
-5.297649e-01
-5.307272e-01
-5.317510e-01
-5.326673e-01
-5.333819e-01
-5.339132e-01
-5.343440e-01
-5.347324e-01
-5.350608e-01
-5.352648e-01
-5.353078e-01
-5.352292e-01
-5.351244e-01
-5.350885e-01
-5.351755e-01
-5.353875e-01
-5.356784e-01
-5.359653e-01
-5.361657e-01
-5.362530e-01
-5.362880e-01
-5.363980e-01
-5.367262e-01
-5.373817e-01
-5.384054e-01
-5.397631e-01
-5.413627e-01
-5.430837e-01
-5.448084e-01
-5.464302e-01
-5.478405e-01
-5.489254e-01
-5.495948e-01
-5.498318e-01
-5.497122e-01
-5.493780e-01
-5.489939e-01
-5.487021e-01
-5.485757e-01
-5.486039e-01
-5.487278e-01
-5.488968e-01
-5.490974e-01
-5.493336e-01
-5.495846e-01
-5.497986e-01
-5.499316e-01
-5.499885e-01
-5.500142e-01
-5.500147e-01
-5.498843e-01
-5.494330e-01
-5.484928e-01
-5.470052e-01
-5.450221e-01
-5.426306e-01
-5.398730e-01
-5.367084e-01
-5.330119e-01
-5.286172e-01
-5.234142e-01
-5.174553e-01
-5.109813e-01
-5.043239e-01
-4.977611e-01
-4.914454e-01
-4.854364e-01
-4.797630e-01
-4.744502e-01
-4.695058e-01
-4.649110e-01
-4.606441e-01
-4.567053e-01
-4.531045e-01
-4.498462e-01
-4.469321e-01
-4.443202e-01
-4.418321e-01
-4.391388e-01
-4.359127e-01
-4.320209e-01
-4.275797e-01
-4.228482e-01
-4.180707e-01
-4.133822e-01
-4.088120e-01
-4.043316e-01
-3.999024e-01
-3.955197e-01
-3.912195e-01
-3.870229e-01
-3.828746e-01
-3.786696e-01
-3.743696e-01
-3.700845e-01
-3.660148e-01
-3.623114e-01
-3.589868e-01
-3.559383e-01
-3.530584e-01
-3.503129e-01
-3.476783e-01
-3.450219e-01
-3.420828e-01
-3.385604e-01
-3.342057e-01
-3.288671e-01
-3.225197e-01
-3.152421e-01
-3.071136e-01
-2.981331e-01
-2.882372e-01
-2.773582e-01
-2.654593e-01
-2.525582e-01
-2.387644e-01
-2.243012e-01
-2.094658e-01
-1.945158e-01
-1.795282e-01
-1.643483e-01
-1.486917e-01
-1.323027e-01
-1.150433e-01
-9.687530e-02
-7.781042e-02
-5.791701e-02
-3.735113e-02
-1.635636e-02
4.727643e-03
2.550942e-02
4.575312e-02
6.559066e-02
8.546145e-02
1.058079e-01
1.268325e-01
1.484966e-01
1.706483e-01
1.931041e-01
2.156835e-01
2.382698e-01
2.608679e-01
2.835521e-01
3.063350e-01
3.291159e-01
3.517688e-01
3.742587e-01
3.966589e-01
4.191118e-01
4.418233e-01
4.649925e-01
4.886328e-01
5.124929e-01
5.362048e-01
5.595114e-01
5.823760e-01
6.049196e-01
6.272438e-01
6.493017e-01
6.709611e-01
6.921390e-01
7.128437e-01
7.332189e-01
7.536168e-01
7.745396e-01
7.964512e-01
8.196214e-01
8.440608e-01
8.694938e-01
8.953422e-01
9.208308e-01
9.453422e-01
9.688179e-01
9.917647e-01
1.014817e+00
1.038344e+00
1.062466e+00
1.087273e+00
1.112862e+00
1.139193e+00
1.166031e+00
1.193066e+00
1.220071e+00
1.246975e+00
1.273866e+00
1.300983e+00
1.328642e+00
1.357095e+00
1.386363e+00
1.416192e+00
1.446184e+00
1.476034e+00
1.505651e+00
1.535063e+00
1.564286e+00
1.593261e+00
1.621920e+00
1.650308e+00
1.678688e+00
1.707516e+00
1.737258e+00
1.768126e+00
1.800046e+00
1.832945e+00
1.867032e+00
1.902681e+00
1.940055e+00
1.978928e+00
2.018867e+00
2.059476e+00
2.100409e+00
2.141243e+00
2.181487e+00
2.220756e+00
2.258962e+00
2.296366e+00
2.333505e+00
2.370981e+00
2.409240e+00
2.448436e+00
2.488475e+00
2.529318e+00
2.571288e+00
2.615014e+00
2.661141e+00
2.710142e+00
2.762208e+00
2.817088e+00
2.873994e+00
2.931843e+00
2.989688e+00
3.046837e+00
3.102535e+00
3.155581e+00
3.204362e+00
3.247483e+00
3.284454e+00
3.315897e+00
3.343291e+00
3.368488e+00
3.393214e+00
3.418729e+00
3.445983e+00
3.476058e+00
3.510188e+00
3.549253e+00
3.593426e+00
3.642270e+00
3.695003e+00
3.750685e+00
3.808337e+00
3.867011e+00
3.925751e+00
3.983430e+00
4.038668e+00
4.090076e+00
4.136732e+00
4.178481e+00
4.215880e+00
4.249934e+00
4.281813e+00
4.312671e+00
4.343614e+00
4.375695e+00
4.409929e+00
4.447276e+00
4.488549e+00
4.534135e+00
4.583673e+00
4.636134e+00
4.690376e+00
4.745583e+00
4.801305e+00
4.857261e+00
4.913179e+00
4.968839e+00
5.024078e+00
5.078701e+00
5.132539e+00
5.185504e+00
5.237467e+00
5.288224e+00
5.337775e+00
5.386552e+00
5.435203e+00
5.484240e+00
5.533922e+00
5.584251e+00
5.635032e+00
5.685907e+00
5.736401e+00
5.785966e+00
5.833807e+00
5.878822e+00
5.920152e+00
5.957926e+00
5.993471e+00
6.028765e+00
6.065391e+00
6.103735e+00
6.143087e+00
6.182446e+00
6.221255e+00
6.259668e+00
6.298385e+00
6.338200e+00
6.379526e+00
6.422180e+00
6.465489e+00
6.508647e+00
6.551000e+00
6.592114e+00
6.631686e+00
6.669235e+00
6.703730e+00
6.733665e+00
6.757568e+00
6.774500e+00
6.784202e+00
6.786824e+00
6.782550e+00
6.771508e+00
6.753906e+00
6.730035e+00
6.700113e+00
6.664364e+00
6.623161e+00
6.576825e+00
6.525237e+00
6.467890e+00
6.404596e+00
6.336216e+00
6.264791e+00
6.193179e+00
6.124512e+00
6.061440e+00
6.005361e+00
5.956055e+00
5.911959e+00
5.870696e+00
5.829503e+00
5.785540e+00
5.736137e+00
5.679093e+00
5.613069e+00
5.537808e+00
5.453941e+00
5.362430e+00
5.264057e+00
5.159271e+00
5.048387e+00
4.931825e+00
4.810018e+00
4.683199e+00
4.551509e+00
4.415213e+00
4.274739e+00
4.130557e+00
3.983024e+00
3.832305e+00
3.678294e+00
3.520626e+00
3.358858e+00
3.192611e+00
3.021677e+00
2.846229e+00
2.666886e+00
2.484537e+00
2.300081e+00
2.114115e+00
1.926859e+00
1.738389e+00
1.548788e+00
1.358017e+00
1.165791e+00
9.716957e-01
7.755568e-01
5.777042e-01
3.788203e-01
1.795662e-01
-1.965407e-02
-2.187913e-01
-4.181267e-01
-6.180050e-01
-8.185251e-01
-1.019486e+00
-1.220515e+00
-1.421240e+00
-1.621453e+00
-1.821131e+00
-2.020307e+00
-2.218857e+00
-2.416326e+00
-2.611971e+00
-2.804927e+00
-2.994369e+00
-3.179543e+00
-3.359621e+00
-3.533561e+00
-3.700088e+00
-3.857796e+00
-4.005377e+00
-4.141866e+00
-4.266868e+00
-4.380666e+00
-4.484031e+00
-4.577833e+00
-4.662730e+00
-4.739029e+00
-4.806707e+00
-4.865540e+00
-4.915190e+00
-4.955212e+00
-4.985129e+00
-5.004563e+00
-5.013357e+00
-5.011644e+00
-4.999866e+00
-4.978653e+00
-4.948664e+00
-4.910414e+00
-4.864124e+00
-4.809805e+00
-4.747585e+00
-4.677887e+00
-4.601266e+00
-4.518175e+00
-4.428860e+00
-4.333355e+00
-4.231611e+00
-4.123778e+00
-4.010415e+00
-3.892511e+00
-3.771407e+00
-3.648713e+00
-3.526198e+00
-3.405590e+00
-3.288346e+00
-3.175570e+00
-3.068015e+00
-2.966077e+00
-2.869822e+00
-2.779041e+00
-2.693277e+00
-2.611773e+00
-2.533428e+00
-2.456807e+00
-2.380272e+00
-2.302206e+00
-2.221411e+00
-2.137538e+00
-2.051178e+00
-1.963537e+00
-1.875977e+00
-1.789731e+00
-1.705809e+00
-1.624914e+00
-1.547307e+00
-1.472819e+00
-1.401007e+00
-1.331307e+00
-1.263233e+00
-1.196623e+00
-1.131778e+00
-1.069407e+00
-1.010463e+00
-9.559991e-01
-9.070601e-01
-8.646495e-01
-8.296960e-01
-8.028408e-01
-7.843385e-01
-7.743448e-01
-7.731348e-01
-7.808792e-01
-7.973432e-01
-8.220984e-01
-8.550412e-01
-8.964608e-01
-9.466909e-01
-1.005908e+00
-1.074246e+00
-1.151894e+00
-1.238843e+00
-1.334605e+00
-1.438213e+00
-1.548357e+00
-1.663382e+00
-1.781178e+00
-1.899466e+00
-2.016451e+00
-2.131097e+00
-2.242807e+00
-2.350952e+00
-2.454690e+00
-2.553237e+00
-2.646040e+00
-2.732568e+00
-2.812293e+00
-2.885147e+00
-2.952024e+00
-3.014711e+00
-3.075188e+00
-3.135017e+00
-3.195098e+00
-3.255418e+00
-3.314848e+00
-3.371480e+00
-3.423316e+00
-3.468584e+00
-3.505609e+00
-3.532632e+00
-3.547870e+00
-3.549733e+00
-3.537004e+00
-3.508803e+00
-3.464496e+00
-3.404126e+00
-3.329296e+00
-3.243384e+00
-3.150827e+00
-3.056287e+00
-2.964056e+00
-2.877552e+00
-2.798759e+00
-2.728025e+00
-2.664738e+00
-2.608115e+00
-2.557380e+00
-2.511749e+00
-2.470440e+00
-2.432799e+00
-2.398516e+00
-2.367581e+00
-2.339903e+00
-2.314865e+00
-2.291360e+00
-2.268329e+00
-2.244940e+00
-2.220427e+00
-2.194349e+00
-2.167018e+00
-2.139438e+00
-2.112995e+00
-2.089041e+00
-2.068029e+00
-2.049375e+00
-2.032783e+00
-2.018908e+00
-2.008611e+00
-2.002481e+00
-2.000681e+00
-2.002920e+00
-2.008768e+00
-2.017692e+00
-2.029119e+00
-2.042794e+00
-2.058635e+00
-2.076482e+00
-2.096062e+00
-2.116972e+00
-2.138826e+00
-2.161311e+00
-2.184122e+00
-2.206982e+00
-2.229644e+00
-2.251854e+00
-2.273335e+00
-2.293852e+00
-2.313346e+00
-2.331921e+00
-2.349730e+00
-2.366773e+00
-2.382871e+00
-2.397930e+00
-2.412097e+00
-2.425772e+00
-2.439430e+00
-2.453248e+00
-2.466883e+00
-2.479504e+00
-2.489922e+00
-2.496886e+00
-2.499468e+00
-2.497227e+00
-2.489933e+00
-2.477314e+00
-2.459230e+00
-2.435850e+00
-2.407346e+00
-2.373569e+00
-2.334432e+00
-2.290691e+00
-2.244103e+00
-2.196907e+00
-2.151374e+00
-2.109425e+00
-2.072212e+00
-2.040152e+00
-2.013322e+00
-1.991629e+00
-1.974786e+00
-1.962353e+00
-1.953974e+00
-1.949598e+00
-1.949291e+00
-1.952851e+00
-1.959853e+00
-1.969938e+00
-1.982983e+00
-1.999103e+00
-2.018411e+00
-2.040699e+00
-2.065401e+00
-2.091898e+00
-2.119959e+00
-2.149988e+00
-2.182735e+00
-2.218780e+00
-2.258348e+00
-2.301493e+00
-2.348281e+00
-2.398690e+00
-2.452590e+00
-2.510002e+00
-2.571129e+00
-2.636055e+00
-2.704663e+00
-2.776840e+00
-2.852558e+00
-2.931589e+00
-3.013366e+00
-3.097216e+00
-3.182417e+00
-3.268129e+00
-3.353530e+00
-3.437892e+00
-3.520575e+00
-3.601220e+00
-3.679824e+00
-3.756355e+00
-3.830529e+00
-3.902063e+00
-3.970877e+00
-4.037064e+00
-4.100884e+00
-4.162694e+00
-4.222769e+00
-4.281212e+00
-4.337959e+00
-4.392786e+00
-4.445322e+00
-4.495020e+00
-4.541045e+00
-4.582221e+00
-4.617283e+00
-4.645190e+00
-4.665104e+00
-4.676232e+00
-4.677834e+00
-4.669314e+00
-4.650170e+00
-4.619917e+00
-4.578423e+00
-4.526422e+00
-4.465564e+00
-4.397992e+00
-4.325804e+00
-4.250697e+00
-4.173887e+00
-4.096119e+00
-4.017745e+00
-3.938857e+00
-3.859510e+00
-3.779926e+00
-3.700449e+00
-3.621280e+00
-3.542303e+00
-3.463168e+00
-3.383545e+00
-3.303198e+00
-3.221848e+00
-3.139096e+00
-3.054391e+00
-2.967022e+00
-2.876339e+00
-2.782119e+00
-2.684847e+00
-2.585577e+00
-2.485590e+00
-2.386264e+00
-2.288964e+00
-2.194761e+00
-2.104400e+00
-2.018545e+00
-1.937810e+00
-1.862638e+00
-1.793306e+00
-1.729995e+00
-1.672802e+00
-1.621598e+00
