EVENT_NAME: L_AQUILA
EVENT_ID: IT-2009-0009
EVENT_DATE_YYYYMMDD: 20090406
EVENT_TIME_HHMMSS: 013240
EVENT_LATITUDE_DEGREE: 42.3420
EVENT_LONGITUDE_DEGREE: 13.3800
EVENT_DEPTH_KM: 8.3
HYPOCENTER_REFERENCE: INGV-CNT_Seismic_Bulletin
MAGNITUDE_W: 6.1
MAGNITUDE_W_REFERENCE: INGV-CNT_Seismic_Bulletin
MAGNITUDE_L: 
MAGNITUDE_L_REFERENCE: 
FOCAL_MECHANISM: Normal faulting
NETWORK: IT
STATION_CODE: AQA
STATION_NAME: 
STATION_LATITUDE_DEGREE: 42.375530
STATION_LONGITUDE_DEGREE: 13.339298
STATION_ELEVATION_M: 693
LOCATION: 
SENSOR_DEPTH_M: 0.0
VS30_M/S: 549
SITE_CLASSIFICATION_EC8: B
MORPHOLOGIC_CLASSIFICATION: 
EPICENTRAL_DISTANCE_KM: 5.0
EARTHQUAKE_BACKAZIMUTH_DEGREE: 318.0
DATE_TIME_FIRST_SAMPLE_YYYYMMDD_HHMMSS: 20090406_013227.000
DATE_TIME_FIRST_SAMPLE_PRECISION: seconds
SAMPLING_INTERVAL_S: 0.005000
NDATA: 180000
DURATION_S: 900.000
STREAM: HNN
UNITS: cm/s^2
INSTRUMENT: sensor = FBA-3 [Kinemetrics] | digitizer = Everest [Kinemetrics]
INSTRUMENT_ANALOG/DIGITAL: D
INSTRUMENTAL_FREQUENCY_HZ: 214.000
INSTRUMENTAL_DAMPING: 0.000000
FULL_SCALE_G: 1.0
N_BIT_DIGITAL_CONVERTER: 24
PGA_CM/S^2: -430.333008
TIME_PGA_S: 18.415000
BASELINE_CORRECTION: BASELINE NOT REMOVED
FILTER_TYPE: 
FILTER_ORDER: 
LOW_CUT_FREQUENCY_HZ: 
HIGH_CUT_FREQUENCY_HZ: 
LATE/NORMAL_TRIGGERED: NT
DATABASE_VERSION: 0.5
HEADER_FORMAT: DYNA 1.2
DATA_TYPE: ACCELERATION
PROCESSING: converted to cm/s^2
DATA_TIMESTAMP_YYYYMMDD_HHMMSS: 20211011_155707.987
DATA_LICENSE: CC-BY3_0-IT (http://creativecommons.org/licenses/by/3.0/deed.en)
DATA_CITATION: Luzi L, Pacor F, Puglia R (2019). Italian Accelerometric Archive v 3.0 - Istituto Nazionale di Geofisica e Vulcanologia, Dipartimento della Protezione Civile Nazionale. doi: 10.13127/itaca.3.1
DATA_CREATOR: ITACA working group
ORIGINAL_DATA_MEDIATOR_CITATION: data obtained within the DPC-INGV data exchange agreements
ORIGINAL_DATA_MEDIATOR: Archive of Italian Department of Civil Protection
ORIGINAL_DATA_CREATOR_CITATION: Presidency Of Counsil Of Ministers-Civil Protection Department. (1972). Italian Strong Motion Network. Presidency of Counsil of Ministers - Civil Protection Department. https://doi.org/10.7914/SN/IT http://www.fdsn.org/networks/detail/IT/
ORIGINAL_DATA_CREATOR: network: IT (Italian Strong Motion Network (RAN)); owner: Presidency of Counsil of Ministers - Civil Protection Department (PCM - DPC)
USER1: 
USER2: 
USER3: 
USER4: 
USER5: 
[...]
-0.127922
-0.125700
-0.129326
-0.128624
-0.131665
-0.132600
-0.133536
-0.134939
-0.132834
-0.129443
-0.124648
-0.123362
-0.130846
-0.135056
-0.131080
-0.133770
-0.132249
-0.128273
-0.125467
-0.126753
-0.136109
-0.135407
-0.136109
-0.130378
-0.123946
-0.127221
-0.125350
-0.129209
-0.133770
-0.135992
-0.134588
-0.131782
-0.129560
-0.125116
-0.126636
-0.128741
-0.132483
-0.133419
-0.132717
-0.130261
-0.128039
-0.131548
-0.129443
-0.131431
-0.134705
-0.131314
-0.126402
-0.126168
-0.130144
-0.131665
-0.130612
-0.127805
-0.136693
-0.136576
-0.128273
-0.130612
-0.129560
-0.129794
-0.123128
-0.124765
-0.134705
-0.133302
-0.133185
-0.130378
-0.135290
-0.133419
-0.124180
-0.128858
-0.127104
-0.127922
-0.130378
-0.129092
-0.135758
-0.136810
-0.132249
-0.125934
-0.126987
-0.131197
-0.125818
-0.129560
-0.133887
-0.130495
-0.131314
-0.128624
-0.131080
-0.134121
-0.130612
-0.132483
-0.129911
-0.128507
-0.127104
-0.127104
-0.130729
-0.130378
-0.135056
-0.134121
-0.133653
-0.130144
-0.125467
-0.127104
-0.126168
-0.134705
-0.133887
-0.130378
-0.130729
-0.129560
-0.133653
-0.124531
-0.126168
-0.135875
-0.131782
-0.129911
-0.130612
-0.131197
-0.128390
-0.127338
-0.129443
-0.129209
-0.129092
-0.130612
-0.133887
-0.134471
-0.132951
-0.127572
-0.125934
-0.128975
-0.130963
-0.132951
-0.131314
-0.132600
-0.130612
-0.130729
-0.129677
-0.124531
-0.129326
-0.129209
-0.130612
-0.132133
-0.133536
-0.137629
-0.127572
-0.124180
-0.127221
-0.127455
-0.128624
-0.131431
-0.140786
-0.136109
-0.126051
-0.125934
-0.125934
-0.130261
-0.128156
-0.128039
-0.135875
-0.132951
-0.129794
-0.131665
-0.132834
-0.130963
-0.126519
-0.126636
-0.129677
-0.130612
-0.131080
-0.131665
-0.131665
-0.131665
-0.128507
-0.128624
-0.132834
-0.132249
-0.129092
-0.128741
-0.130495
-0.129209
-0.128156
-0.130144
-0.131899
-0.132249
-0.133302
-0.131197
-0.129092
-0.128624
-0.125584
-0.129794
-0.132717
-0.132133
-0.132483
-0.127689
-0.128741
-0.132951
-0.131431
-0.127104
-0.126285
-0.131548
-0.128507
-0.127221
-0.137512
-0.138564
-0.131782
-0.124882
-0.124414
-0.127805
-0.129209
-0.133068
-0.132133
-0.135290
-0.130378
-0.121958
-0.128741
-0.131899
-0.135407
-0.131548
-0.128975
-0.134004
-0.127805
-0.127104
-0.126519
-0.127338
-0.135524
-0.133887
-0.130495
-0.129560
-0.130378
-0.128390
-0.125584
-0.132249
-0.134822
-0.130846
-0.128039
-0.127805
-0.132249
-0.130378
-0.127455
-0.132834
-0.132133
-0.129794
-0.130144
-0.129911
-0.132016
-0.127922
-0.126051
-0.127689
-0.131314
-0.135173
-0.131782
-0.132249
-0.129209
-0.124999
-0.125934
-0.132717
-0.138214
-0.127689
-0.126987
-0.129677
-0.126402
-0.131899
-0.133653
-0.133419
-0.131548
-0.128039
-0.128156
-0.128741
-0.129443
-0.129911
-0.132483
-0.130495
-0.125700
-0.130144
-0.133770
-0.130846
-0.131665
-0.134004
-0.132016
-0.125350
-0.122660
-0.128039
-0.129326
-0.131548
-0.137278
-0.135056
-0.133653
-0.130612
-0.125700
-0.125116
-0.124414
-0.130261
-0.133653
-0.131314
-0.131548
-0.134004
-0.134471
-0.126987
-0.128156
-0.131431
-0.126870
-0.128624
-0.131314
-0.134004
-0.129677
-0.129209
-0.133770
-0.128156
-0.129794
-0.130963
-0.132717
-0.133302
-0.124765
-0.125700
-0.131080
-0.130495
-0.125700
-0.132366
-0.137278
-0.131899
-0.128858
-0.126519
-0.128975
-0.126168
-0.130612
-0.136109
-0.128975
-0.132249
-0.129443
-0.125467
-0.127689
-0.128390
-0.138681
-0.134822
-0.127104
-0.128624
-0.128156
-0.128624
-0.124297
-0.131899
-0.137278
-0.133887
-0.133887
-0.129326
-0.130729
-0.124531
-0.123011
-0.131899
-0.130261
-0.133185
-0.135524
-0.135875
-0.130963
-0.121607
-0.124882
-0.126402
-0.130612
-0.137278
-0.138097
-0.134705
-0.122777
-0.124180
-0.127455
-0.126168
-0.134471
-0.139266
-0.139383
-0.128858
-0.120672
-0.124648
-0.125350
-0.130144
-0.138214
-0.134822
-0.128741
-0.128039
-0.126870
-0.130612
-0.130144
-0.130261
-0.134822
-0.128975
-0.127104
-0.129092
-0.129677
-0.127572
-0.125467
-0.132483
-0.134354
-0.129794
-0.133419
-0.136693
-0.126285
-0.119503
-0.126870
-0.133887
-0.131197
-0.127338
-0.135992
-0.136927
-0.126402
-0.126870
-0.131080
-0.129677
-0.125350
-0.130261
-0.135407
-0.130729
-0.129911
-0.128858
-0.131080
-0.127104
-0.127689
-0.138447
-0.127689
-0.122777
-0.130495
-0.134354
-0.133653
-0.126402
-0.132834
-0.134238
-0.122660
-0.125116
-0.133887
-0.136810
-0.129326
-0.125116
-0.131314
-0.129911
-0.127104
-0.129443
-0.136226
-0.131314
-0.122660
-0.132133
-0.130729
-0.128507
-0.130378
-0.128507
-0.134705
-0.131665
-0.130846
-0.130729
-0.123596
-0.125818
-0.129794
-0.132133
-0.133068
-0.135290
-0.134354
-0.123011
-0.126051
-0.131899
-0.129209
-0.130729
-0.128390
-0.132133
-0.130612
-0.127455
-0.133536
-0.130027
-0.127221
-0.127572
-0.132717
-0.137395
-0.132600
-0.129677
-0.123946
-0.119152
-0.122309
-0.130729
-0.141956
-0.141137
-0.136109
-0.135524
-0.119853
-0.113421
-0.123362
-0.132133
-0.139734
-0.133536
-0.134354
-0.133536
-0.125818
-0.125467
-0.126870
-0.136693
-0.130144
-0.125818
-0.131197
-0.127221
-0.128156
-0.129209
-0.137044
-0.132951
-0.126168
-0.134939
-0.129794
-0.127338
-0.129794
-0.129677
-0.131548
-0.125467
-0.127689
-0.134238
-0.130729
-0.131431
-0.134822
-0.133887
-0.129209
-0.122543
-0.127104
-0.132366
-0.125934
-0.128039
-0.133653
-0.130027
-0.127338
-0.132366
-0.138214
-0.130378
-0.125116
-0.125584
-0.126636
-0.128624
-0.124999
-0.136459
-0.139617
-0.128273
-0.126870
-0.123479
-0.127922
-0.126285
-0.130612
-0.144178
-0.133185
-0.127922
-0.126753
-0.124531
-0.125818
-0.127104
-0.136810
-0.131548
-0.127572
-0.130495
-0.133068
-0.136810
-0.128975
-0.129560
-0.129794
-0.123596
-0.124297
-0.128858
-0.133068
-0.134939
-0.137395
-0.133887
-0.129794
-0.127221
-0.123713
-0.124531
-0.126636
-0.131782
-0.137629
-0.133068
-0.130027
-0.134238
-0.129560
-0.124414
-0.125233
-0.131665
-0.130963
-0.125116
-0.133887
-0.135407
-0.130378
-0.126168
-0.126636
-0.130729
-0.126870
-0.131314
-0.135875
-0.132717
-0.124999
-0.122075
-0.129794
-0.129443
-0.131665
-0.134939
-0.132249
-0.130495
-0.124765
-0.127572
-0.131197
-0.126168
-0.129794
-0.133536
-0.128975
-0.127104
-0.130261
-0.132016
-0.128975
-0.127338
-0.132951
-0.137629
-0.127689
-0.123946
-0.133068
-0.128390
-0.124414
-0.128741
-0.133653
-0.135758
-0.129326
-0.130963
-0.132133
-0.127455
-0.123713
-0.125350
-0.134705
-0.135641
-0.133419
-0.128975
-0.124882
-0.125233
-0.128156
-0.130027
-0.135992
-0.134939
-0.121257
-0.121724
-0.126168
-0.148154
-0.143476
-0.129794
-0.074830
0.060124
0.199288
0.359034
0.308631
-0.296088
-1.707840
-3.297932
-4.265880
-3.790151
-1.112243
3.075884
7.523744
8.652958
5.238535
-0.651950
-7.673286
-12.319720
-12.720370
-7.179430
3.206628
12.505340
17.172350
15.014850
5.466109
-7.210304
-16.622219
-21.178370
-17.336750
-3.782549
13.321730
23.734909
21.060869
11.307240
-5.499993
-19.824381
-22.975920
-17.905910
-0.759422
15.126530
22.646049
19.314541
3.161253
-10.880250
-18.410999
-15.399210
-3.415812
9.874909
20.167179
16.940800
3.162540
-10.204200
-19.045420
-18.562559
-9.687886
3.253289
16.371401
21.071621
14.826570
1.692199
-10.072280
-18.390530
-22.101990
-15.386000
-3.257352
13.585670
24.716660
22.412279
13.093450
-4.220623
-16.498960
-18.334160
-13.404030
-0.669375
11.117440
15.133080
6.997845
-9.216016
-19.353920
-17.201679
-4.957839
15.039640
27.569050
22.835260
6.461890
-16.959841
-29.626310
-28.691219
-14.730760
10.233580
23.119909
27.508240
22.072201
6.297466
-7.551548
-24.316099
-29.449141
-20.810579
-6.173125
15.218560
24.017799
20.657881
13.750440
4.014596
-5.178163
-16.548309
-19.249950
-9.398917
2.428480
10.704860
13.629410
7.607827
-3.970245
-10.842590
-15.767000
-12.968410
-1.277485
9.548868
14.902230
8.236403
-0.860345
-6.578804
-11.431180
-9.899789
-0.920571
8.628166
14.014390
12.000720
1.391652
-6.796789
-10.091460
-9.450606
-5.399538
-0.151662
8.712600
9.939930
0.892534
-8.552474
-14.247310
-14.635330
-11.725990
-8.691638
-5.400474
3.063722
8.383167
2.712187
-6.476244
-14.328470
-10.681450
3.919520
19.305071
31.667480
27.784809
7.793768
-17.374399
-34.566269
-30.958420
-11.869600
15.482510
38.576199
47.852692
36.843788
5.436756
-25.201950
-39.336311
-37.450821
-33.239422
-25.288490
-8.958738
6.232562
22.427361
39.813938
49.121891
32.342480
0.557371
-20.545931
-33.164341
-30.390070
-12.057410
13.029720
31.066971
30.113171
19.680111
5.333026
0.735828
9.857718
12.644150
-2.701750
-29.038080
-54.606899
-64.528809
-48.716061
-14.522250
26.253550
58.477779
70.285057
46.140739
0.577369
-41.931770
-65.165573
-52.152241
-26.096689
19.614969
61.135700
62.379162
59.106709
30.990841
-6.582313
-21.591299
-51.954021
-69.225166
-62.072510
-25.701771
36.765430
69.097031
86.847893
65.663193
14.318090
-23.017080
-63.646111
-70.074188
-54.898441
-14.731580
41.125820
61.938629
64.225250
37.179070
8.766160
-4.605603
-13.599790
-8.530021
-3.375466
-4.362008
-11.070050
-3.049308
-4.520936
-14.255150
5.378634
32.506908
58.062519
55.758591
12.105740
-26.383320
-34.798290
-44.636700
-61.390251
-53.639179
-22.644730
21.391001
40.488480
31.027559
13.181630
-9.481129
-21.349461
-20.282810
-0.429990
21.521280
38.342079
23.321751
-18.462799
-50.216339
-68.264473
-52.136330
-13.525650
57.675308
129.986496
145.723694
74.833504
-29.808861
-63.652309
-75.236229
-62.634892
-23.481119
0.388621
28.971210
63.065281
88.695961
53.207691
32.551109
44.554859
-2.495460
-56.674011
-98.533989
-99.953339
-43.255699
9.136874
78.489761
112.516502
66.689148
55.314442
48.470280
5.531363
-42.036900
-80.014572
-74.268044
-60.111931
-10.535030
34.956661
63.560421
105.115196
100.319397
70.106956
-20.607330
-98.940140
-126.171898
-146.355606
-104.534401
-45.839939
24.306070
77.020363
103.646698
93.899277
47.036888
27.017660
-52.315960
-101.322502
-106.814003
-102.270599
-9.148656
35.392738
91.797562
121.349197
70.459549
62.682171
-3.110236
-67.646889
-80.427849
-108.054901
-89.064194
-8.629306
66.811234
118.146797
149.183502
148.079193
93.217850
-23.899309
-128.446198
-202.153503
-213.805405
-154.108902
-13.947470
160.826202
212.815002
203.523102
154.846893
35.114880
-67.167068
-127.794998
-195.891205
-222.925903
-172.919296
-97.408051
59.924030
178.457901
186.388199
187.051895
114.294502
10.891160
-67.846626
-156.916595
-199.507202
-199.434799
-107.223099
52.958248
105.955803
157.453201
219.531296
190.792206
176.748596
144.854599
59.400360
-48.714539
-107.036797
-52.909691
-30.880301
-33.904251
18.916929
30.841860
70.599411
128.358994
117.687202
106.546997
4.204046
-109.555603
-159.945801
-199.178497
-164.761902
-121.406998
-32.865200
69.106499
119.449699
127.143898
56.286720
-33.604050
-118.065300
-129.116898
-100.489899
-54.086849
42.309181
107.082199
172.138107
183.854507
142.483307
115.208099
46.459179
-14.379340
-30.459419
-13.685860
-8.563701
-9.562756
17.963600
37.688129
73.184593
70.806519
45.019249
45.584320
31.933300
-8.083761
-71.596802
-94.661148
-119.398598
-99.747871
-66.815651
-89.786201
-30.710260
1.760260
12.863890
21.441521
-10.650810
24.904831
7.194078
-59.291451
-95.831291
-106.272499
-68.425392
-31.989519
6.890374
39.794991
55.307072
59.580921
56.546452
34.598579
-23.077311
-50.225231
-45.465599
-17.612150
28.108749
42.858700
67.276443
72.224121
53.039291
51.475391
25.519369
-1.905944
-43.511101
-57.131260
-43.420479
-66.793900
-57.998989
-52.438400
-58.267250
-49.817440
-41.874592
-52.166271
-94.938538
-112.812302
-120.230103
-123.714897
-136.321701
-133.039093
-121.102600
-160.301300
-202.000900
-247.323807
-255.009598
-239.829803
-236.090195
-216.366501
-209.683105
-196.978806
-209.577896
-239.131805
-254.846695
-257.135010
-210.296997
-138.979507
-74.316811
-31.426781
4.609258
10.771290
-34.853951
-96.366898
-161.447205
-200.141296
-206.426193
-178.475693
-125.998596
-84.224800
-44.684761
8.307387
32.465271
7.586075
-23.373760
-72.212982
-115.307800
-131.398300
-125.120903
-77.387070
-26.290239
24.060610
75.076736
116.087799
151.947800
179.476700
180.010803
172.626099
184.763504
183.754593
206.607300
233.128601
237.984406
258.226990
267.931610
274.044586
257.036407
242.972900
237.951797
210.654694
211.330994
223.865494
245.344406
264.092804
282.425415
306.620514
288.324097
257.569214
215.204498
184.418198
173.236099
136.940994
113.121803
114.952003
138.152496
176.741898
223.413406
263.319305
277.725189
271.143188
236.631699
192.035706
119.874100
51.404640
21.458941
-10.442760
-9.260689
3.521676
7.242376
16.035650
7.390077
-10.526960
-65.375481
-126.975700
-188.545197
-266.641296
-313.791504
-374.374908
-423.221008
-428.416504
-430.333008
-388.366211
-329.332611
-268.528412
-201.079193
-155.686707
-94.983208
-44.303638
-23.224070
-15.367400
-43.479179
-87.003632
-124.313004
-167.414001
-202.953201
-221.961594
-226.443695
-195.973907
-170.833298
-154.255798
-100.546204
-62.591389
-40.652168
-2.974932
26.790079
64.774887
90.730087
97.050003
106.645500
78.688103
32.340969
-10.948900
-63.212830
-88.938713
-71.099670
-23.623671
40.604252
100.950996
138.707993
175.906296
182.492004
162.594894
134.260605
80.527977
47.445141
-12.464730
-40.496750
-29.314880
-83.905190
-71.201637
-7.469336
37.753502
100.032898
121.329002
152.414200
215.713699
230.700699
230.730392
265.073792
291.239197
277.348511
261.168915
232.798492
192.783997
181.670502
162.746307
168.021606
185.904297
181.891907
211.365097
231.215393
242.916901
250.681000
245.289795
232.424500
179.254196
150.183105
108.573898
23.519970
-27.691000
-79.713791
-141.233597
-192.288498
-227.586395
-244.284897
-269.510986
-283.929810
-256.540100
-210.970901
-190.132401
-170.603104
-166.535507
-208.212601
-257.212494
-320.142395
-354.445496
-352.618591
-380.244995
-386.878204
-355.388885
-328.818390
-304.209595
-300.145813
-298.846008
-278.632202
-269.660492
-255.318497
-222.075806
-171.087799
-120.014900
-98.250168
-105.552399
-135.471603
-148.443604
-146.443100
-143.263000
-111.056702
-63.016949
-14.123000
35.846020
80.099503
112.392601
121.808899
110.679901
109.158798
131.638397
138.177307
136.580002
168.200195
184.242294
188.587097
197.918304
185.706100
201.688095
210.613693
204.036804
234.427307
258.635498
276.777008
285.183105
292.644287
328.778107
352.331085
366.392303
379.870911
367.464813
340.935913
278.457489
179.981400
96.055618
23.750231
-50.286388
-130.819199
-183.967804
-159.698807
-89.209793
-1.307774
109.217300
171.739594
163.370605
131.114899
55.078331
-57.241890
-180.103104
-273.937805
-336.017090
-359.249298
-328.224213
-291.448700
-191.996201
-91.527847
-9.320915
111.809402
176.111298
229.035400
229.485596
167.136093
108.562103
9.854094
-85.946220
-171.069000
-196.781799
-183.480499
-163.943604
-81.497887
21.736340
125.868301
178.328796
213.205399
248.756897
214.749893
177.775406
145.564499
107.404099
62.792561
16.320410
7.871185
9.174179
-12.184760
-25.618740
-1.652642
16.956591
57.686539
56.751801
-2.111532
-26.904430
-79.905693
-104.471298
-133.039200
-160.910599
-135.810196
-156.131500
-162.737701
-203.251999
-245.958694
-251.430695
-266.906586
-202.244202
-169.332794
-140.645096
-65.617554
-45.523602
0.069947
25.472710
12.003410
2.133313
-53.458740
-47.753849
6.070711
9.433210
34.959820
70.433823
115.282303
170.297104
178.908600
210.651794
238.482803
223.796295
201.990204
172.252304
172.210693
191.014206
203.673706
196.865204
194.341599
192.000000
167.711700
158.476501
139.756897
118.847801
89.231682
44.356529
3.886191
-39.017521
-44.055359
-56.721020
-76.223122
-63.180439
-67.980530
-53.948620
-47.682388
-69.595543
-73.196129
-122.820702
-158.135803
-165.309296
-197.003998
-175.297501
-158.808395
-134.503799
-83.207619
-84.627792
-85.798286
-107.413002
-140.947495
-142.269806
-141.630096
-116.730301
-73.584846
-37.449650
-8.425121
19.868271
36.065990
43.156910
52.350021
49.513889
41.337021
18.576740
-14.200770
-42.260971
-52.572769
-45.538799
-41.194210
-11.429070
30.644100
71.083328
113.407303
127.889801
123.868500
117.880898
99.795143
54.467411
1.917901
-58.559269
-120.329300
-153.467407
-166.954102
-146.642899
-103.352699
-61.369789
-8.897460
30.323790
24.018150
6.062174
-30.996071
-92.581642
-127.751503
-166.474197
-193.553207
-187.967102
-175.536697
-154.873001
-132.977402
-80.921944
-17.922400
35.496941
83.270798
102.525597
120.146599
116.761703
92.061394
85.461983
70.480362
59.833988
48.428410
48.895020
77.097427
99.164703
133.725098
145.813995
163.725296
196.721405
174.139297
144.704300
102.068802
64.398788
41.568920
7.928020
19.176069
25.899441
37.118488
62.838638
61.628502
72.683937
62.258011
37.749290
10.730240
-15.582110
-20.662411
-27.132351
-0.070269
32.099590
51.288170
69.622108
67.066994
78.481216
79.248734
65.821877
65.705177
56.857170
59.360008
68.702461
82.920776
110.334999
117.001503
118.253799
123.364998
117.796700
99.321518
59.341770
11.886350
-27.845711
-69.263878
-103.305099
-96.769073
-71.877586
-33.396469
6.994922
24.507919
61.085289
86.811523
100.112602
112.032898
81.256783
45.027790
22.598680
12.837110
9.867892
1.020354
-2.554166
-2.600242
8.732597
11.554930
11.079320
25.974630
28.266390
39.464859
30.103939
-13.790060
-53.367050
-103.431000
-132.256805
-162.263794
-175.879501
-137.379196
-111.911598
-83.037582
-61.533630
-51.309650
-53.209881
-81.742889
-91.467628
-115.845001
-129.817596
-108.433601
-82.686630
-39.808998
-4.280732
21.688391
32.538368
30.312559
17.671120
-7.111954
-31.227390
-71.864250
-92.583633
-100.244102
-109.683502
-109.954498
-126.072197
-137.852905
-154.239700
-150.135193
-144.836899
-158.395004
-135.020004
-156.089294
-189.206100
-204.017899
-244.970993
-253.250305
-290.313293
-326.275909
-334.951202
-349.795685
-266.646698
-128.297501
1.419836
103.086800
163.601898
208.967499
188.195007
140.186401
87.052193
20.657530
-39.524479
-76.161140
-10.225950
59.221081
110.600403
203.494507
249.587494
284.596985
282.216797
224.251404
197.669403
141.923798
98.417191
111.362701
99.340469
114.208199
135.023895
