EVENT_NAME: L_AQUILA
EVENT_ID: IT-2009-0009
EVENT_DATE_YYYYMMDD: 20090406
EVENT_TIME_HHMMSS: 013240
EVENT_LATITUDE_DEGREE: 42.3420
EVENT_LONGITUDE_DEGREE: 13.3800
EVENT_DEPTH_KM: 8.3
HYPOCENTER_REFERENCE: INGV-CNT_Seismic_Bulletin
MAGNITUDE_W: 6.1
MAGNITUDE_W_REFERENCE: INGV-CNT_Seismic_Bulletin
MAGNITUDE_L: 
MAGNITUDE_L_REFERENCE: 
FOCAL_MECHANISM: Normal faulting
NETWORK: IT
STATION_CODE: AQA
STATION_NAME: 
STATION_LATITUDE_DEGREE: 42.375530
STATION_LONGITUDE_DEGREE: 13.339298
STATION_ELEVATION_M: 693
LOCATION: 
SENSOR_DEPTH_M: 0.0
VS30_M/S: 549
SITE_CLASSIFICATION_EC8: B
MORPHOLOGIC_CLASSIFICATION: 
EPICENTRAL_DISTANCE_KM: 5.0
EARTHQUAKE_BACKAZIMUTH_DEGREE: 318.0
DATE_TIME_FIRST_SAMPLE_YYYYMMDD_HHMMSS: 20090406_013227.000
DATE_TIME_FIRST_SAMPLE_PRECISION: seconds
SAMPLING_INTERVAL_S: 0.005000
NDATA: 8000
DURATION_S: 40.000
STREAM: HNZ
UNITS: cm/s
INSTRUMENT: sensor = FBA-3 [Kinemetrics] | digitizer = Everest [Kinemetrics]
INSTRUMENT_ANALOG/DIGITAL: D
INSTRUMENTAL_FREQUENCY_HZ: 210.000
INSTRUMENTAL_DAMPING: 0.000000
FULL_SCALE_G: 1.0
N_BIT_DIGITAL_CONVERTER: 24
PGV_CM/S: -9.378836
TIME_PGV_S: 17.605000
BASELINE_CORRECTION: BASELINE REMOVED
FILTER_TYPE: BUTTERWORTH
FILTER_ORDER: 2
LOW_CUT_FREQUENCY_HZ: 0.100
HIGH_CUT_FREQUENCY_HZ: 40.000
LATE/NORMAL_TRIGGERED: NT
DATABASE_VERSION: 0.5
HEADER_FORMAT: DYNA 1.2
DATA_TYPE: VELOCITY
PROCESSING: manual (Paolucci et al., 2011)
DATA_TIMESTAMP_YYYYMMDD_HHMMSS: 20211011_155709.585
DATA_LICENSE: CC-BY3_0-IT (http://creativecommons.org/licenses/by/3.0/deed.en)
DATA_CITATION: Luzi L, Pacor F, Puglia R (2019). Italian Accelerometric Archive v 3.0 - Istituto Nazionale di Geofisica e Vulcanologia, Dipartimento della Protezione Civile Nazionale. doi: 10.13127/itaca.3.1
DATA_CREATOR: ITACA working group
ORIGINAL_DATA_MEDIATOR_CITATION: data obtained within the DPC-INGV data exchange agreements
ORIGINAL_DATA_MEDIATOR: Archive of Italian Department of Civil Protection
ORIGINAL_DATA_CREATOR_CITATION: Presidency Of Counsil Of Ministers-Civil Protection Department. (1972). Italian Strong Motion Network. Presidency of Counsil of Ministers - Civil Protection Department. https://doi.org/10.7914/SN/IT http://www.fdsn.org/networks/detail/IT/
ORIGINAL_DATA_CREATOR: network: IT (Italian Strong Motion Network (RAN)); owner: Presidency of Counsil of Ministers - Civil Protection Department (PCM - DPC)
USER1: 
USER2: 
USER3: 
USER4: 
USER5: 
[...]
-0.020790
-0.020727
-0.020661
-0.020592
-0.020525
-0.020462
-0.020403
-0.020344
-0.020280
-0.020210
-0.020136
-0.020063
-0.019989
-0.019917
-0.019847
-0.019782
-0.019721
-0.019656
-0.019582
-0.019502
-0.019421
-0.019342
-0.019270
-0.019206
-0.019141
-0.019065
-0.018980
-0.018895
-0.018814
-0.018738
-0.018663
-0.018587
-0.018512
-0.018436
-0.018355
-0.018266
-0.018176
-0.018092
-0.018016
-0.017942
-0.017864
-0.017778
-0.017686
-0.017595
-0.017509
-0.017425
-0.017341
-0.017255
-0.017166
-0.017077
-0.016989
-0.016898
-0.016806
-0.016713
-0.016621
-0.016532
-0.016442
-0.016348
-0.016249
-0.016149
-0.016050
-0.015953
-0.015857
-0.015763
-0.015669
-0.015570
-0.015465
-0.015356
-0.015251
-0.015151
-0.015056
-0.014962
-0.014864
-0.014758
-0.014646
-0.014534
-0.014429
-0.014328
-0.014228
-0.014124
-0.014016
-0.013905
-0.013790
-0.013669
-0.013550
-0.013440
-0.013337
-0.013232
-0.013123
-0.013008
-0.012888
-0.012766
-0.012645
-0.012526
-0.012408
-0.012291
-0.012174
-0.012057
-0.011938
-0.011815
-0.011687
-0.011561
-0.011438
-0.011319
-0.011201
-0.011077
-0.010945
-0.010809
-0.010675
-0.010546
-0.010423
-0.010299
-0.010169
-0.010035
-0.009900
-0.009767
-0.009636
-0.009503
-0.009364
-0.009223
-0.009086
-0.008956
-0.008828
-0.008692
-0.008549
-0.008405
-0.008262
-0.008122
-0.007985
-0.007848
-0.007709
-0.007564
-0.007415
-0.007263
-0.007115
-0.006970
-0.006826
-0.006681
-0.006532
-0.006380
-0.006225
-0.006072
-0.005920
-0.005768
-0.005615
-0.005463
-0.005311
-0.005156
-0.004998
-0.004839
-0.004680
-0.004524
-0.004366
-0.004204
-0.004041
-0.003878
-0.003718
-0.003559
-0.003397
-0.003228
-0.003055
-0.002886
-0.002724
-0.002561
-0.002395
-0.002224
-0.002052
-0.001879
-0.001707
-0.001537
-0.001365
-0.001190
-0.001013
-0.000835
-0.000658
-0.000481
-0.000304
-0.000125
0.000055
0.000240
0.000424
0.000605
0.000784
0.000967
0.001153
0.001342
0.001529
0.001715
0.001905
0.002099
0.002290
0.002476
0.002663
0.002858
0.003055
0.003248
0.003439
0.003634
0.003836
0.004039
0.004238
0.004433
0.004630
0.004835
0.005045
0.005254
0.005454
0.005650
0.005850
0.006061
0.006276
0.006487
0.006691
0.006891
0.007096
0.007308
0.007527
0.007749
0.007968
0.008183
0.008394
0.008604
0.008816
0.009035
0.009261
0.009490
0.009716
0.009937
0.010155
0.010377
0.010603
0.010831
0.011058
0.011286
0.011514
0.011745
0.011982
0.012220
0.012452
0.012678
0.012905
0.013139
0.013380
0.013621
0.013858
0.014096
0.014339
0.014583
0.014823
0.015063
0.015310
0.015564
0.015817
0.016063
0.016302
0.016544
0.016795
0.017052
0.017308
0.017559
0.017809
0.018062
0.018318
0.018571
0.018822
0.019076
0.019340
0.019608
0.019872
0.020130
0.020388
0.020651
0.020914
0.021179
0.021447
0.021718
0.021990
0.022262
0.022533
0.022800
0.023065
0.023334
0.023612
0.023898
0.024184
0.024462
0.024733
0.025005
0.025283
0.025567
0.025855
0.026143
0.026430
0.026718
0.027003
0.027288
0.027574
0.027863
0.028155
0.028449
0.028748
0.029048
0.029346
0.029640
0.029932
0.030227
0.030529
0.030836
0.031144
0.031446
0.031747
0.032048
0.032352
0.032658
0.032971
0.033289
0.033605
0.033915
0.034223
0.034534
0.034851
0.035172
0.035493
0.035810
0.036125
0.036442
0.036763
0.037087
0.037412
0.037737
0.038064
0.038392
0.038721
0.039050
0.039379
0.039708
0.040039
0.040372
0.040706
0.041040
0.041376
0.041716
0.042060
0.042404
0.042745
0.043082
0.043417
0.043757
0.044107
0.044461
0.044810
0.045157
0.045508
0.045863
0.046214
0.046559
0.046905
0.047260
0.047623
0.047988
0.048347
0.048704
0.049064
0.049427
0.049791
0.050150
0.050511
0.050879
0.051252
0.051623
0.051988
0.052354
0.052729
0.053111
0.053491
0.053861
0.054226
0.054597
0.054980
0.055368
0.055752
0.056127
0.056504
0.056893
0.057290
0.057683
0.058065
0.058444
0.058834
0.059232
0.059628
0.060020
0.060413
0.060813
0.061214
0.061612
0.062009
0.062411
0.062817
0.063226
0.063636
0.064043
0.064445
0.064847
0.065254
0.065672
0.066092
0.066507
0.066916
0.067325
0.067738
0.068157
0.068580
0.069005
0.069428
0.069852
0.070281
0.070714
0.071141
0.071558
0.071975
0.072405
0.072850
0.073295
0.073733
0.074163
0.074592
0.075026
0.075464
0.075906
0.076349
0.076794
0.077241
0.077687
0.078132
0.078579
0.079028
0.079477
0.079928
0.080382
0.080838
0.081293
0.081752
0.082213
0.082671
0.083127
0.083585
0.084048
0.084514
0.084981
0.085450
0.085919
0.086390
0.086860
0.087327
0.087795
0.088270
0.088753
0.089238
0.089716
0.090186
0.090656
0.091137
0.091627
0.092118
0.092605
0.093090
0.093579
0.094068
0.094556
0.095043
0.095531
0.096023
0.096519
0.097019
0.097522
0.098025
0.098527
0.099027
0.099525
0.100022
0.100523
0.101034
0.101553
0.102070
0.102578
0.103082
0.103586
0.104096
0.104614
0.105139
0.105665
0.106186
0.106702
0.107216
0.107733
0.108256
0.108784
0.109316
0.109846
0.110374
0.110903
0.111435
0.111970
0.112504
0.113038
0.113574
0.114113
0.114651
0.115191
0.115732
0.116276
0.116821
0.117366
0.117911
0.118458
0.119009
0.119559
0.120109
0.120660
0.121216
0.121773
0.122330
0.122890
0.123454
0.124017
0.124574
0.125132
0.125695
0.126264
0.126838
0.127412
0.127981
0.128548
0.129117
0.129691
0.130269
0.130850
0.131431
0.132009
0.132585
0.133163
0.133746
0.134333
0.134922
0.135513
0.136105
0.136692
0.137275
0.137862
0.138458
0.139059
0.139657
0.140251
0.140847
0.141448
0.142051
0.142653
0.143254
0.143859
0.144467
0.145075
0.145683
0.146292
0.146902
0.147511
0.148120
0.148734
0.149359
0.149987
0.150609
0.151221
0.151833
0.152452
0.153079
0.153707
0.154330
0.154954
0.155587
0.156227
0.156862
0.157485
0.158106
0.158737
0.159381
0.160028
0.160669
0.161304
0.161937
0.162576
0.163222
0.163870
0.164516
0.165163
0.165810
0.166458
0.167109
0.167760
0.168412
0.169070
0.169734
0.170395
0.171045
0.171691
0.172348
0.173021
0.173696
0.174358
0.175012
0.175674
0.176349
0.177027
0.177697
0.178363
0.179037
0.179719
0.180398
0.181068
0.181739
0.182417
0.183100
0.183784
0.184466
0.185151
0.185841
0.186534
0.187225
0.187906
0.188583
0.189267
0.189963
0.190668
0.191374
0.192077
0.192773
0.193461
0.194149
0.194848
0.195559
0.196275
0.196988
0.197696
0.198399
0.199098
0.199800
0.200511
0.201229
0.201949
0.202666
0.203379
0.204092
0.204809
0.205528
0.206247
0.206968
0.207693
0.208421
0.209148
0.209874
0.210599
0.211324
0.212053
0.212787
0.213524
0.214260
0.214994
0.215727
0.216460
0.217193
0.217931
0.218671
0.219414
0.220159
0.220904
0.221650
0.222394
0.223136
0.223881
0.224630
0.225384
0.226140
0.226894
0.227647
0.228400
0.229157
0.229914
0.230667
0.231419
0.232176
0.232941
0.233708
0.234475
0.235239
0.236001
0.236764
0.237533
0.238304
0.239074
0.239841
0.240612
0.241387
0.242162
0.242937
0.243712
0.244487
0.245261
0.246041
0.246828
0.247613
0.248393
0.249169
0.249951
0.250742
0.251539
0.252335
0.253122
0.253902
0.254684
0.255473
0.256265
0.257056
0.257849
0.258650
0.259455
0.260258
0.261054
0.261847
0.262641
0.263439
0.264241
0.265046
0.265850
0.266654
0.267463
0.268273
0.269079
0.269881
0.270686
0.271499
0.272318
0.273136
0.273947
0.274754
0.275563
0.276377
0.277197
0.278020
0.278846
0.279673
0.280496
0.281310
0.282119
0.282935
0.283764
0.284601
0.285435
0.286263
0.287087
0.287908
0.288731
0.289559
0.290393
0.291226
0.292054
0.292881
0.293709
0.294543
0.295387
0.296234
0.297075
0.297906
0.298736
0.299574
0.300417
0.301257
0.302098
0.302942
0.303787
0.304628
0.305471
0.306317
0.307165
0.308010
0.308854
0.309698
0.310544
0.311394
0.312249
0.313106
0.313962
0.314812
0.315661
0.316511
0.317362
0.318219
0.319082
0.319947
0.320809
0.321664
0.322510
0.323359
0.324222
0.325098
0.325973
0.326834
0.327682
0.328532
0.329394
0.330269
0.331147
0.332021
0.332886
0.333743
0.334603
0.335470
0.336342
0.337212
0.338081
0.338949
0.339818
0.340689
0.341562
0.342438
0.343311
0.344179
0.345046
0.345919
0.346794
0.347671
0.348548
0.349424
0.350303
0.351180
0.352054
0.352924
0.353796
0.354674
0.355560
0.356446
0.357326
0.358202
0.359082
0.359961
0.360840
0.361718
0.362598
0.363482
0.364369
0.365257
0.366141
0.367023
0.367905
0.368790
0.369677
0.370564
0.371450
0.372334
0.373213
0.374094
0.374980
0.375870
0.376758
0.377645
0.378533
0.379424
0.380313
0.381198
0.382077
0.382960
0.383849
0.384747
0.385647
0.386539
0.387418
0.388294
0.389174
0.390062
0.390953
0.391848
0.392747
0.393643
0.394530
0.395407
0.396285
0.397172
0.398067
0.398967
0.399863
0.400751
0.401634
0.402519
0.403407
0.404293
0.405177
0.406068
0.406969
0.407869
0.408755
0.409629
0.410503
0.411387
0.412285
0.413189
0.414085
0.414970
0.415847
0.416728
0.417617
0.418511
0.419397
0.420242
0.420993
0.421621
0.422182
0.422814
0.423606
0.424438
0.424867
0.423840
0.419131
0.407075
0.383829
0.349277
0.311863
0.288510
0.295996
0.339227
0.405337
0.466831
0.493082
0.468236
0.404679
0.335110
0.286252
0.264351
0.267386
0.298111
0.354851
0.417840
0.456645
0.452222
0.411461
0.363223
0.338080
0.348063
0.383839
0.422430
0.433348
0.395627
0.324797
0.269857
0.270404
0.326859
0.411896
0.489311
0.523279
0.495394
0.422399
0.349939
0.324949
0.367327
0.456710
0.544645
0.587783
0.577452
0.539828
0.508465
0.499000
0.502880
0.496885
0.469005
0.441779
0.454330
0.511446
0.567205
0.574933
0.539345
0.502227
0.491383
0.503783
0.526302
0.548687
0.560390
0.553440
0.529612
0.500757
0.487940
0.515816
0.586753
0.655137
0.652081
0.552865
0.409128
0.311528
0.328387
0.458927
0.621413
0.706416
0.669185
0.566348
0.493818
0.496046
0.539971
0.564252
0.538882
0.479489
0.419399
0.378597
0.356228
0.341124
0.324515
0.309604
0.312218
0.346191
0.407393
0.474947
0.524432
0.542332
0.537014
0.530926
0.531965
0.521858
0.485549
0.438908
0.410463
0.407627
0.414816
0.414510
0.401251
0.382215
0.370709
0.377198
0.400922
0.425249
0.425766
0.396562
0.366588
0.371271
0.410186
0.452930
0.479141
0.487318
0.472389
0.425881
0.361470
0.313677
0.293695
0.260946
0.165298
0.019142
-0.097215
-0.119266
-0.074600
-0.053478
-0.111875
-0.225358
-0.330591
-0.393771
-0.438046
-0.511202
-0.632864
-0.770363
-0.852755
-0.812553
-0.640275
-0.410007
-0.240352
-0.217765
-0.343232
-0.534018
-0.669962
-0.655856
-0.477187
-0.222747
-0.033718
0.008533
-0.055279
-0.127639
-0.160888
-0.182395
-0.252324
-0.428603
-0.729287
-1.069625
-1.263958
-1.167325
-0.826745
-0.457888
-0.273843
-0.328551
-0.475445
-0.479389
-0.241383
0.067635
0.154869
-0.089771
-0.464538
-0.633292
-0.425658
0.023915
0.420636
0.569176
0.483124
0.294561
0.116414
-0.009193
-0.064409
-0.017033
0.122141
0.245117
0.222850
0.026837
-0.249886
-0.467306
-0.529457
-0.440537
-0.299325
-0.229282
-0.270711
-0.329466
-0.293242
-0.211389
-0.279589
-0.626104
-1.169455
-1.690537
-1.987684
-1.947091
-1.554478
-0.944934
-0.409957
-0.225913
-0.418238
-0.741797
-0.936356
-0.976547
-1.031692
-1.212346
-1.430334
-1.517090
-1.431511
-1.305416
-1.264550
-1.251138
-1.088942
-0.721772
-0.346227
-0.265012
-0.577736
-1.039599
-1.280311
-1.171245
-0.926425
-0.826043
-0.927075
-1.100749
-1.253271
-1.395446
-1.526766
-1.569243
-1.475774
-1.344513
-1.329029
-1.442683
-1.540629
-1.491909
-1.290927
-1.015489
-0.749897
-0.525823
-0.279270
0.063829
0.376005
0.300028
-0.417491
-1.536464
-2.333210
-2.128489
-0.916662
0.571087
1.493524
1.548214
1.047236
0.547904
0.477862
0.913153
1.488106
1.596083
0.922123
-0.173869
-0.899790
-0.733165
0.067039
0.700056
0.628550
0.052883
-0.424360
-0.437327
-0.106328
0.227122
0.400327
0.521886
0.715043
0.907864
0.939116
0.786217
0.578365
0.372049
0.051667
-0.443621
-0.907792
-1.010014
-0.612774
0.108918
0.805309
1.119233
0.792291
-0.184966
-1.436897
-2.335470
-2.453891
-1.954423
-1.427381
-1.292101
-1.459430
-1.586307
-1.480639
-1.204808
-0.965701
-1.001023
-1.409187
-1.953308
-2.131900
-1.576802
-0.383236
0.965519
1.954222
2.342871
2.249142
2.006982
1.886502
1.881745
1.820518
1.691614
1.749337
2.255281
3.163516
4.055516
4.362858
3.716788
2.216677
0.462462
-0.679529
-0.515198
1.011078
3.188046
4.964915
5.632504
5.196277
4.191676
3.220502
2.618573
2.356547
2.109445
1.525297
0.616230
-0.106058
-0.034154
0.889068
1.968790
2.323725
1.689333
0.600589
-0.184235
-0.342933
-0.154837
-0.172786
-0.728151
-1.636183
-2.335597
-2.406677
-2.004012
-1.689567
-1.844425
-2.357421
-2.862495
-3.152604
-3.325833
-3.614677
-4.141351
-4.780880
-5.186794
-4.988886
-4.080155
-2.780551
-1.715134
-1.475610
-2.268192
-3.750066
-5.176495
-5.815643
-5.420807
-4.397144
-3.441387
-2.977271
-2.959201
-3.174456
-3.585830
-4.276299
-5.163018
-5.932513
-6.268265
-6.102045
-5.682494
-5.400526
-5.485412
-5.853791
-6.244027
-6.478276
-6.614919
-6.866589
-7.376993
-8.075075
-8.737577
-9.184892
-9.378836
-9.343377
-9.095121
-8.680575
-8.205472
-7.801239
-7.578901
-7.585359
-7.768976
-7.993624
-8.109712
-8.046653
-7.861592
-7.674728
-7.535171
-7.372524
-7.104951
-6.785543
-6.592586
-6.654098
-6.922865
-7.226511
-7.391630
-7.320086
-6.993168
-6.429825
-5.684554
-4.936268
-4.496823
-4.602259
-5.206183
-6.008573
-6.631413
-6.785121
-6.399714
-5.671919
-4.934336
-4.402703
-4.036139
-3.648852
-3.118960
-2.479686
-1.872023
-1.434331
-1.192569
-1.028671
-0.770965
-0.339961
0.186087
0.649140
0.937550
1.036641
1.023908
1.056530
1.302551
1.814083
2.453417
2.978793
3.244884
3.309640
3.330686
3.382496
3.390984
3.246160
2.977750
2.787328
2.863157
3.172682
3.471214
3.515806
3.265647
2.903625
2.698959
2.825574
3.241693
3.705502
3.924425
3.719844
3.083381
2.128159
1.006263
-0.149091
-1.202961
-1.965279
-2.254450
-2.065695
-1.618556
-1.188547
-0.899611
-0.690885
-0.486815
-0.357909
-0.444334
-0.736350
-1.009913
-1.012808
-0.700410
-0.276383
-0.010377
-0.020193
-0.207239
-0.360355
-0.288334
0.112354
0.811387
1.604280
2.168746
2.255612
1.886506
1.380395
1.153977
1.426074
2.063144
2.687097
2.938570
2.689317
2.065083
1.320345
0.708758
0.407739
0.474082
0.833473
1.328002
1.787776
2.064030
2.035488
1.640592
0.923819
0.033886
-0.851470
-1.633669
-2.340834
-3.050612
-3.763237
-4.364946
-4.725942
-4.833691
-4.808796
-4.779043
-4.754473
-4.628735
-4.286167
-3.710126
-3.008733
-2.346739
-1.851960
-1.574295
-1.497360
-1.563891
-1.706816
-1.873334
-2.013194
-2.050332
-1.898638
-1.531391
-1.030554
-0.549801
-0.215166
-0.046179
0.042826
0.177124
0.449702
0.876169
1.392073
1.894501
2.291592
2.525727
2.580038
2.486870
2.319795
2.154163
2.032492
1.967606
1.972629
2.076479
2.292849
2.581101
2.861293
3.080501
3.260212
3.452212
3.646886
3.765186
3.752392
3.657224
3.615692
3.760482
4.114323
4.540727
4.820494
4.810682
4.539233
4.167980
3.881372
3.770000
3.777961
3.776633
3.706846
3.624605
3.591587
3.564027
3.430279
3.131239
2.717826
2.301912
1.949545
1.616364
1.200304
0.676449
0.181130
-0.069048
0.040677
0.433975
0.923639
1.350595
1.655430
1.868549
2.049729
2.202348
2.242908
2.091613
1.798805
1.543247
1.473416
1.561646
1.645257
1.616584
1.550267
1.638796
2.017413
2.641215
3.303723
3.757608
3.841483
3.552029
3.030051
2.468724
2.011679
1.716138
1.585560
1.607528
1.763026
2.025167
2.369264
2.797151
3.334638
3.974677
4.636178
5.221638
5.718707
6.199017
6.702967
7.175473
7.542098
7.804097
8.014307
8.183083
8.252379
8.148478
7.828383
7.302599
6.657865
6.042371
5.575370
5.251198
4.948743
4.541423
3.999168
3.403453
2.882764
2.542611
2.440527
2.568750
2.824923
3.032612
3.036817
2.801784
2.431709
2.097244
1.907758
1.827702
1.727784
1.531735
1.316031
1.262361
1.502055
2.003296
2.602088
3.121198
3.460568
3.603782
3.567875
3.374249
3.069042
2.728738
2.417492
2.145569
1.882796
1.631989
1.478757
1.527238
1.775278
2.071168
2.215558
2.110909
1.788859
1.293701
0.592529
-0.344485
-1.377014
-2.159859
-2.319116
-1.704170
-0.516380
0.803278
1.856542
2.511452
2.884002
3.123800
3.245678
3.158044
2.793266
2.191552
1.490535
0.849473
0.372927
0.087358
-0.043208
-0.105043
-0.201371
-0.369502
-0.534772
-0.584652
-0.477222
-0.263214
-0.047857
0.042037
-0.100017
-0.480010
-0.942311
-1.235920
-1.190627
-0.848768
-0.433740
-0.193469
-0.259603
-0.597608
-1.059837
-1.515524
-1.935106
-2.339927
-2.685851
-2.839479
-2.725554
-2.479825
-2.363711
-2.506709
-2.792300
-2.998576
-3.004053
-2.850351
-2.654321
-2.529928
-2.571192
-2.812824
-3.186691
-3.540828
-3.713665
-3.622643
-3.314305
-2.944233
-2.692764
-2.654777
-2.781308
-2.926889
-2.977239
-2.955158
-2.993122
-3.192772
-3.519149
-3.825224
-3.965627
-3.902615
-3.726844
-3.563066
-3.443858
-3.289160
-3.001519
-2.568176
-2.071690
-1.612682
-1.245068
-0.966540
-0.733461
-0.491728
-0.211503
0.094122
0.378691
0.599316
0.746642
0.836497
0.872622
0.831122
0.702334
0.540605
0.447416
0.489904
0.625291
0.718184
0.667591
0.516370
0.417736
0.501685
0.772457
1.120307
1.411714
1.554778
1.506672
1.267070
0.897301
0.532549
0.322037
0.337745
0.553995
0.907530
1.354521
1.863001
2.372398
2.783425
2.991993
2.941003
2.667158
2.310487
2.043460
1.959122
2.026164
2.150465
2.280375
2.458687
2.773319
3.252664
3.811866
4.297831
4.579001
4.615247
4.456155
4.170003
3.800984
3.398862
3.037061
2.760780
2.544178
2.344907
2.186872
2.149720
2.277292
2.512343
2.714090
2.725316
2.441380
1.864041
1.117943
0.402443
-0.105098
-0.333604
-0.339448
-0.269720
-0.299870
-0.552724
-1.023232
-1.582460
-2.076887
-2.436973
-2.711623
-3.014848
-3.432398
-3.961862
-4.522379
-5.012128
-5.381553
-5.683998
-6.041705
-6.522360
-7.033147
-7.359689
-7.348693
-7.067102
-6.777810
-6.753632
-7.097493
-7.708338
-8.378774
-8.914013
-9.197644
-9.214592
-9.054063
-8.860388
-8.731888
-8.657179
-8.550533
-8.336433
-8.004031
-7.616892
-7.290620
-7.122775
-7.092293
-7.036923
-6.781278
-6.300618
-5.736730
-5.261294
-4.955410
-4.798892
-4.716929
-4.632603
-4.501432
-4.301852
-4.006116
-3.591729
-3.093713
-2.623106
-2.302535
-2.164765
-2.113317
-1.998952
-1.748052
-1.422212
-1.160423
-1.055107
-1.058836
-0.994083
-0.662672
0.019153
0.948300
1.871988
2.521269
2.761019
2.655761
2.407420
2.207118
2.123192
2.127210
2.201988
2.377572
2.656591
2.954289
3.152162
3.210721
3.222442
3.344069
3.652045
4.049679
4.326714
4.331275
4.094962
3.783040
3.530557
3.343978
3.134524
2.811188
