EVENT_NAME: L_AQUILA
EVENT_ID: IT-2009-0009
EVENT_DATE_YYYYMMDD: 20090406
EVENT_TIME_HHMMSS: 013240
EVENT_LATITUDE_DEGREE: 42.3420
EVENT_LONGITUDE_DEGREE: 13.3800
EVENT_DEPTH_KM: 8.3
HYPOCENTER_REFERENCE: INGV-CNT_Seismic_Bulletin
MAGNITUDE_W: 6.1
MAGNITUDE_W_REFERENCE: INGV-CNT_Seismic_Bulletin
MAGNITUDE_L: 
MAGNITUDE_L_REFERENCE: 
FOCAL_MECHANISM: Normal faulting
NETWORK: IT
STATION_CODE: AQA
STATION_NAME: 
STATION_LATITUDE_DEGREE: 42.375530
STATION_LONGITUDE_DEGREE: 13.339298
STATION_ELEVATION_M: 693
LOCATION: 
SENSOR_DEPTH_M: 0.0
VS30_M/S: 549
SITE_CLASSIFICATION_EC8: B
MORPHOLOGIC_CLASSIFICATION: 
EPICENTRAL_DISTANCE_KM: 5.0
EARTHQUAKE_BACKAZIMUTH_DEGREE: 318.0
DATE_TIME_FIRST_SAMPLE_YYYYMMDD_HHMMSS: 20090406_013227.000
DATE_TIME_FIRST_SAMPLE_PRECISION: seconds
SAMPLING_INTERVAL_S: 0.005000
NDATA: 180000
DURATION_S: 900.000
STREAM: HNZ
UNITS: cm/s^2
INSTRUMENT: sensor = FBA-3 [Kinemetrics] | digitizer = Everest [Kinemetrics]
INSTRUMENT_ANALOG/DIGITAL: D
INSTRUMENTAL_FREQUENCY_HZ: 210.000
INSTRUMENTAL_DAMPING: 0.000000
FULL_SCALE_G: 1.0
N_BIT_DIGITAL_CONVERTER: 24
PGA_CM/S^2: 479.460205
TIME_PGA_S: 17.255000
BASELINE_CORRECTION: BASELINE NOT REMOVED
FILTER_TYPE: 
FILTER_ORDER: 
LOW_CUT_FREQUENCY_HZ: 
HIGH_CUT_FREQUENCY_HZ: 
LATE/NORMAL_TRIGGERED: NT
DATABASE_VERSION: 0.5
HEADER_FORMAT: DYNA 1.2
DATA_TYPE: ACCELERATION
PROCESSING: converted to cm/s^2
DATA_TIMESTAMP_YYYYMMDD_HHMMSS: 20211011_155708.844
DATA_LICENSE: CC-BY3_0-IT (http://creativecommons.org/licenses/by/3.0/deed.en)
DATA_CITATION: Luzi L, Pacor F, Puglia R (2019). Italian Accelerometric Archive v 3.0 - Istituto Nazionale di Geofisica e Vulcanologia, Dipartimento della Protezione Civile Nazionale. doi: 10.13127/itaca.3.1
DATA_CREATOR: ITACA working group
ORIGINAL_DATA_MEDIATOR_CITATION: data obtained within the DPC-INGV data exchange agreements
ORIGINAL_DATA_MEDIATOR: Archive of Italian Department of Civil Protection
ORIGINAL_DATA_CREATOR_CITATION: Presidency Of Counsil Of Ministers-Civil Protection Department. (1972). Italian Strong Motion Network. Presidency of Counsil of Ministers - Civil Protection Department. https://doi.org/10.7914/SN/IT http://www.fdsn.org/networks/detail/IT/
ORIGINAL_DATA_CREATOR: network: IT (Italian Strong Motion Network (RAN)); owner: Presidency of Counsil of Ministers - Civil Protection Department (PCM - DPC)
USER1: 
USER2: 
USER3: 
USER4: 
USER5: 
[...]
-0.083253
-0.077757
-0.079511
-0.080798
-0.083838
-0.083019
-0.082201
-0.083019
-0.076705
-0.081616
-0.082552
-0.079979
-0.084306
-0.080330
-0.081382
-0.081499
-0.081382
-0.082552
-0.079160
-0.082669
-0.080564
-0.081265
-0.084306
-0.080213
-0.080096
-0.079862
-0.082084
-0.080681
-0.080564
-0.083721
-0.080914
-0.082435
-0.080096
-0.078108
-0.081733
-0.081031
-0.083019
-0.082903
-0.082552
-0.081967
-0.077757
-0.080798
-0.081148
-0.082435
-0.084189
-0.080447
-0.081499
-0.080914
-0.081733
-0.078810
-0.076705
-0.083721
-0.084189
-0.081967
-0.081616
-0.082084
-0.080096
-0.079160
-0.081499
-0.079745
-0.081616
-0.082669
-0.079628
-0.082435
-0.083253
-0.079511
-0.079160
-0.082084
-0.080914
-0.080330
-0.084891
-0.081733
-0.078108
-0.080564
-0.079394
-0.080447
-0.083370
-0.082435
-0.081148
-0.080213
-0.079979
-0.081616
-0.081733
-0.081616
-0.079979
-0.079979
-0.080564
-0.081499
-0.086060
-0.080914
-0.077406
-0.083019
-0.080213
-0.079745
-0.084189
-0.081031
-0.081850
-0.082669
-0.078693
-0.079979
-0.080564
-0.082552
-0.081499
-0.080914
-0.082903
-0.079511
-0.080213
-0.080330
-0.082435
-0.081733
-0.078576
-0.083838
-0.082084
-0.079628
-0.082435
-0.080447
-0.079862
-0.082552
-0.082318
-0.079745
-0.080330
-0.082786
-0.079628
-0.082084
-0.084891
-0.077406
-0.079745
-0.081148
-0.081850
-0.084189
-0.079511
-0.081733
-0.081148
-0.079979
-0.081616
-0.081850
-0.081967
-0.080330
-0.081148
-0.080564
-0.081382
-0.081148
-0.081382
-0.081382
-0.081382
-0.081031
-0.078342
-0.083253
-0.082552
-0.079979
-0.082435
-0.079511
-0.080330
-0.083019
-0.081616
-0.078576
-0.079862
-0.084072
-0.083019
-0.079277
-0.079394
-0.082318
-0.082669
-0.081382
-0.079628
-0.079745
-0.080914
-0.082201
-0.083136
-0.079745
-0.079043
-0.079628
-0.081382
-0.084657
-0.082318
-0.079277
-0.079745
-0.079511
-0.082669
-0.085124
-0.079862
-0.082552
-0.079862
-0.077523
-0.082669
-0.079043
-0.083370
-0.082669
-0.081382
-0.082903
-0.078342
-0.079979
-0.079277
-0.082318
-0.082318
-0.081733
-0.081265
-0.078459
-0.083838
-0.080096
-0.080213
-0.083136
-0.079043
-0.079043
-0.080096
-0.084891
-0.082669
-0.080213
-0.081499
-0.077757
-0.082318
-0.084306
-0.077757
-0.079511
-0.083253
-0.081967
-0.080798
-0.077874
-0.079277
-0.082201
-0.082318
-0.083721
-0.080564
-0.078693
-0.080213
-0.081148
-0.083604
-0.081148
-0.078810
-0.082903
-0.082552
-0.082084
-0.081733
-0.076354
-0.080564
-0.085008
-0.080798
-0.080213
-0.082201
-0.082084
-0.080096
-0.080096
-0.081616
-0.080330
-0.080564
-0.082318
-0.082435
-0.083253
-0.080447
-0.078342
-0.079043
-0.080213
-0.085008
-0.082201
-0.080798
-0.081733
-0.078926
-0.081382
-0.080447
-0.080213
-0.082084
-0.081148
-0.082669
-0.080798
-0.080213
-0.082552
-0.079160
-0.079160
-0.081265
-0.081616
-0.082318
-0.081148
-0.082201
-0.079160
-0.077874
-0.083019
-0.082435
-0.080330
-0.081616
-0.081850
-0.080914
-0.078108
-0.078810
-0.083136
-0.081850
-0.081265
-0.080564
-0.080213
-0.079862
-0.079745
-0.084657
-0.080798
-0.079277
-0.082786
-0.079628
-0.080914
-0.081148
-0.080330
-0.081382
-0.079862
-0.082318
-0.081031
-0.080798
-0.082435
-0.078810
-0.082786
-0.081382
-0.079628
-0.080798
-0.078342
-0.083019
-0.080914
-0.081850
-0.084774
-0.078342
-0.078459
-0.080447
-0.083370
-0.081265
-0.077172
-0.082318
-0.083019
-0.083253
-0.081850
-0.077406
-0.080330
-0.080798
-0.081733
-0.082669
-0.079277
-0.080213
-0.082435
-0.083838
-0.079979
-0.077991
-0.081967
-0.081148
-0.083487
-0.081382
-0.076938
-0.080447
-0.081031
-0.085709
-0.083019
-0.078576
-0.079745
-0.078810
-0.084540
-0.082669
-0.081031
-0.077406
-0.076821
-0.086294
-0.083487
-0.080564
-0.078225
-0.080564
-0.083019
-0.080914
-0.081499
-0.077289
-0.082669
-0.083838
-0.077757
-0.081850
-0.080330
-0.078693
-0.081499
-0.081499
-0.083019
-0.082435
-0.079043
-0.077640
-0.081499
-0.083253
-0.081499
-0.082084
-0.080798
-0.079979
-0.079862
-0.080447
-0.081499
-0.081148
-0.078342
-0.078459
-0.084891
-0.085592
-0.080564
-0.076003
-0.078459
-0.081499
-0.081148
-0.083370
-0.081499
-0.080096
-0.081382
-0.080447
-0.080564
-0.080330
-0.079862
-0.082084
-0.081499
-0.079511
-0.081031
-0.082435
-0.079979
-0.078810
-0.082903
-0.080798
-0.077640
-0.081967
-0.082786
-0.081148
-0.080330
-0.080096
-0.080914
-0.080330
-0.080564
-0.080213
-0.080564
-0.081850
-0.081850
-0.081382
-0.078926
-0.077523
-0.081031
-0.083721
-0.082786
-0.081733
-0.077757
-0.077757
-0.083721
-0.080096
-0.079511
-0.081967
-0.079862
-0.082669
-0.081616
-0.081265
-0.080330
-0.080096
-0.080447
-0.077874
-0.082669
-0.081031
-0.079277
-0.084306
-0.082201
-0.079160
-0.078108
-0.078225
-0.082435
-0.082669
-0.081850
-0.082201
-0.080096
-0.079277
-0.077991
-0.080914
-0.082318
-0.081616
-0.082318
-0.080914
-0.081031
-0.077991
-0.081031
-0.082084
-0.079277
-0.083136
-0.078576
-0.079979
-0.084072
-0.078459
-0.081499
-0.081265
-0.079979
-0.082669
-0.078810
-0.081733
-0.080564
-0.080564
-0.083604
-0.077874
-0.081031
-0.082201
-0.081850
-0.079745
-0.078225
-0.085008
-0.078926
-0.078576
-0.081382
-0.081031
-0.084189
-0.078693
-0.081616
-0.079862
-0.076938
-0.083838
-0.080681
-0.081499
-0.081031
-0.079277
-0.081499
-0.078225
-0.081031
-0.082903
-0.081382
-0.080096
-0.079511
-0.081382
-0.079745
-0.079160
-0.080330
-0.083721
-0.082903
-0.078459
-0.079277
-0.080213
-0.081733
-0.081850
-0.080096
-0.079511
-0.080564
-0.082552
-0.080447
-0.079160
-0.080914
-0.081148
-0.081265
-0.080330
-0.080564
-0.082435
-0.081733
-0.079277
-0.076354
-0.079628
-0.085008
-0.081382
-0.081382
-0.081265
-0.077289
-0.082084
-0.083370
-0.080447
-0.076237
-0.078342
-0.085943
-0.082318
-0.082435
-0.078926
-0.076120
-0.083253
-0.079979
-0.083370
-0.083019
-0.076938
-0.082084
-0.080213
-0.080914
-0.081382
-0.080564
-0.081850
-0.078693
-0.083487
-0.080330
-0.078108
-0.079394
-0.080564
-0.088633
-0.079979
-0.077757
-0.077406
-0.079277
-0.089334
-0.079277
-0.078225
-0.079160
-0.079628
-0.085826
-0.079394
-0.077874
-0.079160
-0.083838
-0.083955
-0.078459
-0.081031
-0.079862
-0.081265
-0.081850
-0.078810
-0.080096
-0.079043
-0.081499
-0.086060
-0.082318
-0.078459
-0.078926
-0.079394
-0.078576
-0.080798
-0.083370
-0.083604
-0.082552
-0.076705
-0.078693
-0.080213
-0.078693
-0.083253
-0.081148
-0.083604
-0.081499
-0.077172
-0.081148
-0.078926
-0.081850
-0.082435
-0.079979
-0.080447
-0.080798
-0.082786
-0.078926
-0.079043
-0.081850
-0.080330
-0.080330
-0.081850
-0.081967
-0.079511
-0.078342
-0.081616
-0.081031
-0.079745
-0.082669
-0.081148
-0.081148
-0.080564
-0.079862
-0.081031
-0.079862
-0.080564
-0.080213
-0.082903
-0.081382
-0.078926
-0.082318
-0.078693
-0.078693
-0.083019
-0.081031
-0.079745
-0.079745
-0.081967
-0.083370
-0.081382
-0.078810
-0.079043
-0.082435
-0.078342
-0.081616
-0.083955
-0.077874
-0.081031
-0.079745
-0.082318
-0.082552
-0.076938
-0.082084
-0.081850
-0.079043
-0.081031
-0.082552
-0.081499
-0.077757
-0.079277
-0.081967
-0.082435
-0.081967
-0.078459
-0.079160
-0.077991
-0.080213
-0.084891
-0.081499
-0.081499
-0.079394
-0.080914
-0.083955
-0.077874
-0.077757
-0.080447
-0.080914
-0.082669
-0.081499
-0.080914
-0.081850
-0.079043
-0.080330
-0.082552
-0.079979
-0.078810
-0.080213
-0.083721
-0.082318
-0.078926
-0.079277
-0.079394
-0.080914
-0.082552
-0.082669
-0.080798
-0.079043
-0.080330
-0.079745
-0.079043
-0.078693
-0.081967
-0.086060
-0.081148
-0.079628
-0.077289
-0.078108
-0.083253
-0.079043
-0.082552
-0.083487
-0.079745
-0.080096
-0.079394
-0.083253
-0.080798
-0.081967
-0.082435
-0.077640
-0.078926
-0.077991
-0.083370
-0.084657
-0.079043
-0.078693
-0.081850
-0.083136
-0.077757
-0.080213
-0.082669
-0.080681
-0.081031
-0.078693
-0.081967
-0.082669
-0.079394
-0.082669
-0.080681
-0.079394
-0.080096
-0.077640
-0.083604
-0.081265
-0.079628
-0.083721
-0.079043
-0.079979
-0.078459
-0.079394
-0.081382
-0.081850
-0.086177
-0.079160
-0.076003
-0.077874
-0.079394
-0.085943
-0.083838
-0.079745
-0.078225
-0.077874
-0.079277
-0.079394
-0.083955
-0.083721
-0.077874
-0.080330
-0.081265
-0.079628
-0.082084
-0.079979
-0.080564
-0.081499
-0.078459
-0.079511
-0.082786
-0.083136
-0.078576
-0.081265
-0.080447
-0.078459
-0.083136
-0.078693
-0.079745
-0.081733
-0.081733
-0.082552
-0.080564
-0.079745
-0.075418
-0.083019
-0.083838
-0.076237
-0.082435
-0.082084
-0.079394
-0.081499
-0.081031
-0.078926
-0.078342
-0.081382
-0.080914
-0.080213
-0.081031
-0.079043
-0.080330
-0.080681
-0.079511
-0.081850
-0.083019
-0.080213
-0.077289
-0.081499
-0.081382
-0.078926
-0.080914
-0.078225
-0.081265
-0.083487
-0.080213
-0.081148
-0.078576
-0.076471
-0.079394
-0.083370
-0.084189
-0.081031
-0.079745
-0.080681
-0.079862
-0.077874
-0.078693
-0.079862
-0.084072
-0.083838
-0.079043
-0.080447
-0.077406
-0.078342
-0.081733
-0.080798
-0.083604
-0.078693
-0.078810
-0.085241
-0.080213
-0.076003
-0.077406
-0.081265
-0.084891
-0.082669
-0.081850
-0.078576
-0.075301
-0.079628
-0.080564
-0.084072
-0.081616
-0.078693
-0.081616
-0.079511
-0.089218
-0.101497
-0.127692
-0.153420
-0.149210
-0.096117
-0.082435
-0.227913
-0.496769
-1.184869
-2.529495
-4.486207
-6.916076
-8.324203
-5.867553
1.030641
8.644300
13.324650
12.968900
6.327283
-5.194422
-15.570420
-15.816590
-7.972434
-2.799051
-1.187208
3.906770
12.181520
14.242310
7.978653
-1.171888
-9.474700
-12.034490
-5.053738
3.580378
5.862312
7.280847
5.467157
-6.562904
-19.482090
-14.382150
3.765735
12.107260
14.946080
16.901621
8.757971
-6.647104
-17.128361
-15.609010
-6.576353
8.635530
20.300261
18.899851
9.234168
-5.319435
-9.860383
-4.814937
-3.300625
1.867962
2.166638
-6.935722
-10.364410
-1.005359
16.540970
16.947350
-1.642472
-12.795330
-8.244329
1.552096
2.529750
1.981398
5.471367
3.144526
-2.567618
-5.209273
-4.857622
-4.104033
1.424159
14.358900
20.522800
2.527411
-25.827721
-32.064831
-20.183880
-0.650784
28.370230
40.984661
19.957609
-13.415720
-28.464121
-15.762330
5.113518
12.920840
4.684098
-7.977345
-14.351160
-12.166290
-6.990101
-4.554035
-2.908979
-2.610771
-4.382477
-1.867824
7.502924
13.343360
12.781910
11.225260
3.854028
-4.356399
-3.679408
3.016706
2.233998
-10.696070
-13.772400
-4.036088
0.964919
1.518299
-0.438764
-3.253848
-4.439195
-3.154094
1.147235
3.858355
6.197709
3.443202
-8.462665
-11.926790
1.687751
13.454220
8.233358
0.380782
1.955086
0.439020
-8.814784
-17.039240
-14.346020
-0.650199
0.696999
-18.410299
-36.110401
-31.999340
-1.850867
19.550529
5.567379
-16.584921
-27.000090
-23.895451
-9.715488
-4.449954
-14.504240
-25.947590
-28.661169
-20.424200
4.109668
37.745312
51.382069
36.412380
4.034941
-28.560249
-41.480492
-29.777519
0.136836
35.945530
60.052792
45.554150
0.559005
-23.831369
-13.439110
-0.319598
-4.816691
-16.081120
-28.926519
-54.001480
-79.619888
-56.413460
23.963301
83.374992
79.590439
39.280201
-13.732410
-45.588619
-17.773649
57.791550
91.205353
24.938850
-64.770531
-95.217102
-46.746262
53.753109
113.660103
83.264359
17.429621
-25.067471
-40.898109
-32.196281
-15.390090
-18.841709
-3.199001
38.436329
36.898510
-8.033010
-44.918652
-59.127499
-48.255890
-11.755470
21.817730
31.764311
24.168190
-13.208030
-37.505779
9.171369
40.295509
-5.574023
-77.293053
-124.026604
-105.519096
-51.191780
0.746233
69.091881
133.112701
130.099304
40.188271
-61.123268
-87.024452
-35.906219
19.695419
-1.527399
-51.127110
-57.194408
-26.592421
34.243530
46.077709
-1.933429
-16.827339
21.114540
81.323914
100.982903
31.452770
-80.814827
-123.318199
-60.300331
48.992661
80.663406
5.230462
-43.595779
-36.860371
-15.604920
-19.046480
-39.931332
-22.255190
22.749189
52.589050
3.454780
-47.092991
-23.464510
17.708300
46.660091
49.250290
61.971840
49.880268
21.091619
57.519890
91.529167
18.052700
-143.099197
-252.724396
-214.775894
24.261860
305.770294
346.242615
175.203796
-22.632690
-119.734398
-98.770447
-25.392111
79.498871
161.701096
63.308521
-163.296402
-262.620209
-188.216797
35.860748
242.519699
165.543198
-59.282799
-165.765305
-104.940598
21.048929
97.189392
78.293877
1.381708
2.986418
58.618698
54.796379
13.798500
-55.337101
-65.695091
-6.417192
-40.963242
-118.055901
-119.506599
-29.836580
100.765701
154.101303
132.384796
70.934570
-46.527920
-198.216202
-281.391602
-216.358398
-22.627190
163.806702
133.928406
-12.180560
-66.367638
-22.279520
42.687729
46.529350
50.791969
21.610500
-82.480698
-141.368195
-68.329376
126.764397
265.367615
283.382599
203.782593
64.306396
-27.423550
-74.025391
-23.091339
44.158539
-9.619711
-51.398651
-9.036860
95.449020
200.746597
194.809601
79.607750
-125.757202
-318.674011
-362.715210
-265.076813
12.683790
340.606293
479.460205
384.368195
112.048401
-126.411598
-211.179993
-192.949799
-121.144096
-46.112770
-16.256889
-95.867432
-210.728897
-196.283600
-10.258460
225.613693
288.852386
84.711311
-187.189606
-263.329315
-153.942703
-13.731360
72.655289
15.308610
-120.502098
-206.763199
-193.656006
-0.037645
146.082703
74.045288
-52.568802
-139.241394
-107.344803
-34.982239
-25.336790
-49.533970
-106.172897
-137.372101
-98.672340
21.120859
194.379807
280.899506
228.163498
66.647743
-173.119904
-316.445801
-310.889587
-158.206802
114.188904
249.646805
203.098602
65.647873
-37.841648
-26.870991
-48.723549
-136.470505
-202.330704
-166.681198
-68.362129
33.679859
115.809700
66.789482
-35.309689
-84.643806
-94.977837
-38.220200
-7.258956
-45.518219
-100.488297
-160.262100
-144.012100
-70.863693
-32.490631
-5.442226
48.791050
89.904457
93.595917
83.063683
48.354729
-1.556284
-42.474159
-48.092640
-29.200399
13.066900
54.563541
37.412479
22.207270
18.646080
47.548519
88.112747
44.761261
-19.668970
-63.366032
-63.085949
-30.938431
12.428740
77.437973
100.121300
133.435898
175.540100
107.483101
-32.177448
-134.899796
-162.258301
-131.967300
-39.168499
84.665703
163.689499
163.062500
92.823738
52.703190
79.863037
109.028702
132.427994
129.919998
90.396317
43.288349
20.457781
47.217449
91.105011
119.302200
92.179848
49.327469
29.961611
-8.948100
-2.834135
44.955509
101.040703
149.349701
113.831802
41.417358
-1.059855
0.159757
18.378281
15.387780
-20.452850
-71.390282
-57.124359
18.060770
78.689499
75.219994
6.232090
-59.567329
-81.539413
-49.152149
25.591049
92.584473
106.904900
43.943710
-47.796768
-127.709702
-198.069000
-224.617599
-219.157303
-211.429199
-172.405594
-64.954613
56.923592
101.810097
89.859200
46.284111
18.946859
50.787991
49.414829
-13.825960
-72.797470
-74.932060
-2.727364
78.870407
98.924263
57.646889
-12.437370
-49.095901
-26.586809
12.793370
73.417183
140.264893
170.376205
130.378998
16.781639
-82.882751
-122.963898
-59.426640
69.382019
139.607300
141.860001
50.325241
-65.705383
-126.471100
-153.300095
-122.016197
-63.811588
15.625170
81.035400
96.541870
91.372108
55.360161
1.057421
-79.429382
-148.409805
-182.260605
-186.676407
-147.366394
-130.551697
-140.791000
-147.169998
-134.053101
-74.069008
-8.902258
14.448360
4.152119
-3.488321
18.688881
66.791939
119.791901
148.825607
133.008698
95.343887
56.512058
13.872410
-16.720690
-27.177851
-29.188471
-27.689480
-13.369410
24.877810
77.153427
106.928902
101.319603
67.418533
26.615250
15.787490
25.147949
51.883171
90.612671
105.664803
101.155800
78.710899
46.914440
14.435380
-24.496429
-35.579941
-30.546431
-25.128401
-7.076406
-3.163684
14.926900
47.517990
59.110329
63.541821
41.996471
22.863680
39.395279
48.170071
29.811810
-5.453570
-24.612440
-12.708090
22.222120
74.397057
99.717613
62.511539
-8.979558
-59.123760
-79.150703
-65.150131
-16.637310
14.210500
5.425525
-24.581329
-30.870251
1.403577
6.660574
-27.568439
-60.201279
-91.019501
-90.547050
-63.949699
-60.079781
-72.207733
-109.294998
-118.088402
-53.637081
28.820120
90.828552
99.633759
81.180763
62.860970
34.278259
30.706079
38.624611
19.111750
-26.768780
-73.657013
-63.524261
-10.956970
33.666290
29.707491
-16.537550
-23.063860
8.688272
76.844704
137.613602
133.994003
98.155701
15.581320
-65.047691
-108.981598
-117.676102
-83.235573
-57.995949
-28.117960
6.813070
28.174589
56.122871
71.678574
79.423317
102.085403
131.270493
144.250198
119.187897
85.091499
89.519478
110.517899
104.647301
70.307983
40.165588
42.032139
42.185101
14.209800
-22.145729
-60.851608
-102.726997
-135.178604
-132.953506
-92.577667
-54.041241
-55.442699
-80.764542
-112.338898
-127.548599
-100.211197
-66.986267
-26.754740
26.283710
57.892120
49.665680
0.021996
-49.958832
-81.178757
-76.769951
-32.762520
-4.397095
-13.160670
-41.135731
-55.778568
-20.424431
53.315392
109.744102
123.703102
104.296799
63.068550
23.826481
-0.966885
-36.199402
-68.609581
-67.665253
-64.143478
-50.198101
-41.415001
-59.042252
-39.934601
6.392421
54.148739
76.008667
29.571251
-32.842159
-73.538902
-94.372650
-121.313103
-184.103104
-221.065399
-170.843903
-42.550640
128.579498
260.035706
277.251495
211.036301
112.073402
57.672619
60.189732
31.860670
-13.175990
-73.144211
-127.186501
-143.086502
-132.001694
-88.176117
-59.664040
-28.395821
-3.793663
-13.129800
-38.476070
-48.921421
-2.897167
24.777821
40.553959
47.495312
16.641649
-14.548560
-81.419434
-108.116898
-63.299019
4.834255
87.719116
87.805656
45.695648
-6.066943
-85.530724
-96.669777
-85.035812
-77.529388
-70.841003
-83.326553
-48.181160
25.627769
79.269310
30.429159
-47.656670
-65.682228
-51.837780
15.372930
38.191921
25.345240
36.111832
-4.883934
-53.311161
-74.418320
-79.497330
-36.952641
21.481279
62.338581
84.357437
53.926540
3.340408
-30.400009
-41.364010
-7.588038
17.572880
-0.912272
-42.352188
-74.723778
-65.678841
-30.845570
15.962560
51.468021
30.729469
14.057300
28.558161
49.821560
100.472801
102.565399
84.714821
81.033997
48.018051
47.073021
48.308891
52.632080
68.168839
56.178890
45.229511
26.404520
13.767750
12.295190
-3.006160
-26.887239
-39.128151
-22.082001
4.728654
37.455170
32.719860
-19.368071
-37.103149
-27.067801
15.489520
67.687607
68.546921
58.358028
27.898010
-11.975090
-38.368832
-80.872597
-82.325737
-40.222172
6.011065
51.463112
66.308258
85.464317
