EVENT_NAME: L_AQUILA
EVENT_ID: IT-2009-0009
EVENT_DATE_YYYYMMDD: 20090406
EVENT_TIME_HHMMSS: 013240
EVENT_LATITUDE_DEGREE: 42.3420
EVENT_LONGITUDE_DEGREE: 13.3800
EVENT_DEPTH_KM: 8.3
HYPOCENTER_REFERENCE: INGV-CNT_Seismic_Bulletin
MAGNITUDE_W: 6.1
MAGNITUDE_W_REFERENCE: INGV-CNT_Seismic_Bulletin
MAGNITUDE_L: 
MAGNITUDE_L_REFERENCE: 
FOCAL_MECHANISM: Normal faulting
NETWORK: IT
STATION_CODE: AQA
STATION_NAME: 
STATION_LATITUDE_DEGREE: 42.375530
STATION_LONGITUDE_DEGREE: 13.339298
STATION_ELEVATION_M: 693
LOCATION: 
SENSOR_DEPTH_M: 0.0
VS30_M/S: 549
SITE_CLASSIFICATION_EC8: B
MORPHOLOGIC_CLASSIFICATION: 
EPICENTRAL_DISTANCE_KM: 5.0
EARTHQUAKE_BACKAZIMUTH_DEGREE: 318.0
DATE_TIME_FIRST_SAMPLE_YYYYMMDD_HHMMSS: 20090406_013227.000
DATE_TIME_FIRST_SAMPLE_PRECISION: seconds
SAMPLING_INTERVAL_S: 0.005000
NDATA: 8000
DURATION_S: 40.000
STREAM: HNN
UNITS: cm/s^2
INSTRUMENT: sensor = FBA-3 [Kinemetrics] | digitizer = Everest [Kinemetrics]
INSTRUMENT_ANALOG/DIGITAL: D
INSTRUMENTAL_FREQUENCY_HZ: 214.000
INSTRUMENTAL_DAMPING: 0.000000
FULL_SCALE_G: 1.0
N_BIT_DIGITAL_CONVERTER: 24
PGA_CM/S^2: -433.849915
TIME_PGA_S: 18.410000
BASELINE_CORRECTION: BASELINE REMOVED
FILTER_TYPE: BUTTERWORTH
FILTER_ORDER: 2
LOW_CUT_FREQUENCY_HZ: 0.100
HIGH_CUT_FREQUENCY_HZ: 40.000
LATE/NORMAL_TRIGGERED: NT
DATABASE_VERSION: 0.5
HEADER_FORMAT: DYNA 1.2
DATA_TYPE: ACCELERATION
PROCESSING: manual (Paolucci et al., 2011)
DATA_TIMESTAMP_YYYYMMDD_HHMMSS: 20211011_155708.514
DATA_LICENSE: CC-BY3_0-IT (http://creativecommons.org/licenses/by/3.0/deed.en)
DATA_CITATION: Luzi L, Pacor F, Puglia R (2019). Italian Accelerometric Archive v 3.0 - Istituto Nazionale di Geofisica e Vulcanologia, Dipartimento della Protezione Civile Nazionale. doi: 10.13127/itaca.3.1
DATA_CREATOR: ITACA working group
ORIGINAL_DATA_MEDIATOR_CITATION: data obtained within the DPC-INGV data exchange agreements
ORIGINAL_DATA_MEDIATOR: Archive of Italian Department of Civil Protection
ORIGINAL_DATA_CREATOR_CITATION: Presidency Of Counsil Of Ministers-Civil Protection Department. (1972). Italian Strong Motion Network. Presidency of Counsil of Ministers - Civil Protection Department. https://doi.org/10.7914/SN/IT http://www.fdsn.org/networks/detail/IT/
ORIGINAL_DATA_CREATOR: network: IT (Italian Strong Motion Network (RAN)); owner: Presidency of Counsil of Ministers - Civil Protection Department (PCM - DPC)
USER1: 
USER2: 
USER3: 
USER4: 
USER5: 
[...]
0.006119
0.001715
-0.001256
-0.001511
0.000860
0.005407
0.009894
0.010800
0.007104
0.001709
-0.001900
-0.002386
0.000498
0.006376
0.012223
0.013467
0.009077
0.002501
-0.002232
-0.002902
0.000248
0.004863
0.008727
0.011022
0.011214
0.009086
0.005890
0.003028
0.001059
0.001082
0.003875
0.007731
0.010119
0.010310
0.008870
0.006655
0.004740
0.003825
0.004342
0.006602
0.009193
0.009730
0.008227
0.006550
0.005408
0.004791
0.005834
0.009126
0.012108
0.012002
0.009887
0.008060
0.006530
0.004979
0.004643
0.006579
0.009835
0.012190
0.012477
0.011240
0.009367
0.007655
0.007212
0.008664
0.010831
0.011620
0.010622
0.009117
0.008118
0.008196
0.009822
0.012311
0.013820
0.013470
0.012011
0.010328
0.008759
0.007587
0.007566
0.009617
0.013422
0.016564
0.016320
0.013033
0.009930
0.008936
0.009667
0.011836
0.014854
0.016319
0.014209
0.010021
0.007555
0.009013
0.013287
0.017281
0.018776
0.017619
0.014583
0.011109
0.009204
0.009919
0.012697
0.016125
0.018469
0.018402
0.016166
0.013539
0.012392
0.013293
0.015160
0.016366
0.016311
0.015325
0.014021
0.013834
0.015865
0.018550
0.019244
0.017932
0.016830
0.016543
0.015439
0.013638
0.013642
0.015702
0.017573
0.018918
0.020921
0.022425
0.020999
0.017544
0.015433
0.015432
0.015726
0.016137
0.018098
0.020921
0.022461
0.022438
0.021757
0.020487
0.018189
0.015710
0.015530
0.018519
0.022005
0.023377
0.023162
0.022465
0.021134
0.019869
0.019990
0.021095
0.021567
0.020813
0.019902
0.019920
0.020886
0.022503
0.024327
0.025462
0.025186
0.023611
0.021421
0.019553
0.019139
0.020888
0.024217
0.027200
0.027792
0.025593
0.022676
0.021725
0.022841
0.024033
0.024728
0.026072
0.027485
0.026734
0.024505
0.023733
0.024662
0.025675
0.026576
0.027689
0.028425
0.028458
0.028203
0.027561
0.026017
0.024205
0.023929
0.026147
0.029390
0.030987
0.029995
0.027943
0.026663
0.026561
0.027098
0.027951
0.029323
0.031164
0.032421
0.032197
0.030996
0.029465
0.027596
0.026255
0.027472
0.031344
0.034839
0.035760
0.034621
0.031885
0.027886
0.025490
0.027761
0.032937
0.036348
0.036431
0.035197
0.034054
0.032506
0.030980
0.030952
0.031892
0.032276
0.032671
0.034383
0.036578
0.037277
0.036215
0.034785
0.033936
0.033702
0.034146
0.035335
0.036416
0.036211
0.035265
0.035321
0.036520
0.037515
0.037938
0.038331
0.038453
0.037710
0.036427
0.035536
0.035758
0.037237
0.039424
0.041252
0.041491
0.039839
0.037832
0.037426
0.038868
0.040407
0.040376
0.039673
0.040389
0.042205
0.043181
0.043128
0.042501
0.040209
0.036839
0.036283
0.040303
0.045461
0.047630
0.046304
0.043494
0.040968
0.039820
0.041176
0.044830
0.047574
0.046525
0.043306
0.041627
0.042344
0.043644
0.044873
0.046809
0.048840
0.049047
0.046762
0.043977
0.043384
0.045013
0.046969
0.048515
0.049560
0.049020
0.046900
0.045755
0.047172
0.049275
0.049807
0.049306
0.049238
0.049235
0.048729
0.048660
0.049420
0.050013
0.050153
0.050944
0.052817
0.054158
0.053216
0.050602
0.048666
0.048914
0.051198
0.054423
0.056380
0.054931
0.051463
0.050305
0.052805
0.055838
0.056846
0.055806
0.053622
0.051888
0.052119
0.054202
0.056570
0.057796
0.057684
0.056813
0.055917
0.056033
0.057469
0.058553
0.057834
0.056433
0.055709
0.055408
0.055909
0.058527
0.062367
0.064388
0.063269
0.060306
0.057061
0.054829
0.054810
0.057173
0.060988
0.064709
0.066533
0.065480
0.062641
0.060462
0.059880
0.059748
0.059802
0.061196
0.063500
0.064928
0.065391
0.065589
0.064987
0.063654
0.063151
0.063884
0.064657
0.065218
0.065936
0.066024
0.065073
0.064693
0.066520
0.069271
0.070195
0.069448
0.069037
0.068404
0.066324
0.064846
0.066363
0.069669
0.072130
0.072766
0.071658
0.069476
0.068038
0.068522
0.070393
0.072880
0.074789
0.074200
0.070928
0.068128
0.069003
0.072405
0.075031
0.076237
0.076844
0.075966
0.072946
0.070034
0.069715
0.071700
0.074562
0.077694
0.080190
0.080341
0.078127
0.075369
0.073073
0.071895
0.073489
0.078200
0.083069
0.084587
0.082067
0.077225
0.073007
0.072736
0.077286
0.083238
0.086318
0.085530
0.081879
0.076754
0.073421
0.075495
0.082199
0.088304
0.089752
0.086691
0.081745
0.078542
0.079555
0.083342
0.086334
0.086874
0.085848
0.084575
0.083733
0.084112
0.085909
0.087621
0.088241
0.088745
0.089500
0.089093
0.087279
0.085769
0.085082
0.084993
0.087238
0.092072
0.095151
0.093542
0.090399
0.089130
0.088508
0.087511
0.088393
0.091404
0.093465
0.093794
0.094127
0.094145
0.092670
0.091233
0.091785
0.093543
0.094966
0.095823
0.095734
0.094428
0.094194
0.096674
0.098633
0.097158
0.094837
0.094784
0.095856
0.096658
0.098621
0.101171
0.100659
0.097343
0.096065
0.098454
0.101042
0.101683
0.101645
0.101299
0.099957
0.099358
0.101241
0.103373
0.103425
0.102843
0.103181
0.103504
0.102757
0.101635
0.101623
0.103352
0.106347
0.108946
0.109135
0.106891
0.104028
0.102126
0.102525
0.105851
0.109700
0.110661
0.109178
0.108147
0.108339
0.108681
0.108865
0.109192
0.109354
0.109594
0.110929
0.112468
0.111781
0.108851
0.106860
0.108511
0.113505
0.119289
0.122261
0.119615
0.112320
0.105277
0.102988
0.106465
0.114506
0.123580
0.127519
0.123327
0.115422
0.110397
0.110193
0.112812
0.116662
0.120433
0.121642
0.119588
0.117482
0.118173
0.120324
0.121760
0.122307
0.121683
0.119643
0.118152
0.118959
0.120583
0.121509
0.122522
0.123642
0.123874
0.123849
0.124815
0.125959
0.125547
0.124091
0.123099
0.122423
0.122159
0.123948
0.127758
0.130528
0.130387
0.129300
0.128995
0.128650
0.128300
0.128758
0.128574
0.126764
0.126117
0.128986
0.133156
0.135404
0.135558
0.134483
0.131648
0.127994
0.127429
0.131389
0.136356
0.138901
0.138564
0.135604
0.130838
0.127959
0.130251
0.135661
0.140015
0.141636
0.140472
0.137390
0.135165
0.135920
0.137739
0.137525
0.135801
0.135467
0.137350
0.140034
0.142801
0.145124
0.145291
0.142648
0.138883
0.136190
0.135939
0.138372
0.142435
0.146498
0.149120
0.149184
0.146455
0.142546
0.140337
0.140926
0.142655
0.144607
0.147405
0.149876
0.149961
0.148648
0.148134
0.147666
0.146145
0.145728
0.148127
0.151229
0.152516
0.152100
0.150682
0.148537
0.147655
0.150314
0.154828
0.156978
0.155543
0.152734
0.150507
0.149846
0.151438
0.154572
0.156992
0.157416
0.156912
0.156407
0.155683
0.155524
0.156659
0.157681
0.157593
0.157647
0.158313
0.157843
0.156147
0.156266
0.159035
0.161249
0.161744
0.162518
0.163196
0.161687
0.159082
0.158305
0.159534
0.161062
0.162990
0.165941
0.167809
0.165993
0.161853
0.159641
0.161532
0.165900
0.169566
0.170360
0.168100
0.164462
0.162938
0.166561
0.172963
0.174684
0.167203
0.154895
0.149252
0.167138
0.231895
0.365701
0.559079
0.706319
0.558537
-0.168301
-1.511655
-3.040257
-3.907417
-3.186234
-0.429337
3.716396
7.362007
8.270548
5.353426
-0.584236
-7.257439
-11.769187
-11.619685
-5.975548
3.344519
12.345606
16.807524
14.315026
5.443827
-6.370337
-16.371235
-20.195198
-15.226293
-2.462070
12.468767
21.924833
21.084459
10.447031
-4.961874
-17.895411
-22.095083
-15.310267
-0.708676
14.193044
21.427794
17.226797
4.386482
-9.459822
-16.703144
-13.884514
-2.875280
10.229585
17.891224
15.389661
4.210881
-9.103438
-17.590239
-17.434046
-8.930036
4.053508
15.447145
19.573116
14.467691
3.030338
-9.466688
-18.393932
-20.569935
-14.487525
-1.532115
13.230764
22.780960
22.225899
11.909128
-2.791013
-14.446224
-17.701471
-11.724524
-0.120973
10.390476
12.996253
5.380631
-7.640495
-16.911201
-15.343999
-2.620414
14.265717
24.737257
21.456472
5.446430
-14.546593
-27.526239
-26.562391
-12.365703
7.282743
22.534361
27.416948
21.430462
7.656761
-9.007292
-22.556005
-27.088442
-19.927126
-4.116683
12.537125
22.127367
21.971340
14.793623
4.323617
-6.743069
-14.967454
-16.135443
-9.156557
1.832215
10.534436
12.519894
7.164888
-2.329810
-10.981566
-14.465470
-10.606037
-1.000828
8.753111
12.626263
8.867261
0.761204
-6.866199
-10.417295
-8.000212
-0.381450
8.375505
12.982387
10.553397
2.847766
-5.225770
-9.635334
-9.265362
-4.828605
1.945710
7.534107
7.708154
1.586031
-6.908009
-12.856514
-14.350154
-12.456946
-8.496662
-2.747728
3.389180
5.943335
1.917766
-6.288650
-11.706078
-8.221658
4.466079
20.177427
29.505737
25.085028
6.973104
-15.908148
-30.764071
-28.930241
-10.720651
15.567341
37.933350
45.399506
33.153297
6.711125
-20.382700
-36.488346
-39.525730
-33.974834
-23.613140
-9.689483
7.185070
25.549475
40.584927
43.716564
29.804070
4.484485
-19.529188
-31.715658
-27.815947
-10.230335
12.079667
27.424496
28.967161
19.529638
9.002931
5.906072
9.122113
8.423040
-4.995967
-29.220818
-52.362137
-60.557613
-46.495869
-13.414902
26.687820
57.646679
64.883423
43.164562
1.950776
-38.695103
-59.713818
-52.702637
-21.718536
19.550537
52.999718
65.715805
56.165276
31.381874
1.122394
-28.171289
-53.235767
-66.392807
-56.111485
-19.430134
30.069370
69.681953
81.738693
61.965328
20.297976
-25.641203
-59.273438
-68.988556
-50.412601
-10.156797
33.609951
60.212219
60.058891
39.451256
13.650926
-4.488835
-10.932051
-9.197022
-5.817381
-4.811002
-5.546050
-7.106076
-9.165063
-6.160131
9.541777
34.648167
52.091087
45.575176
17.039415
-15.274014
-38.065533
-51.949169
-57.342346
-46.901924
-18.298141
15.395358
35.027920
32.245991
13.652945
-7.631800
-19.881018
-16.481344
1.276312
22.826147
32.045631
17.973009
-14.921436
-49.036167
-65.431931
-51.523052
-3.912027
64.819847
120.706017
125.002586
70.348145
-6.878158
-61.375782
-76.102394
-60.491512
-30.660673
2.697194
35.770176
62.540501
72.087563
63.588528
48.478172
28.194981
-7.787344
-55.868076
-91.165146
-89.410622
-47.415562
15.906229
70.795815
93.479050
84.752869
63.495785
37.658695
1.707499
-40.444214
-71.330528
-76.456642
-54.362385
-14.154114
31.759459
73.521812
100.863457
98.618065
56.362576
-15.517877
-87.502838
-132.179810
-137.509094
-104.368301
-44.402740
22.465874
75.325958
99.546425
92.072723
59.703381
10.033640
-47.744553
-94.875793
-109.785339
-82.901222
-24.346365
41.412888
89.894592
106.252869
89.818886
49.741734
-3.310406
-55.679249
-92.656830
-102.288651
-74.708305
-13.028884
60.541950
121.152878
152.748947
142.238251
81.168678
-19.467091
-126.448654
-200.050369
-208.228836
-136.387421
-4.031663
131.159607
209.284668
208.703293
143.850494
44.834240
-56.289307
-139.840561
-196.926407
-213.680313
-173.410324
-75.203049
51.296684
154.875671
198.803665
179.681564
113.097664
20.692001
-75.774200
-156.966156
-199.533386
-178.765427
-93.673119
17.860281
111.160965
171.269562
201.467163
204.402451
181.641006
129.288651
47.789429
-34.810768
-77.386871
-71.383530
-44.500820
-18.459227
7.424149
40.085480
80.683090
116.974205
125.169754
86.087219
3.149538
-92.693192
-163.957520
-190.932693
-171.891357
-112.741783
-26.139153
62.120754
117.351555
114.525337
54.785809
-31.925331
-102.767029
-128.340668
-104.857460
-44.328400
35.407791
112.328949
164.236176
177.563400
153.890396
104.883202
45.934235
-2.389914
-24.074711
-22.933834
-13.690793
-1.388179
18.191458
43.475815
62.803802
66.622116
58.677795
45.995045
23.845043
-14.698853
-61.236343
-96.851982
-109.317940
-101.836319
-86.004494
-64.890144
-35.173386
-4.896993
12.113534
15.276828
15.163118
11.850481
-9.701896
-51.502293
-89.064766
-97.182716
-73.465988
-33.352612
6.807918
37.954578
57.126034
63.409489
53.244862
23.589436
-15.982932
-43.313000
-42.268387
-16.007418
19.096415
48.231258
64.983635
68.621040
61.865837
47.363846
24.150236
-6.445698
-34.717674
-50.938728
-56.613777
-58.534187
-58.631298
-56.562542
-52.262711
-46.664940
-46.766087
-61.038143
-86.137444
-108.872475
-122.077126
-128.025558
-128.881454
-127.342529
-134.512039
-161.433716
-202.393265
-237.428925
-251.677704
-246.767914
-232.957138
-217.516830
-205.011932
-202.117325
-214.449554
-237.572769
-254.950867
-247.348160
-206.749817
-143.649750
-78.180313
-25.607363
4.372722
2.158698
-35.459190
-96.394341
-157.536514
-196.803177
-202.427094
-176.804474
-133.042755
-83.899429
-35.377811
5.021842
23.352781
11.235978
-25.460306
-72.187378
-112.140480
-130.171677
-118.378204
-80.454247
-28.818724
24.769733
74.572380
118.310928
152.852676
173.534012
179.721420
178.813431
180.434067
189.914078
206.928955
226.352020
243.699142
258.270355
268.148315
269.039917
260.326599
246.000977
229.926468
216.774811
213.663300
223.750763
243.163422
266.407959
287.814087
297.707733
286.822388
257.024017
221.104797
189.801758
162.794022
136.783997
117.813904
117.097824
139.006577
178.258545
223.318695
260.222443
277.589844
270.301422
238.478394
185.543365
120.810478
60.025730
16.529875
-5.384350
-8.496732
-0.313158
10.106045
15.448248
8.726924
-16.982616
-63.393776
-124.664078
-192.125275
-258.787354
-320.892120
-375.618103
-416.145233
-433.849915
-423.997467
-387.418976
-331.631042
-268.417786
-206.666946
-148.413895
-93.678902
-48.120438
-21.552929
-20.474478
-43.642448
-82.318497
-126.174431
-168.161087
-202.174332
-220.895859
-219.738174
-202.072693
-175.519287
-142.929245
-105.324539
-68.355820
-35.544563
-3.657551
30.077126
62.844185
88.840195
103.002708
100.401459
76.948166
34.833420
-16.211361
-61.157646
-82.348450
-68.436302
-23.087812
37.809998
96.993309
143.822372
172.887756
180.098694
164.608521
130.879150
86.292648
38.799564
-2.783494
-33.230007
-55.929150
-69.147827
-57.707500
-16.115519
38.886322
88.017647
127.755295
165.339264
200.551788
226.264099
245.577805
265.833221
281.076447
279.790375
260.344391
230.192352
199.623611
177.325317
167.339554
168.766663
177.486618
191.062607
209.389511
229.103058
244.367126
251.010162
245.261749
224.379974
190.932373
148.620056
96.137474
34.949284
-26.963568
-85.469460
-140.592407
-188.505997
-225.164597
-252.415649
-271.122833
-273.571930
-253.534119
-219.221130
-186.781845
-168.945984
-174.916519
-208.315887
-260.201935
-311.427216
-347.074890
-367.535400
-378.445099
-376.343384
-357.552094
-330.958099
-310.105499
-299.184845
-292.361694
-283.916382
-271.875214
-251.603180
-216.552521
-169.279984
-125.630241
-103.799385
-108.863640
-128.817764
-146.254349
-150.872894
-138.991653
-109.383041
-65.224426
-13.908946
37.020737
80.221077
107.913933
117.145416
115.823486
116.760590
124.165764
134.350510
147.262329
164.395248
180.791687
190.267365
193.039337
194.343719
197.952469
204.003815
214.745667
233.324066
255.313293
272.675354
285.447906
301.537109
324.863159
350.087219
369.761108
378.534302
369.826996
335.226593
271.412659
188.068329
101.777939
19.732550
-60.384781
-131.690140
-170.825592
-156.827362
-90.628326
6.209460
100.918091
160.979080
170.056870
130.189072
49.631527
-59.225067
-174.842392
-272.486450
-334.903412
-355.589539
-335.848022
-280.299255
-197.078659
-98.568787
4.472844
102.464012
180.950607
223.817734
221.667297
177.261398
101.822624
8.046911
-86.960899
-160.554092
-196.822281
-193.712845
-153.128235
-77.041267
20.484026
113.120506
181.606766
221.948914
233.769836
217.931259
184.335602
144.694885
102.553009
60.457214
27.298603
8.599326
-2.531165
-13.010392
-16.289591
-2.343909
25.361366
47.428497
43.459518
11.817570
-32.017414
-74.201569
-109.431442
-134.623352
-146.222061
-147.675705
-152.151871
-171.295578
-204.615768
-239.106598
-257.423004
-248.732132
-216.419266
-173.266068
-126.998405
-79.797554
-35.648830
-0.189236
18.474470
13.028222
-11.940891
-35.317066
-35.667984
-14.690819
11.405146
38.697300
74.007950
116.671211
157.046066
189.525803
214.771240
228.141663
221.862671
200.294968
180.640900
176.895584
186.880875
197.499390
200.397491
196.031113
186.355255
172.822754
157.625671
140.581207
117.824440
85.494797
44.556080
2.842786
-29.592012
-49.589809
-61.642536
-68.461624
-68.669624
-62.698322
-55.113190
-52.986546
-62.260021
-85.249245
-118.347321
-151.606720
-175.889664
-186.302124
-180.023666
-157.819077
-125.708084
-95.859436
-81.927582
-88.876350
-110.434845
-133.583298
-145.309235
-138.659637
-113.752754
-77.278091
-39.306015
-6.753012
18.107937
35.205734
45.951900
51.512066
50.265926
38.735958
15.765249
-13.430390
-38.514118
-51.505505
-50.978371
-37.324986
-9.569978
30.035866
72.953239
107.610489
126.115021
128.743240
118.818253
95.211952
55.085712
0.417761
-60.894432
-116.621834
-153.703140
-163.595200
-145.640259
-106.576950
-56.874168
-9.151941
22.037319
26.775333
5.167053
-35.681271
-84.925369
-131.405441
-167.353806
-187.389694
-189.714035
-178.629181
-158.335480
-126.262016
-78.784752
-20.874998
35.290676
79.218475
106.604256
117.138184
112.663643
99.090004
83.796577
69.629776
56.928856
49.773224
54.852551
73.833374
100.490608
126.967072
150.862183
172.177017
183.641022
174.462982
144.472702
104.608238
66.019882
35.383190
17.623365
15.239743
25.047180
40.773727
56.503178
67.370003
69.496773
59.572037
37.802418
10.617478
-12.699680
-24.500204
-20.032778
0.168024
27.650993
51.275131
65.840736
73.298386
76.567154
75.383392
69.767319
62.754868
58.237804
59.731552
69.576492
86.419655
104.115105
116.380157
122.439148
123.575035
116.482468
95.443390
59.664379
14.927102
-31.383478
-71.836433
-96.119286
-95.445198
-71.385262
-35.529255
0.066661
31.422752
60.554569
86.672646
103.241837
101.890152
80.737251
50.415966
25.806290
12.468695
5.918642
1.191118
-1.421804
0.226475
4.926312
9.863232
15.483477
23.903275
33.441372
36.355068
22.751442
-10.117289
-54.489227
-99.570747
-137.698364
-161.833282
-164.082977
-144.082672
-112.881973
-82.938347
-61.332760
-52.386864
-58.062389
-75.202644
-97.151321
-116.186775
-122.865265
-110.290970
-80.272964
-41.749828
-5.421797
20.486858
32.434814
30.700806
17.128351
-6.266668
-36.485306
-67.053307
-89.841644
-101.983215
-107.934708
-114.577087
-125.708351
-139.104996
-148.800858
-151.694916
-149.647049
-145.974030
-146.537781
-158.688980
-182.157227
-209.375778
-235.258606
-261.516388
-292.412659
-325.701752
-346.747162
-330.089691
-256.230011
-135.912750
-6.062732
100.648026
170.449554
199.481323
188.283005
145.235153
83.055893
14.809655
-39.159801
-53.041622
-18.219965
47.854530
123.588982
196.006500
252.671936
280.248322
272.710327
237.212097
188.978439
142.851364
111.525574
100.330795
104.512665
