EVENT_NAME: L_AQUILA
EVENT_ID: IT-2009-0009
EVENT_DATE_YYYYMMDD: 20090406
EVENT_TIME_HHMMSS: 013240
EVENT_LATITUDE_DEGREE: 42.3420
EVENT_LONGITUDE_DEGREE: 13.3800
EVENT_DEPTH_KM: 8.3
HYPOCENTER_REFERENCE: INGV-CNT_Seismic_Bulletin
MAGNITUDE_W: 6.1
MAGNITUDE_W_REFERENCE: INGV-CNT_Seismic_Bulletin
MAGNITUDE_L: 
MAGNITUDE_L_REFERENCE: 
FOCAL_MECHANISM: Normal faulting
NETWORK: IT
STATION_CODE: AQA
STATION_NAME: 
STATION_LATITUDE_DEGREE: 42.375530
STATION_LONGITUDE_DEGREE: 13.339298
STATION_ELEVATION_M: 693
LOCATION: 
SENSOR_DEPTH_M: 0.0
VS30_M/S: 549
SITE_CLASSIFICATION_EC8: B
MORPHOLOGIC_CLASSIFICATION: 
EPICENTRAL_DISTANCE_KM: 5.0
EARTHQUAKE_BACKAZIMUTH_DEGREE: 318.0
DATE_TIME_FIRST_SAMPLE_YYYYMMDD_HHMMSS: 
DATE_TIME_FIRST_SAMPLE_PRECISION: 
SAMPLING_INTERVAL_S: 
NDATA: 105
DURATION_S: 
STREAM: HNZ
UNITS: cm/s^2
INSTRUMENT: sensor = FBA-3 [Kinemetrics] | digitizer = Everest [Kinemetrics]
INSTRUMENT_ANALOG/DIGITAL: D
INSTRUMENTAL_FREQUENCY_HZ: 210.000
INSTRUMENTAL_DAMPING: 0.000000
FULL_SCALE_G: 1.0
N_BIT_DIGITAL_CONVERTER: 24
PGA_CM/S^2: 435.393690
TIME_PGA_S: 
BASELINE_CORRECTION: BASELINE REMOVED
FILTER_TYPE: BUTTERWORTH
FILTER_ORDER: 2
LOW_CUT_FREQUENCY_HZ: 0.100
HIGH_CUT_FREQUENCY_HZ: 40.000
LATE/NORMAL_TRIGGERED: NT
DATABASE_VERSION: 0.5
HEADER_FORMAT: DYNA 1.2
DATA_TYPE: ACCELERATION RESPONSE SPECTRUM
PROCESSING: manual (Paolucci et al., 2011)
DATA_TIMESTAMP_YYYYMMDD_HHMMSS: 20211011_155710.259
DATA_LICENSE: CC-BY3_0-IT (http://creativecommons.org/licenses/by/3.0/deed.en)
DATA_CITATION: Luzi L, Pacor F, Puglia R (2019). Italian Accelerometric Archive v 3.0 - Istituto Nazionale di Geofisica e Vulcanologia, Dipartimento della Protezione Civile Nazionale. doi: 10.13127/itaca.3.1
DATA_CREATOR: ITACA working group
ORIGINAL_DATA_MEDIATOR_CITATION: data obtained within the DPC-INGV data exchange agreements
ORIGINAL_DATA_MEDIATOR: Archive of Italian Department of Civil Protection
ORIGINAL_DATA_CREATOR_CITATION: Presidency Of Counsil Of Ministers-Civil Protection Department. (1972). Italian Strong Motion Network. Presidency of Counsil of Ministers - Civil Protection Department. https://doi.org/10.7914/SN/IT http://www.fdsn.org/networks/detail/IT/
ORIGINAL_DATA_CREATOR: network: IT (Italian Strong Motion Network (RAN)); owner: Presidency of Counsil of Ministers - Civil Protection Department (PCM - DPC)
USER1: 
USER2: 
USER3: 
USER4: 
USER5: 
    0.010000   440.209442
    0.020000   548.206238
    0.022000   572.221375
    0.025000   591.002808
    0.029000   759.468811
    0.030000   904.756165
    0.032000  1254.099487
    0.035001  1373.283447
    0.036000  1170.808472
    0.040000  1151.818481
    0.041999  1354.426514
    0.044001  1330.403198
    0.045000  1280.128906
    0.046000  1281.055420
    0.048001  1371.646973
    0.050000  1377.488770
    0.054999  1378.663452
    0.059999  1013.005432
    0.064998   756.983887
    0.067002   787.042664
    0.069999   902.369263
    0.075002   782.862244
    0.080000   602.528809
    0.084998   611.102478
    0.090001   519.496521
    0.095003   425.699463
    0.100000   405.694031
    0.109999   477.686584
    0.120005   384.299377
    0.130005   385.439789
    0.132996   393.013611
    0.139997   356.660217
    0.149993   390.537384
    0.160000   398.958557
    0.170010   402.098877
    0.179986   364.726959
    0.190006   269.058319
    0.200000   205.264755
    0.220022   319.048737
    0.239981   350.043243
    0.250000   321.651703
    0.260010   280.607758
    0.280034   285.458099
    0.290023   306.096313
    0.300030   309.415497
    0.320000   305.239471
    0.340020   299.403442
    0.350017   263.640961
    0.359971   224.170837
    0.379939   179.954453
    0.400000   155.596115
    0.419992   183.955841
    0.439947   210.223572
    0.450045   221.220901
    0.459982   232.867813
    0.480077   243.368256
    0.500000   221.788849
    0.550055   166.662460
    0.599880   253.019028
    0.650195   210.543625
    0.667111   174.657211
    0.699790   149.779236
    0.750188   138.381149
    0.800000   168.330948
    0.850340   159.918121
    0.900090   138.360062
    0.949668   104.063454
    1.000000    80.509468
    1.100110    68.834114
    1.200480    78.540108
    1.300390    56.171009
    1.400560    54.053947
    1.499250    55.782864
    1.600000    39.199318
    1.700680    37.131336
    1.798561    35.573421
    1.901141    33.898811
    2.000000    36.833733
    2.197802    38.233639
    2.398082    31.323324
    2.500000    29.019949
    2.597403    26.805325
    2.801121    20.505806
    3.003003    17.837345
    3.205128    14.976605
    3.401361    12.162972
    3.496503    10.952911
    3.597122    10.434288
    3.802281     9.411244
    4.000000     8.582508
    4.201681     7.790671
    4.405286     7.027095
    4.608295     6.310865
    4.807692     5.650503
    5.000000     5.047391
    5.494505     3.939638
    5.988024     3.352248
    6.493506     2.949726
    6.993007     2.607672
    7.518797     2.315858
    8.000000     2.064568
    8.474576     1.846355
    9.009009     1.656406
    9.523809     1.491132
   10.000000     1.347101
