EVENT_NAME: L_AQUILA
EVENT_ID: IT-2009-0009
EVENT_DATE_YYYYMMDD: 20090406
EVENT_TIME_HHMMSS: 013240
EVENT_LATITUDE_DEGREE: 42.3420
EVENT_LONGITUDE_DEGREE: 13.3800
EVENT_DEPTH_KM: 8.3
HYPOCENTER_REFERENCE: INGV-CNT_Seismic_Bulletin
MAGNITUDE_W: 6.1
MAGNITUDE_W_REFERENCE: INGV-CNT_Seismic_Bulletin
MAGNITUDE_L: 
MAGNITUDE_L_REFERENCE: 
FOCAL_MECHANISM: Normal faulting
NETWORK: IT
STATION_CODE: AQA
STATION_NAME: 
STATION_LATITUDE_DEGREE: 42.375530
STATION_LONGITUDE_DEGREE: 13.339298
STATION_ELEVATION_M: 693
LOCATION: 
SENSOR_DEPTH_M: 0.0
VS30_M/S: 549
SITE_CLASSIFICATION_EC8: B
MORPHOLOGIC_CLASSIFICATION: 
EPICENTRAL_DISTANCE_KM: 5.0
EARTHQUAKE_BACKAZIMUTH_DEGREE: 318.0
DATE_TIME_FIRST_SAMPLE_YYYYMMDD_HHMMSS: 20090406_013227.000
DATE_TIME_FIRST_SAMPLE_PRECISION: seconds
SAMPLING_INTERVAL_S: 0.005000
NDATA: 8000
DURATION_S: 40.000
STREAM: HNN
UNITS: cm/s
INSTRUMENT: sensor = FBA-3 [Kinemetrics] | digitizer = Everest [Kinemetrics]
INSTRUMENT_ANALOG/DIGITAL: D
INSTRUMENTAL_FREQUENCY_HZ: 214.000
INSTRUMENTAL_DAMPING: 0.000000
FULL_SCALE_G: 1.0
N_BIT_DIGITAL_CONVERTER: 24
PGV_CM/S: -26.666199
TIME_PGV_S: 18.115000
BASELINE_CORRECTION: BASELINE REMOVED
FILTER_TYPE: BUTTERWORTH
FILTER_ORDER: 2
LOW_CUT_FREQUENCY_HZ: 0.100
HIGH_CUT_FREQUENCY_HZ: 40.000
LATE/NORMAL_TRIGGERED: NT
DATABASE_VERSION: 0.5
HEADER_FORMAT: DYNA 1.2
DATA_TYPE: VELOCITY
PROCESSING: manual (Paolucci et al., 2011)
DATA_TIMESTAMP_YYYYMMDD_HHMMSS: 20211011_155708.735
DATA_LICENSE: CC-BY3_0-IT (http://creativecommons.org/licenses/by/3.0/deed.en)
DATA_CITATION: Luzi L, Pacor F, Puglia R (2019). Italian Accelerometric Archive v 3.0 - Istituto Nazionale di Geofisica e Vulcanologia, Dipartimento della Protezione Civile Nazionale. doi: 10.13127/itaca.3.1
DATA_CREATOR: ITACA working group
ORIGINAL_DATA_MEDIATOR_CITATION: data obtained within the DPC-INGV data exchange agreements
ORIGINAL_DATA_MEDIATOR: Archive of Italian Department of Civil Protection
ORIGINAL_DATA_CREATOR_CITATION: Presidency Of Counsil Of Ministers-Civil Protection Department. (1972). Italian Strong Motion Network. Presidency of Counsil of Ministers - Civil Protection Department. https://doi.org/10.7914/SN/IT http://www.fdsn.org/networks/detail/IT/
ORIGINAL_DATA_CREATOR: network: IT (Italian Strong Motion Network (RAN)); owner: Presidency of Counsil of Ministers - Civil Protection Department (PCM - DPC)
USER1: 
USER2: 
USER3: 
USER4: 
USER5: 
[...]
-0.034704
-0.034744
-0.034766
-0.034771
-0.034773
-0.034784
-0.034805
-0.034828
-0.034848
-0.034860
-0.034865
-0.034868
-0.034881
-0.034909
-0.034942
-0.034969
-0.034983
-0.034988
-0.034988
-0.034987
-0.034988
-0.034995
-0.035009
-0.035035
-0.035069
-0.035099
-0.035119
-0.035125
-0.035116
-0.035100
-0.035094
-0.035108
-0.035134
-0.035160
-0.035174
-0.035175
-0.035166
-0.035157
-0.035158
-0.035175
-0.035201
-0.035223
-0.035230
-0.035225
-0.035215
-0.035208
-0.035210
-0.035219
-0.035231
-0.035240
-0.035244
-0.035243
-0.035240
-0.035240
-0.035240
-0.035238
-0.035235
-0.035234
-0.035236
-0.035243
-0.035249
-0.035248
-0.035240
-0.035232
-0.035230
-0.035234
-0.035239
-0.035238
-0.035226
-0.035209
-0.035197
-0.035193
-0.035196
-0.035202
-0.035202
-0.035190
-0.035172
-0.035163
-0.035162
-0.035159
-0.035149
-0.035139
-0.035131
-0.035125
-0.035119
-0.035112
-0.035105
-0.035093
-0.035076
-0.035061
-0.035047
-0.035030
-0.035008
-0.034991
-0.034985
-0.034984
-0.034980
-0.034970
-0.034949
-0.034912
-0.034869
-0.034839
-0.034830
-0.034836
-0.034844
-0.034840
-0.034813
-0.034763
-0.034709
-0.034674
-0.034665
-0.034674
-0.034686
-0.034684
-0.034652
-0.034591
-0.034524
-0.034478
-0.034466
-0.034477
-0.034491
-0.034490
-0.034466
-0.034422
-0.034367
-0.034311
-0.034266
-0.034236
-0.034221
-0.034216
-0.034210
-0.034191
-0.034152
-0.034102
-0.034050
-0.034006
-0.033972
-0.033949
-0.033930
-0.033908
-0.033875
-0.033829
-0.033780
-0.033739
-0.033706
-0.033679
-0.033655
-0.033626
-0.033581
-0.033520
-0.033460
-0.033411
-0.033370
-0.033338
-0.033313
-0.033290
-0.033257
-0.033208
-0.033147
-0.033084
-0.033028
-0.032981
-0.032943
-0.032907
-0.032864
-0.032809
-0.032751
-0.032698
-0.032653
-0.032612
-0.032571
-0.032522
-0.032460
-0.032391
-0.032324
-0.032264
-0.032212
-0.032168
-0.032130
-0.032093
-0.032045
-0.031977
-0.031895
-0.031813
-0.031748
-0.031698
-0.031654
-0.031605
-0.031546
-0.031472
-0.031390
-0.031319
-0.031269
-0.031231
-0.031186
-0.031120
-0.031033
-0.030939
-0.030851
-0.030778
-0.030723
-0.030677
-0.030627
-0.030564
-0.030483
-0.030391
-0.030299
-0.030218
-0.030150
-0.030088
-0.030022
-0.029946
-0.029864
-0.029783
-0.029706
-0.029636
-0.029567
-0.029487
-0.029395
-0.029298
-0.029209
-0.029125
-0.029042
-0.028965
-0.028897
-0.028828
-0.028750
-0.028662
-0.028567
-0.028463
-0.028351
-0.028246
-0.028158
-0.028081
-0.028004
-0.027925
-0.027844
-0.027754
-0.027649
-0.027537
-0.027425
-0.027316
-0.027213
-0.027123
-0.027044
-0.026966
-0.026874
-0.026764
-0.026647
-0.026531
-0.026419
-0.026313
-0.026214
-0.026114
-0.026008
-0.025900
-0.025796
-0.025697
-0.025597
-0.025493
-0.025380
-0.025259
-0.025131
-0.025005
-0.024887
-0.024780
-0.024683
-0.024587
-0.024482
-0.024361
-0.024225
-0.024086
-0.023958
-0.023845
-0.023736
-0.023622
-0.023502
-0.023378
-0.023248
-0.023111
-0.022977
-0.022854
-0.022736
-0.022612
-0.022484
-0.022351
-0.022213
-0.022071
-0.021928
-0.021787
-0.021649
-0.021519
-0.021398
-0.021279
-0.021148
-0.021001
-0.020846
-0.020696
-0.020556
-0.020423
-0.020290
-0.020155
-0.020015
-0.019868
-0.019713
-0.019550
-0.019389
-0.019235
-0.019087
-0.018949
-0.018818
-0.018681
-0.018524
-0.018350
-0.018171
-0.017998
-0.017838
-0.017699
-0.017571
-0.017433
-0.017268
-0.017086
-0.016904
-0.016728
-0.016558
-0.016395
-0.016240
-0.016086
-0.015926
-0.015765
-0.015601
-0.015430
-0.015247
-0.015060
-0.014879
-0.014705
-0.014536
-0.014367
-0.014196
-0.014020
-0.013838
-0.013656
-0.013480
-0.013304
-0.013121
-0.012933
-0.012744
-0.012552
-0.012360
-0.012171
-0.011989
-0.011811
-0.011633
-0.011446
-0.011249
-0.011043
-0.010836
-0.010636
-0.010447
-0.010260
-0.010066
-0.009864
-0.009662
-0.009463
-0.009262
-0.009051
-0.008835
-0.008619
-0.008406
-0.008205
-0.008021
-0.007840
-0.007638
-0.007411
-0.007173
-0.006941
-0.006724
-0.006519
-0.006320
-0.006114
-0.005890
-0.005652
-0.005419
-0.005203
-0.004995
-0.004783
-0.004565
-0.004340
-0.004106
-0.003862
-0.003617
-0.003383
-0.003163
-0.002946
-0.002721
-0.002486
-0.002244
-0.001996
-0.001751
-0.001516
-0.001288
-0.001052
-0.000805
-0.000556
-0.000310
-0.000064
0.000183
0.000426
0.000669
0.000917
0.001167
0.001417
0.001672
0.001936
0.002207
0.002473
0.002726
0.002969
0.003214
0.003470
0.003742
0.004024
0.004299
0.004556
0.004807
0.005071
0.005351
0.005635
0.005914
0.006182
0.006441
0.006702
0.006973
0.007256
0.007545
0.007833
0.008117
0.008397
0.008677
0.008964
0.009257
0.009546
0.009829
0.010107
0.010384
0.010664
0.010956
0.011268
0.011590
0.011906
0.012208
0.012493
0.012767
0.013042
0.013327
0.013632
0.013956
0.014289
0.014616
0.014929
0.015231
0.015531
0.015830
0.016129
0.016435
0.016752
0.017077
0.017404
0.017732
0.018057
0.018375
0.018691
0.019010
0.019333
0.019659
0.019989
0.020319
0.020645
0.020968
0.021301
0.021647
0.021998
0.022345
0.022690
0.023032
0.023364
0.023688
0.024020
0.024368
0.024729
0.025093
0.025451
0.025799
0.026139
0.026481
0.026833
0.027198
0.027572
0.027943
0.028297
0.028638
0.028983
0.029345
0.029720
0.030101
0.030486
0.030865
0.031230
0.031580
0.031929
0.032287
0.032660
0.033049
0.033450
0.033851
0.034242
0.034619
0.034984
0.035344
0.035711
0.036102
0.036517
0.036940
0.037351
0.037737
0.038102
0.038465
0.038852
0.039268
0.039700
0.040127
0.040537
0.040920
0.041288
0.041665
0.042076
0.042518
0.042966
0.043400
0.043809
0.044201
0.044599
0.045016
0.045447
0.045882
0.046311
0.046734
0.047153
0.047573
0.048003
0.048441
0.048882
0.049326
0.049773
0.050219
0.050655
0.051084
0.051509
0.051934
0.052370
0.052831
0.053307
0.053774
0.054226
0.054672
0.055114
0.055552
0.055994
0.056451
0.056918
0.057387
0.057858
0.058329
0.058792
0.059248
0.059707
0.060175
0.060650
0.061129
0.061607
0.062080
0.062551
0.063034
0.063527
0.064013
0.064487
0.064961
0.065440
0.065924
0.066417
0.066923
0.067426
0.067913
0.068393
0.068885
0.069390
0.069899
0.070407
0.070913
0.071413
0.071910
0.072416
0.072933
0.073450
0.073964
0.074480
0.074998
0.075512
0.076020
0.076528
0.077045
0.077576
0.078121
0.078667
0.079201
0.079721
0.080232
0.080745
0.081274
0.081822
0.082376
0.082922
0.083462
0.084004
0.084547
0.085092
0.085638
0.086185
0.086733
0.087287
0.087849
0.088408
0.088953
0.089487
0.090030
0.090597
0.091193
0.091805
0.092403
0.092964
0.093491
0.094006
0.094538
0.095111
0.095729
0.096366
0.096983
0.097560
0.098112
0.098663
0.099227
0.099810
0.100412
0.101021
0.101619
0.102206
0.102797
0.103398
0.104007
0.104619
0.105227
0.105825
0.106416
0.107011
0.107614
0.108221
0.108834
0.109452
0.110072
0.110691
0.111315
0.111945
0.112572
0.113193
0.113808
0.114421
0.115031
0.115651
0.116290
0.116942
0.117594
0.118241
0.118886
0.119529
0.120171
0.120814
0.121457
0.122091
0.122722
0.123367
0.124032
0.124709
0.125387
0.126060
0.126718
0.127358
0.127995
0.128652
0.129334
0.130028
0.130721
0.131399
0.132053
0.132693
0.133344
0.134023
0.134723
0.135431
0.136133
0.136820
0.137496
0.138176
0.138864
0.139552
0.140231
0.140908
0.141595
0.142295
0.143009
0.143735
0.144461
0.145174
0.145869
0.146550
0.147230
0.147921
0.148634
0.149366
0.150112
0.150858
0.151590
0.152303
0.153004
0.153709
0.154422
0.155145
0.155882
0.156632
0.157381
0.158125
0.158865
0.159604
0.160334
0.161063
0.161804
0.162560
0.163322
0.164083
0.164836
0.165579
0.166317
0.167069
0.167843
0.168628
0.169406
0.170169
0.170922
0.171671
0.172428
0.173201
0.173986
0.174773
0.175558
0.176340
0.177118
0.177896
0.178679
0.179467
0.180255
0.181044
0.181835
0.182624
0.183405
0.184186
0.184982
0.185788
0.186597
0.187409
0.188225
0.189034
0.189829
0.190621
0.191418
0.192224
0.193039
0.193868
0.194707
0.195537
0.196346
0.197145
0.197952
0.198782
0.199630
0.200481
0.201322
0.202144
0.202959
0.203792
0.204657
0.205530
0.206366
0.207141
0.207887
0.208722
0.209882
0.211710
0.214506
0.218037
0.220830
0.219989
0.212430
0.197229
0.177692
0.161761
0.159614
0.178196
0.215006
0.256359
0.283126
0.280205
0.243918
0.185072
0.126973
0.097096
0.113818
0.175546
0.259584
0.331159
0.358378
0.326526
0.244670
0.143694
0.067563
0.055252
0.117596
0.227220
0.332643
0.384878
0.360068
0.270591
0.160116
0.083565
0.080021
0.150986
0.258125
0.344259
0.366192
0.318893
0.235377
0.165954
0.151578
0.202726
0.292182
0.369130
0.390185
0.344668
0.256716
0.169546
0.124896
0.145164
0.222399
0.320265
0.392603
0.407755
0.360422
0.268452
0.165602
0.093165
0.085504
0.151658
0.265563
0.376692
0.436238
0.422283
0.350052
0.261544
0.202922
0.202317
0.254269
0.319250
0.346154
0.307951
0.223395
0.146675
0.133573
0.204902
0.328588
0.435870
0.463102
0.390369
0.252738
0.119926
0.058098
0.094511
0.207183
0.344268
0.451420
0.489704
0.444668
0.331888
0.196445
0.096810
0.076226
0.138912
0.249549
0.359406
0.433374
0.454992
0.421276
0.346439
0.265762
0.219979
0.229140
0.281812
0.344412
0.380236
0.368587
0.313679
0.241352
0.188322
0.183318
0.227083
0.290215
0.334551
0.338357
0.304026
0.251939
0.211938
0.210031
0.251909
0.316821
0.369588
0.383826
0.357698
0.309521
0.263194
0.239051
0.248780
0.286450
0.324991
0.332921
0.298381
0.234098
0.162348
0.100063
0.057580
0.043841
0.060787
0.090504
0.100092
0.068649
0.010119
-0.030990
-0.008659
0.092228
0.239757
0.365182
0.400047
0.320507
0.166686
0.022035
-0.031568
0.046269
0.235935
0.462933
0.628699
0.662255
0.560341
0.377900
0.180271
0.010397
-0.107669
-0.156116
-0.120191
0.007556
0.210481
0.429064
0.578084
0.600507
0.502861
0.344282
0.205203
0.154051
0.214449
0.351572
0.496408
0.594056
0.639070
0.668601
0.714211
0.756327
0.731347
0.585243
0.323432
0.020644
-0.211835
-0.278910
-0.145471
0.142763
0.467180
0.683002
0.692756
0.499281
0.200712
-0.062801
-0.171394
-0.073641
0.191357
0.519936
0.800763
0.957672
0.963284
0.822428
0.556249
0.224285
-0.056273
-0.153423
-0.003077
0.345333
0.754027
1.063853
1.165343
1.037137
0.740770
0.395827
0.143764
0.092980
0.261030
0.562091
0.862385
1.059642
1.127896
1.105452
1.050792
1.004807
0.975720
0.951665
0.923935
0.888404
0.842579
0.811778
0.859487
1.032728
1.293183
1.521059
1.606256
1.529886
1.339559
1.079813
0.793101
0.558592
0.467101
0.544078
0.719217
0.880447
0.948712
0.910553
0.811148
0.728741
0.735123
0.849253
1.009482
1.099347
1.024739
0.779559
0.452399
0.194784
0.175223
0.499323
1.102853
1.727866
2.079606
2.045216
1.738337
1.357825
1.055367
0.902064
0.915550
1.094401
1.407103
1.767541
2.085484
2.327875
2.468849
2.429913
2.150572
1.694747
1.247693
1.010616
1.090147
1.444126
1.911521
2.335285
2.652764
2.841058
2.849595
2.647374
2.290722
1.908438
1.636627
1.565856
1.724653
2.092262
2.596580
3.089670
3.371483
3.293893
2.856379
2.195480
1.507935
0.986093
0.764079
0.876409
1.253039
1.750771
2.211134
2.509651
2.559819
2.321097
1.846718
1.297791
0.883285
0.761553
0.968618
1.418090
1.949355
2.398449
2.647158
2.630606
2.352210
1.888925
1.377482
1.003941
0.938796
1.241506
1.847270
2.611015
3.322206
3.728050
3.630714
2.998471
1.998219
0.957075
0.275138
0.254980
0.910778
1.957201
3.000717
3.719970
3.944141
3.662695
2.963492
1.978860
0.910458
0.043407
-0.332609
-0.076125
0.698253
1.692271
2.590679
3.156168
3.259628
2.880757
2.095926
1.098259
0.204432
-0.263934
-0.174632
0.381172
1.237520
2.244856
3.266868
4.175073
4.821517
5.060464
4.886410
4.499476
4.142558
3.920054
3.827758
3.864878
4.065306
4.468721
5.053592
5.679441
6.109877
6.125625
5.662159
4.842371
3.887708
3.028251
2.464542
2.333846
2.644450
3.231208
3.803835
4.077764
3.918137
3.404302
2.762599
2.238311
2.016669
2.193708
2.755353
3.576534
4.464351
5.233803
5.758219
5.987890
5.975940
5.855567
5.740898
5.672444
5.665503
5.756460
5.973839
6.287858
6.620969
6.914358
7.144333
7.263558
7.190064
6.883882
6.399622
5.853033
5.343851
4.913829
4.589378
4.413511
4.389026
4.449594
4.525978
4.601793
4.661046
4.612536
4.355025
3.909701
3.423787
3.056457
2.889694
2.923734
3.113507
3.399137
3.716185
3.982409
4.100356
4.020441
3.803876
3.592534
3.512497
3.607979
3.849136
4.174054
4.517159
4.826488
5.063307
5.184059
5.151830
4.978242
4.723548
4.440479
4.147808
3.854652
3.571839
3.310526
3.077201
2.843370
2.538180
2.107493
1.563130
0.952745
0.312617
-0.331791
-0.968503
-1.641063
-2.448232
-3.460198
-4.647343
-5.905731
-7.139571
-8.304357
-9.391941
-10.417000
-11.427587
-12.499835
-13.687699
-14.962453
-16.199194
-17.232943
-17.951193
-18.342093
-18.470131
-18.448265
-18.437473
-18.614769
-19.096741
-19.884422
-20.868439
-21.880573
-22.764597
-23.429811
-23.849308
-24.026197
-24.001087
-23.884323
-23.828144
-23.955444
-24.316381
-24.877085
-25.527943
-26.119835
-26.522104
-26.666199
-26.542351
-26.169489
-25.577934
-24.813669
-23.945999
-23.047394
-22.153326
-21.251156
-20.301584
-19.266941
-18.135180
-16.916685
-15.625333
-14.284591
-12.939392
-11.637759
-10.407754
-9.258121
-8.174247
-7.105931
-5.987177
-4.771360
-3.439320
-2.000250
-0.511711
0.922401
2.207521
3.313045
4.262054
5.076024
5.759944
6.349013
6.934502
7.629535
8.520828
9.637421
10.938533
12.326483
13.677990
14.870382
15.798099
16.402151
16.702280
16.784929
16.758007
16.715525
16.713959
16.764488
16.841728
16.885365
16.800451
16.483482
15.860162
14.899535
13.605598
12.001138
10.123047
8.042321
5.873071
3.753084
1.815989
0.157834
-1.184255
-2.217590
-2.959659
-3.428054
-3.668656
-3.776420
-3.878793
-4.097005
-4.508598
-5.139470
-5.980275
-6.991147
-8.095626
-9.194317
-10.204680
-11.082277
-11.796923
-12.323546
-12.665325
-12.843048
-12.861335
-12.710950
-12.396729
-11.952528
-11.437514
-10.935507
-10.550766
-10.376599
-10.457656
-10.763444
-11.175186
-11.517368
-11.632807
-11.443757
-10.958790
-10.239679
-9.375240
-8.474746
-7.651704
-6.997308
-6.565845
-6.371847
-6.385764
-6.551914
-6.831560
-7.177299
-7.465837
-7.546414
-7.351983
-6.911895
-6.273118
-5.446422
-4.443663
-3.312342
-2.084453
-0.755287
0.650095
2.049047
3.350769
4.501731
5.499849
6.386476
7.223173
8.067007
8.954440
9.909753
10.956700
12.102215
13.324051
14.579102
15.805411
16.927311
17.881971
18.625072
19.105761
19.280506
19.145689
18.718342
18.015379
17.072849
15.947026
14.684948
13.329334
11.961474
10.693804
9.597698
8.663789
7.819059
6.944476
5.902897
4.601887
3.044751
1.309377
-0.528300
-2.420526
-4.302243
-6.090003
-7.744794
-9.295321
-10.791245
-12.253054
-13.672636
-15.032012
-16.290028
-17.372789
-18.219191
-18.847342
-19.366339
-19.910658
-20.554747
-21.286016
-22.040382
-22.735340
-23.282255
-23.608377
-23.677921
-23.492819
-23.091713
-22.552143
-21.966415
-21.387299
-20.803495
-20.182667
-19.510914
-18.774603
-17.952627
-17.048668
-16.097330
-15.132135
-14.160416
-13.170654
-12.150635
-11.076906
-9.910286
-8.633720
-7.270343
-5.843103
-4.335418
-2.711102
-0.960666
0.888140
2.780811
4.629946
6.306079
7.663142
8.603484
9.112374
9.211036
8.909112
8.250662
7.396534
6.612397
6.159255
6.190303
6.694893
7.499788
8.350073
9.001018
9.249176
8.953050
8.078839
6.716406
5.041889
3.263941
1.584701
0.183205
-0.802188
-1.295032
-1.272668
-0.760348
0.144405
1.263494
2.371830
3.258137
3.767250
3.807485
3.372680
2.569910
1.585799
0.617234
-0.148407
-0.533613
-0.431193
0.134410
1.042443
2.152188
3.321037
4.410694
5.332372
6.055846
6.568611
6.870897
7.007390
7.050387
7.037731
6.972679
6.891231
6.879511
7.006318
7.243461
7.460758
7.519846
7.359759
6.988751
6.441594
5.768477
5.037367
4.298988
3.538229
2.681751
1.658672
0.463139
-0.823976
-2.067636
-3.149733
-4.016063
-4.651055
-5.050043
-5.228287
-5.229233
-5.136861
-5.071720
-5.131424
-5.308009
-5.486349
-5.559803
-5.502778
-5.309291
-4.939251
-4.355895
-3.570665
-2.623036
-1.549180
-0.408471
0.700842
1.702317
2.605521
3.489999
4.424404
5.411901
6.413888
7.394044
8.325820
9.189934
9.978062
10.680968
11.270090
11.697564
11.920345
11.934559
11.786598
11.538649
11.230437
10.888129
10.544781
10.231289
9.955723
9.690790
9.379490
8.953244
8.361507
7.603474
6.724025
5.792515
4.892396
4.103301
3.474761
2.995463
2.585826
2.141444
1.589270
0.921353
0.194807
-0.498491
-1.067255
-1.453646
-1.650176
-1.683941
-1.593401
-1.417372
-1.187613
-0.930052
-0.678723
-0.485043
-0.406217
-0.473369
-0.665939
-0.923467
-1.178359
-1.364984
-1.412834
-1.262654
-0.897888
-0.359836
0.270740
0.914456
1.508547
1.984607
2.260035
2.262124
1.957652
1.374543
0.606027
-0.211949
-0.940150
-1.473035
-1.757406
-1.803166
-1.692979
-1.559102
-1.533267
-1.711673
-2.136300
-2.793328
-3.630097
-4.567045
-5.515615
-6.408761
-7.200439
-7.831749
-8.225672
-8.330047
-8.153594
-7.757502
-7.224480
-6.638789
-6.075471
-5.580021
-5.161038
-4.812889
-4.528245
-4.279379
-4.005116
-3.635949
-3.133496
-2.498661
-1.744350
-0.883465
0.034740
0.907055
1.629419
2.152460
2.482559
2.659475
2.747592
2.823791
2.949027
3.152895
3.435411
3.772261
4.119745
4.417605
4.606617
4.659705
4.596206
4.473705
4.373541
4.374381
4.512636
4.769012
5.098216
5.464708
5.847543
6.224460
6.573297
6.887071
7.178260
7.476918
7.824801
8.256899
8.777474
9.359375
9.971571
10.589446
11.171858
11.649075
11.947397
12.022033
11.865115
11.505933
11.025337
10.548111
10.191184
10.013538
10.013872
10.170985
10.473758
10.907121
11.423331
11.932781
12.336468
12.588547
12.717579
12.779922
12.809516
12.815471
12.808362
12.809494
12.834126
12.883442
12.960860
13.080376
13.247583
13.429358
13.543115
13.492529
13.220083
12.722229
12.033737
11.224571
10.404156
9.683743
9.119333
8.704641
8.397977
8.136043
7.845731
7.469718
6.983961
6.403027
5.788701
5.237246
4.835881
4.627132
4.600023
4.702457
4.864631
5.018135
5.103777
5.072444
4.890017
4.554751
4.105543
3.595626
3.055953
2.483067
1.854526
1.159001
0.414996
-0.343478
-1.091713
-1.821584
-2.554272
-3.347717
-4.258503
-5.305382
-6.481675
-7.789257
-9.251321
-10.879829
-12.613565
-14.264014
-15.545164
-16.224728
-16.255041
-15.751801
-14.899553
-13.902147
-12.960732
-12.234556
-11.819276
-11.745228
-11.941027
-12.206235
-12.297335
-12.058062
-11.440117
-10.460085
-9.196725
-7.795484
-6.431932
-5.245871
-4.300979
-3.586722
-3.029095
-2.527441
