EVENT_NAME: L_AQUILA
EVENT_ID: IT-2009-0009
EVENT_DATE_YYYYMMDD: 20090406
EVENT_TIME_HHMMSS: 013240
EVENT_LATITUDE_DEGREE: 42.3420
EVENT_LONGITUDE_DEGREE: 13.3800
EVENT_DEPTH_KM: 8.3
HYPOCENTER_REFERENCE: INGV-CNT_Seismic_Bulletin
MAGNITUDE_W: 6.1
MAGNITUDE_W_REFERENCE: INGV-CNT_Seismic_Bulletin
MAGNITUDE_L: 
MAGNITUDE_L_REFERENCE: 
FOCAL_MECHANISM: Normal faulting
NETWORK: IT
STATION_CODE: AQA
STATION_NAME: 
STATION_LATITUDE_DEGREE: 42.375530
STATION_LONGITUDE_DEGREE: 13.339298
STATION_ELEVATION_M: 693
LOCATION: 
SENSOR_DEPTH_M: 0.0
VS30_M/S: 549
SITE_CLASSIFICATION_EC8: B
MORPHOLOGIC_CLASSIFICATION: 
EPICENTRAL_DISTANCE_KM: 5.0
EARTHQUAKE_BACKAZIMUTH_DEGREE: 318.0
DATE_TIME_FIRST_SAMPLE_YYYYMMDD_HHMMSS: 20090406_013227.000
DATE_TIME_FIRST_SAMPLE_PRECISION: seconds
SAMPLING_INTERVAL_S: 0.005000
NDATA: 8000
DURATION_S: 40.000
STREAM: HNE
UNITS: cm/s^2
INSTRUMENT: sensor = FBA-3 [Kinemetrics] | digitizer = Everest [Kinemetrics]
INSTRUMENT_ANALOG/DIGITAL: D
INSTRUMENTAL_FREQUENCY_HZ: 206.000
INSTRUMENTAL_DAMPING: 0.000000
FULL_SCALE_G: 1.0
N_BIT_DIGITAL_CONVERTER: 24
PGA_CM/S^2: 394.744507
TIME_PGA_S: 18.805000
BASELINE_CORRECTION: BASELINE REMOVED
FILTER_TYPE: BUTTERWORTH
FILTER_ORDER: 2
LOW_CUT_FREQUENCY_HZ: 0.100
HIGH_CUT_FREQUENCY_HZ: 40.000
LATE/NORMAL_TRIGGERED: NT
DATABASE_VERSION: 0.5
HEADER_FORMAT: DYNA 1.2
DATA_TYPE: ACCELERATION
PROCESSING: manual (Paolucci et al., 2011)
DATA_TIMESTAMP_YYYYMMDD_HHMMSS: 20211011_155707.655
DATA_LICENSE: CC-BY3_0-IT (http://creativecommons.org/licenses/by/3.0/deed.en)
DATA_CITATION: Luzi L, Pacor F, Puglia R (2019). Italian Accelerometric Archive v 3.0 - Istituto Nazionale di Geofisica e Vulcanologia, Dipartimento della Protezione Civile Nazionale. doi: 10.13127/itaca.3.1
DATA_CREATOR: ITACA working group
ORIGINAL_DATA_MEDIATOR_CITATION: data obtained within the DPC-INGV data exchange agreements
ORIGINAL_DATA_MEDIATOR: Archive of Italian Department of Civil Protection
ORIGINAL_DATA_CREATOR_CITATION: Presidency Of Counsil Of Ministers-Civil Protection Department. (1972). Italian Strong Motion Network. Presidency of Counsil of Ministers - Civil Protection Department. https://doi.org/10.7914/SN/IT http://www.fdsn.org/networks/detail/IT/
ORIGINAL_DATA_CREATOR: network: IT (Italian Strong Motion Network (RAN)); owner: Presidency of Counsil of Ministers - Civil Protection Department (PCM - DPC)
USER1: 
USER2: 
USER3: 
USER4: 
USER5: 
[...]
-0.045048
-0.046858
-0.048540
-0.048514
-0.047902
-0.048046
-0.048276
-0.047397
-0.046039
-0.046059
-0.047941
-0.049898
-0.049911
-0.048199
-0.046522
-0.045844
-0.046255
-0.047932
-0.050222
-0.051284
-0.050361
-0.048838
-0.048174
-0.048162
-0.047894
-0.047638
-0.048573
-0.050333
-0.050871
-0.049800
-0.048902
-0.049019
-0.049469
-0.049938
-0.050664
-0.051084
-0.050250
-0.048696
-0.048136
-0.049312
-0.051243
-0.052554
-0.052777
-0.051993
-0.050322
-0.048554
-0.047896
-0.048999
-0.051579
-0.053975
-0.054346
-0.052712
-0.050541
-0.049439
-0.050065
-0.051197
-0.051383
-0.051484
-0.052856
-0.054226
-0.053882
-0.052553
-0.051451
-0.050523
-0.050145
-0.051485
-0.053998
-0.055344
-0.054518
-0.052895
-0.052182
-0.052767
-0.054003
-0.054612
-0.053597
-0.052257
-0.052612
-0.053878
-0.054227
-0.053891
-0.053738
-0.053689
-0.053765
-0.054299
-0.054867
-0.054754
-0.054130
-0.053613
-0.053508
-0.054127
-0.055630
-0.056896
-0.056396
-0.054742
-0.053930
-0.054455
-0.055150
-0.055092
-0.054691
-0.054716
-0.055025
-0.055245
-0.055658
-0.056421
-0.056739
-0.055873
-0.054605
-0.054451
-0.055481
-0.056336
-0.056372
-0.056240
-0.056612
-0.057297
-0.057558
-0.056978
-0.055622
-0.054113
-0.053797
-0.055557
-0.058357
-0.059993
-0.059362
-0.057399
-0.056143
-0.056740
-0.058096
-0.058508
-0.057699
-0.056429
-0.055819
-0.056769
-0.058731
-0.059737
-0.058725
-0.057356
-0.057479
-0.058010
-0.057567
-0.057144
-0.057524
-0.058003
-0.058552
-0.059888
-0.061273
-0.060698
-0.057913
-0.055491
-0.055865
-0.058394
-0.060219
-0.060004
-0.059282
-0.059289
-0.059390
-0.059186
-0.059155
-0.059307
-0.059041
-0.058612
-0.059245
-0.060583
-0.060569
-0.059164
-0.058671
-0.059902
-0.061310
-0.061353
-0.059905
-0.058280
-0.057888
-0.058978
-0.060855
-0.062202
-0.061964
-0.060441
-0.059006
-0.059004
-0.060582
-0.062327
-0.062512
-0.061211
-0.060106
-0.059725
-0.059474
-0.059666
-0.060747
-0.061836
-0.061993
-0.061760
-0.061683
-0.061030
-0.059720
-0.059195
-0.060254
-0.062029
-0.063475
-0.063971
-0.063015
-0.061017
-0.059554
-0.059841
-0.061313
-0.062488
-0.062994
-0.063270
-0.062927
-0.061462
-0.059918
-0.059971
-0.061600
-0.063245
-0.063968
-0.063797
-0.062969
-0.062058
-0.061653
-0.061823
-0.062151
-0.062217
-0.062241
-0.062585
-0.063056
-0.063195
-0.062694
-0.061887
-0.061687
-0.062596
-0.063963
-0.064352
-0.063029
-0.061332
-0.061597
-0.063722
-0.064752
-0.063510
-0.062405
-0.062926
-0.063542
-0.063277
-0.063027
-0.063233
-0.063019
-0.061919
-0.061597
-0.063472
-0.065465
-0.064785
-0.062157
-0.060579
-0.061545
-0.063844
-0.065472
-0.065775
-0.065140
-0.063831
-0.062370
-0.061737
-0.062449
-0.063978
-0.065119
-0.065100
-0.064225
-0.063133
-0.062112
-0.061689
-0.062666
-0.064934
-0.066894
-0.066776
-0.064632
-0.062095
-0.060684
-0.061075
-0.062832
-0.064838
-0.066060
-0.065811
-0.064394
-0.062968
-0.062441
-0.063086
-0.064376
-0.065086
-0.064655
-0.063853
-0.063259
-0.062845
-0.063088
-0.064086
-0.064821
-0.064871
-0.064733
-0.064241
-0.063277
-0.062772
-0.063030
-0.063502
-0.064158
-0.064934
-0.065209
-0.064746
-0.063971
-0.063351
-0.063168
-0.063434
-0.063744
-0.063642
-0.063097
-0.062805
-0.063538
-0.064738
-0.065168
-0.064487
-0.062975
-0.061660
-0.062449
-0.065362
-0.067288
-0.066017
-0.063362
-0.062140
-0.062302
-0.062499
-0.063113
-0.064543
-0.065300
-0.064714
-0.064132
-0.064119
-0.063665
-0.062404
-0.061346
-0.061322
-0.062472
-0.064624
-0.066349
-0.065470
-0.062271
-0.059961
-0.060616
-0.062869
-0.064487
-0.065076
-0.065302
-0.065115
-0.064145
-0.062560
-0.060490
-0.058444
-0.058392
-0.061558
-0.065475
-0.066662
-0.065408
-0.064118
-0.063001
-0.061249
-0.059921
-0.060367
-0.061781
-0.062587
-0.062829
-0.063180
-0.063038
-0.062083
-0.061591
-0.061873
-0.061455
-0.060297
-0.060281
-0.061625
-0.062315
-0.061661
-0.061286
-0.061876
-0.061836
-0.060869
-0.061097
-0.062348
-0.061976
-0.060141
-0.059554
-0.061135
-0.063066
-0.063082
-0.061076
-0.059116
-0.058823
-0.059990
-0.061376
-0.061704
-0.060957
-0.060498
-0.060788
-0.060866
-0.060333
-0.059381
-0.057866
-0.056576
-0.057493
-0.060726
-0.063185
-0.062361
-0.059553
-0.057574
-0.057193
-0.057677
-0.058864
-0.060190
-0.060155
-0.059001
-0.058541
-0.058894
-0.058626
-0.057504
-0.056856
-0.057283
-0.058163
-0.059106
-0.059507
-0.058355
-0.056367
-0.055799
-0.056940
-0.057777
-0.057628
-0.057603
-0.057896
-0.057546
-0.056399
-0.055430
-0.055279
-0.055655
-0.056035
-0.056226
-0.056187
-0.055958
-0.055858
-0.055817
-0.055237
-0.054419
-0.054524
-0.055259
-0.055060
-0.054178
-0.054231
-0.054717
-0.053906
-0.052884
-0.053979
-0.055703
-0.055023
-0.052917
-0.052364
-0.053359
-0.053862
-0.053602
-0.053422
-0.052545
-0.050513
-0.049745
-0.052023
-0.055001
-0.055365
-0.053175
-0.050881
-0.049727
-0.049335
-0.049785
-0.051341
-0.052393
-0.051526
-0.050705
-0.051460
-0.051814
-0.050703
-0.049641
-0.049224
-0.048825
-0.048909
-0.049847
-0.049846
-0.048043
-0.047132
-0.048973
-0.050897
-0.050062
-0.047812
-0.046337
-0.045357
-0.044867
-0.046088
-0.048116
-0.048408
-0.047064
-0.046550
-0.047237
-0.047082
-0.045664
-0.044667
-0.044315
-0.043363
-0.042563
-0.043693
-0.045651
-0.046021
-0.045174
-0.044710
-0.044100
-0.042606
-0.041608
-0.042082
-0.043030
-0.043531
-0.043575
-0.043055
-0.041668
-0.040021
-0.039611
-0.040839
-0.042344
-0.042886
-0.042363
-0.040860
-0.038472
-0.036387
-0.036404
-0.038727
-0.041696
-0.043547
-0.043235
-0.040497
-0.036475
-0.033644
-0.033465
-0.034734
-0.035961
-0.037335
-0.038919
-0.039385
-0.038060
-0.036524
-0.036290
-0.036435
-0.034457
-0.028308
-0.018886
-0.011522
-0.014587
-0.037809
-0.090347
-0.169436
-0.230668
-0.145938
0.293625
1.241789
2.562901
3.701724
3.835038
2.293755
-0.910806
-4.723223
-7.205583
-6.571232
-2.661934
2.716219
7.082831
8.634514
6.805889
2.235824
-3.571385
-8.382998
-9.867008
-7.102824
-1.221895
5.331126
9.701784
9.690939
5.011753
-2.281933
-8.434483
-9.763733
-5.344113
2.169374
8.662392
10.612133
6.489167
-1.811438
-9.810156
-13.214847
-10.039717
-1.749536
7.373313
12.825301
12.275489
6.528814
-1.212433
-7.384135
-9.913718
-8.934446
-5.870010
-1.866968
2.445347
6.410967
9.012909
8.820591
5.235356
-0.034151
-3.958194
-4.728727
-2.844644
-0.367190
0.546280
-0.702767
-2.916138
-4.535334
-4.346224
-1.559757
3.305241
7.680686
7.816604
2.062104
-6.194836
-10.659347
-7.567690
1.297863
10.170774
13.714241
10.234240
1.849061
-6.648242
-10.185319
-7.346614
-1.830969
1.643941
1.817611
-0.122218
-2.992484
-5.071260
-4.328319
-0.767519
3.377561
6.374825
8.309219
9.093972
7.727932
4.141536
-0.943706
-7.113599
-12.927126
-15.302495
-11.860289
-3.068772
7.553495
14.916025
15.819759
11.046383
2.838291
-7.158974
-16.164131
-19.850464
-15.140947
-3.157801
10.549715
19.955950
22.156631
17.127949
7.324225
-2.869591
-9.762481
-11.972088
-10.399224
-7.789154
-6.407638
-5.629893
-3.116777
2.041392
7.999086
11.615773
11.188484
8.138150
6.023818
6.921307
8.733274
7.790143
4.061641
1.643915
3.680688
8.786041
13.424019
15.717405
15.238660
11.451564
4.862201
-2.140136
-7.266316
-9.793896
-10.264826
-10.087096
-10.164455
-8.983184
-3.511515
7.356217
20.069529
26.841108
20.973581
3.969595
-14.045487
-22.861925
-20.107038
-10.128788
1.502575
10.276493
13.863580
14.753573
18.718086
27.257866
33.514400
28.209436
9.077756
-16.595146
-36.891933
-40.583794
-22.980295
6.534784
27.718031
27.430012
11.935140
-1.209055
-1.408399
6.182854
9.158432
1.745177
-11.108949
-19.753315
-16.951357
-0.745223
25.051825
50.484924
62.575092
53.448784
26.177626
-7.649302
-33.945435
-41.740288
-29.605841
-7.240530
11.872825
18.843660
13.809479
5.309550
1.436726
1.560443
0.372708
-3.086123
-2.983784
8.808789
34.249027
63.639729
81.062592
75.693390
47.563854
5.768248
-35.195450
-59.283981
-56.082092
-27.454424
13.319782
47.698166
59.223305
42.768223
9.977310
-20.151999
-36.853767
-39.690765
-32.714211
-21.885714
-11.749358
-4.066920
0.698972
5.451482
15.858083
32.618168
48.191483
54.196224
49.071800
37.600231
24.383459
8.758557
-8.784824
-17.906242
-8.653143
13.233614
33.311794
44.975815
49.382984
45.092834
28.778187
3.836600
-20.547972
-35.471191
-34.520550
-18.559652
1.988234
15.037844
15.623648
10.100950
13.071317
32.604939
56.486565
60.206589
31.859737
-15.436477
-54.922386
-64.723633
-39.727757
6.216890
47.685791
61.880733
43.447224
9.788021
-10.969727
-4.185382
16.000231
18.908024
-13.063784
-65.771751
-103.308388
-99.194214
-55.118568
7.743157
63.739986
94.127220
94.823990
75.058075
48.706230
26.607771
15.285350
14.487912
16.223438
14.813065
10.299980
3.021419
-4.724482
-11.994498
-25.437456
-48.490681
-69.524117
-71.549446
-48.604622
-3.959827
59.278515
128.229675
171.070068
164.069519
118.419594
61.650661
10.636597
-26.767279
-44.356747
-40.870342
-22.494741
-1.032745
12.153806
17.278275
23.913317
31.675407
24.970663
-6.996288
-52.026794
-84.182434
-87.035767
-61.011185
-16.896852
28.940046
59.359646
66.134506
52.390026
22.475643
-19.380695
-60.767273
-84.051025
-75.960220
-30.585129
48.342396
136.872482
190.097260
171.896057
84.582634
-37.418549
-150.594543
-216.390717
-214.425842
-152.731033
-58.277977
36.299202
100.301590
127.624229
144.319778
165.510010
168.186905
125.855545
40.229164
-59.730141
-125.666275
-115.420670
-33.154133
65.267830
122.441017
131.313889
123.694542
117.757004
99.262291
50.470284
-26.229095
-113.472443
-183.079590
-205.480453
-181.189529
-139.420410
-95.748924
-48.556988
-7.375752
14.665722
20.756531
16.588816
-5.417475
-48.635666
-94.125931
-112.191566
-83.049866
-9.675741
79.160904
143.439606
157.309113
122.470955
61.177818
2.310463
-31.415445
-34.589390
-14.112128
27.375523
84.920273
133.171021
139.416855
90.886841
-0.282501
-106.497261
-195.901291
-249.380890
-269.175232
-263.981323
-232.760101
-174.009689
-107.123978
-65.084221
-61.240131
-83.818909
-119.822235
-161.777908
-199.030014
-219.122238
-211.398026
-168.666595
-98.057762
-23.654827
29.190184
46.076553
31.722883
8.962434
-5.397183
-12.353189
-15.449165
-16.383778
-21.845633
-40.287914
-72.648911
-108.601273
-137.137146
-156.664383
-166.659149
-162.537704
-148.153564
-139.860611
-148.572128
-164.831131
-169.234299
-150.775528
-109.803329
-56.093540
-9.818911
6.920870
-14.625680
-63.261612
-115.919617
-154.505203
-176.485092
-187.528503
-187.116867
-170.159546
-141.193832
-115.082870
-102.586807
-103.347061
-112.840370
-129.290161
-150.677994
-170.660461
-182.336594
-181.624756
-169.102188
-154.426819
-148.766602
-148.926697
-141.448990
-118.364876
-79.497917
-28.513796
26.536066
73.393715
104.446808
123.038628
132.465454
129.637619
112.882080
85.369057
57.655479
45.834854
57.292446
84.117279
110.542938
120.036079
101.173393
53.582268
-10.797964
-69.628113
-100.153709
-95.275391
-61.382038
-4.264958
66.217361
128.924957
166.662415
179.135025
175.424240
165.677856
159.775635
163.686707
177.326477
201.212799
239.370697
287.101288
327.896484
349.821228
348.251251
314.724365
241.178452
136.138275
31.142456
-37.350258
-55.691570
-36.001240
2.183625
44.694492
84.939407
119.805435
145.274277
157.586975
152.859940
126.964127
83.544136
35.541302
-3.400776
-21.720276
-11.187212
25.945274
74.797226
118.940994
153.069199
179.658279
197.006149
198.274323
180.731277
151.496140
125.036079
117.545334
137.176041
174.822723
212.967239
242.236267
259.703644
257.373505
222.308380
148.669601
48.090363
-54.764236
-138.270477
-190.478592
-201.725128
-164.322006
-83.915504
14.881779
97.439911
137.136978
128.028107
83.790749
29.141550
-10.324734
-18.797062
3.274475
44.222687
91.888969
134.613998
158.016937
151.328430
113.080322
48.308090
-32.680752
-115.287750
-186.792923
-240.558151
-276.311615
-299.391663
-315.469849
-325.547241
-329.840820
-329.990143
-323.853546
-307.084045
-276.501190
-223.873260
-137.700546
-19.162136
110.279533
220.110062
289.938751
318.171661
313.496643
283.482269
230.154053
151.295609
48.006023
-69.063385
-183.087448
-275.050110
-325.164581
-322.647888
-275.484161
-203.941895
-127.954521
-63.304905
-21.292791
-2.295526
7.336522
21.147804
39.386185
55.637619
65.328476
68.539749
75.378883
100.264320
144.754852
192.937881
220.843277
210.705093
165.908600
103.066933
26.250792
-69.473312
-174.032074
-263.573669
-321.504364
-349.618927
-357.971405
-350.022278
-326.075073
-293.787415
-263.396576
-233.275696
-188.492142
-121.035225
-46.670792
10.048923
41.705322
57.005150
66.045753
76.821472
94.097786
117.856720
147.642853
184.886520
229.603455
278.099823
324.651184
363.863464
389.837860
394.744507
371.162872
316.010223
234.215515
139.625931
48.974674
-23.780317
-68.045853
-78.544556
-56.590244
-9.848730
44.748257
85.247093
100.127258
93.452934
73.626495
45.357708
9.739540
-33.881920
-83.335098
-130.657990
-167.381699
-191.693100
-205.795105
-207.855057
-193.163208
-162.856262
-126.421761
-93.354889
-62.423393
-22.446701
31.569143
85.068047
114.435860
109.932808
79.096817
32.697388
-18.493530
-61.276031
-88.765610
-104.295479
-112.173882
-112.298050
-103.511154
-88.332199
-75.384201
-75.026367
-88.834572
-107.431641
-119.659279
-117.114212
-94.305771
-52.496498
1.026040
59.153103
117.738701
174.126831
223.184662
256.977539
270.633057
264.311676
240.801758
204.946533
161.522461
112.593918
58.906158
1.759281
-55.735798
-103.887894
-125.100166
-105.960915
-50.283730
23.531759
93.843040
143.072479
161.738892
153.363312
131.959778
105.212601
65.237045
6.954748
-53.191341
-89.496269
-92.107681
-73.988045
-57.133446
-54.768700
-66.296104
-85.457024
-108.810417
-136.710861
-167.624329
-190.786377
-190.124771
-161.517700
-119.777954
-86.664207
-74.099396
-73.315353
-61.202534
-20.544130
45.221104
112.854248
155.599442
161.284866
136.692627
98.280472
57.409039
18.540907
-8.334721
-12.071613
4.264436
28.493193
49.694546
57.508137
46.198231
20.123344
-12.854301
-47.952969
-80.772736
-104.639732
-114.157547
-111.133354
-103.674332
-99.621819
-102.353279
-107.533592
-107.135948
-101.902733
-100.419647
-103.641037
-100.757935
-81.649727
-46.194653
-2.519534
37.535622
65.586601
83.714203
97.828651
107.348991
112.597961
122.250313
139.054031
149.407318
138.791245
110.487907
81.815338
65.925514
61.968719
57.704231
42.369331
20.387997
3.315355
-6.678981
-14.693275
-24.581818
-36.549519
-48.795582
-61.181011
-72.816277
-79.537720
-80.245644
-77.567444
-69.459091
-50.639126
-20.570135
18.989195
66.614403
116.807861
162.741074
200.673691
225.981812
230.904144
209.601517
165.685699
110.579483
54.020000
4.005296
-30.633671
-43.295361
-29.945572
6.740789
54.217834
98.754463
129.052826
134.461121
112.431343
71.437119
22.315084
-27.031410
-70.343857
-99.117981
-101.672791
-73.227959
-25.215528
22.495296
53.555691
58.184719
36.209049
-2.245655
-45.703308
-87.060616
-120.233925
-137.287552
-129.947342
-97.426414
-52.720509
-11.940486
20.100130
46.399181
66.367203
73.378204
62.274200
37.798409
12.871211
-1.262972
-0.738051
11.842408
29.326078
43.507950
51.394039
55.770229
57.239582
51.884274
38.883812
21.883995
1.443100
-25.467543
-57.389324
-85.422104
-98.885605
-91.020210
-60.122501
-10.975146
41.392513
75.460838
78.116249
54.982906
22.711348
-8.460752
-39.871536
-72.904228
-101.598244
-115.735146
-105.265549
-68.328117
-18.543318
20.830490
32.807781
17.463223
-12.023932
-41.082130
-61.363232
-72.490562
-80.700050
-93.471077
-110.642776
-123.242661
-125.800705
-124.077217
-123.433174
-117.821930
-100.868805
-76.889320
-50.553013
-19.996103
11.400729
30.203072
25.683636
-2.010573
-44.958668
-89.178604
-117.688835
-120.407814
-100.249031
-67.074295
-28.184645
11.001756
40.822117
52.051109
46.279179
33.621246
22.820156
18.457199
22.161427
33.676945
51.067024
67.281837
71.256905
57.215382
29.508215
-2.784517
-34.116226
-64.327110
-92.443459
-112.533707
-118.853554
-111.829674
-96.297371
-77.227287
-56.612202
-31.205589
2.022353
37.204655
63.294785
74.150635
68.290169
43.478588
-0.523087
-54.940002
-104.107971
-136.557938
-149.269272
-141.072098
-108.704079
-50.753727
26.212860
105.457504
167.186417
200.346329
206.613266
195.761765
179.538467
166.274811
158.499557
154.342758
151.112564
149.647064
154.234512
167.132858
184.244736
195.479538
188.082367
152.368958
90.098717
16.835590
-47.843288
-91.238144
-110.668449
-110.090645
-92.163872
-57.228996
-14.776472
15.237734
20.932491
8.033647
-14.367652
-47.103207
-93.500168
-147.852890
-197.125916
-226.135437
-225.472687
-201.329529
-167.231949
-128.294876
-82.391029
-30.055260
21.120523
61.373127
87.247086
100.689270
101.307472
86.126572
54.568043
9.548262
-40.837624
-79.771667
-85.807755
-47.060295
26.873842
109.072899
171.542145
199.431381
194.238693
163.855637
111.437317
39.602272
-37.185139
-95.358742
-119.496887
-109.509857
-72.835587
-21.637796
23.713596
46.739147
52.348629
54.303410
49.698303
27.443832
-5.973972
-32.041756
-44.345901
-50.100494
-55.638222
-61.994690
-67.632683
-67.010971
-52.063354
-23.782948
2.209085
9.611995
-4.627688
-32.659698
-61.990463
-79.696297
-79.642097
-68.027405
-59.056759
-60.230808
-64.046829
-59.515846
-44.343761
-21.833500
5.436491
34.517731
57.090527
62.657219
50.004467
28.349972
5.653985
-16.583178
-36.984547
-52.655048
-63.677834
-69.680008
-67.037308
-56.949509
-47.228897
-42.763710
-42.161442
-42.461121
-42.205364
-40.546883
-34.101704
-18.865852
3.252558
25.668631
42.777912
51.667435
54.427719
56.867271
61.980297
70.760124
84.251358
97.572693
101.018723
90.017662
67.466866
38.157070
4.838592
-29.604387
-58.909546
-76.968086
-82.883804
-81.063072
-78.072838
-78.604752
-84.413963
-92.946251
-93.169762
-71.439125
-25.337816
33.774837
89.644821
129.516083
147.131714
142.198608
120.033279
90.413376
66.257866
61.170635
80.444122
113.972511
142.811951
154.035690
148.712433
132.820358
106.842964
72.951515
39.878105
12.602110
-9.421499
-24.703077
-32.520802
-38.137917
-48.626637
-66.050621
-84.362732
-93.995193
