EVENT_NAME: L_AQUILA
EVENT_ID: IT-2009-0009
EVENT_DATE_YYYYMMDD: 20090406
EVENT_TIME_HHMMSS: 013240
EVENT_LATITUDE_DEGREE: 42.3420
EVENT_LONGITUDE_DEGREE: 13.3800
EVENT_DEPTH_KM: 8.3
HYPOCENTER_REFERENCE: INGV-CNT_Seismic_Bulletin
MAGNITUDE_W: 6.1
MAGNITUDE_W_REFERENCE: INGV-CNT_Seismic_Bulletin
MAGNITUDE_L: 
MAGNITUDE_L_REFERENCE: 
FOCAL_MECHANISM: Normal faulting
NETWORK: IT
STATION_CODE: AQA
STATION_NAME: 
STATION_LATITUDE_DEGREE: 42.375530
STATION_LONGITUDE_DEGREE: 13.339298
STATION_ELEVATION_M: 693
LOCATION: 
SENSOR_DEPTH_M: 0.0
VS30_M/S: 549
SITE_CLASSIFICATION_EC8: B
MORPHOLOGIC_CLASSIFICATION: 
EPICENTRAL_DISTANCE_KM: 5.0
EARTHQUAKE_BACKAZIMUTH_DEGREE: 318.0
DATE_TIME_FIRST_SAMPLE_YYYYMMDD_HHMMSS: 20090406_013227.000
DATE_TIME_FIRST_SAMPLE_PRECISION: seconds
SAMPLING_INTERVAL_S: 0.005000
NDATA: 8000
DURATION_S: 40.000
STREAM: HNZ
UNITS: cm/s^2
INSTRUMENT: sensor = FBA-3 [Kinemetrics] | digitizer = Everest [Kinemetrics]
INSTRUMENT_ANALOG/DIGITAL: D
INSTRUMENTAL_FREQUENCY_HZ: 210.000
INSTRUMENTAL_DAMPING: 0.000000
FULL_SCALE_G: 1.0
N_BIT_DIGITAL_CONVERTER: 24
PGA_CM/S^2: 435.393677
TIME_PGA_S: 17.255000
BASELINE_CORRECTION: BASELINE REMOVED
FILTER_TYPE: BUTTERWORTH
FILTER_ORDER: 2
LOW_CUT_FREQUENCY_HZ: 0.100
HIGH_CUT_FREQUENCY_HZ: 40.000
LATE/NORMAL_TRIGGERED: NT
DATABASE_VERSION: 0.5
HEADER_FORMAT: DYNA 1.2
DATA_TYPE: ACCELERATION
PROCESSING: manual (Paolucci et al., 2011)
DATA_TIMESTAMP_YYYYMMDD_HHMMSS: 20211011_155709.368
DATA_LICENSE: CC-BY3_0-IT (http://creativecommons.org/licenses/by/3.0/deed.en)
DATA_CITATION: Luzi L, Pacor F, Puglia R (2019). Italian Accelerometric Archive v 3.0 - Istituto Nazionale di Geofisica e Vulcanologia, Dipartimento della Protezione Civile Nazionale. doi: 10.13127/itaca.3.1
DATA_CREATOR: ITACA working group
ORIGINAL_DATA_MEDIATOR_CITATION: data obtained within the DPC-INGV data exchange agreements
ORIGINAL_DATA_MEDIATOR: Archive of Italian Department of Civil Protection
ORIGINAL_DATA_CREATOR_CITATION: Presidency Of Counsil Of Ministers-Civil Protection Department. (1972). Italian Strong Motion Network. Presidency of Counsil of Ministers - Civil Protection Department. https://doi.org/10.7914/SN/IT http://www.fdsn.org/networks/detail/IT/
ORIGINAL_DATA_CREATOR: network: IT (Italian Strong Motion Network (RAN)); owner: Presidency of Counsil of Ministers - Civil Protection Department (PCM - DPC)
USER1: 
USER2: 
USER3: 
USER4: 
USER5: 
[...]
0.007073
0.006453
0.005843
0.005801
0.006558
0.007713
0.008296
0.008156
0.007859
0.007367
0.006760
0.006669
0.007018
0.007427
0.008075
0.008922
0.009480
0.009274
0.008229
0.007198
0.007233
0.008154
0.009040
0.009379
0.009118
0.008623
0.008441
0.008769
0.009415
0.009967
0.010073
0.009771
0.009497
0.009667
0.009874
0.009483
0.009158
0.009717
0.010575
0.011148
0.011397
0.010914
0.009932
0.009673
0.010273
0.010705
0.010816
0.010978
0.011014
0.011152
0.011890
0.012753
0.012751
0.011444
0.009876
0.009945
0.011729
0.013145
0.012928
0.012091
0.011917
0.012281
0.012513
0.012479
0.012612
0.013172
0.013681
0.013504
0.012636
0.011762
0.011739
0.012779
0.014079
0.014715
0.014720
0.014629
0.014514
0.014025
0.013000
0.012231
0.012937
0.014738
0.016004
0.016248
0.015766
0.014376
0.012830
0.013021
0.015124
0.017031
0.017134
0.016044
0.015241
0.015084
0.015093
0.015027
0.015194
0.016255
0.017774
0.018099
0.016770
0.015191
0.014719
0.015604
0.017262
0.018396
0.018137
0.017234
0.016708
0.016787
0.017308
0.017751
0.017778
0.017755
0.018073
0.018494
0.018605
0.018321
0.017854
0.017903
0.018868
0.019865
0.020019
0.019709
0.019462
0.019112
0.018722
0.018872
0.019818
0.021082
0.021657
0.021071
0.019935
0.019032
0.018822
0.019612
0.021191
0.022441
0.022321
0.021129
0.020073
0.020058
0.020868
0.021572
0.022059
0.023058
0.024209
0.023877
0.021971
0.020612
0.020905
0.021942
0.022979
0.023898
0.024375
0.024273
0.023872
0.023509
0.023439
0.023439
0.023313
0.023720
0.024786
0.025422
0.025207
0.024622
0.023886
0.023641
0.024727
0.026393
0.027201
0.026818
0.025688
0.024698
0.024802
0.025903
0.026912
0.027022
0.026480
0.026206
0.026756
0.027726
0.028148
0.027382
0.025993
0.025705
0.027147
0.028603
0.028850
0.028518
0.028027
0.027491
0.027374
0.027835
0.028829
0.029950
0.030278
0.029638
0.028938
0.028802
0.029091
0.029719
0.030567
0.030964
0.030613
0.030282
0.030506
0.030622
0.030329
0.030401
0.030983
0.031536
0.031849
0.031728
0.031384
0.031607
0.032314
0.032658
0.032504
0.032088
0.031733
0.032374
0.033905
0.034564
0.033673
0.032542
0.032474
0.033316
0.034119
0.034526
0.034575
0.034279
0.034062
0.034376
0.035004
0.035439
0.035533
0.035469
0.035417
0.035435
0.035632
0.036193
0.036864
0.036850
0.036164
0.035911
0.036499
0.037312
0.037704
0.037425
0.037210
0.037946
0.038757
0.038224
0.037183
0.037537
0.038936
0.039394
0.038612
0.038202
0.039063
0.040306
0.040628
0.039835
0.039004
0.039390
0.040929
0.042110
0.041671
0.040064
0.039140
0.040128
0.042080
0.043056
0.042254
0.040684
0.040083
0.040948
0.042458
0.043794
0.044318
0.043884
0.043003
0.042199
0.041927
0.042473
0.043748
0.045187
0.045822
0.045227
0.044130
0.043674
0.044284
0.045261
0.045627
0.045453
0.045428
0.045656
0.046269
0.047319
0.047660
0.046478
0.045121
0.045333
0.046877
0.048205
0.048223
0.047433
0.047543
0.048607
0.048773
0.047936
0.047993
0.049502
0.050861
0.050577
0.049053
0.047936
0.048394
0.050098
0.051444
0.051264
0.050201
0.049865
0.050661
0.051210
0.050669
0.050120
0.050881
0.052680
0.053668
0.052758
0.051559
0.051730
0.052446
0.052701
0.053008
0.053669
0.054156
0.054338
0.054424
0.054176
0.053478
0.053026
0.053737
0.055589
0.057232
0.057200
0.055597
0.054188
0.054363
0.055633
0.056830
0.057450
0.057602
0.057588
0.057452
0.057153
0.056974
0.057229
0.057783
0.058287
0.058896
0.059724
0.060063
0.059515
0.058758
0.058526
0.059033
0.060240
0.061467
0.061529
0.060564
0.060043
0.060335
0.060717
0.061305
0.062541
0.063573
0.063206
0.061994
0.061539
0.062249
0.063369
0.064195
0.064233
0.063458
0.062916
0.063440
0.064290
0.064707
0.064938
0.065155
0.065334
0.065570
0.065787
0.065807
0.065730
0.065839
0.066188
0.066608
0.066799
0.066790
0.067178
0.068104
0.068847
0.068792
0.068102
0.067354
0.067105
0.068043
0.069880
0.070761
0.069987
0.069385
0.070205
0.070976
0.070192
0.068940
0.069154
0.070979
0.072708
0.072891
0.071958
0.071361
0.071866
0.072741
0.072671
0.071902
0.072130
0.073658
0.074690
0.074126
0.073050
0.073176
0.074867
0.076453
0.076050
0.074063
0.072897
0.074147
0.076599
0.077728
0.076678
0.075121
0.075387
0.077694
0.079521
0.078583
0.076274
0.075952
0.077947
0.079513
0.079200
0.078387
0.078723
0.079877
0.080261
0.079622
0.079474
0.080323
0.081231
0.081824
0.081983
0.081381
0.080437
0.080264
0.081558
0.083460
0.084082
0.082988
0.081787
0.081746
0.082637
0.083803
0.084707
0.084938
0.084654
0.084735
0.085751
0.086586
0.085513
0.083372
0.083281
0.086093
0.088900
0.089136
0.087506
0.086069
0.085870
0.086708
0.087693
0.088254
0.088613
0.089033
0.089315
0.089214
0.089061
0.089368
0.089820
0.089930
0.090161
0.090769
0.091085
0.091185
0.091766
0.092177
0.091625
0.091095
0.091620
0.092636
0.093242
0.093426
0.093634
0.093977
0.094154
0.093889
0.093458
0.093665
0.094992
0.096650
0.096980
0.095507
0.093917
0.094142
0.096179
0.098068
0.098157
0.097283
0.097164
0.097681
0.097878
0.097634
0.097376
0.097574
0.098320
0.099244
0.100062
0.100614
0.100619
0.100261
0.100011
0.099640
0.099314
0.100220
0.102321
0.103778
0.103313
0.101709
0.100649
0.100842
0.101997
0.103625
0.104978
0.105180
0.104233
0.103190
0.102908
0.103419
0.104488
0.105712
0.106320
0.106042
0.105638
0.105773
0.106389
0.106934
0.106907
0.106806
0.107201
0.107626
0.107760
0.107905
0.108292
0.108777
0.109011
0.108936
0.108924
0.109441
0.110143
0.110149
0.109844
0.110340
0.111223
0.111350
0.111293
0.112102
0.112864
0.112425
0.111536
0.111544
0.112571
0.113870
0.114781
0.114700
0.113833
0.113391
0.113873
0.114763
0.115602
0.116208
0.116265
0.115620
0.115102
0.115617
0.116687
0.117373
0.117765
0.118274
0.118341
0.117412
0.116582
0.117362
0.119191
0.120137
0.119641
0.118918
0.119141
0.120098
0.120647
0.120393
0.120270
0.120927
0.121639
0.121693
0.121535
0.121753
0.122039
0.121871
0.121766
0.122848
0.124843
0.125694
0.124319
0.122505
0.122370
0.123783
0.125304
0.125611
0.124752
0.124709
0.126553
0.128091
0.127003
0.124680
0.124189
0.126182
0.128660
0.129412
0.128279
0.126890
0.126647
0.127783
0.129172
0.129606
0.129374
0.129250
0.129400
0.129752
0.130090
0.130154
0.130410
0.131585
0.132818
0.132236
0.130020
0.129138
0.131450
0.134590
0.134934
0.132426
0.130801
0.132443
0.135054
0.135476
0.133986
0.133341
0.134821
0.136335
0.135704
0.134135
0.134124
0.135617
0.136717
0.136704
0.136434
0.136879
0.137999
0.138744
0.138104
0.136339
0.135384
0.136731
0.139236
0.140897
0.141262
0.140623
0.139128
0.137642
0.137691
0.139719
0.142144
0.143154
0.142701
0.141633
0.140517
0.139905
0.140414
0.142037
0.143620
0.144019
0.143379
0.142647
0.142675
0.143374
0.143804
0.143768
0.144132
0.145044
0.145551
0.145411
0.145226
0.145085
0.145040
0.145672
0.146822
0.147391
0.147126
0.146801
0.146658
0.146557
0.146774
0.147416
0.148124
0.148596
0.148895
0.149144
0.149132
0.148730
0.148499
0.148986
0.149850
0.150658
0.151189
0.150982
0.150430
0.150673
0.151452
0.151433
0.150566
0.150312
0.151469
0.152949
0.153483
0.153272
0.152851
0.152416
0.152672
0.153704
0.154286
0.153884
0.153528
0.154120
0.154932
0.155046
0.154999
0.155120
0.154909
0.154892
0.155969
0.157264
0.157164
0.155903
0.155275
0.156290
0.158190
0.159472
0.159134
0.157444
0.156076
0.156401
0.157724
0.158389
0.158192
0.158613
0.160140
0.161128
0.160509
0.159235
0.158586
0.158843
0.159593
0.160426
0.160912
0.160824
0.160877
0.161635
0.162094
0.161301
0.160363
0.160928
0.162642
0.163792
0.163524
0.162340
0.161396
0.161625
0.162842
0.164002
0.164641
0.165174
0.165491
0.164628
0.162692
0.161735
0.163216
0.165882
0.167371
0.166883
0.165600
0.164661
0.164211
0.164570
0.165794
0.166741
0.166529
0.165721
0.165259
0.165576
0.166889
0.168690
0.169426
0.168177
0.166286
0.166090
0.167591
0.168482
0.168128
0.168148
0.168823
0.168864
0.168367
0.168517
0.169255
0.169503
0.169043
0.168717
0.168859
0.169223
0.169946
0.170968
0.171541
0.171079
0.170149
0.169754
0.169897
0.170340
0.171319
0.172517
0.173089
0.172497
0.170859
0.169306
0.169728
0.172530
0.175214
0.175045
0.172237
0.169675
0.169909
0.172475
0.174913
0.175679
0.174770
0.172893
0.171498
0.171945
0.173496
0.174294
0.174076
0.173712
0.173626
0.173790
0.174150
0.174761
0.175175
0.174589
0.173543
0.173497
0.174422
0.175186
0.175401
0.175293
0.175306
0.175630
0.175581
0.174771
0.173999
0.174246
0.175695
0.177246
0.177212
0.175860
0.175335
0.175855
0.175940
0.175661
0.175709
0.176015
0.176671
0.177474
0.177553
0.176861
0.176344
0.176479
0.176969
0.177372
0.177463
0.177254
0.176670
0.175947
0.176077
0.177250
0.178013
0.177637
0.177257
0.177648
0.178176
0.177921
0.176825
0.175990
0.176408
0.177943
0.179641
0.180010
0.178264
0.175873
0.175098
0.176156
0.177470
0.178265
0.179026
0.179683
0.179228
0.177365
0.175553
0.175561
0.177273
0.179140
0.179927
0.179222
0.177660
0.176635
0.176922
0.177572
0.177209
0.176806
0.178228
0.180222
0.179909
0.177214
0.174812
0.174766
0.176928
0.179602
0.180684
0.179315
0.176852
0.175499
0.176127
0.177784
0.178901
0.177256
0.168837
0.150173
0.125656
0.112196
0.126374
0.158420
0.166466
0.085828
-0.205486
-0.941821
-2.411184
-4.649168
-6.910360
-7.482759
-4.670615
1.497198
8.646073
13.222054
12.298757
5.250253
-4.969282
-12.711250
-13.913819
-9.771718
-4.380067
0.606871
6.145133
11.348016
12.597640
7.761118
-0.884685
-8.152100
-9.647614
-5.028644
1.996546
7.155359
7.718085
2.183624
-7.544170
-14.165947
-10.988051
0.109342
11.290998
17.007345
15.483173
6.793504
-5.576964
-14.599008
-14.492119
-4.997963
8.475569
17.876621
17.587158
8.627473
-2.066102
-7.524924
-6.272548
-1.892981
0.775907
-1.198880
-5.576062
-5.445101
2.510197
11.423225
11.151766
1.545495
-7.117585
-7.423507
-2.168860
2.480015
4.503684
4.477061
2.340693
-1.389975
-4.765770
-5.770915
-2.563326
5.575172
14.187324
13.676803
-0.611091
-19.843279
-28.747362
-19.520069
3.371887
26.107937
32.497108
17.000675
-7.446213
-20.567312
-14.506064
0.445700
8.785008
4.856030
-5.073910
-11.878689
-12.017843
-8.160506
-4.473844
-3.020768
-3.321691
-2.982318
0.522869
6.794674
12.240389
13.510655
9.896975
3.580047
-1.063637
-1.217434
0.207794
-2.021531
-7.261784
-9.328127
-5.689073
-0.567271
1.437899
-0.061135
-2.651783
-3.807360
-2.301148
1.297894
4.744735
4.865441
0.103336
-5.840873
-5.994797
0.936651
7.783130
8.548709
5.242177
1.635476
-2.985867
-9.301619
-12.882139
-9.558554
-3.996459
-6.549768
-19.129551
-29.231207
-23.271509
-4.410196
8.933307
4.224355
-11.679511
-22.696625
-21.046574
-12.635988
-8.854916
-14.631204
-24.332365
-27.499811
-16.478359
8.040364
34.455544
46.053555
33.931103
4.517427
-25.093550
-38.157207
-27.188663
2.821194
35.733646
50.888035
37.805874
8.450156
-12.762397
-14.472061
-6.649652
-4.301517
-13.985686
-35.255795
-60.136799
-68.067619
-38.866589
19.326591
68.116005
73.771431
36.808945
-10.941679
-29.378668
-0.788869
47.601124
61.803715
17.446676
-48.927849
-74.953423
-33.750896
41.526943
89.914497
79.344124
29.708136
-17.210352
-37.712742
-35.629436
-25.121391
-11.043218
9.475200
27.834900
24.595167
-4.453313
-39.202663
-55.344540
-43.484150
-12.430069
17.784056
28.242355
14.008606
-8.285798
-11.751156
7.244917
16.370625
-13.640133
-69.302841
-108.670258
-104.216331
-59.429482
8.118621
78.522552
121.908775
106.995499
36.808720
-38.464924
-64.711784
-38.911827
-8.038328
-11.028943
-36.130695
-43.597652
-17.351318
17.115961
25.218906
8.173320
2.682208
32.439312
73.433914
75.108978
16.243067
-62.544838
-92.372528
-48.142330
21.813084
48.964024
20.076488
-20.206573
-34.734688
-30.504330
-28.435034
-26.264139
-8.495224
18.693663
26.252186
3.096951
-22.730846
-19.589258
9.744064
40.196335
55.087666
53.118378
44.814789
49.310658
68.619705
62.435181
-15.195345
-143.503876
-223.794586
-159.349075
40.944183
242.365356
297.549713
184.487564
10.937922
-100.195656
-99.866364
-14.008385
87.058167
114.990707
21.595364
-134.792053
-219.198395
-145.184250
33.325119
160.040833
126.603233
-14.301198
-115.133415
-95.448433
-2.593475
66.199844
66.689903
34.641026
24.311863
38.631332
38.564152
6.250521
-30.579855
-41.570419
-41.263241
-64.076431
-99.057541
-92.834190
-20.444460
79.448174
144.338379
139.278122
62.784843
-65.388435
-195.451370
-250.386215
-179.714569
-23.684147
99.893547
105.408394
27.056000
-33.465824
-25.375320
21.133547
55.166203
47.821346
-7.064347
-81.632927
-108.824028
-35.718559
111.019661
238.713303
269.750885
197.740662
77.729851
-18.745819
-48.432011
-24.096001
-0.951494
-12.245388
-25.780817
11.544589
101.188850
181.647003
178.399933
61.468391
-129.214005
-300.022186
-350.842865
-228.398193
32.866081
305.255249
435.393677
355.373749
133.517670
-87.245338
-200.920135
-194.234833
-120.385887
-52.405079
-49.420506
-116.829597
-181.813370
-144.457596
14.380871
184.644287
215.944550
70.986870
-126.878281
-217.748840
-156.964874
-31.739534
37.619160
-3.589883
-111.072968
-181.606339
-139.882874
-14.215956
80.532974
62.889038
-30.971518
-102.599327
-101.014809
-58.021729
-34.645855
-57.768738
-105.334854
-127.905754
-81.182770
39.581490
181.746368
259.920715
213.083359
47.904747
-158.516388
-296.374695
-285.285797
-127.829643
78.967247
204.732620
191.151352
92.823219
3.613909
-43.050968
-82.274834
-138.093628
-177.343796
-153.899078
-67.150337
33.243999
83.910080
56.393738
-16.977375
-73.675690
-78.047165
-46.849876
-27.328627
-50.333984
-102.080780
-139.616379
-132.500458
-89.462944
-38.788727
7.091712
49.651268
82.909233
95.020531
80.846603
44.467533
-1.291591
-36.723305
-44.929630
-23.217529
12.611704
37.012234
37.372730
27.911530
32.529358
53.514561
63.881516
38.591553
-12.302376
-53.753590
-60.729183
-33.023682
14.308676
65.383781
112.668549
149.054184
149.657150
87.889084
-21.087254
-120.784737
-160.478058
-124.568085
-30.741463
77.081322
145.559052
147.516571
106.326584
73.312744
77.457375
105.978523
127.854774
121.532547
87.538452
48.352303
32.779713
51.541084
86.200905
105.209534
92.610580
57.681992
19.818300
-2.546650
6.524455
49.204105
102.306435
127.866730
105.075241
53.218178
12.951200
4.209275
10.361957
1.697705
-28.964882
-53.681934
-38.084484
15.165816
61.905075
59.706257
8.918441
-50.031834
-72.404381
-40.933086
25.322889
83.223816
92.761871
43.784519
-40.916065
-127.292610
-191.044556
-224.379196
-231.070740
-210.773895
-152.463623
-57.834206
37.750996
89.427734
86.001869
57.787125
41.745247
40.813992
25.781151
-17.284878
-58.403217
-54.712715
-0.578925
62.479603
84.805344
53.201279
-1.963206
-37.409157
-30.623285
14.404122
80.137695
139.806625
158.578583
112.893250
17.373072
-73.821175
-101.222229
-45.283482
54.419292
127.414055
124.790657
50.294456
-49.850513
-124.846924
-148.947433
-122.317413
-60.203861
13.268626
71.878151
98.905792
91.954849
55.250820
-5.708355
-78.979263
-143.354660
-177.986603
-177.071182
-156.439865
-141.432816
-141.955658
-142.525009
-120.341736
-72.199341
-21.549755
4.978986
5.950697
4.913867
25.147617
68.513702
115.208076
140.278671
132.398819
98.955818
55.532974
15.386976
-13.306115
-28.585102
-33.303547
-27.972092
-7.427526
30.338709
73.449394
100.167564
96.150490
66.927010
33.797485
17.800970
26.859621
54.515484
85.293526
103.180641
100.485657
79.418228
46.827023
10.862080
-18.633560
-33.414993
-33.126350
-24.334143
-12.977174
1.004407
20.770058
43.274124
57.650398
56.038216
43.841724
35.942265
38.399906
38.934860
23.660038
-2.558977
-19.033541
-8.306324
28.958023
70.768227
85.280685
55.953438
-1.962420
-54.289810
-74.250526
-57.321617
-22.274479
1.592304
-0.265580
-13.957520
-16.448204
-6.603558
-5.511906
-26.749702
-59.807983
-82.682533
-83.182922
-70.473351
-66.636139
-83.212128
-104.770920
-99.063744
-50.035725
21.945055
78.659554
97.932854
85.391266
60.966938
42.623775
36.236000
30.523851
8.111876
-30.258848
-58.561615
-51.111694
-13.966083
17.645901
16.722244
-5.734709
-13.263237
17.705702
75.723450
124.760391
132.501602
90.776909
16.775091
-57.890839
-104.395569
-112.265358
-91.409012
-59.108292
-26.115601
4.393663
31.099537
52.428268
68.819366
85.577423
107.497375
128.007843
132.300079
117.092102
99.413795
96.061974
100.789986
94.501282
73.324860
52.399811
42.042053
33.755135
13.859296
-20.780125
-64.019157
-105.156631
-128.946945
-123.098763
-93.400116
-64.834389
-60.491108
-81.463974
-108.450905
-119.143143
-104.137802
-68.030502
-20.416775
25.644531
51.234577
41.537819
0.840938
-47.006538
-74.014961
-66.892982
-37.897312
-16.011133
-19.983627
-39.209728
-43.140949
-10.733819
47.938766
100.248169
119.758377
103.822044
67.873856
28.642796
-7.181250
-38.725292
-61.041378
-68.060760
-62.249210
-54.384682
-52.554447
-50.161400
-30.646416
9.696180
49.607925
59.177994
28.878033
-20.929878
-64.409821
-99.031738
-140.234344
-187.402863
-206.505692
-156.569092
-31.851440
122.989273
237.557953
263.931641
210.652832
130.981918
74.510094
47.959499
24.375662
-17.526846
-72.955666
-120.342773
-140.203293
-128.212540
-95.309097
-57.113853
-26.113052
-12.367035
-19.265581
-33.626320
-33.053940
-9.975983
21.485863
42.801750
43.071259
17.978924
-28.410824
-75.998642
-92.460114
-58.721802
9.058562
68.371758
83.005554
48.054321
-13.226788
-67.601021
-92.445824
-91.137451
-83.916336
-80.964211
-69.184769
-30.725719
22.785025
49.145889
23.222654
-28.599501
-57.118206
-41.255127
-1.095490
30.740492
39.205891
24.878670
-8.252730
-48.326443
-74.773354
-70.827469
-34.567375
18.204418
61.667458
74.014412
50.293846
7.597396
-25.306223
-29.116259
-10.069879
4.416091
-7.592795
-39.929836
-65.275444
-61.215118
-28.080439
12.602397
35.154026
32.755669
23.841669
30.939562
57.528137
86.668671
99.297211
91.801514
73.522804
55.705723
46.615810
48.346611
56.044937
61.125050
56.913692
44.124939
29.465216
17.971169
7.224847
-8.299929
-25.757620
-32.345745
-18.637880
8.497533
27.077463
18.578602
-10.118485
-30.244228
-19.726805
16.789743
54.154369
69.569954
58.281399
28.612928
-9.621251
-47.920364
-73.953735
-72.950462
-42.102406
3.141487
43.250057
70.707008
89.398178
101.696098
