EVENT_NAME: L_AQUILA
EVENT_ID: IT-2009-0009
EVENT_DATE_YYYYMMDD: 20090406
EVENT_TIME_HHMMSS: 013240
EVENT_LATITUDE_DEGREE: 42.3420
EVENT_LONGITUDE_DEGREE: 13.3800
EVENT_DEPTH_KM: 8.3
HYPOCENTER_REFERENCE: INGV-CNT_Seismic_Bulletin
MAGNITUDE_W: 6.1
MAGNITUDE_W_REFERENCE: INGV-CNT_Seismic_Bulletin
MAGNITUDE_L: 
MAGNITUDE_L_REFERENCE: 
FOCAL_MECHANISM: Normal faulting
NETWORK: IT
STATION_CODE: AQA
STATION_NAME: 
STATION_LATITUDE_DEGREE: 42.375530
STATION_LONGITUDE_DEGREE: 13.339298
STATION_ELEVATION_M: 693
LOCATION: 
SENSOR_DEPTH_M: 0.0
VS30_M/S: 549
SITE_CLASSIFICATION_EC8: B
MORPHOLOGIC_CLASSIFICATION: 
EPICENTRAL_DISTANCE_KM: 5.0
EARTHQUAKE_BACKAZIMUTH_DEGREE: 318.0
DATE_TIME_FIRST_SAMPLE_YYYYMMDD_HHMMSS: 
DATE_TIME_FIRST_SAMPLE_PRECISION: 
SAMPLING_INTERVAL_S: 
NDATA: 105
DURATION_S: 
STREAM: HNN
UNITS: cm/s^2
INSTRUMENT: sensor = FBA-3 [Kinemetrics] | digitizer = Everest [Kinemetrics]
INSTRUMENT_ANALOG/DIGITAL: D
INSTRUMENTAL_FREQUENCY_HZ: 214.000
INSTRUMENTAL_DAMPING: 0.000000
FULL_SCALE_G: 1.0
N_BIT_DIGITAL_CONVERTER: 24
PGA_CM/S^2: -433.849917
TIME_PGA_S: 
BASELINE_CORRECTION: BASELINE REMOVED
FILTER_TYPE: BUTTERWORTH
FILTER_ORDER: 2
LOW_CUT_FREQUENCY_HZ: 0.100
HIGH_CUT_FREQUENCY_HZ: 40.000
LATE/NORMAL_TRIGGERED: NT
DATABASE_VERSION: 0.5
HEADER_FORMAT: DYNA 1.2
DATA_TYPE: ACCELERATION RESPONSE SPECTRUM
PROCESSING: manual (Paolucci et al., 2011)
DATA_TIMESTAMP_YYYYMMDD_HHMMSS: 20211011_155709.975
DATA_LICENSE: CC-BY3_0-IT (http://creativecommons.org/licenses/by/3.0/deed.en)
DATA_CITATION: Luzi L, Pacor F, Puglia R (2019). Italian Accelerometric Archive v 3.0 - Istituto Nazionale di Geofisica e Vulcanologia, Dipartimento della Protezione Civile Nazionale. doi: 10.13127/itaca.3.1
DATA_CREATOR: ITACA working group
ORIGINAL_DATA_MEDIATOR_CITATION: data obtained within the DPC-INGV data exchange agreements
ORIGINAL_DATA_MEDIATOR: Archive of Italian Department of Civil Protection
ORIGINAL_DATA_CREATOR_CITATION: Presidency Of Counsil Of Ministers-Civil Protection Department. (1972). Italian Strong Motion Network. Presidency of Counsil of Ministers - Civil Protection Department. https://doi.org/10.7914/SN/IT http://www.fdsn.org/networks/detail/IT/
ORIGINAL_DATA_CREATOR: network: IT (Italian Strong Motion Network (RAN)); owner: Presidency of Counsil of Ministers - Civil Protection Department (PCM - DPC)
USER1: 
USER2: 
USER3: 
USER4: 
USER5: 
    0.010000   434.678528
    0.020000   444.361572
    0.022000   450.267609
    0.025000   464.002991
    0.029000   452.658752
    0.030000   460.719147
    0.032000   454.644348
    0.035001   486.682526
    0.036000   472.561523
    0.040000   550.297302
    0.041999   645.866760
    0.044001   661.854248
    0.045000   689.267700
    0.046000   752.537476
    0.048001   858.385925
    0.050000  1006.215210
    0.054999  1588.548584
    0.059999  1235.592651
    0.064998  1194.239380
    0.067002  1336.321289
    0.069999  1460.017090
    0.075002  1445.039673
    0.080000  1374.286255
    0.084998  1247.373901
    0.090001   859.284485
    0.095003   622.027344
    0.100000   596.332947
    0.109999   649.959290
    0.120005   632.952759
    0.130005   691.372253
    0.132996   690.156372
    0.139997   708.321350
    0.149993   824.119873
    0.160000   728.041016
    0.170010   716.575562
    0.179986   621.118042
    0.190006   760.031799
    0.200000   762.306946
    0.220022   940.160583
    0.239981   982.486145
    0.250000   908.287659
    0.260010  1067.490723
    0.280034  1140.391724
    0.290023  1039.996460
    0.300030   900.675110
    0.320000   791.827271
    0.340020   714.975769
    0.350017   747.498108
    0.359971   777.104309
    0.379939  1009.249390
    0.400000  1246.010254
    0.419992  1380.715332
    0.439947  1415.632568
    0.450045  1402.792969
    0.459982  1366.983887
    0.480077  1235.205688
    0.500000  1107.034424
    0.550055   798.809509
    0.599880   599.994629
    0.650195   500.696686
    0.667111   485.772339
    0.699790   454.729370
    0.750188   403.437164
    0.800000   350.790955
    0.850340   310.412689
    0.900090   340.658966
    0.949668   293.660828
    1.000000   235.030136
    1.100110   178.345306
    1.200480   129.732407
    1.300390   114.599083
    1.400560   102.963112
    1.499250    93.248146
    1.600000    83.733124
    1.700680    75.601463
    1.798561    68.304855
    1.901141    61.747204
    2.000000    55.885330
    2.197802    45.964081
    2.398082    41.541687
    2.500000    40.195183
    2.597403    37.937519
    2.801121    35.449841
    3.003003    31.367296
    3.205128    26.030127
    3.401361    21.477730
    3.496503    21.027479
    3.597122    20.680353
    3.802281    19.534819
    4.000000    18.014574
    4.201681    16.383509
    4.405286    14.871694
    4.608295    13.436049
    4.807692    12.069345
    5.000000    10.796282
    5.494505     8.100046
    5.988024     6.578417
    6.493506     5.760363
    6.993007     5.079267
    7.518797     4.498945
    8.000000     3.999988
    8.474576     3.573752
    9.009009     3.215332
    9.523809     2.913269
   10.000000     2.657734
