EVENT_NAME: L_AQUILA
EVENT_ID: IT-2009-0009
EVENT_DATE_YYYYMMDD: 20090406
EVENT_TIME_HHMMSS: 013240
EVENT_LATITUDE_DEGREE: 42.3420
EVENT_LONGITUDE_DEGREE: 13.3800
EVENT_DEPTH_KM: 8.3
HYPOCENTER_REFERENCE: INGV-CNT_Seismic_Bulletin
MAGNITUDE_W: 6.1
MAGNITUDE_W_REFERENCE: INGV-CNT_Seismic_Bulletin
MAGNITUDE_L: 
MAGNITUDE_L_REFERENCE: 
FOCAL_MECHANISM: Normal faulting
NETWORK: IT
STATION_CODE: AQA
STATION_NAME: 
STATION_LATITUDE_DEGREE: 42.375530
STATION_LONGITUDE_DEGREE: 13.339298
STATION_ELEVATION_M: 693
LOCATION: 
SENSOR_DEPTH_M: 0.0
VS30_M/S: 549
SITE_CLASSIFICATION_EC8: B
MORPHOLOGIC_CLASSIFICATION: 
EPICENTRAL_DISTANCE_KM: 5.0
EARTHQUAKE_BACKAZIMUTH_DEGREE: 318.0
DATE_TIME_FIRST_SAMPLE_YYYYMMDD_HHMMSS: 20090406_013227.000
DATE_TIME_FIRST_SAMPLE_PRECISION: seconds
SAMPLING_INTERVAL_S: 0.005000
NDATA: 8000
DURATION_S: 40.000
STREAM: HNN
UNITS: cm
INSTRUMENT: sensor = FBA-3 [Kinemetrics] | digitizer = Everest [Kinemetrics]
INSTRUMENT_ANALOG/DIGITAL: D
INSTRUMENTAL_FREQUENCY_HZ: 214.000
INSTRUMENTAL_DAMPING: 0.000000
FULL_SCALE_G: 1.0
N_BIT_DIGITAL_CONVERTER: 24
PGD_CM: 3.636117
TIME_PGD_S: 17.910000
BASELINE_CORRECTION: BASELINE REMOVED
FILTER_TYPE: BUTTERWORTH
FILTER_ORDER: 2
LOW_CUT_FREQUENCY_HZ: 0.100
HIGH_CUT_FREQUENCY_HZ: 40.000
LATE/NORMAL_TRIGGERED: NT
DATABASE_VERSION: 0.5
HEADER_FORMAT: DYNA 1.2
DATA_TYPE: DISPLACEMENT
PROCESSING: manual (Paolucci et al., 2011)
DATA_TIMESTAMP_YYYYMMDD_HHMMSS: 20211011_155708.623
DATA_LICENSE: CC-BY3_0-IT (http://creativecommons.org/licenses/by/3.0/deed.en)
DATA_CITATION: Luzi L, Pacor F, Puglia R (2019). Italian Accelerometric Archive v 3.0 - Istituto Nazionale di Geofisica e Vulcanologia, Dipartimento della Protezione Civile Nazionale. doi: 10.13127/itaca.3.1
DATA_CREATOR: ITACA working group
ORIGINAL_DATA_MEDIATOR_CITATION: data obtained within the DPC-INGV data exchange agreements
ORIGINAL_DATA_MEDIATOR: Archive of Italian Department of Civil Protection
ORIGINAL_DATA_CREATOR_CITATION: Presidency Of Counsil Of Ministers-Civil Protection Department. (1972). Italian Strong Motion Network. Presidency of Counsil of Ministers - Civil Protection Department. https://doi.org/10.7914/SN/IT http://www.fdsn.org/networks/detail/IT/
ORIGINAL_DATA_CREATOR: network: IT (Italian Strong Motion Network (RAN)); owner: Presidency of Counsil of Ministers - Civil Protection Department (PCM - DPC)
USER1: 
USER2: 
USER3: 
USER4: 
USER5: 
[...]
-1.334057e-01
-1.334589e-01
-1.335112e-01
-1.335625e-01
-1.336128e-01
-1.336621e-01
-1.337104e-01
-1.337577e-01
-1.338040e-01
-1.338493e-01
-1.338935e-01
-1.339366e-01
-1.339786e-01
-1.340196e-01
-1.340597e-01
-1.340989e-01
-1.341371e-01
-1.341742e-01
-1.342100e-01
-1.342447e-01
-1.342784e-01
-1.343110e-01
-1.343426e-01
-1.343731e-01
-1.344026e-01
-1.344308e-01
-1.344579e-01
-1.344839e-01
-1.345089e-01
-1.345328e-01
-1.345557e-01
-1.345774e-01
-1.345979e-01
-1.346172e-01
-1.346353e-01
-1.346522e-01
-1.346680e-01
-1.346828e-01
-1.346964e-01
-1.347088e-01
-1.347200e-01
-1.347300e-01
-1.347387e-01
-1.347463e-01
-1.347528e-01
-1.347580e-01
-1.347621e-01
-1.347648e-01
-1.347664e-01
-1.347667e-01
-1.347658e-01
-1.347637e-01
-1.347603e-01
-1.347557e-01
-1.347499e-01
-1.347428e-01
-1.347344e-01
-1.347248e-01
-1.347137e-01
-1.347014e-01
-1.346877e-01
-1.346729e-01
-1.346568e-01
-1.346395e-01
-1.346208e-01
-1.346006e-01
-1.345791e-01
-1.345564e-01
-1.345323e-01
-1.345070e-01
-1.344802e-01
-1.344520e-01
-1.344225e-01
-1.343916e-01
-1.343594e-01
-1.343258e-01
-1.342910e-01
-1.342547e-01
-1.342170e-01
-1.341778e-01
-1.341372e-01
-1.340952e-01
-1.340519e-01
-1.340070e-01
-1.339607e-01
-1.339130e-01
-1.338639e-01
-1.338133e-01
-1.337614e-01
-1.337081e-01
-1.336533e-01
-1.335970e-01
-1.335390e-01
-1.334795e-01
-1.334184e-01
-1.333560e-01
-1.332921e-01
-1.332269e-01
-1.331603e-01
-1.330921e-01
-1.330224e-01
-1.329509e-01
-1.328778e-01
-1.328032e-01
-1.327270e-01
-1.326494e-01
-1.325702e-01
-1.324896e-01
-1.324074e-01
-1.323237e-01
-1.322383e-01
-1.321513e-01
-1.320626e-01
-1.319723e-01
-1.318804e-01
-1.317870e-01
-1.316919e-01
-1.315953e-01
-1.314970e-01
-1.313970e-01
-1.312954e-01
-1.311922e-01
-1.310874e-01
-1.309809e-01
-1.308726e-01
-1.307626e-01
-1.306509e-01
-1.305375e-01
-1.304223e-01
-1.303055e-01
-1.301870e-01
-1.300669e-01
-1.299451e-01
-1.298215e-01
-1.296960e-01
-1.295687e-01
-1.294397e-01
-1.293090e-01
-1.291766e-01
-1.290425e-01
-1.289065e-01
-1.287686e-01
-1.286289e-01
-1.284874e-01
-1.283442e-01
-1.281993e-01
-1.280526e-01
-1.279040e-01
-1.277535e-01
-1.276011e-01
-1.274467e-01
-1.272906e-01
-1.271327e-01
-1.269730e-01
-1.268116e-01
-1.266483e-01
-1.264831e-01
-1.263158e-01
-1.261466e-01
-1.259753e-01
-1.258023e-01
-1.256273e-01
-1.254506e-01
-1.252721e-01
-1.250915e-01
-1.249090e-01
-1.247243e-01
-1.245375e-01
-1.243488e-01
-1.241583e-01
-1.239660e-01
-1.237717e-01
-1.235754e-01
-1.233769e-01
-1.231763e-01
-1.229736e-01
-1.227690e-01
-1.225625e-01
-1.223542e-01
-1.221438e-01
-1.219312e-01
-1.217164e-01
-1.214994e-01
-1.212804e-01
-1.210594e-01
-1.208364e-01
-1.206113e-01
-1.203840e-01
-1.201546e-01
-1.199231e-01
-1.196894e-01
-1.194536e-01
-1.192158e-01
-1.189758e-01
-1.187336e-01
-1.184892e-01
-1.182425e-01
-1.179937e-01
-1.177426e-01
-1.174893e-01
-1.172339e-01
-1.169763e-01
-1.167167e-01
-1.164548e-01
-1.161907e-01
-1.159241e-01
-1.156552e-01
-1.153841e-01
-1.151108e-01
-1.148352e-01
-1.145574e-01
-1.142775e-01
-1.139952e-01
-1.137106e-01
-1.134237e-01
-1.131344e-01
-1.128427e-01
-1.125488e-01
-1.122525e-01
-1.119540e-01
-1.116531e-01
-1.113499e-01
-1.110442e-01
-1.107362e-01
-1.104258e-01
-1.101130e-01
-1.097979e-01
-1.094802e-01
-1.091602e-01
-1.088377e-01
-1.085129e-01
-1.081857e-01
-1.078561e-01
-1.075240e-01
-1.071894e-01
-1.068523e-01
-1.065127e-01
-1.061708e-01
-1.058263e-01
-1.054794e-01
-1.051299e-01
-1.047779e-01
-1.044233e-01
-1.040662e-01
-1.037067e-01
-1.033446e-01
-1.029799e-01
-1.026127e-01
-1.022429e-01
-1.018705e-01
-1.014955e-01
-1.011179e-01
-1.007378e-01
-1.003552e-01
-9.996994e-02
-9.958206e-02
-9.919146e-02
-9.879812e-02
-9.840212e-02
-9.800351e-02
-9.760235e-02
-9.719862e-02
-9.679225e-02
-9.638314e-02
-9.597126e-02
-9.555666e-02
-9.513934e-02
-9.471932e-02
-9.429659e-02
-9.387113e-02
-9.344294e-02
-9.301202e-02
-9.257835e-02
-9.214192e-02
-9.170267e-02
-9.126063e-02
-9.081586e-02
-9.036843e-02
-8.991828e-02
-8.946530e-02
-8.900933e-02
-8.855031e-02
-8.808829e-02
-8.762347e-02
-8.715602e-02
-8.668599e-02
-8.621330e-02
-8.573774e-02
-8.525910e-02
-8.477727e-02
-8.429236e-02
-8.380456e-02
-8.331400e-02
-8.282068e-02
-8.232455e-02
-8.182550e-02
-8.132344e-02
-8.081833e-02
-8.031024e-02
-7.979921e-02
-7.928523e-02
-7.876823e-02
-7.824820e-02
-7.772510e-02
-7.719897e-02
-7.666984e-02
-7.613776e-02
-7.560271e-02
-7.506464e-02
-7.452353e-02
-7.397936e-02
-7.343210e-02
-7.288174e-02
-7.232829e-02
-7.177171e-02
-7.121199e-02
-7.064913e-02
-7.008316e-02
-6.951412e-02
-6.894202e-02
-6.836686e-02
-6.778861e-02
-6.720716e-02
-6.662245e-02
-6.603447e-02
-6.544327e-02
-6.484884e-02
-6.425119e-02
-6.365034e-02
-6.304627e-02
-6.243898e-02
-6.182853e-02
-6.121492e-02
-6.059808e-02
-5.997792e-02
-5.935438e-02
-5.872744e-02
-5.809714e-02
-5.746355e-02
-5.682676e-02
-5.618679e-02
-5.554353e-02
-5.489686e-02
-5.424672e-02
-5.359311e-02
-5.293612e-02
-5.227585e-02
-5.161239e-02
-5.094567e-02
-5.027555e-02
-4.960194e-02
-4.892478e-02
-4.824412e-02
-4.756002e-02
-4.687254e-02
-4.618166e-02
-4.548734e-02
-4.478958e-02
-4.408842e-02
-4.338388e-02
-4.267591e-02
-4.196443e-02
-4.124939e-02
-4.053071e-02
-3.980841e-02
-3.908253e-02
-3.835319e-02
-3.762044e-02
-3.688429e-02
-3.614468e-02
-3.540152e-02
-3.465469e-02
-3.390413e-02
-3.314984e-02
-3.239189e-02
-3.163038e-02
-3.086536e-02
-3.009681e-02
-2.932470e-02
-2.854897e-02
-2.776956e-02
-2.698641e-02
-2.619950e-02
-2.540887e-02
-2.461455e-02
-2.381653e-02
-2.301486e-02
-2.220954e-02
-2.140052e-02
-2.058772e-02
-1.977111e-02
-1.895070e-02
-1.812652e-02
-1.729862e-02
-1.646704e-02
-1.563169e-02
-1.479248e-02
-1.394934e-02
-1.310231e-02
-1.225146e-02
-1.139685e-02
-1.053850e-02
-9.676357e-03
-8.810352e-03
-7.940421e-03
-7.066556e-03
-6.188767e-03
-5.307069e-03
-4.421478e-03
-3.531999e-03
-2.638604e-03
-1.741267e-03
-8.399899e-04
6.522834e-05
9.744044e-04
1.887527e-03
2.804552e-03
3.725485e-03
4.650393e-03
5.579333e-03
6.512316e-03
7.449362e-03
8.390488e-03
9.335656e-03
1.028480e-02
1.123790e-02
1.219500e-02
1.315611e-02
1.412131e-02
1.509065e-02
1.606418e-02
1.704187e-02
1.802360e-02
1.900933e-02
1.999909e-02
2.099300e-02
2.199114e-02
2.299355e-02
2.400016e-02
2.501088e-02
2.602568e-02
2.704464e-02
2.806792e-02
2.909557e-02
3.012740e-02
3.116310e-02
3.220254e-02
3.324615e-02
3.429556e-02
3.535411e-02
3.642664e-02
3.751683e-02
3.862098e-02
3.972092e-02
4.078307e-02
4.176922e-02
4.265768e-02
4.346648e-02
4.426455e-02
4.515553e-02
4.623056e-02
4.751236e-02
4.892799e-02
5.032901e-02
5.154860e-02
5.247396e-02
5.310882e-02
5.359430e-02
5.416339e-02
5.504112e-02
5.633904e-02
5.799484e-02
5.978673e-02
6.141936e-02
6.264271e-02
6.336118e-02
6.369899e-02
6.397526e-02
6.456324e-02
6.569934e-02
6.736255e-02
6.928694e-02
7.108728e-02
7.244024e-02
7.324082e-02
7.365864e-02
7.405875e-02
7.481368e-02
7.610431e-02
7.782561e-02
7.965656e-02
8.125103e-02
8.242791e-02
8.325769e-02
8.401558e-02
8.502921e-02
8.649012e-02
8.833577e-02
9.028669e-02
9.201003e-02
9.329361e-02
9.414134e-02
9.476582e-02
9.549164e-02
9.660364e-02
9.820496e-02
1.001680e-01
1.022068e-01
1.040089e-01
1.053511e-01
1.061791e-01
1.066450e-01
1.070725e-01
1.078308e-01
1.091586e-01
1.110420e-01
1.132232e-01
1.153346e-01
1.170849e-01
1.183926e-01
1.194072e-01
1.204188e-01
1.216902e-01
1.232864e-01
1.250172e-01
1.265569e-01
1.276739e-01
1.284073e-01
1.290751e-01
1.300997e-01
1.317426e-01
1.339219e-01
1.362375e-01
1.381893e-01
1.394530e-01
1.400526e-01
1.403431e-01
1.408157e-01
1.418516e-01
1.435729e-01
1.458300e-01
1.482785e-01
1.505019e-01
1.521613e-01
1.531435e-01
1.536276e-01
1.540087e-01
1.547033e-01
1.559510e-01
1.577481e-01
1.599149e-01
1.621899e-01
1.642963e-01
1.660285e-01
1.673573e-01
1.684572e-01
1.696029e-01
1.710119e-01
1.727340e-01
1.746352e-01
1.764781e-01
1.780465e-01
1.792533e-01
1.801949e-01
1.811115e-01
1.822469e-01
1.836980e-01
1.853707e-01
1.870625e-01
1.885826e-01
1.898423e-01
1.909020e-01
1.919522e-01
1.932117e-01
1.947958e-01
1.966438e-01
1.985629e-01
2.003514e-01
2.018990e-01
2.032149e-01
2.044102e-01
2.056541e-01
2.070864e-01
2.087113e-01
2.103759e-01
2.118678e-01
2.130383e-01
2.138500e-01
2.143504e-01
2.146383e-01
2.148575e-01
2.151614e-01
2.156139e-01
2.161144e-01
2.164576e-01
2.165082e-01
2.163533e-01
2.163100e-01
2.167711e-01
2.179699e-01
2.197958e-01
2.217960e-01
2.233986e-01
2.242320e-01
2.243422e-01
2.241843e-01
2.244157e-01
2.255954e-01
2.279100e-01
2.310535e-01
2.343648e-01
2.371665e-01
2.390560e-01
2.399574e-01
2.400093e-01
2.394710e-01
2.386904e-01
2.380895e-01
2.381272e-01
2.391796e-01
2.413250e-01
2.442154e-01
2.472179e-01
2.497322e-01
2.514536e-01
2.524797e-01
2.532499e-01
2.543222e-01
2.560800e-01
2.585621e-01
2.615323e-01
2.647277e-01
2.680707e-01
2.716417e-01
2.754234e-01
2.790801e-01
2.820063e-01
2.836235e-01
2.837267e-01
2.826675e-01
2.812730e-01
2.805456e-01
2.812594e-01
2.835953e-01
2.870103e-01
2.904741e-01
2.929705e-01
2.939741e-01
2.936601e-01
2.928031e-01
2.924349e-01
2.933917e-01
2.959914e-01
2.999952e-01
3.047835e-01
3.096000e-01
3.137121e-01
3.164933e-01
3.176148e-01
3.173334e-01
3.165663e-01
3.165509e-01
3.182776e-01
3.220477e-01
3.273670e-01
3.331937e-01
3.383794e-01
3.420832e-01
3.440624e-01
3.447812e-01
3.452461e-01
3.465512e-01
3.493617e-01
3.536736e-01
3.589718e-01
3.646113e-01
3.701386e-01
3.753925e-01
3.804166e-01
3.852952e-01
3.900535e-01
3.946732e-01
3.991152e-01
4.033281e-01
4.073870e-01
4.116844e-01
4.168480e-01
4.233140e-01
4.309193e-01
4.389505e-01
4.466000e-01
4.532978e-01
4.586968e-01
4.626623e-01
4.654553e-01
4.677908e-01
4.705112e-01
4.741073e-01
4.785095e-01
4.832531e-01
4.878058e-01
4.918616e-01
4.955053e-01
4.991809e-01
5.034272e-01
5.084746e-01
5.139713e-01
5.190950e-01
5.229928e-01
5.252548e-01
5.262287e-01
5.271048e-01
5.296014e-01
5.351157e-01
5.437550e-01
5.541530e-01
5.643791e-01
5.730708e-01
5.798599e-01
5.851368e-01
5.896471e-01
5.942248e-01
5.996968e-01
6.067324e-01
6.155701e-01
6.259975e-01
6.376369e-01
6.499811e-01
6.621307e-01
6.728835e-01
6.813573e-01
6.875957e-01
6.926488e-01
6.980995e-01
7.053202e-01
7.148778e-01
7.265542e-01
7.398180e-01
7.540233e-01
7.682713e-01
7.815082e-01
7.929618e-01
8.025040e-01
8.106871e-01
8.185164e-01
8.271396e-01
8.376010e-01
8.505839e-01
8.660322e-01
8.828896e-01
8.993591e-01
9.136410e-01
9.246184e-01
9.321581e-01
9.370885e-01
9.409089e-01
9.452910e-01
9.515562e-01
9.603100e-01
9.713657e-01
9.839139e-01
9.967130e-01
1.008319e+00
1.017552e+00
1.024041e+00
1.028457e+00
1.032265e+00
1.037108e+00
1.044199e+00
1.053946e+00
1.065938e+00
1.079174e+00
1.092327e+00
1.104088e+00
1.113532e+00
1.120420e+00
1.125439e+00
1.130133e+00
1.136341e+00
1.145577e+00
1.158632e+00
1.175243e+00
1.193884e+00
1.212037e+00
1.227030e+00
1.237021e+00
1.241806e+00
1.243182e+00
1.244457e+00
1.249011e+00
1.258797e+00
1.273800e+00
1.292400e+00
1.312121e+00
1.330434e+00
1.345252e+00
1.355146e+00
1.359698e+00
1.359915e+00
1.358252e+00
1.357872e+00
1.361363e+00
1.369824e+00
1.382778e+00
1.398558e+00
1.414857e+00
1.429260e+00
1.439740e+00
1.445231e+00
1.446253e+00
1.444934e+00
1.444061e+00
1.445966e+00
1.452154e+00
1.463378e+00
1.479713e+00
1.500588e+00
1.524696e+00
1.549998e+00
1.574430e+00
1.596927e+00
1.617640e+00
1.637240e+00
1.656379e+00
1.675704e+00
1.696030e+00
1.718374e+00
1.743642e+00
1.772039e+00
1.802588e+00
1.833216e+00
1.861527e+00
1.885739e+00
1.905178e+00
1.920319e+00
1.932642e+00
1.944311e+00
1.957533e+00
1.973689e+00
1.992708e+00
2.013097e+00
2.032688e+00
2.049709e+00
2.063522e+00
2.074714e+00
2.084797e+00
2.095766e+00
2.109542e+00
2.127425e+00
2.149747e+00
2.175916e+00
2.204707e+00
2.234646e+00
2.264526e+00
2.293804e+00
2.322508e+00
2.350871e+00
2.379198e+00
2.407981e+00
2.437850e+00
2.469289e+00
2.502394e+00
2.536966e+00
2.572687e+00
2.609005e+00
2.644955e+00
2.679375e+00
2.711373e+00
2.740638e+00
2.767357e+00
2.791926e+00
2.814873e+00
2.836941e+00
2.858886e+00
2.881134e+00
2.903764e+00
2.926773e+00
2.950078e+00
2.973141e+00
2.994916e+00
3.014464e+00
3.031583e+00
3.046866e+00
3.061314e+00
3.075933e+00
3.091500e+00
3.108496e+00
3.127077e+00
3.146989e+00
3.167491e+00
3.187593e+00
3.206612e+00
3.224575e+00
3.242138e+00
3.260177e+00
3.279423e+00
3.300293e+00
3.322879e+00
3.347012e+00
3.372328e+00
3.398248e+00
3.424008e+00
3.448899e+00
3.472517e+00
3.494719e+00
3.515458e+00
3.534731e+00
3.552590e+00
3.569143e+00
3.584529e+00
3.598746e+00
3.611437e+00
3.621974e+00
3.629790e+00
3.634554e+00
3.636117e+00
3.634458e+00
3.629615e+00
3.621410e+00
3.609169e+00
3.591868e+00
3.568631e+00
3.539102e+00
3.503405e+00
3.461883e+00
3.414923e+00
3.362838e+00
3.305700e+00
3.243201e+00
3.174762e+00
3.099950e+00
3.018954e+00
2.932790e+00
2.843034e+00
2.751323e+00
2.658972e+00
2.566731e+00
2.474544e+00
2.381470e+00
2.285986e+00
2.186564e+00
2.082222e+00
1.972819e+00
1.858996e+00
1.741847e+00
1.622600e+00
1.502469e+00
1.382464e+00
1.263042e+00
1.143902e+00
1.024124e+00
9.025426e-01
7.781571e-01
6.505174e-01
5.199182e-01
3.873077e-01
2.539767e-01
1.212650e-01
-9.582468e-03
-1.374721e-01
-2.615405e-01
-3.812705e-01
-4.965075e-01
-6.072741e-01
-7.135299e-01
-8.150378e-01
-9.113725e-01
-1.002048e+00
-1.086632e+00
-1.164758e+00
-1.236181e+00
-1.300878e+00
-1.359067e+00
-1.411106e+00
-1.457397e+00
-1.498268e+00
-1.533797e+00
-1.563733e+00
-1.587590e+00
-1.604787e+00
-1.614788e+00
-1.617347e+00
-1.612735e+00
-1.601697e+00
-1.585132e+00
-1.563821e+00
-1.538441e+00
-1.509642e+00
-1.477897e+00
-1.443224e+00
-1.405076e+00
-1.362472e+00
-1.314285e+00
-1.259592e+00
-1.197960e+00
-1.129570e+00
-1.055218e+00
-9.762277e-01
-8.942169e-01
-8.107055e-01
-7.267809e-01
-6.429909e-01
-5.594132e-01
-4.758434e-01
-3.920210e-01
-3.078124e-01
-2.233855e-01
-1.393833e-01
-5.696588e-02
2.233493e-02
9.683261e-02
1.648606e-01
2.248663e-01
2.754815e-01
3.156931e-01
3.450585e-01
3.638239e-01
3.729039e-01
3.736930e-01
3.677717e-01
3.566838e-01
3.418855e-01
3.247452e-01
3.064020e-01
2.875199e-01
2.681259e-01
2.476409e-01
2.250979e-01
1.994005e-01
1.694992e-01
1.345434e-01
9.406529e-02
4.809371e-02
-2.929696e-03
-5.834108e-02
-1.173257e-01
-1.789434e-01
-2.422700e-01
-3.064853e-01
-3.707920e-01
-4.343467e-01
-4.963304e-01
-5.560930e-01
-6.132806e-01
-6.679581e-01
-7.207119e-01
-7.725949e-01
-8.248832e-01
-8.787004e-01
-9.345764e-01
-9.921632e-01
-1.050327e+00
-1.107546e+00
-1.162340e+00
-1.213538e+00
-1.260415e+00
-1.302788e+00
-1.341047e+00
-1.376033e+00
-1.408863e+00
-1.440722e+00
-1.472651e+00
-1.505410e+00
-1.539568e+00
-1.575455e+00
-1.612784e+00
-1.650516e+00
-1.687276e+00
-1.721835e+00
-1.753201e+00
-1.780433e+00
-1.802651e+00
-1.819213e+00
-1.829635e+00
-1.833412e+00
-1.830161e+00
-1.819916e+00
-1.803162e+00
-1.780653e+00
-1.753154e+00
-1.721222e+00
-1.685106e+00
-1.644771e+00
-1.599999e+00
-1.550450e+00
-1.495666e+00
-1.435155e+00
-1.368535e+00
-1.295640e+00
-1.216612e+00
-1.131976e+00
-1.042566e+00
-9.494407e-01
-8.539119e-01
-7.575094e-01
-6.617809e-01
-5.681892e-01
-4.781123e-01
-3.927481e-01
-3.130129e-01
-2.395882e-01
-1.729415e-01
-1.131342e-01
-5.966514e-02
-1.167665e-02
3.164229e-02
7.073758e-02
1.054600e-01
1.349744e-01
1.579839e-01
1.732076e-01
1.797545e-01
1.771130e-01
1.650104e-01
1.434992e-01
1.130492e-01
7.432520e-02
2.784859e-02
-2.610763e-02
-8.737290e-02
-1.557361e-01
-2.308961e-01
-3.123463e-01
-3.992102e-01
-4.903062e-01
-5.845429e-01
-6.813746e-01
-7.809279e-01
-8.837016e-01
-9.901317e-01
-1.100334e+00
-1.214010e+00
-1.330422e+00
-1.448463e+00
-1.566853e+00
-1.684317e+00
-1.799776e+00
-1.912536e+00
-2.022369e+00
-2.129305e+00
-2.233322e+00
-2.334236e+00
-2.431790e+00
-2.525663e+00
-2.615427e+00
-2.700670e+00
-2.781157e+00
-2.856817e+00
-2.927619e+00
-2.993473e+00
-3.054226e+00
-3.109610e+00
-3.159162e+00
-3.202330e+00
-3.238682e+00
-3.267898e+00
-3.289575e+00
-3.303130e+00
-3.307933e+00
-3.303493e+00
-3.289589e+00
-3.266439e+00
-3.234909e+00
-3.196593e+00
-3.153575e+00
-3.108014e+00
-3.061958e+00
-3.017413e+00
-2.976160e+00
-2.939177e+00
-2.906115e+00
-2.875319e+00
-2.844367e+00
-2.810893e+00
-2.773394e+00
-2.731643e+00
-2.686638e+00
-2.640392e+00
-2.595627e+00
-2.555233e+00
-2.521651e+00
-2.496441e+00
-2.480122e+00
-2.472198e+00
-2.471282e+00
-2.475293e+00
-2.481768e+00
-2.488132e+00
-2.491933e+00
-2.491211e+00
-2.484894e+00
-2.473035e+00
-2.456744e+00
-2.437908e+00
-2.418870e+00
-2.402007e+00
-2.389157e+00
-2.381228e+00
-2.378142e+00
-2.378884e+00
-2.381552e+00
-2.383708e+00
-2.383036e+00
-2.377824e+00
-2.367063e+00
-2.350458e+00
-2.328404e+00
-2.301743e+00
-2.271463e+00
-2.238620e+00
-2.204266e+00
-2.169229e+00
-2.133977e+00
-2.098788e+00
-2.063925e+00
-2.029469e+00
-1.995071e+00
-1.960040e+00
-1.923822e+00
-1.886518e+00
-1.848919e+00
-1.812120e+00
-1.777177e+00
-1.744969e+00
-1.716126e+00
-1.690940e+00
-1.669445e+00
-1.651753e+00
-1.638345e+00
-1.630051e+00
-1.627736e+00
-1.631855e+00
-1.642194e+00
-1.657942e+00
-1.678023e+00
-1.701278e+00
-1.726528e+00
-1.752670e+00
-1.778816e+00
-1.804500e+00
-1.829859e+00
-1.855516e+00
-1.882056e+00
-1.909488e+00
-1.937287e+00
-1.964800e+00
-1.991347e+00
-2.016043e+00
-2.037823e+00
-2.055676e+00
-2.068791e+00
-2.076537e+00
-2.078579e+00
-2.075075e+00
-2.066564e+00
-2.053536e+00
-2.036086e+00
-2.013964e+00
-1.986904e+00
-1.954835e+00
-1.917865e+00
-1.876236e+00
-1.830286e+00
-1.780396e+00
-1.726991e+00
-1.670640e+00
-1.612153e+00
-1.552551e+00
-1.492878e+00
-1.433945e+00
-1.376252e+00
-1.320100e+00
-1.265659e+00
-1.212935e+00
-1.161779e+00
-1.112000e+00
-1.063546e+00
-1.016649e+00
-9.718825e-01
-9.300749e-01
-8.920575e-01
-8.584374e-01
-8.294748e-01
-8.050129e-01
-7.844964e-01
-7.671226e-01
-7.521452e-01
-7.392161e-01
-7.285089e-01
-7.205625e-01
-7.159558e-01
-7.149817e-01
-7.174742e-01
-7.228105e-01
-7.300787e-01
-7.383296e-01
-7.467493e-01
-7.547163e-01
