EVENT_NAME: L_AQUILA
EVENT_ID: IT-2009-0009
EVENT_DATE_YYYYMMDD: 20090406
EVENT_TIME_HHMMSS: 013240
EVENT_LATITUDE_DEGREE: 42.3420
EVENT_LONGITUDE_DEGREE: 13.3800
EVENT_DEPTH_KM: 8.3
HYPOCENTER_REFERENCE: INGV-CNT_Seismic_Bulletin
MAGNITUDE_W: 6.1
MAGNITUDE_W_REFERENCE: INGV-CNT_Seismic_Bulletin
MAGNITUDE_L: 
MAGNITUDE_L_REFERENCE: 
FOCAL_MECHANISM: Normal faulting
NETWORK: IT
STATION_CODE: AQA
STATION_NAME: 
STATION_LATITUDE_DEGREE: 42.375530
STATION_LONGITUDE_DEGREE: 13.339298
STATION_ELEVATION_M: 693
LOCATION: 
SENSOR_DEPTH_M: 0.0
VS30_M/S: 549
SITE_CLASSIFICATION_EC8: B
MORPHOLOGIC_CLASSIFICATION: 
EPICENTRAL_DISTANCE_KM: 5.0
EARTHQUAKE_BACKAZIMUTH_DEGREE: 318.0
DATE_TIME_FIRST_SAMPLE_YYYYMMDD_HHMMSS: 20090406_013227.000
DATE_TIME_FIRST_SAMPLE_PRECISION: seconds
SAMPLING_INTERVAL_S: 0.005000
NDATA: 8000
DURATION_S: 40.000
STREAM: HNE
UNITS: cm
INSTRUMENT: sensor = FBA-3 [Kinemetrics] | digitizer = Everest [Kinemetrics]
INSTRUMENT_ANALOG/DIGITAL: D
INSTRUMENTAL_FREQUENCY_HZ: 206.000
INSTRUMENTAL_DAMPING: 0.000000
FULL_SCALE_G: 1.0
N_BIT_DIGITAL_CONVERTER: 24
PGD_CM: 5.446792
TIME_PGD_S: 17.615000
BASELINE_CORRECTION: BASELINE REMOVED
FILTER_TYPE: BUTTERWORTH
FILTER_ORDER: 2
LOW_CUT_FREQUENCY_HZ: 0.100
HIGH_CUT_FREQUENCY_HZ: 40.000
LATE/NORMAL_TRIGGERED: NT
DATABASE_VERSION: 0.5
HEADER_FORMAT: DYNA 1.2
DATA_TYPE: DISPLACEMENT
PROCESSING: manual (Paolucci et al., 2011)
DATA_TIMESTAMP_YYYYMMDD_HHMMSS: 20211011_155707.762
DATA_LICENSE: CC-BY3_0-IT (http://creativecommons.org/licenses/by/3.0/deed.en)
DATA_CITATION: Luzi L, Pacor F, Puglia R (2019). Italian Accelerometric Archive v 3.0 - Istituto Nazionale di Geofisica e Vulcanologia, Dipartimento della Protezione Civile Nazionale. doi: 10.13127/itaca.3.1
DATA_CREATOR: ITACA working group
ORIGINAL_DATA_MEDIATOR_CITATION: data obtained within the DPC-INGV data exchange agreements
ORIGINAL_DATA_MEDIATOR: Archive of Italian Department of Civil Protection
ORIGINAL_DATA_CREATOR_CITATION: Presidency Of Counsil Of Ministers-Civil Protection Department. (1972). Italian Strong Motion Network. Presidency of Counsil of Ministers - Civil Protection Department. https://doi.org/10.7914/SN/IT http://www.fdsn.org/networks/detail/IT/
ORIGINAL_DATA_CREATOR: network: IT (Italian Strong Motion Network (RAN)); owner: Presidency of Counsil of Ministers - Civil Protection Department (PCM - DPC)
USER1: 
USER2: 
USER3: 
USER4: 
USER5: 
[...]
-2.424662e-02
-2.461953e-02
-2.499377e-02
-2.536931e-02
-2.574616e-02
-2.612437e-02
-2.650394e-02
-2.688486e-02
-2.726708e-02
-2.765061e-02
-2.803549e-02
-2.842173e-02
-2.880931e-02
-2.919824e-02
-2.958851e-02
-2.998013e-02
-3.037310e-02
-3.076744e-02
-3.116315e-02
-3.156022e-02
-3.195863e-02
-3.235837e-02
-3.275947e-02
-3.316195e-02
-3.356586e-02
-3.397118e-02
-3.437787e-02
-3.478591e-02
-3.519531e-02
-3.560608e-02
-3.601824e-02
-3.643176e-02
-3.684665e-02
-3.726291e-02
-3.768056e-02
-3.809959e-02
-3.852004e-02
-3.894191e-02
-3.936517e-02
-3.978980e-02
-4.021579e-02
-4.064317e-02
-4.107195e-02
-4.150215e-02
-4.193375e-02
-4.236676e-02
-4.280121e-02
-4.323710e-02
-4.367441e-02
-4.411311e-02
-4.455316e-02
-4.499456e-02
-4.543735e-02
-4.588160e-02
-4.632735e-02
-4.677458e-02
-4.722324e-02
-4.767331e-02
-4.812480e-02
-4.857774e-02
-4.903215e-02
-4.948799e-02
-4.994525e-02
-5.040390e-02
-5.086397e-02
-5.132551e-02
-5.178855e-02
-5.225305e-02
-5.271898e-02
-5.318635e-02
-5.365518e-02
-5.412544e-02
-5.459713e-02
-5.507026e-02
-5.554483e-02
-5.602088e-02
-5.649842e-02
-5.697749e-02
-5.745808e-02
-5.794011e-02
-5.842354e-02
-5.890836e-02
-5.939464e-02
-5.988242e-02
-6.037171e-02
-6.086248e-02
-6.135473e-02
-6.184846e-02
-6.234367e-02
-6.284037e-02
-6.333854e-02
-6.383820e-02
-6.433931e-02
-6.484191e-02
-6.534602e-02
-6.585165e-02
-6.635876e-02
-6.686733e-02
-6.737740e-02
-6.788900e-02
-6.840214e-02
-6.891678e-02
-6.943287e-02
-6.995041e-02
-7.046942e-02
-7.098996e-02
-7.151205e-02
-7.203568e-02
-7.256083e-02
-7.308746e-02
-7.361556e-02
-7.414517e-02
-7.467635e-02
-7.520908e-02
-7.574335e-02
-7.627912e-02
-7.681638e-02
-7.735513e-02
-7.789537e-02
-7.843713e-02
-7.898043e-02
-7.952529e-02
-8.007169e-02
-8.061963e-02
-8.116909e-02
-8.172005e-02
-8.227249e-02
-8.282644e-02
-8.338193e-02
-8.393902e-02
-8.449770e-02
-8.505796e-02
-8.561974e-02
-8.618301e-02
-8.674778e-02
-8.731408e-02
-8.788195e-02
-8.845138e-02
-8.902240e-02
-8.959500e-02
-9.016913e-02
-9.074475e-02
-9.132188e-02
-9.190055e-02
-9.248080e-02
-9.306264e-02
-9.364609e-02
-9.423110e-02
-9.481767e-02
-9.540578e-02
-9.599543e-02
-9.658664e-02
-9.717941e-02
-9.777373e-02
-9.836961e-02
-9.896707e-02
-9.956611e-02
-1.001667e-01
-1.007689e-01
-1.013726e-01
-1.019778e-01
-1.025847e-01
-1.031932e-01
-1.038032e-01
-1.044148e-01
-1.050279e-01
-1.056426e-01
-1.062590e-01
-1.068769e-01
-1.074964e-01
-1.081174e-01
-1.087400e-01
-1.093643e-01
-1.099901e-01
-1.106174e-01
-1.112464e-01
-1.118769e-01
-1.125089e-01
-1.131426e-01
-1.137778e-01
-1.144147e-01
-1.150532e-01
-1.156931e-01
-1.163346e-01
-1.169777e-01
-1.176224e-01
-1.182688e-01
-1.189168e-01
-1.195664e-01
-1.202175e-01
-1.208702e-01
-1.215245e-01
-1.221804e-01
-1.228378e-01
-1.234970e-01
-1.241577e-01
-1.248200e-01
-1.254838e-01
-1.261492e-01
-1.268162e-01
-1.274848e-01
-1.281550e-01
-1.288269e-01
-1.295005e-01
-1.301756e-01
-1.308522e-01
-1.315303e-01
-1.322100e-01
-1.328913e-01
-1.335743e-01
-1.342589e-01
-1.349452e-01
-1.356330e-01
-1.363224e-01
-1.370133e-01
-1.377059e-01
-1.384000e-01
-1.390958e-01
-1.397932e-01
-1.404922e-01
-1.411928e-01
-1.418949e-01
-1.425986e-01
-1.433040e-01
-1.440109e-01
-1.447195e-01
-1.454297e-01
-1.461415e-01
-1.468548e-01
-1.475698e-01
-1.482863e-01
-1.490044e-01
-1.497241e-01
-1.504455e-01
-1.511685e-01
-1.518931e-01
-1.526192e-01
-1.533470e-01
-1.540763e-01
-1.548072e-01
-1.555397e-01
-1.562738e-01
-1.570095e-01
-1.577468e-01
-1.584856e-01
-1.592261e-01
-1.599683e-01
-1.607119e-01
-1.614572e-01
-1.622040e-01
-1.629524e-01
-1.637025e-01
-1.644542e-01
-1.652076e-01
-1.659625e-01
-1.667189e-01
-1.674770e-01
-1.682365e-01
-1.689978e-01
-1.697606e-01
-1.705250e-01
-1.712911e-01
-1.720588e-01
-1.728280e-01
-1.735988e-01
-1.743712e-01
-1.751451e-01
-1.759205e-01
-1.766976e-01
-1.774763e-01
-1.782566e-01
-1.790386e-01
-1.798220e-01
-1.806069e-01
-1.813934e-01
-1.821815e-01
-1.829712e-01
-1.837626e-01
-1.845556e-01
-1.853502e-01
-1.861464e-01
-1.869440e-01
-1.877432e-01
-1.885438e-01
-1.893459e-01
-1.901497e-01
-1.909551e-01
-1.917622e-01
-1.925709e-01
-1.933811e-01
-1.941929e-01
-1.950062e-01
-1.958210e-01
-1.966373e-01
-1.974552e-01
-1.982747e-01
-1.990958e-01
-1.999184e-01
-2.007426e-01
-2.015683e-01
-2.023955e-01
-2.032243e-01
-2.040547e-01
-2.048865e-01
-2.057198e-01
-2.065547e-01
-2.073912e-01
-2.082292e-01
-2.090687e-01
-2.099098e-01
-2.107524e-01
-2.115965e-01
-2.124422e-01
-2.132895e-01
-2.141382e-01
-2.149884e-01
-2.158402e-01
-2.166935e-01
-2.175485e-01
-2.184049e-01
-2.192628e-01
-2.201222e-01
-2.209831e-01
-2.218455e-01
-2.227095e-01
-2.235750e-01
-2.244420e-01
-2.253105e-01
-2.261805e-01
-2.270521e-01
-2.279251e-01
-2.287996e-01
-2.296755e-01
-2.305528e-01
-2.314317e-01
-2.323121e-01
-2.331941e-01
-2.340776e-01
-2.349625e-01
-2.358489e-01
-2.367366e-01
-2.376259e-01
-2.385167e-01
-2.394089e-01
-2.403027e-01
-2.411979e-01
-2.420946e-01
-2.429927e-01
-2.438923e-01
-2.447933e-01
-2.456958e-01
-2.465997e-01
-2.475050e-01
-2.484119e-01
-2.493202e-01
-2.502299e-01
-2.511411e-01
-2.520536e-01
-2.529676e-01
-2.538830e-01
-2.547999e-01
-2.557182e-01
-2.566380e-01
-2.575591e-01
-2.584817e-01
-2.594056e-01
-2.603309e-01
-2.612577e-01
-2.621858e-01
-2.631153e-01
-2.640463e-01
-2.649786e-01
-2.659123e-01
-2.668474e-01
-2.677839e-01
-2.687217e-01
-2.696610e-01
-2.706015e-01
-2.715435e-01
-2.724868e-01
-2.734315e-01
-2.743775e-01
-2.753248e-01
-2.762735e-01
-2.772236e-01
-2.781750e-01
-2.791278e-01
-2.800819e-01
-2.810373e-01
-2.819941e-01
-2.829522e-01
-2.839116e-01
-2.848724e-01
-2.858344e-01
-2.867977e-01
-2.877622e-01
-2.887282e-01
-2.896955e-01
-2.906642e-01
-2.916341e-01
-2.926052e-01
-2.935776e-01
-2.945513e-01
-2.955262e-01
-2.965025e-01
-2.974800e-01
-2.984588e-01
-2.994389e-01
-3.004202e-01
-3.014029e-01
-3.023868e-01
-3.033719e-01
-3.043582e-01
-3.053458e-01
-3.063346e-01
-3.073246e-01
-3.083159e-01
-3.093083e-01
-3.103020e-01
-3.112969e-01
-3.122931e-01
-3.132905e-01
-3.142890e-01
-3.152887e-01
-3.162894e-01
-3.172914e-01
-3.182945e-01
-3.192989e-01
-3.203044e-01
-3.213111e-01
-3.223190e-01
-3.233280e-01
-3.243382e-01
-3.253495e-01
-3.263620e-01
-3.273755e-01
-3.283900e-01
-3.294057e-01
-3.304225e-01
-3.314404e-01
-3.324595e-01
-3.334797e-01
-3.345010e-01
-3.355234e-01
-3.365468e-01
-3.375712e-01
-3.385968e-01
-3.396234e-01
-3.406511e-01
-3.416799e-01
-3.427097e-01
-3.437406e-01
-3.447724e-01
-3.458052e-01
-3.468391e-01
-3.478741e-01
-3.489101e-01
-3.499472e-01
-3.509852e-01
-3.520241e-01
-3.530639e-01
-3.541047e-01
-3.551466e-01
-3.561895e-01
-3.572335e-01
-3.582786e-01
-3.593245e-01
-3.603713e-01
-3.614189e-01
-3.624674e-01
-3.635168e-01
-3.645671e-01
-3.656184e-01
-3.666706e-01
-3.677239e-01
-3.687780e-01
-3.698331e-01
-3.708890e-01
-3.719458e-01
-3.730034e-01
-3.740614e-01
-3.751196e-01
-3.761783e-01
-3.772379e-01
-3.782997e-01
-3.793658e-01
-3.804377e-01
-3.815132e-01
-3.825814e-01
-3.836185e-01
-3.845915e-01
-3.854720e-01
-3.862567e-01
-3.869840e-01
-3.877340e-01
-3.886021e-01
-3.896504e-01
-3.908630e-01
-3.921421e-01
-3.933533e-01
-3.943874e-01
-3.952057e-01
-3.958538e-01
-3.964460e-01
-3.971275e-01
-3.980186e-01
-3.991564e-01
-4.004717e-01
-4.018176e-01
-4.030302e-01
-4.040002e-01
-4.047280e-01
-4.053305e-01
-4.059900e-01
-4.068604e-01
-4.079749e-01
-4.092230e-01
-4.104168e-01
-4.113941e-01
-4.121061e-01
-4.126559e-01
-4.132510e-01
-4.140913e-01
-4.152619e-01
-4.166836e-01
-4.181490e-01
-4.194301e-01
-4.203905e-01
-4.210441e-01
-4.215344e-01
-4.220551e-01
-4.227603e-01
-4.237134e-01
-4.248899e-01
-4.262131e-01
-4.275829e-01
-4.288917e-01
-4.300402e-01
-4.309633e-01
-4.316659e-01
-4.322377e-01
-4.328103e-01
-4.334818e-01
-4.342716e-01
-4.351325e-01
-4.360026e-01
-4.368590e-01
-4.377330e-01
-4.386799e-01
-4.397401e-01
-4.409091e-01
-4.421170e-01
-4.432423e-01
-4.441755e-01
-4.449134e-01
-4.455997e-01
-4.464409e-01
-4.475485e-01
-4.488454e-01
-4.501098e-01
-4.511199e-01
-4.517872e-01
-4.521986e-01
-4.525638e-01
-4.530952e-01
-4.538813e-01
-4.548510e-01
-4.558664e-01
-4.568408e-01
-4.577697e-01
-4.587017e-01
-4.597085e-01
-4.608421e-01
-4.620839e-01
-4.633449e-01
-4.645214e-01
-4.655386e-01
-4.663480e-01
-4.669301e-01
-4.673190e-01
-4.676044e-01
-4.679133e-01
-4.684001e-01
-4.692101e-01
-4.704026e-01
-4.718916e-01
-4.734574e-01
-4.748343e-01
-4.758383e-01
-4.764469e-01
-4.767792e-01
-4.770406e-01
-4.774810e-01
-4.783255e-01
-4.796662e-01
-4.813855e-01
-4.831837e-01
-4.847182e-01
-4.857538e-01
-4.862354e-01
-4.862889e-01
-4.861592e-01
-4.861013e-01
-4.862875e-01
-4.867729e-01
-4.875184e-01
-4.884585e-01
-4.895589e-01
-4.908000e-01
-4.921190e-01
-4.933870e-01
-4.944550e-01
-4.952326e-01
-4.957305e-01
-4.960250e-01
-4.961688e-01
-4.961396e-01
-4.958921e-01
-4.954499e-01
-4.949061e-01
-4.943212e-01
-4.936443e-01
-4.927477e-01
-4.915155e-01
-4.898904e-01
-4.878843e-01
-4.855920e-01
-4.831781e-01
-4.808176e-01
-4.786389e-01
-4.767050e-01
-4.750277e-01
-4.736026e-01
-4.724316e-01
-4.714852e-01
-4.706265e-01
-4.695840e-01
-4.680397e-01
-4.658244e-01
-4.630848e-01
-4.602459e-01
-4.577582e-01
-4.558420e-01
-4.544284e-01
-4.532681e-01
-4.520703e-01
-4.506155e-01
-4.488141e-01
-4.466439e-01
-4.440058e-01
-4.406862e-01
-4.365287e-01
-4.316660e-01
-4.265764e-01
-4.219016e-01
-4.181491e-01
-4.154112e-01
-4.132479e-01
-4.109211e-01
-4.079015e-01
-4.041960e-01
-4.001922e-01
-3.962186e-01
-3.922802e-01
-3.881873e-01
-3.838654e-01
-3.794998e-01
-3.754120e-01
-3.718180e-01
-3.686478e-01
-3.654963e-01
-3.617184e-01
-3.566784e-01
-3.500741e-01
-3.421335e-01
-3.335384e-01
-3.251347e-01
-3.175795e-01
-3.110679e-01
-3.052963e-01
-2.997059e-01
-2.938185e-01
-2.874601e-01
-2.807565e-01
-2.739201e-01
-2.670478e-01
-2.601365e-01
-2.532159e-01
-2.463724e-01
-2.396035e-01
-2.326145e-01
-2.247691e-01
-2.153328e-01
-2.038699e-01
-1.905147e-01
-1.759704e-01
-1.612819e-01
-1.474733e-01
-1.351467e-01
-1.242222e-01
-1.139841e-01
-1.034130e-01
-9.164944e-02
-7.840529e-02
-6.409194e-02
-4.952915e-02
-3.547016e-02
-2.233251e-02
-1.018714e-02
1.140384e-03
1.192076e-02
2.240740e-02
3.279238e-02
4.319482e-02
5.373355e-02
6.466874e-02
7.641937e-02
8.937480e-02
1.036851e-01
1.192223e-01
1.356994e-01
1.527861e-01
1.700918e-01
1.871779e-01
2.038163e-01
2.202383e-01
2.369913e-01
2.545770e-01
2.732871e-01
2.932318e-01
3.143038e-01
3.360952e-01
3.579826e-01
3.793563e-01
3.998432e-01
4.194670e-01
4.386269e-01
4.578365e-01
4.774221e-01
4.973982e-01
5.176268e-01
5.381823e-01
5.595528e-01
5.823356e-01
6.066235e-01
6.317078e-01
6.564063e-01
6.797317e-01
7.014390e-01
7.221532e-01
7.430227e-01
7.650844e-01
7.886931e-01
8.133880e-01
8.383276e-01
8.629930e-01
8.875537e-01
9.125144e-01
9.379478e-01
9.630547e-01
9.865172e-01
1.007397e+00
1.025797e+00
1.042819e+00
1.060035e+00
1.078844e+00
1.100006e+00
1.123539e+00
1.148948e+00
1.175575e+00
1.202867e+00
1.230542e+00
1.258578e+00
1.287020e+00
1.315833e+00
1.344902e+00
1.374048e+00
1.403075e+00
1.431803e+00
1.459894e+00
1.486773e+00
1.511915e+00
1.535267e+00
1.557404e+00
1.579443e+00
1.602963e+00
1.629689e+00
1.660692e+00
1.695796e+00
1.733861e+00
1.773468e+00
1.813340e+00
1.852543e+00
1.890637e+00
1.927709e+00
1.964219e+00
2.000703e+00
2.037491e+00
2.074711e+00
2.112529e+00
2.151139e+00
2.190373e+00
2.229432e+00
2.267190e+00
2.302844e+00
2.336322e+00
2.368274e+00
2.399804e+00
2.432058e+00
2.465796e+00
2.501187e+00
2.537888e+00
2.575150e+00
2.611928e+00
2.647187e+00
2.680345e+00
2.711604e+00
2.742098e+00
2.773801e+00
2.808925e+00
2.848802e+00
2.892976e+00
2.939265e+00
2.984618e+00
3.026207e+00
3.062386e+00
3.093204e+00
3.120204e+00
3.145746e+00
3.172197e+00
3.201155e+00
3.233303e+00
3.269060e+00
3.308954e+00
3.353053e+00
3.400298e+00
3.448549e+00
3.495307e+00
3.538923e+00
3.579654e+00
3.619556e+00
3.661089e+00
3.705684e+00
3.753561e+00
3.804531e+00
3.858444e+00
3.914839e+00
3.972496e+00
4.029497e+00
4.083662e+00
4.133249e+00
4.177700e+00
4.217620e+00
4.254055e+00
4.288097e+00
4.320924e+00
4.353568e+00
4.386577e+00
4.420106e+00
4.454049e+00
4.487857e+00
4.520449e+00
4.550688e+00
4.578122e+00
4.603480e+00
4.628596e+00
4.655691e+00
4.686372e+00
4.720986e+00
4.758661e+00
4.797866e+00
4.837129e+00
4.875606e+00
4.913219e+00
4.950479e+00
4.988423e+00
5.028490e+00
5.071886e+00
5.118768e+00
5.167922e+00
5.217069e+00
5.263554e+00
5.305141e+00
5.340493e+00
5.369116e+00
5.391140e+00
5.407345e+00
5.419199e+00
5.428375e+00
5.435924e+00
5.441942e+00
5.445865e+00
5.446792e+00
5.443675e+00
5.435582e+00
5.422010e+00
5.403154e+00
5.380082e+00
5.354557e+00
5.328442e+00
5.303056e+00
5.278822e+00
5.255381e+00
5.232164e+00
5.208813e+00
5.185152e+00
5.161105e+00
5.136649e+00
5.111646e+00
5.085637e+00
5.057811e+00
5.027270e+00
4.993300e+00
4.955414e+00
4.913362e+00
4.867246e+00
4.817426e+00
4.764110e+00
4.707079e+00
4.645928e+00
4.580546e+00
4.511394e+00
4.439497e+00
4.366198e+00
4.292654e+00
4.219282e+00
4.145545e+00
4.070227e+00
3.992010e+00
3.909931e+00
3.823439e+00
3.732260e+00
3.636402e+00
3.536291e+00
3.432649e+00
3.326131e+00
3.217048e+00
3.105381e+00
2.990893e+00
2.873173e+00
2.751686e+00
2.625932e+00
2.495621e+00
2.360768e+00
2.221688e+00
2.078747e+00
1.932087e+00
1.781704e+00
1.627785e+00
1.470906e+00
1.312040e+00
1.152462e+00
9.935462e-01
8.364657e-01
6.819963e-01
5.306030e-01
3.825212e-01
2.376804e-01
9.566167e-02
-4.422285e-02
-1.826660e-01
-3.199632e-01
-4.558282e-01
-5.895902e-01
-7.205887e-01
-8.485862e-01
-9.740544e-01
-1.098183e+00
-1.222582e+00
-1.348721e+00
-1.477364e+00
-1.608389e+00
-1.740949e+00
-1.873615e+00
-2.004626e+00
-2.132413e+00
-2.256034e+00
-2.375177e+00
-2.489934e+00
-2.600549e+00
-2.707170e+00
-2.809699e+00
-2.907794e+00
-3.000859e+00
-3.087940e+00
-3.167844e+00
-3.239549e+00
-3.302510e+00
-3.356764e+00
-3.403150e+00
-3.443506e+00
-3.480459e+00
-3.516634e+00
-3.553742e+00
-3.592243e+00
-3.631643e+00
-3.670989e+00
-3.709218e+00
-3.745323e+00
-3.778433e+00
-3.807911e+00
-3.833450e+00
-3.855167e+00
-3.873710e+00
-3.890164e+00
-3.905730e+00
-3.921380e+00
-3.937574e+00
-3.954048e+00
-3.969872e+00
-3.983827e+00
-3.994809e+00
-4.001963e+00
-4.004626e+00
-4.002364e+00
-3.995146e+00
-3.983409e+00
-3.967884e+00
-3.949234e+00
-3.927645e+00
-3.902626e+00
-3.873237e+00
-3.838524e+00
-3.797755e+00
-3.750493e+00
-3.696797e+00
-3.637543e+00
-3.574573e+00
-3.510400e+00
-3.447596e+00
-3.388249e+00
-3.333664e+00
-3.284123e+00
-3.238689e+00
-3.195353e+00
-3.151645e+00
-3.105501e+00
-3.055929e+00
-3.003156e+00
-2.948288e+00
-2.892692e+00
-2.837354e+00
-2.782485e+00
-2.727535e+00
-2.671479e+00
-2.613127e+00
-2.551408e+00
-2.485740e+00
-2.416288e+00
-2.344009e+00
-2.270522e+00
-2.197852e+00
-2.128065e+00
-2.062947e+00
-2.003844e+00
-1.951648e+00
-1.906937e+00
-1.870113e+00
-1.841427e+00
-1.820987e+00
-1.808797e+00
-1.804704e+00
-1.808287e+00
-1.818784e+00
-1.834876e+00
-1.854412e+00
-1.874426e+00
-1.891684e+00
-1.903439e+00
-1.907945e+00
-1.904497e+00
-1.893212e+00
-1.874839e+00
-1.850713e+00
-1.822804e+00
-1.793695e+00
-1.766313e+00
-1.743508e+00
-1.727579e+00
-1.719779e+00
-1.720046e+00
-1.727199e+00
-1.739452e+00
-1.754903e+00
-1.771936e+00
-1.789502e+00
-1.807125e+00
-1.824565e+00
-1.841477e+00
-1.857403e+00
-1.871939e+00
-1.884841e+00
-1.896030e+00
-1.905334e+00
-1.912132e+00
-1.915311e+00
-1.913667e+00
-1.906501e+00
-1.894068e+00
-1.877487e+00
-1.858329e+00
-1.838516e+00
-1.820439e+00
-1.806712e+00
-1.799576e+00
-1.800476e+00
-1.810117e+00
-1.828708e+00
-1.856049e+00
-1.891542e+00
-1.934380e+00
-1.983802e+00
-2.039056e+00
-2.099023e+00
-2.162016e+00
-2.226175e+00
-2.290083e+00
-2.352949e+00
-2.414389e+00
-2.474178e+00
-2.532047e+00
-2.587563e+00
-2.640133e+00
-2.689012e+00
-2.733269e+00
-2.771785e+00
-2.803349e+00
-2.826797e+00
-2.841148e+00
-2.845753e+00
-2.840490e+00
-2.825947e+00
-2.803505e+00
-2.775207e+00
-2.743418e+00
-2.710405e+00
-2.677986e+00
-2.647269e+00
-2.618515e+00
-2.591176e+00
-2.564083e+00
-2.535871e+00
-2.505528e+00
-2.472682e+00
-2.437500e+00
-2.400477e+00
-2.362320e+00
-2.323920e+00
-2.286367e+00
-2.250897e+00
-2.218693e+00
-2.190674e+00
-2.167448e+00
-2.149366e+00
-2.136480e+00
-2.128424e+00
-2.124439e+00
-2.123615e+00
-2.125124e+00
-2.128195e+00
-2.131826e+00
-2.134668e+00
-2.135383e+00
-2.133238e+00
-2.128344e+00
-2.121473e+00
-2.113784e+00
-2.106558e+00
-2.100863e+00
-2.097388e+00
-2.096520e+00
-2.098456e+00
-2.103200e+00
-2.110532e+00
-2.120072e+00
-2.131496e+00
-2.144796e+00
-2.160317e+00
-2.178524e+00
-2.199723e+00
-2.223849e+00
-2.250333e+00
-2.278129e+00
-2.305899e+00
-2.332191e+00
-2.355539e+00
-2.374535e+00
-2.387950e+00
-2.394941e+00
-2.395166e+00
-2.388784e+00
-2.376381e+00
-2.358855e+00
-2.337291e+00
-2.312912e+00
-2.287060e+00
-2.261164e+00
-2.236662e+00
-2.214756e+00
-2.195979e+00
-2.179850e+00
-2.164978e+00
-2.149518e+00
-2.131713e+00
-2.110330e+00
-2.084904e+00
-2.055643e+00
-2.023084e+00
-1.987894e+00
-1.951074e+00
-1.914079e+00
-1.878415e+00
-1.844987e+00
-1.813863e+00
-1.784588e+00
-1.756742e+00
-1.730264e+00
-1.705444e+00
-1.682761e+00
-1.662798e+00
-1.646252e+00
-1.633897e+00
-1.626312e+00
-1.623480e+00
-1.624686e+00
-1.628886e+00
-1.635253e+00
-1.643473e+00
-1.653525e+00
-1.665108e+00
-1.677204e+00
-1.688169e+00
-1.696313e+00
-1.700567e+00
-1.700789e+00
-1.697594e+00
-1.691942e+00
-1.684854e+00
-1.677303e+00
-1.669960e+00
-1.662919e+00
-1.655772e+00
-1.647912e+00
-1.638810e+00
-1.628270e+00
-1.616575e+00
-1.604377e+00
-1.592500e+00
-1.581823e+00
-1.573164e+00
-1.567122e+00
-1.563933e+00
-1.563523e+00
-1.565705e+00
-1.570377e+00
-1.577608e+00
-1.587527e+00
-1.600125e+00
-1.615270e+00
-1.632926e+00
-1.653173e+00
-1.675939e+00
-1.700746e+00
-1.726708e+00
-1.752733e+00
-1.777819e+00
-1.801266e+00
-1.822620e+00
-1.841528e+00
-1.857753e+00
-1.871162e+00
-1.881516e+00
-1.888393e+00
-1.891535e+00
