EVENT_NAME: L_AQUILA
EVENT_ID: IT-2009-0009
EVENT_DATE_YYYYMMDD: 20090406
EVENT_TIME_HHMMSS: 013240
EVENT_LATITUDE_DEGREE: 42.3420
EVENT_LONGITUDE_DEGREE: 13.3800
EVENT_DEPTH_KM: 8.3
HYPOCENTER_REFERENCE: INGV-CNT_Seismic_Bulletin
MAGNITUDE_W: 6.1
MAGNITUDE_W_REFERENCE: INGV-CNT_Seismic_Bulletin
MAGNITUDE_L: 
MAGNITUDE_L_REFERENCE: 
FOCAL_MECHANISM: Normal faulting
NETWORK: IT
STATION_CODE: AQA
STATION_NAME: 
STATION_LATITUDE_DEGREE: 42.375530
STATION_LONGITUDE_DEGREE: 13.339298
STATION_ELEVATION_M: 693
LOCATION: 
SENSOR_DEPTH_M: 0.0
VS30_M/S: 549
SITE_CLASSIFICATION_EC8: B
MORPHOLOGIC_CLASSIFICATION: 
EPICENTRAL_DISTANCE_KM: 5.0
EARTHQUAKE_BACKAZIMUTH_DEGREE: 318.0
DATE_TIME_FIRST_SAMPLE_YYYYMMDD_HHMMSS: 
DATE_TIME_FIRST_SAMPLE_PRECISION: 
SAMPLING_INTERVAL_S: 
NDATA: 105
DURATION_S: 
STREAM: HNE
UNITS: cm/s^2
INSTRUMENT: sensor = FBA-3 [Kinemetrics] | digitizer = Everest [Kinemetrics]
INSTRUMENT_ANALOG/DIGITAL: D
INSTRUMENTAL_FREQUENCY_HZ: 206.000
INSTRUMENTAL_DAMPING: 0.000000
FULL_SCALE_G: 1.0
N_BIT_DIGITAL_CONVERTER: 24
PGA_CM/S^2: 394.744503
TIME_PGA_S: 
BASELINE_CORRECTION: BASELINE REMOVED
FILTER_TYPE: BUTTERWORTH
FILTER_ORDER: 2
LOW_CUT_FREQUENCY_HZ: 0.100
HIGH_CUT_FREQUENCY_HZ: 40.000
LATE/NORMAL_TRIGGERED: NT
DATABASE_VERSION: 0.5
HEADER_FORMAT: DYNA 1.2
DATA_TYPE: ACCELERATION RESPONSE SPECTRUM
PROCESSING: manual (Paolucci et al., 2011)
DATA_TIMESTAMP_YYYYMMDD_HHMMSS: 20211011_155709.694
DATA_LICENSE: CC-BY3_0-IT (http://creativecommons.org/licenses/by/3.0/deed.en)
DATA_CITATION: Luzi L, Pacor F, Puglia R (2019). Italian Accelerometric Archive v 3.0 - Istituto Nazionale di Geofisica e Vulcanologia, Dipartimento della Protezione Civile Nazionale. doi: 10.13127/itaca.3.1
DATA_CREATOR: ITACA working group
ORIGINAL_DATA_MEDIATOR_CITATION: data obtained within the DPC-INGV data exchange agreements
ORIGINAL_DATA_MEDIATOR: Archive of Italian Department of Civil Protection
ORIGINAL_DATA_CREATOR_CITATION: Presidency Of Counsil Of Ministers-Civil Protection Department. (1972). Italian Strong Motion Network. Presidency of Counsil of Ministers - Civil Protection Department. https://doi.org/10.7914/SN/IT http://www.fdsn.org/networks/detail/IT/
ORIGINAL_DATA_CREATOR: network: IT (Italian Strong Motion Network (RAN)); owner: Presidency of Counsil of Ministers - Civil Protection Department (PCM - DPC)
USER1: 
USER2: 
USER3: 
USER4: 
USER5: 
    0.010000   396.517365
    0.020000   400.309601
    0.022000   416.081329
    0.025000   395.046387
    0.029000   435.762787
    0.030000   448.737793
    0.032000   467.755066
    0.035001   503.018616
    0.036000   474.462982
    0.040000   540.388000
    0.041999   612.226746
    0.044001   643.447876
    0.045000   686.988342
    0.046000   749.225098
    0.048001   825.108643
    0.050000   801.610718
    0.054999  1089.048706
    0.059999  1231.062012
    0.064998   962.596191
    0.067002   963.316833
    0.069999  1071.800049
    0.075002  1108.905884
    0.080000  1044.386230
    0.084998  1096.395508
    0.090001  1071.427124
    0.095003  1048.041992
    0.100000  1042.351807
    0.109999  1434.321655
    0.120005  1638.999512
    0.130005  1588.967896
    0.132996  1640.224365
    0.139997  1700.389648
    0.149993  1156.332275
    0.160000   867.869080
    0.170010   828.725220
    0.179986   896.304810
    0.190006   772.090637
    0.200000   678.528625
    0.220022   826.943970
    0.239981   764.682983
    0.250000   786.372498
    0.260010   774.459229
    0.280034   774.415222
    0.290023   703.572449
    0.300030   590.420410
    0.320000   407.482056
    0.340020   356.537109
    0.350017   350.838043
    0.359971   339.866302
    0.379939   310.752869
    0.400000   308.426575
    0.419992   310.787079
    0.439947   319.342621
    0.450045   323.591431
    0.459982   327.576538
    0.480077   334.787964
    0.500000   341.188477
    0.550055   354.206848
    0.599880   373.875244
    0.650195   425.614532
    0.667111   428.665283
    0.699790   426.212219
    0.750188   411.056976
    0.800000   416.596466
    0.850340   415.532867
    0.900090   395.209595
    0.949668   358.069733
    1.000000   336.985596
    1.100110   304.219208
    1.200480   265.471954
    1.300390   228.623764
    1.400560   201.669479
    1.499250   172.031616
    1.600000   151.825592
    1.700680   132.087845
    1.798561   114.066406
    1.901141   106.262611
    2.000000    98.639618
    2.197802    84.320877
    2.398082    71.601791
    2.500000    65.926880
    2.597403    60.695332
    2.801121    51.503853
    3.003003    43.969208
    3.205128    37.817253
    3.401361    32.647774
    3.496503    30.386337
    3.597122    28.314354
    3.802281    24.672134
    4.000000    21.603552
    4.201681    19.011013
    4.405286    16.812828
    4.608295    14.940960
    4.807692    13.340098
    5.000000    11.967319
    5.494505     9.405453
    5.988024     7.592388
    6.493506     6.278953
    6.993007     5.298186
    7.518797     4.554537
    8.000000     3.975992
    8.474576     3.540658
    9.009009     3.213197
    9.523809     2.928077
   10.000000     2.678932
