EVENT_NAME: L_AQUILA
EVENT_ID: IT-2009-0009
EVENT_DATE_YYYYMMDD: 20090406
EVENT_TIME_HHMMSS: 013240
EVENT_LATITUDE_DEGREE: 42.3420
EVENT_LONGITUDE_DEGREE: 13.3800
EVENT_DEPTH_KM: 8.3
HYPOCENTER_REFERENCE: INGV-CNT_Seismic_Bulletin
MAGNITUDE_W: 6.1
MAGNITUDE_W_REFERENCE: INGV-CNT_Seismic_Bulletin
MAGNITUDE_L: 
MAGNITUDE_L_REFERENCE: 
FOCAL_MECHANISM: Normal faulting
NETWORK: IT
STATION_CODE: AQA
STATION_NAME: 
STATION_LATITUDE_DEGREE: 42.375530
STATION_LONGITUDE_DEGREE: 13.339298
STATION_ELEVATION_M: 693
LOCATION: 
SENSOR_DEPTH_M: 0.0
VS30_M/S: 549
SITE_CLASSIFICATION_EC8: B
MORPHOLOGIC_CLASSIFICATION: 
EPICENTRAL_DISTANCE_KM: 5.0
EARTHQUAKE_BACKAZIMUTH_DEGREE: 318.0
DATE_TIME_FIRST_SAMPLE_YYYYMMDD_HHMMSS: 20090406_013227.000
DATE_TIME_FIRST_SAMPLE_PRECISION: seconds
SAMPLING_INTERVAL_S: 0.005000
NDATA: 180000
DURATION_S: 900.000
STREAM: HNE
UNITS: cm/s^2
INSTRUMENT: sensor = FBA-3 [Kinemetrics] | digitizer = Everest [Kinemetrics]
INSTRUMENT_ANALOG/DIGITAL: D
INSTRUMENTAL_FREQUENCY_HZ: 206.000
INSTRUMENTAL_DAMPING: 0.000000
FULL_SCALE_G: 1.0
N_BIT_DIGITAL_CONVERTER: 24
PGA_CM/S^2: 397.951599
TIME_PGA_S: 18.805000
BASELINE_CORRECTION: BASELINE NOT REMOVED
FILTER_TYPE: 
FILTER_ORDER: 
LOW_CUT_FREQUENCY_HZ: 
HIGH_CUT_FREQUENCY_HZ: 
LATE/NORMAL_TRIGGERED: NT
DATABASE_VERSION: 0.5
HEADER_FORMAT: DYNA 1.2
DATA_TYPE: ACCELERATION
PROCESSING: converted to cm/s^2
DATA_TIMESTAMP_YYYYMMDD_HHMMSS: 20211011_155707.122
DATA_LICENSE: CC-BY3_0-IT (http://creativecommons.org/licenses/by/3.0/deed.en)
DATA_CITATION: Luzi L, Pacor F, Puglia R (2019). Italian Accelerometric Archive v 3.0 - Istituto Nazionale di Geofisica e Vulcanologia, Dipartimento della Protezione Civile Nazionale. doi: 10.13127/itaca.3.1
DATA_CREATOR: ITACA working group
ORIGINAL_DATA_MEDIATOR_CITATION: data obtained within the DPC-INGV data exchange agreements
ORIGINAL_DATA_MEDIATOR: Archive of Italian Department of Civil Protection
ORIGINAL_DATA_CREATOR_CITATION: Presidency Of Counsil Of Ministers-Civil Protection Department. (1972). Italian Strong Motion Network. Presidency of Counsil of Ministers - Civil Protection Department. https://doi.org/10.7914/SN/IT http://www.fdsn.org/networks/detail/IT/
ORIGINAL_DATA_CREATOR: network: IT (Italian Strong Motion Network (RAN)); owner: Presidency of Counsil of Ministers - Civil Protection Department (PCM - DPC)
USER1: 
USER2: 
USER3: 
USER4: 
USER5: 
[...]
-0.048479
-0.042047
-0.049414
-0.052338
-0.047894
-0.049180
-0.047309
-0.051168
-0.048595
-0.045438
-0.046724
-0.046724
-0.052805
-0.050233
-0.047777
-0.046023
-0.046490
-0.046724
-0.045321
-0.051753
-0.051519
-0.050116
-0.047192
-0.047192
-0.048479
-0.047192
-0.047309
-0.044619
-0.051168
-0.051870
-0.046140
-0.047777
-0.047660
-0.048829
-0.047777
-0.047894
-0.050934
-0.048712
-0.046257
-0.045321
-0.047192
-0.049531
-0.050817
-0.049531
-0.049882
-0.049180
-0.043684
-0.046841
-0.045204
-0.047075
-0.054209
-0.049882
-0.050116
-0.047543
-0.044853
-0.046257
-0.048829
-0.049882
-0.044152
-0.049180
-0.053390
-0.048712
-0.047894
-0.047309
-0.048128
-0.044736
-0.045087
-0.051753
-0.051051
-0.050350
-0.047309
-0.046841
-0.049297
-0.046841
-0.051519
-0.050584
-0.043333
-0.047309
-0.051168
-0.048011
-0.047426
-0.048829
-0.048479
-0.047426
-0.047777
-0.050350
-0.048479
-0.047660
-0.047777
-0.047309
-0.048011
-0.047192
-0.052689
-0.051051
-0.045672
-0.048011
-0.046958
-0.049297
-0.048829
-0.046023
-0.048362
-0.048011
-0.048245
-0.047660
-0.048595
-0.050584
-0.048362
-0.046841
-0.044970
-0.049063
-0.049180
-0.047426
-0.049180
-0.046841
-0.050584
-0.049063
-0.048128
-0.048712
-0.044736
-0.045321
-0.045438
-0.050934
-0.051987
-0.050116
-0.049648
-0.044970
-0.047543
-0.050817
-0.048595
-0.048479
-0.048011
-0.045087
-0.047192
-0.048946
-0.051285
-0.051051
-0.043684
-0.047777
-0.051636
-0.045672
-0.046023
-0.048712
-0.048362
-0.047543
-0.048479
-0.051636
-0.052221
-0.046958
-0.043567
-0.044619
-0.047426
-0.052455
-0.048362
-0.045906
-0.050584
-0.048011
-0.047894
-0.047894
-0.047543
-0.049882
-0.046140
-0.045789
-0.050817
-0.051168
-0.045789
-0.045438
-0.049999
-0.048712
-0.050467
-0.048946
-0.043918
-0.047660
-0.045789
-0.048245
-0.052104
-0.048245
-0.049765
-0.045321
-0.046257
-0.048479
-0.048829
-0.053507
-0.045789
-0.046724
-0.049297
-0.045438
-0.047075
-0.046490
-0.050934
-0.049180
-0.046374
-0.050116
-0.048479
-0.046490
-0.044269
-0.047660
-0.049531
-0.048595
-0.051753
-0.049765
-0.047426
-0.045438
-0.045087
-0.048829
-0.049531
-0.047894
-0.049297
-0.050233
-0.047777
-0.045438
-0.044385
-0.048829
-0.049882
-0.048362
-0.051051
-0.048362
-0.047075
-0.048362
-0.046023
-0.049063
-0.048011
-0.046257
-0.049648
-0.047192
-0.049414
-0.048595
-0.046374
-0.047543
-0.046490
-0.050233
-0.049531
-0.049531
-0.045906
-0.043567
-0.050584
-0.051987
-0.048362
-0.043567
-0.049999
-0.050233
-0.045555
-0.049531
-0.046023
-0.049765
-0.048362
-0.041930
-0.048946
-0.052104
-0.050233
-0.045672
-0.044269
-0.045789
-0.049063
-0.051168
-0.048595
-0.050584
-0.048595
-0.046140
-0.046374
-0.046023
-0.048829
-0.049765
-0.049882
-0.047660
-0.047660
-0.047309
-0.044736
-0.047192
-0.048128
-0.052104
-0.052572
-0.046724
-0.047660
-0.043918
-0.044269
-0.048829
-0.047075
-0.051519
-0.050467
-0.047309
-0.047894
-0.045672
-0.047309
-0.047777
-0.050817
-0.048479
-0.045906
-0.049765
-0.045906
-0.046140
-0.048595
-0.050116
-0.047894
-0.047426
-0.051519
-0.045087
-0.046140
-0.048946
-0.046374
-0.048128
-0.049063
-0.049882
-0.048362
-0.047894
-0.047894
-0.046374
-0.047894
-0.048011
-0.047309
-0.048479
-0.045672
-0.046607
-0.050934
-0.048479
-0.048128
-0.049063
-0.045087
-0.044152
-0.050116
-0.054092
-0.050584
-0.045555
-0.045438
-0.048712
-0.047543
-0.044152
-0.050350
-0.051870
-0.047075
-0.048362
-0.048595
-0.049531
-0.046374
-0.044736
-0.047426
-0.046023
-0.048128
-0.052104
-0.052221
-0.046257
-0.042280
-0.045906
-0.048595
-0.049882
-0.049180
-0.049531
-0.051636
-0.048245
-0.047075
-0.047075
-0.043801
-0.041579
-0.044853
-0.054209
-0.053156
-0.047777
-0.049297
-0.050350
-0.046841
-0.043567
-0.045906
-0.048245
-0.049297
-0.046724
-0.048479
-0.051636
-0.046490
-0.045789
-0.049063
-0.049297
-0.045087
-0.044269
-0.049531
-0.049765
-0.047426
-0.046140
-0.047660
-0.052689
-0.045087
-0.043684
-0.054092
-0.048712
-0.045204
-0.046490
-0.046958
-0.051519
-0.051168
-0.047894
-0.044970
-0.046724
-0.047192
-0.048245
-0.051636
-0.047192
-0.046841
-0.049999
-0.049063
-0.047075
-0.047777
-0.047543
-0.043918
-0.043684
-0.049063
-0.054443
-0.050934
-0.046841
-0.045438
-0.046958
-0.047660
-0.044502
-0.051636
-0.051168
-0.045204
-0.048595
-0.048128
-0.049765
-0.046841
-0.044269
-0.049765
-0.047075
-0.048245
-0.050817
-0.049765
-0.046374
-0.042982
-0.050350
-0.049297
-0.046841
-0.048712
-0.048595
-0.050584
-0.046140
-0.047075
-0.046724
-0.047075
-0.048829
-0.046490
-0.049882
-0.047309
-0.047426
-0.048946
-0.048245
-0.047192
-0.044385
-0.050817
-0.049063
-0.045321
-0.046724
-0.049063
-0.051051
-0.041930
-0.046374
-0.054209
-0.048946
-0.045438
-0.045204
-0.049882
-0.049648
-0.046374
-0.047543
-0.051051
-0.045555
-0.041579
-0.048362
-0.051870
-0.053156
-0.047309
-0.046374
-0.047075
-0.045906
-0.046607
-0.044619
-0.054677
-0.048829
-0.041930
-0.053273
-0.050233
-0.047075
-0.046958
-0.048128
-0.048946
-0.044035
-0.048829
-0.052221
-0.046374
-0.043216
-0.047894
-0.054326
-0.049999
-0.044152
-0.048011
-0.047777
-0.043099
-0.045321
-0.051051
-0.051285
-0.046607
-0.046023
-0.050584
-0.050700
-0.046257
-0.045204
-0.048595
-0.048011
-0.042280
-0.045789
-0.051753
-0.050116
-0.046724
-0.047777
-0.051636
-0.045672
-0.044035
-0.048829
-0.047543
-0.048946
-0.048595
-0.048712
-0.048946
-0.045204
-0.044853
-0.047777
-0.050116
-0.049414
-0.049297
-0.048829
-0.047075
-0.043567
-0.042982
-0.048595
-0.049882
-0.052689
-0.052805
-0.050116
-0.047309
-0.040409
-0.044152
-0.047309
-0.045087
-0.048362
-0.049063
-0.053039
-0.050233
-0.045087
-0.050817
-0.046841
-0.048712
-0.043099
-0.032106
-0.026259
-0.026259
-0.057132
-0.090929
-0.173492
-0.201909
-0.143437
0.192778
1.099447
2.432612
3.725431
3.950315
2.588499
-0.646415
-4.616440
-7.619453
-7.652081
-2.549333
3.081653
7.033318
9.368345
6.608927
2.304558
-2.894552
-9.198201
-10.642110
-7.130392
-1.394391
5.192849
10.386810
10.391610
5.140341
-1.752591
-9.155868
-11.829330
-5.080592
2.842970
7.883387
12.394280
7.634880
-2.987991
-9.607389
-14.403280
-11.443880
-1.174886
7.713233
13.641960
13.299080
6.169801
-1.592962
-7.885619
-10.991430
-7.981396
-5.763898
-2.530855
3.189008
5.477959
9.004883
10.049780
5.694890
-0.622792
-5.090650
-4.609891
-3.340110
-0.021347
1.941680
-1.477187
-3.239655
-3.833966
-5.286414
-1.936661
2.809991
7.085008
10.701040
3.217425
-7.908540
-11.879620
-9.479687
1.674696
11.994210
13.958880
10.979020
2.490149
-7.729030
-12.581990
-8.221833
0.879475
2.511783
-0.267632
1.038636
-2.160961
-6.696529
-4.914063
-1.090803
5.205595
6.100453
6.111446
11.104270
7.992028
2.578091
-0.151857
-5.956154
-13.437550
-16.610250
-12.115610
-4.096038
7.383099
17.677010
16.004120
8.675333
4.446744
-6.104206
-17.574570
-19.778040
-17.862841
-3.716437
13.729430
18.893930
22.455351
19.245340
5.759795
-3.658199
-9.464601
-13.406090
-10.672520
-5.908792
-6.002932
-6.544384
-3.918984
1.168912
8.718719
12.440820
11.931650
8.291405
3.515282
5.878727
10.585500
9.816242
3.523001
-0.963334
2.938045
10.271970
14.201650
14.177560
15.548620
13.169040
3.970547
-3.040499
-7.022570
-10.238190
-11.041130
-8.571731
-9.334558
-10.256080
-4.274144
5.287457
19.399361
29.760740
24.708630
4.022704
-18.289450
-25.072920
-18.902010
-9.710885
0.437425
12.094080
16.556561
12.801600
14.613060
26.158270
36.240280
31.997650
9.476870
-18.254021
-35.481548
-45.186760
-30.871490
10.552990
35.878681
30.718870
9.365772
-8.683413
-4.012189
10.571000
12.380480
2.768827
-12.657880
-21.720369
-17.106680
-3.100959
23.203440
51.378368
67.125969
55.795120
24.633551
-6.414693
-36.467628
-47.645981
-29.324900
-4.835360
12.005090
23.527960
14.780180
-1.485139
0.427017
4.728580
1.555179
-1.940988
-3.459276
2.833263
31.865511
66.594109
83.852402
78.342690
47.053181
7.529045
-35.558849
-65.097351
-58.326630
-28.569090
13.211720
49.452179
64.902039
48.955978
1.567809
-24.282961
-31.915449
-45.756519
-30.445700
-18.389561
-16.521959
-0.806278
2.678663
3.681577
10.905690
32.232479
53.057220
53.537399
51.226219
34.225910
19.676279
18.626011
-6.638525
-29.814899
-11.546210
19.904329
36.616249
41.540310
45.127579
50.853168
32.204182
-2.390054
-16.604521
-36.441429
-43.386051
-14.378720
2.469566
16.561359
22.020081
7.449991
6.135186
23.776590
62.764420
71.851341
32.177170
-16.179190
-60.572540
-70.072861
-43.034050
5.952987
52.637859
69.216820
48.122410
5.862706
-21.900810
-13.434040
24.451241
26.670370
-2.801932
-67.143059
-123.470901
-94.785538
-58.635941
6.758967
73.880440
91.413788
101.557098
68.903641
46.826778
32.972969
1.173707
20.083599
25.051161
2.157091
17.848450
6.274934
-16.739470
-8.415377
-18.277639
-45.011459
-77.039589
-77.472862
-42.259289
-1.669911
42.761211
124.274002
199.490005
163.136703
105.209000
64.758789
10.800910
-27.230551
-50.357800
-37.078308
-28.233810
1.622305
26.033140
3.970196
19.921749
30.641689
34.598499
3.889972
-65.843689
-85.203819
-89.572388
-62.329281
-16.914190
26.367720
72.254333
60.171879
46.314209
34.057281
-22.400511
-61.547619
-86.667610
-77.619278
-29.457279
29.787640
139.642197
209.314697
178.551895
82.626587
-39.524670
-148.109100
-232.613098
-219.705704
-143.662201
-68.105392
37.429371
128.150299
124.498001
106.979103
178.090500
185.651093
116.558899
56.712669
-58.649509
-142.175095
-135.414902
-40.976410
95.579224
137.487000
118.366997
107.371902
117.041702
116.524498
47.874020
-31.551870
-94.865410
-196.369202
-236.443207
-155.596298
-125.354500
-120.277397
-46.169800
5.529531
16.767179
5.478661
16.652109
13.274050
-53.115231
-96.055077
-115.930199
-94.010780
-13.315460
83.037064
155.050705
160.659897
122.064301
61.574741
-1.817612
-43.599361
-25.876921
-4.837114
5.586834
84.427063
144.665497
144.652100
92.259644
2.083884
-105.449501
-212.739807
-246.633408
-263.242889
-261.430206
-237.929703
-193.971100
-88.796700
-51.563148
-72.675217
-85.837067
-114.940102
-160.052200
-206.621506
-211.850296
-214.217300
-185.220001
-88.241096
-21.422979
24.059710
66.967628
25.461399
-11.098660
9.669360
-14.123660
-22.850519
-11.199590
-25.947670
-32.092159
-69.434929
-121.097298
-134.610001
-148.321503
-173.425705
-169.446793
-147.248306
-129.742996
-142.322601
-175.902893
-169.738403
-148.769104
-118.096298
-56.185139
-5.662741
13.075710
-10.330460
-65.259789
-122.449501
-159.428696
-170.916595
-182.210907
-193.671707
-177.115997
-136.076004
-110.919296
-102.049797
-105.638199
-115.552597
-122.699097
-152.828506
-174.153000
-178.068802
-186.491196
-176.283905
-143.336105
-141.176605
-161.560593
-137.627396
-119.662300
-82.474342
-25.247641
16.747181
90.368767
100.832100
109.663696
147.916595
121.139297
115.054398
95.384750
48.722328
40.887760
57.326859
84.812630
108.274803
126.513496
103.137100
53.195919
-2.141782
-79.890343
-109.915703
-84.281937
-61.418400
-16.969391
69.534088
140.690094
164.234406
177.401093
178.916306
162.838593
158.165604
160.978806
184.358200
201.514404
221.946198
298.924011
334.778412
337.145508
353.395905
315.635010
250.149994
144.888107
15.459620
-45.710320
-52.369480
-35.247082
4.206306
48.235489
80.518204
120.322899
150.361099
149.104401
157.837296
135.635193
75.300148
38.318489
-1.844041
-26.659161
-13.762890
21.306259
83.518639
122.987396
146.567596
179.578201
196.567795
204.046097
181.865601
149.661407
129.806107
106.578697
131.599396
185.703201
213.614594
238.341293
257.402588
258.386414
228.869797
154.270996
46.733219
-63.419670
-134.528900
-186.450500
-209.429993
-167.333496
-89.627357
17.639000
106.451401
139.744797
131.913605
83.309662
27.531200
-15.237790
-24.614740
7.270247
47.061951
85.655800
136.094894
165.443695
148.249207
114.572998
52.797131
-35.673229
-117.008003
-186.755005
-242.717300
-278.446411
-293.984314
-314.509186
-332.125397
-323.966095
-326.477600
-332.177307
-301.736389
-269.781311
-232.118698
-143.079193
-22.568680
112.591698
230.699799
290.132202
315.688385
314.241394
279.824310
230.266296
157.375107
49.303070
-72.386139
-178.487701
-274.666595
-336.130798
-324.249786
-272.302612
-203.405701
-127.064400
-63.859612
-12.185540
0.769898
-6.682379
24.045210
44.570572
48.715900
73.040901
74.236069
67.027267
93.667183
147.384293
189.695007
225.969696
229.233200
148.078293
94.070877
45.467770
-70.962807
-173.985397
-270.950714
-328.747986
-337.699005
-358.647186
-355.063599
-327.590302
-290.227905
-254.362106
-234.459595
-200.107300
-129.140198
-31.567310
16.703680
31.965380
63.063438
64.877007
71.774742
97.570900
118.299500
147.641998
183.073807
229.411194
278.777710
325.701691
361.764801
389.629913
397.951599
369.598206
322.429901
234.928696
134.535400
53.122829
-26.437660
-71.244759
-76.314774
-59.144772
-16.082710
49.674839
95.653839
95.929588
91.822510
75.654373
41.640652
11.971530
-31.312250
-81.916054
-133.802597
-171.371902
-186.157898
-204.175507
-210.652603
-196.149597
-163.857605
-121.820000
-88.176308
-62.494640
-32.112499
25.949881
93.004807
124.711998
104.778503
75.101341
43.153679
-24.457211
-67.961082
-83.954857
-103.665604
-111.111504
-113.848602
-104.182701
-91.516357
-72.767487
-66.123070
-93.139191
-109.530899
-115.021103
-121.879799
-97.518639
-48.257252
-0.410655
60.993290
118.838699
168.169403
227.886902
259.568787
267.497192
268.023895
240.535294
202.621399
162.229996
113.267197
58.913792
1.402216
-48.909328
-103.388397
-134.835999
-107.990402
-50.148010
25.386669
95.291313
144.634094
169.767593
151.980698
120.485298
104.335701
80.594917
9.851910
-62.458500
-94.401016
-97.526817
-67.092422
-52.444790
-54.151829
-67.400223
-88.378616
-106.070999
-138.097702
-156.850296
-197.942703
-201.252594
-155.407394
-124.363098
-75.458618
-67.269119
-79.491913
-64.079933
-28.925890
42.916389
121.969704
158.985306
164.337204
138.793396
84.388474
67.610008
26.644291
-26.023800
-9.638965
10.089190
23.610411
49.513340
65.806137
45.903271
14.730940
-8.610439
-49.220760
-78.722183
-106.316002
-120.923500
-104.155296
-106.393700
-98.599670
-93.259773
-116.547997
-111.762802
-96.256340
-94.524857
-104.125504
-107.744904
-80.196732
-47.416889
-4.922483
44.606819
69.398323
76.055367
94.899193
120.743698
108.307999
110.405800
142.147598
154.759003
148.599396
103.822601
76.841942
67.870323
52.604408
71.190140
48.917160
5.029127
8.098330
-5.442769
-17.732450
-17.301510
-42.375069
-49.475578
-54.047871
-76.942871
-83.764107
-75.705368
-72.625763
-76.711327
-51.584320
-12.639290
10.878800
65.825081
125.050102
155.833099
202.558395
225.462601
230.312607
221.582306
155.613098
110.230698
63.066132
-6.818385
-25.346220
-41.125519
-42.709530
13.027530
58.578629
90.123421
134.929901
141.665695
107.583000
72.224159
22.108141
-28.765909
-65.320831
-99.093063
-111.181900
-76.016319
-18.010660
20.050859
54.572819
66.561363
33.385429
-6.133559
-42.929272
-87.192688
-120.626602
-133.973007
-139.945297
-100.403900
-41.328529
-12.677180
18.238689
44.315048
64.810829
78.722992
65.706497
35.897160
9.669243
-1.515428
-1.757620
10.267880
30.872530
48.247070
49.848621
50.137241
60.986401
56.104912
34.993420
19.067591
4.470601
-22.093069
-57.515270
-87.266602
-100.114502
-90.798317
-62.727009
-16.823090
45.061619
83.045837
81.486847
53.591888
12.786390
-5.081294
-33.373280
-77.997124
-96.975197
-117.067398
-113.277397
-69.681099
-18.762369
29.144560
36.553810
15.191700
-12.475100
-44.713139
-61.317829
-75.168953
-78.701950
-86.272102
-113.297501
-129.422195
-128.449905
-113.248199
-121.853897
-131.048599
-96.724709
-69.533051
-54.503719
-27.939110
14.336140
37.876801
21.921619
0.999459
-41.538799
-92.758652
-121.624100
-124.245598
-96.282539
-64.711197
-32.350021
8.304152
47.390800
56.851601
40.338120
34.483311
23.386580
14.534710
26.177219
31.223009
45.823750
72.128273
73.939377
58.728439
28.316950
-6.942463
-32.814400
-61.480030
-91.434959
-117.210098
-119.745697
-109.345001
-99.085808
-73.429749
-53.828949
-38.081581
-0.834929
42.328979
65.159088
70.688103
68.449203
46.376888
4.084450
-57.285820
-110.654297
-133.469894
-148.156601
-141.946106
-109.720596
-55.149830
23.923700
109.167999
172.705399
199.189407
208.987503
194.102600
176.076706
167.942307
154.915100
157.486893
153.004196
147.686707
153.284195
163.874893
185.226593
194.197006
190.070007
160.211502
89.509583
12.700320
-48.509621
-94.983414
-110.920601
-103.725700
-95.809151
-67.905296
-8.960454
25.282360
19.349779
2.527688
-19.245359
-36.413601
-94.595848
-152.125900
-186.723999
-241.811096
-228.235703
-189.934402
-170.671494
-126.558701
-86.483307
-32.581329
25.420710
64.382462
84.222061
97.157738
106.319397
84.511261
54.159069
14.345030
-39.846970
-79.597862
-95.370377
-52.964840
29.245951
110.639397
179.111603
200.928406
189.634598
160.781494
117.170097
46.860931
-43.722389
-101.689301
-119.990898
-106.085701
-78.769897
-27.511560
38.779839
53.848820
37.312309
46.499451
64.830940
34.619431
-18.444050
-36.933769
-39.323990
-48.817410
-57.281490
-61.109310
-64.252083
-68.046570
-62.619061
-23.874130
12.227870
8.590782
-4.921080
-29.261990
-65.937943
-82.798157
-82.966438
-69.627296
-46.934139
-60.758480
-73.306602
-55.957802
-46.368019
-19.448490
3.904122
27.557980
64.907654
66.253799
48.435349
23.167770
6.111563
-10.535110
-44.397041
-52.674591
-56.686951
-74.371147
-72.999741
-52.309719
-44.245831
-45.843639
-40.310539
-44.984211
-41.895012
-35.651939
-40.491798
-21.339130
8.153060
22.490320
43.425220
57.923038
48.449261
54.408630
69.208282
64.597763
79.205971
104.461304
101.023102
90.441856
66.846008
34.700939
10.190810
-30.646839
-62.872478
-75.732262
-86.165207
-79.677147
-75.005692
-83.163963
-79.167503
-87.690643
-102.645203
-74.249527
-25.708750
33.468231
94.069359
127.666298
149.378601
144.362106
117.006500
94.700272
64.497299
52.463730
79.908684
113.872803
148.959900
159.610901
137.339600
134.274704
117.269897
65.026817
35.009090
19.952391
-10.983940
-30.368280
-30.341850
-38.227169
-46.557701
-61.965580
-88.930252
-98.720833
-85.828300
