EVENT_NAME: L_AQUILA
EVENT_ID: IT-2009-0009
EVENT_DATE_YYYYMMDD: 20090406
EVENT_TIME_HHMMSS: 013240
EVENT_LATITUDE_DEGREE: 42.3420
EVENT_LONGITUDE_DEGREE: 13.3800
EVENT_DEPTH_KM: 8.3
HYPOCENTER_REFERENCE: INGV-CNT_Seismic_Bulletin
MAGNITUDE_W: 6.1
MAGNITUDE_W_REFERENCE: INGV-CNT_Seismic_Bulletin
MAGNITUDE_L: 
MAGNITUDE_L_REFERENCE: 
FOCAL_MECHANISM: Normal faulting
NETWORK: IT
STATION_CODE: AQA
STATION_NAME: 
STATION_LATITUDE_DEGREE: 42.375530
STATION_LONGITUDE_DEGREE: 13.339298
STATION_ELEVATION_M: 693
LOCATION: 
SENSOR_DEPTH_M: 0.0
VS30_M/S: 549
SITE_CLASSIFICATION_EC8: B
MORPHOLOGIC_CLASSIFICATION: 
EPICENTRAL_DISTANCE_KM: 5.0
EARTHQUAKE_BACKAZIMUTH_DEGREE: 318.0
DATE_TIME_FIRST_SAMPLE_YYYYMMDD_HHMMSS: 20090406_013227.000
DATE_TIME_FIRST_SAMPLE_PRECISION: seconds
SAMPLING_INTERVAL_S: 0.005000
NDATA: 8000
DURATION_S: 40.000
STREAM: HNZ
UNITS: cm
INSTRUMENT: sensor = FBA-3 [Kinemetrics] | digitizer = Everest [Kinemetrics]
INSTRUMENT_ANALOG/DIGITAL: D
INSTRUMENTAL_FREQUENCY_HZ: 210.000
INSTRUMENTAL_DAMPING: 0.000000
FULL_SCALE_G: 1.0
N_BIT_DIGITAL_CONVERTER: 24
PGD_CM: -1.720128
TIME_PGD_S: 17.840000
BASELINE_CORRECTION: BASELINE REMOVED
FILTER_TYPE: BUTTERWORTH
FILTER_ORDER: 2
LOW_CUT_FREQUENCY_HZ: 0.100
HIGH_CUT_FREQUENCY_HZ: 40.000
LATE/NORMAL_TRIGGERED: NT
DATABASE_VERSION: 0.5
HEADER_FORMAT: DYNA 1.2
DATA_TYPE: DISPLACEMENT
PROCESSING: manual (Paolucci et al., 2011)
DATA_TIMESTAMP_YYYYMMDD_HHMMSS: 20211011_155709.473
DATA_LICENSE: CC-BY3_0-IT (http://creativecommons.org/licenses/by/3.0/deed.en)
DATA_CITATION: Luzi L, Pacor F, Puglia R (2019). Italian Accelerometric Archive v 3.0 - Istituto Nazionale di Geofisica e Vulcanologia, Dipartimento della Protezione Civile Nazionale. doi: 10.13127/itaca.3.1
DATA_CREATOR: ITACA working group
ORIGINAL_DATA_MEDIATOR_CITATION: data obtained within the DPC-INGV data exchange agreements
ORIGINAL_DATA_MEDIATOR: Archive of Italian Department of Civil Protection
ORIGINAL_DATA_CREATOR_CITATION: Presidency Of Counsil Of Ministers-Civil Protection Department. (1972). Italian Strong Motion Network. Presidency of Counsil of Ministers - Civil Protection Department. https://doi.org/10.7914/SN/IT http://www.fdsn.org/networks/detail/IT/
ORIGINAL_DATA_CREATOR: network: IT (Italian Strong Motion Network (RAN)); owner: Presidency of Counsil of Ministers - Civil Protection Department (PCM - DPC)
USER1: 
USER2: 
USER3: 
USER4: 
USER5: 
[...]
-3.996336e-02
-3.956597e-02
-3.916633e-02
-3.876442e-02
-3.836023e-02
-3.795376e-02
-3.754500e-02
-3.713394e-02
-3.672058e-02
-3.630495e-02
-3.588702e-02
-3.546678e-02
-3.504421e-02
-3.461930e-02
-3.419205e-02
-3.376246e-02
-3.333051e-02
-3.289621e-02
-3.245957e-02
-3.202060e-02
-3.157924e-02
-3.113548e-02
-3.068929e-02
-3.024071e-02
-2.978978e-02
-2.933650e-02
-2.888081e-02
-2.842267e-02
-2.796208e-02
-2.749906e-02
-2.703361e-02
-2.656571e-02
-2.609537e-02
-2.562259e-02
-2.514737e-02
-2.466972e-02
-2.418960e-02
-2.370701e-02
-2.322191e-02
-2.273430e-02
-2.224417e-02
-2.175154e-02
-2.125640e-02
-2.075878e-02
-2.025867e-02
-1.975606e-02
-1.925088e-02
-1.874312e-02
-1.823277e-02
-1.771988e-02
-1.720447e-02
-1.668654e-02
-1.616606e-02
-1.564299e-02
-1.511730e-02
-1.458898e-02
-1.405805e-02
-1.352454e-02
-1.298846e-02
-1.244979e-02
-1.190851e-02
-1.136459e-02
-1.081801e-02
-1.026877e-02
-9.716903e-03
-9.162386e-03
-8.605210e-03
-8.045360e-03
-7.482838e-03
-6.917646e-03
-6.349773e-03
-5.779210e-03
-5.205953e-03
-4.629998e-03
-4.051336e-03
-3.469955e-03
-2.885848e-03
-2.299018e-03
-1.709465e-03
-1.117175e-03
-5.221326e-04
7.566399e-05
6.762067e-04
1.279508e-03
1.885590e-03
2.494455e-03
3.106103e-03
3.720553e-03
4.337825e-03
4.957908e-03
5.580779e-03
6.206438e-03
6.834912e-03
7.466233e-03
8.100423e-03
8.737481e-03
9.377384e-03
1.002012e-02
1.066571e-02
1.131416e-02
1.196551e-02
1.261976e-02
1.327691e-02
1.393696e-02
1.459988e-02
1.526570e-02
1.593443e-02
1.660609e-02
1.728070e-02
1.795827e-02
1.863880e-02
1.932226e-02
2.000863e-02
2.069794e-02
2.139023e-02
2.208552e-02
2.278381e-02
2.348506e-02
2.418930e-02
2.489654e-02
2.560679e-02
2.632005e-02
2.703633e-02
2.775562e-02
2.847795e-02
2.920333e-02
2.993174e-02
3.066320e-02
3.139771e-02
3.213527e-02
3.287587e-02
3.361954e-02
3.436634e-02
3.511627e-02
3.586932e-02
3.662542e-02
3.738459e-02
3.814685e-02
3.891224e-02
3.968077e-02
4.045242e-02
4.122719e-02
4.200513e-02
4.278626e-02
4.357057e-02
4.435800e-02
4.514853e-02
4.594222e-02
4.673912e-02
4.753926e-02
4.834261e-02
4.914912e-02
4.995881e-02
5.077169e-02
5.158779e-02
5.240714e-02
5.322972e-02
5.405554e-02
5.488459e-02
5.571688e-02
5.655242e-02
5.739122e-02
5.823328e-02
5.907863e-02
5.992730e-02
6.077927e-02
6.163450e-02
6.249295e-02
6.335469e-02
6.421980e-02
6.508827e-02
6.596006e-02
6.683512e-02
6.771349e-02
6.859524e-02
6.948037e-02
7.036885e-02
7.126067e-02
7.215585e-02
7.305445e-02
7.395644e-02
7.486178e-02
7.577047e-02
7.668256e-02
7.759806e-02
7.851698e-02
7.943931e-02
8.036506e-02
8.129427e-02
8.222694e-02
8.316306e-02
8.410259e-02
8.504551e-02
8.599185e-02
8.694166e-02
8.789500e-02
8.885187e-02
8.981226e-02
9.077612e-02
9.174343e-02
9.271417e-02
9.368841e-02
9.466621e-02
9.564758e-02
9.663252e-02
9.762100e-02
9.861300e-02
9.960849e-02
1.006075e-01
1.016100e-01
1.026162e-01
1.036259e-01
1.046393e-01
1.056562e-01
1.066766e-01
1.077007e-01
1.087283e-01
1.097595e-01
1.107944e-01
1.118328e-01
1.128749e-01
1.139207e-01
1.149700e-01
1.160230e-01
1.170797e-01
1.181399e-01
1.192039e-01
1.202715e-01
1.213428e-01
1.224178e-01
1.234964e-01
1.245787e-01
1.256647e-01
1.267543e-01
1.278477e-01
1.289447e-01
1.300455e-01
1.311500e-01
1.322583e-01
1.333703e-01
1.344859e-01
1.356053e-01
1.367285e-01
1.378554e-01
1.389861e-01
1.401206e-01
1.412588e-01
1.424008e-01
1.435466e-01
1.446962e-01
1.458495e-01
1.470066e-01
1.481675e-01
1.493322e-01
1.505007e-01
1.516731e-01
1.528493e-01
1.540293e-01
1.552131e-01
1.564008e-01
1.575923e-01
1.587877e-01
1.599869e-01
1.611900e-01
1.623969e-01
1.636077e-01
1.648224e-01
1.660409e-01
1.672634e-01
1.684897e-01
1.697199e-01
1.709540e-01
1.721921e-01
1.734341e-01
1.746799e-01
1.759297e-01
1.771834e-01
1.784411e-01
1.797027e-01
1.809683e-01
1.822379e-01
1.835113e-01
1.847886e-01
1.860700e-01
1.873553e-01
1.886445e-01
1.899377e-01
1.912350e-01
1.925363e-01
1.938416e-01
1.951508e-01
1.964640e-01
1.977812e-01
1.991024e-01
2.004277e-01
2.017569e-01
2.030902e-01
2.044275e-01
2.057689e-01
2.071142e-01
2.084637e-01
2.098171e-01
2.111746e-01
2.125362e-01
2.139018e-01
2.152716e-01
2.166454e-01
2.180232e-01
2.194051e-01
2.207910e-01
2.221811e-01
2.235754e-01
2.249737e-01
2.263762e-01
2.277828e-01
2.291934e-01
2.306080e-01
2.320269e-01
2.334499e-01
2.348770e-01
2.363083e-01
2.377438e-01
2.391833e-01
2.406270e-01
2.420748e-01
2.435267e-01
2.449829e-01
2.464431e-01
2.479075e-01
2.493761e-01
2.508488e-01
2.523257e-01
2.538069e-01
2.552923e-01
2.567818e-01
2.582755e-01
2.597734e-01
2.612754e-01
2.627817e-01
2.642922e-01
2.658069e-01
2.673259e-01
2.688490e-01
2.703764e-01
2.719079e-01
2.734438e-01
2.749838e-01
2.765281e-01
2.780766e-01
2.796293e-01
2.811863e-01
2.827475e-01
2.843130e-01
2.858828e-01
2.874569e-01
2.890352e-01
2.906178e-01
2.922046e-01
2.937957e-01
2.953911e-01
2.969908e-01
2.985949e-01
3.002032e-01
3.018157e-01
3.034325e-01
3.050536e-01
3.066791e-01
3.083090e-01
3.099432e-01
3.115816e-01
3.132242e-01
3.148712e-01
3.165226e-01
3.181783e-01
3.198384e-01
3.215028e-01
3.231715e-01
3.248446e-01
3.265219e-01
3.282036e-01
3.298897e-01
3.315801e-01
3.332748e-01
3.349739e-01
3.366774e-01
3.383852e-01
3.400974e-01
3.418139e-01
3.435348e-01
3.452600e-01
3.469896e-01
3.487236e-01
3.504620e-01
3.522047e-01
3.539518e-01
3.557033e-01
3.574592e-01
3.592195e-01
3.609841e-01
3.627531e-01
3.645265e-01
3.663043e-01
3.680865e-01
3.698731e-01
3.716642e-01
3.734596e-01
3.752594e-01
3.770636e-01
3.788722e-01
3.806851e-01
3.825026e-01
3.843244e-01
3.861507e-01
3.879814e-01
3.898165e-01
3.916560e-01
3.935000e-01
3.953484e-01
3.972012e-01
3.990584e-01
4.009201e-01
4.027862e-01
4.046566e-01
4.065315e-01
4.084109e-01
4.102947e-01
4.121829e-01
4.140756e-01
4.159727e-01
4.178743e-01
4.197802e-01
4.216906e-01
4.236054e-01
4.255247e-01
4.274484e-01
4.293767e-01
4.313093e-01
4.332464e-01
4.351879e-01
4.371338e-01
4.390841e-01
4.410389e-01
4.429981e-01
4.449618e-01
4.469300e-01
4.489027e-01
4.508797e-01
4.528612e-01
4.548470e-01
4.568373e-01
4.588322e-01
4.608315e-01
4.628353e-01
4.648434e-01
4.668560e-01
4.688731e-01
4.708945e-01
4.729204e-01
4.749507e-01
4.769856e-01
4.790249e-01
4.810687e-01
4.831169e-01
4.851694e-01
4.872263e-01
4.892877e-01
4.913537e-01
4.934241e-01
4.954989e-01
4.975782e-01
4.996618e-01
5.017499e-01
5.038425e-01
5.059395e-01
5.080407e-01
5.101456e-01
5.122537e-01
5.143646e-01
5.164787e-01
5.185967e-01
5.207189e-01
5.228433e-01
5.249625e-01
5.270581e-01
5.290935e-01
5.310126e-01
5.327590e-01
5.343183e-01
5.357609e-01
5.372409e-01
5.389370e-01
5.409637e-01
5.432978e-01
5.457632e-01
5.481044e-01
5.501278e-01
5.518034e-01
5.532346e-01
5.545564e-01
5.558933e-01
5.573839e-01
5.591581e-01
5.612473e-01
5.635306e-01
5.657917e-01
5.678490e-01
5.696651e-01
5.713555e-01
5.730958e-01
5.750150e-01
5.771271e-01
5.792939e-01
5.812720e-01
5.828960e-01
5.842453e-01
5.855973e-01
5.872316e-01
5.892911e-01
5.917376e-01
5.943540e-01
5.968310e-01
5.989430e-01
6.006927e-01
6.023174e-01
6.041541e-01
6.064376e-01
6.091608e-01
6.120998e-01
6.149870e-01
6.176862e-01
6.202285e-01
6.227235e-01
6.252379e-01
6.277223e-01
6.300673e-01
6.322762e-01
6.345479e-01
6.371051e-01
6.399411e-01
6.428158e-01
6.455125e-01
6.480237e-01
6.504806e-01
6.529995e-01
6.556310e-01
6.583744e-01
6.611764e-01
6.639436e-01
6.665917e-01
6.690954e-01
6.715351e-01
6.741142e-01
6.770480e-01
6.803237e-01
6.835841e-01
6.863484e-01
6.883940e-01
6.899517e-01
6.915936e-01
6.938883e-01
6.969953e-01
7.005274e-01
7.038733e-01
7.067051e-01
7.091741e-01
7.116544e-01
7.143542e-01
7.171755e-01
7.198699e-01
7.222674e-01
7.243643e-01
7.262573e-01
7.280385e-01
7.297441e-01
7.313667e-01
7.329147e-01
7.344758e-01
7.362067e-01
7.382437e-01
7.406184e-01
7.432406e-01
7.459523e-01
7.486373e-01
7.512920e-01
7.539518e-01
7.565611e-01
7.589888e-01
7.611834e-01
7.632357e-01
7.652738e-01
7.673479e-01
7.694204e-01
7.714267e-01
7.733378e-01
7.751913e-01
7.770773e-01
7.790819e-01
7.812082e-01
7.833370e-01
7.853198e-01
7.871527e-01
7.890091e-01
7.910600e-01
7.933247e-01
7.957204e-01
7.981570e-01
8.005189e-01
8.026483e-01
8.044557e-01
8.060240e-01
8.074925e-01
8.087973e-01
8.096237e-01
8.097195e-01
8.092334e-01
8.086371e-01
8.082641e-01
8.079967e-01
8.074373e-01
8.063105e-01
8.046575e-01
8.026887e-01
8.004985e-01
7.979424e-01
7.947781e-01
7.909263e-01
7.866625e-01
7.825998e-01
7.793984e-01
7.773484e-01
7.761466e-01
7.750578e-01
7.733416e-01
7.706715e-01
7.673217e-01
7.640424e-01
7.616565e-01
7.605428e-01
7.603742e-01
7.604168e-01
7.601405e-01
7.595023e-01
7.586978e-01
7.577858e-01
7.565242e-01
7.543812e-01
7.507348e-01
7.453867e-01
7.390669e-01
7.332302e-01
7.290965e-01
7.268071e-01
7.254379e-01
7.237951e-01
7.214179e-01
7.190209e-01
7.178140e-01
7.181522e-01
7.189265e-01
7.184777e-01
7.161550e-01
7.129885e-01
7.108603e-01
7.109798e-01
7.130830e-01
7.159289e-01
7.183445e-01
7.198173e-01
7.203994e-01
7.203534e-01
7.200314e-01
7.199462e-01
7.205569e-01
7.217825e-01
7.228967e-01
7.230309e-01
7.217815e-01
7.194450e-01
7.167977e-01
7.145950e-01
7.130984e-01
7.119520e-01
7.105984e-01
7.089511e-01
7.074849e-01
7.064279e-01
7.050300e-01
7.018995e-01
6.960522e-01
6.875995e-01
6.776611e-01
6.679256e-01
6.601532e-01
6.554286e-01
6.533788e-01
6.522492e-01
6.501580e-01
6.464490e-01
6.417673e-01
6.368845e-01
6.317261e-01
6.256643e-01
6.185127e-01
6.109272e-01
6.037697e-01
5.972426e-01
5.909198e-01
5.846641e-01
5.792194e-01
5.756106e-01
5.738794e-01
5.725544e-01
5.696657e-01
5.644677e-01
5.580662e-01
5.522099e-01
5.475778e-01
5.434476e-01
5.388122e-01
5.333085e-01
5.270421e-01
5.200649e-01
5.124310e-01
5.045848e-01
4.972060e-01
4.904834e-01
4.838383e-01
4.766248e-01
4.689217e-01
4.614622e-01
4.550075e-01
4.499301e-01
4.461806e-01
4.435515e-01
4.421551e-01
4.424743e-01
4.443543e-01
4.458544e-01
4.437670e-01
4.360847e-01
4.244186e-01
4.137762e-01
4.091929e-01
4.120483e-01
4.195159e-01
4.272570e-01
4.324932e-01
4.352327e-01
4.376220e-01
4.421878e-01
4.496283e-01
4.576087e-01
4.622193e-01
4.613500e-01
4.568510e-01
4.531852e-01
4.535204e-01
4.570207e-01
4.601634e-01
4.604278e-01
4.583060e-01
4.561194e-01
4.555878e-01
4.567234e-01
4.587250e-01
4.613344e-01
4.649096e-01
4.694490e-01
4.741445e-01
4.780756e-01
4.809675e-01
4.828277e-01
4.830860e-01
4.808679e-01
4.763290e-01
4.712789e-01
4.682150e-01
4.687596e-01
4.727862e-01
4.783823e-01
4.823438e-01
4.814190e-01
4.742345e-01
4.625571e-01
4.502877e-01
4.405156e-01
4.333786e-01
4.269181e-01
4.196210e-01
4.116895e-01
4.042863e-01
3.982622e-01
3.934337e-01
3.884286e-01
3.813827e-01
3.716161e-01
3.609566e-01
3.530726e-01
3.511564e-01
3.559840e-01
3.657551e-01
3.774695e-01
3.887152e-01
3.987501e-01
4.081826e-01
4.175914e-01
4.266940e-01
4.351520e-01
4.438987e-01
4.551751e-01
4.709927e-01
4.912703e-01
5.130846e-01
5.316685e-01
5.427519e-01
5.450642e-01
5.416665e-01
5.390906e-01
5.441459e-01
5.600862e-01
5.849108e-01
6.130733e-01
6.390547e-01
6.600130e-01
6.761155e-01
6.892084e-01
7.009911e-01
7.115384e-01
7.191649e-01
7.222460e-01
7.217157e-01
7.215449e-01
7.259903e-01
7.358342e-01
7.474529e-01
7.558995e-01
7.589025e-01
7.579813e-01
7.562666e-01
7.554924e-01
7.546285e-01
7.509878e-01
7.428068e-01
7.311289e-01
7.190955e-01
7.090754e-01
7.006276e-01
6.914055e-01
6.796183e-01
6.653059e-01
6.495428e-01
6.329137e-01
6.148403e-01
5.941335e-01
5.702291e-01
5.442952e-01
5.193507e-01
4.989500e-01
4.850472e-01
4.764715e-01
4.690935e-01
4.577525e-01
4.390022e-01
4.131197e-01
3.840415e-01
3.569375e-01
3.349518e-01
3.177448e-01
3.028585e-01
2.880625e-01
2.721902e-01
2.542610e-01
2.328795e-01
2.070644e-01
1.774019e-01
1.460606e-01
1.155503e-01
8.713786e-02
6.013523e-02
3.270817e-02
3.439216e-03
-2.778092e-02
-6.017230e-02
-9.324689e-02
-1.275798e-01
-1.644648e-01
-2.048402e-01
-2.485281e-01
-2.944525e-01
-3.413467e-01
-3.880636e-01
-4.335392e-01
-4.769421e-01
-5.179694e-01
-5.569756e-01
-5.948701e-01
-6.327969e-01
-6.716418e-01
-7.116099e-01
-7.521585e-01
-7.923917e-01
-8.316997e-01
-8.700733e-01
-9.077492e-01
-9.446118e-01
-9.801366e-01
-1.014064e+00
-1.047027e+00
-1.080298e+00
-1.114912e+00
-1.151045e+00
-1.188003e+00
-1.224603e+00
-1.259569e+00
-1.291718e+00
-1.320141e+00
-1.344822e+00
-1.367306e+00
-1.390318e+00
-1.416349e+00
-1.446391e+00
-1.479548e+00
-1.513474e+00
-1.545473e+00
-1.573832e+00
-1.598504e+00
-1.620517e+00
-1.640698e+00
-1.658942e+00
-1.674537e+00
-1.686936e+00
-1.696296e+00
-1.703467e+00
-1.709430e+00
-1.714574e+00
-1.718428e+00
-1.720128e+00
-1.719198e+00
-1.715952e+00
-1.711264e+00
-1.706081e+00
-1.700962e+00
-1.695679e+00
-1.689166e+00
-1.680096e+00
-1.667829e+00
-1.652935e+00
-1.636710e+00
-1.620162e+00
-1.603509e+00
-1.586596e+00
-1.569641e+00
-1.553410e+00
-1.538522e+00
-1.524585e+00
-1.510269e+00
-1.494406e+00
-1.477050e+00
-1.459471e+00
-1.443143e+00
-1.428624e+00
-1.415130e+00
-1.401002e+00
-1.384793e+00
-1.366266e+00
-1.346644e+00
-1.328044e+00
-1.312628e+00
-1.301987e+00
-1.296955e+00
-1.297701e+00
-1.303716e+00
-1.313542e+00
-1.324814e+00
-1.335143e+00
-1.343236e+00
-1.349178e+00
-1.353676e+00
-1.357131e+00
-1.359565e+00
-1.361354e+00
-1.363576e+00
-1.367258e+00
-1.372307e+00
-1.377371e+00
-1.380874e+00
-1.382255e+00
-1.382307e+00
-1.382408e+00
-1.383444e+00
-1.385246e+00
-1.386688e+00
-1.386126e+00
-1.382069e+00
-1.374048e+00
-1.363204e+00
-1.351926e+00
-1.342493e+00
-1.335592e+00
-1.329822e+00
-1.322691e+00
-1.312376e+00
-1.298940e+00
-1.284247e+00
-1.270801e+00
-1.260475e+00
-1.253873e+00
-1.250330e+00
-1.248291e+00
-1.245921e+00
-1.241753e+00
-1.235113e+00
-1.226174e+00
-1.215854e+00
-1.205677e+00
-1.197474e+00
-1.192855e+00
-1.192685e+00
-1.196943e+00
-1.205111e+00
-1.216815e+00
-1.232068e+00
-1.250884e+00
-1.272709e+00
-1.296339e+00
-1.320507e+00
-1.344551e+00
-1.368446e+00
-1.392219e+00
-1.415362e+00
-1.436793e+00
-1.455344e+00
-1.470388e+00
-1.482121e+00
-1.491381e+00
-1.499253e+00
-1.506739e+00
-1.514559e+00
-1.523093e+00
-1.532460e+00
-1.542526e+00
-1.552777e+00
-1.562270e+00
-1.569927e+00
-1.575080e+00
-1.577829e+00
-1.578905e+00
-1.579136e+00
-1.578922e+00
-1.578036e+00
-1.575788e+00
-1.571407e+00
-1.564446e+00
-1.554974e+00
-1.543516e+00
-1.530887e+00
-1.517987e+00
-1.505553e+00
-1.493954e+00
-1.483183e+00
-1.473021e+00
-1.463182e+00
-1.453319e+00
-1.442937e+00
-1.431473e+00
-1.418567e+00
-1.404261e+00
-1.388858e+00
-1.372557e+00
-1.355296e+00
-1.337062e+00
-1.318236e+00
-1.299474e+00
-1.281188e+00
-1.263109e+00
-1.244307e+00
-1.223735e+00
-1.201032e+00
-1.176929e+00
-1.152876e+00
-1.130179e+00
-1.109340e+00
-1.089933e+00
-1.071083e+00
-1.052193e+00
-1.033310e+00
-1.014776e+00
-9.966525e-01
-9.786946e-01
-9.608744e-01
-9.437230e-01
-9.280668e-01
-9.144777e-01
-9.029681e-01
-8.932204e-01
-8.851386e-01
-8.791371e-01
-8.757548e-01
-8.748492e-01
-8.751944e-01
-8.749910e-01
-8.728212e-01
-8.682030e-01
-8.614500e-01
-8.531728e-01
-8.438301e-01
-8.335814e-01
-8.225697e-01
-8.113552e-01
-8.008971e-01
-7.919031e-01
-7.841868e-01
-7.768198e-01
-7.690115e-01
-7.607852e-01
-7.527023e-01
-7.449510e-01
-7.367570e-01
-7.266699e-01
-7.134639e-01
-6.969453e-01
-6.781572e-01
-6.589498e-01
-6.411897e-01
-6.260394e-01
-6.136958e-01
-6.036374e-01
-5.950567e-01
-5.871289e-01
-5.790913e-01
-5.702761e-01
-5.601503e-01
-5.483040e-01
-5.343182e-01
-5.176450e-01
-4.977716e-01
-4.745908e-01
-4.484826e-01
-4.198890e-01
-3.888939e-01
-3.553791e-01
-3.195017e-01
-2.817913e-01
-2.427708e-01
-2.026992e-01
-1.617838e-01
-1.205219e-01
-7.977954e-02
-4.063762e-02
-4.124626e-03
2.916470e-02
5.937655e-02
8.725340e-02
1.135094e-01
1.382531e-01
1.609602e-01
1.809561e-01
1.979733e-01
2.123872e-01
2.251002e-01
2.373028e-01
2.501466e-01
2.642712e-01
2.794343e-01
2.946184e-01
3.086273e-01
3.207858e-01
3.312720e-01
3.408108e-01
3.499493e-01
3.585883e-01
3.662469e-01
3.728271e-01
3.791389e-01
3.866492e-01
3.966657e-01
4.096761e-01
4.252821e-01
4.425849e-01
4.606038e-01
4.784432e-01
4.953144e-01
5.106597e-01
5.243033e-01
5.363908e-01
5.471187e-01
5.565326e-01
5.646926e-01
5.720864e-01
5.797226e-01
5.885989e-01
5.989548e-01
6.100326e-01
6.205871e-01
6.295314e-01
6.359999e-01
6.389626e-01
6.372401e-01
6.303551e-01
6.195558e-01
6.079602e-01
5.994393e-01
5.968574e-01
6.008738e-01
6.101565e-01
6.227138e-01
6.371338e-01
6.527528e-01
6.689812e-01
6.847714e-01
6.987378e-01
7.096955e-01
7.171482e-01
7.213956e-01
7.232602e-01
7.236970e-01
7.234809e-01
7.229557e-01
7.219489e-01
7.201014e-01
7.174275e-01
7.145042e-01
7.121181e-01
7.108021e-01
7.105628e-01
7.107730e-01
7.102729e-01
7.078728e-01
7.031613e-01
6.969817e-01
6.910285e-01
6.867847e-01
6.846160e-01
6.836487e-01
6.823506e-01
6.793626e-01
6.740634e-01
6.664858e-01
6.568103e-01
6.451106e-01
6.316814e-01
6.174840e-01
6.038562e-01
5.914571e-01
5.796385e-01
5.671050e-01
5.531435e-01
5.381506e-01
5.231303e-01
5.088786e-01
4.956070e-01
4.829573e-01
4.701014e-01
4.560373e-01
4.401038e-01
4.223997e-01
4.038314e-01
3.857181e-01
3.691466e-01
3.544254e-01
3.409616e-01
3.276877e-01
3.137812e-01
2.991468e-01
2.842606e-01
2.694848e-01
2.545192e-01
2.385553e-01
2.209596e-01
2.018334e-01
1.820053e-01
1.624922e-01
1.438580e-01
1.260427e-01
1.088234e-01
9.237758e-02
7.736999e-02
6.452911e-02
5.417066e-02
4.610725e-02
3.988191e-02
3.504921e-02
3.138190e-02
2.892327e-02
2.786575e-02
2.833636e-02
3.022982e-02
3.322640e-02
3.695960e-02
4.114209e-02
4.550520e-02
4.966081e-02
5.317248e-02
5.587551e-02
5.811259e-02
6.056210e-02
6.368856e-02
6.727948e-02
7.061743e-02
7.319929e-02
7.528797e-02
7.779639e-02
8.165868e-02
8.726021e-02
9.431878e-02
1.020927e-01
1.096260e-01
1.159614e-01
1.204479e-01
1.231106e-01
1.247208e-01
1.264095e-01
1.291795e-01
1.337172e-01
1.404898e-01
1.498048e-01
1.616668e-01
1.755839e-01
1.905439e-01
2.052489e-01
2.185847e-01
2.301371e-01
2.403544e-01
2.501500e-01
2.602808e-01
2.710332e-01
