EVENT_NAME: L_AQUILA
EVENT_ID: IT-2009-0009
EVENT_DATE_YYYYMMDD: 20090406
EVENT_TIME_HHMMSS: 013240
EVENT_LATITUDE_DEGREE: 42.3420
EVENT_LONGITUDE_DEGREE: 13.3800
EVENT_DEPTH_KM: 8.3
HYPOCENTER_REFERENCE: INGV-CNT_Seismic_Bulletin
MAGNITUDE_W: 6.1
MAGNITUDE_W_REFERENCE: INGV-CNT_Seismic_Bulletin
MAGNITUDE_L: 
MAGNITUDE_L_REFERENCE: 
FOCAL_MECHANISM: Normal faulting
NETWORK: IT
STATION_CODE: AQA
STATION_NAME: 
STATION_LATITUDE_DEGREE: 42.375530
STATION_LONGITUDE_DEGREE: 13.339298
STATION_ELEVATION_M: 693
LOCATION: 
SENSOR_DEPTH_M: 0.0
VS30_M/S: 549
SITE_CLASSIFICATION_EC8: B
MORPHOLOGIC_CLASSIFICATION: 
EPICENTRAL_DISTANCE_KM: 5.0
EARTHQUAKE_BACKAZIMUTH_DEGREE: 318.0
DATE_TIME_FIRST_SAMPLE_YYYYMMDD_HHMMSS: 20090406_013227.000
DATE_TIME_FIRST_SAMPLE_PRECISION: seconds
SAMPLING_INTERVAL_S: 0.005000
NDATA: 8000
DURATION_S: 40.000
STREAM: HNE
UNITS: cm/s
INSTRUMENT: sensor = FBA-3 [Kinemetrics] | digitizer = Everest [Kinemetrics]
INSTRUMENT_ANALOG/DIGITAL: D
INSTRUMENTAL_FREQUENCY_HZ: 206.000
INSTRUMENTAL_DAMPING: 0.000000
FULL_SCALE_G: 1.0
N_BIT_DIGITAL_CONVERTER: 24
PGV_CM/S: -31.915751
TIME_PGV_S: 17.910000
BASELINE_CORRECTION: BASELINE REMOVED
FILTER_TYPE: BUTTERWORTH
FILTER_ORDER: 2
LOW_CUT_FREQUENCY_HZ: 0.100
HIGH_CUT_FREQUENCY_HZ: 40.000
LATE/NORMAL_TRIGGERED: NT
DATABASE_VERSION: 0.5
HEADER_FORMAT: DYNA 1.2
DATA_TYPE: VELOCITY
PROCESSING: manual (Paolucci et al., 2011)
DATA_TIMESTAMP_YYYYMMDD_HHMMSS: 20211011_155707.874
DATA_LICENSE: CC-BY3_0-IT (http://creativecommons.org/licenses/by/3.0/deed.en)
DATA_CITATION: Luzi L, Pacor F, Puglia R (2019). Italian Accelerometric Archive v 3.0 - Istituto Nazionale di Geofisica e Vulcanologia, Dipartimento della Protezione Civile Nazionale. doi: 10.13127/itaca.3.1
DATA_CREATOR: ITACA working group
ORIGINAL_DATA_MEDIATOR_CITATION: data obtained within the DPC-INGV data exchange agreements
ORIGINAL_DATA_MEDIATOR: Archive of Italian Department of Civil Protection
ORIGINAL_DATA_CREATOR_CITATION: Presidency Of Counsil Of Ministers-Civil Protection Department. (1972). Italian Strong Motion Network. Presidency of Counsil of Ministers - Civil Protection Department. https://doi.org/10.7914/SN/IT http://www.fdsn.org/networks/detail/IT/
ORIGINAL_DATA_CREATOR: network: IT (Italian Strong Motion Network (RAN)); owner: Presidency of Counsil of Ministers - Civil Protection Department (PCM - DPC)
USER1: 
USER2: 
USER3: 
USER4: 
USER5: 
[...]
-0.014725
-0.014848
-0.014977
-0.015112
-0.015245
-0.015376
-0.015505
-0.015632
-0.015761
-0.015899
-0.016046
-0.016193
-0.016327
-0.016454
-0.016581
-0.016711
-0.016844
-0.016981
-0.017124
-0.017270
-0.017411
-0.017548
-0.017687
-0.017829
-0.017968
-0.018099
-0.018230
-0.018369
-0.018516
-0.018665
-0.018811
-0.018954
-0.019098
-0.019244
-0.019387
-0.019526
-0.019663
-0.019804
-0.019947
-0.020095
-0.020249
-0.020405
-0.020557
-0.020703
-0.020846
-0.020994
-0.021145
-0.021297
-0.021446
-0.021594
-0.021745
-0.021898
-0.022051
-0.022203
-0.022354
-0.022505
-0.022659
-0.022820
-0.022983
-0.023141
-0.023287
-0.023431
-0.023583
-0.023745
-0.023911
-0.024076
-0.024238
-0.024396
-0.024547
-0.024696
-0.024847
-0.025004
-0.025168
-0.025338
-0.025512
-0.025680
-0.025836
-0.025981
-0.026128
-0.026289
-0.026467
-0.026649
-0.026822
-0.026981
-0.027134
-0.027289
-0.027452
-0.027624
-0.027799
-0.027973
-0.028142
-0.028306
-0.028470
-0.028638
-0.028811
-0.028986
-0.029161
-0.029335
-0.029507
-0.029679
-0.029855
-0.030031
-0.030200
-0.030365
-0.030535
-0.030714
-0.030899
-0.031084
-0.031264
-0.031435
-0.031599
-0.031767
-0.031946
-0.032132
-0.032319
-0.032506
-0.032692
-0.032873
-0.033045
-0.033212
-0.033384
-0.033565
-0.033753
-0.033947
-0.034140
-0.034328
-0.034506
-0.034678
-0.034856
-0.035046
-0.035242
-0.035437
-0.035628
-0.035813
-0.035996
-0.036179
-0.036366
-0.036556
-0.036748
-0.036940
-0.037136
-0.037334
-0.037525
-0.037711
-0.037895
-0.038083
-0.038277
-0.038476
-0.038680
-0.038882
-0.039077
-0.039266
-0.039454
-0.039646
-0.039843
-0.040044
-0.040247
-0.040453
-0.040654
-0.040849
-0.041042
-0.041239
-0.041440
-0.041646
-0.041855
-0.042061
-0.042260
-0.042455
-0.042654
-0.042857
-0.043064
-0.043277
-0.043491
-0.043700
-0.043903
-0.044106
-0.044313
-0.044522
-0.044730
-0.044937
-0.045147
-0.045357
-0.045566
-0.045778
-0.045996
-0.046211
-0.046419
-0.046625
-0.046833
-0.047043
-0.047253
-0.047469
-0.047692
-0.047913
-0.048128
-0.048341
-0.048555
-0.048769
-0.048984
-0.049203
-0.049425
-0.049651
-0.049875
-0.050092
-0.050299
-0.050510
-0.050734
-0.050968
-0.051200
-0.051422
-0.051639
-0.051856
-0.052075
-0.052300
-0.052531
-0.052766
-0.052998
-0.053224
-0.053446
-0.053665
-0.053885
-0.054108
-0.054340
-0.054580
-0.054819
-0.055052
-0.055276
-0.055496
-0.055718
-0.055948
-0.056185
-0.056428
-0.056669
-0.056904
-0.057133
-0.057358
-0.057583
-0.057818
-0.058060
-0.058303
-0.058542
-0.058783
-0.059024
-0.059261
-0.059491
-0.059721
-0.059961
-0.060211
-0.060460
-0.060701
-0.060934
-0.061163
-0.061394
-0.061634
-0.061885
-0.062142
-0.062393
-0.062638
-0.062878
-0.063119
-0.063359
-0.063597
-0.063840
-0.064091
-0.064346
-0.064595
-0.064839
-0.065084
-0.065332
-0.065581
-0.065835
-0.066090
-0.066341
-0.066585
-0.066826
-0.067072
-0.067328
-0.067591
-0.067855
-0.068115
-0.068367
-0.068609
-0.068849
-0.069094
-0.069352
-0.069622
-0.069893
-0.070157
-0.070410
-0.070657
-0.070907
-0.071163
-0.071420
-0.071677
-0.071942
-0.072213
-0.072482
-0.072745
-0.073002
-0.073255
-0.073506
-0.073763
-0.074033
-0.074310
-0.074582
-0.074847
-0.075108
-0.075372
-0.075642
-0.075915
-0.076183
-0.076444
-0.076707
-0.076976
-0.077247
-0.077517
-0.077786
-0.078054
-0.078323
-0.078594
-0.078869
-0.079142
-0.079413
-0.079681
-0.079949
-0.080219
-0.080497
-0.080782
-0.081064
-0.081338
-0.081607
-0.081880
-0.082155
-0.082431
-0.082704
-0.082978
-0.083253
-0.083529
-0.083807
-0.084090
-0.084373
-0.084653
-0.084926
-0.085198
-0.085475
-0.085757
-0.086039
-0.086320
-0.086603
-0.086890
-0.087177
-0.087462
-0.087740
-0.088011
-0.088280
-0.088558
-0.088849
-0.089149
-0.089446
-0.089733
-0.090014
-0.090298
-0.090588
-0.090881
-0.091169
-0.091451
-0.091730
-0.092014
-0.092308
-0.092607
-0.092900
-0.093187
-0.093474
-0.093764
-0.094052
-0.094338
-0.094626
-0.094916
-0.095208
-0.095508
-0.095814
-0.096118
-0.096407
-0.096685
-0.096964
-0.097256
-0.097557
-0.097857
-0.098154
-0.098450
-0.098747
-0.099043
-0.099339
-0.099635
-0.099930
-0.100223
-0.100520
-0.100823
-0.101125
-0.101421
-0.101715
-0.102014
-0.102321
-0.102627
-0.102927
-0.103218
-0.103508
-0.103803
-0.104107
-0.104418
-0.104728
-0.105030
-0.105325
-0.105620
-0.105923
-0.106235
-0.106547
-0.106853
-0.107154
-0.107452
-0.107750
-0.108048
-0.108352
-0.108661
-0.108971
-0.109280
-0.109588
-0.109893
-0.110192
-0.110488
-0.110789
-0.111099
-0.111417
-0.111737
-0.112052
-0.112357
-0.112654
-0.112954
-0.113260
-0.113573
-0.113888
-0.114204
-0.114519
-0.114826
-0.115126
-0.115425
-0.115733
-0.116050
-0.116369
-0.116688
-0.117003
-0.117314
-0.117622
-0.117931
-0.118242
-0.118553
-0.118864
-0.119177
-0.119492
-0.119808
-0.120122
-0.120431
-0.120740
-0.121052
-0.121372
-0.121694
-0.122009
-0.122316
-0.122624
-0.122942
-0.123266
-0.123584
-0.123896
-0.124210
-0.124528
-0.124845
-0.125160
-0.125476
-0.125791
-0.126101
-0.126408
-0.126726
-0.127053
-0.127377
-0.127688
-0.127991
-0.128299
-0.128618
-0.128945
-0.129274
-0.129600
-0.129919
-0.130231
-0.130539
-0.130852
-0.131171
-0.131497
-0.131823
-0.132144
-0.132459
-0.132770
-0.133078
-0.133392
-0.133716
-0.134051
-0.134385
-0.134708
-0.135018
-0.135322
-0.135627
-0.135941
-0.136266
-0.136596
-0.136925
-0.137247
-0.137562
-0.137874
-0.138189
-0.138511
-0.138837
-0.139160
-0.139479
-0.139795
-0.140110
-0.140425
-0.140746
-0.141070
-0.141394
-0.141718
-0.142039
-0.142355
-0.142669
-0.142984
-0.143302
-0.143623
-0.143947
-0.144273
-0.144597
-0.144917
-0.145234
-0.145549
-0.145867
-0.146185
-0.146504
-0.146819
-0.147133
-0.147451
-0.147774
-0.148100
-0.148423
-0.148738
-0.149046
-0.149358
-0.149685
-0.150021
-0.150352
-0.150668
-0.150979
-0.151291
-0.151603
-0.151919
-0.152241
-0.152568
-0.152891
-0.153212
-0.153533
-0.153851
-0.154163
-0.154470
-0.154776
-0.155089
-0.155412
-0.155744
-0.156071
-0.156382
-0.156682
-0.156985
-0.157299
-0.157622
-0.157947
-0.158274
-0.158599
-0.158920
-0.159233
-0.159535
-0.159828
-0.160120
-0.160427
-0.160755
-0.161088
-0.161415
-0.161736
-0.162051
-0.162357
-0.162656
-0.162958
-0.163267
-0.163580
-0.163894
-0.164210
-0.164525
-0.164836
-0.165144
-0.165453
-0.165760
-0.166062
-0.166363
-0.166671
-0.166983
-0.167291
-0.167598
-0.167907
-0.168216
-0.168521
-0.168826
-0.169138
-0.169448
-0.169748
-0.170046
-0.170352
-0.170667
-0.170983
-0.171288
-0.171584
-0.171878
-0.172178
-0.172485
-0.172793
-0.173098
-0.173400
-0.173704
-0.174009
-0.174310
-0.174607
-0.174897
-0.175179
-0.175467
-0.175771
-0.176086
-0.176398
-0.176696
-0.176984
-0.177270
-0.177558
-0.177853
-0.178153
-0.178454
-0.178749
-0.179042
-0.179336
-0.179630
-0.179917
-0.180201
-0.180488
-0.180779
-0.181074
-0.181372
-0.181663
-0.181945
-0.182224
-0.182509
-0.182798
-0.183086
-0.183374
-0.183663
-0.183951
-0.184233
-0.184510
-0.184787
-0.185065
-0.185345
-0.185626
-0.185907
-0.186187
-0.186466
-0.186745
-0.187022
-0.187294
-0.187566
-0.187843
-0.188118
-0.188389
-0.188660
-0.188934
-0.189203
-0.189468
-0.189737
-0.190016
-0.190291
-0.190556
-0.190817
-0.191084
-0.191354
-0.191622
-0.191889
-0.192151
-0.192404
-0.192653
-0.192913
-0.193188
-0.193465
-0.193731
-0.193985
-0.194234
-0.194480
-0.194729
-0.194986
-0.195248
-0.195505
-0.195759
-0.196016
-0.196275
-0.196529
-0.196777
-0.197023
-0.197267
-0.197512
-0.197761
-0.198010
-0.198251
-0.198486
-0.198731
-0.198986
-0.199236
-0.199475
-0.199707
-0.199933
-0.200158
-0.200388
-0.200629
-0.200871
-0.201106
-0.201339
-0.201575
-0.201810
-0.202039
-0.202262
-0.202484
-0.202701
-0.202913
-0.203132
-0.203360
-0.203590
-0.203816
-0.204040
-0.204260
-0.204473
-0.204681
-0.204892
-0.205107
-0.205324
-0.205542
-0.205757
-0.205966
-0.206166
-0.206364
-0.206568
-0.206780
-0.206994
-0.207206
-0.207410
-0.207603
-0.207785
-0.207967
-0.208160
-0.208369
-0.208587
-0.208803
-0.209005
-0.209188
-0.209356
-0.209523
-0.209697
-0.209877
-0.210063
-0.210258
-0.210455
-0.210645
-0.210828
-0.211009
-0.211191
-0.211364
-0.211505
-0.211600
-0.211657
-0.211730
-0.211919
-0.212371
-0.213218
-0.214371
-0.215101
-0.213633
-0.207424
-0.194610
-0.176101
-0.156926
-0.145457
-0.150011
-0.173627
-0.209655
-0.242511
-0.255821
-0.242240
-0.206826
-0.163653
-0.129624
-0.118445
-0.136301
-0.178216
-0.227551
-0.263066
-0.269175
-0.242519
-0.194011
-0.145556
-0.120497
-0.131907
-0.174079
-0.222898
-0.249618
-0.238772
-0.195460
-0.142399
-0.109953
-0.119010
-0.168061
-0.234135
-0.284334
-0.293082
-0.256215
-0.192088
-0.130711
-0.098067
-0.104129
-0.141050
-0.190618
-0.235291
-0.264641
-0.273975
-0.261749
-0.229694
-0.184629
-0.140526
-0.114350
-0.114520
-0.134311
-0.157955
-0.172178
-0.174014
-0.171283
-0.174797
-0.189377
-0.212054
-0.233785
-0.241584
-0.225058
-0.186654
-0.147571
-0.137261
-0.168235
-0.221532
-0.259370
-0.252881
-0.202027
-0.133456
-0.082284
-0.073039
-0.106280
-0.157207
-0.193940
-0.203095
-0.194875
-0.185787
-0.186398
-0.201361
-0.226717
-0.248359
-0.252196
-0.235308
-0.203434
-0.161888
-0.116418
-0.077779
-0.057071
-0.061789
-0.097357
-0.161993
-0.238506
-0.297807
-0.313151
-0.275383
-0.200803
-0.121704
-0.066473
-0.052281
-0.088076
-0.168897
-0.268149
-0.343854
-0.359643
-0.306894
-0.207114
-0.096331
-0.010691
0.025930
0.011582
-0.037231
-0.097091
-0.149087
-0.188033
-0.220071
-0.248221
-0.263805
-0.253598
-0.213602
-0.155523
-0.099581
-0.058890
-0.028771
0.005836
0.049502
0.088453
0.108761
0.116980
0.135384
0.179314
0.246434
0.325021
0.401214
0.458472
0.482783
0.472083
0.435751
0.386782
0.335457
0.285022
0.234200
0.189284
0.171726
0.208507
0.308855
0.443060
0.547928
0.567776
0.497549
0.383239
0.282704
0.232060
0.239573
0.290955
0.360273
0.434041
0.527632
0.663921
0.831493
0.972540
1.017929
0.934953
0.750494
0.547575
0.432673
0.465347
0.603937
0.741087
0.800763
0.794718
0.787676
0.818590
0.864382
0.873108
0.817563
0.718797
0.634040
0.630314
0.755573
1.007997
1.320873
1.588117
1.719005
1.680758
1.511031
1.302330
1.154301
1.118098
1.177462
1.271680
1.340728
1.367276
1.374459
1.382261
1.384125
1.368694
1.353775
1.397819
1.569065
1.887263
2.292576
2.671043
2.908862
2.937704
2.761726
2.465306
2.184896
2.047624
2.114223
2.352714
2.648830
2.862671
2.912558
2.811798
2.627529
2.429075
2.265504
2.156076
2.097329
2.076994
2.080489
2.107746
2.187037
2.350128
2.591085
2.862066
3.107425
3.295426
3.417344
3.461136
3.417212
3.327681
3.284415
3.350583
3.517142
3.742021
3.988936
4.214401
4.358292
4.377475
4.274735
4.097379
3.924776
3.831978
3.841919
3.917108
3.995226
4.045731
4.111088
4.274112
4.556545
4.857578
5.016877
4.939694
4.665082
4.341464
4.142826
4.173910
4.412339
4.721743
4.938979
4.987919
4.933070
4.912143
4.992144
5.086685
5.021366
4.692507
4.175965
3.679994
3.404401
3.443117
3.761817
4.232453
4.706573
5.081863
5.325394
5.458433
5.534860
5.607299
5.688417
5.762482
5.813982
5.829089
5.805467
5.745494
5.618307
5.375853
5.028233
4.670486
4.427462
4.407663
4.704056
5.345204
6.200555
7.020902
7.613000
7.921253
7.974436
7.840600
7.618816
7.414465
7.301991
7.296827
7.357596
7.443988
7.563554
7.721931
7.846784
7.811803
7.551669
7.130757
6.695578
6.390522
6.306038
6.450738
6.747536
7.078209
7.340159
7.452537
7.355634
7.051797
6.631542
6.251741
6.098816
6.340528
7.024890
7.975376
8.834857
9.257770
9.070677
8.317704
7.235751
6.163621
5.399966
5.108576
5.290072
5.791580
6.429702
7.151300
7.978850
8.819785
9.449063
9.650209
9.351558
8.723226
8.146123
7.980352
8.306692
8.918897
9.575466
10.193939
10.782724
11.279035
11.531387
11.400241
10.832879
9.917481
8.890079
7.984131
7.287029
6.808285
6.565500
6.528621
6.601949
6.705732
6.788676
6.761589
6.518410
6.047781
5.486823
5.071574
5.023195
5.418999
6.136198
6.922743
7.535098
7.840987
7.852539
7.695462
7.522515
7.451954
7.588832
8.013433
8.679289
9.376373
9.830807
9.829394
9.296908
8.317402
7.070497
5.724621
4.404715
3.240914
2.370866
1.835246
1.509825
1.203624
0.784529
0.185418
-0.623471
-1.618621
-2.714233
-3.771223
-4.614556
-5.104844
-5.223119
-5.077168
-4.846785
-4.688171
-4.643358
-4.670344
-4.732110
-4.809356
-4.891275
-5.000503
-5.201943
-5.565187
-6.108194
-6.793879
-7.577201
-8.410497
-9.223185
-9.963953
-10.663256
-11.406117
-12.230273
-13.076444
-13.830322
-14.379338
-14.659806
-14.708901
-14.674296
-14.747425
-15.063733
-15.643331
-16.415857
-17.298283
-18.235926
-19.171509
-20.022306
-20.728275
-21.303692
-21.816626
-22.333361
-22.897562
-23.544012
-24.297403
-25.150705
-26.062387
-26.970512
-27.816023
-28.588158
-29.331989
-30.076624
-30.783869
-31.375692
-31.773182
-31.915751
-31.783072
-31.416101
-30.893867
-30.278675
-29.616348
-28.968161
-28.403749
-27.976904
-27.688627
-27.459452
-27.172991
-26.752403
-26.199690
-25.599508
-25.093641
-24.825729
-24.879721
-25.227861
-25.728628
-26.205006
-26.511915
-26.533241
-26.202154
-25.557529
-24.724216
-23.828543
-22.951422
-22.123032
-21.324154
-20.505720
-19.619087
-18.613024
-17.416170
-15.980664
-14.341181
-12.592075
-10.850819
-9.277197
-8.071305
-7.390614
-7.234901
-7.421653
-7.700110
-7.880117
-7.869198
-7.645726
-7.221029
-6.622002
-5.895630
-5.107696
-4.343396
-3.708575
-3.290855
-3.113148
-3.130152
-3.238753
-3.294689
-3.164963
-2.790977
-2.196272
-1.430926
-0.532634
0.452396
1.443768
2.347424
3.104905
3.730085
4.317812
5.003692
5.877806
6.942642
8.153823
9.452342
10.739209
11.850751
12.594099
12.834551
12.560730
11.869377
10.916984
9.908359
9.086749
8.667171
8.741580
9.228780
9.914464
10.554605
10.973559
11.119266
11.067643
10.973657
10.990030
11.211143
11.670588
12.343658
13.133743
13.890385
14.455787
14.697327
14.533923
13.957484
13.023520
11.820729
10.439171
8.942213
7.364863
5.737127
4.087923
2.437972
0.818705
-0.716716
-2.099221
-3.218588
-3.907090
-4.002901
-3.451504
-2.350953
-0.901259
0.689599
2.257082
3.674493
4.825264
5.581742
5.821772
5.476455
4.561018
3.185767
1.559944
-0.053295
-1.430716
-2.450425
-3.090198
-3.406722
-3.513186
-3.524664
-3.487981
-3.382242
-3.185311
-2.907123
-2.580481
-2.237782
-1.860888
-1.359566
-0.635792
0.328897
1.433114
2.486639
3.316182
3.831517
3.962771
3.615404
2.745244
1.427376
-0.180146
-1.928241
-3.718098
-5.468209
-7.098585
-8.567522
-9.884505
-11.050883
-11.993344
-12.598520
-12.831874
-12.781629
-12.573103
-12.288077
-11.957848
-11.573741
-11.103252
-10.513968
-9.775754
-8.851321
-7.703304
-6.312805
-4.689549
-2.870232
-0.921043
1.052680
2.908494
4.488546
5.659623
6.357753
6.602626
6.483725
6.143495
5.750772
5.467821
5.418578
5.642319
6.068554
6.569191
7.036455
7.404588
7.631376
7.680074
7.510664
7.093989
6.440699
5.603790
4.645325
3.616349
2.577074
1.611258
0.796977
0.164868
-0.301906
-0.614023
-0.726257
-0.568411
-0.143071
0.429108
0.978772
1.374256
1.537743
1.445276
1.138896
0.695067
0.173590
-0.387279
-0.948770
-1.466325
-1.907986
-2.284907
-2.660039
-3.104212
-3.641370
-4.239667
-4.825238
-5.296767
-5.559249
-5.554119
-5.258353
-4.669660
-3.799026
-2.683102
-1.398215
-0.045050
1.276509
2.480518
3.505250
4.312863
4.875832
5.170363
5.179160
4.900481
4.381041
3.755540
3.225736
2.974317
3.091976
3.561191
4.276553
5.085248
5.852064
6.511863
7.037926
7.364111
7.398885
7.132929
6.685447
6.224909
5.854969
5.569301
5.295458
4.963977
4.536692
3.992640
3.309086
2.470964
1.517032
0.566408
-0.241180
-0.840070
-1.273391
-1.643888
-2.010465
-2.316477
-2.419198
-2.193092
-1.628821
-0.850824
-0.044400
0.639063
1.130466
1.417511
1.510215
1.468542
1.408184
1.429506
1.571972
1.820445
2.107985
2.338977
2.439593
2.375322
2.135557
1.731693
1.208495
0.637707
0.082040
-0.436332
-0.934441
-1.446207
-1.983875
-2.519555
-3.029068
-3.531167
-4.049372
-4.553162
-4.961410
-5.192383
-5.204981
-5.017303
-4.689370
-4.270799
-3.781656
-3.244911
-2.681921
-2.070669
-1.375399
-0.628363
0.065594
0.618033
1.027110
1.356737
1.666581
1.955102
2.166949
2.268889
2.285466
2.252071
2.178604
2.055695
1.872948
1.628970
1.323065
0.958983
0.561295
0.160066
-0.227771
-0.575066
-0.828262
-0.931113
-0.836167
-0.503095
0.080945
0.894650
1.898019
3.027928
4.182448
5.230456
6.058884
6.611782
6.881882
6.901908
6.748740
6.532263
6.382535
6.416239
6.687328
7.181101
7.826365
8.498670
9.060827
9.418013
9.529588
9.394431
9.042712
8.547122
8.038758
7.672618
7.546541
7.659017
7.926795
8.217719
8.398764
8.387536
8.159020
7.723716
7.122547
6.436109
5.786372
5.299240
5.035638
4.975935
5.076436
5.308432
5.640268
6.007159
6.318530
6.507522
6.571878
6.565563
6.561873
6.621085
6.767715
6.985255
7.242225
7.521076
7.807274
8.066696
8.261115
8.370535
8.377750
8.250413
7.963466
7.536355
7.041927
6.586826
6.286214
6.231338
6.438301
6.815605
7.206186
7.481101
7.594657
7.552354
7.352996
6.988475
6.480484
5.901808
5.375480
5.033839
4.941123
5.045275
5.209314
5.296630
5.236511
5.031100
4.724284
4.361831
3.958331
3.490975
2.937762
2.321548
1.692545
1.072159
0.454993
-0.134117
-0.638461
-1.022908
-1.275673
-1.375653
-1.318649
-1.167634
-1.039216
-1.049269
-1.274062
-1.719955
-2.308399
-2.910438
-3.411684
-3.747055
-3.887978
-3.832969
-3.628859
-3.368603
-3.137207
-2.969101
-2.855000
-2.762714
-2.651907
-2.483523
-2.228187
-1.891778
-1.535494
-1.249417
-1.101876
-1.115798
-1.286379
-1.608015
-2.070232
-2.632901
-3.227169
-3.786317
-4.267804
-4.653940
-4.937001
-5.093029
-5.082917
-4.896894
-4.580420
-4.209667
-3.868216
-3.650823
-3.653439
-3.928139
-4.448678
-5.131468
-5.877815
-6.583175
-7.126695
-7.380464
-7.249400
-6.722112
-5.886180
-4.884448
-3.851382
-2.872573
-1.974881
-1.143507
-0.351009
0.420705
1.176267
1.924503
2.695675
3.531340
4.452563
5.429961
6.370373
7.132218
7.582711
7.666889
7.427673
6.971482
6.418140
5.867687
5.406867
5.120722
5.046840
5.123028
5.227691
5.267859
5.196021
4.960505
4.493004
3.753740
2.768110
1.637433
0.510069
-0.496578
-1.332738
-1.974212
-2.386168
-2.536444
-2.430841
-2.123976
-1.687740
-1.184294
-0.677756
-0.247124
0.025717
0.073458
-0.130730
-0.529589
-0.958627
-1.193929
-1.059560
-0.514195
