EVENT_NAME: L_AQUILA
EVENT_ID: IT-2009-0009
EVENT_DATE_YYYYMMDD: 20090406
EVENT_TIME_HHMMSS: 013240
EVENT_LATITUDE_DEGREE: 42.3420
EVENT_LONGITUDE_DEGREE: 13.3800
EVENT_DEPTH_KM: 8.3
HYPOCENTER_REFERENCE: INGV-CNT_Seismic_Bulletin
MAGNITUDE_W: 6.1
MAGNITUDE_W_REFERENCE: INGV-CNT_Seismic_Bulletin
MAGNITUDE_L: 
MAGNITUDE_L_REFERENCE: 
FOCAL_MECHANISM: Normal faulting
NETWORK: IT
STATION_CODE: AQA
STATION_NAME: 
STATION_LATITUDE_DEGREE: 42.375530
STATION_LONGITUDE_DEGREE: 13.339298
STATION_ELEVATION_M: 693
LOCATION: 
SENSOR_DEPTH_M: 0.0
VS30_M/S: 549
SITE_CLASSIFICATION_EC8: B
MORPHOLOGIC_CLASSIFICATION: 
EPICENTRAL_DISTANCE_KM: 5.0
EARTHQUAKE_BACKAZIMUTH_DEGREE: 318.0
DATE_TIME_FIRST_SAMPLE_YYYYMMDD_HHMMSS: 
DATE_TIME_FIRST_SAMPLE_PRECISION: 
SAMPLING_INTERVAL_S: 
NDATA: 105
DURATION_S: 
STREAM: HNE
UNITS: cm
INSTRUMENT: sensor = FBA-3 [Kinemetrics] | digitizer = Everest [Kinemetrics]
INSTRUMENT_ANALOG/DIGITAL: D
INSTRUMENTAL_FREQUENCY_HZ: 206.000
INSTRUMENTAL_DAMPING: 0.000000
FULL_SCALE_G: 1.0
N_BIT_DIGITAL_CONVERTER: 24
PGD_CM: 5.446792
TIME_PGD_S: 
BASELINE_CORRECTION: BASELINE REMOVED
FILTER_TYPE: BUTTERWORTH
FILTER_ORDER: 2
LOW_CUT_FREQUENCY_HZ: 0.100
HIGH_CUT_FREQUENCY_HZ: 40.000
LATE/NORMAL_TRIGGERED: NT
DATABASE_VERSION: 0.5
HEADER_FORMAT: DYNA 1.2
DATA_TYPE: DISPLACEMENT RESPONSE SPECTRUM
PROCESSING: manual (Paolucci et al., 2011)
DATA_TIMESTAMP_YYYYMMDD_HHMMSS: 20211011_155709.835
DATA_LICENSE: CC-BY3_0-IT (http://creativecommons.org/licenses/by/3.0/deed.en)
DATA_CITATION: Luzi L, Pacor F, Puglia R (2019). Italian Accelerometric Archive v 3.0 - Istituto Nazionale di Geofisica e Vulcanologia, Dipartimento della Protezione Civile Nazionale. doi: 10.13127/itaca.3.1
DATA_CREATOR: ITACA working group
ORIGINAL_DATA_MEDIATOR_CITATION: data obtained within the DPC-INGV data exchange agreements
ORIGINAL_DATA_MEDIATOR: Archive of Italian Department of Civil Protection
ORIGINAL_DATA_CREATOR_CITATION: Presidency Of Counsil Of Ministers-Civil Protection Department. (1972). Italian Strong Motion Network. Presidency of Counsil of Ministers - Civil Protection Department. https://doi.org/10.7914/SN/IT http://www.fdsn.org/networks/detail/IT/
ORIGINAL_DATA_CREATOR: network: IT (Italian Strong Motion Network (RAN)); owner: Presidency of Counsil of Ministers - Civil Protection Department (PCM - DPC)
USER1: 
USER2: 
USER3: 
USER4: 
USER5: 
    0.010000     0.001004
    0.020000     0.004056
    0.022000     0.005098
    0.025000     0.006249
    0.029000     0.009267
    0.030000     0.010224
    0.032000     0.012111
    0.035001     0.015652
    0.036000     0.015485
    0.040000     0.021685
    0.041999     0.027383
    0.044001     0.031472
    0.045000     0.034918
    0.046000     0.040288
    0.048001     0.048186
    0.050000     0.051443
    0.054999     0.083103
    0.059999     0.113123
    0.064998     0.101499
    0.067002     0.109889
    0.069999     0.131859
    0.075002     0.157388
    0.080000     0.168998
    0.084998     0.199783
    0.090001     0.219013
    0.095003     0.237786
    0.100000     0.264412
    0.109999     0.434800
    0.120005     0.594787
    0.130005     0.677454
    0.132996     0.732525
    0.139997     0.838398
    0.149993     0.656356
    0.160000     0.562206
    0.170010     0.604798
    0.179986     0.733887
    0.190006     0.703365
    0.200000     0.685708
    0.220022     1.006444
    0.239981     1.110652
    0.250000     1.238793
    0.260010     1.320185
    0.280034     1.529383
    0.290023     1.489730
    0.300030     1.339034
    0.320000     1.051494
    0.340020     1.037217
    0.350017     1.081741
    0.359971     1.109728
    0.379939     1.131065
    0.400000     1.239134
    0.419992     1.382653
    0.439947     1.560244
    0.450045     1.654705
    0.459982     1.751043
    0.480077     1.948705
    0.500000     2.152360
    0.550055     2.699234
    0.599880     3.399182
    0.650195     4.521312
    0.667111     4.800526
    0.699790     5.266011
    0.750188     5.821784
    0.800000     6.718422
    0.850340     7.553883
    0.900090     8.035047
    0.949668     8.103668
    1.000000     8.478716
    1.100110     9.230954
    1.200480     9.575367
    1.300390     9.736485
    1.400560     9.891345
    1.499250     9.735498
    1.600000     9.751090
    1.700680     9.510179
    1.798561     9.243148
    1.901141     9.575571
    2.000000     9.824463
    2.197802    10.106797
    2.398082    10.176242
    2.500000    10.183364
    2.597403    10.162807
    2.801121    10.041618
    3.003003     9.844840
    3.205128     9.619595
    3.401361     9.369541
    3.496503     9.235351
    3.597122     9.098487
    3.802281     8.817062
    4.000000     8.534022
    4.201681     8.254934
    4.405286     7.985158
    4.608295     7.726063
    4.807692     7.479294
    5.000000     7.245090
    5.494505     6.716835
    5.988024     6.268362
    6.493506     5.891994
    6.993007     5.577135
    7.518797     5.417525
    8.000000     5.481154
    8.474576     5.527578
    9.009009     5.560069
    9.523809     5.580756
   10.000000     5.592259
