EVENT_NAME: L_AQUILA
EVENT_ID: IT-2009-0009
EVENT_DATE_YYYYMMDD: 20090406
EVENT_TIME_HHMMSS: 013240
EVENT_LATITUDE_DEGREE: 42.3420
EVENT_LONGITUDE_DEGREE: 13.3800
EVENT_DEPTH_KM: 8.3
HYPOCENTER_REFERENCE: INGV-CNT_Seismic_Bulletin
MAGNITUDE_W: 6.1
MAGNITUDE_W_REFERENCE: INGV-CNT_Seismic_Bulletin
MAGNITUDE_L: 
MAGNITUDE_L_REFERENCE: 
FOCAL_MECHANISM: Normal faulting
NETWORK: IT
STATION_CODE: SUL
STATION_NAME: 
STATION_LATITUDE_DEGREE: 42.089000
STATION_LONGITUDE_DEGREE: 13.934000
STATION_ELEVATION_M: 556
LOCATION: 
SENSOR_DEPTH_M: 0.0
VS30_M/S: 
SITE_CLASSIFICATION_EC8: A (inferred from geology)
MORPHOLOGIC_CLASSIFICATION: 
EPICENTRAL_DISTANCE_KM: 53.7
EARTHQUAKE_BACKAZIMUTH_DEGREE: 121.4
DATE_TIME_FIRST_SAMPLE_YYYYMMDD_HHMMSS: 20090406_013236.000
DATE_TIME_FIRST_SAMPLE_PRECISION: seconds
SAMPLING_INTERVAL_S: 0.005000
NDATA: 20800
DURATION_S: 104.000
STREAM: HNE
UNITS: cm/s^2
INSTRUMENT: sensor = FBA-3 [Kinemetrics] | digitizer = Etna [Kinemetrics]
INSTRUMENT_ANALOG/DIGITAL: D
INSTRUMENTAL_FREQUENCY_HZ: 218.000
INSTRUMENTAL_DAMPING: 0.700000
FULL_SCALE_G: 1.0
N_BIT_DIGITAL_CONVERTER: 18
PGA_CM/S^2: -33.624039
TIME_PGA_S: 25.895000
BASELINE_CORRECTION: BASELINE REMOVED
FILTER_TYPE: BUTTERWORTH
FILTER_ORDER: 2
LOW_CUT_FREQUENCY_HZ: 0.040
HIGH_CUT_FREQUENCY_HZ: 40.000
LATE/NORMAL_TRIGGERED: NT
DATABASE_VERSION: 0.5
HEADER_FORMAT: DYNA 1.2
DATA_TYPE: ACCELERATION
PROCESSING: manual (Paolucci et al., 2011)
DATA_TIMESTAMP_YYYYMMDD_HHMMSS: 20211011_160356.196
DATA_LICENSE: CC-BY3_0-IT (http://creativecommons.org/licenses/by/3.0/deed.en)
DATA_CITATION: Luzi L, Pacor F, Puglia R (2019). Italian Accelerometric Archive v 3.0 - Istituto Nazionale di Geofisica e Vulcanologia, Dipartimento della Protezione Civile Nazionale. doi: 10.13127/itaca.3.1
DATA_CREATOR: ITACA working group
ORIGINAL_DATA_MEDIATOR_CITATION: data obtained within the DPC-INGV data exchange agreements
ORIGINAL_DATA_MEDIATOR: Archive of Italian Department of Civil Protection
ORIGINAL_DATA_CREATOR_CITATION: Presidency Of Counsil Of Ministers-Civil Protection Department. (1972). Italian Strong Motion Network. Presidency of Counsil of Ministers - Civil Protection Department. https://doi.org/10.7914/SN/IT http://www.fdsn.org/networks/detail/IT/
ORIGINAL_DATA_CREATOR: network: IT (Italian Strong Motion Network (RAN)); owner: Presidency of Counsil of Ministers - Civil Protection Department (PCM - DPC)
USER1: 
USER2: 
USER3: 
USER4: 
USER5: 
[...]
-0.404709
0.082966
0.547771
0.671339
0.285192
-0.568724
-1.632451
-2.546430
-3.031547
-3.016065
-2.644413
-2.170438
-1.800385
-1.600622
-1.513614
-1.440701
-1.359321
-1.392842
-1.718270
-2.386153
-3.253712
-4.051485
-4.481823
-4.337094
-3.611935
-2.505244
-1.296439
-0.210523
0.641421
1.264031
1.744518
2.173244
2.556097
2.798226
2.784582
2.495542
2.058075
1.671667
1.453557
1.349827
1.205673
0.908042
0.449419
-0.117324
-0.729748
-1.305057
-1.737459
-1.960674
-1.995396
-1.891040
-1.610170
-1.006799
0.032724
1.419731
2.842820
3.916327
4.396799
4.331602
4.008721
3.715105
3.501375
3.159687
2.430378
1.256565
-0.123380
-1.319592
-2.066863
-2.408316
-2.607938
-2.872816
-3.175215
-3.333829
-3.220112
-2.879472
-2.503339
-2.298325
-2.328325
-2.448656
-2.415077
-2.082402
-1.506967
-0.876547
-0.388654
-0.207744
-0.439374
-1.042622
-1.784491
-2.335773
-2.444874
-2.068843
-1.390550
-0.719316
-0.325295
-0.295887
-0.503806
-0.710909
-0.741993
-0.597953
-0.407702
-0.281472
-0.229355
-0.186537
-0.052130
0.293808
0.941490
1.868887
2.906627
3.800592
4.321868
4.347757
3.892336
3.092256
2.159794
1.316811
0.714634
0.372214
0.183198
0.010887
-0.189795
-0.352210
-0.396074
-0.301256
-0.099730
0.138214
0.312555
0.328459
0.122526
-0.329342
-0.990963
-1.746939
-2.408664
-2.754000
-2.629278
-2.070161
-1.302797
-0.605000
-0.162395
-0.000190
-0.005302
-0.039154
-0.049116
-0.069561
-0.132203
-0.197972
-0.183831
-0.037293
0.234690
0.594803
1.018628
1.514607
2.088911
2.666226
3.044473
2.977770
2.387167
1.503230
0.739799
0.409905
0.555674
0.976010
1.378316
1.547862
1.419897
1.050247
0.570320
0.132329
-0.171488
-0.352224
-0.482589
-0.610900
-0.708345
-0.691308
-0.501464
-0.181600
0.122935
0.256129
0.179152
0.030197
0.031711
0.291677
0.688445
0.953075
0.849734
0.301345
-0.582825
-1.544385
-2.262453
-2.495061
-2.221335
-1.653248
-1.060624
-0.570076
-0.138073
0.320325
0.806698
1.216028
1.405007
1.288659
0.910209
0.444072
0.109254
0.040384
0.222601
0.531205
0.800257
0.860660
0.587588
-0.012372
-0.738674
-1.242441
-1.184203
-0.432030
0.818252
2.121786
3.044891
3.406902
3.326966
3.080470
2.881613
2.745373
2.535132
2.123972
1.509071
0.812476
0.187057
-0.301760
-0.708519
-1.123256
-1.577354
-2.037986
-2.453331
-2.770767
-2.927050
-2.845014
-2.455538
-1.752291
-0.847362
0.041710
0.698752
1.036145
1.129040
1.118786
1.067376
0.899172
0.487972
-0.201525
-1.057757
-1.896355
-2.591019
-3.145329
-3.638274
-4.095184
-4.420195
-4.468238
-4.183248
-3.652060
-3.030813
-2.446631
-1.951282
-1.513502
-1.043854
-0.455375
0.280783
1.126970
2.003543
2.808521
3.443661
3.857473
4.038215
3.947694
3.521796
2.779757
1.898116
1.132649
0.649362
0.413139
0.234308
-0.059196
-0.484790
-0.928229
-1.270522
-1.468626
-1.532452
-1.465188
-1.242402
-0.844537
-0.306505
0.263199
0.706668
0.876054
0.712944
0.296176
-0.187916
-0.528777
-0.574248
-0.294614
0.188496
0.660457
0.945025
0.980354
0.780301
0.383982
-0.132708
-0.640638
-0.997239
-1.122257
-1.035498
-0.819606
-0.555777
-0.284305
-0.003621
0.290565
0.563624
0.757581
0.857957
0.930036
1.069835
1.313021
1.584153
1.733819
1.642909
1.303519
0.806732
0.271752
-0.199865
-0.517921
-0.594206
-0.382354
0.053335
0.523665
0.796279
0.719481
0.311282
-0.231280
-0.619735
-0.631110
-0.245167
0.343623
0.860975
1.120619
1.097276
0.898783
0.683469
0.553462
0.490145
0.387239
0.148565
-0.231077
-0.668589
-1.075562
-1.431252
-1.764419
-2.064514
-2.228447
-2.123528
-1.706233
-1.077030
-0.441899
-0.007484
0.150476
0.158741
0.275329
0.701014
1.421867
2.223964
2.856387
3.181447
3.198496
2.971209
2.565419
2.062713
1.604238
1.361801
1.423748
1.719834
2.081012
2.365966
2.530095
2.608359
2.662274
2.736489
2.841240
2.958987
3.059727
3.105271
3.050417
2.863619
2.546791
2.127063
1.643602
1.144305
0.673548
0.259149
-0.074037
-0.281855
-0.320802
-0.211785
-0.078800
-0.100862
-0.399080
-0.946581
-1.573854
-2.079705
-2.384340
-2.602106
-2.946035
-3.531450
-4.265864
-4.923169
-5.308316
-5.358782
-5.120302
-4.653442
-3.973745
-3.072474
-1.982247
-0.818246
0.255833
1.127613
1.811472
2.407361
2.976085
3.454978
3.683052
3.519814
2.977198
2.239071
1.529134
0.958464
0.505010
0.112746
-0.221104
-0.441710
-0.488775
-0.354676
-0.107124
0.138445
0.286094
0.326943
0.335112
0.383584
0.480875
0.593894
0.702289
0.813404
0.937746
1.068488
1.187327
1.279082
1.336638
1.358895
1.351936
1.331937
1.310793
1.264204
1.119963
0.791511
0.239659
-0.478436
-1.219799
-1.828250
-2.207470
-2.346908
-2.305248
-2.166379
-1.995276
-1.829074
-1.688616
-1.574657
-1.457090
-1.277810
-0.974414
-0.528896
-0.012199
0.435150
0.696627
0.764545
0.728249
0.686209
0.678695
0.698969
0.747515
0.851950
1.031278
1.249255
1.412444
1.424067
1.238629
0.874862
0.410238
-0.029364
-0.319994
-0.420632
-0.398240
-0.366888
-0.407584
-0.512214
-0.564114
-0.395260
0.089397
0.823118
1.602043
2.196408
2.455224
2.330393
1.839572
1.036906
0.013015
-1.093525
-2.090813
-2.764234
-2.967190
-2.724183
-2.241025
-1.783887
-1.514495
-1.418687
-1.386043
-1.341509
-1.292002
-1.286188
-1.368117
-1.551748
-1.804887
-2.047729
-2.170294
-2.064096
-1.665869
-1.001189
-0.200216
0.543601
1.063669
1.293743
1.269532
1.073465
0.763101
0.317559
-0.343055
-1.248694
-2.277842
-3.174990
-3.676057
-3.635959
-3.070706
-2.112391
-0.952091
0.177636
1.027956
1.410718
1.273206
0.720055
-0.019342
-0.684137
-1.098746
-1.236333
-1.198333
-1.121521
-1.067139
-0.988267
-0.804374
-0.493867
-0.108384
0.282638
0.637923
0.941330
1.168592
1.264928
1.173221
0.891492
0.492304
0.092558
-0.196920
-0.328210
-0.340656
-0.315284
-0.304840
-0.308168
-0.291719
-0.226013
-0.108181
0.052754
0.263097
0.527778
0.809350
1.041922
1.199168
1.316797
1.424444
1.482653
1.413731
1.180148
0.830780
0.499505
0.357431
0.520311
0.965260
1.533765
2.025091
2.297728
2.298330
2.024028
1.493714
0.766650
-0.036760
-0.759658
-1.268906
-1.506111
-1.485269
-1.241336
-0.793709
-0.168764
0.550362
1.213786
1.665555
1.836465
1.789536
1.666566
1.569623
1.473499
1.236130
0.699779
-0.176031
-1.238181
-2.193373
-2.766367
-2.845603
-2.521352
-2.006184
-1.492976
-1.052000
-0.650731
-0.251699
0.138488
0.498730
0.827332
1.132941
1.400395
1.580131
1.628480
1.565186
1.493560
1.563036
1.889101
2.474131
3.184233
3.810332
4.182045
4.245337
4.048944
3.689158
3.277576
2.927692
2.738029
2.771184
3.032631
3.460940
3.944001
4.358818
4.617412
4.694577
4.625642
4.481378
4.326489
4.175629
3.985699
3.711492
3.381193
3.110507
3.037194
3.230362
3.637606
4.107451
4.474429
4.642445
4.610127
4.436256
4.186957
3.913642
3.668970
3.515872
3.497016
3.593620
3.716973
3.741825
3.569800
3.186448
2.664466
2.112761
1.618434
1.221189
0.920664
0.694202
0.511884
0.350368
0.211182
0.135436
0.183254
0.371808
0.633089
0.846397
0.915265
0.820692
0.618444
0.394398
0.217597
0.114695
0.059800
-0.015002
-0.178317
-0.456799
-0.829482
-1.254939
-1.701594
-2.159569
-2.630555
-3.109957
-3.579303
-4.010251
-4.367797
-4.610394
-4.699209
-4.624244
-4.429431
-4.202922
-4.034298
-3.975400
-4.026768
-4.155802
-4.337801
-4.585070
-4.933165
-5.392462
-5.912674
-6.400937
-6.779393
-7.027450
-7.168445
-7.216354
-7.145758
-6.928731
-6.595006
-6.236605
-5.952719
-5.794868
-5.756780
-5.804288
-5.909861
-6.067441
-6.284626
-6.560034
-6.868400
-7.173437
-7.456814
-7.726250
-7.980822
-8.165049
-8.167648
-7.877856
-7.260186
-6.391557
-5.430120
-4.537038
-3.804715
-3.234047
-2.764896
-2.335829
-1.935408
-1.601180
-1.363657
-1.194616
-1.009524
-0.714884
-0.266913
0.294270
0.866778
1.349056
1.683824
1.860794
1.899331
1.835191
1.730010
1.690002
1.849027
2.308145
3.077196
4.067680
5.143158
6.184964
7.127458
7.944622
8.606737
9.061754
9.274924
9.286786
9.217432
9.203130
9.321763
9.555811
9.801553
9.914059
9.761311
9.268077
8.448527
7.411292
6.318859
5.318937
4.482963
3.781190
3.106304
2.326395
1.346009
0.167144
-1.081781
-2.189597
-2.967181
-3.347372
-3.418280
-3.375292
-3.419428
-3.661942
-4.097261
-4.652141
-5.255088
-5.862474
-6.438454
-6.937142
-7.314396
-7.558157
-7.713426
-7.874897
-8.138697
-8.545375
-9.062451
-9.620381
-10.166049
-10.678220
-11.126559
-11.429784
-11.478289
-11.206313
-10.647057
-9.924029
-9.169669
-8.420287
-7.581837
-6.509203
-5.137248
-3.559629
-1.999392
-0.700422
0.186523
0.657764
0.818784
0.781558
0.578013
0.163185
-0.494152
-1.313508
-2.081331
-2.525343
-2.430995
-1.724070
-0.479408
1.129788
2.894013
4.603316
6.050055
7.019485
7.311539
6.814734
5.590507
3.893255
2.083175
0.471271
-0.790564
-1.687616
-2.230166
-2.379597
-2.084419
-1.372089
-0.386594
0.671100
1.638806
2.444021
3.087047
3.585923
3.929242
4.078498
4.025409
3.844295
3.675053
3.647887
3.805077
4.069912
4.295754
4.371612
4.299362
4.174963
4.097446
4.099162
4.156835
4.254068
4.428083
4.759461
5.316605
6.106845
7.067452
8.089386
9.055810
9.868249
10.439039
10.672893
10.483349
9.851744
8.881309
7.789185
6.826351
6.169844
5.844564
5.717156
5.575201
5.248258
4.696407
4.026139
3.433498
3.099773
3.102975
3.406691
3.917303
4.552677
5.284552
6.137900
7.141942
8.267652
9.405130
10.390868
11.060721
11.304864
11.097017
10.482116
9.541087
8.360818
7.018078
5.572210
4.063237
2.518088
0.968422
-0.523757
-1.851501
-2.878525
-3.480636
-3.597222
-3.270758
-2.640353
-1.885153
-1.156902
-0.534785
-0.012420
0.482013
1.045658
1.757280
2.633799
3.608180
4.560539
5.383576
6.026378
6.491672
6.799738
6.941781
6.851009
6.419079
5.557311
4.264978
2.660934
0.959923
-0.599654
-1.842129
-2.706350
-3.241593
-3.553383
-3.730047
-3.811154
-3.823030
-3.829321
-3.924943
-4.162858
-4.487237
-4.752559
-4.824690
-4.687377
-4.472117
-4.376407
-4.525330
-4.891841
-5.332278
-5.690337
-5.885733
-5.934897
-5.913652
-5.906449
-5.967671
-6.095641
-6.220190
-6.211668
-5.921086
-5.258657
-4.282639
-3.220432
-2.374401
-1.968437
-2.041267
-2.444223
-2.926690
-3.249911
-3.272415
-2.980821
-2.465582
-1.866391
-1.322622
-0.935133
-0.730370
-0.645645
-0.561151
-0.361280
0.013348
0.541737
1.141226
1.726410
2.263758
2.785439
3.358382
4.026424
4.772040
5.527938
6.219552
6.809838
7.319743
7.799189
8.263511
8.651394
8.842344
8.721945
8.247274
7.457532
6.424530
5.201770
3.819517
2.318052
0.788381
-0.616465
-1.730440
-2.455051
-2.794003
-2.817203
-2.603023
-2.202162
-1.632725
-0.909195
-0.086170
0.729426
1.413277
1.871077
2.060015
1.982437
1.674857
1.196790
0.612731
-0.022753
-0.668636
-1.295053
-1.882242
-2.426567
-2.950426
-3.495596
-4.085298
-4.674128
-5.127642
-5.261148
-4.924492
-4.083129
-2.852061
-1.467602
-0.207566
0.707154
1.181386
1.243316
0.983568
0.501133
-0.109523
-0.754251
-1.345163
-1.820370
-2.163155
-2.401739
-2.588251
-2.773254
-2.983694
-3.208434
-3.410747
-3.563762
-3.668364
-3.740115
-3.792580
-3.830545
-3.844296
-3.814213
-3.733766
-3.620609
-3.500772
-3.398059
-3.342748
-3.375667
-3.535907
-3.844429
-4.296334
-4.862898
-5.495059
-6.128681
-6.698528
-7.153090
-7.463529
-7.630478
-7.681002
-7.654412
-7.590226
-7.517294
-7.442619
-7.341314
-7.147681
-6.774886
-6.171004
-5.357657
-4.410710
-3.402888
-2.357726
-1.251325
-0.051642
1.243986
2.590420
3.893599
5.035682
5.924735
6.540788
6.948723
7.263460
7.580409
7.915678
8.197985
8.310582
8.148935
7.669774
6.914739
5.986211
4.985318
3.969370
2.959244
1.953884
0.921052
-0.196192
-1.428891
-2.721287
-3.912397
-4.793777
-5.222696
-5.199486
-4.834433
-4.247859
-3.505070
-2.618134
-1.583486
-0.430001
0.742729
1.764788
2.438905
2.596793
2.151411
1.141638
-0.251743
-1.740625
-3.010307
-3.814939
-4.037189
-3.685469
-2.855037
-1.684588
-0.321667
1.086700
2.384684
3.419565
4.086676
4.368361
4.335953
4.128173
3.931984
3.956209
4.360586
5.141388
6.066750
6.783547
7.041433
6.820724
6.289794
5.684637
5.188111
4.848966
4.567646
4.159092
3.469822
2.489534
1.395650
0.490955
0.062759
0.261241
1.066471
2.337184
3.885135
5.517777
7.036892
8.230888
8.897858
8.887731
8.137100
6.684091
4.650433
2.208228
-0.432970
-3.031709
-5.347586
-7.193474
-8.480479
-9.244410
-9.628715
-9.799739
-9.824611
-9.597974
-8.907846
-7.624367
-5.861299
-3.978491
-2.435338
-1.612209
-1.704123
-2.706114
-4.458822
-6.715192
-9.187271
-11.548104
-13.426335
-14.472420
-14.486987
-13.504808
-11.775801
-9.657717
-7.465892
-5.368725
-3.395173
-1.521880
0.230005
1.737708
2.815019
3.341462
3.351652
3.000557
2.478011
1.944313
1.487522
1.115260
0.787202
0.451558
0.073954
-0.317565
-0.599969
-0.608486
-0.257594
0.398797
1.226702
2.101648
2.933936
3.628169
4.031223
3.922247
3.062303
1.286247
-1.430175
-5.002229
-9.301869
-14.144968
-19.238199
-24.165590
-28.440060
-31.616236
-33.390270
-33.624039
-32.329292
-29.655523
-25.883055
-21.395790
-16.632008
-12.059815
-8.154975
-5.312163
-3.752867
-3.529205
-4.551245
-6.536395
-8.977352
-11.269576
-12.943142
-13.832899
-14.103756
-14.132113
-14.273164
-14.631342
-14.992594
-14.947361
-14.099942
-12.242345
-9.424836
-5.925116
-2.148008
1.511467
4.789959
7.601459
9.985655
12.002157
13.657896
14.919912
15.768301
16.214563
16.275780
15.960031
15.303939
14.418829
13.471982
12.612087
11.920517
11.431729
11.180368
11.202974
11.481275
11.890543
12.219814
12.269248
11.967279
11.431986
10.919076
10.671194
10.778798
11.141796
11.541780
11.778148
11.764666
11.537129
11.212179
10.925878
10.795122
10.946327
11.545926
12.733438
14.482258
16.512197
18.346319
19.500948
19.688349
18.884064
17.242325
14.977044
12.283553
9.315484
6.231637
3.251566
0.630640
-1.415882
-2.764451
-3.412014
-3.487671
-3.202218
-2.744889
-2.217171
-1.658225
-1.113846
-0.655142
-0.318987
-0.038770
0.347383
0.994814
1.931097
3.004019
3.926048
4.384018
4.155141
3.166899
1.468423
-0.850751
-3.707453
-6.987373
-10.458055
-13.722846
-16.293802
-17.756453
-17.909628
-16.818977
-14.808171
-12.382760
-10.064760
-8.213481
-6.950080
-6.198861
-5.780261
-5.517393
-5.327521
-5.248849
-5.381484
-5.792981
-6.472947
-7.358014
-8.380423
-9.497431
-10.678336
-11.853570
-12.870586
-13.516435
-13.614895
-13.110516
-12.070068
-10.629169
-8.920397
-7.023228
-4.989440
-2.921734
-1.023382
0.431059
1.191711
1.143748
0.377680
-0.826745
-2.127713
-3.298099
-4.310723
-5.269526
-6.274078
-7.309950
-8.190075
-8.591080
-8.211538
-6.945107
-4.927021
-2.458059
0.100348
2.415019
4.247553
5.488550
6.151732
6.337019
6.196503
5.926346
5.764225
5.958541
6.703374
8.068905
9.965491
12.160572
14.347010
16.236155
17.633478
18.470215
18.788971
18.708334
18.394136
18.030424
17.771772
17.687597
17.731422
17.745247
17.504383
16.820381
15.644109
14.069280
12.245841
10.306680
8.343907
6.386361
4.397735
2.341792
0.253315
-1.767720
-3.636490
-5.359970
-7.024971
-8.703236
-10.371099
-11.922415
-13.247785
-14.294343
-15.051734
-15.475091
-15.431089
-14.739579
-13.274770
-11.042554
-8.180141
-4.889741
-1.381785
2.123994
5.379967
8.132532
10.178718
11.431471
11.979458
12.080668
12.038404
12.040094
12.093953
12.085527
11.885399
11.451729
10.877433
10.341269
9.993185
9.869610
9.906185
10.012151
10.124936
10.214935
10.261437
10.236836
10.119429
9.923456
9.722655
9.637736
9.771794
10.129986
10.600181
11.022649
11.278990
11.323837
11.165821
10.840456
10.388807
9.852107
9.284595
8.758374
8.355126
8.141007
8.100595
8.065170
7.720780
6.719277
4.826256
2.024331
-1.470109
-5.272813
-8.952017
-12.167281
-14.770017
-16.813913
-18.479755
-19.965425
-21.394722
-22.772161
-23.980387
-24.813292
-25.044176
-24.503822
-23.133528
-21.001322
-18.272068
-15.131675
-11.710095
-8.062452
-4.219582
-0.265260
3.615004
7.146953
10.041324
12.100194
13.296178
13.754424
13.648394
13.111050
12.231058
11.105482
9.878137
8.726556
7.814338
7.243355
7.024364
7.072054
7.233392
7.354760
7.355983
7.256715
7.139527
7.073652
7.046661
6.956170
6.667659
6.095366
5.254412
4.261272
3.293770
2.529493
2.086852
1.990266
2.162217
2.443032
2.640229
2.590816
2.211727
1.521149
0.622509
-0.338402
-1.223399
-1.942056
-2.460685
-2.777552
-2.890688
-2.779659
-2.418402
-1.824466
-1.104544
-0.456179
-0.127872
-0.344243
-1.217437
-2.704800
-4.639509
-6.793520
-8.931720
-10.845792
-12.371616
-13.407344
-13.935837
-14.024840
-13.802666
-13.426536
-13.021935
-12.611534
-12.124838
-11.496209
-10.740062
-9.939365
-9.192466
-8.570365
-8.103909
-7.800979
-7.656842
-7.631788
-7.636437
-7.559750
-7.308099
-6.829996
-6.140055
-5.334907
-4.576382
-4.043894
-3.876346
-4.119364
-4.695459
-5.423197
-6.095032
-6.577998
-6.871206
-7.072474
-7.276715
-7.495371
-7.657103
-7.667274
-7.469907
-7.073434
-6.533650
-5.914555
-5.265155
-4.628605
-4.045505
-3.515812
-2.964165
-2.276025
-1.379826
-0.293561
0.888946
2.026002
2.951885
3.535378
3.752515
3.698128
3.525703
3.367125
3.288058
3.299673
3.395012
3.563155
3.773778
3.968815
4.082555
4.073622
3.948697
3.764109
3.601706
3.521039
3.501891
3.430016
3.163554
2.641586
1.958082
1.344189
1.055524
1.222640
1.762895
2.428431
2.955125
3.188946
3.111351
2.791635
2.327239
1.796866
1.227012
0.578378
-0.236154
-1.305944
-2.675527
-4.323692
-6.173727
-8.114433
-10.009962
-11.700978
-13.020951
-13.836404
-14.088924
-13.813004
-13.115055
-12.121415
-10.932017
-9.605570
-8.174508
-6.680308
-5.201467
-3.836826
-2.653534
-1.655132
-0.794976
-0.007964
0.765774
1.569639
2.433421
3.389096
4.477572
5.720542
7.070857
8.386809
9.463101
10.111685
10.242278
9.889800
9.181236
8.272290
7.295336
6.341532
5.470676
4.736332
4.202359
3.926887
3.925522
4.142465
4.450966
4.688434
4.711027
4.440884
3.879148
3.087731
2.161242
1.193435
0.251015
-0.623449
-1.388400
-1.992275
-2.386744
-2.541921
-2.450753
-2.127813
-1.595131
-0.865794
0.042736
1.069681
2.087676
2.928267
3.445634
3.572120
3.328940
2.785015
1.989651
0.931230
-0.441048
-2.144022
-4.093363
-6.101758
-7.948789
-9.475704
-10.641148
-11.499037
-12.122254
-12.536975
-12.714090
-12.608804
-12.202167
-11.517185
-10.611353
-9.555053
-8.415329
-7.258742
-6.156310
-5.168005
-4.318248
-3.589442
-2.940352
-2.339567
-1.789308
-1.318166
-0.955378
-0.706457
-0.542855
-0.420572
-0.314702
-0.233436
-0.199792
-0.223282
-0.288486
