EVENT_NAME: L_AQUILA
EVENT_ID: IT-2009-0009
EVENT_DATE_YYYYMMDD: 20090406
EVENT_TIME_HHMMSS: 013240
EVENT_LATITUDE_DEGREE: 42.3420
EVENT_LONGITUDE_DEGREE: 13.3800
EVENT_DEPTH_KM: 8.3
HYPOCENTER_REFERENCE: INGV-CNT_Seismic_Bulletin
MAGNITUDE_W: 6.1
MAGNITUDE_W_REFERENCE: INGV-CNT_Seismic_Bulletin
MAGNITUDE_L: 
MAGNITUDE_L_REFERENCE: 
FOCAL_MECHANISM: Normal faulting
NETWORK: IT
STATION_CODE: SUL
STATION_NAME: 
STATION_LATITUDE_DEGREE: 42.089000
STATION_LONGITUDE_DEGREE: 13.934000
STATION_ELEVATION_M: 556
LOCATION: 
SENSOR_DEPTH_M: 0.0
VS30_M/S: 
SITE_CLASSIFICATION_EC8: A (inferred from geology)
MORPHOLOGIC_CLASSIFICATION: 
EPICENTRAL_DISTANCE_KM: 53.7
EARTHQUAKE_BACKAZIMUTH_DEGREE: 121.4
DATE_TIME_FIRST_SAMPLE_YYYYMMDD_HHMMSS: 20090406_013236.000
DATE_TIME_FIRST_SAMPLE_PRECISION: seconds
SAMPLING_INTERVAL_S: 0.005000
NDATA: 20800
DURATION_S: 104.000
STREAM: HNN
UNITS: cm/s^2
INSTRUMENT: sensor = FBA-3 [Kinemetrics] | digitizer = Etna [Kinemetrics]
INSTRUMENT_ANALOG/DIGITAL: D
INSTRUMENTAL_FREQUENCY_HZ: 214.000
INSTRUMENTAL_DAMPING: 0.700000
FULL_SCALE_G: 1.0
N_BIT_DIGITAL_CONVERTER: 18
PGA_CM/S^2: -27.117931
TIME_PGA_S: 25.455000
BASELINE_CORRECTION: BASELINE REMOVED
FILTER_TYPE: BUTTERWORTH
FILTER_ORDER: 2
LOW_CUT_FREQUENCY_HZ: 0.040
HIGH_CUT_FREQUENCY_HZ: 40.000
LATE/NORMAL_TRIGGERED: NT
DATABASE_VERSION: 0.5
HEADER_FORMAT: DYNA 1.2
DATA_TYPE: ACCELERATION
PROCESSING: manual (Paolucci et al., 2011)
DATA_TIMESTAMP_YYYYMMDD_HHMMSS: 20211011_160356.767
DATA_LICENSE: CC-BY3_0-IT (http://creativecommons.org/licenses/by/3.0/deed.en)
DATA_CITATION: Luzi L, Pacor F, Puglia R (2019). Italian Accelerometric Archive v 3.0 - Istituto Nazionale di Geofisica e Vulcanologia, Dipartimento della Protezione Civile Nazionale. doi: 10.13127/itaca.3.1
DATA_CREATOR: ITACA working group
ORIGINAL_DATA_MEDIATOR_CITATION: data obtained within the DPC-INGV data exchange agreements
ORIGINAL_DATA_MEDIATOR: Archive of Italian Department of Civil Protection
ORIGINAL_DATA_CREATOR_CITATION: Presidency Of Counsil Of Ministers-Civil Protection Department. (1972). Italian Strong Motion Network. Presidency of Counsil of Ministers - Civil Protection Department. https://doi.org/10.7914/SN/IT http://www.fdsn.org/networks/detail/IT/
ORIGINAL_DATA_CREATOR: network: IT (Italian Strong Motion Network (RAN)); owner: Presidency of Counsil of Ministers - Civil Protection Department (PCM - DPC)
USER1: 
USER2: 
USER3: 
USER4: 
USER5: 
[...]
-3.134656
-3.465368
-3.373757
-2.918089
-2.296709
-1.727080
-1.300085
-0.921014
-0.395975
0.390986
1.354365
2.227492
2.705631
2.630261
2.091671
1.364737
0.734595
0.354251
0.218830
0.234641
0.294968
0.308156
0.218583
0.043585
-0.131357
-0.210185
-0.148366
-0.001230
0.083796
-0.023962
-0.314035
-0.622971
-0.744072
-0.565317
-0.134002
0.383333
0.818958
1.127723
1.386031
1.645200
1.818126
1.736895
1.314035
0.653134
0.012108
-0.358896
-0.374815
-0.143461
0.134656
0.292775
0.260556
0.040621
-0.346899
-0.869011
-1.433639
-1.874106
-2.017813
-1.824927
-1.489261
-1.349997
-1.631392
-2.227286
-2.720193
-2.649973
-1.846576
-0.548676
0.781341
1.759359
2.264690
2.410896
2.381200
2.298351
2.197130
2.050316
1.816832
1.498942
1.169485
0.939811
0.885098
0.980642
1.109194
1.156090
1.098685
0.978413
0.812990
0.593307
0.357339
0.195219
0.160910
0.230621
0.351390
0.493042
0.655956
0.829426
0.932803
0.825351
0.408786
-0.277548
-1.060010
-1.714437
-2.065539
-2.052303
-1.734717
-1.259257
-0.821427
-0.612513
-0.724844
-1.083364
-1.475364
-1.641191
-1.371175
-0.600100
0.530527
1.707361
2.584837
2.947861
2.799920
2.320061
1.733183
1.214142
0.865165
0.708215
0.659739
0.523810
0.066889
-0.823889
-2.008547
-3.115580
-3.723035
-3.568116
-2.650529
-1.205799
0.412347
1.887780
3.046355
3.843140
4.274784
4.327142
4.015643
3.459437
2.874443
2.437985
2.124150
1.689727
0.879570
-0.311413
-1.579335
-2.518141
-2.883076
-2.702038
-2.214362
-1.699413
-1.303161
-1.017968
-0.815284
-0.746189
-0.894774
-1.244202
-1.602422
-1.689685
-1.320024
-0.512621
0.522584
1.475399
2.073671
2.222875
2.037534
1.737570
1.521619
1.498913
1.670306
1.950409
2.216657
2.354631
2.298019
2.046046
1.634310
1.103669
0.512113
-0.041615
-0.432702
-0.555755
-0.353226
0.171723
0.923536
1.697423
2.240739
2.375854
2.103813
1.607875
1.123656
0.769872
0.497239
0.188876
-0.207427
-0.645795
-1.047614
-1.368649
-1.613772
-1.810646
-1.969833
-2.052909
-1.974038
-1.650446
-1.064661
-0.292843
0.498171
1.081662
1.238211
0.839454
-0.072395
-1.247328
-2.304682
-2.903417
-2.892195
-2.371287
-1.638467
-1.029905
-0.745972
-0.772609
-0.942444
-1.069176
-1.052610
-0.906483
-0.696951
-0.437510
-0.054470
0.518926
1.208008
1.782827
2.008354
1.812468
1.321381
0.765657
0.351546
0.171747
0.186203
0.278134
0.341271
0.333958
0.287352
0.272301
0.337734
0.468670
0.589179
0.602814
0.453762
0.175785
-0.097187
-0.180941
0.055178
0.606295
1.333092
2.035220
2.547348
2.794766
2.791006
2.610625
2.351088
2.088899
1.863625
1.693800
1.569578
1.420146
1.138640
0.681685
0.133460
-0.359885
-0.728271
-1.049435
-1.487859
-2.153829
-3.003024
-3.846575
-4.441132
-4.603117
-4.290674
-3.602100
-2.707770
-1.778927
-0.952449
-0.337901
-0.027067
-0.049213
-0.304287
-0.579012
-0.667337
-0.494482
-0.152539
0.169375
0.325374
0.314213
0.250545
0.265740
0.425099
0.688072
0.943831
1.089233
1.063671
0.834132
0.371915
-0.334414
-1.211363
-2.061797
-2.647070
-2.830781
-2.644420
-2.223621
-1.692188
-1.111109
-0.520592
-0.000160
0.318806
0.298821
-0.108519
-0.778769
-1.460052
-1.949272
-2.219865
-2.374482
-2.500474
-2.577792
-2.503079
-2.187296
-1.637598
-0.962346
-0.313999
0.168332
0.387713
0.306206
-0.043522
-0.562212
-1.107829
-1.534407
-1.726910
-1.625511
-1.264757
-0.808463
-0.494040
-0.475619
-0.697251
-0.928873
-0.936523
-0.621060
-0.034967
0.669581
1.318867
1.800839
2.086897
2.184344
2.105330
1.882555
1.577079
1.265785
1.028353
0.914802
0.915005
0.988496
1.109836
1.247384
1.327542
1.277804
1.098815
0.846535
0.529297
0.057931
-0.668148
-1.637792
-2.703562
-3.655729
-4.321739
-4.635332
-4.635176
-4.395453
-3.955844
-3.327818
-2.565738
-1.795475
-1.139928
-0.622896
-0.169897
0.289471
0.730234
1.048235
1.159122
1.082146
0.941957
0.895618
1.048597
1.413701
1.922066
2.465372
2.932713
3.230353
3.304679
3.162000
2.844915
2.372573
1.729944
0.939651
0.119606
-0.553606
-0.929226
-0.938694
-0.611814
-0.073550
0.478915
0.840436
0.903918
0.743707
0.586216
0.662806
1.049423
1.622926
2.177926
2.589563
2.867472
3.092402
3.321045
3.518746
3.571200
3.386105
2.992542
2.525878
2.100867
1.703918
1.221979
0.576698
-0.169026
-0.830155
-1.227962
-1.304549
-1.126951
-0.822271
-0.516764
-0.285761
-0.129602
-0.011360
0.070451
0.055385
-0.130009
-0.508066
-1.029736
-1.604928
-2.157700
-2.651933
-3.056264
-3.302051
-3.309201
-3.059938
-2.624363
-2.108049
-1.593549
-1.124629
-0.708766
-0.325573
0.035926
0.330246
0.464629
0.375640
0.096922
-0.248532
-0.522262
-0.654965
-0.679807
-0.690912
-0.776261
-0.985563
-1.327192
-1.756554
-2.159330
-2.373002
-2.264916
-1.810876
-1.103203
-0.296101
0.456359
1.048213
1.452585
1.709016
1.864510
1.935259
1.936694
1.927746
1.990922
2.148772
2.305057
2.304218
2.072972
1.689481
1.303420
0.997108
0.724043
0.368832
-0.132895
-0.712321
-1.196946
-1.440897
-1.442181
-1.330538
-1.236401
-1.172974
-1.044444
-0.765100
-0.359795
0.063086
0.416812
0.688524
0.899832
1.039228
1.043656
0.852213
0.477593
0.025885
-0.353018
-0.562078
-0.642278
-0.756152
-1.054551
-1.545217
-2.086689
-2.504076
-2.721565
-2.815576
-2.965485
-3.336351
-3.959628
-4.690416
-5.278660
-5.505218
-5.287483
-4.693944
-3.876171
-2.979043
-2.095266
-1.278303
-0.564386
0.031358
0.511495
0.859068
1.006697
0.866763
0.420145
-0.212294
-0.797641
-1.113852
-1.072877
-0.758587
-0.370871
-0.112364
-0.077707
-0.217825
-0.405436
-0.542935
-0.611719
-0.632686
-0.603216
-0.472787
-0.177235
0.296341
0.881363
1.463234
1.934340
2.235164
2.367754
2.395128
2.430232
2.587321
2.901423
3.287488
3.590979
3.678048
3.490982
3.068643
2.535670
2.038301
1.663161
1.413457
1.249492
1.130956
1.019817
0.862835
0.592556
0.165696
-0.382236
-0.921538
-1.289862
-1.399282
-1.295558
-1.101583
-0.897291
-0.662926
-0.334273
0.106407
0.592788
1.002687
1.215044
1.165181
0.883544
0.491099
0.139233
-0.053380
-0.010519
0.315062
0.904797
1.606898
2.156276
2.318662
2.043756
1.501607
0.970249
0.642825
0.502113
0.367549
0.058226
-0.480348
-1.176612
-1.908398
-2.542762
-2.922311
-2.873923
-2.287279
-1.218399
0.074006
1.208397
1.843269
1.837952
1.318011
0.605606
0.060109
-0.086353
0.191916
0.761888
1.439372
2.066058
2.536407
2.797195
2.845838
2.730187
2.523745
2.279065
2.012168
1.734926
1.479788
1.284535
1.172611
1.160374
1.271017
1.522948
1.903130
2.360186
2.823435
3.227421
3.525448
3.687226
3.687853
3.506997
3.146648
2.646585
2.077067
1.523322
1.079113
0.827576
0.794273
0.918209
1.084530
1.187881
1.176270
1.066552
0.930395
0.844803
0.835358
0.863133
0.865446
0.804844
0.682918
0.520309
0.335948
0.151018
0.004810
-0.050809
0.009904
0.146221
0.263085
0.278768
0.180955
0.017738
-0.159143
-0.338416
-0.541622
-0.780035
-1.021517
-1.196633
-1.241036
-1.149437
-0.998229
-0.902437
-0.932413
-1.060502
-1.190335
-1.249622
-1.251868
-1.258917
-1.291432
-1.290213
-1.166515
-0.884265
-0.494110
-0.088697
0.280508
0.642798
1.063738
1.566594
2.091441
2.514361
2.720698
2.694169
2.529831
2.332475
2.098592
1.699969
0.984588
-0.089896
-1.404906
-2.747155
-3.916623
-4.790991
-5.330679
-5.548583
-5.470003
-5.114947
-4.519068
-3.765601
-2.987560
-2.328226
-1.883810
-1.661426
-1.574185
-1.486706
-1.291594
-0.959585
-0.534215
-0.097900
0.256678
0.446702
0.422790
0.197158
-0.134040
-0.403501
-0.450745
-0.227453
0.169004
0.576929
0.892113
1.121147
1.335985
1.592989
1.893559
2.206297
2.508662
2.791625
3.028271
3.164504
3.154934
3.004444
2.776871
2.563696
2.433183
2.403253
2.455287
2.552100
2.638376
2.648524
2.536535
2.311410
2.047002
1.844570
1.769907
1.816084
1.915358
1.974557
1.902005
1.628144
1.136222
0.497851
-0.127842
-0.569013
-0.749603
-0.735518
-0.674739
-0.682459
-0.765824
-0.841473
-0.807487
-0.596700
-0.194127
0.358893
0.970632
1.524706
1.919378
2.098175
2.054734
1.816385
1.423967
0.924523
0.380893
-0.122804
-0.503285
-0.719378
-0.798685
-0.818294
-0.844538
-0.878821
-0.852301
-0.676031
-0.313749
0.181258
0.699656
1.148827
1.499135
1.773656
1.996902
2.138979
2.106354
1.800695
1.196874
0.370333
-0.540226
-1.390709
-2.069179
-2.510007
-2.699321
-2.675704
-2.522255
-2.347172
-2.245317
-2.250388
-2.312662
-2.322945
-2.173008
-1.822189
-1.328848
-0.819902
-0.415855
-0.168180
-0.056194
-0.033063
-0.065162
-0.140181
-0.266069
-0.455903
-0.689252
-0.895055
-0.988726
-0.930693
-0.750315
-0.515510
-0.284900
-0.082790
0.098376
0.278654
0.471923
0.681519
0.903315
1.129125
1.353024
1.576722
1.811520
2.078343
2.395351
2.758675
3.146173
3.545007
3.966785
4.427109
4.910815
5.361132
5.696827
5.831157
5.684666
5.208182
4.410721
3.362291
2.165068
0.915902
-0.315514
-1.476623
-2.492372
-3.231268
-3.525995
-3.258279
-2.446029
-1.251207
0.094236
1.369891
2.405273
3.091840
3.400546
3.396892
3.218840
3.014175
2.878746
2.836355
2.862494
2.920326
2.984569
3.054996
3.154691
3.296109
3.425060
3.401103
3.068560
2.377432
1.440870
0.464923
-0.395414
-1.127212
-1.826244
-2.581346
-3.370488
-4.051263
-4.460654
-4.540244
-4.383805
-4.181669
-4.109774
-4.233185
-4.483005
-4.724769
-4.862623
-4.885727
-4.833033
-4.743729
-4.647671
-4.583274
-4.609771
-4.794472
-5.176529
-5.729511
-6.348786
-6.888690
-7.251317
-7.466376
-7.684694
-8.079446
-8.727386
-9.554701
-10.375216
-10.979074
-11.211515
-11.007042
-10.375827
-9.368694
-8.060582
-6.563360
-5.036664
-3.664228
-2.594996
-1.882980
-1.470667
-1.226910
-1.012015
-0.736169
-0.385002
-0.005650
0.326733
0.537053
0.564184
0.365810
-0.073955
-0.724318
-1.493852
-2.264947
-2.970235
-3.636152
-4.342341
-5.131591
-5.947894
-6.650134
-7.087345
-7.179676
-6.950570
-6.497301
-5.927933
-5.305925
-4.642688
-3.942876
-3.250881
-2.647673
-2.205168
-1.948358
-1.860133
-1.915630
-2.107995
-2.438748
-2.879606
-3.344052
-3.705200
-3.854055
-3.748163
-3.415007
-2.920539
-2.323210
-1.634257
-0.820592
0.144345
1.238914
2.401416
3.561489
4.654597
5.615339
6.383582
6.940951
7.333940
7.646450
7.952019
8.287148
8.653276
9.037556
9.424112
9.775591
10.021506
10.095181
9.997602
9.832005
9.770253
9.962594
10.453298
11.158497
11.906272
12.497802
12.762705
12.606095
12.037126
11.165921
10.165951
9.212765
8.432310
7.887598
7.596123
7.547198
7.703496
8.002662
8.371251
8.735950
9.020460
9.145239
9.055200
8.763911
8.365514
7.986617
7.709510
7.523360
7.330336
7.000985
6.458352
5.740767
4.987412
4.360781
3.982090
3.924895
4.232262
4.895126
5.805016
6.756483
7.522331
7.954698
8.052968
7.959416
7.874606
7.935320
8.142542
8.393022
8.580030
8.679799
8.764959
8.953811
9.336785
9.919879
10.625184
11.345606
11.995122
12.512066
12.835829
12.905204
12.691432
12.232197
11.626135
10.983214
10.368998
9.781005
9.164646
8.457745
7.640510
6.758908
5.906251
5.181224
4.648495
4.312168
4.111774
3.944636
3.699803
3.299122
2.740662
2.111557
1.545844
1.147253
0.931128
0.829748
0.749218
0.623108
0.426194
0.150953
-0.237847
-0.835006
-1.764095
-3.089309
-4.741611
-6.525066
-8.199880
-9.576783
-10.567007
-11.184271
-11.515751
-11.675584
-11.763950
-11.854023
-12.001787
-12.250182
-12.617051
-13.094342
-13.672690
-14.363745
-15.192186
-16.156965
-17.182928
-18.097517
-18.673086
-18.737419
-18.280844
-17.475477
-16.593967
-15.890049
-15.513504
-15.490887
-15.762561
-16.235884
-16.814205
-17.399202
-17.888094
-18.183584
-18.217621
-17.970720
-17.468576
-16.759241
-15.902248
-14.990770
-14.167369
-13.579830
-13.298014
-13.269035
-13.353000
-13.406406
-13.344419
-13.146543
-12.829372
-12.413011
-11.882354
-11.171448
-10.205153
-8.963811
-7.505079
-5.934486
-4.367895
-2.908645
-1.628099
-0.544951
0.379863
1.220749
2.052146
2.918816
3.813440
4.661421
5.332932
5.701260
5.715526
5.431798
4.986435
4.532889
4.175153
3.931980
3.754626
3.583812
3.394845
3.200590
3.028623
2.903781
2.853624
2.921615
3.157473
3.581407
4.152746
4.781160
5.384200
5.942452
6.493665
7.067465
7.636660
8.141725
8.555943
8.927538
9.368021
9.992765
10.850497
11.893814
13.018487
14.135865
15.206924
16.215048
17.118719
17.829256
18.230734
18.229715
17.797403
16.973780
15.838627
14.472080
12.928215
11.243381
9.469134
7.697228
6.056529
4.669486
3.593141
2.809258
2.282654
2.032942
2.150054
2.737938
3.839890
5.400552
7.266320
9.204974
10.944805
12.233792
12.897405
12.867434
12.172420
10.905387
9.189501
7.153478
4.924757
2.632917
0.399532
-1.687670
-3.586004
-5.276983
-6.736544
-7.930433
-8.835630
-9.459200
-9.837242
-10.015969
-10.030382
-9.902092
-9.652292
-9.310543
-8.924460
-8.579028
-8.403249
-8.536103
-9.062646
-9.960948
-11.088442
-12.222789
-13.165829
-13.865215
-14.452283
-15.153743
-16.165318
-17.591194
-19.430099
-21.545038
-23.656479
-25.428211
-26.607397
-27.117931
-27.055527
-26.596848
-25.871256
-24.877768
-23.518032
-21.720627
-19.552559
-17.232544
-15.036742
-13.161370
-11.630900
-10.303811
-8.970196
-7.489090
-5.881478
-4.308332
-2.948055
-1.869582
-0.990324
-0.133049
0.867525
2.075702
3.436260
4.824765
6.115746
7.224706
8.112173
8.766227
9.173231
9.285609
9.029036
8.352767
7.267350
5.854889
4.276160
2.764018
1.575596
0.907406
0.809233
1.155412
1.716543
2.294241
2.819853
3.337983
3.881105
4.353532
4.553059
4.320279
3.682646
2.867532
2.175794
1.816962
1.796900
1.908596
1.851139
1.413026
0.605263
-0.318381
-0.962622
-0.972098
-0.194669
1.257674
3.057253
4.787758
6.101974
6.822856
6.937379
6.527404
5.695327
4.505404
2.962787
1.051988
-1.184614
-3.595853
-5.950416
-8.004603
-9.546509
-10.424905
-10.569522
-9.982805
-8.730068
-6.955258
-4.878765
-2.731174
-0.662760
1.283414
3.115678
4.820433
6.340605
7.626180
8.688853
9.583204
10.356275
11.034110
11.627015
12.127371
12.514426
12.750694
12.749037
12.376369
11.544653
10.301675
8.822525
7.325741
5.984766
4.859651
3.872702
2.863376
1.701467
0.390502
-0.903999
-1.924277
-2.434591
-2.305850
-1.544223
-0.279687
1.254100
2.744623
3.860644
4.354916
4.155602
3.377637
2.249418
1.012178
-0.147933
-1.110228
-1.799233
-2.188191
-2.345723
-2.475022
-2.875152
-3.811066
-5.345577
-7.246998
-9.076885
-10.415600
-11.078932
-11.196486
-11.087581
-11.018217
-11.027953
-10.948610
-10.579695
-9.853514
-8.866313
-7.798709
-6.814575
-6.031041
-5.555324
-5.483975
-5.846905
-6.559481
-7.404168
-8.064767
-8.245987
-7.813469
-6.827416
-5.452125
-3.839163
-2.060887
-0.117876
1.987084
4.172725
6.278200
8.137056
9.663632
10.882309
11.858731
12.586318
12.954703
12.835583
12.178788
11.032601
9.512659
7.762266
5.919418
4.108528
2.453831
1.078485
0.072056
-0.556584
-0.905566
-1.144930
-1.427980
-1.817259
-2.265243
-2.637699
-2.771796
-2.550366
-1.946092
-1.020686
0.094945
1.235916
2.267347
3.132763
3.825044
4.317462
4.545022
4.450986
4.049501
3.457381
2.863682
2.443807
2.270545
2.275750
2.294670
2.180611
1.912137
1.617619
1.500172
1.699355
2.186857
2.787321
3.302243
3.625442
3.771028
3.822495
3.854139
3.880487
3.871534
3.820649
3.809775
4.019033
4.658995
5.849501
7.524665
9.447650
11.330756
12.961068
14.242337
15.165550
15.764713
16.068422
16.054363
15.653850
14.814406
13.546029
11.909176
10.008210
8.026657
6.221990
4.825669
3.932322
3.477317
3.302094
3.242825
3.185478
3.080143
2.935387
2.786249
2.628151
2.366931
1.840975
0.896308
-0.530309
-2.346256
-4.302074
-6.079873
-7.417153
-8.194224
-8.460718
-8.402879
-8.258689
-8.212688
-8.310551
-8.417308
-8.257381
-7.549593
-6.155617
-4.155113
-1.821232
0.506691
2.582803
4.318300
5.709988
6.728894
7.286219
7.291915
6.745036
5.792980
4.691499
3.665572
2.795372
2.015500
1.181060
0.143793
-1.178051
-2.755052
-4.436176
-5.992975
-7.227767
-8.078178
-8.646812
-9.157133
-9.872102
-10.985614
-12.496871
-14.165259
-15.626129
-16.585102
-16.944250
-16.785910
-16.249886
-15.418636
-14.294186
-12.860891
-11.181478
-9.461281
-8.015487
-7.133137
-6.935690
-7.336599
-8.099956
-8.946577
-9.670331
-10.194694
-10.530806
-10.709143
-10.753071
-10.677795
-10.485739
-10.159882
-9.660170
-8.923066
-7.874209
-6.458717
-4.670248
-2.555118
-0.185185
2.380328
5.104301
7.928538
10.708752
13.193665
15.085576
16.156130
16.337688
15.727623
14.527708
12.978534
11.315362
9.746814
8.445012
7.529189
7.044577
6.954740
7.156779
7.521099
7.949212
8.405768
8.884056
9.340617
9.659664
9.671608
9.217472
8.225485
6.775564
5.119708
3.606445
2.531852
2.009377
1.923192
1.989602
1.901867
1.470069
0.669666
-0.409143
-1.645905
-2.943774
-4.242593
-5.519528
-6.790511
-8.089401
-9.417422
-10.708605
-11.854716
-12.765853
-13.409938
-13.818836
-14.068349
-14.217593
-14.242384
-14.045382
-13.546165
-12.764986
-11.836220
-10.961954
-10.354144
-10.189628
-10.571217
-11.495625
-12.844115
-14.410689
-15.964937
-17.324629
-18.405373
-19.225311
-19.863449
-20.388107
-20.794369
-20.995001
-20.868286
-20.329456
-19.389107
-18.167534
-16.857941
-15.663466
-14.741766
-14.179998
-13.998252
-14.163632
-14.607366
-15.244229
-15.985102
-16.731821
-17.367737
-17.766722
-17.815323
-17.439205
-16.625214
-15.419783
-13.913636
-12.224780
-10.470418
-8.743824
-7.112963
-5.633301
-4.370750
-3.406108
-2.783815
-2.447851
-2.242366
-1.977753
-1.511046
-0.804630
0.062027
0.943686
1.716409
2.343678
2.888391
3.466308
4.164064
4.973989
5.784981
6.437521
6.817339
6.920862
6.848793
6.753259
6.771848
6.961625
7.268945
7.570763
7.760377
7.820718
7.849214
8.014986
8.472211
9.290592
10.431019
11.763115
13.110099
14.284941
15.113703
15.478567
15.364370
14.859146
14.103231
13.224980
12.295681
11.314747
10.240163
9.058683
7.837660
6.709809
5.809155
5.206170
4.869675
4.675615
4.461266
4.075189
3.404341
2.405583
1.124254
-0.336373
-1.876414
-3.441891
-5.026916
-6.650204
-8.319079
-9.985408
-11.512608
-12.685432
-13.271708
-13.101589
-12.122553
-10.418304
-8.197207
-5.755351
-3.415756
-1.451413
-0.013376
0.907867
1.456456
1.820795
2.142540
2.489790
2.883984
3.326309
3.800362
4.258106
4.602392
4.698227
4.433000
3.788486
2.871588
1.887126
1.063052
0.561928
0.433133
0.629271
1.057645
1.628173
2.279628
2.988803
3.774920
4.698186
5.844223
7.292694
9.072198
11.114258
13.245258
15.244149
16.930176
18.217915
19.112553
19.659653
19.887400
19.781572
19.305937
18.438326
