EVENT_NAME: L_AQUILA
EVENT_ID: IT-2009-0009
EVENT_DATE_YYYYMMDD: 20090406
EVENT_TIME_HHMMSS: 013240
EVENT_LATITUDE_DEGREE: 42.3420
EVENT_LONGITUDE_DEGREE: 13.3800
EVENT_DEPTH_KM: 8.3
HYPOCENTER_REFERENCE: INGV-CNT_Seismic_Bulletin
MAGNITUDE_W: 6.1
MAGNITUDE_W_REFERENCE: INGV-CNT_Seismic_Bulletin
MAGNITUDE_L: 
MAGNITUDE_L_REFERENCE: 
FOCAL_MECHANISM: Normal faulting
NETWORK: IT
STATION_CODE: SUL
STATION_NAME: 
STATION_LATITUDE_DEGREE: 42.089000
STATION_LONGITUDE_DEGREE: 13.934000
STATION_ELEVATION_M: 556
LOCATION: 
SENSOR_DEPTH_M: 0.0
VS30_M/S: 
SITE_CLASSIFICATION_EC8: A (inferred from geology)
MORPHOLOGIC_CLASSIFICATION: 
EPICENTRAL_DISTANCE_KM: 53.7
EARTHQUAKE_BACKAZIMUTH_DEGREE: 121.4
DATE_TIME_FIRST_SAMPLE_YYYYMMDD_HHMMSS: 20090406_013236.000
DATE_TIME_FIRST_SAMPLE_PRECISION: seconds
SAMPLING_INTERVAL_S: 0.005000
NDATA: 20800
DURATION_S: 104.000
STREAM: HNZ
UNITS: cm
INSTRUMENT: sensor = FBA-3 [Kinemetrics] | digitizer = Etna [Kinemetrics]
INSTRUMENT_ANALOG/DIGITAL: D
INSTRUMENTAL_FREQUENCY_HZ: 214.000
INSTRUMENTAL_DAMPING: 0.700000
FULL_SCALE_G: 1.0
N_BIT_DIGITAL_CONVERTER: 18
PGD_CM: 0.922871
TIME_PGD_S: 26.010000
BASELINE_CORRECTION: BASELINE REMOVED
FILTER_TYPE: BUTTERWORTH
FILTER_ORDER: 2
LOW_CUT_FREQUENCY_HZ: 0.040
HIGH_CUT_FREQUENCY_HZ: 40.000
LATE/NORMAL_TRIGGERED: NT
DATABASE_VERSION: 0.5
HEADER_FORMAT: DYNA 1.2
DATA_TYPE: DISPLACEMENT
PROCESSING: manual (Paolucci et al., 2011)
DATA_TIMESTAMP_YYYYMMDD_HHMMSS: 20211011_160357.427
DATA_LICENSE: CC-BY3_0-IT (http://creativecommons.org/licenses/by/3.0/deed.en)
DATA_CITATION: Luzi L, Pacor F, Puglia R (2019). Italian Accelerometric Archive v 3.0 - Istituto Nazionale di Geofisica e Vulcanologia, Dipartimento della Protezione Civile Nazionale. doi: 10.13127/itaca.3.1
DATA_CREATOR: ITACA working group
ORIGINAL_DATA_MEDIATOR_CITATION: data obtained within the DPC-INGV data exchange agreements
ORIGINAL_DATA_MEDIATOR: Archive of Italian Department of Civil Protection
ORIGINAL_DATA_CREATOR_CITATION: Presidency Of Counsil Of Ministers-Civil Protection Department. (1972). Italian Strong Motion Network. Presidency of Counsil of Ministers - Civil Protection Department. https://doi.org/10.7914/SN/IT http://www.fdsn.org/networks/detail/IT/
ORIGINAL_DATA_CREATOR: network: IT (Italian Strong Motion Network (RAN)); owner: Presidency of Counsil of Ministers - Civil Protection Department (PCM - DPC)
USER1: 
USER2: 
USER3: 
USER4: 
USER5: 
[...]
-1.286597e-01
-1.281116e-01
-1.275411e-01
-1.269589e-01
-1.263765e-01
-1.258027e-01
-1.252416e-01
-1.246937e-01
-1.241581e-01
-1.236343e-01
-1.231231e-01
-1.226265e-01
-1.221463e-01
-1.216813e-01
-1.212255e-01
-1.207707e-01
-1.203106e-01
-1.198425e-01
-1.193659e-01
-1.188784e-01
-1.183754e-01
-1.178523e-01
-1.173070e-01
-1.167416e-01
-1.161617e-01
-1.155742e-01
-1.149850e-01
-1.143974e-01
-1.138106e-01
-1.132207e-01
-1.126236e-01
-1.120185e-01
-1.114093e-01
-1.108041e-01
-1.102124e-01
-1.096424e-01
-1.090999e-01
-1.085875e-01
-1.081048e-01
-1.076497e-01
-1.072195e-01
-1.068125e-01
-1.064282e-01
-1.060680e-01
-1.057373e-01
-1.054455e-01
-1.052041e-01
-1.050224e-01
-1.049023e-01
-1.048354e-01
-1.048033e-01
-1.047823e-01
-1.047485e-01
-1.046821e-01
-1.045675e-01
-1.043924e-01
-1.041472e-01
-1.038269e-01
-1.034340e-01
-1.029787e-01
-1.024780e-01
-1.019520e-01
-1.014203e-01
-1.009003e-01
-1.004055e-01
-9.994465e-02
-9.952156e-02
-9.913752e-02
-9.879460e-02
-9.849717e-02
-9.825035e-02
-9.805738e-02
-9.791868e-02
-9.783324e-02
-9.780033e-02
-9.782008e-02
-9.789257e-02
-9.801607e-02
-9.818561e-02
-9.839284e-02
-9.862751e-02
-9.888000e-02
-9.914330e-02
-9.941381e-02
-9.969070e-02
-9.997456e-02
-1.002662e-01
-1.005665e-01
-1.008754e-01
-1.011923e-01
-1.015149e-01
-1.018399e-01
-1.021636e-01
-1.024818e-01
-1.027883e-01
-1.030731e-01
-1.033225e-01
-1.035218e-01
-1.036589e-01
-1.037268e-01
-1.037245e-01
-1.036563e-01
-1.035311e-01
-1.033628e-01
-1.031696e-01
-1.029726e-01
-1.027932e-01
-1.026511e-01
-1.025630e-01
-1.025415e-01
-1.025954e-01
-1.027312e-01
-1.029543e-01
-1.032676e-01
-1.036694e-01
-1.041534e-01
-1.047099e-01
-1.053293e-01
-1.060027e-01
-1.067218e-01
-1.074781e-01
-1.082635e-01
-1.090712e-01
-1.098960e-01
-1.107340e-01
-1.115809e-01
-1.124308e-01
-1.132751e-01
-1.141028e-01
-1.149037e-01
-1.156729e-01
-1.164122e-01
-1.171294e-01
-1.178348e-01
-1.185388e-01
-1.192510e-01
-1.199794e-01
-1.207302e-01
-1.215057e-01
-1.223045e-01
-1.231218e-01
-1.239522e-01
-1.247928e-01
-1.256440e-01
-1.265078e-01
-1.273852e-01
-1.282741e-01
-1.291700e-01
-1.300666e-01
-1.309571e-01
-1.318355e-01
-1.326982e-01
-1.335459e-01
-1.343842e-01
-1.352224e-01
-1.360721e-01
-1.369445e-01
-1.378489e-01
-1.387910e-01
-1.397721e-01
-1.407889e-01
-1.418358e-01
-1.429065e-01
-1.439938e-01
-1.450881e-01
-1.461758e-01
-1.472416e-01
-1.482720e-01
-1.492595e-01
-1.502025e-01
-1.511043e-01
-1.519721e-01
-1.528164e-01
-1.536516e-01
-1.544950e-01
-1.553643e-01
-1.562742e-01
-1.572321e-01
-1.582368e-01
-1.592815e-01
-1.603573e-01
-1.614558e-01
-1.625694e-01
-1.636919e-01
-1.648178e-01
-1.659437e-01
-1.670683e-01
-1.681920e-01
-1.693148e-01
-1.704349e-01
-1.715492e-01
-1.726538e-01
-1.737451e-01
-1.748195e-01
-1.758738e-01
-1.769047e-01
-1.779099e-01
-1.788880e-01
-1.798387e-01
-1.807622e-01
-1.816590e-01
-1.825273e-01
-1.833606e-01
-1.841468e-01
-1.848706e-01
-1.855186e-01
-1.860830e-01
-1.865630e-01
-1.869640e-01
-1.872974e-01
-1.875799e-01
-1.878330e-01
-1.880807e-01
-1.883468e-01
-1.886519e-01
-1.890100e-01
-1.894274e-01
-1.899047e-01
-1.904397e-01
-1.910301e-01
-1.916738e-01
-1.923685e-01
-1.931113e-01
-1.938993e-01
-1.947305e-01
-1.956047e-01
-1.965227e-01
-1.974842e-01
-1.984860e-01
-1.995233e-01
-2.005910e-01
-2.016858e-01
-2.028053e-01
-2.039469e-01
-2.051060e-01
-2.062758e-01
-2.074501e-01
-2.086269e-01
-2.098110e-01
-2.110131e-01
-2.122455e-01
-2.135175e-01
-2.148344e-01
-2.161976e-01
-2.176061e-01
-2.190556e-01
-2.205388e-01
-2.220480e-01
-2.235807e-01
-2.251427e-01
-2.267476e-01
-2.284119e-01
-2.301486e-01
-2.319638e-01
-2.338561e-01
-2.358192e-01
-2.378443e-01
-2.399246e-01
-2.420584e-01
-2.442515e-01
-2.465153e-01
-2.488620e-01
-2.513003e-01
-2.538340e-01
-2.564624e-01
-2.591819e-01
-2.619861e-01
-2.648663e-01
-2.678123e-01
-2.708116e-01
-2.738498e-01
-2.769103e-01
-2.799756e-01
-2.830297e-01
-2.860614e-01
-2.890653e-01
-2.920425e-01
-2.949976e-01
-2.979368e-01
-3.008660e-01
-3.037885e-01
-3.067052e-01
-3.096144e-01
-3.125129e-01
-3.153963e-01
-3.182604e-01
-3.211018e-01
-3.239178e-01
-3.267064e-01
-3.294647e-01
-3.321891e-01
-3.348755e-01
-3.375185e-01
-3.401107e-01
-3.426419e-01
-3.450998e-01
-3.474711e-01
-3.497432e-01
-3.519056e-01
-3.539520e-01
-3.558825e-01
-3.577031e-01
-3.594236e-01
-3.610545e-01
-3.626046e-01
-3.640799e-01
-3.654848e-01
-3.668209e-01
-3.680872e-01
-3.692779e-01
-3.703827e-01
-3.713892e-01
-3.722866e-01
-3.730698e-01
-3.737407e-01
-3.743080e-01
-3.747856e-01
-3.751904e-01
-3.755418e-01
-3.758602e-01
-3.761655e-01
-3.764739e-01
-3.767948e-01
-3.771280e-01
-3.774641e-01
-3.777877e-01
-3.780812e-01
-3.783281e-01
-3.785147e-01
-3.786310e-01
-3.786703e-01
-3.786295e-01
-3.785075e-01
-3.783055e-01
-3.780258e-01
-3.776720e-01
-3.772483e-01
-3.767583e-01
-3.762047e-01
-3.755890e-01
-3.749119e-01
-3.741726e-01
-3.733666e-01
-3.724860e-01
-3.715205e-01
-3.704614e-01
-3.693049e-01
-3.680541e-01
-3.667187e-01
-3.653131e-01
-3.638544e-01
-3.623604e-01
-3.608469e-01
-3.593270e-01
-3.578084e-01
-3.562925e-01
-3.547741e-01
-3.532441e-01
-3.516932e-01
-3.501151e-01
-3.485072e-01
-3.468694e-01
-3.452032e-01
-3.435114e-01
-3.417995e-01
-3.400761e-01
-3.383514e-01
-3.366341e-01
-3.349295e-01
-3.332395e-01
-3.315637e-01
-3.298996e-01
-3.282432e-01
-3.265891e-01
-3.249313e-01
-3.232639e-01
-3.215815e-01
-3.198803e-01
-3.181582e-01
-3.164154e-01
-3.146527e-01
-3.128707e-01
-3.110695e-01
-3.092489e-01
-3.074096e-01
-3.055528e-01
-3.036801e-01
-3.017919e-01
-2.998860e-01
-2.979578e-01
-2.959996e-01
-2.940010e-01
-2.919503e-01
-2.898372e-01
-2.876570e-01
-2.854118e-01
-2.831088e-01
-2.807570e-01
-2.783643e-01
-2.759366e-01
-2.734790e-01
-2.709966e-01
-2.684952e-01
-2.659807e-01
-2.634595e-01
-2.609363e-01
-2.584130e-01
-2.558893e-01
-2.533645e-01
-2.508397e-01
-2.483172e-01
-2.457979e-01
-2.432785e-01
-2.407517e-01
-2.382072e-01
-2.356329e-01
-2.330154e-01
-2.303416e-01
-2.276023e-01
-2.247961e-01
-2.219329e-01
-2.190329e-01
-2.161229e-01
-2.132320e-01
-2.103885e-01
-2.076184e-01
-2.049455e-01
-2.023900e-01
-1.999673e-01
-1.976851e-01
-1.955405e-01
-1.935190e-01
-1.915956e-01
-1.897390e-01
-1.879169e-01
-1.861004e-01
-1.842670e-01
-1.824024e-01
-1.805018e-01
-1.785701e-01
-1.766223e-01
-1.746815e-01
-1.727766e-01
-1.709380e-01
-1.691911e-01
-1.675509e-01
-1.660186e-01
-1.645821e-01
-1.632201e-01
-1.619060e-01
-1.606117e-01
-1.593105e-01
-1.579784e-01
-1.565965e-01
-1.551530e-01
-1.536430e-01
-1.520667e-01
-1.504266e-01
-1.487261e-01
-1.469684e-01
-1.451575e-01
-1.432974e-01
-1.413919e-01
-1.394442e-01
-1.374572e-01
-1.354349e-01
-1.333834e-01
-1.313117e-01
-1.292319e-01
-1.271571e-01
-1.250988e-01
-1.230645e-01
-1.210579e-01
-1.190806e-01
-1.171348e-01
-1.152237e-01
-1.133505e-01
-1.115169e-01
-1.097209e-01
-1.079559e-01
-1.062104e-01
-1.044693e-01
-1.027180e-01
-1.009454e-01
-9.914621e-02
-9.732161e-02
-9.547759e-02
-9.362307e-02
-9.176778e-02
-8.992023e-02
-8.808603e-02
-8.626667e-02
-8.445927e-02
-8.265732e-02
-8.085247e-02
-7.903671e-02
-7.720378e-02
-7.534935e-02
-7.347062e-02
-7.156676e-02
-6.964008e-02
-6.769654e-02
-6.574488e-02
-6.379496e-02
-6.185650e-02
-5.993870e-02
-5.805080e-02
-5.620277e-02
-5.440540e-02
-5.266939e-02
-5.100402e-02
-4.941602e-02
-4.790962e-02
-4.648770e-02
-4.515308e-02
-4.390793e-02
-4.275142e-02
-4.167706e-02
-4.067195e-02
-3.971817e-02
-3.879502e-02
-3.788063e-02
-3.695312e-02
-3.599140e-02
-3.497613e-02
-3.389054e-02
-3.272107e-02
-3.145837e-02
-3.009895e-02
-2.864660e-02
-2.711243e-02
-2.551339e-02
-2.387037e-02
-2.220728e-02
-2.055115e-02
-1.893192e-02
-1.738065e-02
-1.592620e-02
-1.459244e-02
-1.339681e-02
-1.234971e-02
-1.145358e-02
-1.070267e-02
-1.008488e-02
-9.585729e-03
-9.192004e-03
-8.892790e-03
-8.677601e-03
-8.534168e-03
-8.448098e-03
-8.404220e-03
-8.387807e-03
-8.384510e-03
-8.379274e-03
-8.355492e-03
-8.295591e-03
-8.183353e-03
-8.006974e-03
-7.761038e-03
-7.445975e-03
-7.065502e-03
-6.623939e-03
-6.124806e-03
-5.570665e-03
-4.963557e-03
-4.305527e-03
-3.599013e-03
-2.846670e-03
-2.050369e-03
-1.209714e-03
-3.206164e-04
6.258094e-04
1.643537e-03
2.750299e-03
3.964426e-03
5.300724e-03
6.766778e-03
8.360831e-03
1.007193e-02
1.188218e-02
1.377043e-02
1.571600e-02
1.770131e-02
1.971258e-02
2.173922e-02
2.377283e-02
2.580694e-02
2.783767e-02
2.986472e-02
3.189127e-02
3.392236e-02
3.596244e-02
3.801286e-02
4.007008e-02
4.212502e-02
4.416401e-02
4.617080e-02
4.812933e-02
5.002658e-02
5.185487e-02
5.361265e-02
5.530385e-02
5.693675e-02
5.852305e-02
6.007676e-02
6.161225e-02
6.314145e-02
6.467106e-02
6.620124e-02
6.772625e-02
6.923678e-02
7.072263e-02
7.217481e-02
7.358660e-02
7.495379e-02
7.627493e-02
7.755165e-02
7.878874e-02
7.999333e-02
8.117345e-02
8.233591e-02
8.348453e-02
8.461955e-02
8.573919e-02
8.684232e-02
8.793103e-02
8.901192e-02
9.009586e-02
9.119662e-02
9.232924e-02
9.350846e-02
9.474735e-02
9.605661e-02
9.744446e-02
9.891657e-02
1.004755e-01
1.021198e-01
1.038438e-01
1.056385e-01
1.074941e-01
1.094018e-01
1.113547e-01
1.133469e-01
1.153738e-01
1.174321e-01
1.195195e-01
1.216333e-01
1.237681e-01
1.259140e-01
1.280581e-01
1.301869e-01
1.322886e-01
1.343543e-01
1.363784e-01
1.383586e-01
1.402941e-01
1.421844e-01
1.440277e-01
1.458206e-01
1.475586e-01
1.492365e-01
1.508483e-01
1.523889e-01
1.538550e-01
1.552461e-01
1.565630e-01
1.578075e-01
1.589826e-01
1.600946e-01
1.611531e-01
1.621719e-01
1.631675e-01
1.641586e-01
1.651635e-01
1.661976e-01
1.672722e-01
1.683935e-01
1.695634e-01
1.707799e-01
1.720397e-01
1.733392e-01
1.746747e-01
1.760411e-01
1.774313e-01
1.788367e-01
1.802483e-01
1.816576e-01
1.830561e-01
1.844354e-01
1.857873e-01
1.871058e-01
1.883875e-01
1.896321e-01
1.908409e-01
1.920155e-01
1.931558e-01
1.942598e-01
1.953238e-01
1.963441e-01
1.973205e-01
1.982598e-01
1.991792e-01
2.001077e-01
2.010844e-01
2.021522e-01
2.033524e-01
2.047203e-01
2.062858e-01
2.080740e-01
2.101059e-01
2.123968e-01
2.149547e-01
2.177797e-01
2.208654e-01
2.242009e-01
2.277746e-01
2.315760e-01
2.355974e-01
2.398333e-01
2.442784e-01
2.489271e-01
2.537723e-01
2.588059e-01
2.640192e-01
2.694013e-01
2.749373e-01
2.806050e-01
2.863745e-01
2.922116e-01
2.980833e-01
3.039644e-01
3.098420e-01
3.157186e-01
3.216115e-01
3.275505e-01
3.335711e-01
3.397063e-01
3.459791e-01
3.523995e-01
3.589678e-01
3.656795e-01
3.725290e-01
3.795110e-01
3.866206e-01
3.938548e-01
4.012144e-01
4.087027e-01
4.163209e-01
4.240629e-01
4.319127e-01
4.398458e-01
4.478324e-01
4.558397e-01
4.638340e-01
4.717829e-01
4.796571e-01
4.874337e-01
4.950968e-01
5.026393e-01
5.100614e-01
5.173690e-01
5.245703e-01
5.316724e-01
5.386791e-01
5.455917e-01
5.524106e-01
5.591368e-01
5.657724e-01
5.723186e-01
5.787746e-01
5.851374e-01
5.914029e-01
5.975656e-01
6.036187e-01
6.095543e-01
6.153649e-01
6.210450e-01
6.265927e-01
6.320091e-01
6.372975e-01
6.424631e-01
6.475113e-01
6.524466e-01
6.572719e-01
6.619875e-01
6.665905e-01
6.710769e-01
6.754434e-01
6.796898e-01
6.838200e-01
6.878410e-01
6.917616e-01
6.955890e-01
6.993285e-01
7.029834e-01
7.065563e-01
7.100498e-01
7.134667e-01
7.168108e-01
7.200862e-01
7.232976e-01
7.264483e-01
7.295412e-01
7.325803e-01
7.355735e-01
7.385331e-01
7.414743e-01
7.444130e-01
7.473628e-01
7.503320e-01
7.533219e-01
7.563268e-01
7.593373e-01
7.623445e-01
7.653438e-01
7.683375e-01
7.713332e-01
7.743411e-01
7.773688e-01
7.804172e-01
7.834802e-01
7.865483e-01
7.896160e-01
7.926867e-01
7.957739e-01
7.988961e-01
8.020691e-01
8.053013e-01
8.085911e-01
8.119272e-01
8.152894e-01
8.186492e-01
8.219707e-01
8.252143e-01
8.283422e-01
8.313251e-01
8.341462e-01
8.368013e-01
8.392959e-01
8.416407e-01
8.438484e-01
8.459302e-01
8.478956e-01
8.497515e-01
8.515026e-01
8.531511e-01
8.546962e-01
8.561362e-01
8.574713e-01
8.587062e-01
8.598502e-01
8.609120e-01
8.618941e-01
8.627901e-01
8.635875e-01
8.642738e-01
8.648424e-01
8.652945e-01
8.656384e-01
8.658884e-01
8.660641e-01
8.661918e-01
8.663052e-01
8.664441e-01
8.666500e-01
8.669604e-01
8.674054e-01
8.680064e-01
8.687754e-01
8.697141e-01
8.708141e-01
8.720583e-01
8.734230e-01
8.748817e-01
8.764071e-01
8.779729e-01
8.795555e-01
8.811380e-01
8.827149e-01
8.842962e-01
8.859066e-01
8.875785e-01
8.893431e-01
8.912229e-01
8.932274e-01
8.953527e-01
8.975829e-01
8.998926e-01
9.022506e-01
9.046224e-01
9.069733e-01
9.092707e-01
9.114849e-01
9.135865e-01
9.155449e-01
9.173272e-01
9.189003e-01
9.202342e-01
9.213058e-01
9.221020e-01
9.226212e-01
9.228715e-01
9.228651e-01
9.226115e-01
9.221141e-01
9.213727e-01
9.203899e-01
9.191746e-01
9.177422e-01
9.161085e-01
9.142861e-01
9.122822e-01
9.100993e-01
9.077372e-01
9.051932e-01
9.024631e-01
8.995431e-01
8.964327e-01
8.931374e-01
8.896690e-01
8.860433e-01
8.822792e-01
8.783964e-01
8.744128e-01
8.703411e-01
8.661877e-01
8.619543e-01
8.576399e-01
8.532443e-01
8.487681e-01
8.442110e-01
8.395690e-01
8.348323e-01
8.299844e-01
8.250026e-01
8.198612e-01
8.145346e-01
8.090010e-01
8.032448e-01
7.972579e-01
7.910413e-01
7.846051e-01
7.779684e-01
7.711607e-01
7.642234e-01
7.572102e-01
7.501847e-01
7.432161e-01
7.363711e-01
7.297049e-01
7.232532e-01
7.170292e-01
7.110254e-01
7.052188e-01
6.995774e-01
6.940652e-01
6.886461e-01
6.832848e-01
6.779456e-01
6.725913e-01
6.671828e-01
6.616802e-01
6.560451e-01
6.502419e-01
6.442407e-01
6.380211e-01
6.315749e-01
6.249069e-01
6.180313e-01
6.109674e-01
6.037340e-01
5.963486e-01
5.888275e-01
5.811884e-01
5.734511e-01
5.656371e-01
5.577676e-01
5.498602e-01
5.419268e-01
5.339719e-01
5.259944e-01
5.179931e-01
5.099715e-01
5.019402e-01
4.939130e-01
4.859034e-01
4.779205e-01
4.699686e-01
4.620462e-01
4.541469e-01
4.462592e-01
4.383676e-01
4.304529e-01
4.224925e-01
4.144628e-01
4.063425e-01
3.981165e-01
3.897786e-01
3.813317e-01
3.727864e-01
3.641601e-01
3.554753e-01
3.467581e-01
3.380336e-01
3.293199e-01
3.206209e-01
3.119221e-01
3.031903e-01
2.943768e-01
2.854227e-01
2.762635e-01
2.668346e-01
2.570751e-01
2.469348e-01
2.363811e-01
2.254055e-01
2.140267e-01
2.022902e-01
1.902641e-01
1.780324e-01
1.656891e-01
1.533314e-01
1.410549e-01
1.289473e-01
1.170824e-01
1.055144e-01
9.427607e-02
8.337994e-02
7.282236e-02
6.258840e-02
5.265579e-02
4.299663e-02
3.357681e-02
2.435541e-02
1.528672e-02
6.325535e-03
-2.566353e-03
-1.141507e-02
-2.023295e-02
-2.902054e-02
-3.777149e-02
-4.647849e-02
-5.513792e-02
-6.375099e-02
-7.232166e-02
-8.085287e-02
-8.934348e-02
-9.778678e-02
-1.061710e-01
-1.144807e-01
-1.226977e-01
-1.308007e-01
-1.387644e-01
-1.465608e-01
-1.541627e-01
-1.615465e-01
-1.686938e-01
-1.755887e-01
-1.822150e-01
-1.885552e-01
-1.945905e-01
-2.003042e-01
-2.056828e-01
-2.107180e-01
-2.154081e-01
-2.197604e-01
-2.237944e-01
-2.275423e-01
-2.310477e-01
-2.343595e-01
-2.375252e-01
-2.405863e-01
-2.435771e-01
-2.465263e-01
-2.494583e-01
-2.523936e-01
-2.553496e-01
-2.583426e-01
-2.613878e-01
-2.644998e-01
-2.676918e-01
-2.709746e-01
-2.743557e-01
-2.778387e-01
-2.814235e-01
-2.851093e-01
-2.888970e-01
-2.927901e-01
-2.967941e-01
-3.009154e-01
-3.051606e-01
-3.095357e-01
-3.140453e-01
-3.186916e-01
-3.234749e-01
-3.283923e-01
-3.334376e-01
-3.385998e-01
-3.438648e-01
-3.492171e-01
-3.546406e-01
-3.601202e-01
-3.656410e-01
-3.711889e-01
-3.767525e-01
-3.823242e-01
-3.879027e-01
-3.934920e-01
-3.990991e-01
-4.047306e-01
-4.103902e-01
-4.160790e-01
-4.217972e-01
-4.275453e-01
-4.333231e-01
-4.391277e-01
-4.449520e-01
-4.507855e-01
-4.566156e-01
-4.624298e-01
-4.682181e-01
-4.739738e-01
-4.796926e-01
-4.853690e-01
-4.909947e-01
-4.965594e-01
-5.020518e-01
-5.074597e-01
-5.127684e-01
-5.179594e-01
-5.230088e-01
-5.278868e-01
-5.325572e-01
-5.369763e-01
-5.410914e-01
-5.448421e-01
-5.481637e-01
-5.509942e-01
-5.532826e-01
-5.549953e-01
-5.561190e-01
-5.566581e-01
-5.566302e-01
-5.560638e-01
-5.549964e-01
-5.534742e-01
-5.515498e-01
-5.492772e-01
-5.467086e-01
-5.438912e-01
-5.408674e-01
-5.376748e-01
-5.343466e-01
-5.309112e-01
-5.273898e-01
-5.237955e-01
-5.201338e-01
-5.164066e-01
-5.126159e-01
-5.087654e-01
-5.048592e-01
-5.009001e-01
-4.968894e-01
-4.928282e-01
-4.887196e-01
-4.845692e-01
-4.803862e-01
-4.761841e-01
-4.719801e-01
-4.677917e-01
-4.636305e-01
-4.594958e-01
-4.553731e-01
-4.512360e-01
-4.470531e-01
-4.427926e-01
-4.384280e-01
-4.339414e-01
-4.293265e-01
-4.245882e-01
-4.197411e-01
-4.148041e-01
-4.097962e-01
-4.047306e-01
-3.996133e-01
-3.944424e-01
-3.892094e-01
-3.839026e-01
-3.785099e-01
-3.730205e-01
-3.674260e-01
-3.617197e-01
-3.558963e-01
-3.499521e-01
-3.438861e-01
-3.377005e-01
-3.314001e-01
-3.249919e-01
-3.184848e-01
-3.118895e-01
-3.052184e-01
-2.984854e-01
-2.917039e-01
-2.848832e-01
-2.780256e-01
-2.711255e-01
-2.641728e-01
-2.571581e-01
-2.500766e-01
-2.429281e-01
-2.357151e-01
-2.284391e-01
-2.210986e-01
-2.136891e-01
-2.062030e-01
-1.986320e-01
-1.909719e-01
-1.832280e-01
-1.754210e-01
-1.675892e-01
-1.597873e-01
-1.520808e-01
-1.445392e-01
-1.372296e-01
-1.302132e-01
-1.235433e-01
-1.172625e-01
-1.114017e-01
-1.059773e-01
-1.009914e-01
-9.643244e-02
-9.227616e-02
-8.848608e-02
-8.501480e-02
-8.180625e-02
-7.879940e-02
-7.593234e-02
-7.314571e-02
-7.038548e-02
-6.760549e-02
-6.476977e-02
-6.185402e-02
-5.884514e-02
-5.573882e-02
-5.253597e-02
-4.924007e-02
-4.585676e-02
-4.239525e-02
-3.886955e-02
-3.529786e-02
-3.170054e-02
-2.809801e-02
-2.450984e-02
-2.095521e-02
-1.745375e-02
-1.402560e-02
-1.069075e-02
-7.468179e-03
-4.375007e-03
-1.425781e-03
1.368011e-03
3.997395e-03
6.454444e-03
8.731455e-03
1.082205e-02
1.272368e-02
1.443950e-02
1.597852e-02
1.735420e-02
1.858246e-02
1.967945e-02
2.065906e-02
2.153102e-02
2.230055e-02
2.296961e-02
2.353869e-02
2.400814e-02
2.437892e-02
2.465329e-02
2.483472e-02
2.492708e-02
2.493290e-02
2.485103e-02
2.467454e-02
2.438972e-02
2.397734e-02
2.341579e-02
2.268550e-02
2.177282e-02
2.067207e-02
