EVENT_NAME: L_AQUILA
EVENT_ID: IT-2009-0009
EVENT_DATE_YYYYMMDD: 20090406
EVENT_TIME_HHMMSS: 013240
EVENT_LATITUDE_DEGREE: 42.3420
EVENT_LONGITUDE_DEGREE: 13.3800
EVENT_DEPTH_KM: 8.3
HYPOCENTER_REFERENCE: INGV-CNT_Seismic_Bulletin
MAGNITUDE_W: 6.1
MAGNITUDE_W_REFERENCE: INGV-CNT_Seismic_Bulletin
MAGNITUDE_L: 
MAGNITUDE_L_REFERENCE: 
FOCAL_MECHANISM: Normal faulting
NETWORK: IT
STATION_CODE: SUL
STATION_NAME: 
STATION_LATITUDE_DEGREE: 42.089000
STATION_LONGITUDE_DEGREE: 13.934000
STATION_ELEVATION_M: 556
LOCATION: 
SENSOR_DEPTH_M: 0.0
VS30_M/S: 
SITE_CLASSIFICATION_EC8: A (inferred from geology)
MORPHOLOGIC_CLASSIFICATION: 
EPICENTRAL_DISTANCE_KM: 53.7
EARTHQUAKE_BACKAZIMUTH_DEGREE: 121.4
DATE_TIME_FIRST_SAMPLE_YYYYMMDD_HHMMSS: 20090406_013236.000
DATE_TIME_FIRST_SAMPLE_PRECISION: seconds
SAMPLING_INTERVAL_S: 0.005000
NDATA: 20800
DURATION_S: 104.000
STREAM: HNE
UNITS: cm/s
INSTRUMENT: sensor = FBA-3 [Kinemetrics] | digitizer = Etna [Kinemetrics]
INSTRUMENT_ANALOG/DIGITAL: D
INSTRUMENTAL_FREQUENCY_HZ: 218.000
INSTRUMENTAL_DAMPING: 0.700000
FULL_SCALE_G: 1.0
N_BIT_DIGITAL_CONVERTER: 18
PGV_CM/S: -2.812137
TIME_PGV_S: 28.850000
BASELINE_CORRECTION: BASELINE REMOVED
FILTER_TYPE: BUTTERWORTH
FILTER_ORDER: 2
LOW_CUT_FREQUENCY_HZ: 0.040
HIGH_CUT_FREQUENCY_HZ: 40.000
LATE/NORMAL_TRIGGERED: NT
DATABASE_VERSION: 0.5
HEADER_FORMAT: DYNA 1.2
DATA_TYPE: VELOCITY
PROCESSING: manual (Paolucci et al., 2011)
DATA_TIMESTAMP_YYYYMMDD_HHMMSS: 20211011_160356.484
DATA_LICENSE: CC-BY3_0-IT (http://creativecommons.org/licenses/by/3.0/deed.en)
DATA_CITATION: Luzi L, Pacor F, Puglia R (2019). Italian Accelerometric Archive v 3.0 - Istituto Nazionale di Geofisica e Vulcanologia, Dipartimento della Protezione Civile Nazionale. doi: 10.13127/itaca.3.1
DATA_CREATOR: ITACA working group
ORIGINAL_DATA_MEDIATOR_CITATION: data obtained within the DPC-INGV data exchange agreements
ORIGINAL_DATA_MEDIATOR: Archive of Italian Department of Civil Protection
ORIGINAL_DATA_CREATOR_CITATION: Presidency Of Counsil Of Ministers-Civil Protection Department. (1972). Italian Strong Motion Network. Presidency of Counsil of Ministers - Civil Protection Department. https://doi.org/10.7914/SN/IT http://www.fdsn.org/networks/detail/IT/
ORIGINAL_DATA_CREATOR: network: IT (Italian Strong Motion Network (RAN)); owner: Presidency of Counsil of Ministers - Civil Protection Department (PCM - DPC)
USER1: 
USER2: 
USER3: 
USER4: 
USER5: 
[...]
-0.148954
-0.141886
-0.135985
-0.131831
-0.129333
-0.127546
-0.124945
-0.120118
-0.112450
-0.102324
-0.090835
-0.079344
-0.069224
-0.061755
-0.057922
-0.058106
-0.061904
-0.068248
-0.075779
-0.083205
-0.089412
-0.093381
-0.094224
-0.091473
-0.085404
-0.077076
-0.067894
-0.058946
-0.050613
-0.042765
-0.035397
-0.029217
-0.025718
-0.026598
-0.032789
-0.043756
-0.057588
-0.071816
-0.084422
-0.094453
-0.101918
-0.107178
-0.110432
-0.111690
-0.110998
-0.108504
-0.104368
-0.098703
-0.091701
-0.083800
-0.075658
-0.067832
-0.060364
-0.052549
-0.043104
-0.030733
-0.014812
0.004240
0.025150
0.046377
0.066622
0.085067
0.101455
0.116094
0.129784
0.143640
0.158803
0.176108
0.195828
0.217622
0.240709
0.264182
0.287310
0.309717
0.331349
0.352227
0.372156
0.390713
0.407619
0.423172
0.438358
0.454510
0.472698
0.493235
0.515607
0.538819
0.561870
0.584051
0.604986
0.624554
0.642899
0.660478
0.677963
0.695932
0.714516
0.733226
0.751075
0.767007
0.780329
0.790893
0.798985
0.805091
0.809694
0.813165
0.815725
0.817477
0.818533
0.819210
0.820126
0.821985
0.825150
0.829382
0.833959
0.838062
0.841154
0.843126
0.844214
0.844788
0.845087
0.845012
0.844120
0.841836
0.837689
0.831414
0.822906
0.812108
0.798956
0.783406
0.765509
0.745458
0.723619
0.700567
0.677071
0.653950
0.631803
0.610788
0.590617
0.570740
0.550606
0.529827
0.508138
0.485212
0.460547
0.433584
0.404021
0.372016
0.338119
0.302982
0.267140
0.231058
0.195329
0.160686
0.127711
0.096528
0.066764
0.037790
0.009006
-0.020016
-0.049565
-0.079902
-0.111325
-0.144126
-0.178468
-0.214335
-0.251619
-0.290250
-0.330154
-0.370979
-0.411818
-0.451207
-0.487508
-0.519466
-0.546616
-0.569301
-0.588325
-0.604495
-0.618320
-0.629999
-0.639676
-0.647682
-0.654500
-0.660473
-0.665521
-0.669095
-0.670430
-0.668958
-0.664625
-0.657879
-0.649460
-0.640156
-0.630660
-0.621484
-0.612834
-0.604384
-0.595138
-0.583598
-0.568212
-0.547873
-0.522157
-0.491233
-0.455595
-0.415872
-0.372839
-0.327530
-0.281155
-0.234721
-0.188634
-0.142618
-0.096010
-0.048231
0.000777
0.050347
0.099154
0.145494
0.187737
0.224793
0.256388
0.282982
0.305397
0.324303
0.339835
0.351467
0.358197
0.359033
0.353624
0.342676
0.327840
0.311103
0.294011
0.277135
0.260038
0.241728
0.221242
0.197981
0.171706
0.142393
0.110201
0.075515
0.038943
0.001153
-0.037415
-0.076789
-0.117483
-0.160209
-0.205522
-0.253624
-0.304454
-0.357845
-0.413478
-0.470627
-0.528018
-0.584050
-0.637285
-0.686905
-0.732753
-0.774855
-0.812764
-0.845310
-0.870996
-0.888794
-0.898791
-0.902293
-0.901361
-0.898072
-0.893978
-0.890070
-0.887180
-0.886364
-0.888835
-0.895403
-0.905809
-0.918436
-0.930591
-0.939211
-0.941608
-0.935959
-0.921489
-0.898473
-0.868223
-0.833125
-0.796567
-0.762494
-0.734541
-0.715075
-0.704659
-0.702303
-0.706256
-0.714694
-0.725844
-0.737742
-0.748165
-0.755025
-0.756958
-0.753602
-0.745408
-0.733188
-0.717753
-0.699823
-0.680177
-0.659785
-0.639658
-0.620436
-0.602061
-0.583822
-0.564796
-0.544447
-0.522968
-0.501110
-0.479613
-0.458738
-0.438251
-0.417755
-0.396971
-0.375701
-0.353560
-0.329763
-0.303180
-0.272646
-0.237308
-0.196861
-0.151582
-0.102241
-0.050046
0.003319
0.055735
0.104994
0.149401
0.188346
0.222478
0.253327
0.282550
0.311136
0.339012
0.365253
0.388735
0.408866
0.426034
0.441532
0.457047
0.474081
0.493667
0.516431
0.542853
0.573543
0.609253
0.650591
0.697617
0.749571
0.804874
0.861399
0.916884
0.969294
1.017000
1.058804
1.093894
1.121755
1.142072
1.154662
1.159504
1.156885
1.147628
1.133235
1.115832
1.097846
1.081492
1.068290
1.058865
1.053080
1.050406
1.050344
1.052754
1.057982
1.066769
1.079938
1.097979
1.120781
1.147699
1.177831
1.210290
1.244288
1.278997
1.313252
1.345348
1.373134
1.394459
1.407764
1.412563
1.409565
1.400354
1.386823
1.370615
1.352848
1.334198
1.315142
1.296027
1.276880
1.257255
1.236441
1.214005
1.190242
1.166119
1.142682
1.120321
1.098439
1.075812
1.051353
1.024692
0.996240
0.966812
0.937137
0.907569
0.878037
0.848198
0.817720
0.786619
0.755561
0.725955
0.699662
0.678249
0.662147
0.650275
0.640432
0.630226
0.618005
0.603372
0.587122
0.570760
0.555856
0.543528
0.534196
0.527583
0.522907
0.519255
0.516027
0.513221
0.511415
0.511482
0.514190
0.519896
0.528529
0.539847
0.553774
0.570566
0.590699
0.614559
0.642198
0.673296
0.707345
0.743944
0.782940
0.824258
0.867515
0.911726
0.955336
0.996572
1.033860
1.065983
1.091992
1.111089
1.122679
1.126621
1.123539
1.114887
1.102611
1.088641
1.074555
1.061540
1.050530
1.042366
1.037820
1.037389
1.041036
1.048103
1.057458
1.067758
1.077670
1.086045
1.092028
1.095092
1.094978
1.091635
1.085160
1.075749
1.063616
1.048864
1.031386
1.010959
0.987589
0.961950
0.935645
0.911022
0.890607
0.876346
0.869008
0.867970
0.871506
0.877413
0.883630
0.888548
0.891053
0.890506
0.886734
0.880009
0.870907
0.860091
0.848082
0.835141
0.821275
0.806356
0.790314
0.773260
0.755442
0.737100
0.718399
0.699436
0.680284
0.661062
0.641991
0.623322
0.605219
0.587715
0.570725
0.554011
0.537133
0.519453
0.500231
0.478750
0.454435
0.426960
0.396316
0.362824
0.327058
0.289741
0.251588
0.213183
0.174911
0.136960
0.099374
0.062160
0.025454
-0.010285
-0.044159
-0.075014
-0.101802
-0.123856
-0.140870
-0.152659
-0.158916
-0.159174
-0.152954
-0.140002
-0.120534
-0.095355
-0.065732
-0.033028
0.001716
0.038033
0.075935
0.115514
0.156504
0.198056
0.238801
0.277150
0.311724
0.341655
0.366581
0.386428
0.401224
0.410994
0.415599
0.414618
0.407474
0.393867
0.374305
0.350336
0.324223
0.298225
0.274053
0.252814
0.235289
0.222198
0.214281
0.212131
0.215844
0.224668
0.236863
0.249847
0.260604
0.266312
0.265053
0.256350
0.241298
0.222224
0.202038
0.183611
0.169335
0.160912
0.159304
0.164738
0.176661
0.193759
0.214192
0.236034
0.257714
0.278355
0.298015
0.317796
0.339599
0.365305
0.395639
0.429557
0.464764
0.498868
0.530317
0.558740
0.584680
0.608925
0.631763
0.652559
0.669908
0.682356
0.689334
0.691789
0.692103
0.693409
0.698741
0.710427
0.729853
0.757442
0.792626
0.833780
0.878270
0.922708
0.963394
0.996814
1.020067
1.031108
1.028943
1.013784
0.987046
0.951079
0.908677
0.862455
0.814311
0.765312
0.716189
0.668199
0.623660
0.585538
0.556232
0.536339
0.524163
0.516102
0.507581
0.494050
0.471756
0.438180
0.392244
0.334503
0.267372
0.195010
0.122575
0.055051
-0.003828
-0.052117
-0.089446
-0.116290
-0.133266
-0.140875
-0.139725
-0.131037
-0.116962
-0.100254
-0.083496
-0.068493
-0.056103
-0.046382
-0.038944
-0.033368
-0.029432
-0.027174
-0.026804
-0.028392
-0.031392
-0.034434
-0.035722
-0.033728
-0.027595
-0.017086
-0.002417
0.015724
0.035880
0.055491
0.070803
0.077234
0.070083
0.045072
-0.001437
-0.072162
-0.168353
-0.289181
-0.431381
-0.589462
-0.756414
-0.924534
-1.086180
-1.234458
-1.363873
-1.470852
-1.554012
-1.614311
-1.655086
-1.681647
-1.700411
-1.718057
-1.740814
-1.773496
-1.818382
-1.874730
-1.939446
-2.008610
-2.079129
-2.149790
-2.221156
-2.294312
-2.369275
-2.444012
-2.514512
-2.575724
-2.622848
-2.652473
-2.663213
-2.655656
-2.631706
-2.593699
-2.543771
-2.483760
-2.415470
-2.340871
-2.262029
-2.180957
-2.099578
-2.019777
-1.943258
-1.871164
-1.803804
-1.740743
-1.681141
-1.623982
-1.568080
-1.512065
-1.454659
-1.395206
-1.334107
-1.272761
-1.212925
-1.155765
-1.101169
-1.047813
-0.993919
-0.938210
-0.880501
-0.821611
-0.762787
-0.705102
-0.649041
-0.594411
-0.540436
-0.485704
-0.427975
-0.364307
-0.291896
-0.209335
-0.117603
-0.020099
0.078343
0.172763
0.258975
0.333860
0.395278
0.441855
0.473014
0.489271
0.492425
0.485345
0.471523
0.454463
0.437024
0.421013
0.407289
0.396203
0.387912
0.382343
0.379067
0.377472
0.377278
0.379015
0.383989
0.393645
0.408665
0.428295
0.450215
0.470991
0.486825
0.494167
0.489914
0.471376
0.436440
0.384149
0.315535
0.234066
0.145284
0.055736
-0.028359
-0.102400
-0.164314
-0.214638
-0.255705
-0.290456
-0.321450
-0.350351
-0.377938
-0.404576
-0.430820
-0.457727
-0.486692
-0.519057
-0.555847
-0.597749
-0.645236
-0.698628
-0.757896
-0.822249
-0.889831
-0.957905
-1.023458
-1.083808
-1.136954
-1.181556
-1.216672
-1.241620
-1.256228
-1.261345
-1.259190
-1.253231
-1.247513
-1.245624
-1.249758
-1.260396
-1.276887
-1.298441
-1.324788
-1.356159
-1.392708
-1.433659
-1.476614
-1.517672
-1.552397
-1.577032
-1.589323
-1.588821
-1.576746
-1.555508
-1.528065
-1.497307
-1.465622
-1.434639
-1.405007
-1.376186
-1.346394
-1.312877
-1.272532
-1.222705
-1.161902
-1.090167
-1.008986
-0.920819
-0.828468
-0.734523
-0.640981
-0.549010
-0.458858
-0.369999
-0.281561
-0.192904
-0.104178
-0.016656
0.067446
0.145666
0.216013
0.277242
0.328775
0.370495
0.402427
0.424415
0.436124
0.437391
0.428552
0.410370
0.383570
0.348445
0.304929
0.253073
0.193461
0.127222
0.055751
-0.019508
-0.096883
-0.174039
-0.247737
-0.314111
-0.369323
-0.410224
-0.434673
-0.441582
-0.430962
-0.404062
-0.363399
-0.312506
-0.255348
-0.195451
-0.135048
-0.074856
-0.014655
0.045815
0.106242
0.165669
0.222928
0.277315
0.329021
0.378987
0.428335
0.477866
0.527927
0.578552
0.629626
0.680934
0.732118
0.782715
0.832332
0.880945
0.929134
0.977993
1.028643
1.081644
1.136757
1.193152
1.249771
1.305600
1.359803
1.411747
1.461007
1.507430
1.551222
1.592998
1.633703
1.674206
1.714532
1.753136
1.786732
1.810863
1.820985
1.813634
1.787270
1.742510
1.681674
1.607824
1.523754
1.431355
1.331528
1.224555
1.110694
0.990792
0.866725
0.741505
0.618985
0.503318
0.398311
0.306951
0.231292
0.172742
0.132430
0.111332
0.110006
0.128081
0.163815
0.214022
0.274523
0.341004
0.409776
0.478018
0.543573
0.604728
0.660256
0.709646
0.753279
0.792351
0.828568
0.863690
0.899050
0.935217
0.971991
1.008771
1.045054
1.080752
1.116120
1.151353
1.186134
1.219472
1.249949
1.276221
1.297528
1.313997
1.326644
1.337078
1.347030
1.357841
1.370056
1.383257
1.396211
1.407270
1.414875
1.417988
1.416296
1.410179
1.400469
1.388165
1.374278
1.359824
1.345926
1.333834
1.324711
1.319189
1.316908
1.316268
1.314547
1.308460
1.294936
1.271739
1.237771
1.193112
1.138883
1.077025
1.009989
0.940309
0.870185
0.801172
0.734039
0.668929
0.605872
0.545248
0.487767
0.434066
0.384369
0.338407
0.295555
0.255036
0.216031
0.177747
0.139588
0.101406
0.063607
0.027066
-0.007084
-0.037784
-0.064459
-0.087340
-0.107560
-0.126942
-0.147538
-0.171016
-0.198132
-0.228607
-0.261497
-0.295853
-0.331215
-0.367599
-0.405076
-0.443361
-0.481698
-0.519047
-0.554414
-0.587083
-0.616655
-0.642981
-0.666124
-0.686352
-0.703931
-0.718752
-0.730132
-0.737031
-0.738499
-0.734054
-0.723924
-0.709164
-0.691488
-0.672725
-0.654234
-0.636606
-0.619770
-0.603330
-0.586832
-0.569856
-0.552041
-0.533172
-0.513328
-0.492915
-0.472547
-0.452803
-0.433983
-0.415974
-0.398369
-0.380860
-0.363710
-0.347892
-0.334684
-0.324893
-0.318173
-0.312895
-0.306782
-0.297967
-0.285825
-0.271049
-0.255105
-0.239548
-0.225590
-0.213954
-0.204969
-0.198834
-0.195942
-0.197123
-0.203653
-0.217030
-0.238649
-0.269518
-0.310090
-0.360140
-0.418644
-0.483749
-0.552931
-0.623376
-0.692441
-0.758016
-0.818623
-0.873283
-0.921311
-0.962184
-0.995585
-1.021593
-1.040777
-1.054044
-1.062320
-1.066295
-1.066335
-1.062506
-1.054658
-1.042490
-1.025545
-1.003157
-0.974554
-0.939200
-0.897266
-0.849951
-0.799392
-0.748181
-0.698732
-0.652826
-0.611464
-0.574988
-0.543280
-0.515926
-0.492245
-0.471233
-0.451599
-0.431971
-0.411259
-0.389004
-0.365562
-0.342007
-0.319802
-0.300406
-0.284968
-0.274161
-0.268194
-0.266939
-0.270056
-0.276998
-0.286960
-0.298894
-0.311603
-0.323857
-0.334496
-0.342472
-0.346801
-0.346587
-0.341239
-0.330800
-0.316159
-0.298931
-0.281070
-0.264425
-0.250500
-0.240552
-0.235896
-0.238101
-0.248821
-0.269288
-0.299797
-0.339541
-0.386919
-0.440125
-0.497620
-0.558232
-0.620916
-0.684487
-0.747531
-0.808542
-0.866128
-0.919184
-0.966960
-1.009036
-1.045330
-1.076112
-1.101952
-1.123543
-1.141490
-1.156192
-1.167890
-1.176836
-1.183427
-1.188204
-1.191736
-1.194450
-1.196553
-1.198127
-1.199294
-1.200293
-1.201409
-1.202852
-1.204706
-1.207056
-1.210209
-1.214860
-1.221988
-1.232496
-1.246762
-1.264407
-1.284375
-1.305202
-1.325267
-1.342926
-1.356621
-1.365077
-1.367591
-1.364288
-1.356194
-1.345074
-1.333127
-1.322734
-1.316260
-1.315868
-1.323320
-1.339791
-1.365734
-1.400844
-1.444153
-1.494217
-1.549339
-1.607751
-1.667737
-1.727761
-1.786632
-1.843601
-1.898271
-1.950332
-1.999371
-2.044966
-2.087001
-2.125950
-2.162951
-2.199636
-2.237834
-2.279218
-2.324895
-2.375035
-2.428797
-2.484631
-2.540759
-2.595498
-2.647285
-2.694521
-2.735541
-2.768776
-2.793002
-2.807517
-2.812137
-2.807032
-2.792480
-2.768680
-2.735772
-2.694003
-2.643914
-2.586430
-2.522844
-2.454720
-2.383735
-2.311451
-2.239093
-2.167378
-2.096472
-2.026130
-1.956004
-1.885965
-1.816270
-1.747506
-1.680401
-1.615641
-1.553747
-1.495003
-1.439415
-1.386679
-1.336197
-1.287213
-1.239090
-1.191567
-1.144874
-1.099625
-1.056561
-1.016262
-0.978967
-0.944635
-0.913205
-0.884860
-0.860092
-0.839523
-0.823569
-0.812164
-0.804631
-0.799700
-0.795623
-0.790369
-0.781883
-0.768340
-0.748390
-0.721391
-0.687504
-0.647555
-0.602707
-0.554116
-0.502718
-0.449183
-0.393996
-0.337566
-0.280279
-0.222458
-0.164342
-0.106137
-0.048119
0.009316
0.065704
0.120619
0.173750
0.224885
0.273849
0.320421
0.364192
0.404507
0.440536
0.471421
0.496376
0.514697
0.525721
0.528839
0.523671
0.510290
0.489359
0.462128
0.430305
0.395836
0.360655
0.326497
0.294808
0.266672
0.242692
0.222897
0.206818
0.193787
0.183371
0.175728
0.171646
0.172205
0.178303
0.190299
0.207899
0.230258
0.256187
0.284299
0.313058
0.340795
0.365781
0.386383
0.401290
0.409759
0.411777
0.408067
0.399960
0.389179
0.377619
0.367067
0.358897
0.353852
0.352029
0.353009
0.356050
0.360312
0.365057
0.369783
0.374277
0.378609
0.383081
0.388159
0.394403
0.402368
0.412517
0.425147
0.440369
0.458132
0.478198
0.500075
0.522964
0.545781
0.567225
0.585894
0.600473
0.609996
0.614080
0.613050
0.607824
0.599698
0.590163
0.580777
0.573063
0.568327
0.567467
0.570885
0.578608
0.590507
0.606475
0.626483
0.650488
0.678294
0.709487
0.743491
0.779691
0.817528
0.856529
0.896270
0.936319
0.976194
1.015325
1.053051
1.088682
1.121622
1.151505
1.178232
1.201895
1.222620
1.240453
1.255365
1.267361
1.276600
1.283404
1.288124
1.290911
1.291601
1.289777
1.284981
1.276888
1.265366
1.250481
1.232532
1.212155
1.190397
1.168626
1.148213
1.130131
1.114716
1.101779
1.091001
1.082318
1.076019
1.072506
1.071971
1.074254
1.078986
1.085881
1.094961
1.106540
1.120980
1.138379
1.158461
1.180725
1.204687
1.229981
1.256238
1.282896
1.309190
1.334413
1.358272
1.381054
1.403482
1.426359
1.450215
1.475149
1.500932
1.527207
1.553588
1.579583
1.604462
1.627206
1.646614
1.661531
1.671059
1.674657
1.672066
1.663187
1.648047
1.626948
1.600658
1.570450
1.537852
1.504262
1.470630
1.437348
1.404366
1.371460
1.338478
1.305498
1.272857
1.241092
1.210818
1.182562
1.156578
1.132678
1.110153
1.087869
1.064587
1.039356
1.011771
0.981998
0.950603
0.918314
0.885833
0.853762
0.822617
0.792821
0.764638
0.738044
0.712615
0.687536
0.661699
0.633817
0.602514
0.566466
0.524596
0.476285
0.421529
0.361001
0.295955
0.227989
0.158726
0.089552
0.021530
-0.044497
-0.107737
-0.167423
-0.223032
-0.274596
-0.322818
-0.368909
-0.414250
-0.460042
-0.507083
-0.555718
-0.605887
-0.657189
-0.708889
-0.759954
-0.809189
-0.855441
-0.897810
-0.935781
-0.969261
-0.998515
-1.024024
-1.046314
-1.065844
-1.082982
-1.098065
-1.111486
-1.123727
-1.135289
-1.146546
-1.157599
-1.168178
-1.177598
-1.184822
-1.188657
-1.188042
-1.182266
-1.171059
-1.154586
-1.133396
-1.108325
-1.080334
-1.050330
-1.019041
-0.986999
-0.954572
-0.922025
-0.889550
-0.857241
-0.825025
-0.792632
-0.759676
-0.725802
-0.690867
-0.655089
-0.619110
-0.583932
-0.550725
-0.520602
-0.494465
-0.472954
-0.456523
-0.445626
-0.440871
-0.443051
-0.452983
-0.471200
-0.497656
-0.531597
-0.571679
-0.616263
-0.663728
-0.712707
-0.762204
-0.811576
-0.860383
-0.908164
-0.954275
-0.997824
-1.037727
-1.072874
-1.102352
-1.125655
-1.142767
-1.154077
-1.160163
-1.161540
-1.158505
-1.151147
-1.139494
-1.123700
-1.104128
-1.081278
-1.055565
-1.027119
-0.995757
-0.961189
-0.923326
-0.882510
-0.839527
-0.795439
-0.751330
-0.708128
-0.666566
-0.627258
-0.590741
-0.557394
-0.527337
-0.500387
-0.476132
-0.454051
-0.433629
-0.414467
-0.396376
-0.379440
-0.364013
-0.350632
-0.339852
-0.332020
-0.327067
-0.324400
-0.322957
-0.321465
-0.318768
-0.314114
-0.307245
-0.298301
-0.287605
-0.275507
-0.262323
-0.248359
-0.233913
-0.219275
-0.204730
-0.190531
-0.176847
-0.163746
-0.151243
-0.139369
-0.128191
-0.117806
-0.108333
-0.099883
-0.092483
-0.086030
-0.080316
-0.075105
-0.070176
-0.065333
-0.060331
-0.054782
-0.048095
-0.039502
-0.028183
-0.013460
0.005042
0.027357
0.053211
0.082106
0.113444
0.146656
0.181290
0.217041
0.253739
0.291340
0.329931
0.369765
0.411326
0.455314
0.502503
0.553505
0.608554
0.667416
0.729464
0.793858
0.859737
0.926338
0.993028
1.059258
1.124461
1.187960
1.248953
1.306605
1.360209
1.409331
1.453913
1.494279
1.531052
1.564960
1.596586
1.626186
1.653690
1.678882
1.701655
1.722180
1.740882
1.758250
1.774613
1.790043
1.804404
1.817495
1.829214
1.839653
1.849095
1.857913
1.866434
1.874835
1.883069
1.890806
1.897446
1.902243
1.904520
1.903878
1.900299
1.894134
1.885982
1.876526
1.866379
1.855987
1.845593
1.835284
1.825114
1.815274
1.806188
1.798465
1.792762
1.789625
1.789377
1.792103
1.797732
1.806129
1.817154
1.830660
1.846449
1.864201
1.883407
1.903357
1.923199
1.942065
1.959210
1.974135
1.986629
1.996739
2.004677
2.010695
2.014957
2.017433
2.017861
2.015806
2.010810
2.002549
1.990896
1.975884
1.957663
1.936475
1.912628
1.886458
1.858269
1.828297
1.796713
1.763701
1.729565
1.694799
1.660111
1.626386
1.594607
1.565714
1.540446
1.519185
1.501861
1.487959
1.476660
1.467112
1.458753
1.451520
1.445804
1.442140
1.440802
1.441562
1.443733
1.446399
1.448692
1.449959
1.449772
