EVENT_NAME: L_AQUILA
EVENT_ID: IT-2009-0009
EVENT_DATE_YYYYMMDD: 20090406
EVENT_TIME_HHMMSS: 013240
EVENT_LATITUDE_DEGREE: 42.3420
EVENT_LONGITUDE_DEGREE: 13.3800
EVENT_DEPTH_KM: 8.3
HYPOCENTER_REFERENCE: INGV-CNT_Seismic_Bulletin
MAGNITUDE_W: 6.1
MAGNITUDE_W_REFERENCE: INGV-CNT_Seismic_Bulletin
MAGNITUDE_L: 
MAGNITUDE_L_REFERENCE: 
FOCAL_MECHANISM: Normal faulting
NETWORK: IT
STATION_CODE: SUL
STATION_NAME: 
STATION_LATITUDE_DEGREE: 42.089000
STATION_LONGITUDE_DEGREE: 13.934000
STATION_ELEVATION_M: 556
LOCATION: 
SENSOR_DEPTH_M: 0.0
VS30_M/S: 
SITE_CLASSIFICATION_EC8: A (inferred from geology)
MORPHOLOGIC_CLASSIFICATION: 
EPICENTRAL_DISTANCE_KM: 53.7
EARTHQUAKE_BACKAZIMUTH_DEGREE: 121.4
DATE_TIME_FIRST_SAMPLE_YYYYMMDD_HHMMSS: 
DATE_TIME_FIRST_SAMPLE_PRECISION: 
SAMPLING_INTERVAL_S: 
NDATA: 105
DURATION_S: 
STREAM: HNZ
UNITS: cm/s^2
INSTRUMENT: sensor = FBA-3 [Kinemetrics] | digitizer = Etna [Kinemetrics]
INSTRUMENT_ANALOG/DIGITAL: D
INSTRUMENTAL_FREQUENCY_HZ: 214.000
INSTRUMENTAL_DAMPING: 0.700000
FULL_SCALE_G: 1.0
N_BIT_DIGITAL_CONVERTER: 18
PGA_CM/S^2: 23.560163
TIME_PGA_S: 
BASELINE_CORRECTION: BASELINE REMOVED
FILTER_TYPE: BUTTERWORTH
FILTER_ORDER: 2
LOW_CUT_FREQUENCY_HZ: 0.040
HIGH_CUT_FREQUENCY_HZ: 40.000
LATE/NORMAL_TRIGGERED: NT
DATABASE_VERSION: 0.5
HEADER_FORMAT: DYNA 1.2
DATA_TYPE: ACCELERATION RESPONSE SPECTRUM
PROCESSING: manual (Paolucci et al., 2011)
DATA_TIMESTAMP_YYYYMMDD_HHMMSS: 20211011_160358.251
DATA_LICENSE: CC-BY3_0-IT (http://creativecommons.org/licenses/by/3.0/deed.en)
DATA_CITATION: Luzi L, Pacor F, Puglia R (2019). Italian Accelerometric Archive v 3.0 - Istituto Nazionale di Geofisica e Vulcanologia, Dipartimento della Protezione Civile Nazionale. doi: 10.13127/itaca.3.1
DATA_CREATOR: ITACA working group
ORIGINAL_DATA_MEDIATOR_CITATION: data obtained within the DPC-INGV data exchange agreements
ORIGINAL_DATA_MEDIATOR: Archive of Italian Department of Civil Protection
ORIGINAL_DATA_CREATOR_CITATION: Presidency Of Counsil Of Ministers-Civil Protection Department. (1972). Italian Strong Motion Network. Presidency of Counsil of Ministers - Civil Protection Department. https://doi.org/10.7914/SN/IT http://www.fdsn.org/networks/detail/IT/
ORIGINAL_DATA_CREATOR: network: IT (Italian Strong Motion Network (RAN)); owner: Presidency of Counsil of Ministers - Civil Protection Department (PCM - DPC)
USER1: 
USER2: 
USER3: 
USER4: 
USER5: 
    0.010000    23.588785
    0.020000    23.807192
    0.022000    23.919107
    0.025000    23.998106
    0.029000    24.383255
    0.030000    24.583769
    0.032000    25.114319
    0.035001    25.007702
    0.036000    24.869198
    0.040000    25.807764
    0.041999    26.214064
    0.044001    26.831585
    0.045000    26.895779
    0.046000    26.789316
    0.048001    26.887011
    0.050000    27.227865
    0.054999    27.347153
    0.059999    29.294603
    0.064998    27.952696
    0.067002    27.950817
    0.069999    30.032787
    0.075002    31.391434
    0.080000    34.710663
    0.084998    41.019463
    0.090001    45.717125
    0.095003    47.275921
    0.100000    45.397003
    0.109999    40.649967
    0.120005    52.958420
    0.130005    50.578461
    0.132996    49.359924
    0.139997    44.301941
    0.149993    34.999966
    0.160000    39.851929
    0.170010    45.495583
    0.179986    58.169777
    0.190006    58.753475
    0.200000    45.251190
    0.220022    28.338051
    0.239981    27.357731
    0.250000    29.219631
    0.260010    33.036732
    0.280034    33.432262
    0.290023    30.795372
    0.300030    32.157070
    0.320000    39.842789
    0.340020    33.807159
    0.350017    30.442310
    0.359971    28.814415
    0.379939    29.306202
    0.400000    43.668682
    0.419992    49.033070
    0.439947    44.552143
    0.450045    42.607548
    0.459982    41.484947
    0.480077    39.509441
    0.500000    37.273556
    0.550055    29.739443
    0.599880    28.754545
    0.650195    26.179066
    0.667111    28.126705
    0.699790    29.553295
    0.750188    23.369896
    0.800000    20.794804
    0.850340    16.515381
    0.900090    16.614552
    0.949668    14.179066
    1.000000    13.794080
    1.100110    18.366520
    1.200480    21.790953
    1.300390    23.156654
    1.400560    25.419695
    1.499250    22.591955
    1.600000    23.781332
    1.700680    24.971132
    1.798561    24.085419
    1.901141    22.352726
    2.000000    21.027771
    2.197802    17.236851
    2.398082    10.851770
    2.500000     9.828115
    2.597403     8.940048
    2.801121     7.812623
    3.003003     6.920014
    3.205128     6.700697
    3.401361     6.680367
    3.496503     6.784363
    3.597122     6.648005
    3.802281     5.818160
    4.000000     5.028630
    4.201681     4.718077
    4.405286     4.106827
    4.608295     3.523132
    4.807692     3.115326
    5.000000     2.851801
    5.494505     2.274611
    5.988024     1.848567
    6.493506     1.621979
    6.993007     1.410590
    7.518797     1.206950
    8.000000     1.017792
    8.474576     0.850113
    9.009009     0.725293
    9.523809     0.654472
   10.000000     0.582263
