EVENT_NAME: L_AQUILA
EVENT_ID: IT-2009-0009
EVENT_DATE_YYYYMMDD: 20090406
EVENT_TIME_HHMMSS: 013240
EVENT_LATITUDE_DEGREE: 42.3420
EVENT_LONGITUDE_DEGREE: 13.3800
EVENT_DEPTH_KM: 8.3
HYPOCENTER_REFERENCE: INGV-CNT_Seismic_Bulletin
MAGNITUDE_W: 6.1
MAGNITUDE_W_REFERENCE: INGV-CNT_Seismic_Bulletin
MAGNITUDE_L: 
MAGNITUDE_L_REFERENCE: 
FOCAL_MECHANISM: Normal faulting
NETWORK: IT
STATION_CODE: SUL
STATION_NAME: 
STATION_LATITUDE_DEGREE: 42.089000
STATION_LONGITUDE_DEGREE: 13.934000
STATION_ELEVATION_M: 556
LOCATION: 
SENSOR_DEPTH_M: 0.0
VS30_M/S: 
SITE_CLASSIFICATION_EC8: A (inferred from geology)
MORPHOLOGIC_CLASSIFICATION: 
EPICENTRAL_DISTANCE_KM: 53.7
EARTHQUAKE_BACKAZIMUTH_DEGREE: 121.4
DATE_TIME_FIRST_SAMPLE_YYYYMMDD_HHMMSS: 20090406_013236.000
DATE_TIME_FIRST_SAMPLE_PRECISION: seconds
SAMPLING_INTERVAL_S: 0.005000
NDATA: 20800
DURATION_S: 104.000
STREAM: HNN
UNITS: cm
INSTRUMENT: sensor = FBA-3 [Kinemetrics] | digitizer = Etna [Kinemetrics]
INSTRUMENT_ANALOG/DIGITAL: D
INSTRUMENTAL_FREQUENCY_HZ: 214.000
INSTRUMENTAL_DAMPING: 0.700000
FULL_SCALE_G: 1.0
N_BIT_DIGITAL_CONVERTER: 18
PGD_CM: 1.243496
TIME_PGD_S: 25.450000
BASELINE_CORRECTION: BASELINE REMOVED
FILTER_TYPE: BUTTERWORTH
FILTER_ORDER: 2
LOW_CUT_FREQUENCY_HZ: 0.040
HIGH_CUT_FREQUENCY_HZ: 40.000
LATE/NORMAL_TRIGGERED: NT
DATABASE_VERSION: 0.5
HEADER_FORMAT: DYNA 1.2
DATA_TYPE: DISPLACEMENT
PROCESSING: manual (Paolucci et al., 2011)
DATA_TIMESTAMP_YYYYMMDD_HHMMSS: 20211011_160356.903
DATA_LICENSE: CC-BY3_0-IT (http://creativecommons.org/licenses/by/3.0/deed.en)
DATA_CITATION: Luzi L, Pacor F, Puglia R (2019). Italian Accelerometric Archive v 3.0 - Istituto Nazionale di Geofisica e Vulcanologia, Dipartimento della Protezione Civile Nazionale. doi: 10.13127/itaca.3.1
DATA_CREATOR: ITACA working group
ORIGINAL_DATA_MEDIATOR_CITATION: data obtained within the DPC-INGV data exchange agreements
ORIGINAL_DATA_MEDIATOR: Archive of Italian Department of Civil Protection
ORIGINAL_DATA_CREATOR_CITATION: Presidency Of Counsil Of Ministers-Civil Protection Department. (1972). Italian Strong Motion Network. Presidency of Counsil of Ministers - Civil Protection Department. https://doi.org/10.7914/SN/IT http://www.fdsn.org/networks/detail/IT/
ORIGINAL_DATA_CREATOR: network: IT (Italian Strong Motion Network (RAN)); owner: Presidency of Counsil of Ministers - Civil Protection Department (PCM - DPC)
USER1: 
USER2: 
USER3: 
USER4: 
USER5: 
[...]
-2.178676e-01
-2.189822e-01
-2.200697e-01
-2.211337e-01
-2.221754e-01
-2.231907e-01
-2.241708e-01
-2.251028e-01
-2.259732e-01
-2.267702e-01
-2.274865e-01
-2.281202e-01
-2.286748e-01
-2.291583e-01
-2.295825e-01
-2.299634e-01
-2.303209e-01
-2.306753e-01
-2.310436e-01
-2.314351e-01
-2.318501e-01
-2.322804e-01
-2.327126e-01
-2.331327e-01
-2.335319e-01
-2.339084e-01
-2.342664e-01
-2.346097e-01
-2.349364e-01
-2.352369e-01
-2.354968e-01
-2.357023e-01
-2.358430e-01
-2.359120e-01
-2.359038e-01
-2.358125e-01
-2.356332e-01
-2.353647e-01
-2.350115e-01
-2.345835e-01
-2.340923e-01
-2.335487e-01
-2.329624e-01
-2.323456e-01
-2.317143e-01
-2.310873e-01
-2.304811e-01
-2.299055e-01
-2.293625e-01
-2.288478e-01
-2.283536e-01
-2.278723e-01
-2.273981e-01
-2.269272e-01
-2.264566e-01
-2.259842e-01
-2.255104e-01
-2.250399e-01
-2.245821e-01
-2.241500e-01
-2.237580e-01
-2.234200e-01
-2.231483e-01
-2.229530e-01
-2.228402e-01
-2.228102e-01
-2.228567e-01
-2.229687e-01
-2.231335e-01
-2.233381e-01
-2.235709e-01
-2.238213e-01
-2.240799e-01
-2.243376e-01
-2.245871e-01
-2.248249e-01
-2.250533e-01
-2.252793e-01
-2.255115e-01
-2.257568e-01
-2.260185e-01
-2.262971e-01
-2.265931e-01
-2.269084e-01
-2.272483e-01
-2.276215e-01
-2.280386e-01
-2.285096e-01
-2.290400e-01
-2.296270e-01
-2.302592e-01
-2.309191e-01
-2.315863e-01
-2.322422e-01
-2.328718e-01
-2.334651e-01
-2.340157e-01
-2.345197e-01
-2.349753e-01
-2.353825e-01
-2.357414e-01
-2.360507e-01
-2.363061e-01
-2.365040e-01
-2.366443e-01
-2.367327e-01
-2.367789e-01
-2.367925e-01
-2.367812e-01
-2.367518e-01
-2.367132e-01
-2.366779e-01
-2.366604e-01
-2.366728e-01
-2.367212e-01
-2.368057e-01
-2.369235e-01
-2.370722e-01
-2.372502e-01
-2.374543e-01
-2.376775e-01
-2.379097e-01
-2.381404e-01
-2.383606e-01
-2.385636e-01
-2.387441e-01
-2.388987e-01
-2.390271e-01
-2.391343e-01
-2.392295e-01
-2.393240e-01
-2.394274e-01
-2.395449e-01
-2.396784e-01
-2.398308e-01
-2.400095e-01
-2.402269e-01
-2.404965e-01
-2.408286e-01
-2.412288e-01
-2.416994e-01
-2.422441e-01
-2.428723e-01
-2.435994e-01
-2.444438e-01
-2.454201e-01
-2.465341e-01
-2.477803e-01
-2.491438e-01
-2.506042e-01
-2.521391e-01
-2.537264e-01
-2.553456e-01
-2.569790e-01
-2.586115e-01
-2.602313e-01
-2.618296e-01
-2.634027e-01
-2.649542e-01
-2.664952e-01
-2.680414e-01
-2.696076e-01
-2.712017e-01
-2.728226e-01
-2.744624e-01
-2.761115e-01
-2.777634e-01
-2.794173e-01
-2.810766e-01
-2.827461e-01
-2.844291e-01
-2.861274e-01
-2.878415e-01
-2.895707e-01
-2.913118e-01
-2.930572e-01
-2.947953e-01
-2.965113e-01
-2.981907e-01
-2.998218e-01
-3.013970e-01
-3.029130e-01
-3.043691e-01
-3.057645e-01
-3.070952e-01
-3.083533e-01
-3.095293e-01
-3.106155e-01
-3.116097e-01
-3.125167e-01
-3.133469e-01
-3.141138e-01
-3.148297e-01
-3.155040e-01
-3.161430e-01
-3.167508e-01
-3.173302e-01
-3.178842e-01
-3.184166e-01
-3.189342e-01
-3.194477e-01
-3.199707e-01
-3.205167e-01
-3.210950e-01
-3.217083e-01
-3.223539e-01
-3.230271e-01
-3.237228e-01
-3.244350e-01
-3.251555e-01
-3.258734e-01
-3.265765e-01
-3.272545e-01
-3.279022e-01
-3.285207e-01
-3.291171e-01
-3.297013e-01
-3.302819e-01
-3.308639e-01
-3.314462e-01
-3.320206e-01
-3.325723e-01
-3.330839e-01
-3.335416e-01
-3.339413e-01
-3.342900e-01
-3.346010e-01
-3.348879e-01
-3.351586e-01
-3.354168e-01
-3.356659e-01
-3.359134e-01
-3.361730e-01
-3.364620e-01
-3.367987e-01
-3.371989e-01
-3.376722e-01
-3.382174e-01
-3.388198e-01
-3.394526e-01
-3.400835e-01
-3.406843e-01
-3.412390e-01
-3.417477e-01
-3.422235e-01
-3.426841e-01
-3.431432e-01
-3.436045e-01
-3.440610e-01
-3.444984e-01
-3.448999e-01
-3.452497e-01
-3.455361e-01
-3.457526e-01
-3.458979e-01
-3.459750e-01
-3.459889e-01
-3.459459e-01
-3.458526e-01
-3.457159e-01
-3.455423e-01
-3.453365e-01
-3.451014e-01
-3.448372e-01
-3.445414e-01
-3.442074e-01
-3.438258e-01
-3.433853e-01
-3.428742e-01
-3.422823e-01
-3.416024e-01
-3.408303e-01
-3.399659e-01
-3.390139e-01
-3.379832e-01
-3.368864e-01
-3.357376e-01
-3.345508e-01
-3.333370e-01
-3.321025e-01
-3.308481e-01
-3.295708e-01
-3.282663e-01
-3.269322e-01
-3.255686e-01
-3.241784e-01
-3.227650e-01
-3.213304e-01
-3.198749e-01
-3.183979e-01
-3.168992e-01
-3.153804e-01
-3.138445e-01
-3.122956e-01
-3.107383e-01
-3.091773e-01
-3.076161e-01
-3.060562e-01
-3.044960e-01
-3.029322e-01
-3.013618e-01
-2.997844e-01
-2.982026e-01
-2.966202e-01
-2.950419e-01
-2.934720e-01
-2.919156e-01
-2.903788e-01
-2.888675e-01
-2.873861e-01
-2.859357e-01
-2.845141e-01
-2.831174e-01
-2.817433e-01
-2.803925e-01
-2.790682e-01
-2.777737e-01
-2.765104e-01
-2.752784e-01
-2.740779e-01
-2.729096e-01
-2.717736e-01
-2.706668e-01
-2.695821e-01
-2.685097e-01
-2.674396e-01
-2.663624e-01
-2.652692e-01
-2.641494e-01
-2.629904e-01
-2.617791e-01
-2.605050e-01
-2.591629e-01
-2.577534e-01
-2.562806e-01
-2.547496e-01
-2.531660e-01
-2.515400e-01
-2.498894e-01
-2.482410e-01
-2.466277e-01
-2.450831e-01
-2.436365e-01
-2.423096e-01
-2.411159e-01
-2.400610e-01
-2.391428e-01
-2.383526e-01
-2.376752e-01
-2.370921e-01
-2.365836e-01
-2.361333e-01
-2.357301e-01
-2.353685e-01
-2.350462e-01
-2.347610e-01
-2.345082e-01
-2.342793e-01
-2.340639e-01
-2.338508e-01
-2.336313e-01
-2.334007e-01
-2.331595e-01
-2.329134e-01
-2.326706e-01
-2.324379e-01
-2.322165e-01
-2.320008e-01
-2.317808e-01
-2.315464e-01
-2.312897e-01
-2.310050e-01
-2.306869e-01
-2.303290e-01
-2.299237e-01
-2.294632e-01
-2.289401e-01
-2.283472e-01
-2.276785e-01
-2.269307e-01
-2.261041e-01
-2.252024e-01
-2.242312e-01
-2.231959e-01
-2.220998e-01
-2.209437e-01
-2.197261e-01
-2.184448e-01
-2.170974e-01
-2.156839e-01
-2.142070e-01
-2.126722e-01
-2.110863e-01
-2.094543e-01
-2.077780e-01
-2.060564e-01
-2.042868e-01
-2.024679e-01
-2.006015e-01
-1.986943e-01
-1.967587e-01
-1.948107e-01
-1.928659e-01
-1.909353e-01
-1.890234e-01
-1.871299e-01
-1.852533e-01
-1.833938e-01
-1.815534e-01
-1.797340e-01
-1.779349e-01
-1.761506e-01
-1.743712e-01
-1.725828e-01
-1.707702e-01
-1.689194e-01
-1.670207e-01
-1.650695e-01
-1.630669e-01
-1.610190e-01
-1.589354e-01
-1.568287e-01
-1.547125e-01
-1.525994e-01
-1.504988e-01
-1.484162e-01
-1.463536e-01
-1.443115e-01
-1.422905e-01
-1.402914e-01
-1.383136e-01
-1.363528e-01
-1.343998e-01
-1.324422e-01
-1.304672e-01
-1.284634e-01
-1.264222e-01
-1.243366e-01
-1.222011e-01
-1.200122e-01
-1.177705e-01
-1.154839e-01
-1.131673e-01
-1.108415e-01
-1.085292e-01
-1.062516e-01
-1.040258e-01
-1.018627e-01
-9.976713e-02
-9.773843e-02
-9.577278e-02
-9.386582e-02
-9.201499e-02
-9.022042e-02
-8.848367e-02
-8.680499e-02
-8.518063e-02
-8.360183e-02
-8.205625e-02
-8.053117e-02
-7.901648e-02
-7.750600e-02
-7.599693e-02
-7.448868e-02
-7.298206e-02
-7.147894e-02
-6.998248e-02
-6.849741e-02
-6.702958e-02
-6.558412e-02
-6.416338e-02
-6.276590e-02
-6.138719e-02
-6.002136e-02
-5.866266e-02
-5.730602e-02
-5.594692e-02
-5.458086e-02
-5.320300e-02
-5.180811e-02
-5.039063e-02
-4.894492e-02
-4.746538e-02
-4.594643e-02
-4.438219e-02
-4.276599e-02
-4.108991e-02
-3.934486e-02
-3.752116e-02
-3.560883e-02
-3.359733e-02
-3.147516e-02
-2.923021e-02
-2.685123e-02
-2.432984e-02
-2.166266e-02
-1.885337e-02
-1.591388e-02
-1.286411e-02
-9.730294e-03
-6.542346e-03
-3.331501e-03
-1.285439e-04
3.037498e-03
6.141230e-03
9.164181e-03
1.209898e-02
1.495233e-02
1.774452e-02
2.050543e-02
2.326870e-02
2.606622e-02
2.892386e-02
3.185881e-02
3.487877e-02
3.798365e-02
4.116900e-02
4.442970e-02
4.776238e-02
5.116596e-02
5.464110e-02
5.818926e-02
6.181202e-02
6.551117e-02
6.928918e-02
7.314959e-02
7.709563e-02
8.112669e-02
8.523448e-02
8.940169e-02
9.360493e-02
9.781979e-02
1.020248e-01
1.062016e-01
1.103327e-01
1.143993e-01
1.183817e-01
1.222627e-01
1.260323e-01
1.296883e-01
1.332347e-01
1.366766e-01
1.400158e-01
1.432491e-01
1.463704e-01
1.493735e-01
1.522551e-01
1.550145e-01
1.576531e-01
1.601731e-01
1.625769e-01
1.648662e-01
1.670402e-01
1.690943e-01
1.710190e-01
1.728005e-01
1.744232e-01
1.758738e-01
1.771430e-01
1.782256e-01
1.791161e-01
1.798046e-01
1.802749e-01
1.805063e-01
1.804784e-01
1.801760e-01
1.795933e-01
1.787354e-01
1.776181e-01
1.762666e-01
1.747136e-01
1.729965e-01
1.711535e-01
1.692189e-01
1.672194e-01
1.651729e-01
1.630895e-01
1.609755e-01
1.588362e-01
1.566785e-01
1.545112e-01
1.523437e-01
1.501844e-01
1.480385e-01
1.459068e-01
1.437841e-01
1.416596e-01
1.395171e-01
1.373371e-01
1.351006e-01
1.327898e-01
1.303880e-01
1.278778e-01
1.252392e-01
1.224519e-01
1.194984e-01
1.163677e-01
1.130575e-01
1.095736e-01
1.059272e-01
1.021326e-01
9.820538e-02
9.416208e-02
9.002020e-02
8.579706e-02
8.150772e-02
7.716326e-02
7.277008e-02
6.833040e-02
6.384284e-02
5.930257e-02
5.470133e-02
5.002810e-02
4.527127e-02
4.042182e-02
3.547601e-02
3.043649e-02
2.531160e-02
2.011370e-02
1.485772e-02
9.560876e-03
4.243522e-03
-1.070224e-03
-6.352996e-03
-1.157573e-02
-1.670943e-02
-2.172677e-02
-2.660372e-02
-3.132108e-02
-3.586492e-02
-4.022541e-02
-4.439474e-02
-4.836527e-02
-5.212862e-02
-5.567564e-02
-5.899671e-02
-6.208219e-02
-6.492328e-02
-6.751383e-02
-6.985199e-02
-7.194022e-02
-7.378265e-02
-7.538083e-02
-7.672993e-02
-7.781771e-02
-7.862652e-02
-7.913768e-02
-7.933639e-02
-7.921603e-02
-7.878052e-02
-7.804408e-02
-7.702850e-02
-7.575877e-02
-7.425871e-02
-7.254785e-02
-7.063980e-02
-6.854185e-02
-6.625521e-02
-6.377599e-02
-6.109670e-02
-5.820813e-02
-5.510117e-02
-5.176869e-02
-4.820758e-02
-4.442009e-02
-4.041350e-02
-3.619777e-02
-3.178238e-02
-2.717425e-02
-2.237804e-02
-1.739857e-02
-1.224407e-02
-6.928117e-03
-1.468643e-03
4.115517e-03
9.808696e-03
1.560143e-02
2.149228e-02
2.748894e-02
3.360798e-02
3.987214e-02
4.630522e-02
5.292635e-02
5.974635e-02
6.676768e-02
7.398799e-02
8.140517e-02
8.902073e-02
9.683985e-02
1.048688e-01
1.131122e-01
1.215727e-01
1.302523e-01
1.391557e-01
1.482925e-01
1.576773e-01
1.673278e-01
1.772619e-01
1.874959e-01
1.980427e-01
2.089103e-01
2.201006e-01
2.316082e-01
2.434216e-01
2.555257e-01
2.679043e-01
2.805422e-01
2.934245e-01
3.065360e-01
3.198590e-01
3.333729e-01
3.470558e-01
3.608864e-01
3.748465e-01
3.889229e-01
4.031070e-01
4.173939e-01
4.317795e-01
4.462575e-01
4.608180e-01
4.754470e-01
4.901288e-01
5.048493e-01
5.195984e-01
5.343709e-01
5.491640e-01
5.639759e-01
5.788034e-01
5.936415e-01
6.084834e-01
6.233194e-01
6.381345e-01
6.529055e-01
6.675992e-01
6.821744e-01
6.965865e-01
7.107936e-01
7.247612e-01
7.384647e-01
7.518886e-01
7.650246e-01
7.778687e-01
7.904187e-01
8.026723e-01
8.146260e-01
8.262733e-01
8.376052e-01
8.486098e-01
8.592725e-01
8.695762e-01
8.795000e-01
8.890200e-01
8.981103e-01
9.067482e-01
9.149193e-01
9.226220e-01
9.298676e-01
9.366763e-01
9.430702e-01
9.490669e-01
9.546757e-01
9.598972e-01
9.647247e-01
9.691463e-01
9.731475e-01
9.767137e-01
9.798327e-01
9.824972e-01
9.847062e-01
9.864659e-01
9.877890e-01
9.886930e-01
9.891995e-01
9.893312e-01
9.891087e-01
9.885468e-01
9.876523e-01
9.864262e-01
9.848662e-01
9.829711e-01
9.807424e-01
9.781850e-01
9.753068e-01
9.721184e-01
9.686329e-01
9.648681e-01
9.608481e-01
9.566041e-01
9.521724e-01
9.475924e-01
9.429032e-01
9.381413e-01
9.333386e-01
9.285224e-01
9.237156e-01
9.189394e-01
9.142144e-01
9.095625e-01
9.050058e-01
9.005657e-01
8.962590e-01
8.920947e-01
8.880734e-01
8.841878e-01
8.804269e-01
8.767793e-01
8.732361e-01
8.697912e-01
8.664402e-01
8.631788e-01
8.600022e-01
8.569057e-01
8.538848e-01
8.509366e-01
8.480597e-01
8.452558e-01
8.425309e-01
8.398955e-01
8.373640e-01
8.349519e-01
8.326745e-01
8.305456e-01
8.285791e-01
8.267892e-01
8.251903e-01
8.237949e-01
8.226134e-01
8.216551e-01
8.209310e-01
8.204567e-01
8.202537e-01
8.203481e-01
8.207679e-01
8.215410e-01
8.226944e-01
8.242531e-01
8.262398e-01
8.286723e-01
8.315605e-01
8.349044e-01
8.386933e-01
8.429065e-01
8.475157e-01
8.524867e-01
8.577809e-01
8.633562e-01
8.691682e-01
8.751727e-01
8.813285e-01
8.876011e-01
8.939635e-01
9.003962e-01
9.068859e-01
9.134265e-01
9.200208e-01
9.266835e-01
9.334422e-01
9.403360e-01
9.474114e-01
9.547169e-01
9.622961e-01
9.701811e-01
9.783885e-01
9.869177e-01
9.957511e-01
1.004857e+00
1.014193e+00
1.023708e+00
1.033345e+00
1.043049e+00
1.052763e+00
1.062434e+00
1.072016e+00
1.081465e+00
1.090747e+00
1.099830e+00
1.108692e+00
1.117318e+00
1.125698e+00
1.133827e+00
1.141706e+00
1.149337e+00
1.156727e+00
1.163884e+00
1.170818e+00
1.177537e+00
1.184047e+00
1.190343e+00
1.196412e+00
1.202232e+00
1.207776e+00
1.213013e+00
1.217922e+00
1.222484e+00
1.226684e+00
1.230506e+00
1.233923e+00
1.236901e+00
1.239393e+00
1.241346e+00
1.242708e+00
1.243435e+00
1.243496e+00
1.242879e+00
1.241586e+00
1.239627e+00
1.237023e+00
1.233796e+00
1.229981e+00
1.225623e+00
1.220776e+00
1.215499e+00
1.209845e+00
1.203863e+00
1.197590e+00
1.191059e+00
1.184304e+00
1.177362e+00
1.170272e+00
1.163075e+00
1.155804e+00
1.148487e+00
1.141145e+00
1.133799e+00
1.126475e+00
1.119203e+00
1.112017e+00
1.104952e+00
1.098039e+00
1.091307e+00
1.084778e+00
1.078468e+00
1.072387e+00
1.066539e+00
1.060916e+00
1.055502e+00
1.050270e+00
1.045184e+00
1.040205e+00
1.035295e+00
1.030425e+00
1.025577e+00
1.020749e+00
1.015950e+00
1.011195e+00
1.006496e+00
1.001868e+00
9.973237e-01
9.928762e-01
9.885375e-01
9.843127e-01
9.801959e-01
9.761712e-01
9.722181e-01
9.683195e-01
9.644663e-01
9.606579e-01
9.568974e-01
9.531830e-01
9.495040e-01
9.458402e-01
9.421684e-01
9.384725e-01
9.347523e-01
9.310273e-01
9.273336e-01
9.237165e-01
9.202190e-01
9.168740e-01
9.136997e-01
9.106988e-01
9.078610e-01
9.051656e-01
9.025829e-01
9.000743e-01
8.975919e-01
8.950799e-01
8.924781e-01
8.897274e-01
8.867767e-01
8.835873e-01
8.801373e-01
8.764230e-01
8.724592e-01
8.682771e-01
8.639211e-01
8.594432e-01
8.548969e-01
8.503342e-01
8.458034e-01
8.413506e-01
8.370183e-01
8.328446e-01
8.288614e-01
8.250955e-01
8.215692e-01
8.183018e-01
8.153102e-01
8.126093e-01
8.102116e-01
8.081267e-01
8.063607e-01
8.049133e-01
8.037754e-01
8.029260e-01
8.023342e-01
8.019630e-01
8.017749e-01
8.017365e-01
8.018195e-01
8.019993e-01
8.022508e-01
8.025447e-01
8.028485e-01
8.031296e-01
8.033626e-01
8.035348e-01
8.036493e-01
8.037252e-01
8.037941e-01
8.038944e-01
8.040633e-01
8.043287e-01
8.047029e-01
8.051811e-01
8.057437e-01
8.063625e-01
8.070067e-01
8.076471e-01
8.082598e-01
8.088275e-01
8.093405e-01
8.097949e-01
8.101874e-01
8.105080e-01
8.107333e-01
8.108250e-01
8.107355e-01
8.104191e-01
8.098423e-01
8.089885e-01
8.078549e-01
8.064440e-01
8.047577e-01
8.027956e-01
8.005599e-01
7.980596e-01
7.953131e-01
7.923448e-01
7.891816e-01
7.858481e-01
7.823637e-01
7.787405e-01
7.749802e-01
7.710737e-01
7.670032e-01
7.627476e-01
7.582904e-01
7.536271e-01
7.487684e-01
7.437390e-01
7.385733e-01
7.333117e-01
7.279985e-01
7.226824e-01
7.174159e-01
7.122538e-01
7.072486e-01
7.024469e-01
6.978867e-01
6.935986e-01
6.896070e-01
6.859300e-01
6.825769e-01
6.795447e-01
6.768169e-01
6.743650e-01
6.721509e-01
6.701308e-01
6.682587e-01
6.664894e-01
6.647814e-01
6.631003e-01
6.614211e-01
6.597279e-01
6.580121e-01
6.562676e-01
6.544875e-01
6.526620e-01
6.507798e-01
6.488316e-01
6.468142e-01
6.447330e-01
6.426032e-01
6.404478e-01
6.382948e-01
6.361727e-01
6.341073e-01
6.321203e-01
6.302288e-01
6.284453e-01
6.267754e-01
6.252168e-01
6.237594e-01
6.223884e-01
6.210891e-01
6.198508e-01
6.186693e-01
6.175447e-01
6.164775e-01
6.154648e-01
6.144998e-01
6.135754e-01
6.126884e-01
6.118439e-01
6.110541e-01
6.103339e-01
6.096964e-01
6.091494e-01
6.086968e-01
6.083396e-01
6.080789e-01
6.079152e-01
6.078482e-01
6.078768e-01
6.080006e-01
6.082249e-01
6.085656e-01
6.090526e-01
6.097277e-01
6.106390e-01
6.118336e-01
6.133522e-01
6.152269e-01
6.174807e-01
6.201286e-01
6.231782e-01
6.266292e-01
6.304715e-01
6.346842e-01
6.392356e-01
6.440846e-01
6.491839e-01
6.544839e-01
6.599394e-01
6.655155e-01
6.711899e-01
6.769513e-01
6.827952e-01
6.887202e-01
6.947249e-01
7.008065e-01
7.069615e-01
7.131862e-01
7.194766e-01
7.258262e-01
7.322217e-01
7.386397e-01
7.450445e-01
7.513905e-01
7.576291e-01
7.637156e-01
7.696167e-01
7.753129e-01
7.807977e-01
7.860723e-01
7.911405e-01
7.960034e-01
8.006585e-01
8.051031e-01
8.093414e-01
8.133909e-01
8.172865e-01
8.210782e-01
8.248244e-01
8.285833e-01
8.324067e-01
8.363381e-01
8.404122e-01
8.446546e-01
8.490791e-01
8.536860e-01
8.584614e-01
8.633817e-01
8.684192e-01
8.735484e-01
8.787475e-01
8.839970e-01
8.892760e-01
8.945585e-01
8.998117e-01
9.049959e-01
9.100693e-01
9.149928e-01
9.197357e-01
9.242766e-01
9.286013e-01
9.326971e-01
9.365460e-01
9.401204e-01
9.433823e-01
9.462901e-01
9.488072e-01
9.509097e-01
9.525886e-01
9.538479e-01
9.547009e-01
9.551684e-01
9.552786e-01
9.550673e-01
9.545764e-01
9.538490e-01
9.529212e-01
9.518151e-01
9.505356e-01
9.490727e-01
9.474072e-01
9.455181e-01
9.433873e-01
9.410016e-01
9.383526e-01
9.354359e-01
9.322503e-01
9.287979e-01
9.250832e-01
9.211146e-01
9.169045e-01
9.124713e-01
9.078412e-01
9.030497e-01
8.981414e-01
8.931692e-01
8.881924e-01
8.832751e-01
8.784854e-01
8.738940e-01
8.695702e-01
8.655763e-01
8.619596e-01
8.587467e-01
8.559423e-01
8.535310e-01
8.514830e-01
8.497594e-01
8.483187e-01
8.471217e-01
8.461358e-01
8.453382e-01
8.447166e-01
8.442689e-01
8.440002e-01
8.439194e-01
8.440374e-01
8.443656e-01
8.449158e-01
8.456996e-01
8.467248e-01
8.479919e-01
8.494893e-01
8.511924e-01
8.530650e-01
8.550654e-01
8.571561e-01
8.593101e-01
8.615142e-01
8.637665e-01
8.660685e-01
8.684181e-01
8.708044e-01
8.732074e-01
8.756002e-01
8.779519e-01
8.802300e-01
8.824020e-01
8.844360e-01
8.863003e-01
8.879623e-01
8.893889e-01
8.905478e-01
8.914103e-01
8.919536e-01
8.921617e-01
8.920244e-01
8.915353e-01
8.906908e-01
8.894902e-01
8.879385e-01
8.860482e-01
8.838387e-01
8.813333e-01
8.785539e-01
8.755156e-01
8.722225e-01
8.686652e-01
8.648205e-01
8.606547e-01
8.561287e-01
8.512035e-01
8.458452e-01
8.400267e-01
8.337276e-01
8.269320e-01
8.196266e-01
8.118014e-01
8.034513e-01
7.945795e-01
7.851994e-01
7.753347e-01
