EVENT_NAME: L_AQUILA
EVENT_ID: IT-2009-0009
EVENT_DATE_YYYYMMDD: 20090406
EVENT_TIME_HHMMSS: 013240
EVENT_LATITUDE_DEGREE: 42.3420
EVENT_LONGITUDE_DEGREE: 13.3800
EVENT_DEPTH_KM: 8.3
HYPOCENTER_REFERENCE: INGV-CNT_Seismic_Bulletin
MAGNITUDE_W: 6.1
MAGNITUDE_W_REFERENCE: INGV-CNT_Seismic_Bulletin
MAGNITUDE_L: 
MAGNITUDE_L_REFERENCE: 
FOCAL_MECHANISM: Normal faulting
NETWORK: IT
STATION_CODE: SUL
STATION_NAME: 
STATION_LATITUDE_DEGREE: 42.089000
STATION_LONGITUDE_DEGREE: 13.934000
STATION_ELEVATION_M: 556
LOCATION: 
SENSOR_DEPTH_M: 0.0
VS30_M/S: 
SITE_CLASSIFICATION_EC8: A (inferred from geology)
MORPHOLOGIC_CLASSIFICATION: 
EPICENTRAL_DISTANCE_KM: 53.7
EARTHQUAKE_BACKAZIMUTH_DEGREE: 121.4
DATE_TIME_FIRST_SAMPLE_YYYYMMDD_HHMMSS: 
DATE_TIME_FIRST_SAMPLE_PRECISION: 
SAMPLING_INTERVAL_S: 
NDATA: 105
DURATION_S: 
STREAM: HNE
UNITS: cm/s^2
INSTRUMENT: sensor = FBA-3 [Kinemetrics] | digitizer = Etna [Kinemetrics]
INSTRUMENT_ANALOG/DIGITAL: D
INSTRUMENTAL_FREQUENCY_HZ: 218.000
INSTRUMENTAL_DAMPING: 0.700000
FULL_SCALE_G: 1.0
N_BIT_DIGITAL_CONVERTER: 18
PGA_CM/S^2: -33.624039
TIME_PGA_S: 
BASELINE_CORRECTION: BASELINE REMOVED
FILTER_TYPE: BUTTERWORTH
FILTER_ORDER: 2
LOW_CUT_FREQUENCY_HZ: 0.040
HIGH_CUT_FREQUENCY_HZ: 40.000
LATE/NORMAL_TRIGGERED: NT
DATABASE_VERSION: 0.5
HEADER_FORMAT: DYNA 1.2
DATA_TYPE: ACCELERATION RESPONSE SPECTRUM
PROCESSING: manual (Paolucci et al., 2011)
DATA_TIMESTAMP_YYYYMMDD_HHMMSS: 20211011_160357.697
DATA_LICENSE: CC-BY3_0-IT (http://creativecommons.org/licenses/by/3.0/deed.en)
DATA_CITATION: Luzi L, Pacor F, Puglia R (2019). Italian Accelerometric Archive v 3.0 - Istituto Nazionale di Geofisica e Vulcanologia, Dipartimento della Protezione Civile Nazionale. doi: 10.13127/itaca.3.1
DATA_CREATOR: ITACA working group
ORIGINAL_DATA_MEDIATOR_CITATION: data obtained within the DPC-INGV data exchange agreements
ORIGINAL_DATA_MEDIATOR: Archive of Italian Department of Civil Protection
ORIGINAL_DATA_CREATOR_CITATION: Presidency Of Counsil Of Ministers-Civil Protection Department. (1972). Italian Strong Motion Network. Presidency of Counsil of Ministers - Civil Protection Department. https://doi.org/10.7914/SN/IT http://www.fdsn.org/networks/detail/IT/
ORIGINAL_DATA_CREATOR: network: IT (Italian Strong Motion Network (RAN)); owner: Presidency of Counsil of Ministers - Civil Protection Department (PCM - DPC)
USER1: 
USER2: 
USER3: 
USER4: 
USER5: 
    0.010000    33.764084
    0.020000    34.233967
    0.022000    34.357212
    0.025000    34.558292
    0.029000    35.357510
    0.030000    35.554882
    0.032000    35.654427
    0.035001    36.047810
    0.036000    35.704102
    0.040000    37.203957
    0.041999    38.005306
    0.044001    38.840374
    0.045000    38.499004
    0.046000    37.901920
    0.048001    37.513405
    0.050000    38.305847
    0.054999    41.776924
    0.059999    41.834160
    0.064998    49.329437
    0.067002    51.080818
    0.069999    51.470867
    0.075002    50.422871
    0.080000    47.083168
    0.084998    43.023842
    0.090001    61.223961
    0.095003    72.117668
    0.100000    77.951393
    0.109999    78.735420
    0.120005    61.935734
    0.130005    63.737640
    0.132996    62.786213
    0.139997    59.343895
    0.149993    59.252975
    0.160000    66.061096
    0.170010    74.343880
    0.179986    77.478638
    0.190006    69.299919
    0.200000    59.697971
    0.220022    52.162659
    0.239981    64.024590
    0.250000    62.422966
    0.260010    65.115135
    0.280034    63.825306
    0.290023    69.119690
    0.300030    72.432747
    0.320000    81.658295
    0.340020    70.579018
    0.350017    61.306664
    0.359971    59.308979
    0.379939    60.555771
    0.400000    55.659729
    0.419992    48.952599
    0.439947    39.830944
    0.450045    41.304440
    0.459982    44.916222
    0.480077    48.668793
    0.500000    51.692535
    0.550055    59.919933
    0.599880    42.354958
    0.650195    48.144569
    0.667111    51.470005
    0.699790    52.959423
    0.750188    44.784302
    0.800000    37.040203
    0.850340    33.148132
    0.900090    32.544060
    0.949668    36.293789
    1.000000    33.372807
    1.100110    20.103765
    1.200480    19.675102
    1.300390    18.164497
    1.400560    22.060604
    1.499250    17.472553
    1.600000    16.099930
    1.700680    19.280531
    1.798561    19.897072
    1.901141    20.074141
    2.000000    21.017508
    2.197802    22.494865
    2.398082    17.210943
    2.500000    15.169541
    2.597403    14.109049
    2.801121    12.178164
    3.003003     9.406495
    3.205128     6.698417
    3.401361     6.385163
    3.496503     5.987359
    3.597122     5.390650
    3.802281     4.634395
    4.000000     4.013844
    4.201681     3.584545
    4.405286     3.256447
    4.608295     2.978214
    4.807692     3.022413
    5.000000     3.004281
    5.494505     2.863960
    5.988024     2.658855
    6.493506     2.635344
    6.993007     2.093541
    7.518797     1.738742
    8.000000     1.610564
    8.474576     1.408485
    9.009009     1.181237
    9.523809     0.966938
   10.000000     0.783516
