EVENT_NAME: L_AQUILA
EVENT_ID: IT-2009-0009
EVENT_DATE_YYYYMMDD: 20090406
EVENT_TIME_HHMMSS: 013240
EVENT_LATITUDE_DEGREE: 42.3420
EVENT_LONGITUDE_DEGREE: 13.3800
EVENT_DEPTH_KM: 8.3
HYPOCENTER_REFERENCE: INGV-CNT_Seismic_Bulletin
MAGNITUDE_W: 6.1
MAGNITUDE_W_REFERENCE: INGV-CNT_Seismic_Bulletin
MAGNITUDE_L: 
MAGNITUDE_L_REFERENCE: 
FOCAL_MECHANISM: Normal faulting
NETWORK: IT
STATION_CODE: SUL
STATION_NAME: 
STATION_LATITUDE_DEGREE: 42.089000
STATION_LONGITUDE_DEGREE: 13.934000
STATION_ELEVATION_M: 556
LOCATION: 
SENSOR_DEPTH_M: 0.0
VS30_M/S: 
SITE_CLASSIFICATION_EC8: A (inferred from geology)
MORPHOLOGIC_CLASSIFICATION: 
EPICENTRAL_DISTANCE_KM: 53.7
EARTHQUAKE_BACKAZIMUTH_DEGREE: 121.4
DATE_TIME_FIRST_SAMPLE_YYYYMMDD_HHMMSS: 20090406_013236.000
DATE_TIME_FIRST_SAMPLE_PRECISION: seconds
SAMPLING_INTERVAL_S: 0.005000
NDATA: 20800
DURATION_S: 104.000
STREAM: HNE
UNITS: cm
INSTRUMENT: sensor = FBA-3 [Kinemetrics] | digitizer = Etna [Kinemetrics]
INSTRUMENT_ANALOG/DIGITAL: D
INSTRUMENTAL_FREQUENCY_HZ: 218.000
INSTRUMENTAL_DAMPING: 0.700000
FULL_SCALE_G: 1.0
N_BIT_DIGITAL_CONVERTER: 18
PGD_CM: 1.055637
TIME_PGD_S: 32.225000
BASELINE_CORRECTION: BASELINE REMOVED
FILTER_TYPE: BUTTERWORTH
FILTER_ORDER: 2
LOW_CUT_FREQUENCY_HZ: 0.040
HIGH_CUT_FREQUENCY_HZ: 40.000
LATE/NORMAL_TRIGGERED: NT
DATABASE_VERSION: 0.5
HEADER_FORMAT: DYNA 1.2
DATA_TYPE: DISPLACEMENT
PROCESSING: manual (Paolucci et al., 2011)
DATA_TIMESTAMP_YYYYMMDD_HHMMSS: 20211011_160356.333
DATA_LICENSE: CC-BY3_0-IT (http://creativecommons.org/licenses/by/3.0/deed.en)
DATA_CITATION: Luzi L, Pacor F, Puglia R (2019). Italian Accelerometric Archive v 3.0 - Istituto Nazionale di Geofisica e Vulcanologia, Dipartimento della Protezione Civile Nazionale. doi: 10.13127/itaca.3.1
DATA_CREATOR: ITACA working group
ORIGINAL_DATA_MEDIATOR_CITATION: data obtained within the DPC-INGV data exchange agreements
ORIGINAL_DATA_MEDIATOR: Archive of Italian Department of Civil Protection
ORIGINAL_DATA_CREATOR_CITATION: Presidency Of Counsil Of Ministers-Civil Protection Department. (1972). Italian Strong Motion Network. Presidency of Counsil of Ministers - Civil Protection Department. https://doi.org/10.7914/SN/IT http://www.fdsn.org/networks/detail/IT/
ORIGINAL_DATA_CREATOR: network: IT (Italian Strong Motion Network (RAN)); owner: Presidency of Counsil of Ministers - Civil Protection Department (PCM - DPC)
USER1: 
USER2: 
USER3: 
USER4: 
USER5: 
[...]
5.060768e-01
5.052218e-01
5.042311e-01
5.030881e-01
5.017806e-01
5.003013e-01
4.986452e-01
4.968073e-01
4.947819e-01
4.925651e-01
4.901566e-01
4.875613e-01
4.847893e-01
4.818539e-01
4.787706e-01
4.755557e-01
4.722251e-01
4.687933e-01
4.652736e-01
4.616799e-01
4.580292e-01
4.543441e-01
4.506516e-01
4.469813e-01
4.433617e-01
4.398159e-01
4.363584e-01
4.329948e-01
4.297236e-01
4.265406e-01
4.234418e-01
4.204251e-01
4.174909e-01
4.146417e-01
4.118815e-01
4.092156e-01
4.066490e-01
4.041844e-01
4.018217e-01
3.995576e-01
3.973877e-01
3.953079e-01
3.933160e-01
3.914117e-01
3.895932e-01
3.878537e-01
3.861803e-01
3.845558e-01
3.829650e-01
3.814005e-01
3.798666e-01
3.783767e-01
3.769476e-01
3.755924e-01
3.743168e-01
3.731191e-01
3.719912e-01
3.709214e-01
3.698965e-01
3.689024e-01
3.679227e-01
3.669370e-01
3.659188e-01
3.648336e-01
3.636404e-01
3.622928e-01
3.607423e-01
3.589416e-01
3.568484e-01
3.544297e-01
3.516650e-01
3.485481e-01
3.450859e-01
3.412959e-01
3.372027e-01
3.328363e-01
3.282298e-01
3.234189e-01
3.184409e-01
3.133330e-01
3.081291e-01
3.028589e-01
2.975473e-01
2.922158e-01
2.868841e-01
2.815716e-01
2.762983e-01
2.710858e-01
2.659581e-01
2.609423e-01
2.560696e-01
2.513736e-01
2.468872e-01
2.426375e-01
2.386405e-01
2.348996e-01
2.314060e-01
2.281418e-01
2.250845e-01
2.222096e-01
2.194932e-01
2.169135e-01
2.144523e-01
2.120961e-01
2.098381e-01
2.076783e-01
2.056220e-01
2.036770e-01
2.018492e-01
2.001391e-01
1.985401e-01
1.970381e-01
1.956133e-01
1.942425e-01
1.929015e-01
1.915668e-01
1.902165e-01
1.888315e-01
1.873967e-01
1.859022e-01
1.843442e-01
1.827249e-01
1.810525e-01
1.793401e-01
1.776061e-01
1.758732e-01
1.741670e-01
1.725130e-01
1.709322e-01
1.694375e-01
1.680322e-01
1.667100e-01
1.654575e-01
1.642548e-01
1.630753e-01
1.618848e-01
1.606407e-01
1.592943e-01
1.577953e-01
1.560976e-01
1.541630e-01
1.519623e-01
1.494742e-01
1.466831e-01
1.435785e-01
1.401561e-01
1.364184e-01
1.323757e-01
1.280451e-01
1.234491e-01
1.186144e-01
1.135692e-01
1.083425e-01
1.029620e-01
9.745220e-02
9.183449e-02
8.612704e-02
8.034608e-02
7.450663e-02
6.862245e-02
6.270532e-02
5.676430e-02
5.080562e-02
4.483337e-02
3.885060e-02
3.285997e-02
2.686350e-02
2.086203e-02
1.485498e-02
8.840726e-03
2.817194e-03
-3.218084e-03
-9.269130e-03
-1.534343e-02
-2.145337e-02
-2.761585e-02
-3.384966e-02
-4.017170e-02
-4.659357e-02
-5.311959e-02
-5.974592e-02
-6.646055e-02
-7.324365e-02
-8.006904e-02
-8.690699e-02
-9.372843e-02
-1.005094e-01
-1.072348e-01
-1.139004e-01
-1.205141e-01
-1.270954e-01
-1.336747e-01
-1.402913e-01
-1.469903e-01
-1.538189e-01
-1.608232e-01
-1.680439e-01
-1.755150e-01
-1.832617e-01
-1.913005e-01
-1.996391e-01
-2.082779e-01
-2.172111e-01
-2.264291e-01
-2.359205e-01
-2.456721e-01
-2.556690e-01
-2.658938e-01
-2.763288e-01
-2.869586e-01
-2.977733e-01
-3.087715e-01
-3.199607e-01
-3.313568e-01
-3.429812e-01
-3.548564e-01
-3.670004e-01
-3.794236e-01
-3.921273e-01
-4.051048e-01
-4.183413e-01
-4.318139e-01
-4.454916e-01
-4.593355e-01
-4.733005e-01
-4.873380e-01
-5.013987e-01
-5.154339e-01
-5.293963e-01
-5.432397e-01
-5.569186e-01
-5.703886e-01
-5.836081e-01
-5.965403e-01
-6.091545e-01
-6.214281e-01
-6.333468e-01
-6.449040e-01
-6.560995e-01
-6.669364e-01
-6.774187e-01
-6.875494e-01
-6.973294e-01
-7.067592e-01
-7.158406e-01
-7.245781e-01
-7.329801e-01
-7.410583e-01
-7.488271e-01
-7.563021e-01
-7.634992e-01
-7.704326e-01
-7.771135e-01
-7.835496e-01
-7.897450e-01
-7.957029e-01
-8.014273e-01
-8.069254e-01
-8.122082e-01
-8.172895e-01
-8.221843e-01
-8.269075e-01
-8.314735e-01
-8.358978e-01
-8.401983e-01
-8.443959e-01
-8.485138e-01
-8.525746e-01
-8.565977e-01
-8.605962e-01
-8.645743e-01
-8.685262e-01
-8.724356e-01
-8.762773e-01
-8.800193e-01
-8.836262e-01
-8.870637e-01
-8.903015e-01
-8.933150e-01
-8.960856e-01
-8.985992e-01
-9.008451e-01
-9.028151e-01
-9.045029e-01
-9.059043e-01
-9.070166e-01
-9.078383e-01
-9.083690e-01
-9.086096e-01
-9.085630e-01
-9.082345e-01
-9.076314e-01
-9.067627e-01
-9.056383e-01
-9.042690e-01
-9.026669e-01
-9.008459e-01
-8.988234e-01
-8.966207e-01
-8.942636e-01
-8.917817e-01
-8.892083e-01
-8.865797e-01
-8.839355e-01
-8.813171e-01
-8.787657e-01
-8.763189e-01
-8.740082e-01
-8.718567e-01
-8.698775e-01
-8.680742e-01
-8.664418e-01
-8.649677e-01
-8.636344e-01
-8.624209e-01
-8.613064e-01
-8.602723e-01
-8.593034e-01
-8.583865e-01
-8.575079e-01
-8.566497e-01
-8.557886e-01
-8.548971e-01
-8.539456e-01
-8.529061e-01
-8.517548e-01
-8.504739e-01
-8.490524e-01
-8.474871e-01
-8.457831e-01
-8.439542e-01
-8.420223e-01
-8.400159e-01
-8.379671e-01
-8.359082e-01
-8.338679e-01
-8.318681e-01
-8.299222e-01
-8.280341e-01
-8.261987e-01
-8.244042e-01
-8.226350e-01
-8.208748e-01
-8.191098e-01
-8.173295e-01
-8.155280e-01
-8.137027e-01
-8.118538e-01
-8.099824e-01
-8.080893e-01
-8.061739e-01
-8.042331e-01
-8.022611e-01
-8.002493e-01
-7.981867e-01
-7.960610e-01
-7.938591e-01
-7.915685e-01
-7.891775e-01
-7.866771e-01
-7.840623e-01
-7.813334e-01
-7.784972e-01
-7.755678e-01
-7.725654e-01
-7.695154e-01
-7.664450e-01
-7.633798e-01
-7.603407e-01
-7.573422e-01
-7.543914e-01
-7.514875e-01
-7.486222e-01
-7.457805e-01
-7.429432e-01
-7.400888e-01
-7.371957e-01
-7.342432e-01
-7.312108e-01
-7.280784e-01
-7.248260e-01
-7.214345e-01
-7.178871e-01
-7.141696e-01
-7.102712e-01
-7.061835e-01
-7.019009e-01
-6.974195e-01
-6.927379e-01
-6.878569e-01
-6.827803e-01
-6.775151e-01
-6.720717e-01
-6.664635e-01
-6.607060e-01
-6.548149e-01
-6.488054e-01
-6.426923e-01
-6.364900e-01
-6.302132e-01
-6.238764e-01
-6.174934e-01
-6.110764e-01
-6.046358e-01
-5.981812e-01
-5.917232e-01
-5.852743e-01
-5.788494e-01
-5.724650e-01
-5.661381e-01
-5.598857e-01
-5.537231e-01
-5.476623e-01
-5.417103e-01
-5.358672e-01
-5.301261e-01
-5.244755e-01
-5.189019e-01
-5.133930e-01
-5.079380e-01
-5.025264e-01
-4.971463e-01
-4.917838e-01
-4.864239e-01
-4.810526e-01
-4.756577e-01
-4.702283e-01
-4.647535e-01
-4.592208e-01
-4.536159e-01
-4.479240e-01
-4.421317e-01
-4.362281e-01
-4.302046e-01
-4.240547e-01
-4.177735e-01
-4.113591e-01
-4.048131e-01
-3.981411e-01
-3.913497e-01
-3.844444e-01
-3.774270e-01
-3.702952e-01
-3.630441e-01
-3.556684e-01
-3.481637e-01
-3.405277e-01
-3.327598e-01
-3.248618e-01
-3.168395e-01
-3.087035e-01
-3.004704e-01
-2.921628e-01
-2.838075e-01
-2.754342e-01
-2.670739e-01
-2.587579e-01
-2.505177e-01
-2.423830e-01
-2.343797e-01
-2.265274e-01
-2.188382e-01
-2.113168e-01
-2.039637e-01
-1.967770e-01
-1.897551e-01
-1.828978e-01
-1.762054e-01
-1.696779e-01
-1.633137e-01
-1.571082e-01
-1.510541e-01
-1.451413e-01
-1.393584e-01
-1.336950e-01
-1.281443e-01
-1.227049e-01
-1.173820e-01
-1.121852e-01
-1.071263e-01
-1.022163e-01
-9.746333e-02
-9.287176e-02
-8.844259e-02
-8.417378e-02
-8.006069e-02
-7.609659e-02
-7.227340e-02
-6.858318e-02
-6.502011e-02
-6.158243e-02
-5.827393e-02
-5.510485e-02
-5.209228e-02
-4.925995e-02
-4.663697e-02
-4.425554e-02
-4.214789e-02
-4.034289e-02
-3.886312e-02
-3.772317e-02
-3.692954e-02
-3.648178e-02
-3.637413e-02
-3.659661e-02
-3.713529e-02
-3.797241e-02
-3.908757e-02
-4.046055e-02
-4.207464e-02
-4.391918e-02
-4.599043e-02
-4.829064e-02
-5.082606e-02
-5.360465e-02
-5.663408e-02
-5.992002e-02
-6.346447e-02
-6.726424e-02
-7.131019e-02
-7.558739e-02
-8.007644e-02
-8.475535e-02
-8.960165e-02
-9.459423e-02
-9.971435e-02
-1.049459e-01
-1.102751e-01
-1.156900e-01
-1.211804e-01
-1.267378e-01
-1.323564e-01
-1.380329e-01
-1.437656e-01
-1.495536e-01
-1.553945e-01
-1.612825e-01
-1.672066e-01
-1.731499e-01
-1.790901e-01
-1.850014e-01
-1.908567e-01
-1.966297e-01
-2.022966e-01
-2.078383e-01
-2.132399e-01
-2.184916e-01
-2.235868e-01
-2.285218e-01
-2.332946e-01
-2.379048e-01
-2.423525e-01
-2.466387e-01
-2.507638e-01
-2.547270e-01
-2.585254e-01
-2.621544e-01
-2.656087e-01
-2.688842e-01
-2.719797e-01
-2.748994e-01
-2.776530e-01
-2.802560e-01
-2.827283e-01
-2.850931e-01
-2.873757e-01
-2.896039e-01
-2.918082e-01
-2.940235e-01
-2.962884e-01
-2.986444e-01
-3.011327e-01
-3.037906e-01
-3.066490e-01
-3.097304e-01
-3.130490e-01
-3.166125e-01
-3.204235e-01
-3.244814e-01
-3.287833e-01
-3.333242e-01
-3.380955e-01
-3.430847e-01
-3.482733e-01
-3.536377e-01
-3.591494e-01
-3.647777e-01
-3.704915e-01
-3.762619e-01
-3.820627e-01
-3.878704e-01
-3.936630e-01
-3.994187e-01
-4.051162e-01
-4.107347e-01
-4.162553e-01
-4.216617e-01
-4.269395e-01
-4.320751e-01
-4.370539e-01
-4.418598e-01
-4.464765e-01
-4.508890e-01
-4.550867e-01
-4.590638e-01
-4.628205e-01
-4.663611e-01
-4.696940e-01
-4.728303e-01
-4.757840e-01
-4.785709e-01
-4.812076e-01
-4.837096e-01
-4.860902e-01
-4.883605e-01
-4.905286e-01
-4.926010e-01
-4.945828e-01
-4.964800e-01
-4.983001e-01
-5.000533e-01
-5.017525e-01
-5.034126e-01
-5.050480e-01
-5.066700e-01
-5.082847e-01
-5.098921e-01
-5.114859e-01
-5.130565e-01
-5.145927e-01
-5.160842e-01
-5.175222e-01
-5.188998e-01
-5.202114e-01
-5.214532e-01
-5.226227e-01
-5.237191e-01
-5.247428e-01
-5.256954e-01
-5.265796e-01
-5.273984e-01
-5.281546e-01
-5.288514e-01
-5.294924e-01
-5.300814e-01
-5.306231e-01
-5.311225e-01
-5.315849e-01
-5.320151e-01
-5.324166e-01
-5.327922e-01
-5.331431e-01
-5.334697e-01
-5.337714e-01
-5.340453e-01
-5.342858e-01
-5.344833e-01
-5.346242e-01
-5.346915e-01
-5.346663e-01
-5.345295e-01
-5.342634e-01
-5.338529e-01
-5.332857e-01
-5.325524e-01
-5.316460e-01
-5.305607e-01
-5.292921e-01
-5.278354e-01
-5.261857e-01
-5.243369e-01
-5.222802e-01
-5.200037e-01
-5.174912e-01
-5.147236e-01
-5.116809e-01
-5.083438e-01
-5.046965e-01
-5.007272e-01
-4.964285e-01
-4.917968e-01
-4.868317e-01
-4.815354e-01
-4.759131e-01
-4.699733e-01
-4.637285e-01
-4.571955e-01
-4.503944e-01
-4.433478e-01
-4.360782e-01
-4.286068e-01
-4.209516e-01
-4.131268e-01
-4.051438e-01
-3.970129e-01
-3.887445e-01
-3.803500e-01
-3.718418e-01
-3.632309e-01
-3.545265e-01
-3.457352e-01
-3.368621e-01
-3.279119e-01
-3.188899e-01
-3.098024e-01
-3.006564e-01
-2.914581e-01
-2.822126e-01
-2.729231e-01
-2.635909e-01
-2.542167e-01
-2.448014e-01
-2.353473e-01
-2.258601e-01
-2.163489e-01
-2.068263e-01
-1.973069e-01
-1.878054e-01
-1.783347e-01
-1.689048e-01
-1.595222e-01
-1.501903e-01
-1.409104e-01
-1.316824e-01
-1.225060e-01
-1.133804e-01
-1.043040e-01
-9.527311e-02
-8.628079e-02
-7.731698e-02
-6.836885e-02
-5.942197e-02
-5.046145e-02
-4.147279e-02
-3.244215e-02
-2.335637e-02
-1.420307e-02
-4.970827e-03
4.350177e-03
1.376721e-02
2.328400e-02
3.290000e-02
4.261032e-02
5.240637e-02
6.227704e-02
7.221019e-02
8.219388e-02
9.221726e-02
1.022707e-01
1.123455e-01
1.224327e-01
1.325220e-01
1.426010e-01
1.526551e-01
1.626678e-01
1.726223e-01
1.825017e-01
1.922900e-01
2.019724e-01
2.115355e-01
2.209678e-01
2.302592e-01
2.394007e-01
2.483842e-01
2.572027e-01
2.658506e-01
2.743246e-01
2.826251e-01
2.907570e-01
2.987301e-01
3.065586e-01
3.142609e-01
3.218568e-01
3.293661e-01
3.368059e-01
3.441892e-01
3.515248e-01
3.588185e-01
3.660761e-01
3.733051e-01
3.805158e-01
3.877198e-01
3.949277e-01
4.021463e-01
4.093783e-01
4.166218e-01
4.238716e-01
4.311204e-01
4.383595e-01
4.455784e-01
4.527647e-01
4.599050e-01
4.669844e-01
4.739885e-01
4.809033e-01
4.877156e-01
4.944142e-01
5.009909e-01
5.074416e-01
5.137682e-01
5.199796e-01
5.260909e-01
5.321225e-01
5.380974e-01
5.440378e-01
5.499633e-01
5.558890e-01
5.618247e-01
5.677753e-01
5.737414e-01
5.797201e-01
5.857069e-01
5.916968e-01
5.976862e-01
6.036731e-01
6.096576e-01
6.156417e-01
6.216288e-01
6.276235e-01
6.336313e-01
6.396583e-01
6.457101e-01
6.517914e-01
6.579055e-01
6.640542e-01
6.702379e-01
6.764564e-01
6.827095e-01
6.889970e-01
6.953190e-01
7.016750e-01
7.080631e-01
7.144797e-01
7.209198e-01
7.273772e-01
7.338458e-01
7.403203e-01
7.467970e-01
7.532733e-01
7.597479e-01
7.662202e-01
7.726907e-01
7.791622e-01
7.856397e-01
7.921307e-01
7.986433e-01
8.051851e-01
8.117605e-01
8.183704e-01
8.250107e-01
8.316726e-01
8.383430e-01
8.450057e-01
8.516438e-01
8.582415e-01
8.647857e-01
8.712671e-01
8.776797e-01
8.840199e-01
8.902856e-01
8.964755e-01
9.025887e-01
9.086256e-01
9.145878e-01
9.204786e-01
9.263034e-01
9.320691e-01
9.377839e-01
9.434565e-01
9.490945e-01
9.547036e-01
9.602857e-01
9.658380e-01
9.713527e-01
9.768170e-01
9.822131e-01
9.875195e-01
9.927124e-01
9.977672e-01
1.002660e+00
1.007371e+00
1.011881e+00
1.016180e+00
1.020261e+00
1.024120e+00
1.027756e+00
1.031171e+00
1.034364e+00
1.037335e+00
1.040085e+00
1.042611e+00
1.044913e+00
1.046989e+00
1.048840e+00
1.050464e+00
1.051860e+00
1.053029e+00
1.053973e+00
1.054696e+00
1.055206e+00
1.055515e+00
1.055637e+00
1.055591e+00
1.055397e+00
1.055076e+00
1.054653e+00
1.054151e+00
1.053591e+00
1.052991e+00
1.052369e+00
1.051736e+00
1.051101e+00
1.050471e+00
1.049849e+00
1.049235e+00
1.048629e+00
1.048024e+00
1.047414e+00
1.046789e+00
1.046140e+00
1.045455e+00
1.044719e+00
1.043918e+00
1.043034e+00
1.042048e+00
1.040943e+00
1.039704e+00
1.038320e+00
1.036786e+00
1.035103e+00
1.033273e+00
1.031298e+00
1.029181e+00
1.026921e+00
1.024514e+00
1.021956e+00
1.019241e+00
1.016366e+00
1.013325e+00
1.010119e+00
1.006745e+00
1.003204e+00
9.994972e-01
9.956263e-01
9.915944e-01
9.874055e-01
9.830643e-01
9.785762e-01
9.739471e-01
9.691837e-01
9.642941e-01
9.592886e-01
9.541787e-01
9.489765e-01
9.436932e-01
9.383384e-01
9.329202e-01
9.274468e-01
9.219272e-01
9.163723e-01
9.107949e-01
9.052084e-01
8.996259e-01
8.940582e-01
8.885139e-01
8.829989e-01
8.775174e-01
8.720722e-01
8.666659e-01
8.613013e-01
8.559817e-01
8.507108e-01
8.454920e-01
8.403277e-01
8.352193e-01
8.301660e-01
8.251650e-01
8.202100e-01
8.152915e-01
8.103961e-01
8.055075e-01
8.006070e-01
7.956750e-01
7.906915e-01
7.856378e-01
7.804964e-01
7.752520e-01
7.698915e-01
7.644045e-01
7.587834e-01
7.530242e-01
7.471256e-01
7.410890e-01
7.349185e-01
7.286199e-01
7.222005e-01
7.156686e-01
7.090326e-01
7.023007e-01
6.954800e-01
6.885760e-01
6.815931e-01
6.745347e-01
6.674038e-01
6.602043e-01
6.529407e-01
6.456190e-01
6.382471e-01
6.308346e-01
6.233927e-01
6.159338e-01
6.084708e-01
6.010168e-01
5.935849e-01
5.861882e-01
5.788390e-01
5.715487e-01
5.643262e-01
5.571774e-01
5.501055e-01
5.431110e-01
5.361924e-01
5.293462e-01
5.225670e-01
5.158479e-01
5.091812e-01
5.025598e-01
4.959778e-01
4.894312e-01
4.829181e-01
4.764385e-01
4.699944e-01
4.635892e-01
4.572273e-01
4.509134e-01
4.446507e-01
4.384410e-01
4.322833e-01
4.261740e-01
4.201077e-01
4.140774e-01
4.080760e-01
4.020965e-01
3.961332e-01
3.901827e-01
3.842442e-01
3.783203e-01
3.724166e-01
3.665411e-01
3.607029e-01
3.549122e-01
3.491795e-01
3.435158e-01
3.379324e-01
3.324400e-01
3.270487e-01
3.217668e-01
3.166002e-01
3.115521e-01
3.066235e-01
3.018137e-01
2.971215e-01
2.925455e-01
2.880837e-01
2.837334e-01
2.794901e-01
2.753476e-01
2.712980e-01
2.673332e-01
2.634459e-01
2.596310e-01
2.558860e-01
2.522115e-01
2.486106e-01
2.450886e-01
2.416520e-01
2.383086e-01
2.350670e-01
2.319363e-01
2.289256e-01
2.260443e-01
2.233013e-01
2.207046e-01
2.182607e-01
2.159735e-01
2.138437e-01
2.118680e-01
2.100396e-01
2.083483e-01
2.067819e-01
2.053271e-01
2.039703e-01
2.026986e-01
2.014995e-01
2.003607e-01
1.992692e-01
1.982113e-01
1.971721e-01
1.961363e-01
1.950890e-01
1.940169e-01
1.929091e-01
1.917583e-01
1.905608e-01
1.893171e-01
1.880308e-01
1.867089e-01
1.853605e-01
1.839959e-01
1.826255e-01
1.812591e-01
1.799050e-01
1.785697e-01
1.772579e-01
1.759725e-01
1.747157e-01
1.734887e-01
1.722917e-01
1.711240e-01
1.699832e-01
1.688657e-01
1.677667e-01
1.666805e-01
1.656014e-01
1.645231e-01
1.634385e-01
1.623393e-01
1.612156e-01
1.600568e-01
1.588519e-01
1.575909e-01
1.562653e-01
1.548684e-01
1.533958e-01
1.518454e-01
1.502171e-01
1.485133e-01
1.467385e-01
1.448986e-01
1.430012e-01
1.410547e-01
1.390695e-01
1.370577e-01
1.350346e-01
1.330181e-01
1.310289e-01
1.290888e-01
1.272193e-01
1.254401e-01
1.237684e-01
1.222175e-01
1.207972e-01
1.195130e-01
1.183662e-01
1.173542e-01
1.164698e-01
1.157029e-01
1.150402e-01
1.144665e-01
1.139654e-01
1.135207e-01
1.131168e-01
1.127403e-01
1.123804e-01
1.120284e-01
1.116772e-01
1.113206e-01
1.109521e-01
1.105652e-01
1.101525e-01
1.097061e-01
1.092170e-01
1.086747e-01
1.080681e-01
1.073859e-01
1.066175e-01
1.057536e-01
1.047864e-01
1.037097e-01
1.025194e-01
1.012129e-01
9.978924e-02
9.824851e-02
9.659163e-02
9.481981e-02
9.293460e-02
9.093842e-02
8.883526e-02
8.663141e-02
8.433574e-02
8.195945e-02
7.951543e-02
7.701735e-02
7.447894e-02
7.191313e-02
6.933138e-02
6.674314e-02
6.415555e-02
6.157334e-02
5.899886e-02
5.643224e-02
5.387144e-02
5.131235e-02
4.874891e-02
4.617359e-02
4.357832e-02
4.095570e-02
3.830020e-02
3.560873e-02
3.288055e-02
3.011677e-02
2.731987e-02
2.449348e-02
2.164233e-02
1.877221e-02
1.588979e-02
1.300222e-02
1.011684e-02
7.241179e-03
4.383589e-03
1.553769e-03
-1.237059e-03
-3.976674e-03
-6.652897e-03
-9.254715e-03
-1.177307e-02
-1.420112e-02
-1.653411e-02
-1.876882e-02
-2.090304e-02
-2.293512e-02
-2.486354e-02
-2.668677e-02
-2.840323e-02
-3.001151e-02
-3.151063e-02
-3.290019e-02
-3.418040e-02
-3.535183e-02
-3.641505e-02
-3.737016e-02
-3.821653e-02
-3.895278e-02
-3.957701e-02
-4.008717e-02
-4.048161e-02
-4.075958e-02
-4.092169e-02
-4.097037e-02
-4.090998e-02
-4.074676e-02
-4.048842e-02
-4.014343e-02
-3.972025e-02
-3.922632e-02
-3.866728e-02
-3.804631e-02
-3.736390e-02
-3.661795e-02
-3.580422e-02
-3.491697e-02
-3.394964e-02
-3.289570e-02
-3.174919e-02
-3.050515e-02
-2.915978e-02
-2.771061e-02
-2.615666e-02
-2.449858e-02
-2.273866e-02
-2.088065e-02
-1.892927e-02
-1.688975e-02
-1.476731e-02
-1.256700e-02
-1.029358e-02
-7.951681e-03
-5.545795e-03
-3.080303e-03
-5.592937e-04
2.013644e-03
4.635565e-03
7.304268e-03
1.001835e-02
1.277726e-02
1.558140e-02
1.843217e-02
2.133201e-02
2.428414e-02
2.729203e-02
3.035875e-02
3.348645e-02
3.667612e-02
3.992769e-02
4.324027e-02
4.661256e-02
5.004318e-02
5.353097e-02
5.707527e-02
6.067618e-02
6.433464e-02
6.805236e-02
7.183152e-02
