EVENT_NAME: L_AQUILA
EVENT_ID: IT-2009-0009
EVENT_DATE_YYYYMMDD: 20090406
EVENT_TIME_HHMMSS: 013240
EVENT_LATITUDE_DEGREE: 42.3420
EVENT_LONGITUDE_DEGREE: 13.3800
EVENT_DEPTH_KM: 8.3
HYPOCENTER_REFERENCE: INGV-CNT_Seismic_Bulletin
MAGNITUDE_W: 6.1
MAGNITUDE_W_REFERENCE: INGV-CNT_Seismic_Bulletin
MAGNITUDE_L: 
MAGNITUDE_L_REFERENCE: 
FOCAL_MECHANISM: Normal faulting
NETWORK: IT
STATION_CODE: SUL
STATION_NAME: 
STATION_LATITUDE_DEGREE: 42.089000
STATION_LONGITUDE_DEGREE: 13.934000
STATION_ELEVATION_M: 556
LOCATION: 
SENSOR_DEPTH_M: 0.0
VS30_M/S: 
SITE_CLASSIFICATION_EC8: A (inferred from geology)
MORPHOLOGIC_CLASSIFICATION: 
EPICENTRAL_DISTANCE_KM: 53.7
EARTHQUAKE_BACKAZIMUTH_DEGREE: 121.4
DATE_TIME_FIRST_SAMPLE_YYYYMMDD_HHMMSS: 
DATE_TIME_FIRST_SAMPLE_PRECISION: 
SAMPLING_INTERVAL_S: 
NDATA: 105
DURATION_S: 
STREAM: HNN
UNITS: cm/s^2
INSTRUMENT: sensor = FBA-3 [Kinemetrics] | digitizer = Etna [Kinemetrics]
INSTRUMENT_ANALOG/DIGITAL: D
INSTRUMENTAL_FREQUENCY_HZ: 214.000
INSTRUMENTAL_DAMPING: 0.700000
FULL_SCALE_G: 1.0
N_BIT_DIGITAL_CONVERTER: 18
PGA_CM/S^2: -27.117931
TIME_PGA_S: 
BASELINE_CORRECTION: BASELINE REMOVED
FILTER_TYPE: BUTTERWORTH
FILTER_ORDER: 2
LOW_CUT_FREQUENCY_HZ: 0.040
HIGH_CUT_FREQUENCY_HZ: 40.000
LATE/NORMAL_TRIGGERED: NT
DATABASE_VERSION: 0.5
HEADER_FORMAT: DYNA 1.2
DATA_TYPE: ACCELERATION RESPONSE SPECTRUM
PROCESSING: manual (Paolucci et al., 2011)
DATA_TIMESTAMP_YYYYMMDD_HHMMSS: 20211011_160357.976
DATA_LICENSE: CC-BY3_0-IT (http://creativecommons.org/licenses/by/3.0/deed.en)
DATA_CITATION: Luzi L, Pacor F, Puglia R (2019). Italian Accelerometric Archive v 3.0 - Istituto Nazionale di Geofisica e Vulcanologia, Dipartimento della Protezione Civile Nazionale. doi: 10.13127/itaca.3.1
DATA_CREATOR: ITACA working group
ORIGINAL_DATA_MEDIATOR_CITATION: data obtained within the DPC-INGV data exchange agreements
ORIGINAL_DATA_MEDIATOR: Archive of Italian Department of Civil Protection
ORIGINAL_DATA_CREATOR_CITATION: Presidency Of Counsil Of Ministers-Civil Protection Department. (1972). Italian Strong Motion Network. Presidency of Counsil of Ministers - Civil Protection Department. https://doi.org/10.7914/SN/IT http://www.fdsn.org/networks/detail/IT/
ORIGINAL_DATA_CREATOR: network: IT (Italian Strong Motion Network (RAN)); owner: Presidency of Counsil of Ministers - Civil Protection Department (PCM - DPC)
USER1: 
USER2: 
USER3: 
USER4: 
USER5: 
    0.010000    27.169334
    0.020000    27.312302
    0.022000    27.395020
    0.025000    27.593706
    0.029000    27.774199
    0.030000    27.816940
    0.032000    27.876501
    0.035001    28.095093
    0.036000    28.516823
    0.040000    29.705040
    0.041999    30.563540
    0.044001    31.496819
    0.045000    31.732170
    0.046000    31.832695
    0.048001    31.949600
    0.050000    31.747047
    0.054999    33.273937
    0.059999    33.503113
    0.064998    29.988190
    0.067002    30.132347
    0.069999    30.213865
    0.075002    33.490749
    0.080000    32.543449
    0.084998    34.477123
    0.090001    37.056862
    0.095003    40.660122
    0.100000    39.640572
    0.109999    47.903664
    0.120005    54.267467
    0.130005    55.652840
    0.132996    55.331707
    0.139997    54.969986
    0.149993    47.426872
    0.160000    49.466854
    0.170010    53.214241
    0.179986    54.231483
    0.190006    54.357639
    0.200000    43.123989
    0.220022    42.056805
    0.239981    38.486778
    0.250000    46.188362
    0.260010    50.252949
    0.280034    52.987770
    0.290023    57.474854
    0.300030    62.435532
    0.320000    58.494648
    0.340020    49.409412
    0.350017    53.359447
    0.359971    53.348194
    0.379939    55.108456
    0.400000    59.153198
    0.419992    55.538216
    0.439947    58.479069
    0.450045    57.585751
    0.459982    56.163422
    0.480077    55.678650
    0.500000    58.586018
    0.550055    62.280247
    0.599880    53.677711
    0.650195    62.271252
    0.667111    64.702766
    0.699790    65.521759
    0.750188    64.121353
    0.800000    60.821373
    0.850340    54.109356
    0.900090    47.160137
    0.949668    44.381268
    1.000000    40.620327
    1.100110    35.231937
    1.200480    28.098209
    1.300390    23.268389
    1.400560    21.836716
    1.499250    20.012594
    1.600000    16.859882
    1.700680    19.773317
    1.798561    22.134155
    1.901141    23.533478
    2.000000    23.210766
    2.197802    18.719608
    2.398082    13.712440
    2.500000    11.333714
    2.597403     9.662646
    2.801121     7.904269
    3.003003     6.608784
    3.205128     7.125824
    3.401361     6.144355
    3.496503     5.397930
    3.597122     5.052558
    3.802281     4.698411
    4.000000     4.603508
    4.201681     4.350163
    4.405286     3.859242
    4.608295     3.982157
    4.807692     4.151498
    5.000000     4.510638
    5.494505     4.040996
    5.988024     3.516395
    6.493506     3.044374
    6.993007     2.420020
    7.518797     1.861658
    8.000000     1.625936
    8.474576     1.497890
    9.009009     1.377868
    9.523809     1.261577
   10.000000     1.149263
