EVENT_NAME: L_AQUILA
EVENT_ID: IT-2009-0009
EVENT_DATE_YYYYMMDD: 20090406
EVENT_TIME_HHMMSS: 013240
EVENT_LATITUDE_DEGREE: 42.3420
EVENT_LONGITUDE_DEGREE: 13.3800
EVENT_DEPTH_KM: 8.3
HYPOCENTER_REFERENCE: INGV-CNT_Seismic_Bulletin
MAGNITUDE_W: 6.1
MAGNITUDE_W_REFERENCE: INGV-CNT_Seismic_Bulletin
MAGNITUDE_L: 
MAGNITUDE_L_REFERENCE: 
FOCAL_MECHANISM: Normal faulting
NETWORK: IT
STATION_CODE: SUL
STATION_NAME: 
STATION_LATITUDE_DEGREE: 42.089000
STATION_LONGITUDE_DEGREE: 13.934000
STATION_ELEVATION_M: 556
LOCATION: 
SENSOR_DEPTH_M: 0.0
VS30_M/S: 
SITE_CLASSIFICATION_EC8: A (inferred from geology)
MORPHOLOGIC_CLASSIFICATION: 
EPICENTRAL_DISTANCE_KM: 53.7
EARTHQUAKE_BACKAZIMUTH_DEGREE: 121.4
DATE_TIME_FIRST_SAMPLE_YYYYMMDD_HHMMSS: 20090406_013236.000
DATE_TIME_FIRST_SAMPLE_PRECISION: seconds
SAMPLING_INTERVAL_S: 0.005000
NDATA: 20800
DURATION_S: 104.000
STREAM: HNN
UNITS: cm/s^2
INSTRUMENT: sensor = FBA-3 [Kinemetrics] | digitizer = Etna [Kinemetrics]
INSTRUMENT_ANALOG/DIGITAL: D
INSTRUMENTAL_FREQUENCY_HZ: 214.000
INSTRUMENTAL_DAMPING: 0.700000
FULL_SCALE_G: 1.0
N_BIT_DIGITAL_CONVERTER: 18
PGA_CM/S^2: -27.153959
TIME_PGA_S: 25.455000
BASELINE_CORRECTION: BASELINE NOT REMOVED
FILTER_TYPE: 
FILTER_ORDER: 
LOW_CUT_FREQUENCY_HZ: 
HIGH_CUT_FREQUENCY_HZ: 
LATE/NORMAL_TRIGGERED: NT
DATABASE_VERSION: 0.5
HEADER_FORMAT: DYNA 1.2
DATA_TYPE: ACCELERATION
PROCESSING: converted to cm/s^2
DATA_TIMESTAMP_YYYYMMDD_HHMMSS: 20211011_160356.633
DATA_LICENSE: CC-BY3_0-IT (http://creativecommons.org/licenses/by/3.0/deed.en)
DATA_CITATION: Luzi L, Pacor F, Puglia R (2019). Italian Accelerometric Archive v 3.0 - Istituto Nazionale di Geofisica e Vulcanologia, Dipartimento della Protezione Civile Nazionale. doi: 10.13127/itaca.3.1
DATA_CREATOR: ITACA working group
ORIGINAL_DATA_MEDIATOR_CITATION: data obtained within the DPC-INGV data exchange agreements
ORIGINAL_DATA_MEDIATOR: Archive of Italian Department of Civil Protection
ORIGINAL_DATA_CREATOR_CITATION: Presidency Of Counsil Of Ministers-Civil Protection Department. (1972). Italian Strong Motion Network. Presidency of Counsil of Ministers - Civil Protection Department. https://doi.org/10.7914/SN/IT http://www.fdsn.org/networks/detail/IT/
ORIGINAL_DATA_CREATOR: network: IT (Italian Strong Motion Network (RAN)); owner: Presidency of Counsil of Ministers - Civil Protection Department (PCM - DPC)
USER1: 
USER2: 
USER3: 
USER4: 
USER5: 
[...]
-1.728295
-2.508548
-3.161413
-3.496744
-3.425791
-2.917408
-2.248854
-1.665771
-1.245905
-0.949915
-0.460032
0.347151
1.337454
2.276240
2.793755
2.695872
2.087499
1.322233
0.693019
0.334271
0.241072
0.242008
0.292121
0.343404
0.253249
0.039452
-0.135941
-0.221413
-0.196123
0.004326
0.148809
0.024933
-0.288854
-0.654393
-0.793490
-0.584376
-0.146713
0.434964
0.893234
1.111714
1.326682
1.618926
1.850520
1.805325
1.374687
0.657659
-0.044849
-0.416242
-0.390484
-0.119550
0.171758
0.324202
0.257230
0.031490
-0.314847
-0.838450
-1.418723
-1.888233
-2.100625
-1.890574
-1.442608
-1.238412
-1.523162
-2.190077
-2.816949
-2.794703
-1.896663
-0.506163
0.872627
1.846773
2.267810
2.378338
2.372952
2.283265
2.194515
2.071810
1.843026
1.523853
1.160656
0.916885
0.854830
0.972618
1.172130
1.185244
1.075184
0.960675
0.836565
0.650635
0.327715
0.159112
0.179719
0.234047
0.374314
0.503108
0.634243
0.799098
0.946859
0.886912
0.446439
-0.257475
-1.071683
-1.743282
-2.093834
-2.066670
-1.730402
-1.275411
-0.792787
-0.541991
-0.690689
-1.069341
-1.480309
-1.667645
-1.423874
-0.658140
0.533316
1.747485
2.653722
3.017621
2.795628
2.299189
1.727346
1.202806
0.848976
0.675925
0.637287
0.556498
0.153726
-0.742909
-1.985647
-3.170311
-3.793203
-3.617810
-2.686985
-1.182445
0.468685
1.932713
3.054854
3.823399
4.281903
4.364331
4.065999
3.465353
2.809913
2.356326
2.108809
1.786591
1.003060
-0.277380
-1.650082
-2.590039
-2.930522
-2.727262
-2.145819
-1.623855
-1.313346
-1.055525
-0.829318
-0.716214
-0.819951
-1.198603
-1.640247
-1.752648
-1.357370
-0.535669
0.523949
1.536967
2.155877
2.245798
2.019356
1.725707
1.496221
1.472804
1.678405
1.953554
2.225425
2.394730
2.305745
2.038792
1.644919
1.119442
0.536126
-0.051406
-0.445748
-0.552061
-0.369877
0.137803
0.902601
1.729454
2.288417
2.445076
2.137378
1.551953
1.074013
0.748517
0.537296
0.238730
-0.210641
-0.650412
-1.063487
-1.368844
-1.602546
-1.798077
-1.939516
-2.048405
-1.994312
-1.669050
-1.078240
-0.313442
0.502171
1.114290
1.268140
0.913373
-0.013939
-1.273537
-2.344629
-2.967052
-2.957217
-2.368515
-1.597628
-0.952725
-0.692797
-0.783186
-0.957643
-1.104233
-1.075664
-0.874044
-0.652988
-0.423502
-0.099645
0.450888
1.211237
1.852861
2.069937
1.844665
1.309119
0.738682
0.317879
0.143657
0.212269
0.296570
0.361201
0.363777
0.273387
0.256995
0.328885
0.456976
0.609421
0.631667
0.479457
0.212503
-0.112993
-0.225394
0.029617
0.583662
1.356188
2.072044
2.565439
2.815767
2.801482
2.608995
2.332441
2.094290
1.878152
1.665994
1.551017
1.440020
1.197421
0.715734
0.099867
-0.403129
-0.761408
-1.026957
-1.424109
-2.115611
-2.983678
-3.854555
-4.485877
-4.641833
-4.295731
-3.596968
-2.689795
-1.761781
-0.960921
-0.329600
0.020952
0.001516
-0.304075
-0.624185
-0.707549
-0.525131
-0.145777
0.244116
0.361435
0.299848
0.256761
0.223977
0.396795
0.719949
0.952713
1.101411
1.069330
0.822281
0.393985
-0.274336
-1.186660
-2.100390
-2.697523
-2.863081
-2.623057
-2.186096
-1.687315
-1.124840
-0.535669
-0.001762
0.330993
0.360498
-0.040400
-0.801217
-1.531358
-1.986350
-2.200615
-2.328706
-2.468271
-2.580204
-2.534541
-2.216773
-1.641886
-0.946871
-0.304544
0.183700
0.411547
0.323031
-0.026350
-0.557915
-1.118049
-1.540257
-1.734149
-1.667177
-1.303277
-0.778737
-0.420692
-0.404768
-0.700993
-0.990426
-0.961155
-0.640108
-0.050235
0.701684
1.357358
1.804388
2.074152
2.201072
2.123327
1.875576
1.589655
1.271652
0.997205
0.903538
0.944751
0.996737
1.077994
1.243552
1.367194
1.310524
1.084317
0.796054
0.520202
0.115089
-0.625122
-1.623855
-2.706187
-3.690636
-4.351229
-4.642536
-4.611860
-4.368089
-3.971874
-3.362799
-2.568261
-1.749370
-1.098613
-0.621609
-0.210407
0.259337
0.746644
1.081038
1.201636
1.090873
0.922271
0.876842
1.022964
1.411920
1.930606
2.466386
2.943389
3.250620
3.328598
3.152503
2.813894
2.389344
1.776288
0.959036
0.108063
-0.575009
-0.947807
-0.958345
-0.630508
-0.080443
0.499829
0.903069
0.961612
0.745707
0.541746
0.591390
1.019686
1.673956
2.228235
2.600097
2.867987
3.065158
3.283404
3.527642
3.618500
3.433506
2.989287
2.470601
2.064317
1.721258
1.273760
0.625344
-0.166618
-0.883177
-1.262531
-1.300935
-1.132333
-0.807072
-0.484854
-0.269184
-0.140625
-0.043678
0.072001
0.079261
-0.111119
-0.488132
-1.034919
-1.626665
-2.158699
-2.627975
-3.038006
-3.324863
-3.345705
-3.061657
-2.605026
-2.098751
-1.587793
-1.108916
-0.702866
-0.346694
0.011351
0.341296
0.503576
0.403820
0.104317
-0.267779
-0.558617
-0.671019
-0.665633
-0.675702
-0.771243
-0.973800
-1.306087
-1.732041
-2.159869
-2.412773
-2.298029
-1.818684
-1.098847
-0.285107
0.479457
1.077994
1.453134
1.684728
1.864336
1.960814
1.951915
1.918195
1.944890
2.113492
2.343213
2.366630
2.097803
1.662013
1.253621
0.979174
0.739619
0.415528
-0.087468
-0.719960
-1.247545
-1.493189
-1.435817
-1.280094
-1.195325
-1.170034
-1.097910
-0.798173
-0.334517
0.093077
0.429110
0.675457
0.874501
1.037717
1.072608
0.882697
0.492102
0.020952
-0.397275
-0.615052
-0.635659
-0.700758
-1.001432
-1.535339
-2.123339
-2.549059
-2.752553
-2.813203
-2.925136
-3.277561
-3.924103
-4.704591
-5.319520
-5.551114
-5.306641
-4.683984
-3.852916
-2.965881
-2.104605
-1.268620
-0.549719
0.024933
0.493038
0.841951
1.023667
0.915480
0.461660
-0.212983
-0.845241
-1.161136
-1.102594
-0.765389
-0.329834
-0.067564
-0.050235
-0.231717
-0.448089
-0.542928
-0.602641
-0.616692
-0.584610
-0.497265
-0.204319
0.288140
0.881292
1.482405
1.950042
2.243222
2.388876
2.402223
2.410653
2.541320
2.876417
3.311036
3.606792
3.696947
3.525067
3.077803
2.510644
2.007179
1.656627
1.422926
1.251982
1.124360
1.011958
0.862090
0.616212
0.199624
-0.367301
-0.940782
-1.342852
-1.428792
-1.272601
-1.057633
-0.882474
-0.688582
-0.358637
0.088627
0.596541
1.015939
1.235590
1.202806
0.887380
0.472900
0.122348
-0.049299
-0.008553
0.266830
0.852957
1.614243
2.219103
2.381850
2.085626
1.475146
0.886912
0.593029
0.506152
0.419743
0.100570
-0.484152
-1.186192
-1.897365
-2.525877
-2.930756
-2.920452
-2.352591
-1.255506
0.081602
1.262286
1.927093
1.888221
1.325043
0.572656
-0.016046
-0.127511
0.193301
0.768422
1.457583
2.074386
2.543662
2.811552
2.858386
2.720460
2.498233
2.283968
2.025913
1.733201
1.470228
1.278912
1.181029
1.162295
1.257134
1.509569
1.898524
2.361712
2.828646
3.231886
3.524364
3.681960
3.691093
3.520383
3.153908
2.643184
2.078367
1.529707
1.064412
0.791605
0.777320
0.927891
1.095791
1.203509
1.194610
1.069096
0.910329
0.817832
0.829072
0.874969
0.876608
0.808933
0.674754
0.515753
0.344809
0.155132
0.002687
-0.075994
-0.018622
0.153961
0.286735
0.298912
0.177846
-0.004338
-0.171535
-0.337327
-0.525834
-0.769136
-1.023913
-1.210312
-1.276347
-1.165819
-0.983870
-0.873810
-0.902144
-1.074025
-1.231621
-1.270493
-1.235368
-1.225064
-1.284075
-1.312175
-1.199306
-0.903784
-0.480171
-0.055855
0.292121
0.619958
1.037014
1.546099
2.081177
2.543193
2.771509
2.693530
2.482543
2.289119
2.079772
1.737884
1.039590
-0.068500
-1.419659
-2.776906
-3.936514
-4.809733
-5.332400
-5.539874
-5.475711
-5.131950
-4.539501
-3.773767
-2.975014
-2.308333
-1.860366
-1.642589
-1.591071
-1.516840
-1.312175
-0.969819
-0.534732
-0.103392
0.262615
0.457444
0.438477
0.223509
-0.130087
-0.442469
-0.508505
-0.249748
0.191662
0.615743
0.908455
1.104455
1.312632
1.577712
1.899695
2.217698
2.494018
2.771743
3.029330
3.177559
3.169129
3.012001
2.766357
2.537105
2.423299
2.405502
2.441095
2.544130
2.639203
2.657000
2.558883
2.317220
2.031767
1.816097
1.748422
1.813755
1.910935
1.974395
1.908125
1.644450
1.167681
0.505683
-0.164978
-0.621375
-0.779205
-0.726283
-0.637533
-0.655798
-0.774756
-0.859291
-0.819717
-0.615052
-0.211812
0.346917
0.970744
1.535796
1.928967
2.101315
2.052374
1.810008
1.421521
0.933277
0.378295
-0.137815
-0.527239
-0.745953
-0.795597
-0.801451
-0.826273
-0.871468
-0.875683
-0.709891
-0.339669
0.187915
0.720183
1.156441
1.501139
1.749358
1.964560
2.130821
2.126137
1.831552
1.205616
0.362840
-0.555339
-1.406077
-2.082828
-2.530794
-2.711573
-2.688390
-2.530326
-2.330579
-2.226374
-2.237145
-2.314890
-2.348610
-2.207172
-1.851936
-1.328801
-0.800046
-0.396338
-0.167320
-0.078101
-0.036185
-0.072950
-0.160997
-0.255368
-0.439191
-0.690221
-0.912448
-1.022273
-0.945700
-0.744782
-0.513891
-0.278317
-0.084892
0.086520
0.271982
0.465641
0.674520
0.896747
1.130214
1.345650
1.575136
1.813287
2.058228
2.383490
2.756522
3.152971
3.545205
3.946572
4.408823
4.899408
5.359083
5.688794
5.827423
5.698864
5.219986
4.412335
3.352952
2.149788
0.900259
-0.316720
-1.461107
-2.479043
-3.242904
-3.577298
-3.311281
-2.463822
-1.245203
0.102912
1.373750
2.414400
3.112928
3.418988
3.391122
3.194419
2.985540
2.859088
2.834501
2.856981
2.919738
2.990926
3.048532
3.135174
3.250854
3.403298
3.432336
3.115036
2.408546
1.412154
0.402883
-0.433337
-1.131631
-1.795970
-2.539693
-3.368419
-4.096920
-4.514679
-4.575329
-4.384481
-4.154526
-4.072801
-4.215879
-4.510464
-4.767582
-4.879282
-4.881389
-4.836428
-4.754001
-4.661035
-4.598746
-4.608581
-4.783974
-5.163095
-5.714564
-6.365556
-6.940443
-7.298722
-7.481843
-7.660046
-8.037293
-8.704442
-9.559396
-10.400530
-11.012180
-11.239090
-11.019440
-10.379930
-9.385642
-8.084127
-6.580289
-5.039688
-3.642397
-2.568496
-1.873714
-1.475626
-1.250589
-1.042880
-0.759301
-0.397041
-0.010661
0.322563
0.534252
0.559543
0.365416
-0.060539
-0.713404
-1.520118
-2.309270
-2.996089
-3.632094
-4.313996
-5.113217
-5.951544
-6.681217
-7.129183
-7.204351
-6.961986
-6.488964
-5.911501
-5.313900
-4.668997
-3.965551
-3.256720
-2.635000
-2.201552
-1.956142
-1.877227
-1.933193
-2.105776
-2.429633
-2.868232
-3.358818
-3.738875
-3.878440
-3.766976
-3.421575
-2.915301
-2.306460
-1.647506
-0.853437
0.129139
1.229268
2.400584
3.552464
4.635733
5.618075
6.403011
6.941368
7.316273
7.628655
7.932139
8.273090
8.654787
9.025009
9.393124
9.767326
10.030300
10.118350
10.016720
9.814629
9.729626
9.914385
10.424170
11.148930
11.899680
12.508980
12.781790
12.620450
12.049080
11.155250
10.138020
9.187055
8.411953
7.878983
7.580885
7.527026
7.695394
7.995131
8.363714
8.719886
9.010724
9.157549
9.073013
8.768359
8.338892
7.948999
7.676192
7.502204
7.331260
7.031289
6.485439
5.728135
4.961932
4.332015
3.976546
3.917067
4.183786
4.856087
5.786911
6.768550
7.556765
7.983891
8.068192
7.926285
7.815523
7.895843
8.131184
8.417338
8.600927
8.677032
8.754074
8.914012
9.296880
9.908063
10.627200
11.348210
11.978360
12.495170
12.833540
12.914330
12.704520
12.224230
11.599240
10.954330
10.343380
9.767093
9.168321
8.468622
7.645281
6.746304
5.887838
5.158166
4.614658
4.295485
4.100890
3.934161
3.714510
3.315251
2.746921
2.093588
1.503012
1.111949
0.914544
0.836097
0.749454
0.618553
0.414592
0.112044
-0.264266
-0.830723
-1.732978
-3.057910
-4.743229
-6.555702
-8.239147
-9.610210
-10.598640
-11.199750
-11.517290
-11.677690
-11.769490
-11.870180
-12.004130
-12.246490
-12.632400
-13.112220
-13.692960
-14.369710
-15.183680
-16.141199
-17.163589
-18.122511
-18.734159
-18.802771
-18.321091
-17.471279
-16.576521
-15.864880
-15.501680
-15.504030
-15.774490
-16.247749
-16.822870
-17.407120
-17.907310
-18.208450
-18.241699
-17.987860
-17.471750
-16.776039
-15.939110
-15.010160
-14.155210
-13.549410
-13.283860
-13.283400
-13.388070
-13.438180
-13.355990
-13.165840
-12.832850
-12.397060
-11.889380
-11.202100
-10.245750
-8.981934
-7.514392
-5.945924
-4.371133
-2.910383
-1.618001
-0.549251
0.365650
1.203743
2.025913
2.894916
3.776799
4.646271
5.349482
5.717597
5.728135
5.423012
4.959824
4.496402
4.138123
3.922452
3.759939
3.580799
3.387609
3.183179
3.013406
2.903580
2.845272
2.905220
3.126042
3.548015
4.144914
4.790285
5.400063
5.926008
6.450782
7.045573
7.636851
8.153195
8.565568
8.918695
9.335986
9.948808
10.817580
11.894290
13.030480
14.127570
15.186480
16.186150
17.094959
17.823000
18.239111
18.238649
17.790680
16.964300
15.813590
14.447440
12.928620
11.237440
9.471805
7.694223
6.015929
4.631284
3.575179
2.817640
2.301999
2.024742
2.117005
2.698448
3.807709
5.368684
7.239934
9.198763
10.951520
12.251870
12.908240
12.866560
12.167100
10.889940
9.173707
7.143690
4.916502
2.609463
0.370568
-1.705814
-3.593456
-5.278775
-6.755214
-7.952055
-8.854076
-9.478373
-9.840399
-10.021410
-10.047410
-9.915567
-9.664772
-9.332017
-8.954301
-8.600002
-8.400724
-8.518980
-9.045159
-9.946244
-11.096950
-12.281620
-13.242650
-13.906290
-14.439260
-15.134270
-16.171410
-17.572680
-19.389130
-21.536699
-23.697149
-25.494169
-26.666660
-27.153959
-27.054911
-26.558470
-25.845421
-24.901960
-23.573509
-21.784220
-19.583731
-17.219080
-14.998220
-13.123930
-11.624300
-10.333560
-9.038603
-7.550220
-5.895343
-4.285193
-2.908978
-1.859430
-1.005413
-0.177389
0.811509
2.054950
3.421564
4.830328
6.117324
7.209492
8.113386
8.734170
9.140923
9.288449
9.034142
8.351771
7.271547
5.867934
4.272536
2.739662
1.527131
0.837970
0.762333
1.159017
1.746314
2.327289
2.809210
3.266075
3.825975
4.352622
4.598969
4.381191
3.684536
2.821855
2.117473
1.728986
1.752871
1.931777
1.896885
1.472570
0.636116
-0.339669
-1.039602
-1.056696
-0.257241
1.211939
3.070075
4.834777
6.129735
6.827093
6.929191
6.503236
5.656947
4.483991
2.961186
1.081038
-1.167927
-3.625069
-5.963721
-8.025819
-9.588667
-10.452280
-10.583890
-10.014620
-8.772820
-6.974865
-4.864295
-2.697289
-0.671956
1.263925
3.081784
4.794734
6.374911
7.620225
8.661577
9.567112
10.344090
11.017560
11.600870
12.131500
12.485800
12.700770
12.749710
12.414380
11.572540
10.290230
8.799738
7.289577
5.923901
4.820727
3.872809
2.883910
1.747251
0.404288
-0.932352
-1.960825
-2.488175
-2.340648
-1.576787
-0.316252
1.231375
2.746453
3.903953
4.395710
4.169033
3.364426
2.214185
0.979877
-0.164510
-1.125074
-1.828754
-2.245810
-2.393102
-2.480916
-2.846923
-3.719908
-5.287673
-7.279988
-9.143042
-10.535880
-11.157370
-11.171890
-11.032090
-10.949190
-11.034660
-11.028580
-10.625570
-9.897068
-8.865316
-7.768232
-6.852395
-6.048959
-5.541279
-5.473370
-5.826029
-6.534626
-7.406440
-8.137752
-8.322512
-7.844337
-6.827339
-5.439884
-3.822942
-2.066904
-0.166852
1.948637
4.159901
6.288034
8.166308
9.673893
10.839360
11.795000
12.574080
12.979200
12.847590
12.178570
11.029970
9.495456
7.739183
5.914065
4.102061
2.435241
1.050128
0.028212
-0.597724
-0.907999
-1.122498
-1.417083
-1.803697
-2.263138
-2.667315
-2.810861
-2.581609
-1.969724
-1.048266
0.085817
1.262286
2.276006
3.100751
3.795533
4.308599
4.551198
4.470175
4.065999
3.441000
2.821387
2.395432
2.220039
2.270620
2.329396
2.207863
1.933884
1.589655
1.426907
1.641640
2.170630
2.817406
3.323915
3.633019
3.757129
3.783356
3.828551
3.871872
3.891776
3.839088
3.816139
3.989191
4.585387
5.786911
7.498223
9.473678
11.357100
12.961870
14.243250
15.157210
15.735140
16.030899
16.049860
15.675190
14.811570
13.526450
11.922390
10.039670
8.009649
6.161114
4.771552
3.896460
3.473549
3.311504
3.243126
3.191141
3.083189
2.918567
2.737320
2.594711
2.366161
1.842558
0.929531
-0.487898
-2.339009
-4.332027
-6.130684
-7.468027
-8.244065
-8.485962
-8.394636
-8.234464
-8.179200
-8.264906
-8.423439
-8.322980
-7.604079
-6.230674
-4.191994
-1.785666
0.547131
2.604546
4.280966
5.669592
6.723590
7.290749
7.327279
6.784708
5.770051
4.619810
3.621545
2.774085
1.994534
1.197421
0.161454
-1.165117
-2.721408
-4.460820
-6.046383
-7.278584
-8.126043
-8.653862
-9.169971
-9.833140
-10.900250
-12.477150
-14.199700
-15.698620
-16.655439
-16.959860
-16.765730
-16.230650
-15.420430
-14.322640
-12.914580
-11.234880
-9.469708
-7.964700
-7.082115
-6.917962
-7.325886
-8.130492
-9.013312
-9.695448
-10.195400
-10.539160
-10.717130
-10.760920
-10.678730
-10.492330
-10.161910
-9.660557
-8.938612
-7.895152
-6.485217
-4.686091
-2.557724
-0.179965
2.374123
5.066371
7.885305
10.679420
13.200250
15.130510
16.192240
16.345619
15.726010
14.514650
12.959060
11.303950
9.726581
8.418978
7.499159
7.019814
6.938792
7.150012
7.548803
7.948999
8.378232
8.861324
9.304139
9.657501
9.687006
9.235293
8.277306
6.803442
5.088149
3.552230
2.458658
1.948168
1.913043
2.020761
1.947934
1.489430
0.660704
-0.428419
-1.664132
-2.955110
-4.262478
-5.540811
-6.787764
-8.071950
-9.406951
-10.728140
-11.883060
-12.781100
-13.437480
-13.831350
-14.039060
-14.192440
-14.260120
-14.084490
-13.589690
-12.786490
-11.839510
-10.966750
-10.341990
-10.173860
-10.547590
-11.477950
-12.846900
-14.429190
-16.002810
-17.358419
-18.429979
-19.232241
-19.842951
-20.367729
-20.793680
-21.008890
-20.902571
-20.369841
-19.412781
-18.176840
-16.850031
-15.648740
-14.736650
-14.173940
-13.996910
-14.168320
-14.614180
-15.256270
-15.977280
-16.736231
-17.382299
-17.770550
-17.848301
-17.459110
-16.632490
-15.443610
-13.915650
-12.218860
-10.474760
-8.744485
-7.117240
-5.659534
-4.375583
-3.371229
-2.761451
-2.446727
-2.261733
-2.011172
-1.552433
-0.834235
0.068957
0.963251
1.737884
2.359604
2.870797
3.429994
4.131800
4.945071
5.794170
6.472794
6.836460
6.925912
6.841846
6.729678
6.725697
6.933640
7.275293
7.585802
7.791169
7.842920
7.831914
7.984125
8.443565
9.254729
10.419020
11.766430
13.094640
14.290780
15.141750
15.500970
15.374990
14.842720
14.085180
13.200720
12.267090
11.323150
10.263300
9.076995
7.830276
6.685420
5.784335
5.162615
4.862175
4.686314
4.450974
4.090586
3.428355
2.417913
1.116164
-0.361447
-1.891043
-3.453423
-5.031258
-6.641408
-8.299095
-9.961699
-11.510030
-12.709910
-13.304000
-13.138910
-12.157040
-10.441980
-8.213155
-5.745007
-3.390899
-1.414273
0.027509
0.911734
1.429483
1.790338
2.132460
2.486993
2.873841
3.320168
3.782887
4.233430
4.602013
4.723781
4.463385
3.811222
2.878758
1.862228
1.021559
0.536126
0.420212
0.630027
1.065115
1.630400
2.287714
2.996312
3.779609
4.695212
5.831169
7.267332
9.029926
11.096710
13.259260
15.267740
16.955400
18.222490
19.101330
19.638750
19.874319
19.790020
19.309509
18.440269
17.188160
