EVENT_NAME: L_AQUILA
EVENT_ID: IT-2009-0009
EVENT_DATE_YYYYMMDD: 20090406
EVENT_TIME_HHMMSS: 013240
EVENT_LATITUDE_DEGREE: 42.3420
EVENT_LONGITUDE_DEGREE: 13.3800
EVENT_DEPTH_KM: 8.3
HYPOCENTER_REFERENCE: INGV-CNT_Seismic_Bulletin
MAGNITUDE_W: 6.1
MAGNITUDE_W_REFERENCE: INGV-CNT_Seismic_Bulletin
MAGNITUDE_L: 
MAGNITUDE_L_REFERENCE: 
FOCAL_MECHANISM: Normal faulting
NETWORK: IT
STATION_CODE: SUL
STATION_NAME: 
STATION_LATITUDE_DEGREE: 42.089000
STATION_LONGITUDE_DEGREE: 13.934000
STATION_ELEVATION_M: 556
LOCATION: 
SENSOR_DEPTH_M: 0.0
VS30_M/S: 
SITE_CLASSIFICATION_EC8: A (inferred from geology)
MORPHOLOGIC_CLASSIFICATION: 
EPICENTRAL_DISTANCE_KM: 53.7
EARTHQUAKE_BACKAZIMUTH_DEGREE: 121.4
DATE_TIME_FIRST_SAMPLE_YYYYMMDD_HHMMSS: 20090406_013236.000
DATE_TIME_FIRST_SAMPLE_PRECISION: seconds
SAMPLING_INTERVAL_S: 0.005000
NDATA: 20800
DURATION_S: 104.000
STREAM: HNN
UNITS: cm/s
INSTRUMENT: sensor = FBA-3 [Kinemetrics] | digitizer = Etna [Kinemetrics]
INSTRUMENT_ANALOG/DIGITAL: D
INSTRUMENTAL_FREQUENCY_HZ: 214.000
INSTRUMENTAL_DAMPING: 0.700000
FULL_SCALE_G: 1.0
N_BIT_DIGITAL_CONVERTER: 18
PGV_CM/S: -3.725046
TIME_PGV_S: 27.630000
BASELINE_CORRECTION: BASELINE REMOVED
FILTER_TYPE: BUTTERWORTH
FILTER_ORDER: 2
LOW_CUT_FREQUENCY_HZ: 0.040
HIGH_CUT_FREQUENCY_HZ: 40.000
LATE/NORMAL_TRIGGERED: NT
DATABASE_VERSION: 0.5
HEADER_FORMAT: DYNA 1.2
DATA_TYPE: VELOCITY
PROCESSING: manual (Paolucci et al., 2011)
DATA_TIMESTAMP_YYYYMMDD_HHMMSS: 20211011_160357.045
DATA_LICENSE: CC-BY3_0-IT (http://creativecommons.org/licenses/by/3.0/deed.en)
DATA_CITATION: Luzi L, Pacor F, Puglia R (2019). Italian Accelerometric Archive v 3.0 - Istituto Nazionale di Geofisica e Vulcanologia, Dipartimento della Protezione Civile Nazionale. doi: 10.13127/itaca.3.1
DATA_CREATOR: ITACA working group
ORIGINAL_DATA_MEDIATOR_CITATION: data obtained within the DPC-INGV data exchange agreements
ORIGINAL_DATA_MEDIATOR: Archive of Italian Department of Civil Protection
ORIGINAL_DATA_CREATOR_CITATION: Presidency Of Counsil Of Ministers-Civil Protection Department. (1972). Italian Strong Motion Network. Presidency of Counsil of Ministers - Civil Protection Department. https://doi.org/10.7914/SN/IT http://www.fdsn.org/networks/detail/IT/
ORIGINAL_DATA_CREATOR: network: IT (Italian Strong Motion Network (RAN)); owner: Presidency of Counsil of Ministers - Civil Protection Department (PCM - DPC)
USER1: 
USER2: 
USER3: 
USER4: 
USER5: 
[...]
0.108735
0.117254
0.123364
0.126248
0.125403
0.121252
0.115112
0.108589
0.102955
0.098843
0.096259
0.094831
0.094183
0.094126
0.094478
0.094755
0.094105
0.091565
0.086416
0.078391
0.067603
0.054343
0.039062
0.022552
0.006006
-0.009294
-0.022416
-0.032956
-0.040924
-0.046547
-0.050091
-0.051719
-0.051539
-0.049888
-0.047565
-0.045687
-0.045202
-0.046445
-0.049056
-0.052331
-0.055730
-0.059184
-0.063066
-0.067993
-0.074629
-0.083412
-0.094209
-0.106074
-0.117398
-0.126453
-0.131969
-0.133449
-0.131168
-0.125926
-0.118664
-0.110118
-0.100796
-0.091120
-0.081436
-0.071797
-0.061843
-0.051099
-0.039574
-0.028053
-0.017688
-0.009240
-0.002723
0.002262
0.005883
0.007727
0.007062
0.003501
-0.002484
-0.009689
-0.016899
-0.023552
-0.029734
-0.035599
-0.040821
-0.044647
-0.046446
-0.046130
-0.044046
-0.040604
-0.036104
-0.030908
-0.025690
-0.021429
-0.019041
-0.018912
-0.020677
-0.023487
-0.026698
-0.030479
-0.035752
-0.043478
-0.053912
-0.066432
-0.080040
-0.094118
-0.108945
-0.125627
-0.145425
-0.168877
-0.195270
-0.222796
-0.249234
-0.272704
-0.292084
-0.306980
-0.317456
-0.323847
-0.326669
-0.326513
-0.323955
-0.319660
-0.314626
-0.310292
-0.308192
-0.309253
-0.313241
-0.318811
-0.324175
-0.327968
-0.329822
-0.330384
-0.330773
-0.331862
-0.333889
-0.336604
-0.339662
-0.342826
-0.345842
-0.348206
-0.349092
-0.347610
-0.343203
-0.335887
-0.326216
-0.315040
-0.303201
-0.291225
-0.279074
-0.266138
-0.251630
-0.235193
-0.217238
-0.198848
-0.181393
-0.166050
-0.153371
-0.143180
-0.134864
-0.127797
-0.121549
-0.115895
-0.110795
-0.106481
-0.103518
-0.102690
-0.104601
-0.109209
-0.115658
-0.122655
-0.129132
-0.134640
-0.139127
-0.142441
-0.144113
-0.143581
-0.140617
-0.135603
-0.129528
-0.123702
-0.119285
-0.116829
-0.116133
-0.116400
-0.116452
-0.114877
-0.110353
-0.102319
-0.091537
-0.079944
-0.069725
-0.062217
-0.057366
-0.054152
-0.051641
-0.049803
-0.049512
-0.051914
-0.057797
-0.067339
-0.080053
-0.094664
-0.109034
-0.120470
-0.126562
-0.126192
-0.120150
-0.110934
-0.101744
-0.095154
-0.092126
-0.091826
-0.092257
-0.091298
-0.087488
-0.080292
-0.069961
-0.057279
-0.043293
-0.029064
-0.015413
-0.002794
0.008601
0.018662
0.027336
0.034735
0.041158
0.047021
0.052823
0.059178
0.066793
0.076308
0.088109
0.102227
0.118364
0.135991
0.154427
0.172866
0.190401
0.206134
0.219367
0.229753
0.237369
0.242765
0.246903
0.250874
0.255465
0.260888
0.266827
0.272709
0.278041
0.282693
0.286917
0.291094
0.295410
0.299737
0.303761
0.307176
0.309777
0.311457
0.312212
0.312236
0.311982
0.312032
0.312763
0.314078
0.315472
0.316377
0.316466
0.315670
0.313978
0.311270
0.307370
0.302262
0.296279
0.290074
0.284326
0.279335
0.274823
0.270161
0.264858
0.258907
0.252659
0.246399
0.240105
0.233648
0.227197
0.221364
0.216943
0.214472
0.214029
0.215431
0.218645
0.223964
0.231797
0.242254
0.254826
0.268429
0.281900
0.294549
0.306212
0.316705
0.325204
0.330127
0.329678
0.322653
0.308918
0.289335
0.265380
0.238726
0.210983
0.183633
0.158059
0.135463
0.116635
0.101697
0.090056
0.080637
0.072330
0.064459
0.057026
0.050568
0.045770
0.043099
0.042609
0.043893
0.046126
0.048240
0.049226
0.048556
0.046538
0.044284
0.043147
0.043992
0.046877
0.051337
0.056943
0.063623
0.071588
0.081056
0.092087
0.104631
0.118589
0.133730
0.149553
0.165327
0.180349
0.194234
0.207052
0.219218
0.231234
0.243511
0.256271
0.269463
0.282706
0.295389
0.306946
0.317181
0.326403
0.335253
0.344333
0.353910
0.363783
0.373293
0.381434
0.387115
0.389604
0.388965
0.386120
0.382372
0.378694
0.375321
0.371908
0.368079
0.363872
0.359834
0.356851
0.355880
0.357675
0.362528
0.370151
0.379748
0.390239
0.400513
0.409595
0.416715
0.421337
0.423242
0.422628
0.420111
0.416514
0.412521
0.408429
0.404207
0.399813
0.395551
0.392171
0.390602
0.391508
0.395007
0.400751
0.408247
0.417115
0.427099
0.437794
0.448326
0.457329
0.463314
0.465165
0.462464
0.455511
0.445165
0.432615
0.419118
0.405740
0.393128
0.381393
0.370166
0.358914
0.347351
0.335736
0.324871
0.315760
0.309116
0.305016
0.302937
0.302096
0.301815
0.301650
0.301324
0.300623
0.299293
0.297013
0.293567
0.289092
0.284148
0.279495
0.275743
0.273166
0.271741
0.271327
0.271819
0.273212
0.275572
0.278979
0.283496
0.289142
0.295907
0.303790
0.312848
0.323240
0.335216
0.349010
0.364741
0.382466
0.402300
0.424435
0.448989
0.475795
0.504279
0.533435
0.561858
0.587899
0.609953
0.626764
0.637590
0.642169
0.640591
0.633208
0.620746
0.604590
0.586960
0.570669
0.558439
0.552183
0.552654
0.559503
0.571530
0.586989
0.603992
0.620976
0.637070
0.652141
0.666535
0.680717
0.695029
0.709631
0.724554
0.739828
0.755602
0.772082
0.789208
0.806213
0.821556
0.833443
0.840648
0.842972
0.840995
0.835359
0.826228
0.813321
0.796469
0.776212
0.753909
0.731208
0.709289
0.688381
0.667832
0.646666
0.624251
0.600627
0.576314
0.551885
0.527720
0.504001
0.480763
0.457847
0.434798
0.410825
0.384943
0.356295
0.324551
0.290108
0.253851
0.216519
0.178096
0.137699
0.094062
0.046288
-0.005588
-0.060483
-0.116541
-0.171576
-0.223455
-0.270299
-0.310602
-0.343418
-0.368602
-0.386923
-0.399898
-0.409313
-0.416666
-0.422801
-0.427861
-0.431541
-0.433467
-0.433495
-0.431861
-0.429176
-0.426355
-0.424526
-0.424896
-0.428517
-0.435986
-0.447311
-0.462162
-0.480343
-0.502055
-0.527713
-0.557452
-0.590703
-0.626140
-0.662038
-0.696791
-0.729277
-0.758917
-0.785447
-0.808660
-0.828375
-0.844629
-0.857867
-0.868893
-0.878635
-0.887936
-0.897514
-0.908054
-0.920247
-0.934645
-0.951366
-0.969892
-0.989162
-1.007903
-1.024978
-1.039581
-1.051197
-1.059368
-1.063471
-1.062749
-1.056555
-1.044547
-1.026740
-1.003467
-0.975390
-0.943472
-0.908768
-0.872098
-0.833866
-0.794106
-0.752670
-0.709404
-0.664216
-0.617095
-0.568217
-0.518110
-0.467634
-0.417646
-0.368486
-0.319635
-0.269822
-0.217555
-0.161763
-0.102231
-0.039742
0.024071
0.087102
0.147287
0.203117
0.253947
0.300011
0.342172
0.381610
0.419591
0.457327
0.495844
0.535858
0.577714
0.621394
0.666496
0.712222
0.757498
0.801318
0.843145
0.883078
0.921626
0.959243
0.995894
1.030899
1.063191
1.091895
1.116832
1.138636
1.158546
1.178171
1.199332
1.223808
1.252833
1.286615
1.324227
1.364000
1.404265
1.444062
1.483435
1.523112
1.563825
1.605790
1.648690
1.692089
1.735914
1.780683
1.827367
1.876966
1.930092
1.986820
2.046796
2.109356
2.173535
2.238061
2.301518
2.362679
2.420810
2.475726
2.527571
2.576476
2.622299
2.664588
2.702790
2.736585
2.766116
2.792022
2.815265
2.836826
2.857385
2.877108
2.895607
2.912102
2.925806
2.936363
2.944093
2.949829
2.954485
2.958633
2.962379
2.965495
2.967626
2.968381
2.967191
2.963016
2.954196
2.938749
2.915041
2.882416
2.841417
2.793533
2.740698
2.684776
2.627198
2.568820
2.510000
2.450730
2.390721
2.329470
2.266385
2.200913
2.132549
2.060731
1.984770
1.903985
1.818070
1.727583
1.634217
1.540530
1.449126
1.361749
1.278779
1.199329
1.121761
1.044307
0.965494
0.884314
0.800243
0.713247
0.623807
0.532889
0.441801
0.351947
0.264604
0.180808
0.101297
0.026343
-0.044494
-0.112393
-0.178883
-0.245228
-0.311993
-0.379025
-0.445747
-0.511480
-0.575627
-0.637692
-0.697104
-0.752961
-0.803987
-0.848806
-0.886331
-0.916004
-0.937843
-0.952386
-0.960527
-0.963252
-0.961352
-0.955248
-0.944988
-0.930394
-0.911326
-0.888019
-0.861355
-0.832848
-0.804271
-0.777112
-0.752180
-0.729515
-0.708639
-0.688979
-0.670206
-0.652287
-0.635313
-0.619310
-0.604167
-0.589648
-0.575380
-0.560772
-0.544985
-0.527077
-0.506314
-0.482408
-0.455487
-0.425775
-0.393306
-0.357969
-0.319786
-0.279077
-0.236297
-0.191660
-0.144820
-0.094856
-0.040603
0.018866
0.083958
0.154638
0.230672
0.311747
0.397341
0.486487
0.577641
0.668789
0.757777
0.842645
0.921839
0.994199
1.058840
1.115057
1.162403
1.200889
1.231171
1.254519
1.272485
1.286531
1.297944
1.308109
1.318859
1.332549
1.351748
1.378751
1.415083
1.461107
1.515831
1.577000
1.641487
1.705825
1.766687
1.821214
1.867161
1.902929
1.927552
1.940717
1.942715
1.934276
1.916346
1.889961
1.856279
1.816626
1.772448
1.725152
1.675966
1.625886
1.575734
1.526224
1.477962
1.431410
1.386787
1.343892
1.301876
1.259195
1.213882
1.164077
1.108635
1.047521
0.981692
0.912366
0.840105
0.764336
0.683509
0.595553
0.498403
0.390678
0.272395
0.145254
0.012217
-0.123372
-0.258650
-0.391634
-0.520991
-0.645379
-0.762970
-0.871573
-0.969335
-1.055498
-1.130682
-1.196489
-1.254643
-1.306162
-1.351013
-1.388459
-1.417866
-1.439408
-1.454148
-1.463496
-1.468448
-1.469113
-1.464775
-1.454397
-1.437215
-1.413092
-1.382513
-1.346389
-1.305828
-1.261997
-1.216131
-1.169703
-1.124558
-1.082794
-1.046457
-1.017183
-0.995802
-0.981982
-0.974104
-0.969567
-0.965521
-0.959744
-0.951161
-0.939690
-0.925591
-0.908901
-0.889495
-0.867727
-0.844962
-0.823361
-0.804948
-0.790610
-0.779731
-0.770646
-0.761662
-0.752119
-0.742863
-0.735798
-0.732771
-0.734363
-0.739177
-0.744037
-0.745010
-0.738722
-0.723436
-0.699497
-0.668987
-0.634873
-0.600186
-0.567549
-0.539072
-0.516545
-0.501731
-0.496471
-0.502394
-0.520374
-0.550126
-0.590149
-0.637881
-0.690006
-0.742853
-0.792767
-0.836418
-0.871194
-0.895588
-0.909244
-0.912558
-0.906140
-0.890562
-0.866460
-0.834757
-0.796626
-0.753182
-0.705266
-0.653484
-0.598314
-0.540179
-0.479542
-0.416970
-0.353216
-0.289471
-0.227589
-0.169866
-0.118358
-0.074245
-0.037616
-0.007692
0.016606
0.035969
0.050286
0.058794
0.060746
0.056226
0.046605
0.034432
0.022902
0.015181
0.013783
0.020053
0.033777
0.053080
0.074854
0.095632
0.112521
0.123768
0.128828
0.128089
0.122538
0.113542
0.102601
0.090872
0.078497
0.064121
0.045066
0.018338
-0.017897
-0.063282
-0.115360
-0.170754
-0.226737
-0.282175
-0.337266
-0.392405
-0.447148
-0.500047
-0.549314
-0.593646
-0.632640
-0.666712
-0.696868
-0.724644
-0.752064
-0.781299
-0.814096
-0.851117
-0.891441
-0.932671
-0.971738
-1.005875
-1.033136
-1.052332
-1.062636
-1.063225
-1.053290
-1.032426
-1.001035
-0.960350
-0.912032
-0.857620
-0.798327
-0.735395
-0.670622
-0.606444
-0.545550
-0.490387
-0.442823
-0.404012
-0.374415
-0.353872
-0.341603
-0.336211
-0.335851
-0.338633
-0.343161
-0.348886
-0.356026
-0.365112
-0.376438
-0.389627
-0.403486
-0.416238
-0.425968
-0.431072
-0.430597
-0.424417
-0.413081
-0.397417
-0.378291
-0.356704
-0.333979
-0.311724
-0.291477
-0.274190
-0.259871
-0.247652
-0.236300
-0.224921
-0.213447
-0.202544
-0.192984
-0.184896
-0.177395
-0.168898
-0.157964
-0.144027
-0.127516
-0.109389
-0.090534
-0.071421
-0.052150
-0.032748
-0.013390
0.005713
0.024762
0.044857
0.068152
0.097400
0.135023
0.182261
0.238915
0.303720
0.374932
0.450760
0.529583
0.609925
0.690197
0.768466
0.842538
0.910269
0.969814
1.019855
1.059989
1.091099
1.115227
1.134889
1.152275
1.168786
1.185000
1.200927
1.216328
1.231005
1.244936
1.258077
1.269912
1.279116
1.283598
1.280946
1.269215
1.247705
1.217305
1.180220
1.139249
1.096945
1.054931
1.013637
0.972574
0.931021
0.888934
0.847647
0.809899
0.779121
0.758346
0.749240
0.751773
0.764687
0.786279
0.814829
0.848473
0.884904
0.921364
0.955089
0.984054
1.007511
1.025839
1.039816
1.049894
1.055799
1.056518
1.050628
1.036852
1.014671
0.984707
0.948568
0.908177
0.864943
0.819157
0.769797
0.714868
0.652384
0.581558
0.503427
0.420502
0.335780
0.251851
0.170601
0.093508
0.022037
-0.042267
-0.098175
-0.145481
-0.185558
-0.221224
-0.255902
-0.292585
-0.333085
-0.377818
-0.426170
-0.477143
-0.529797
-0.583343
-0.637108
-0.690497
-0.742926
-0.793725
-0.842026
-0.886642
-0.926013
-0.958306
-0.981657
-0.994433
-0.995359
-0.983457
-0.957936
-0.918293
-0.864749
-0.798781
-0.723353
-0.642573
-0.560884
-0.482246
-0.409607
-0.344715
-0.288138
-0.239404
-0.197179
-0.159533
-0.124310
-0.089536
-0.053752
-0.016147
0.023599
0.065628
0.110048
0.156751
0.205050
0.253408
0.299495
0.340622
0.374500
0.400099
0.418131
0.430790
0.440837
0.450453
0.460401
0.469911
0.477261
0.480609
0.478563
0.470334
0.455615
0.434402
0.406804
0.372852
0.332405
0.285318
0.231775
0.172501
0.108672
0.041622
-0.027472
-0.097814
-0.168902
-0.240114
-0.310340
-0.378071
-0.441896
-0.501077
-0.555887
-0.607658
-0.658606
-0.711462
-0.768940
-0.833161
-0.905214
-0.985039
-1.071662
-1.163689
-1.259815
-1.359133
-1.461073
-1.565045
-1.670020
-1.774361
-1.876009
-1.972954
-2.063792
-2.148082
-2.226399
-2.300108
-2.371008
-2.440999
-2.511817
-2.584854
-2.661075
-2.741001
-2.824660
-2.911499
-3.000332
-3.089409
-3.176605
-3.259731
-3.336830
-3.406398
-3.467522
-3.519874
-3.563593
-3.599158
-3.627324
-3.649178
-3.666209
-3.680128
-3.692367
-3.703579
-3.713468
-3.721023
-3.725046
-3.724736
-3.720017
-3.711435
-3.699717
-3.685275
-3.667943
-3.647123
-3.622253
-3.593328
-3.561141
-3.527054
-3.492450
-3.458206
-3.424439
-3.390580
-3.355772
-3.319427
-3.281574
-3.242772
-3.203668
-3.164422
-3.124347
-3.081986
-3.035533
-2.983378
-2.924562
-2.859012
-2.787587
-2.712019
-2.634626
-2.557804
-2.483508
-2.412992
-2.346867
-2.285389
-2.228815
-2.177614
-2.132321
-2.093132
-2.059583
-2.030538
-2.004507
-1.980158
-1.956780
-1.934474
-1.914098
-1.897076
-1.885048
-1.879427
-1.881109
-1.890491
-1.907701
-1.932835
-1.966086
-2.007682
-2.057609
-2.115172
-2.178599
-2.244957
-2.310465
-2.371078
-2.423170
-2.464156
-2.492932
-2.510011
-2.517268
-2.517335
-2.512796
-2.505514
-2.496410
-2.485697
-2.473248
-2.458828
-2.442196
-2.423195
-2.401904
-2.378892
-2.355401
-2.333236
-2.314294
-2.299936
-2.290500
-2.285185
-2.282375
-2.280209
-2.277063
-2.271775
-2.263634
-2.252236
-2.237292
-2.218417
-2.194926
-2.165705
-2.129242
-2.083881
-2.028309
-1.962083
-1.885862
-1.801212
-1.710122
-1.614559
-1.516261
-1.416824
-1.317916
-1.221386
-1.129195
-1.043261
-0.965328
-0.896828
-0.838742
-0.791479
-0.754874
-0.728342
-0.711127
-0.702466
-0.701633
-0.707844
-0.720104
-0.737066
-0.757030
-0.778133
-0.798698
-0.817520
-0.833965
-0.847836
-0.859063
-0.867358
-0.871998
-0.871843
-0.865646
-0.852515
-0.832269
-0.805475
-0.773178
-0.736444
-0.696002
-0.652216
-0.605428
-0.556370
-0.506315
-0.456827
-0.409306
-0.364599
-0.322900
-0.283875
-0.246906
-0.211347
-0.176709
-0.142713
-0.109211
-0.076046
-0.042907
-0.009251
0.025669
0.062632
0.102172
0.144297
0.188369
0.233203
0.277320
0.319240
0.357683
0.391652
0.420456
0.443707
0.461375
0.473923
0.482376
0.488185
0.492859
0.497514
0.502564
0.507752
0.512539
0.516597
0.520110
0.523728
0.528231
0.534110
0.541315
0.549307
0.557397
0.565177
0.572821
0.581136
0.591371
0.604847
0.622516
0.644643
0.670728
0.699693
0.730266
0.761393
0.792439
0.823108
0.853146
0.882058
0.908985
0.932798
0.952297
0.966438
0.974493
0.976175
0.971759
0.962185
0.949028
0.934293
0.920055
0.908093
0.899665
0.895437
0.895479
0.899270
0.905710
0.913242
0.920070
0.924353
0.924369
0.918717
0.906624
0.888207
0.864496
0.837142
0.808018
0.778868
0.751135
0.725925
0.704027
0.685878
0.671505
0.660585
0.652610
0.647045
0.643356
0.640948
0.639118
0.637077
0.633966
0.628878
0.620893
0.609128
0.592825
0.571499
0.545156
0.514413
0.480450
0.444808
0.409088
0.374644
0.342452
0.313216
0.287585
0.266304
0.250199
0.240018
0.236210
0.238735
0.246976
0.259820
0.275908
0.293928
0.312846
0.332019
0.351161
0.370183
0.388990
0.407317
0.424688
0.440477
0.453972
0.464374
0.470759
0.472080
0.467259
0.455439
0.436317
0.410410
0.379056
0.344124
0.307613
0.271385
0.237148
0.206621
0.181660
0.164136
0.155565
0.156655
0.167111
0.185759
0.210884
0.240645
0.273450
0.308185
0.344176
0.380950
0.418007
0.454697
0.490215
0.523650
0.554076
0.580700
0.603001
0.620786
0.634123
0.643203
0.648209
0.649239
0.646310
0.639436
0.628742
0.614558
0.597478
0.578361
0.558317
0.538703
0.521098
0.507150
0.498323
0.495647
0.499554
0.509839
0.525730
0.546007
0.569113
0.593252
0.616503
0.637006
0.653195
0.664051
0.669272
0.669267
0.664985
0.657689
0.648771
0.639618
0.631480
0.625304
0.621606
0.620438
0.621477
0.624167
0.627903
0.632188
0.636689
0.641230
0.645739
0.650184
0.654489
0.658497
0.661953
0.664530
0.665922
0.665980
0.664758
0.662484
0.659526
0.656330
0.653348
0.650981
0.649539
0.649217
0.650127
0.652375
0.656187
0.661986
0.670327
0.681686
0.696231
0.713729
0.733598
0.754988
0.776823
0.797824
0.816602
0.831799
0.842247
0.847109
0.845945
0.838698
0.825658
0.807478
0.785192
0.760098
0.733492
0.706367
0.679271
0.652360
0.625584
0.598849
0.572060
0.545060
0.517554
0.489123
0.459383
0.428217
0.395970
0.363501
0.332059
0.303012
0.277524
0.256236
0.239036
0.225058
0.212966
0.201429
0.189523
0.176858
0.163446
0.149493
0.135287
0.121151
0.107402
0.094265
0.081779
0.069762
0.057831
0.045510
0.032356
0.018025
0.002278
-0.014997
-0.033666
-0.053226
-0.072783
-0.091181
-0.107275
-0.120237
-0.129730
-0.135868
-0.138991
-0.139384
-0.137071
-0.131771
-0.123007
-0.110290
-0.093275
-0.071857
-0.046179
-0.016601
0.016304
0.051773
0.088982
0.127216
0.165979
0.204949
0.243836
0.282240
0.319635
0.355526
0.389731
0.422596
0.454955
0.487824
0.521994
0.557750
0.594873
0.632848
0.671129
0.709294
0.747065
0.784232
0.820616
0.856160
0.891089
0.925982
0.961632
0.998768
1.037850
1.079020
1.122210
1.167237
1.213837
1.261620
1.309989
1.358064
1.404688
1.448577
1.488532
1.523624
1.553300
1.577408
1.596181
1.610191
1.620254
1.627275
1.632049
1.635111
1.636706
1.636867
1.635494
1.632350
1.627009
1.618832
1.607056
1.591035
1.570529
1.545823
1.517604
1.486708
1.453932
1.419976
1.385489
1.351133
1.317566
1.285326
1.254666
1.225452
1.197200
1.169267
1.141115
1.112491
1.083429
1.054098
1.024638
0.995111
0.965570
0.936114
0.906831
0.877641
0.848224
0.818089
0.786724
0.753672
0.718550
0.681062
0.641055
0.598644
0.554350
0.509173
0.464439
0.421462
0.381139
0.343717
0.308799
0.275579
0.243162
0.210837
0.178218
0.145263
0.112232
0.079586
0.047883
0.017717
-0.010315
-0.035652
-0.057889
-0.076962
-0.093298
-0.107810
-0.121731
-0.136354
-0.152750
-0.171583
-0.193075
-0.217112
-0.243380
-0.271413
-0.300598
-0.330228
-0.359634
-0.388343
-0.416178
-0.443250
-0.469863
