EVENT_NAME: L_AQUILA
EVENT_ID: IT-2009-0009
EVENT_DATE_YYYYMMDD: 20090406
EVENT_TIME_HHMMSS: 013240
EVENT_LATITUDE_DEGREE: 42.3420
EVENT_LONGITUDE_DEGREE: 13.3800
EVENT_DEPTH_KM: 8.3
HYPOCENTER_REFERENCE: INGV-CNT_Seismic_Bulletin
MAGNITUDE_W: 6.1
MAGNITUDE_W_REFERENCE: INGV-CNT_Seismic_Bulletin
MAGNITUDE_L: 
MAGNITUDE_L_REFERENCE: 
FOCAL_MECHANISM: Normal faulting
NETWORK: IT
STATION_CODE: SUL
STATION_NAME: 
STATION_LATITUDE_DEGREE: 42.089000
STATION_LONGITUDE_DEGREE: 13.934000
STATION_ELEVATION_M: 556
LOCATION: 
SENSOR_DEPTH_M: 0.0
VS30_M/S: 
SITE_CLASSIFICATION_EC8: A (inferred from geology)
MORPHOLOGIC_CLASSIFICATION: 
EPICENTRAL_DISTANCE_KM: 53.7
EARTHQUAKE_BACKAZIMUTH_DEGREE: 121.4
DATE_TIME_FIRST_SAMPLE_YYYYMMDD_HHMMSS: 20090406_013236.000
DATE_TIME_FIRST_SAMPLE_PRECISION: seconds
SAMPLING_INTERVAL_S: 0.005000
NDATA: 20800
DURATION_S: 104.000
STREAM: HNZ
UNITS: cm/s^2
INSTRUMENT: sensor = FBA-3 [Kinemetrics] | digitizer = Etna [Kinemetrics]
INSTRUMENT_ANALOG/DIGITAL: D
INSTRUMENTAL_FREQUENCY_HZ: 214.000
INSTRUMENTAL_DAMPING: 0.700000
FULL_SCALE_G: 1.0
N_BIT_DIGITAL_CONVERTER: 18
PGA_CM/S^2: 23.560163
TIME_PGA_S: 27.205000
BASELINE_CORRECTION: BASELINE REMOVED
FILTER_TYPE: BUTTERWORTH
FILTER_ORDER: 2
LOW_CUT_FREQUENCY_HZ: 0.040
HIGH_CUT_FREQUENCY_HZ: 40.000
LATE/NORMAL_TRIGGERED: NT
DATABASE_VERSION: 0.5
HEADER_FORMAT: DYNA 1.2
DATA_TYPE: ACCELERATION
PROCESSING: manual (Paolucci et al., 2011)
DATA_TIMESTAMP_YYYYMMDD_HHMMSS: 20211011_160357.296
DATA_LICENSE: CC-BY3_0-IT (http://creativecommons.org/licenses/by/3.0/deed.en)
DATA_CITATION: Luzi L, Pacor F, Puglia R (2019). Italian Accelerometric Archive v 3.0 - Istituto Nazionale di Geofisica e Vulcanologia, Dipartimento della Protezione Civile Nazionale. doi: 10.13127/itaca.3.1
DATA_CREATOR: ITACA working group
ORIGINAL_DATA_MEDIATOR_CITATION: data obtained within the DPC-INGV data exchange agreements
ORIGINAL_DATA_MEDIATOR: Archive of Italian Department of Civil Protection
ORIGINAL_DATA_CREATOR_CITATION: Presidency Of Counsil Of Ministers-Civil Protection Department. (1972). Italian Strong Motion Network. Presidency of Counsil of Ministers - Civil Protection Department. https://doi.org/10.7914/SN/IT http://www.fdsn.org/networks/detail/IT/
ORIGINAL_DATA_CREATOR: network: IT (Italian Strong Motion Network (RAN)); owner: Presidency of Counsil of Ministers - Civil Protection Department (PCM - DPC)
USER1: 
USER2: 
USER3: 
USER4: 
USER5: 
[...]
-2.980013
-2.702466
-2.399630
-2.160585
-1.967586
-1.757615
-1.471904
-1.072631
-0.601537
-0.218570
-0.094228
-0.242903
-0.506844
-0.708908
-0.792137
-0.812417
-0.834204
-0.865071
-0.879378
-0.878790
-0.924962
-1.102875
-1.437410
-1.852179
-2.215216
-2.422965
-2.449590
-2.327563
-2.088129
-1.740058
-1.324441
-0.951969
-0.724592
-0.639418
-0.625105
-0.647853
-0.725111
-0.847728
-0.943693
-0.934964
-0.797181
-0.540239
-0.146600
0.432526
1.190592
1.989421
2.604430
2.860678
2.742525
2.394914
2.010740
1.700988
1.469222
1.284982
1.151558
1.094333
1.079591
0.968383
0.600333
-0.063491
-0.906241
-1.772199
-2.592403
-3.372507
-4.087033
-4.634390
-4.884461
-4.731578
-4.121096
-3.080002
-1.739697
-0.298688
1.079959
2.339985
3.469537
4.380627
4.912929
4.963579
4.569855
3.869696
3.027981
2.204219
1.533915
1.099936
0.927182
0.991299
1.202784
1.397601
1.389946
1.077025
0.514695
-0.118100
-0.649591
-1.018269
-1.241303
-1.301645
-1.134408
-0.746379
-0.273308
0.137784
0.466212
0.790088
1.141846
1.440021
1.566132
1.470637
1.192307
0.815411
0.441630
0.169567
0.054162
0.092832
0.263986
0.557350
0.957055
1.414336
1.845350
2.157442
2.298230
2.286509
2.180446
2.019136
1.803877
1.520480
1.167137
0.773989
0.404666
0.120280
-0.074426
-0.233931
-0.396143
-0.511534
-0.482890
-0.285942
-0.027058
0.133012
0.108823
-0.055575
-0.251671
-0.407947
-0.514589
-0.559619
-0.477281
-0.196869
0.257719
0.742957
1.074867
1.129882
0.895809
0.468483
0.006704
-0.342178
-0.509889
-0.529085
-0.490515
-0.470872
-0.504147
-0.586206
-0.656080
-0.603912
-0.370425
-0.041184
0.214297
0.315651
0.345145
0.434351
0.617155
0.808009
0.888294
0.800667
0.579228
0.306689
0.066958
-0.062825
-0.033101
0.124579
0.288551
0.321467
0.159805
-0.159071
-0.535940
-0.870603
-1.101032
-1.204325
-1.188653
-1.098855
-0.999260
-0.929615
-0.905662
-0.967105
-1.177787
-1.555537
-2.016280
-2.386105
-2.466439
-2.128087
-1.393876
-0.439835
0.508872
1.305357
1.927451
2.421939
2.803152
3.000486
2.910388
2.492498
1.814011
1.014265
0.226668
-0.466017
-1.009409
-1.357133
-1.510851
-1.562035
-1.644539
-1.819647
-2.024739
-2.153702
-2.171009
-2.130131
-2.101382
-2.106635
-2.109206
-2.040396
-1.841795
-1.507369
-1.098103
-0.712342
-0.432514
-0.288429
-0.255124
-0.278652
-0.313544
-0.340802
-0.349327
-0.317187
-0.228396
-0.096442
0.051311
0.220053
0.469021
0.867398
1.414303
2.005767
2.491160
2.765024
2.805872
2.638896
2.279435
1.724124
0.992858
0.154406
-0.701290
-1.494627
-2.160842
-2.662590
-3.015835
-3.279265
-3.489258
-3.605193
-3.544752
-3.284277
-2.902874
-2.512711
-2.162589
-1.829143
-1.488246
-1.161565
-0.890157
-0.687411
-0.526449
-0.357320
-0.121590
0.226644
0.665193
1.068196
1.271637
1.193669
0.885374
0.471897
0.055125
-0.325328
-0.653016
-0.891383
-0.991353
-0.929008
-0.740231
-0.527043
-0.406699
-0.422626
-0.505702
-0.540466
-0.462413
-0.279529
-0.029698
0.244168
0.486301
0.625994
0.598654
0.379470
0.001744
-0.457737
-0.910440
-1.280026
-1.507839
-1.556265
-1.432578
-1.204149
-0.948287
-0.666250
-0.279332
0.261605
0.880518
1.410792
1.718747
1.780446
1.646877
1.363282
0.936551
0.363872
-0.325329
-1.039610
-1.622504
-1.917118
-1.876199
-1.599443
-1.242939
-0.905606
-0.609603
-0.350880
-0.138449
0.001257
0.050305
0.037534
0.036630
0.104803
0.235545
0.386744
0.532561
0.672462
0.809367
0.933689
1.027860
1.082189
1.098752
1.085253
1.070941
1.138283
1.398266
1.887147
2.496004
3.031171
3.341332
3.378734
3.160262
2.706496
2.032230
1.176230
0.216589
-0.738175
-1.557910
-2.119002
-2.374313
-2.394083
-2.308970
-2.214316
-2.132338
-2.041539
-1.925328
-1.804238
-1.727868
-1.723424
-1.752690
-1.734639
-1.615947
-1.418567
-1.219198
-1.079172
-0.990163
-0.884909
-0.698140
-0.430992
-0.179880
-0.098348
-0.291769
-0.719631
-1.210046
-1.588378
-1.791539
-1.855092
-1.811193
-1.640924
-1.346645
-1.043926
-0.935983
-1.170955
-1.717886
-2.375166
-2.898242
-3.138098
-3.086575
-2.827781
-2.484304
-2.204660
-2.141056
-2.371928
-2.826822
-3.316654
-3.666098
-3.814022
-3.790880
-3.640529
-3.387066
-3.045245
-2.626918
-2.133498
-1.555239
-0.893344
-0.192625
0.446181
0.902148
1.105154
1.073125
0.883761
0.631617
0.404822
0.265366
0.233762
0.297252
0.430393
0.601909
0.773031
0.910832
1.010946
1.100276
1.211056
1.353230
1.522305
1.734932
2.032979
2.440297
2.933372
3.460865
3.968450
4.389674
4.636722
4.638128
4.397016
4.003219
3.583879
3.235036
2.985811
2.822527
2.745341
2.795501
3.025041
3.434489
3.932892
4.361794
4.571427
4.491128
4.141462
3.591326
2.908216
2.137938
1.320470
0.525712
-0.127541
-0.498406
-0.491104
-0.117812
0.500873
1.204141
1.864394
2.410749
2.814911
3.075414
3.209111
3.243229
3.203785
3.106118
2.962205
2.798030
2.651317
2.546564
2.481852
2.453433
2.493441
2.662744
2.986654
3.396457
3.745722
3.893075
3.770402
3.387985
2.807845
2.119761
1.416856
0.775188
0.260292
-0.054129
-0.106065
0.099215
0.463247
0.834711
1.089546
1.193039
1.191670
1.138304
1.026080
0.804092
0.456824
0.053043
-0.293974
-0.508174
-0.586779
-0.565768
-0.469901
-0.306687
-0.091642
0.147369
0.385425
0.598562
0.754902
0.829982
0.831349
0.797592
0.771042
0.768676
0.772723
0.751863
0.696776
0.636435
0.623733
0.703688
0.894406
1.199554
1.613953
2.086738
2.493249
2.686315
2.601555
2.308890
1.951422
1.639004
1.397941
1.195705
0.991401
0.764905
0.517370
0.272017
0.081535
-0.000356
0.016680
0.044830
0.001654
-0.092947
-0.126102
0.000989
0.296691
0.708205
1.192395
1.726640
2.250649
2.624707
2.672423
2.280688
1.473594
0.398830
-0.764311
-1.893625
-2.939677
-3.884757
-4.698310
-5.311969
-5.618714
-5.506610
-4.922104
-3.922588
-2.672559
-1.380266
-0.224587
0.675394
1.246931
1.443122
1.240354
0.648320
-0.280511
-1.439165
-2.649489
-3.670421
-4.267503
-4.313296
-3.835240
-2.976789
-1.915630
-0.797546
0.279890
1.237737
1.989600
2.464729
2.659706
2.652211
2.549332
2.421294
2.283879
2.130189
1.966562
1.815840
1.690107
1.570035
1.412275
1.168458
0.804858
0.327185
-0.198836
-0.660402
-0.963024
-1.104605
-1.173010
-1.260103
-1.389087
-1.518111
-1.579864
-1.505530
-1.240475
-0.776385
-0.181583
0.410180
0.854859
1.060695
1.016991
0.776715
0.420082
0.031074
-0.310130
-0.533836
-0.593503
-0.478143
-0.218351
0.115822
0.436989
0.686434
0.859825
0.972143
1.005362
0.912816
0.674147
0.324995
-0.069772
-0.458348
-0.826394
-1.195770
-1.595202
-2.026112
-2.454316
-2.825612
-3.095225
-3.263409
-3.379769
-3.491560
-3.579010
-3.545691
-3.285996
-2.769602
-2.053634
-1.224840
-0.350904
0.525069
1.368443
2.142012
2.812786
3.355173
3.729221
3.868962
3.717167
3.272634
2.594889
1.759017
0.802825
-0.278089
-1.476451
-2.718031
-3.873038
-4.827294
-5.525598
-5.940934
-6.038791
-5.808709
-5.325193
-4.745227
-4.217150
-3.780412
-3.361055
-2.870203
-2.294512
-1.687659
-1.098632
-0.524638
0.077547
0.741876
1.444703
2.093524
2.565632
2.782283
2.765068
2.616434
2.443544
2.302848
2.200279
2.118705
2.036893
1.939354
1.833126
1.758371
1.774135
1.937680
2.293149
2.852054
3.561398
4.294599
4.886867
5.190184
5.120001
4.681628
3.966329
3.119827
2.293113
1.589369
1.038378
0.614704
0.279203
0.019573
-0.135177
-0.146985
-0.020097
0.181638
0.359414
0.413816
0.271804
-0.090734
-0.638406
-1.287992
-1.930510
-2.450980
-2.758377
-2.820420
-2.663174
-2.332051
-1.864262
-1.303460
-0.728436
-0.252062
0.016633
0.022753
-0.206564
-0.579543
-0.987279
-1.346410
-1.615807
-1.783920
-1.842259
-1.776504
-1.585543
-1.299493
-0.979242
-0.706041
-0.554024
-0.543528
-0.615480
-0.660490
-0.576703
-0.312501
0.121732
0.672647
1.274523
1.863914
2.387000
2.814820
3.143594
3.369983
3.471867
3.415887
3.188503
2.830516
2.433451
2.083137
1.805371
1.577463
1.387178
1.251684
1.165999
1.060304
0.835892
0.444398
-0.071481
-0.611767
-1.085263
-1.440812
-1.661016
-1.759430
-1.785035
-1.807986
-1.881526
-2.015531
-2.194313
-2.407352
-2.641009
-2.850479
-2.976704
-3.003022
-2.966814
-2.898401
-2.771348
-2.528681
-2.135607
-1.592505
-0.923700
-0.181249
0.548966
1.171083
1.619009
1.870596
1.938452
1.868034
1.731629
1.588161
1.438206
1.236381
0.952776
0.608335
0.250102
-0.094486
-0.431649
-0.771017
-1.090573
-1.338943
-1.471193
-1.485549
-1.429535
-1.371729
-1.369767
-1.451825
-1.601213
-1.744826
-1.757515
-1.486365
-0.795684
0.368940
1.922594
3.646918
5.292816
6.712725
7.900746
8.909554
9.747325
10.359048
10.679500
10.686770
10.424910
9.995531
9.523241
9.110579
8.802100
8.576169
8.373163
8.140227
7.858704
7.538709
7.185513
6.757009
6.152439
5.265436
4.075468
2.703847
1.384671
0.373296
-0.136451
-0.043692
0.654039
1.841357
3.266223
4.585373
5.501270
5.907577
5.915110
5.732930
5.513745
5.300332
5.103222
4.984718
5.014780
5.148767
5.198240
4.950256
4.310598
3.333089
2.138335
0.829862
-0.517296
-1.821385
-2.982924
-3.909382
-4.534573
-4.828247
-4.813978
-4.578830
-4.253798
-3.970995
-3.810866
-3.764245
-3.751953
-3.704037
-3.624940
-3.576885
-3.609968
-3.724104
-3.894391
-4.111702
-4.384154
-4.699759
-5.001461
-5.215196
-5.298757
-5.255305
-5.114312
-4.914614
-4.699167
-4.512358
-4.398173
-4.393255
-4.500471
-4.665390
-4.794933
-4.803527
-4.650877
-4.362416
-4.021745
-3.724217
-3.517937
-3.384872
-3.279762
-3.175304
-3.060377
-2.918393
-2.742731
-2.564445
-2.425033
-2.313535
-2.149048
-1.837255
-1.347529
-0.733950
-0.098085
0.443445
0.776387
0.825640
0.602512
0.222610
-0.134893
-0.310360
-0.227794
0.082518
0.486530
0.789691
0.830443
0.583411
0.207002
-0.021873
0.123567
0.662999
1.395491
2.034922
2.366177
2.303598
1.852562
1.044514
-0.097547
-1.529150
-3.117777
-4.628090
-5.800769
-6.472043
-6.638593
-6.422169
-5.988260
-5.488771
-5.030873
-4.660212
-4.378568
-4.188434
-4.107944
-4.134762
-4.205027
-4.197284
-4.003821
-3.640140
-3.287526
-3.185519
-3.443413
-3.946322
-4.442025
-4.710065
-4.661658
-4.323925
-3.756925
-2.972928
-1.922920
-0.569344
1.023461
2.676695
4.179366
5.386055
6.239264
6.716784
6.791031
6.454242
5.761832
4.824354
3.760998
2.667330
1.612664
0.674579
-0.005458
-0.223077
0.178511
1.161297
2.460129
3.709035
4.605446
4.990262
4.833434
4.192818
3.182391
1.930381
0.552476
-0.836447
-2.137772
-3.332561
-4.498443
-5.730361
-7.046116
-8.368017
-9.565214
-10.491793
-11.016852
-11.079736
-10.756237
-10.269608
-9.888626
-9.750308
-9.756686
-9.662763
-9.293583
-8.689408
-8.047183
-7.549582
-7.262776
-7.155603
-7.171438
-7.275640
-7.441963
-7.598286
-7.615868
-7.392490
-6.928602
-6.289622
-5.537372
-4.745643
-4.034177
-3.523954
-3.264033
-3.206005
-3.235636
-3.249002
-3.225096
-3.236315
-3.394555
-3.787576
-4.450472
-5.352294
-6.387120
-7.406872
-8.279361
-8.908776
-9.224062
-9.184834
-8.786571
-8.021345
-6.840464
-5.182805
-3.037967
-0.488060
2.274117
4.943653
7.151370
8.582966
9.106680
8.804853
7.891254
6.607676
5.168393
3.721815
2.311239
0.888200
-0.605901
-2.171367
-3.758071
-5.302038
-6.726123
-7.918280
-8.736653
-9.062610
-8.876777
-8.298274
-7.536239
-6.774702
-6.084220
-5.426029
-4.722011
-3.927353
-3.066235
-2.223285
-1.512558
-1.041945
-0.861582
-0.899915
-0.955051
-0.808931
-0.393215
0.170912
0.698936
1.069846
1.236385
1.184665
0.920778
0.466738
-0.154850
-0.928177
-1.826041
-2.771753
-3.624725
-4.227079
-4.476564
-4.361157
-3.931344
-3.243340
-2.340355
-1.298735
-0.287606
0.431472
0.587085
0.007628
-1.319796
-3.266515
-5.628420
-8.198003
-10.793051
-13.220977
-15.232333
-16.535971
-16.877811
-16.125753
-14.307450
-11.588968
-8.218972
-4.466436
-0.573264
3.245472
6.757432
9.705587
11.878163
13.186872
13.687579
13.541728
12.944797
12.054226
10.937784
9.573767
7.936793
6.108505
4.299923
2.771999
1.726967
1.233443
1.211306
1.465850
1.757811
1.903205
1.853966
1.696467
1.577952
1.624256
1.892093
2.363747
2.980945
3.706683
4.560810
5.571663
6.691165
7.784650
8.719160
9.462141
10.096042
10.739827
11.450924
12.190529
12.867859
13.401720
13.735751
13.805019
13.508609
12.736715
11.440856
9.702367
7.743992
5.842159
4.186326
2.811173
1.661349
0.689647
-0.129169
-0.833864
-1.475912
-2.088984
-2.672095
-3.198699
-3.632709
-3.933191
-4.071676
-4.075901
-4.041799
-4.074188
-4.214959
-4.435773
-4.692001
-4.956396
-5.197991
-5.376440
-5.470852
-5.476510
-5.370349
-5.110117
-4.678353
-4.113378
-3.486469
-2.854933
-2.240535
-1.646206
-1.089096
-0.622511
-0.328112
-0.269106
-0.432302
-0.714421
-0.975062
-1.123412
-1.167528
-1.177394
-1.196143
-1.187226
-1.068797
-0.790978
-0.369319
0.135804
0.637134
1.039108
1.298869
1.478079
1.697379
2.026422
2.440711
2.891105
3.381071
3.965915
4.711103
5.664703
6.853447
8.302266
10.056229
12.157095
14.576401
17.163380
19.644592
21.687458
23.023329
23.560163
23.388220
22.674944
21.544065
20.038776
18.188824
16.093622
13.923121
11.843157
9.948634
8.258293
6.753319
5.421293
4.291007
3.436923
2.918677
2.694944
2.619476
2.539081
2.393794
2.228518
2.114730
2.063990
2.016910
1.900588
1.672060
1.302810
0.763656
0.075027
-0.624027
-1.084971
-1.064823
-0.474424
0.569941
1.837886
3.100650
4.166097
4.877249
5.135392
4.931508
4.357278
3.589601
2.843473
2.302551
2.067916
2.148969
2.480149
2.949750
3.439649
3.866385
4.204658
4.472460
4.685934
4.829822
4.870078
4.787146
4.591876
4.309456
3.955786
3.531225
3.031295
2.474965
1.940669
1.565863
1.478549
1.699562
2.102257
2.479650
2.676008
2.675891
2.582112
2.522031
2.574953
2.763225
3.064707
3.392295
3.567220
3.350179
2.525800
0.990252
-1.194983
-3.816369
-6.593335
-9.282347
-11.730961
-13.853377
-15.571272
-16.794733
-17.456217
-17.541557
-17.079130
-16.105303
-14.648417
-12.751779
-10.509255
-8.068259
-5.591468
-3.217191
-1.055969
0.790611
2.228795
3.201605
3.725064
3.897616
3.860858
3.722267
3.496773
3.127540
2.567620
1.839611
1.025271
0.208525
-0.574551
-1.341835
-2.126330
-2.932470
-3.732450
-4.490739
-5.176055
-5.757873
-6.217338
-6.576363
-6.893338
-7.201584
-7.456514
-7.558860
-7.432049
-7.072115
-6.533839
-5.896520
-5.251036
-4.695174
-4.305786
-4.097422
-4.018762
-3.998772
-3.985880
-3.946278
-3.856812
-3.717416
-3.562699
-3.461761
-3.507209
-3.785330
-4.332678
-5.102891
-5.966550
-6.749736
-7.295477
-7.522993
-7.458667
-7.219584
-6.957309
-6.793358
-6.779190
-6.901855
-7.115903
-7.350886
-7.488769
-7.362976
-6.818946
-5.810808
-4.449825
-2.948296
-1.505011
-0.223753
0.891474
1.877506
2.740188
3.429112
3.866335
3.982992
3.733020
3.100190
2.117670
0.878863
-0.485566
-1.844815
-3.092401
-4.160533
-5.027761
-5.714063
-6.259219
-6.691553
-7.015940
-7.230687
-7.336575
-7.316137
-7.112693
-6.647589
-5.878526
-4.856340
-3.726484
-2.666013
-1.803137
-1.180672
-0.778377
-0.550357
-0.441091
-0.390272
-0.346851
-0.288473
-0.228733
-0.211114
-0.294219
-0.520245
-0.882210
-1.323954
-1.772697
-2.184026
-2.574284
-3.007083
-3.540802
-4.182129
-4.875347
-5.532482
-6.078092
-6.468530
-6.681927
-6.707850
-6.560008
-6.300294
-6.028674
-5.823935
-5.692756
-5.579973
-5.415695
-5.149255
-4.751458
-4.198068
-3.471325
-2.591007
-1.630627
-0.690581
0.136231
0.770462
1.147771
1.250378
1.137978
0.927987
0.739667
0.649735
0.681008
0.813705
1.002673
1.203752
1.404921
1.632655
1.927020
2.310760
2.768743
3.242272
3.647078
3.912587
4.017554
3.997773
3.927030
3.894520
3.987800
4.268302
4.747041
5.386057
6.126828
6.921563
7.745662
8.594755
9.478457
10.405717
11.367376
12.335268
13.273471
14.144165
14.899850
15.471773
15.776106
15.738140
15.319575
14.535966
13.449142
12.145740
10.731109
9.334503
8.100072
7.154507
6.571306
6.359918
6.474812
6.828882
7.318363
7.851373
8.355418
8.775789
9.088288
9.308122
9.473803
9.615064
9.723948
9.756966
9.673542
9.469625
9.177868
8.844016
8.502123
8.173286
7.888025
7.697705
7.649231
7.746696
7.947543
8.198573
8.464458
8.707565
8.840602
8.719685
8.208060
7.264057
5.978116
4.525878
3.083799
1.782749
0.708847
-0.094792
-0.637325
-0.970682
-1.157589
-1.251378
-1.298430
-1.335034
-1.365073
-1.343088
-1.192982
-0.856610
-0.337316
0.286626
0.888662
1.346895
1.584227
1.580434
1.367201
1.013401
0.610557
0.255587
0.020376
-0.068847
-0.021382
0.139524
0.394003
0.738318
1.184476
1.743916
2.407817
3.139619
3.883437
4.574545
5.140150
5.499227
5.576484
5.325334
4.743947
3.882523
2.839615
1.737835
0.692038
-0.206488
-0.887549
-1.290606
-1.363809
-1.085446
-0.487176
0.343209
1.281940
2.199005
2.978667
3.527367
3.778049
3.697055
3.286965
2.579453
1.629178
0.514144
-0.667009
-1.806508
-2.802715
-3.572179
-4.057652
-4.235226
-4.122898
-3.782406
-3.301362
-2.758101
-2.193618
-1.620457
-1.062518
-0.581121
-0.259541
-0.168943
-0.349438
-0.803238
-1.491074
-2.337478
-3.246283
-4.130451
-4.942129
-5.670218
-6.313884
-6.871953
-7.352469
-7.771502
-8.130688
-8.399394
-8.522097
-8.438453
-8.099764
-7.488101
-6.640683
-5.654190
-4.650635
-3.733609
-2.973436
-2.416822
-2.091436
-1.994789
-2.086856
-2.302132
-2.573635
-2.855607
-3.129115
-3.387458
-3.619749
-3.802333
-3.900158
-3.882507
-3.746380
-3.530030
-3.301554
-3.131608
-3.072559
-3.149633
-3.367301
-3.728781
-4.239949
-4.886398
-5.617214
-6.357389
-7.034383
-7.599053
-8.025160
-8.288638
-8.350537
-8.160984
-7.686438
-6.943313
-6.006203
-4.990501
-4.032697
-3.261823
-2.754791
-2.509039
-2.458584
-2.512111
-2.583866
-2.614451
-2.583797
-2.507174
-2.411926
-2.306421
-2.159137
-1.910038
-1.514514
-0.980579
-0.364513
0.260342
0.823973
1.261149
1.512101
1.535791
1.328534
0.928790
0.410095
-0.129667
-0.587130
-0.869860
-0.907258
-0.668628
-0.174587
0.511436
1.299903
2.098289
2.837430
3.480444
4.009296
4.409017
4.672658
4.820283
4.894595
4.924854
4.897397
4.765323
4.483129
4.024591
3.373211
2.515218
1.454451
0.231727
-1.076101
-2.376972
-3.581223
-4.599917
-5.342575
-5.742586
-5.797213
-5.584993
-5.241293
-4.897940
-4.628864
-4.443631
-4.313830
-4.201124
-4.079707
-3.943978
-3.797589
-3.642263
-3.483095
-3.345640
-3.280663
-3.340386
-3.544461
-3.865356
-4.242137
-4.607296
-4.905410
-5.100347
-5.177444
-5.139761
-4.996155
-4.749499
-4.400180
-3.960547
-3.455581
-2.906871
-2.329266
-1.748666
-1.208558
-0.750079
-0.393283
-0.145267
-0.015360
-0.001335
-0.062709
