EVENT_NAME: L_AQUILA
EVENT_ID: IT-2009-0009
EVENT_DATE_YYYYMMDD: 20090406
EVENT_TIME_HHMMSS: 013240
EVENT_LATITUDE_DEGREE: 42.3420
EVENT_LONGITUDE_DEGREE: 13.3800
EVENT_DEPTH_KM: 8.3
HYPOCENTER_REFERENCE: INGV-CNT_Seismic_Bulletin
MAGNITUDE_W: 6.1
MAGNITUDE_W_REFERENCE: INGV-CNT_Seismic_Bulletin
MAGNITUDE_L: 
MAGNITUDE_L_REFERENCE: 
FOCAL_MECHANISM: Normal faulting
NETWORK: IT
STATION_CODE: SUL
STATION_NAME: 
STATION_LATITUDE_DEGREE: 42.089000
STATION_LONGITUDE_DEGREE: 13.934000
STATION_ELEVATION_M: 556
LOCATION: 
SENSOR_DEPTH_M: 0.0
VS30_M/S: 
SITE_CLASSIFICATION_EC8: A (inferred from geology)
MORPHOLOGIC_CLASSIFICATION: 
EPICENTRAL_DISTANCE_KM: 53.7
EARTHQUAKE_BACKAZIMUTH_DEGREE: 121.4
DATE_TIME_FIRST_SAMPLE_YYYYMMDD_HHMMSS: 20090406_013236.000
DATE_TIME_FIRST_SAMPLE_PRECISION: seconds
SAMPLING_INTERVAL_S: 0.005000
NDATA: 20800
DURATION_S: 104.000
STREAM: HNZ
UNITS: cm/s^2
INSTRUMENT: sensor = FBA-3 [Kinemetrics] | digitizer = Etna [Kinemetrics]
INSTRUMENT_ANALOG/DIGITAL: D
INSTRUMENTAL_FREQUENCY_HZ: 214.000
INSTRUMENTAL_DAMPING: 0.700000
FULL_SCALE_G: 1.0
N_BIT_DIGITAL_CONVERTER: 18
PGA_CM/S^2: 23.571461
TIME_PGA_S: 27.205000
BASELINE_CORRECTION: BASELINE NOT REMOVED
FILTER_TYPE: 
FILTER_ORDER: 
LOW_CUT_FREQUENCY_HZ: 
HIGH_CUT_FREQUENCY_HZ: 
LATE/NORMAL_TRIGGERED: NT
DATABASE_VERSION: 0.5
HEADER_FORMAT: DYNA 1.2
DATA_TYPE: ACCELERATION
PROCESSING: converted to cm/s^2
DATA_TIMESTAMP_YYYYMMDD_HHMMSS: 20211011_160357.172
DATA_LICENSE: CC-BY3_0-IT (http://creativecommons.org/licenses/by/3.0/deed.en)
DATA_CITATION: Luzi L, Pacor F, Puglia R (2019). Italian Accelerometric Archive v 3.0 - Istituto Nazionale di Geofisica e Vulcanologia, Dipartimento della Protezione Civile Nazionale. doi: 10.13127/itaca.3.1
DATA_CREATOR: ITACA working group
ORIGINAL_DATA_MEDIATOR_CITATION: data obtained within the DPC-INGV data exchange agreements
ORIGINAL_DATA_MEDIATOR: Archive of Italian Department of Civil Protection
ORIGINAL_DATA_CREATOR_CITATION: Presidency Of Counsil Of Ministers-Civil Protection Department. (1972). Italian Strong Motion Network. Presidency of Counsil of Ministers - Civil Protection Department. https://doi.org/10.7914/SN/IT http://www.fdsn.org/networks/detail/IT/
ORIGINAL_DATA_CREATOR: network: IT (Italian Strong Motion Network (RAN)); owner: Presidency of Counsil of Ministers - Civil Protection Department (PCM - DPC)
USER1: 
USER2: 
USER3: 
USER4: 
USER5: 
[...]
-2.915308
-3.132470
-3.008544
-2.665817
-2.349796
-2.159105
-1.989030
-1.736728
-1.479507
-1.138888
-0.619057
-0.147953
-0.021217
-0.247750
-0.558383
-0.751182
-0.781168
-0.777419
-0.830363
-0.868548
-0.901579
-0.899236
-0.897597
-1.064392
-1.419770
-1.862996
-2.242269
-2.441627
-2.444906
-2.302474
-2.088123
-1.788032
-1.332858
-0.886352
-0.695661
-0.674109
-0.652088
-0.631707
-0.685120
-0.848635
-0.973264
-0.946089
-0.783744
-0.509422
-0.155450
0.375625
1.158768
2.011487
2.651963
2.915744
2.765112
2.350700
1.970491
1.704602
1.484160
1.307291
1.140730
1.040699
1.062954
1.018444
0.664706
-0.050500
-0.954523
-1.809818
-2.562975
-3.333234
-4.089436
-4.645109
-4.887337
-4.746779
-4.152218
-3.105530
-1.733449
-0.245876
1.114258
2.289558
3.424564
4.414561
4.967423
4.989444
4.561444
3.867556
3.038029
2.181328
1.515785
1.105590
0.911620
0.963861
1.192268
1.415521
1.447381
1.123160
0.508453
-0.160369
-0.693084
-0.987319
-1.188786
-1.334264
-1.202842
-0.750948
-0.206285
0.184701
0.437002
0.735923
1.133936
1.476195
1.599652
1.469401
1.192033
0.832908
0.424821
0.143002
0.056559
0.108799
0.264116
0.542187
0.953553
1.406853
1.851719
2.193510
2.311344
2.271988
2.167272
2.019218
1.809786
1.526327
1.184068
0.780901
0.385933
0.091698
-0.073458
-0.189652
-0.365350
-0.540345
-0.537299
-0.302333
0.002444
0.185169
0.132226
-0.081423
-0.277970
-0.407752
-0.479202
-0.542219
-0.518090
-0.238613
0.248420
0.769422
1.107464
1.153614
0.923333
0.461366
-0.015360
-0.367224
-0.538705
-0.507548
-0.467255
-0.480608
-0.488573
-0.548544
-0.660756
-0.667081
-0.415248
0.000335
0.294102
0.329475
0.292462
0.397412
0.615043
0.826582
0.928018
0.813932
0.561162
0.313780
0.077174
-0.090793
-0.069475
0.121450
0.319168
0.354776
0.174627
-0.158730
-0.551121
-0.882604
-1.094846
-1.215258
-1.207761
-1.078916
-0.975372
-0.948666
-0.927817
-0.947495
-1.140528
-1.532685
-2.004491
-2.397351
-2.509798
-2.180189
-1.409931
-0.400958
0.549683
1.327203
1.921530
2.376469
2.791818
3.031002
2.940341
2.520776
1.809786
0.984476
0.223354
-0.448045
-1.018242
-1.391892
-1.535964
-1.535027
-1.584691
-1.805367
-2.059777
-2.190028
-2.165664
-2.106396
-2.087889
-2.094214
-2.110378
-2.052984
-1.863465
-1.519097
-1.088521
-0.694490
-0.416654
-0.279141
-0.255012
-0.295071
-0.314281
-0.325525
-0.349420
-0.330210
-0.237208
-0.083531
0.075065
0.232959
0.446841
0.827988
1.400059
2.026246
2.526632
2.776123
2.797675
2.624320
2.285341
1.756374
0.992910
0.142533
-0.696364
-1.494265
-2.177378
-2.683152
-3.009950
-3.245150
-3.460673
-3.629343
-3.590455
-3.293409
-2.871032
-2.475829
-2.171521
-1.855031
-1.489580
-1.148493
-0.873702
-0.683480
-0.529803
-0.345672
-0.130852
0.178375
0.646434
1.105122
1.318770
1.216631
0.872498
0.439814
0.053513
-0.304207
-0.650917
-0.895722
-1.003718
-0.951946
-0.752353
-0.504268
-0.357151
-0.404003
-0.535894
-0.568925
-0.456010
-0.272816
-0.038084
0.241861
0.484792
0.635892
0.623008
0.388041
0.005723
-0.461867
-0.918446
-1.273824
-1.516052
-1.579069
-1.448584
-1.171450
-0.899236
-0.679263
-0.329742
0.225931
0.898501
1.460265
1.739976
1.769961
1.626826
1.363514
0.951679
0.371174
-0.296476
-1.021756
-1.660358
-1.973568
-1.894622
-1.557985
-1.215023
-0.910715
-0.610858
-0.358088
-0.140926
0.017202
0.076939
0.035475
0.000570
0.096383
0.255682
0.392727
0.533285
0.669157
0.802922
0.941606
1.034608
1.080758
1.096454
1.103716
1.103013
1.118006
1.336574
1.860387
2.520541
3.074106
3.358033
3.366701
3.153990
2.716620
2.049672
1.179383
0.217966
-0.719791
-1.576023
-2.170115
-2.389855
-2.371348
-2.280688
-2.205255
-2.134507
-2.050641
-1.942880
-1.798105
-1.698309
-1.704634
-1.763200
-1.761326
-1.634824
-1.413913
-1.188083
-1.059238
-0.992005
-0.900408
-0.728224
-0.453199
-0.173957
-0.045112
-0.237676
-0.723539
-1.255785
-1.629201
-1.777724
-1.815909
-1.811927
-1.686596
-1.389784
-1.025036
-0.871593
-1.116399
-1.704166
-2.412812
-2.947167
-3.153788
-3.080932
-2.834955
-2.498084
-2.191668
-2.089295
-2.321215
-2.836127
-3.368842
-3.693999
-3.798481
-3.780208
-3.644101
-3.384069
-3.045324
-2.615919
-2.133570
-1.569230
-0.906030
-0.211673
0.465817
0.940200
1.114492
1.070919
0.886085
0.628630
0.389213
0.256620
0.236239
0.299490
0.425289
0.599815
0.785821
0.922631
1.013759
1.092003
1.197187
1.366325
1.542960
1.725217
2.012190
2.433864
2.944558
3.459938
3.952125
4.388324
4.663583
4.669674
4.404254
3.995464
3.559031
3.217475
2.999142
2.839608
2.753868
2.783151
2.993285
3.412616
3.935727
4.389027
4.603378
4.499130
4.136491
3.584332
2.900517
2.149468
1.338682
0.536564
-0.133429
-0.532848
-0.526992
-0.126636
0.521337
1.222253
1.869992
2.417700
2.818759
3.078323
3.210681
3.238559
3.197797
3.115571
2.970796
2.791818
2.641421
2.539048
2.499926
2.472986
2.483528
2.632051
2.953929
3.402543
3.778302
3.910426
3.778770
3.395515
2.811028
2.111517
1.406853
0.787695
0.268801
-0.077206
-0.136943
0.083499
0.470268
0.865470
1.121052
1.193673
1.163219
1.115898
1.039528
0.841341
0.473782
0.034772
-0.322480
-0.519027
-0.573844
-0.553229
-0.479671
-0.316623
-0.080720
0.149327
0.375391
0.599113
0.767314
0.842747
0.829159
0.791677
0.758880
0.759349
0.785821
0.762863
0.703828
0.637766
0.606375
0.699846
0.907872
1.188519
1.581848
2.070053
2.519136
2.739812
2.624554
2.286512
1.921764
1.624718
1.399122
1.207026
0.996189
0.761691
0.530474
0.286605
0.057964
-0.038787
0.013220
0.088184
0.044377
-0.106020
-0.167866
-0.018874
0.312140
0.727255
1.180320
1.692186
2.232163
2.645169
2.712403
2.323292
1.480412
0.367426
-0.786321
-1.898838
-2.933346
-3.875553
-4.685402
-5.303389
-5.633466
-5.538824
-4.956445
-3.934354
-2.656446
-1.360970
-0.215187
0.676185
1.249194
1.451597
1.248959
0.657210
-0.265554
-1.413445
-2.641688
-3.705478
-4.317374
-4.342206
-3.839242
-2.964737
-1.895090
-0.794052
0.266459
1.234904
2.009379
2.496178
2.667893
2.631817
2.528975
2.417231
2.290261
2.140332
1.962994
1.798307
1.687266
1.568963
1.411538
1.178212
0.818383
0.347982
-0.197852
-0.694490
-1.003952
-1.100703
-1.138654
-1.246415
-1.388378
-1.521909
-1.577429
-1.513241
-1.268904
-0.796160
-0.186607
0.425758
0.880932
1.075370
1.018444
0.773639
0.419433
0.029384
-0.316155
-0.543624
-0.604533
-0.486933
-0.230883
0.120278
0.466051
0.691412
0.840404
0.952616
1.015867
0.940669
0.674077
0.318934
-0.079549
-0.474048
-0.831066
-1.183398
-1.584691
-2.026278
-2.450060
-2.840109
-3.121694
-3.263891
-3.357597
-3.464187
-3.568434
-3.580616
-3.322692
-2.766316
-2.044082
-1.220646
-0.347780
0.517589
1.365623
2.152982
2.807514
3.334607
3.728169
3.889577
3.734963
3.277915
2.577702
1.734822
0.805499
-0.255480
-1.450224
-2.726960
-3.909053
-4.832051
-5.509541
-5.939883
-6.071305
-5.844538
-5.326816
-4.707657
-4.170257
-3.781848
-3.400936
-2.896332
-2.285139
-1.669729
-1.087350
-0.525352
0.053982
0.721398
1.430045
2.099102
2.602768
2.809623
2.756679
2.593397
2.428944
2.297757
2.202880
2.113392
2.038427
1.955498
1.833681
1.752392
1.772070
1.933712
2.275502
2.822038
3.551769
4.300006
4.897144
5.215508
5.139841
4.691461
3.969929
3.103857
2.264492
1.575991
1.034608
0.617385
0.299021
0.023527
-0.154279
-0.169506
-0.028713
0.183295
0.360398
0.424821
0.286371
-0.078846
-0.639204
-1.287645
-1.929058
-2.476063
-2.781075
-2.822305
-2.655509
-2.330586
-1.882909
-1.317397
-0.730098
-0.242830
0.043674
0.037817
-0.207222
-0.589774
-1.003952
-1.356284
-1.618425
-1.774445
-1.849643
-1.792717
-1.589376
-1.309666
-0.985445
-0.694959
-0.526055
-0.530037
-0.626788
-0.674109
-0.597271
-0.329273
0.124261
0.673608
1.266529
1.871163
2.398724
2.807983
3.132437
3.364827
3.468840
3.430655
3.210681
2.825787
2.406455
2.057871
1.813066
1.601057
1.376633
1.216631
1.151506
1.077010
0.864299
0.464177
-0.087279
-0.632410
-1.086179
-1.451161
-1.673243
-1.771165
-1.786158
-1.787563
-1.875646
-2.029792
-2.202210
-2.393837
-2.626226
-2.873140
-3.009247
-3.000814
-2.937562
-2.889539
-2.793959
-2.540017
-2.137553
-1.599450
-0.940233
-0.192698
0.561865
1.183131
1.618393
1.872569
1.951281
1.866712
1.703431
1.563107
1.446678
1.258096
0.954959
0.598644
0.229679
-0.099695
-0.416419
-0.765238
-1.093675
-1.354644
-1.493797
-1.491454
-1.423752
-1.372214
-1.361672
-1.438745
-1.591485
-1.737665
-1.762497
-1.503402
-0.836454
0.318934
1.904194
3.683425
5.345524
6.724633
7.868307
8.879622
9.749911
10.367430
10.693520
10.702190
10.426230
9.987220
9.504638
9.086477
8.787323
8.579297
8.382047
8.146612
7.857063
7.523003
7.157318
6.744311
6.175051
5.306402
4.108613
2.702798
1.356721
0.346811
-0.154981
-0.069475
0.613403
1.800181
3.266436
4.647185
5.570417
5.929777
5.884096
5.679350
5.497796
5.339668
5.120397
4.934158
4.951727
5.136093
5.245494
4.998580
4.317108
3.313523
2.117842
0.836187
-0.505205
-1.834650
-2.994020
-3.913504
-4.551638
-4.851729
-4.828069
-4.582795
-4.247798
-3.945832
-3.785128
-3.771072
-3.789110
-3.729841
-3.617864
-3.555784
-3.606853
-3.740149
-3.906476
-4.112628
-4.363993
-4.693133
-5.025553
-5.230533
-5.306200
-5.258176
-5.118555
-4.920837
-4.697584
-4.520715
-4.398898
-4.370318
-4.491666
-4.677906
-4.805579
-4.825023
-4.674860
-4.370318
-4.010958
-3.698684
-3.515022
-3.403981
-3.292706
-3.166906
-3.056568
-2.948573
-2.756243
-2.543531
-2.403910
-2.306691
-2.177378
-1.876349
-1.351365
-0.734315
-0.112814
0.449418
0.796362
0.849072
0.628161
0.206721
-0.169740
-0.327634
-0.264851
0.056793
0.491117
0.819086
0.885383
0.622773
0.196882
-0.098992
0.046954
0.639406
1.426063
2.078955
2.374830
2.308533
1.835789
1.030626
-0.066196
-1.497077
-3.108575
-4.658930
-5.860702
-6.509143
-6.639393
-6.421060
-5.984627
-5.472293
-5.016417
-4.669003
-4.401006
-4.182438
-4.092716
-4.119421
-4.197432
-4.237256
-4.070929
-3.674555
-3.245853
-3.105061
-3.404450
-3.975115
-4.492369
-4.743968
-4.674158
-4.307535
-3.730076
-2.973639
-1.964666
-0.613435
1.009542
2.700924
4.212626
5.383241
6.220733
6.711983
6.813653
6.473971
5.745646
4.818197
3.749487
2.650323
1.638540
0.699612
-0.004350
-0.287106
0.085841
1.143541
2.481419
3.753236
4.635706
4.988741
4.855914
4.193651
3.153755
1.937225
0.563505
-0.870188
-2.182766
-3.342370
-4.467069
-5.701169
-7.046543
-8.371069
-9.563235
-10.507550
-11.056430
-11.130930
-10.789370
-10.233930
-9.804293
-9.701450
-9.782271
-9.755800
-9.353570
-8.662726
-8.011006
-7.524441
-7.266048
-7.174451
-7.181245
-7.273076
-7.402389
-7.605027
-7.677180
-7.414571
-6.903877
-6.286827
-5.584271
-4.746311
-4.005101
-3.512211
-3.235780
-3.213993
-3.270919
-3.277947
-3.246322
-3.218210
-3.385474
-3.788876
-4.420450
-5.341105
-6.404896
-7.426284
-8.279940
-8.910578
-9.254007
-9.187945
-8.759712
-8.019673
-6.861944
-5.208044
-3.064533
-0.519261
2.240128
4.947745
7.204639
8.647233
9.134970
8.786854
7.885174
6.597194
5.131173
3.683894
2.304550
0.921459
-0.597036
-2.183469
-3.759359
-5.293784
-6.713421
-7.922454
-8.764398
-9.109701
-8.913155
-8.291185
-7.494455
-6.745983
-6.081846
-5.438793
-4.749825
-3.945598
-3.072967
-2.227744
-1.508556
-1.015431
-0.813027
-0.881198
-1.014494
-0.893848
-0.402598
0.213047
0.714136
1.059909
1.240994
1.191331
0.910917
0.463240
-0.162009
-0.920789
-1.797637
-2.768190
-3.648318
-4.255997
-4.501740
-4.357902
-3.915378
-3.254755
-2.369708
-1.338715
-0.297648
0.461600
0.628630
0.042034
-1.307792
-3.269982
-5.653613
-8.201228
-10.767580
-13.206270
-15.240140
-16.574039
-16.921921
-16.162901
-14.325340
-11.594770
-8.213175
-4.445048
-0.587197
3.213961
6.769846
9.741010
11.909590
13.215140
13.689050
13.524830
12.925120
12.011490
10.922170
9.620130
7.976537
6.116251
4.283140
2.728801
1.686095
1.207026
1.190628
1.473852
1.804164
1.940739
1.862495
1.685392
1.553268
1.603634
1.875614
2.362882
3.012026
3.717393
4.522323
5.535043
6.686448
7.820518
8.758274
9.468092
10.072960
10.697510
11.438720
12.199140
12.877330
13.401610
13.708500
13.797750
13.521320
12.763010
11.490720
9.722503
7.711351
5.780551
4.152421
2.841482
1.671805
0.665175
-0.130618
-0.831300
-1.465920
-2.081095
-2.679404
-3.199001
-3.625829
-3.950049
-4.110754
-4.076317
-4.019625
-4.050080
-4.210082
-4.469177
-4.680951
-4.938641
-5.224442
-5.384444
-5.461517
-5.464562
-5.377651
-5.140108
-4.687276
-4.107240
-3.475431
-2.847840
-2.251873
-1.655439
-1.104451
-0.627725
-0.300225
-0.245173
-0.418059
-0.730332
-1.017774
-1.144276
-1.159972
-1.144042
-1.178478
-1.207527
-1.097657
-0.797332
-0.366053
0.111845
0.646200
1.083335
1.321347
1.457688
1.642756
2.024371
2.473220
2.900048
3.378414
3.957748
4.705516
5.654284
6.867768
8.313173
10.029150
12.125110
14.540830
17.138580
19.650820
21.746540
23.080910
23.571461
23.369520
22.630421
21.537809
20.071091
18.213850
16.089781
13.891690
11.821030
9.940836
8.260230
6.760476
5.440635
4.302349
3.393407
2.872405
2.699519
2.649386
2.578170
2.401067
2.196321
2.088091
2.059979
2.039364
1.904429
1.650487
1.309165
0.803625
0.113953
-0.619291
-1.128814
-1.147087
-0.502160
0.599347
1.840475
3.099641
4.177721
4.899955
5.158582
4.950322
4.373331
3.576601
2.815011
2.280890
2.050843
2.133538
2.479545
2.957208
3.455253
3.885360
4.196930
4.456494
4.679279
4.832722
4.883791
4.790554
4.581123
4.306800
3.951657
3.529280
3.049977
2.497818
1.946362
1.531013
1.428171
1.669931
2.117374
2.532957
2.710061
2.675390
2.558023
2.503206
2.575593
2.753399
3.028190
3.367872
3.578475
3.371152
2.570674
1.036951
-1.182227
-3.830341
-6.629086
-9.304843
-11.723610
-13.839010
-15.579590
-16.816271
-17.466820
-17.542950
-17.067869
-16.106449
-14.666660
-12.770540
-10.515750
-8.052938
-5.583334
-3.220787
-1.060175
0.795660
2.248093
3.224737
3.740351
3.889577
3.824686
3.691156
3.507493
3.151881
2.587541
1.837195
1.005560
0.192666
-0.586495
-1.322082
-2.115298
-2.939437
-3.732653
-4.494477
-5.167750
-5.772150
-6.244659
-6.565132
-6.864755
-7.178433
-7.467046
-7.592611
-7.442917
-7.073015
-6.535146
-5.902166
-5.254897
-4.673923
-4.279892
-4.096230
-4.036258
-4.002056
-3.979098
-3.958014
-3.866417
-3.723048
-3.574759
-3.462078
-3.496047
-3.763576
-4.308238
-5.091615
-5.970806
-6.769878
-7.326020
-7.550912
-7.465172
-7.211231
-6.937142
-6.768941
-6.782294
-6.904111
-7.099956
-7.332813
-7.480868
-7.394190
-6.873423
-5.843601
-4.436615
-2.917416
-1.476461
-0.208628
0.872264
1.855233
2.734190
3.436277
3.872241
3.983048
3.742928
3.121896
2.127916
0.870624
-0.488573
-1.854328
-3.106701
-4.168149
-5.038437
-5.708665
-6.244191
-6.694211
-7.024289
-7.225755
-7.322037
-7.304467
-7.118462
-6.678750
-5.909897
-4.865551
-3.710632
-2.633489
-1.790375
-1.182695
-0.776014
-0.548778
-0.440314
-0.400255
-0.359259
-0.291323
-0.236974
-0.213079
-0.272582
-0.506377
-0.881432
-1.324659
-1.797402
-2.204084
-2.565552
-2.995660
-3.519707
-4.169554
-4.887806
-5.542338
-6.083018
-6.467679
-6.681795
-6.723963
-6.580359
-6.296197
-5.996340
-5.806821
-5.696014
-5.584974
-5.427314
-5.147838
-4.741859
-4.210784
-3.494173
-2.596709
-1.621939
-0.684417
0.129180
0.776216
1.180555
1.265826
1.133702
0.916071
0.720461
0.644794
0.674077
0.807373
1.017741
1.217334
1.406853
1.626592
1.918250
2.298460
2.756913
3.247695
3.660936
3.930339
4.026387
3.995230
3.931744
3.890748
3.969695
4.254794
4.741827
5.391440
6.137569
6.920946
7.751410
8.599912
9.465281
10.402800
11.366800
12.334310
13.277220
14.132040
14.893170
15.477180
15.779850
15.755250
15.335920
14.531700
13.453150
12.154160
10.735690
9.336905
8.079144
7.137874
6.564397
6.346532
6.468115
6.838251
7.327159
7.846052
8.363774
8.792711
9.090460
9.308793
9.463408
9.593657
9.730233
9.771932
9.680335
9.477463
9.168704
8.836284
8.506441
8.184094
7.893139
7.679022
7.631936
7.745788
7.959904
8.206584
8.444830
8.681436
8.838627
8.747732
8.250859
7.291317
5.967259
4.504753
3.079962
1.776521
0.693989
-0.111174
-0.635924
-0.960379
-1.160909
-1.252037
-1.291628
-1.318334
-1.350194
-1.351833
-1.209635
-0.875810
-0.358088
0.294102
0.904826
1.355315
1.601760
1.586533
1.368200
1.022427
0.604032
0.235067
0.014860
-0.068772
-0.024965
0.148624
0.398817
0.738734
1.179617
1.732479
2.405518
3.138528
3.883720
4.568472
5.138435
5.509040
5.586347
5.335685
4.758226
3.892622
2.828832
1.734353
0.685790
-0.211907
-0.876747
-1.302872
-1.376665
-1.099297
-0.500754
0.349154
1.283162
2.205926
2.983446
3.531388
3.793061
3.698652
3.290800
2.585901
1.633152
0.519463
-0.672704
-1.807944
-2.810358
-3.578742
-4.064136
-4.252249
-4.126684
-3.784425
-3.284975
-2.743827
-2.202444
-1.632715
-1.076339
-0.568222
-0.253138
-0.166460
-0.331147
-0.801783
-1.482084
-2.335037
-3.265297
-4.142848
-4.939812
-5.664155
-6.320327
-6.878108
-7.348978
-7.758001
-8.123219
-8.402460
-8.522403
-8.443457
-8.112207
-7.510853
-6.648998
-5.640494
-4.642298
-3.728670
-2.974342
-2.411173
-2.075707
-1.992544
-2.084844
-2.307628
-2.588744
-2.852993
-3.128487
-3.386177
-3.611070
-3.805743
-3.904602
-3.896403
-3.758890
-3.523924
-3.299265
-3.125208
-3.062191
-3.152617
-3.377041
-3.721877
-4.223903
-4.883823
-5.616599
-6.364837
-7.047012
-7.594954
-8.019673
-8.284860
-8.347877
-8.179208
-7.705995
-6.946513
-6.012270
-4.996270
-4.018454
-3.234843
-2.739376
-2.507455
-2.461071
-2.517528
-2.595304
-2.626929
-2.585464
-2.503941
-2.399459
-2.291230
-2.165430
-1.928824
-1.531513
-0.979589
-0.359259
0.257088
0.827051
1.258330
1.525390
1.549519
1.327203
0.943714
0.407954
-0.138114
-0.583449
-0.881432
-0.925240
-0.675046
-0.180282
0.504470
1.312445
2.107066
2.841248
3.480319
4.000852
4.423697
4.683027
4.814683
4.879340
4.909091
4.904172
4.774156
4.483903
4.018890
3.375837
2.527804
1.464482
0.235302
-1.081962
-2.379313
-3.573822
-4.600130
-5.365000
-5.762311
-5.816426
-5.588722
-5.212495
-4.882652
-4.624494
-4.438723
-4.319483
-4.211019
-4.080534
-3.940913
-3.797309
-3.645975
-3.497921
-3.346586
-3.269514
-3.328080
-3.532357
-3.869462
-4.245924
-4.610672
-4.912872
-5.103562
-5.182041
-5.134485
-4.992053
-4.756384
-4.406863
-3.959420
-3.444509
-2.915073
-2.339957
-1.745864
-1.201905
-0.739703
-0.405878
-0.147016
0.003615
0.007363
-0.061276
-0.142565
