EVENT_NAME: L_AQUILA
EVENT_ID: IT-2009-0009
EVENT_DATE_YYYYMMDD: 20090406
EVENT_TIME_HHMMSS: 013240
EVENT_LATITUDE_DEGREE: 42.3420
EVENT_LONGITUDE_DEGREE: 13.3800
EVENT_DEPTH_KM: 8.3
HYPOCENTER_REFERENCE: INGV-CNT_Seismic_Bulletin
MAGNITUDE_W: 6.1
MAGNITUDE_W_REFERENCE: INGV-CNT_Seismic_Bulletin
MAGNITUDE_L: 
MAGNITUDE_L_REFERENCE: 
FOCAL_MECHANISM: Normal faulting
NETWORK: IT
STATION_CODE: SUL
STATION_NAME: 
STATION_LATITUDE_DEGREE: 42.089000
STATION_LONGITUDE_DEGREE: 13.934000
STATION_ELEVATION_M: 556
LOCATION: 
SENSOR_DEPTH_M: 0.0
VS30_M/S: 
SITE_CLASSIFICATION_EC8: A (inferred from geology)
MORPHOLOGIC_CLASSIFICATION: 
EPICENTRAL_DISTANCE_KM: 53.7
EARTHQUAKE_BACKAZIMUTH_DEGREE: 121.4
DATE_TIME_FIRST_SAMPLE_YYYYMMDD_HHMMSS: 20090406_013236.000
DATE_TIME_FIRST_SAMPLE_PRECISION: seconds
SAMPLING_INTERVAL_S: 0.005000
NDATA: 20800
DURATION_S: 104.000
STREAM: HNZ
UNITS: cm/s
INSTRUMENT: sensor = FBA-3 [Kinemetrics] | digitizer = Etna [Kinemetrics]
INSTRUMENT_ANALOG/DIGITAL: D
INSTRUMENTAL_FREQUENCY_HZ: 214.000
INSTRUMENTAL_DAMPING: 0.700000
FULL_SCALE_G: 1.0
N_BIT_DIGITAL_CONVERTER: 18
PGV_CM/S: -2.471531
TIME_PGV_S: 26.610000
BASELINE_CORRECTION: BASELINE REMOVED
FILTER_TYPE: BUTTERWORTH
FILTER_ORDER: 2
LOW_CUT_FREQUENCY_HZ: 0.040
HIGH_CUT_FREQUENCY_HZ: 40.000
LATE/NORMAL_TRIGGERED: NT
DATABASE_VERSION: 0.5
HEADER_FORMAT: DYNA 1.2
DATA_TYPE: VELOCITY
PROCESSING: manual (Paolucci et al., 2011)
DATA_TIMESTAMP_YYYYMMDD_HHMMSS: 20211011_160357.567
DATA_LICENSE: CC-BY3_0-IT (http://creativecommons.org/licenses/by/3.0/deed.en)
DATA_CITATION: Luzi L, Pacor F, Puglia R (2019). Italian Accelerometric Archive v 3.0 - Istituto Nazionale di Geofisica e Vulcanologia, Dipartimento della Protezione Civile Nazionale. doi: 10.13127/itaca.3.1
DATA_CREATOR: ITACA working group
ORIGINAL_DATA_MEDIATOR_CITATION: data obtained within the DPC-INGV data exchange agreements
ORIGINAL_DATA_MEDIATOR: Archive of Italian Department of Civil Protection
ORIGINAL_DATA_CREATOR_CITATION: Presidency Of Counsil Of Ministers-Civil Protection Department. (1972). Italian Strong Motion Network. Presidency of Counsil of Ministers - Civil Protection Department. https://doi.org/10.7914/SN/IT http://www.fdsn.org/networks/detail/IT/
ORIGINAL_DATA_CREATOR: network: IT (Italian Strong Motion Network (RAN)); owner: Presidency of Counsil of Ministers - Civil Protection Department (PCM - DPC)
USER1: 
USER2: 
USER3: 
USER4: 
USER5: 
[...]
-0.342447
-0.331241
-0.322672
-0.317470
-0.315137
-0.314151
-0.312529
-0.308830
-0.303072
-0.296592
-0.290730
-0.285438
-0.279121
-0.269756
-0.256220
-0.238957
-0.219818
-0.201201
-0.184918
-0.171535
-0.160540
-0.150930
-0.141669
-0.132023
-0.122040
-0.112744
-0.105413
-0.100343
-0.096304
-0.091238
-0.083485
-0.072410
-0.058093
-0.040793
-0.020994
0.000107
0.020589
0.038524
0.052808
0.063334
0.070559
0.075049
0.077391
0.078313
0.078651
0.079022
0.079513
0.079844
0.079924
0.080179
0.081225
0.083290
0.086074
0.089167
0.092472
0.096216
0.100737
0.106460
0.114033
0.124274
0.137761
0.154399
0.173331
0.193231
0.212895
0.231765
0.249946
0.267755
0.285306
0.302429
0.318765
0.333852
0.347175
0.358174
0.366172
0.370500
0.370932
0.368109
0.363429
0.358207
0.352657
0.345593
0.335244
0.320557
0.301961
0.281260
0.260988
0.243550
0.230527
0.222483
0.219194
0.219909
0.223435
0.228204
0.232590
0.235502
0.236779
0.237021
0.237167
0.238351
0.241857
0.248671
0.258884
0.271653
0.285774
0.300257
0.314522
0.328152
0.340320
0.349285
0.352592
0.348048
0.334738
0.313287
0.285383
0.253247
0.219520
0.187281
0.159718
0.139373
0.127412
0.123382
0.125553
0.131600
0.139324
0.147122
0.153945
0.158954
0.161414
0.161094
0.158671
0.155505
0.152788
0.150855
0.149246
0.147228
0.144125
0.139314
0.132205
0.122397
0.109918
0.095391
0.080000
0.065100
0.051587
0.039589
0.028786
0.018948
0.010160
0.002801
-0.002563
-0.005570
-0.006663
-0.007134
-0.008349
-0.010883
-0.014428
-0.018388
-0.022450
-0.026621
-0.030947
-0.035344
-0.039737
-0.044362
-0.049877
-0.057064
-0.066325
-0.077401
-0.089516
-0.101763
-0.113401
-0.123842
-0.132542
-0.139164
-0.143924
-0.147547
-0.150744
-0.153870
-0.157109
-0.160735
-0.164973
-0.169692
-0.174367
-0.178353
-0.181054
-0.181787
-0.179624
-0.173671
-0.163724
-0.150702
-0.136398
-0.122686
-0.110711
-0.100658
-0.092153
-0.084807
-0.078382
-0.072624
-0.067152
-0.061754
-0.056912
-0.053911
-0.054228
-0.058759
-0.067620
-0.080582
-0.097445
-0.117880
-0.141052
-0.165474
-0.189132
-0.209738
-0.225138
-0.233836
-0.235330
-0.229930
-0.218230
-0.200882
-0.178979
-0.154414
-0.129596
-0.106747
-0.087399
-0.072259
-0.061238
-0.053568
-0.048068
-0.043433
-0.038476
-0.032462
-0.025474
-0.018524
-0.013139
-0.010566
-0.011156
-0.014404
-0.019496
-0.025702
-0.032210
-0.037882
-0.041614
-0.042981
-0.042292
-0.039961
-0.036010
-0.030301
-0.023101
-0.015270
-0.007917
-0.001956
0.002121
0.004330
0.005177
0.005448
0.005912
0.007232
0.010019
0.014804
0.021876
0.031103
0.041890
0.053381
0.064814
0.075716
0.085812
0.094831
0.102433
0.108269
0.112139
0.114162
0.114764
0.114392
0.113222
0.111241
0.108683
0.106269
0.104839
0.104704
0.105369
0.105913
0.105635
0.104377
0.102337
0.099764
0.096966
0.094580
0.093595
0.094884
0.098599
0.103973
0.109623
0.114102
0.116444
0.116478
0.114767
0.112217
0.109572
0.107119
0.104765
0.102244
0.099313
0.096033
0.093013
0.091161
0.090955
0.092027
0.093605
0.095331
0.097502
0.100588
0.104628
0.109070
0.113073
0.115969
0.117503
0.117837
0.117523
0.117358
0.117981
0.119423
0.121031
0.121830
0.121034
0.118355
0.114002
0.108496
0.102475
0.096532
0.091037
0.086041
0.081393
0.076865
0.072029
0.066140
0.058362
0.048281
0.036351
0.024018
0.013378
0.006409
0.004209
0.006754
0.013281
0.022918
0.035027
0.049043
0.064046
0.078598
0.091060
0.100130
0.105201
0.106335
0.104005
0.098958
0.092172
0.084618
0.076808
0.068585
0.059487
0.049363
0.038594
0.027739
0.017089
0.006582
-0.003951
-0.014497
-0.024699
-0.033908
-0.041445
-0.046936
-0.050497
-0.052660
-0.054102
-0.055378
-0.056771
-0.058339
-0.060043
-0.061789
-0.063375
-0.064517
-0.064999
-0.064743
-0.063643
-0.061298
-0.056961
-0.049889
-0.039860
-0.027404
-0.013579
0.000450
0.013645
0.025042
0.033662
0.038627
0.039399
0.035892
0.028419
0.017615
0.004302
-0.010777
-0.027174
-0.044620
-0.062646
-0.080370
-0.096791
-0.111305
-0.123869
-0.134682
-0.143828
-0.151269
-0.157077
-0.161527
-0.164964
-0.167597
-0.169383
-0.169991
-0.168858
-0.165532
-0.160191
-0.153833
-0.147865
-0.143438
-0.141078
-0.140803
-0.142429
-0.145694
-0.150151
-0.155108
-0.159753
-0.163454
-0.166089
-0.168123
-0.170236
-0.172765
-0.175467
-0.177779
-0.179177
-0.179325
-0.178104
-0.175673
-0.172543
-0.169549
-0.167652
-0.167643
-0.169932
-0.174484
-0.180884
-0.188424
-0.196205
-0.203368
-0.209389
-0.214130
-0.217461
-0.218858
-0.217550
-0.213147
-0.206093
-0.197500
-0.188597
-0.180363
-0.173547
-0.168864
-0.167044
-0.168671
-0.173869
-0.181982
-0.191567
-0.200948
-0.208946
-0.215160
-0.219688
-0.222736
-0.224491
-0.225183
-0.225177
-0.224925
-0.224737
-0.224554
-0.224030
-0.222853
-0.220919
-0.218256
-0.214894
-0.210847
-0.206178
-0.201039
-0.195628
-0.190134
-0.184708
-0.179353
-0.173662
-0.166671
-0.157235
-0.144755
-0.129599
-0.112892
-0.095999
-0.080197
-0.066665
-0.056504
-0.050623
-0.049540
-0.053231
-0.061020
-0.071615
-0.083487
-0.095457
-0.107002
-0.118074
-0.128735
-0.138943
-0.148570
-0.157591
-0.166230
-0.174847
-0.183611
-0.192284
-0.200364
-0.207456
-0.213552
-0.218948
-0.223899
-0.228324
-0.231814
-0.233969
-0.234869
-0.235360
-0.236819
-0.240417
-0.246468
-0.254410
-0.263367
-0.272643
-0.281699
-0.289903
-0.296637
-0.301856
-0.306536
-0.312391
-0.320980
-0.332856
-0.347347
-0.363038
-0.378471
-0.392610
-0.405031
-0.416054
-0.426760
-0.438619
-0.452753
-0.469337
-0.487667
-0.506737
-0.525692
-0.543894
-0.560830
-0.576056
-0.589191
-0.599858
-0.607634
-0.612101
-0.613064
-0.610833
-0.606322
-0.600797
-0.595431
-0.591012
-0.587854
-0.585830
-0.584503
-0.583334
-0.581848
-0.579696
-0.576687
-0.572821
-0.568267
-0.563213
-0.557711
-0.551656
-0.544890
-0.537278
-0.528604
-0.518439
-0.506237
-0.491570
-0.474266
-0.454424
-0.432475
-0.409292
-0.386101
-0.364116
-0.344100
-0.326181
-0.310005
-0.295076
-0.280964
-0.267237
-0.253260
-0.238134
-0.220962
-0.201297
-0.179488
-0.156631
-0.134176
-0.113468
-0.095512
-0.080971
-0.070281
-0.063679
-0.061050
-0.061688
-0.064180
-0.066635
-0.067224
-0.064720
-0.058699
-0.049377
-0.037324
-0.023249
-0.007872
0.008174
0.024390
0.040409
0.055939
0.070750
0.084740
0.097997
0.110730
0.123139
0.135406
0.147873
0.161187
0.176120
0.193103
0.211831
0.231297
0.250149
0.267089
0.281128
0.291727
0.298811
0.302687
0.303988
0.303718
0.303187
0.303684
0.306000
0.310173
0.315621
0.321586
0.327545
0.333236
0.338366
0.342387
0.344671
0.344936
0.343466
0.340926
0.337992
0.335163
0.332813
0.331280
0.330822
0.331558
0.333486
0.336478
0.340253
0.344403
0.348560
0.352548
0.356403
0.360246
0.364110
0.367869
0.371353
0.374535
0.377654
0.381172
0.385644
0.391642
0.399712
0.410145
0.422612
0.436043
0.449051
0.460596
0.470353
0.478548
0.485537
0.491516
0.496473
0.500297
0.502884
0.504244
0.504652
0.504650
0.504734
0.504958
0.504966
0.504501
0.503871
0.503876
0.505359
0.508900
0.514862
0.523495
0.534749
0.547872
0.561234
0.572638
0.580006
0.582000
0.578178
0.568710
0.554012
0.534588
0.511096
0.484537
0.456443
0.428910
0.404300
0.384687
0.371324
0.364422
0.363300
0.366676
0.372911
0.380127
0.386329
0.389570
0.388168
0.380972
0.367724
0.349372
0.328035
0.306468
0.287292
0.272408
0.262830
0.258842
0.260242
0.266430
0.276378
0.288702
0.302000
0.315262
0.328008
0.340115
0.351534
0.362185
0.372018
0.381097
0.389548
0.397398
0.404459
0.410301
0.414326
0.415962
0.414967
0.411665
0.406850
0.401327
0.395462
0.389162
0.382216
0.374626
0.366726
0.359199
0.352996
0.349114
0.348207
0.350257
0.354532
0.359835
0.364920
0.368804
0.370904
0.371059
0.369509
0.366840
0.363872
0.361481
0.360390
0.360969
0.363154
0.366586
0.370885
0.375746
0.380773
0.385337
0.388707
0.390332
0.389983
0.387692
0.383560
0.377581
0.369605
0.359474
0.347203
0.333075
0.317599
0.301282
0.284383
0.266925
0.249030
0.231301
0.214871
0.201023
0.190755
0.184631
0.182876
0.185502
0.192344
0.203054
0.217118
0.233894
0.252540
0.271885
0.290471
0.306834
0.319808
0.328603
0.332617
0.331227
0.323845
0.310255
0.290889
0.266753
0.239125
0.209420
0.179226
0.150183
0.123557
0.099831
0.078745
0.059843
0.043038
0.028687
0.017214
0.008776
0.003283
0.000659
0.001047
0.004757
0.011980
0.022448
0.035276
0.049187
0.063013
0.076095
0.088312
0.099827
0.110828
0.121422
0.131606
0.141303
0.150468
0.159260
0.168131
0.177819
0.189285
0.203545
0.221352
0.242825
0.267260
0.293211
0.318811
0.342219
0.362050
0.377650
0.389115
0.397062
0.402254
0.405327
0.406723
0.406821
0.406145
0.405410
0.405310
0.406218
0.408015
0.410084
0.411443
0.410990
0.407798
0.401358
0.391705
0.379450
0.365658
0.351556
0.338240
0.326580
0.317259
0.310742
0.307099
0.305839
0.305922
0.306036
0.305003
0.302105
0.297169
0.290437
0.282358
0.273438
0.264227
0.255345
0.247417
0.240919
0.236023
0.232493
0.229723
0.227005
0.223928
0.220625
0.217742
0.216179
0.216788
0.220151
0.226524
0.235843
0.247778
0.261853
0.277570
0.294420
0.311780
0.328859
0.344802
0.358954
0.371122
0.381537
0.390564
0.398451
0.405387
0.411646
0.417476
0.422777
0.426957
0.429179
0.428821
0.425762
0.420336
0.413132
0.404827
0.396030
0.387105
0.378065
0.368657
0.358579
0.347608
0.335571
0.322366
0.308114
0.293230
0.278215
0.263381
0.248889
0.235032
0.222389
0.211711
0.203748
0.199130
0.198223
0.200968
0.206824
0.214919
0.224272
0.233964
0.243304
0.251962
0.259903
0.267094
0.273276
0.278040
0.281082
0.282332
0.281860
0.279701
0.275846
0.270394
0.263699
0.256343
0.248915
0.241767
0.234909
0.228060
0.220801
0.212795
0.204071
0.195283
0.187851
0.183873
0.185717
0.195330
0.213565
0.240029
0.273593
0.313096
0.357644
0.406381
0.458176
0.511574
0.565007
0.617132
0.667110
0.714726
0.760279
0.804289
0.847170
0.889036
0.929737
0.969031
1.006724
1.042652
1.076437
1.107199
1.133526
1.153903
1.167423
1.174346
1.176213
1.175530
1.175312
1.178582
1.187789
1.204120
1.227047
1.254553
1.284091
1.313667
1.342331
1.369900
1.396402
1.421918
1.446841
1.471915
1.497659
1.523650
1.548402
1.569955
1.586620
1.597312
1.601461
1.598874
1.589768
1.574853
1.555306
1.532633
1.508492
1.484422
1.461528
1.440259
1.420404
1.401350
1.382528
1.363769
1.345248
1.327124
1.309239
1.291189
1.272569
1.253097
1.232538
1.210618
1.187119
1.162112
1.136036
1.109542
1.083265
1.057694
1.033121
1.009625
0.987063
0.965072
0.943106
0.920604
0.897277
0.873302
0.849284
0.826030
0.804218
0.784109
0.765488
0.747898
0.730974
0.714575
0.698699
0.683397
0.668805
0.655091
0.642269
0.630144
0.618576
0.607831
0.598645
0.591907
0.588237
0.587747
0.589964
0.593846
0.597974
0.600987
0.602100
0.601425
0.599873
0.598734
0.599147
0.601580
0.605528
0.609680
0.612597
0.613632
0.613523
0.614141
0.617456
0.624433
0.634608
0.646439
0.657957
0.667220
0.672442
0.671955
0.664309
0.648720
0.625579
0.596576
0.564215
0.531022
0.498912
0.468970
0.441526
0.416372
0.393071
0.371178
0.350236
0.329696
0.309022
0.287997
0.267011
0.246992
0.228791
0.212353
0.196426
0.179209
0.159477
0.137267
0.113717
0.090408
0.068789
0.050004
0.035140
0.025525
0.022678
0.027796
0.041179
0.062076
0.089006
0.120202
0.153786
0.187742
0.220013
0.248822
0.272944
0.291749
0.305085
0.313149
0.316521
0.316494
0.315379
0.316271
0.322078
0.334378
0.352924
0.375951
0.400902
0.425069
0.446033
0.461945
0.471597
0.474360
0.470177
0.459489
0.442826
0.420334
0.391682
0.356451
0.314611
0.266785
0.214326
0.159242
0.103843
0.050062
-0.001286
-0.050729
-0.099481
-0.148264
-0.196578
-0.243046
-0.286493
-0.326729
-0.364477
-0.400791
-0.436569
-0.472426
-0.508804
-0.546014
-0.584005
-0.622085
-0.659047
-0.693690
-0.725138
-0.752825
-0.776553
-0.796724
-0.814344
-0.830664
-0.846694
-0.862872
-0.879117
-0.895243
-0.911424
-0.928397
-0.947335
-0.969587
-0.996349
-1.028284
-1.065319
-1.106716
-1.151259
-1.197380
-1.243304
-1.287237
-1.327344
-1.361546
-1.387460
-1.402650
-1.405090
-1.393719
-1.369001
-1.333244
-1.290330
-1.244796
-1.200772
-1.161316
-1.128277
-1.102435
-1.083826
-1.072270
-1.067829
-1.070858
-1.081715
-1.100506
-1.127016
-1.160646
-1.200238
-1.243921
-1.289234
-1.333618
-1.375109
-1.412791
-1.446664
-1.477085
-1.504215
-1.527825
-1.547462
-1.562793
-1.573910
-1.581473
-1.586682
-1.590990
-1.595490
-1.600265
-1.604310
-1.606276
-1.605421
-1.601927
-1.596577
-1.590395
-1.584472
-1.579868
-1.577534
-1.578309
-1.582950
-1.592080
-1.605939
-1.624062
-1.645198
-1.667580
-1.689386
-1.709043
-1.725260
-1.736961
-1.743455
-1.744893
-1.742736
-1.739800
-1.739762
-1.746361
-1.762694
-1.790836
-1.831826
-1.885791
-1.951896
-2.028058
-2.110738
-2.195127
-2.275755
-2.347293
-2.405237
-2.446332
-2.468664
-2.471531
-2.455303
-2.421516
-2.372988
-2.313598
-2.247663
-2.179225
-2.111517
-2.046793
-1.986522
-1.931833
-1.883964
-1.844280
-1.813737
-1.792238
-1.778378
-1.769743
-1.763576
-1.757519
-1.750190
-1.741401
-1.731885
-1.722615
-1.714133
-1.706243
-1.698122
-1.688661
-1.676842
-1.661938
-1.643404
-1.620600
-1.592742
-1.559286
-1.520363
-1.476767
-1.429456
-1.378976
-1.325277
-1.268022
-1.207070
-1.142730
-1.075722
-1.007043
-0.938018
-0.870475
-0.806791
-0.749587
-0.701075
-0.662355
-0.633144
-0.612213
-0.598157
-0.589850
-0.586402
-0.587048
-0.591217
-0.598597
-0.609042
-0.622402
-0.638396
-0.656559
-0.676225
-0.696583
-0.716963
-0.737172
-0.757543
-0.778618
-0.800797
-0.824257
-0.849039
-0.875029
-0.901911
-0.929265
-0.956648
-0.983499
-1.009050
-1.032442
-1.053008
-1.070441
-1.084716
-1.095918
-1.104149
-1.109595
-1.112707
-1.114348
-1.115693
-1.117855
-1.121427
-1.126302
-1.131919
-1.137757
-1.143644
-1.149625
-1.155561
-1.160905
-1.164860
-1.166706
-1.166027
-1.162842
-1.157646
-1.151152
-1.143761
-1.135274
-1.125142
-1.112939
-1.098483
-1.081578
-1.061748
-1.038193
-1.009869
-0.975602
-0.934091
-0.883810
-0.823024
-0.750142
-0.664325
-0.566102
-0.457665
-0.342548
-0.224747
-0.107806
0.005568
0.113289
0.213483
0.304427
0.384895
0.454510
0.513726
0.563469
0.604761
0.638527
0.665634
0.687089
0.704274
0.718867
0.732342
0.745439
0.758134
0.770103
0.781246
0.791820
0.802140
0.812224
0.821727
0.830087
0.836601
0.840420
0.840795
0.837675
0.832250
0.826926
0.824554
0.827403
0.836593
0.852096
0.872926
0.897313
0.922990
0.947647
0.969434
0.987382
1.001599
1.013112
1.023451
1.034196
1.046597
1.061346
1.078544
1.097876
1.118899
1.141261
1.164691
1.188840
1.213191
1.237126
1.260086
1.281633
1.301412
1.319068
1.334225
1.346599
1.356303
1.364132
1.371525
1.380023
1.390534
1.402932
1.416312
1.429692
1.442602
1.455212
1.468087
1.481903
1.497227
1.514188
1.532024
1.548775
1.561404
1.566355
1.560381
1.541299
1.508332
1.461920
1.403265
1.333999
1.256142
1.172169
1.084888
0.997180
0.911784
0.831258
0.758015
0.694257
0.641710
0.601369
0.573412
0.557326
0.552046
0.555999
0.567143
0.583151
0.601776
0.621264
0.640569
0.659180
0.676664
0.692302
0.705140
0.714338
0.719464
0.720507
0.717634
0.710925
0.700293
0.685631
0.666968
0.644515
0.618635
0.589845
0.558758
0.525877
0.491410
0.455402
0.418119
0.380325
0.343165
0.307804
0.275135
0.245653
0.219397
0.195922
0.174393
0.153905
0.133812
0.113818
0.093888
0.074157
0.054873
0.036286
0.018472
0.001164
-0.016372
-0.035299
-0.056963
-0.082477
-0.112310
-0.146058
-0.182536
-0.220151
-0.257444
-0.293542
-0.328329
-0.362295
-0.396191
-0.430701
-0.466280
-0.503035
-0.540478
-0.577293
-0.611388
-0.640442
-0.662691
-0.677433
-0.684958
-0.686076
-0.681619
-0.672232
-0.658531
-0.641385
-0.622053
-0.602138
-0.583473
-0.567972
-0.557384
-0.552990
-0.555418
-0.564642
-0.580104
-0.600906
-0.626045
-0.654615
-0.685911
-0.719369
-0.754449
-0.790602
-0.827285
-0.863866
-0.899429
-0.932667
-0.962060
-0.986342
-1.004974
-1.018304
-1.027320
-1.033223
-1.037115
-1.039867
-1.042072
-1.044024
-1.045758
-1.047200
-1.048344
-1.049400
-1.050871
-1.053472
-1.057883
-1.064503
-1.073366
-1.084286
-1.097158
-1.112193
-1.129897
-1.150808
-1.175185
-1.202847
-1.233237
-1.265580
-1.298990
-1.332529
-1.365329
-1.396830
-1.426974
-1.456093
-1.484557
-1.512457
-1.539536
-1.565282
-1.589039
-1.610029
-1.627386
-1.640341
-1.648494
-1.651947
-1.651266
-1.647414
-1.641675
-1.635423
-1.629733
-1.625093
-1.621395
-1.618146
-1.614741
-1.610673
-1.605659
-1.599640
-1.592616
-1.584453
-1.574817
-1.563264
-1.549420
-1.533209
-1.514973
-1.495410
-1.475323
-1.455334
-1.435698
-1.416226
-1.396287
-1.374945
-1.351210
-1.324280
-1.293646
-1.259038
-1.220310
-1.177336
-1.129944
-1.077915
-1.021078
-0.959402
-0.893034
-0.822314
-0.747814
-0.670455
-0.591575
-0.512884
-0.436286
-0.363607
-0.296361
-0.235632
-0.181977
-0.135304
-0.094804
-0.059031
-0.026175
0.005625
0.037999
0.072143
0.108735
0.147992
0.189769
0.233648
0.279090
0.325630
0.372999
0.421075
0.469694
0.518479
0.566847
0.614195
0.660084
0.704304
0.746815
0.787681
0.827122
0.865610
0.903856
0.942590
0.982327
1.023320
1.065643
1.109180
1.153383
1.196982
1.238022
1.274342
1.304233
1.326862
1.342281
1.351195
1.354739
1.354265
1.351079
1.346225
1.340437
1.334180
1.327688
1.321013
1.314188
1.307472
1.301507
1.297224
1.295538
1.296971
1.301414
1.308149
1.316070
1.323972
1.330808
1.335875
1.338928
1.340206
1.340308
1.339963
1.339857
1.340554
1.342524
1.346216
1.352138
1.360858
1.372897
1.388595
1.408012
1.430885
1.456586
1.484082
1.511964
1.538591
1.562311
1.581723
1.595921
1.604610
1.608071
1.607038
1.602600
1.596147
1.589328
1.583901
1.581465
1.583181
1.589591
1.600586
1.615479
1.633116
1.652006
1.670492
1.686926
1.699824
1.707970
1.710540
1.707205
1.698173
1.684159
1.666298
1.646010
1.624834
1.604219
1.585307
1.568801
1.555010
1.544042
1.535940
1.530627
1.527722
1.526424
1.525579
1.523832
1.519816
1.512360
1.500673
1.484442
1.463789
1.439079
1.410728
1.379158
1.344798
1.308036
1.269179
1.228525
1.186528
1.143918
1.101725
1.061227
1.023786
0.990583
0.962312
0.939058
0.920390
0.905523
0.893439
0.882982
0.873008
0.862574
0.851063
0.838195
0.823917
0.808271
0.791334
0.773235
0.754224
0.734723
0.715310
0.696578
0.678928
0.662420
0.646762
0.631400
0.615651
