EVENT_NAME: L_AQUILA
EVENT_ID: IT-2009-0009
EVENT_DATE_YYYYMMDD: 20090406
EVENT_TIME_HHMMSS: 013240
EVENT_LATITUDE_DEGREE: 42.3420
EVENT_LONGITUDE_DEGREE: 13.3800
EVENT_DEPTH_KM: 8.3
HYPOCENTER_REFERENCE: INGV-CNT_Seismic_Bulletin
MAGNITUDE_W: 6.1
MAGNITUDE_W_REFERENCE: INGV-CNT_Seismic_Bulletin
MAGNITUDE_L: 
MAGNITUDE_L_REFERENCE: 
FOCAL_MECHANISM: Normal faulting
NETWORK: IT
STATION_CODE: SUL
STATION_NAME: 
STATION_LATITUDE_DEGREE: 42.089000
STATION_LONGITUDE_DEGREE: 13.934000
STATION_ELEVATION_M: 556
LOCATION: 
SENSOR_DEPTH_M: 0.0
VS30_M/S: 
SITE_CLASSIFICATION_EC8: A (inferred from geology)
MORPHOLOGIC_CLASSIFICATION: 
EPICENTRAL_DISTANCE_KM: 53.7
EARTHQUAKE_BACKAZIMUTH_DEGREE: 121.4
DATE_TIME_FIRST_SAMPLE_YYYYMMDD_HHMMSS: 20090406_013236.000
DATE_TIME_FIRST_SAMPLE_PRECISION: seconds
SAMPLING_INTERVAL_S: 0.005000
NDATA: 20800
DURATION_S: 104.000
STREAM: HNE
UNITS: cm/s^2
INSTRUMENT: sensor = FBA-3 [Kinemetrics] | digitizer = Etna [Kinemetrics]
INSTRUMENT_ANALOG/DIGITAL: D
INSTRUMENTAL_FREQUENCY_HZ: 218.000
INSTRUMENTAL_DAMPING: 0.700000
FULL_SCALE_G: 1.0
N_BIT_DIGITAL_CONVERTER: 18
PGA_CM/S^2: -33.655548
TIME_PGA_S: 25.895000
BASELINE_CORRECTION: BASELINE NOT REMOVED
FILTER_TYPE: 
FILTER_ORDER: 
LOW_CUT_FREQUENCY_HZ: 
HIGH_CUT_FREQUENCY_HZ: 
LATE/NORMAL_TRIGGERED: NT
DATABASE_VERSION: 0.5
HEADER_FORMAT: DYNA 1.2
DATA_TYPE: ACCELERATION
PROCESSING: converted to cm/s^2
DATA_TIMESTAMP_YYYYMMDD_HHMMSS: 20211011_160356.058
DATA_LICENSE: CC-BY3_0-IT (http://creativecommons.org/licenses/by/3.0/deed.en)
DATA_CITATION: Luzi L, Pacor F, Puglia R (2019). Italian Accelerometric Archive v 3.0 - Istituto Nazionale di Geofisica e Vulcanologia, Dipartimento della Protezione Civile Nazionale. doi: 10.13127/itaca.3.1
DATA_CREATOR: ITACA working group
ORIGINAL_DATA_MEDIATOR_CITATION: data obtained within the DPC-INGV data exchange agreements
ORIGINAL_DATA_MEDIATOR: Archive of Italian Department of Civil Protection
ORIGINAL_DATA_CREATOR_CITATION: Presidency Of Counsil Of Ministers-Civil Protection Department. (1972). Italian Strong Motion Network. Presidency of Counsil of Ministers - Civil Protection Department. https://doi.org/10.7914/SN/IT http://www.fdsn.org/networks/detail/IT/
ORIGINAL_DATA_CREATOR: network: IT (Italian Strong Motion Network (RAN)); owner: Presidency of Counsil of Ministers - Civil Protection Department (PCM - DPC)
USER1: 
USER2: 
USER3: 
USER4: 
USER5: 
[...]
-0.164507
-0.642767
-0.414166
0.122355
0.573239
0.721818
0.364059
-0.532561
-1.660589
-2.605644
-3.085541
-3.055123
-2.615705
-2.110771
-1.776177
-1.578696
-1.520668
-1.504289
-1.398529
-1.323421
-1.644678
-2.376809
-3.231312
-4.057737
-4.547228
-4.400521
-3.626274
-2.469466
-1.263054
-0.186969
0.678063
1.270506
1.715540
2.140452
2.545241
2.836081
2.834911
2.534010
2.036564
1.598783
1.427976
1.377436
1.254361
0.926084
0.430744
-0.105778
-0.699156
-1.313828
-1.775475
-1.974593
-1.961257
-1.827653
-1.603498
-1.085695
-0.033009
1.402238
2.876560
4.016287
4.489399
4.333099
3.922928
3.624133
3.485382
3.236658
2.533776
1.313559
-0.153978
-1.432457
-2.151952
-2.369789
-2.499416
-2.819503
-3.206744
-3.390654
-3.255412
-2.888294
-2.461510
-2.211617
-2.288130
-2.484675
-2.486780
-2.122938
-1.472468
-0.858732
-0.409019
-0.157254
-0.362456
-1.013862
-1.801213
-2.397867
-2.504797
-2.101178
-1.380045
-0.655168
-0.255760
-0.257632
-0.517118
-0.776605
-0.789708
-0.569296
-0.357776
-0.268395
-0.228852
-0.167315
-0.044474
0.263914
0.896134
1.843060
2.930142
3.830505
4.357667
4.391127
3.902338
3.109606
2.146067
1.276589
0.687656
0.349084
0.228349
0.073219
-0.197966
-0.387024
-0.390300
-0.297175
-0.125666
0.155815
0.331535
0.325920
0.145987
-0.303024
-0.972214
-1.728210
-2.400441
-2.814356
-2.706724
-2.057657
-1.267733
-0.567892
-0.099694
0.009108
-0.047048
-0.064597
-0.043772
-0.029967
-0.105778
-0.218791
-0.200072
-0.036519
0.239346
0.615590
1.034184
1.493257
2.051772
2.632984
3.078018
3.114988
2.463113
1.443653
0.659110
0.354231
0.524571
1.017571
1.445057
1.558070
1.444589
1.075131
0.547735
0.102935
-0.191415
-0.333442
-0.450433
-0.587079
-0.706644
-0.723023
-0.533497
-0.186969
0.162366
0.318900
0.230689
-0.004229
-0.060619
0.257363
0.711990
1.008680
0.899644
0.339491
-0.551982
-1.554361
-2.318313
-2.583181
-2.241099
-1.570272
-0.997952
-0.565319
-0.165209
0.283569
0.803945
1.236812
1.441781
1.338829
0.932635
0.421618
0.055436
0.019403
0.234433
0.527846
0.805115
0.892859
0.655835
0.041163
-0.734254
-1.284112
-1.283878
-0.517820
0.828279
2.222346
3.138152
3.450284
3.319956
2.998230
2.832337
2.774777
2.575659
2.169699
1.529056
0.783823
0.139436
-0.306534
-0.666165
-1.098564
-1.579865
-2.037769
-2.439516
-2.765453
-2.916138
-2.848985
-2.490290
-1.784132
-0.852649
0.094745
0.758085
1.064602
1.104612
1.061326
1.055242
0.937783
0.548905
-0.175504
-1.073294
-1.940432
-2.621554
-3.113385
-3.585327
-4.063118
-4.451061
-4.525702
-4.189001
-3.625338
-3.011603
-2.421733
-1.921713
-1.512713
-1.059957
-0.471960
0.279591
1.134094
1.991405
2.831401
3.484914
3.836589
4.008332
3.979084
3.593247
2.814086
1.871840
1.073025
0.592191
0.428404
0.306265
-0.008909
-0.490210
-0.963322
-1.277560
-1.453281
-1.516456
-1.453515
-1.259544
-0.862008
-0.311448
0.259937
0.736090
0.925382
0.749896
0.301820
-0.200306
-0.547068
-0.615625
-0.331804
0.211268
0.723923
0.960713
0.968669
0.800904
0.408515
-0.117711
-0.651424
-1.035857
-1.130152
-1.020648
-0.809128
-0.529519
-0.276351
-0.019906
0.281229
0.579322
0.802073
0.873204
0.912981
1.042139
1.283843
1.601123
1.781991
1.678337
1.308411
0.795054
0.276081
-0.187203
-0.512439
-0.621240
-0.427035
0.047715
0.551947
0.847700
0.777037
0.348148
-0.240785
-0.678098
-0.697753
-0.268629
0.396348
0.913449
1.150941
1.128245
0.883733
0.642264
0.531824
0.500470
0.421852
0.192082
-0.226980
-0.699156
-1.088035
-1.420290
-1.711597
-2.037769
-2.268007
-2.156632
-1.729848
-1.082653
-0.399659
0.063860
0.206121
0.149497
0.201909
0.634074
1.426572
2.277565
2.905339
3.198051
3.187522
2.972024
2.596015
2.096931
1.585914
1.300456
1.398260
1.746894
2.121265
2.389877
2.539392
2.605842
2.656616
2.734065
2.844504
2.968749
3.054386
3.110074
3.076849
2.870008
2.548751
2.140686
1.648855
1.139944
0.672681
0.277953
-0.058279
-0.295303
-0.352161
-0.232596
-0.054535
-0.049154
-0.349119
-0.923311
-1.606773
-2.143996
-2.424541
-2.559315
-2.856706
-3.488224
-4.279318
-4.967694
-5.338789
-5.347213
-5.091002
-4.636609
-3.981225
-3.096070
-1.999864
-0.802810
0.311881
1.171063
1.792754
2.369286
2.950966
3.452858
3.739954
3.594651
2.993551
2.193332
1.480154
0.966797
0.539312
0.131481
-0.208730
-0.456049
-0.508461
-0.359882
-0.106480
0.174767
0.331535
0.325218
0.303925
0.379502
0.498131
0.610910
0.708481
0.805349
0.942931
1.076067
1.194696
1.286417
1.339999
1.369246
1.362695
1.325726
1.294606
1.266294
1.133392
0.825940
0.279357
-0.473832
-1.238251
-1.844265
-2.219339
-2.353645
-2.284152
-2.149144
-1.997290
-1.816889
-1.672756
-1.564657
-1.444390
-1.279198
-0.999824
-0.552683
-0.004931
0.486665
0.736325
0.763232
0.711054
0.666832
0.698887
0.719946
0.748024
0.845360
1.004936
1.257871
1.440611
1.442249
1.253893
0.894029
0.432382
-0.056173
-0.359882
-0.419314
-0.379771
-0.345141
-0.367370
-0.475235
-0.584973
-0.445754
0.054734
0.819622
1.642538
2.236151
2.465219
2.339805
1.853590
1.050563
0.033910
-1.073528
-2.090883
-2.812718
-3.027045
-2.735036
-2.203428
-1.709258
-1.475743
-1.447899
-1.411632
-1.339332
-1.281070
-1.278496
-1.348691
-1.531899
-1.795363
-2.037067
-2.176520
-2.080119
-1.690539
-1.021818
-0.186501
0.585640
1.098997
1.305369
1.272612
1.053136
0.733049
0.332939
-0.279392
-1.197538
-2.272921
-3.208616
-3.722207
-3.656692
-3.065653
-2.112409
-0.973150
0.200739
1.080044
1.442249
1.322216
0.740068
-0.049856
-0.718577
-1.130152
-1.249717
-1.161271
-1.070018
-1.054809
-1.009651
-0.831824
-0.484361
-0.087293
0.292226
0.646241
0.928424
1.162172
1.295074
1.204523
0.899878
0.502576
0.084450
-0.231192
-0.334378
-0.317297
-0.292261
-0.293665
-0.302791
-0.297877
-0.234234
-0.084485
0.066199
0.243792
0.515211
0.827577
1.087064
1.201247
1.280099
1.417915
1.506828
1.442483
1.205225
0.855889
0.493685
0.316326
0.479880
0.960012
1.566025
2.061600
2.311493
2.293008
2.039605
1.523207
0.781717
-0.035583
-0.778944
-1.292301
-1.501013
-1.463810
-1.234274
-0.806320
-0.192117
0.548905
1.244066
1.715072
1.872542
1.777311
1.628265
1.536076
1.470795
1.270974
0.767678
-0.118413
-1.244569
-2.240631
-2.821375
-2.876361
-2.509945
-1.952599
-1.443688
-1.065339
-0.672014
-0.242657
0.152773
0.511000
0.824536
1.118417
1.402940
1.608376
1.657512
1.586616
1.493959
1.531864
1.854993
2.450244
3.200859
3.863731
4.212598
4.250035
4.056064
3.698305
3.276435
2.926164
2.731257
2.753719
3.026308
3.460346
3.958493
4.385277
4.633766
4.711214
4.630023
4.471850
4.307127
4.170715
4.022371
3.747910
3.392256
3.095333
3.005250
3.200859
3.640278
4.139596
4.505544
4.666056
4.608730
4.429734
4.192944
3.929948
3.673269
3.495209
3.485849
3.584356
3.723809
3.777859
3.600735
3.199455
2.658020
2.100909
1.615162
1.221604
0.923276
0.700993
0.518955
0.367802
0.231859
0.128673
0.151837
0.358209
0.650687
0.873672
0.944335
0.831321
0.611846
0.390733
0.210333
0.101063
0.062690
0.008640
-0.160529
-0.447860
-0.829952
-1.259544
-1.700366
-2.152420
-2.619448
-3.105196
-3.575032
-4.001815
-4.362616
-4.608531
-4.713121
-4.639651
-4.418070
-4.189469
-4.016088
-3.955487
-4.029893
-4.163731
-4.347173
-4.573902
-4.904051
-5.374121
-5.912046
-6.421191
-6.790181
-7.019718
-7.141857
-7.201756
-7.172040
-6.946013
-6.590361
-6.215755
-5.927021
-5.787333
-5.757384
-5.806754
-5.912046
-6.061795
-6.268167
-6.551754
-6.870203
-7.182804
-7.457264
-7.697330
-7.957753
-8.157339
-8.184013
-7.912126
-7.278034
-6.389136
-5.401263
-4.505345
-3.785850
-3.227334
-2.780428
-2.355048
-1.928499
-1.571676
-1.343309
-1.188413
-1.016436
-0.739167
-0.286646
0.304861
0.890051
1.360121
1.697523
1.864353
1.900854
1.859907
1.747128
1.685590
1.827150
2.277799
3.070999
4.081568
5.162566
6.207063
7.125209
7.931277
8.610528
9.090192
9.312241
9.291416
9.200163
9.183784
9.298435
9.549499
9.813898
9.927146
9.786757
9.302648
8.466394
7.409497
6.303229
5.290788
4.465065
3.784177
3.112414
2.354311
1.390773
0.197697
-1.081483
-2.226592
-3.006221
-3.374977
-3.418498
-3.337540
-3.380125
-3.638909
-4.103129
-4.666325
-5.247771
-5.851912
-6.434294
-6.939462
-7.328341
-7.572852
-7.713007
-7.852227
-8.109607
-8.532179
-9.066594
-9.636809
-10.163500
-10.647140
-11.108790
-11.441980
-11.503520
-11.232570
-10.655100
-9.886468
-9.116432
-8.399745
-7.602802
-6.559943
-5.173832
-3.558185
-1.970850
-0.649552
0.223903
0.659344
0.791076
0.749661
0.585874
0.202143
-0.446456
-1.289727
-2.099540
-2.560953
-2.471338
-1.741781
-0.477341
1.134094
2.904170
4.598669
6.045147
7.039337
7.360127
6.876954
5.628191
3.881279
2.025800
0.427936
-0.783156
-1.653336
-2.213723
-2.403951
-2.125980
-1.385660
-0.364328
0.702631
1.663596
2.448138
3.078486
3.571019
3.935329
4.118069
4.048810
3.842438
3.656657
3.610328
3.781603
4.085312
4.339182
4.409377
4.297534
4.146615
4.081334
4.108008
4.178671
4.276475
4.426224
4.738122
5.305061
6.094751
7.068585
8.105126
9.062114
9.863503
10.433480
10.691100
10.521690
9.891581
8.894582
7.769128
6.789444
6.122595
5.821928
5.737226
5.616960
5.289852
4.727827
4.025880
3.397404
3.066553
3.095333
3.416123
3.934627
4.575973
5.293362
6.116980
7.118891
8.258618
9.403728
10.408450
11.089340
11.324720
11.104540
10.483090
9.540139
8.358529
7.015237
5.569227
4.065891
2.525820
0.987855
-0.511035
-1.854093
-2.885252
-3.509985
-3.626040
-3.275301
-2.628574
-1.863452
-1.132023
-0.512907
-0.008909
0.481752
1.036524
1.727473
2.618477
3.618751
4.582524
5.400058
6.033448
6.486437
6.780553
6.927494
6.854725
6.446894
5.592859
4.291918
2.675335
0.938485
-0.631068
-1.865558
-2.728484
-3.224994
-3.527533
-3.724780
-3.823989
-3.845047
-3.816267
-3.884122
-4.127230
-4.488966
-4.787528
-4.870591
-4.716397
-4.440298
-4.320967
-4.492008
-4.887906
-5.361018
-5.718777
-5.895668
-5.933339
-5.903623
-5.892626
-5.947144
-6.077940
-6.210373
-6.214819
-5.962118
-5.315626
-4.307162
-3.192471
-2.315739
-1.915864
-2.012031
-2.453555
-2.952639
-3.282788
-3.302443
-2.983291
-2.463382
-1.858304
-1.304234
-0.905529
-0.708984
-0.653530
-0.571870
-0.381643
-0.011015
0.546097
1.162874
1.742448
2.282245
2.778755
3.331889
4.018861
4.768774
5.539511
6.241458
6.824776
7.309587
7.770766
8.248090
8.649369
8.868142
8.754427
8.252301
7.444594
6.415775
5.205151
3.831909
2.343314
0.803009
-0.641831
-1.765647
-2.467828
-2.789553
-2.807336
-2.591839
-2.191963
-1.649124
-0.929161
-0.087995
0.738196
1.434761
1.876754
2.066981
1.993511
1.672487
1.194696
0.608804
-0.023650
-0.670143
-1.295811
-1.888254
-2.438112
-2.946556
-3.476759
-4.055865
-4.653222
-5.136863
-5.292695
-4.963716
-4.117403
-2.862322
-1.451877
-0.170357
0.749193
1.189548
1.234941
0.984580
0.501640
-0.107415
-0.759056
-1.358518
-1.833034
-2.169033
-2.396697
-2.586925
-2.760072
-2.968082
-3.218443
-3.421540
-3.566375
-3.663009
-3.739989
-3.791699
-3.817437
-3.851365
-3.828201
-3.731332
-3.613873
-3.505539
-3.403991
-3.340816
-3.372169
-3.526597
-3.840134
-4.293825
-4.855382
-5.494622
-6.135733
-6.700332
-7.159639
-7.476685
-7.626200
-7.682355
-7.656384
-7.576829
-7.518568
-7.429889
-7.321555
-7.164085
-6.799541
-6.187911
-5.356572
-4.389992
-3.386442
-2.357622
-1.263755
-0.059683
1.228623
2.577998
3.903040
5.053062
5.950852
6.557568
6.942703
7.237754
7.550822
7.906943
8.201761
8.323666
8.175087
7.690978
6.911583
5.962317
4.976082
3.977212
2.946053
1.937121
0.928190
-0.173866
-1.394552
-2.699470
-3.929515
-4.847661
-5.260874
-5.187169
-4.813032
-4.234394
-3.500625
-2.625064
-1.604200
-0.456751
0.738430
1.772164
2.453286
2.627369
2.190056
1.169894
-0.243593
-1.758394
-3.054187
-3.844345
-4.053057
-3.699042
-2.850857
-1.679776
-0.327593
1.076535
2.398066
3.445370
4.107306
4.382937
4.339182
4.145211
3.925736
3.921290
4.285601
5.069441
6.127509
6.863616
7.074903
6.845600
6.264388
5.648781
5.147123
4.813465
4.582992
4.192944
3.525158
2.537519
1.379542
0.450398
0.012150
0.229753
1.065537
2.339337
3.889703
5.501840
7.035594
8.248323
8.909791
8.917980
8.159176
6.684152
4.655994
2.221410
-0.429375
-3.050210
-5.368973
-7.222346
-8.521649
-9.251206
-9.605924
-9.743037
-9.770179
-9.628152
-8.986104
-7.702946
-5.888648
-3.943788
-2.387572
-1.561381
-1.669715
-2.691047
-4.457613
-6.716477
-9.164165
-11.532300
-13.475990
-14.540840
-14.536860
-13.545010
-11.757860
-9.605222
-7.424975
-5.362188
-3.409372
-1.550150
0.182956
1.760933
2.881473
3.363711
3.348268
2.997295
2.457264
1.912085
1.481324
1.116312
0.783823
0.460226
0.108784
-0.287816
-0.632471
-0.667101
-0.276351
0.416471
1.238918
2.103482
2.912359
3.599565
4.027986
3.923630
3.117795
1.328300
-1.465214
-4.985242
-9.265713
-14.126690
-19.198259
-24.177870
-28.496481
-31.646111
-33.422970
-33.655548
-32.349930
-29.698681
-25.882191
-21.389500
-16.664700
-12.045420
-8.092760
-5.265319
-3.758708
-3.489862
-4.462760
-6.504489
-9.019096
-11.365700
-13.023470
-13.900670
-14.112420
-14.038010
-14.181210
-14.577580
-15.001790
-15.007870
-14.167170
-12.301630
-9.456409
-5.927021
-2.105155
1.562048
4.824228
7.603936
9.949141
11.989460
13.667120
14.932730
15.769210
16.195761
16.278130
15.987990
15.328860
14.404860
13.443430
12.597120
11.925350
11.448730
11.160930
11.170530
11.447330
11.887450
12.260420
12.314700
12.026670
11.420420
10.860030
10.630260
10.724560
11.156960
11.592160
11.791750
11.792920
11.542560
11.185270
10.924850
10.825640
10.954090
11.497630
12.656780
14.416330
16.504379
18.409000
19.591551
19.719770
18.880011
17.247280
14.942320
12.277730
9.353188
6.244500
3.231277
0.604592
-1.431521
-2.810378
-3.443768
-3.472314
-3.170944
-2.719359
-2.232910
-1.679542
-1.107923
-0.622410
-0.280328
-0.039093
0.305095
0.940825
1.892431
2.994253
3.954048
4.426224
4.193412
3.165996
1.448098
-0.848671
-3.684301
-6.928699
-10.421350
-13.746000
-16.361691
-17.815660
-17.967510
-16.883240
-14.814840
-12.329240
-9.989655
-8.176994
-6.924019
-6.197972
-5.816581
-5.553117
-5.356572
-5.228584
-5.351659
-5.786397
-6.472668
-7.370457
-8.394363
-9.484955
-10.657440
-11.821730
-12.876290
-13.575200
-13.633230
-13.131570
-12.076780
-10.594730
-8.910295
-7.040074
-5.025020
-2.949363
-1.019946
0.464905
1.243598
1.200545
0.404538
-0.867858
-2.206470
-3.332392
-4.296867
-5.247537
-6.227688
-7.254168
-8.187056
-8.665315
-8.284626
-6.974325
-4.941722
-2.450513
0.125865
2.444629
4.280921
5.505584
6.153247
6.346750
6.207998
5.934707
5.753137
5.923944
6.662158
8.030252
9.942121
12.169400
14.372340
16.266430
17.666340
18.474051
18.803499
18.712481
18.388651
18.011700
17.727409
17.677340
17.692080
17.747999
17.560110
16.859341
15.659940
14.035640
12.252930
10.296370
8.297693
6.395886
4.422480
2.366478
0.254789
-1.809870
-3.667221
-5.356104
-6.987428
-8.669994
-10.384620
-11.938490
-13.272660
-14.290250
-15.001790
-15.466480
-15.443550
-14.778800
-13.321330
-11.049130
-8.173250
-4.884630
-1.403209
2.116352
5.397484
8.147477
10.222200
11.492250
11.998590
12.030410
11.977300
12.014500
12.087040
12.107860
11.933070
11.478920
10.867990
10.296600
9.956861
9.876606
9.914277
10.024480
10.126730
10.201370
10.266890
10.238810
10.138670
9.941652
9.721709
9.610802
9.720774
10.121820
10.618560
11.048620
11.284710
11.327300
11.173100
10.821890
10.404000
9.856015
9.278079
8.771040
8.337003
8.095533
8.046397
8.054820
7.752281
6.774938
4.892083
2.059728
-1.452579
-5.298311
-9.010906
-12.222310
-14.804070
-16.812340
-18.458870
-19.931320
-21.369141
-22.744961
-23.971491
-24.836531
-25.067471
-24.538200
-23.163321
-21.007410
-18.249929
-15.102630
-11.704280
-8.076850
-4.253112
-0.294133
3.608456
7.162178
10.095150
12.151380
13.297660
13.728890
13.628510
13.116320
12.249420
11.117410
9.871926
8.710672
7.791356
7.217632
7.005644
7.062268
7.263960
7.383291
7.370890
7.261152
7.102746
7.048229
7.033956
6.969611
6.701935
6.115575
5.274409
4.259161
3.275499
2.505932
2.062068
1.966369
2.151449
2.453988
2.657084
2.620115
2.233577
1.527652
0.622141
-0.353799
-1.245037
-1.946984
-2.458001
-2.775280
-2.876829
-2.790957
-2.450279
-1.845903
-1.119856
-0.460027
-0.096652
-0.293431
-1.193561
-2.692685
-4.641523
-6.803051
-8.941882
-10.856090
-12.390780
-13.441130
-13.935060
-14.039180
-13.810580
-13.382160
-12.984630
-12.617040
-12.167560
-11.508900
-10.740740
-9.935370
-9.172355
-8.569148
-8.110075
-7.796071
-7.629943
-7.629943
-7.649130
-7.561621
-7.325767
-6.852889
-6.161003
-5.337620
-4.568754
-4.021938
-3.843643
-4.088389
-4.683172
-5.450165
-6.132691
-6.618672
-6.863886
-7.036565
-7.256274
-7.485343
-7.677676
-7.682355
-7.487215
-7.073300
-6.519932
-5.916492
-5.271403
-4.629590
-4.005559
-3.501795
-2.983525
-2.303572
-1.404847
-0.286178
0.866887
2.023929
2.996827
3.564702
3.770840
3.687308
3.498484
3.354585
3.285327
3.308491
3.388045
3.547153
3.776689
3.971128
4.096777
4.090928
3.950304
3.768968
3.578038
3.481404
3.494273
3.449114
3.212792
2.685864
1.967773
1.313325
0.983644
1.168724
1.765612
2.472472
2.994253
3.204369
3.116859
2.785073
2.314769
1.777311
1.210840
0.578620
-0.223705
-1.285048
-2.663203
-4.318627
-6.170597
-8.107969
-10.000180
-11.710120
-13.040310
-13.858780
-14.113590
-13.813390
-13.101620
-12.111870
-10.920670
-9.606626
-8.190331
-6.694015
-5.189041
-3.811822
-2.644017
-1.652166
-0.797663
-0.012419
0.760425
1.568833
2.444161
3.389683
4.457578
5.692770
7.048462
8.388245
9.496853
10.145920
10.265720
9.897196
9.164832
8.264936
7.285954
6.336221
5.486866
4.733443
4.193645
3.909825
3.900466
4.138192
4.451026
4.710279
4.737420
4.447048
3.892511
3.088080
2.147237
1.187910
0.250577
-0.612349
-1.388936
-2.003373
-2.383360
-2.551594
-2.456129
-2.114749
-1.592968
-0.876047
0.021275
1.051966
2.097399
2.951902
3.470875
3.590673
3.318552
2.762377
1.973856
0.936379
-0.404573
-2.111005
-4.083007
-6.117483
-7.988872
-9.503907
-10.640590
-11.480360
-12.097830
-12.536080
-12.724440
-12.616100
-12.214360
-11.517090
-10.605500
-9.552810
-8.420569
-7.259550
-6.140647
-5.156985
-4.310672
-3.587667
-2.958255
-2.344987
-1.784834
-1.317337
-0.937350
-0.700092
-0.551046
-0.431949
-0.319871
-0.224173
-0.192351
-0.215047
-0.295303
-0.386088
