EVENT_NAME: L_AQUILA
EVENT_ID: IT-2009-0009
EVENT_DATE_YYYYMMDD: 20090406
EVENT_TIME_HHMMSS: 013240
EVENT_LATITUDE_DEGREE: 42.3420
EVENT_LONGITUDE_DEGREE: 13.3800
EVENT_DEPTH_KM: 8.3
HYPOCENTER_REFERENCE: INGV-CNT_Seismic_Bulletin
MAGNITUDE_W: 6.1
MAGNITUDE_W_REFERENCE: INGV-CNT_Seismic_Bulletin
MAGNITUDE_L: 
MAGNITUDE_L_REFERENCE: 
FOCAL_MECHANISM: Normal faulting
NETWORK: IT
STATION_CODE: GSA
STATION_NAME: 
STATION_LATITUDE_DEGREE: 42.420689
STATION_LONGITUDE_DEGREE: 13.519362
STATION_ELEVATION_M: 1062
LOCATION: 
SENSOR_DEPTH_M: 0.0
VS30_M/S: 492
SITE_CLASSIFICATION_EC8: B
MORPHOLOGIC_CLASSIFICATION: 
EPICENTRAL_DISTANCE_KM: 14.4
EARTHQUAKE_BACKAZIMUTH_DEGREE: 52.7
DATE_TIME_FIRST_SAMPLE_YYYYMMDD_HHMMSS: 20090406_013229.000
DATE_TIME_FIRST_SAMPLE_PRECISION: seconds
SAMPLING_INTERVAL_S: 0.005000
NDATA: 20020
DURATION_S: 100.100
STREAM: HNE
UNITS: cm/s^2
INSTRUMENT: sensor = FBA-3 [Kinemetrics] | digitizer = Etna [Kinemetrics]
INSTRUMENT_ANALOG/DIGITAL: D
INSTRUMENTAL_FREQUENCY_HZ: 216.000
INSTRUMENTAL_DAMPING: 0.700000
FULL_SCALE_G: 1.0
N_BIT_DIGITAL_CONVERTER: 18
PGA_CM/S^2: -146.613297
TIME_PGA_S: 20.445000
BASELINE_CORRECTION: BASELINE REMOVED
FILTER_TYPE: BUTTERWORTH
FILTER_ORDER: 2
LOW_CUT_FREQUENCY_HZ: 0.100
HIGH_CUT_FREQUENCY_HZ: 40.000
LATE/NORMAL_TRIGGERED: NT
DATABASE_VERSION: 0.5
HEADER_FORMAT: DYNA 1.2
DATA_TYPE: ACCELERATION
PROCESSING: manual (Paolucci et al., 2011)
DATA_TIMESTAMP_YYYYMMDD_HHMMSS: 20211011_155739.318
DATA_LICENSE: CC-BY3_0-IT (http://creativecommons.org/licenses/by/3.0/deed.en)
DATA_CITATION: Luzi L, Pacor F, Puglia R (2019). Italian Accelerometric Archive v 3.0 - Istituto Nazionale di Geofisica e Vulcanologia, Dipartimento della Protezione Civile Nazionale. doi: 10.13127/itaca.3.1
DATA_CREATOR: ITACA working group
ORIGINAL_DATA_MEDIATOR_CITATION: data obtained within the DPC-INGV data exchange agreements
ORIGINAL_DATA_MEDIATOR: Archive of Italian Department of Civil Protection
ORIGINAL_DATA_CREATOR_CITATION: Presidency Of Counsil Of Ministers-Civil Protection Department. (1972). Italian Strong Motion Network. Presidency of Counsil of Ministers - Civil Protection Department. https://doi.org/10.7914/SN/IT http://www.fdsn.org/networks/detail/IT/
ORIGINAL_DATA_CREATOR: network: IT (Italian Strong Motion Network (RAN)); owner: Presidency of Counsil of Ministers - Civil Protection Department (PCM - DPC)
USER1: 
USER2: 
USER3: 
USER4: 
USER5: 
[...]
-0.210005
-0.209474
-0.208091
-0.205400
-0.203872
-0.206014
-0.209928
-0.210799
-0.207833
-0.205680
-0.207564
-0.211668
-0.214243
-0.213360
-0.210774
-0.209531
-0.210154
-0.211775
-0.214126
-0.216653
-0.217967
-0.216544
-0.212200
-0.207221
-0.204744
-0.205526
-0.207676
-0.209715
-0.211727
-0.213455
-0.214042
-0.213682
-0.212987
-0.211618
-0.209761
-0.209053
-0.210531
-0.213191
-0.214795
-0.213860
-0.210854
-0.207736
-0.207006
-0.209335
-0.212584
-0.215072
-0.216587
-0.216177
-0.213171
-0.209354
-0.207151
-0.206668
-0.206780
-0.207514
-0.209319
-0.211571
-0.212613
-0.211258
-0.208917
-0.208863
-0.211780
-0.214357
-0.213953
-0.211450
-0.208772
-0.207091
-0.207192
-0.208471
-0.209386
-0.210508
-0.213375
-0.217199
-0.220492
-0.223575
-0.226690
-0.226946
-0.217171
-0.186094
-0.123151
-0.029639
0.073378
0.152817
0.186365
0.181109
0.168878
0.180692
0.221043
0.263882
0.274000
0.233797
0.151170
0.046224
-0.059897
-0.143574
-0.185935
-0.189266
-0.166561
-0.112260
-0.017429
0.077909
0.089108
-0.031257
-0.224583
-0.344285
-0.256486
0.037300
0.361737
0.492117
0.349527
0.055007
-0.210788
-0.367884
-0.468310
-0.618448
-0.867482
-1.131106
-1.237883
-1.094863
-0.800283
-0.554741
-0.462951
-0.446644
-0.325116
0.053172
0.684583
1.313833
1.529901
1.122591
0.362316
-0.193677
-0.222262
0.081614
0.235171
-0.069988
-0.707289
-1.231199
-1.255156
-0.797624
-0.270091
-0.065637
-0.170179
-0.244704
-0.058769
0.259959
0.408490
0.243864
-0.085550
-0.262253
-0.044824
0.492981
0.922841
0.748059
-0.232260
-1.833347
-3.607518
-4.960405
-5.352804
-4.654766
-3.300903
-1.935075
-0.844747
0.181609
1.403864
2.634030
3.313863
3.097306
2.255397
1.419734
0.936774
0.552431
-0.204431
-1.365991
-2.391852
-2.772800
-2.636764
-2.539987
-2.665920
-2.461873
-1.185653
1.296830
4.307716
6.783417
7.776929
6.712998
3.571936
-0.807825
-4.660373
-6.048224
-4.215304
-0.349270
3.059191
3.798372
1.336151
-2.813423
-6.027237
-6.335006
-3.736805
0.047495
3.114948
4.682524
5.017052
4.477303
3.053727
0.857888
-1.358829
-2.566013
-2.372150
-1.327137
-0.103269
1.442318
4.009369
7.645537
11.140146
12.813467
11.876433
9.102672
6.391973
5.699737
8.056478
13.062021
18.879309
22.881884
23.042795
19.309780
13.742675
9.098221
7.013879
7.284712
8.499097
9.098043
8.042136
4.992773
0.220576
-5.531738
-11.004510
-14.422679
-14.229505
-10.297640
-4.176856
2.093905
7.238281
10.742977
12.012336
10.159146
4.917106
-2.576775
-10.287786
-16.507881
-20.565363
-22.864273
-24.863768
-28.898960
-36.879040
-47.778919
-55.941666
-53.058399
-34.206482
-3.359686
27.502556
45.975853
47.331532
36.267765
21.322485
7.955404
-2.854532
-10.398277
-11.503397
-4.229373
6.776319
11.600568
3.527601
-13.575503
-26.894962
-24.950024
-7.054599
17.186478
36.630093
45.843796
45.084286
36.507320
22.788204
8.408095
-0.920296
-2.054694
2.567553
6.569880
4.963769
-1.513821
-7.118988
-6.621907
-0.373440
6.532879
9.859139
10.022261
10.291251
12.319311
14.575395
14.813611
12.435413
8.098015
2.432228
-4.154593
-10.932037
-16.404011
-18.667015
-16.936478
-12.632510
-7.731272
-1.697845
8.614187
24.613605
41.268272
47.807274
35.432198
6.644108
-23.122766
-35.722225
-24.526361
0.675531
22.639162
30.700266
26.993675
20.550354
17.380707
16.994951
16.422878
15.006963
14.911555
17.821489
21.623960
20.789944
10.835353
-7.140552
-26.666712
-40.635307
-45.117493
-39.158478
-23.540913
-1.657995
19.596390
32.710575
34.827042
29.481585
22.551573
17.196766
12.840929
7.536570
0.393165
-7.397737
-13.236460
-15.250795
-13.960240
-11.505914
-9.326979
-7.417439
-6.400864
-9.422837
-20.196028
-37.619720
-52.301022
-51.147717
-28.732538
5.600872
33.689583
42.523380
32.820202
15.578229
2.270836
-2.054917
1.004470
7.152403
12.770220
15.778281
15.488581
12.512514
8.303098
4.466566
2.336393
2.684156
5.429311
9.641475
14.072641
17.865833
20.900503
23.793303
27.570967
32.733189
38.219582
41.091328
36.967377
21.884516
-3.850449
-33.141853
-55.766277
-66.437080
-68.493813
-68.138245
-65.631973
-54.571697
-30.856007
-0.487620
23.375328
30.531317
20.504505
1.237120
-17.502504
-30.675520
-39.564121
-47.263729
-53.377769
-54.312077
-48.484921
-39.471584
-32.488377
-27.911770
-19.958937
-3.112865
20.609711
42.085552
53.103367
53.121624
47.690502
41.543873
34.946388
26.212467
15.082153
2.539934
-10.538969
-22.709629
-31.149755
-33.354252
-29.281607
-20.963596
-10.650597
-0.062808
9.244591
15.922481
19.345055
19.543732
16.718267
11.030664
2.464105
-8.837149
-21.184378
-30.956221
-35.048805
-33.481632
-28.631929
-22.224855
-13.914565
-2.935458
9.584339
20.807695
28.691978
33.800941
38.443024
44.032074
49.213524
50.631725
45.563194
33.597584
16.498945
-1.988817
-16.746597
-24.069550
-24.064217
-18.892868
-9.329685
5.240896
23.735603
41.554359
51.875046
48.822712
31.151028
4.768961
-18.875975
-29.820601
-27.078144
-18.581825
-13.151724
-13.652241
-17.836832
-22.972452
-27.468344
-29.260649
-25.623837
-15.999661
-3.786683
6.434355
13.283232
18.796904
23.968136
25.289057
17.363285
-0.330280
-20.261984
-32.193359
-32.123337
-24.998018
-18.718769
-16.752911
-16.566332
-13.793289
-6.637605
3.964108
17.085171
32.656223
48.999886
61.108940
63.294827
53.745758
35.843044
15.635075
-0.891611
-8.902582
-5.843778
6.240906
19.679358
24.772888
16.799841
0.218508
-14.765968
-20.539621
-17.084848
-9.326166
-1.351404
5.540058
10.450015
11.547315
8.411436
3.828091
1.137488
0.501289
-0.418860
-2.276246
-2.182370
2.980808
11.801476
18.182762
16.897814
9.186808
2.060926
1.384231
5.541665
6.341366
-3.296502
-22.286642
-41.965485
-53.333447
-53.338093
-44.898148
-32.834103
-21.091736
-12.555319
-8.716351
-8.571501
-8.819026
-5.645214
3.420845
18.188948
35.319492
49.542515
56.347420
54.377098
45.880028
34.958553
24.825716
15.777609
5.561361
-7.319841
-20.389231
-28.299494
-27.436207
-18.835579
-6.786959
4.518237
12.828258
17.362633
17.431772
11.716246
-0.707672
-18.146765
-35.504314
-46.574623
-47.819038
-40.503845
-29.333551
-18.691292
-9.747894
-0.725006
10.222082
22.137674
30.935558
31.921906
23.181089
7.055754
-11.590799
-28.412645
-40.632515
-45.939739
-42.320152
-29.996708
-12.779720
3.507108
14.448829
19.442062
21.045885
22.102907
23.838387
26.463245
30.163677
34.330009
36.429195
33.441734
25.384699
16.558666
11.903645
12.040404
12.865676
10.083695
3.360208
-3.769523
-7.351499
-6.525451
-3.959027
-3.152998
-6.204228
-13.925655
-26.103615
-40.357662
-51.416668
-53.284988
-43.881142
-27.784132
-13.027968
-4.298603
0.172555
5.044580
12.584984
21.214739
28.074308
32.330112
36.012226
41.369385
47.105247
47.784523
38.214443
19.264091
-0.902047
-12.385553
-11.382954
-3.205730
2.260129
-1.451459
-13.015354
-25.902002
-34.745667
-39.463379
-43.741310
-50.015446
-56.501835
-59.200905
-56.110458
-49.059628
-41.688644
-35.798382
-29.589754
-19.533583
-4.047519
14.580321
31.513454
42.253063
44.622013
38.916981
27.055573
12.184407
-1.018190
-7.205187
-3.456852
8.037231
21.010344
29.225224
30.190569
25.966600
20.834429
17.713299
16.241549
14.262528
11.326881
10.088267
13.358231
20.179033
25.783644
25.578718
18.848122
8.733628
-0.661269
-6.983262
-10.708747
-14.763832
-22.603374
-35.269718
-49.802708
-60.959118
-64.926857
-61.709583
-54.587208
-47.818600
-44.186661
-43.109673
-40.440128
-31.085184
-13.018836
10.832736
34.469105
52.414486
61.979462
63.033028
56.520679
43.807465
27.274679
10.548004
-2.877760
-11.330414
-14.839199
-13.898266
-9.661259
-5.149012
-4.265925
-8.470144
-14.975932
-18.961727
-17.649988
-11.810754
-3.620420
5.390666
13.667699
18.329132
16.439438
8.130548
-2.463058
-10.183430
-12.816502
-12.347447
-12.991926
-18.060480
-27.702187
-38.548252
-45.518974
-45.193031
-38.432232
-29.445927
-21.917013
-16.358696
-10.976803
-4.159647
3.900420
11.118870
14.631406
12.337672
3.752393
-10.089636
-26.757832
-42.338398
-52.185997
-52.834263
-43.701408
-27.242165
-7.755210
9.888199
21.110451
22.947161
16.081005
5.783972
-0.401045
2.219418
11.350479
18.913603
17.725067
7.944026
-2.807586
-5.986371
0.409273
10.468183
16.460735
15.873743
12.159286
9.834613
10.538849
13.384259
16.869980
19.279434
18.265837
11.812443
0.324551
-12.602107
-22.000614
-24.501657
-20.113977
-11.717165
-2.959888
3.756779
7.859434
9.526932
8.150661
2.136527
-9.482080
-25.187342
-40.849342
-51.610519
-54.254524
-48.663464
-37.983772
-27.170427
-20.169388
-17.800146
-18.124992
-18.497976
-17.319763
-14.529284
-11.160608
-8.772409
-9.109635
-13.709114
-22.938206
-34.518135
-43.195862
-43.723850
-35.508503
-23.498976
-13.705567
-8.223383
-4.366825
2.055452
12.481694
24.153656
32.719788
36.158310
36.309994
37.006725
40.755119
46.710499
51.547684
52.461601
49.116901
42.411381
32.243340
17.748947
-0.260157
-18.062260
-30.924574
-36.429222
-36.249653
-35.213661
-38.470947
-48.284977
-62.330822
-74.899666
-80.477493
-77.422447
-69.159836
-61.642887
-58.741089
-59.437737
-59.132954
-53.767094
-43.535820
-33.144360
-28.189892
-30.791023
-38.271156
-45.929790
-51.040009
-54.037563
-56.231720
-57.216213
-54.818829
-47.004864
-33.307693
-14.775466
6.862126
29.907436
52.620880
72.417351
85.519516
88.184059
79.088295
61.205727
41.811352
29.961147
31.833529
46.868385
68.099556
86.299828
94.961426
93.413948
85.644554
75.527596
63.605484
48.490372
30.460974
12.984333
0.357228
-5.903122
-8.069794
-10.104378
-14.894823
-23.158272
-34.171589
-46.558491
-57.882935
-64.446266
-63.353825
-55.304729
-44.093925
-32.820934
-21.377605
-7.602545
9.825501
29.216637
45.704033
53.636131
50.521069
39.078514
24.780439
11.334605
-1.200794
-14.578612
-29.238232
-42.431969
-48.971539
-44.567974
-29.422413
-8.497139
12.089885
28.848412
41.814636
53.042324
63.967468
72.992935
76.144844
71.356140
61.253716
50.268372
39.961552
29.047388
17.532057
8.847417
7.199940
13.354421
23.248358
30.645277
31.285484
24.678135
12.533751
-3.057282
-19.279831
-32.063534
-37.931618
-36.757111
-31.841927
-26.745764
-22.397778
-17.707556
-12.698155
-10.273490
-14.285579
-25.657862
-40.205570
-50.258659
-49.445312
-37.166634
-18.537367
0.338277
16.704519
30.952957
43.608231
53.982986
61.605995
67.556557
73.607544
80.448700
86.995239
90.837860
89.083504
79.458832
61.103909
34.177151
-0.641154
-40.873283
-80.401917
-110.245903
-122.367432
-113.715202
-87.550415
-51.120632
-11.856606
24.703196
54.636074
74.965790
84.259048
83.580185
76.001343
64.800209
51.690891
36.290127
17.303699
-5.446850
-29.652552
-50.687275
-63.395065
-64.555649
-54.343140
-36.066254
-14.623855
5.804460
23.493216
38.732281
51.940716
62.848400
71.352707
77.960312
82.473694
82.515846
74.540451
57.316540
34.144207
10.648982
-9.668161
-26.784615
-40.951347
-49.294567
-46.544090
-29.461197
-1.047738
29.406853
51.219704
58.587994
53.138302
40.886200
26.860941
12.349601
-3.667783
-21.390148
-38.209431
-48.849541
-47.689884
-32.484131
-6.963529
20.421469
41.426472
52.681087
56.142658
55.530830
52.428829
45.638809
34.196877
20.389854
9.083725
4.041105
4.907338
7.595396
7.540800
2.842129
-5.071663
-13.126217
-18.830755
-21.445168
-21.605801
-20.265165
-18.145878
-15.365102
-10.769119
-2.170525
11.859483
30.026396
47.936390
59.601261
59.939358
47.263405
24.393871
-2.748088
-27.981918
-46.445362
-54.183968
-47.873165
-26.337822
7.310350
45.590038
79.720222
103.649933
115.425453
115.014359
101.899323
76.212585
42.465542
10.502717
-9.297189
-12.709555
-3.766825
9.459229
20.987373
29.904577
39.000919
50.971130
65.176239
77.326370
81.917725
75.766457
60.863438
43.813389
30.943977
23.329737
16.814486
6.694631
-7.813023
-22.834412
-32.340599
-31.824471
-21.172749
-4.725240
11.589276
23.269531
27.932384
24.200621
11.097928
-11.123927
-39.787476
-69.422943
-93.264977
-106.649902
-109.890533
-107.827682
-106.156479
-107.403732
-109.373863
-107.014732
-96.628281
-79.328613
-60.570030
-45.830761
-36.191166
-28.110577
-17.793156
-5.341626
5.731320
12.274404
13.847865
11.703716
6.437593
-3.030551
-18.182926
-38.627045
-61.130955
-80.733521
-92.929039
-95.712532
-90.399963
-80.338333
-68.282341
-55.054535
-40.682320
-26.080532
-13.043716
-2.635230
6.117448
15.283451
25.038420
31.881353
30.770424
19.350470
0.325652
-19.410652
-31.731613
-30.983644
-17.012543
4.476980
25.041296
38.222691
42.573864
41.099884
38.543945
39.219917
45.665710
57.022346
67.895363
69.745583
55.530773
25.170404
-12.492064
-43.432854
-56.036079
-47.370556
-23.168230
7.620815
37.686626
62.387440
79.162514
87.713264
89.843941
87.248436
78.842018
60.784977
29.584841
-14.217296
-64.251770
-109.532730
-138.841156
-146.613297
-136.237228
-117.777962
-101.661713
-92.674858
-88.032234
-80.454628
-63.768494
-37.150215
-5.484660
23.886450
45.065483
55.344814
55.060471
47.458199
38.062458
31.336843
26.486635
17.959455
1.878362
-17.776863
-30.234009
-26.161352
-5.495030
22.628437
47.360714
63.548634
72.846703
79.174675
84.168846
86.798988
85.385048
77.807564
60.195080
28.610651
-15.390981
-61.680790
-96.601967
-112.210350
-110.075661
-96.658218
-77.188232
-54.676708
-32.747417
-16.849148
-11.127161
-13.840825
-16.978899
-12.351791
0.401230
12.217327
12.408510
-1.421847
-21.257439
-35.974380
-40.157482
-35.956470
-27.841852
-17.292982
-2.792641
16.451675
38.104023
57.817017
71.806778
78.068306
75.789963
64.598068
45.006016
19.585976
-6.866501
-29.083614
-43.778797
-50.544548
-50.609528
-45.560471
-37.838291
-31.353674
-29.642401
-32.707516
-36.459549
-36.317261
-31.326054
-24.007477
-16.679707
-9.275574
-0.897882
7.489758
12.295677
9.036284
-4.328526
-24.491966
-42.913563
-49.612961
-38.625366
-11.713723
22.652664
54.688847
78.787148
94.987076
106.073586
113.576561
116.008904
109.883102
92.247108
63.125488
26.328260
-11.908791
-45.307667
-69.107620
-80.385643
-78.431229
-65.803215
-48.352638
-32.493843
-21.683962
-15.688164
-12.933903
-13.268333
-18.561758
-30.552305
-47.811531
-64.993874
-75.936501
-78.216751
-74.613586
-69.938179
-66.388359
-61.423489
-49.774830
-28.200478
0.954639
30.505920
52.380531
61.200546
55.476177
37.035240
10.048111
-19.941940
-47.098133
-66.099915
-72.345497
-62.521244
-36.681923
-0.230644
37.431164
67.580910
86.315735
94.857422
96.482201
93.222572
84.897858
70.686424
51.645699
31.952377
17.193241
10.491311
10.268570
12.161266
12.585467
10.237574
5.628040
0.704559
-1.698380
0.293403
5.647605
10.243151
9.049985
-0.405337
-15.989736
-32.134384
-43.432140
-48.131733
-48.905666
-50.275330
-54.825069
-61.372223
-66.511261
-68.033119
-67.314743
-68.561279
-75.261627
-86.930519
-99.118698
-106.412949
-105.405708
-95.270332
-76.695335
-51.421070
-22.687197
4.996069
27.668713
44.145287
56.131798
65.523857
71.665894
71.493073
62.057487
42.927052
17.155277
-9.008476
-27.744814
-32.959988
-23.722982
-4.563945
17.885258
38.300377
53.627853
62.610928
65.254204
62.346970
55.035332
44.879147
34.277683
26.346815
24.113546
29.540712
42.234257
58.291897
71.143448
74.815552
67.164276
50.982826
32.897758
20.242579
16.976011
21.323364
27.273609
28.942005
23.960621
13.452759
-0.281754
-16.064754
-34.442562
-56.084747
-79.312782
-99.121628
-109.084953
-105.369278
-89.959694
-70.237289
-55.128094
-50.645584
-57.313408
-70.669411
-84.597084
-94.995155
-100.877991
-102.757721
-100.346260
-91.458527
-73.189819
-44.718224
-9.110629
27.734861
60.152252
85.378952
103.815773
116.980377
125.587090
129.444595
128.171356
121.528374
109.824318
94.850464
80.402634
71.042419
69.432137
74.603683
82.759186
89.376572
90.600533
83.717201
67.659508
43.770424
16.307877
-7.872867
-21.237984
-19.230333
-3.382430
19.236235
40.042583
52.880428
55.452358
48.726494
35.418449
18.243935
-1.112027
-21.730968
-42.420097
-60.965134
-74.613258
-81.738083
-83.158630
-81.521225
-79.014732
-75.451210
-68.446075
-55.506981
-36.298630
-13.267398
9.687402
28.956694
41.946915
46.947472
43.106705
31.152031
14.547477
-0.326909
-6.435977
-0.170458
15.992595
35.069122
50.323017
59.187649
63.591099
67.290131
72.788589
79.918350
86.217583
87.974724
81.365097
64.022156
36.868423
5.001457
-23.311686
-39.592392
-39.045624
-22.893526
2.753612
30.408899
54.323296
71.464119
80.648842
81.129715
71.934227
52.705112
25.129091
-6.918993
-38.733772
-66.149841
-86.232750
-97.647255
-100.648331
-96.406944
-85.913536
-69.512512
-48.040157
-24.590931
-4.666717
6.305640
6.520669
-0.980756
-10.822271
-18.946108
-24.016708
-25.923624
-23.863119
-16.850233
-6.318902
2.667624
3.863651
-6.029122
-25.050913
-46.858379
-63.857159
-70.629456
-66.032379
-53.039204
-36.423260
-20.274364
-7.163215
1.564396
5.477995
4.760685
-0.103418
-8.214122
-18.063572
-27.824257
-35.510223
-38.911091
-36.619774
-30.014635
-23.711449
-23.061607
-30.372925
-42.865402
-54.065639
-57.839268
-52.104656
-39.280128
-23.601379
-8.345766
4.778811
14.698960
20.408392
21.435879
18.515362
13.487408
8.101002
2.481431
-4.951072
-15.266925
-26.559105
-34.370827
-35.259979
-29.880835
-22.130196
-15.316690
-9.474817
-2.543415
6.182475
14.439243
18.679039
16.702017
8.795657
-2.744638
-14.556767
-23.161167
-26.113239
-22.974400
-15.302019
-5.548513
4.256873
12.988703
20.131874
25.654959
30.200928
35.007946
41.178654
48.678688
56.189030
62.160725
65.925323
67.616898
67.117752
63.518288
55.908611
44.643005
31.843500
20.717306
13.964816
12.260609
14.148699
17.562885
21.376190
25.350721
28.998077
31.196869
31.072121
28.784565
25.100386
20.297550
13.697163
4.295748
-8.162093
-22.807659
-38.346748
-53.811424
-68.164604
-79.178192
-83.542145
-79.224457
-68.084068
-55.464848
-46.492359
-42.802326
-42.962486
-45.358654
-49.988419
-57.832798
-69.242844
-82.954514
-95.988670
-104.057777
-102.625092
-88.932991
-64.150574
-33.487900
-3.363336
22.053911
42.010902
57.835449
70.942131
81.705772
89.368324
92.607498
90.628784
84.290169
76.325912
70.357506
69.190666
72.939224
77.862160
77.619209
67.325157
47.293739
22.908941
1.151781
-13.015676
-18.534924
-17.954638
-15.031760
-11.803620
-7.582917
-0.382911
11.028706
