EVENT_NAME: L_AQUILA
EVENT_ID: IT-2009-0009
EVENT_DATE_YYYYMMDD: 20090406
EVENT_TIME_HHMMSS: 013240
EVENT_LATITUDE_DEGREE: 42.3420
EVENT_LONGITUDE_DEGREE: 13.3800
EVENT_DEPTH_KM: 8.3
HYPOCENTER_REFERENCE: INGV-CNT_Seismic_Bulletin
MAGNITUDE_W: 6.1
MAGNITUDE_W_REFERENCE: INGV-CNT_Seismic_Bulletin
MAGNITUDE_L: 
MAGNITUDE_L_REFERENCE: 
FOCAL_MECHANISM: Normal faulting
NETWORK: IT
STATION_CODE: GSA
STATION_NAME: 
STATION_LATITUDE_DEGREE: 42.420689
STATION_LONGITUDE_DEGREE: 13.519362
STATION_ELEVATION_M: 1062
LOCATION: 
SENSOR_DEPTH_M: 0.0
VS30_M/S: 492
SITE_CLASSIFICATION_EC8: B
MORPHOLOGIC_CLASSIFICATION: 
EPICENTRAL_DISTANCE_KM: 14.4
EARTHQUAKE_BACKAZIMUTH_DEGREE: 52.7
DATE_TIME_FIRST_SAMPLE_YYYYMMDD_HHMMSS: 
DATE_TIME_FIRST_SAMPLE_PRECISION: 
SAMPLING_INTERVAL_S: 
NDATA: 105
DURATION_S: 
STREAM: HNZ
UNITS: cm/s^2
INSTRUMENT: sensor = FBA-3 [Kinemetrics] | digitizer = Etna [Kinemetrics]
INSTRUMENT_ANALOG/DIGITAL: D
INSTRUMENTAL_FREQUENCY_HZ: 208.000
INSTRUMENTAL_DAMPING: 0.700000
FULL_SCALE_G: 1.0
N_BIT_DIGITAL_CONVERTER: 18
PGA_CM/S^2: -107.296213
TIME_PGA_S: 
BASELINE_CORRECTION: BASELINE REMOVED
FILTER_TYPE: BUTTERWORTH
FILTER_ORDER: 2
LOW_CUT_FREQUENCY_HZ: 0.100
HIGH_CUT_FREQUENCY_HZ: 40.000
LATE/NORMAL_TRIGGERED: NT
DATABASE_VERSION: 0.5
HEADER_FORMAT: DYNA 1.2
DATA_TYPE: ACCELERATION RESPONSE SPECTRUM
PROCESSING: manual (Paolucci et al., 2011)
DATA_TIMESTAMP_YYYYMMDD_HHMMSS: 20211011_155741.524
DATA_LICENSE: CC-BY3_0-IT (http://creativecommons.org/licenses/by/3.0/deed.en)
DATA_CITATION: Luzi L, Pacor F, Puglia R (2019). Italian Accelerometric Archive v 3.0 - Istituto Nazionale di Geofisica e Vulcanologia, Dipartimento della Protezione Civile Nazionale. doi: 10.13127/itaca.3.1
DATA_CREATOR: ITACA working group
ORIGINAL_DATA_MEDIATOR_CITATION: data obtained within the DPC-INGV data exchange agreements
ORIGINAL_DATA_MEDIATOR: Archive of Italian Department of Civil Protection
ORIGINAL_DATA_CREATOR_CITATION: Presidency Of Counsil Of Ministers-Civil Protection Department. (1972). Italian Strong Motion Network. Presidency of Counsil of Ministers - Civil Protection Department. https://doi.org/10.7914/SN/IT http://www.fdsn.org/networks/detail/IT/
ORIGINAL_DATA_CREATOR: network: IT (Italian Strong Motion Network (RAN)); owner: Presidency of Counsil of Ministers - Civil Protection Department (PCM - DPC)
USER1: 
USER2: 
USER3: 
USER4: 
USER5: 
    0.010000   108.479340
    0.020000   111.116821
    0.022000   112.167908
    0.025000   113.152618
    0.029000   134.788269
    0.030000   144.687759
    0.032000   152.722702
    0.035001   167.911224
    0.036000   171.535187
    0.040000   222.573196
    0.041999   235.679138
    0.044001   266.909027
    0.045000   285.998322
    0.046000   293.204712
    0.048001   294.865051
    0.050000   305.588318
    0.054999   266.912445
    0.059999   270.495026
    0.064998   317.375000
    0.067002   304.823547
    0.069999   242.850327
    0.075002   281.885406
    0.080000   254.686615
    0.084998   254.822266
    0.090001   261.272461
    0.095003   263.166718
    0.100000   237.819839
    0.109999   231.772232
    0.120005   272.585480
    0.130005   320.074615
    0.132996   308.545532
    0.139997   259.755981
    0.149993   277.108307
    0.160000   280.051514
    0.170010   203.921906
    0.179986   219.439819
    0.190006   196.277832
    0.200000   162.758087
    0.220022   152.028900
    0.239981   141.315994
    0.250000   161.130875
    0.260010   180.252518
    0.280034   186.137497
    0.290023   169.072937
    0.300030   164.577515
    0.320000   164.999954
    0.340020   124.080193
    0.350017   124.448708
    0.359971   117.123047
    0.379939    89.125359
    0.400000    78.108063
    0.419992    85.106911
    0.439947   116.573196
    0.450045   123.505219
    0.459982   117.390862
    0.480077   126.147697
    0.500000   122.364357
    0.550055    84.704308
    0.599880    89.950447
    0.650195    73.018974
    0.667111    67.929703
    0.699790    61.300812
    0.750188    65.657379
    0.800000    68.790077
    0.850340    52.020081
    0.900090    53.947506
    0.949668    51.834076
    1.000000    52.721920
    1.100110    44.967545
    1.200480    33.053642
    1.300390    25.634670
    1.400560    22.650671
    1.499250    26.889509
    1.600000    32.060638
    1.700680    33.973518
    1.798561    34.109482
    1.901141    31.549160
    2.000000    31.157597
    2.197802    23.583717
    2.398082    15.714748
    2.500000    14.228925
    2.597403    12.547542
    2.801121    10.830975
    3.003003    10.176473
    3.205128     9.995750
    3.401361    10.154694
    3.496503    10.269985
    3.597122    10.236932
    3.802281    10.181288
    4.000000     9.549867
    4.201681     9.849230
    4.405286     9.579991
    4.608295     8.703138
    4.807692     8.027497
    5.000000     6.890840
    5.494505     5.549266
    5.988024     3.829484
    6.493506     2.972015
    6.993007     2.252465
    7.518797     1.801551
    8.000000     1.551546
    8.474576     1.343390
    9.009009     1.167747
    9.523809     1.021180
   10.000000     0.899386
