EVENT_NAME: L_AQUILA
EVENT_ID: IT-2009-0009
EVENT_DATE_YYYYMMDD: 20090406
EVENT_TIME_HHMMSS: 013240
EVENT_LATITUDE_DEGREE: 42.3420
EVENT_LONGITUDE_DEGREE: 13.3800
EVENT_DEPTH_KM: 8.3
HYPOCENTER_REFERENCE: INGV-CNT_Seismic_Bulletin
MAGNITUDE_W: 6.1
MAGNITUDE_W_REFERENCE: INGV-CNT_Seismic_Bulletin
MAGNITUDE_L: 
MAGNITUDE_L_REFERENCE: 
FOCAL_MECHANISM: Normal faulting
NETWORK: IT
STATION_CODE: GSA
STATION_NAME: 
STATION_LATITUDE_DEGREE: 42.420689
STATION_LONGITUDE_DEGREE: 13.519362
STATION_ELEVATION_M: 1062
LOCATION: 
SENSOR_DEPTH_M: 0.0
VS30_M/S: 492
SITE_CLASSIFICATION_EC8: B
MORPHOLOGIC_CLASSIFICATION: 
EPICENTRAL_DISTANCE_KM: 14.4
EARTHQUAKE_BACKAZIMUTH_DEGREE: 52.7
DATE_TIME_FIRST_SAMPLE_YYYYMMDD_HHMMSS: 20090406_013229.000
DATE_TIME_FIRST_SAMPLE_PRECISION: seconds
SAMPLING_INTERVAL_S: 0.005000
NDATA: 20020
DURATION_S: 100.100
STREAM: HNE
UNITS: cm
INSTRUMENT: sensor = FBA-3 [Kinemetrics] | digitizer = Etna [Kinemetrics]
INSTRUMENT_ANALOG/DIGITAL: D
INSTRUMENTAL_FREQUENCY_HZ: 216.000
INSTRUMENTAL_DAMPING: 0.700000
FULL_SCALE_G: 1.0
N_BIT_DIGITAL_CONVERTER: 18
PGD_CM: -2.168230
TIME_PGD_S: 19.500000
BASELINE_CORRECTION: BASELINE REMOVED
FILTER_TYPE: BUTTERWORTH
FILTER_ORDER: 2
LOW_CUT_FREQUENCY_HZ: 0.100
HIGH_CUT_FREQUENCY_HZ: 40.000
LATE/NORMAL_TRIGGERED: NT
DATABASE_VERSION: 0.5
HEADER_FORMAT: DYNA 1.2
DATA_TYPE: DISPLACEMENT
PROCESSING: manual (Paolucci et al., 2011)
DATA_TIMESTAMP_YYYYMMDD_HHMMSS: 20211011_155739.456
DATA_LICENSE: CC-BY3_0-IT (http://creativecommons.org/licenses/by/3.0/deed.en)
DATA_CITATION: Luzi L, Pacor F, Puglia R (2019). Italian Accelerometric Archive v 3.0 - Istituto Nazionale di Geofisica e Vulcanologia, Dipartimento della Protezione Civile Nazionale. doi: 10.13127/itaca.3.1
DATA_CREATOR: ITACA working group
ORIGINAL_DATA_MEDIATOR_CITATION: data obtained within the DPC-INGV data exchange agreements
ORIGINAL_DATA_MEDIATOR: Archive of Italian Department of Civil Protection
ORIGINAL_DATA_CREATOR_CITATION: Presidency Of Counsil Of Ministers-Civil Protection Department. (1972). Italian Strong Motion Network. Presidency of Counsil of Ministers - Civil Protection Department. https://doi.org/10.7914/SN/IT http://www.fdsn.org/networks/detail/IT/
ORIGINAL_DATA_CREATOR: network: IT (Italian Strong Motion Network (RAN)); owner: Presidency of Counsil of Ministers - Civil Protection Department (PCM - DPC)
USER1: 
USER2: 
USER3: 
USER4: 
USER5: 
[...]
-7.155770e-01
-7.181467e-01
-7.207381e-01
-7.233577e-01
-7.260084e-01
-7.286864e-01
-7.313844e-01
-7.340962e-01
-7.368197e-01
-7.395543e-01
-7.422970e-01
-7.450384e-01
-7.477627e-01
-7.504542e-01
-7.531074e-01
-7.557325e-01
-7.583486e-01
-7.609695e-01
-7.635960e-01
-7.662204e-01
-7.688390e-01
-7.714593e-01
-7.740973e-01
-7.767660e-01
-7.794662e-01
-7.821863e-01
-7.849131e-01
-7.876416e-01
-7.903743e-01
-7.931132e-01
-7.958535e-01
-7.985873e-01
-8.013110e-01
-8.040285e-01
-8.067481e-01
-8.094743e-01
-8.122017e-01
-8.149167e-01
-8.176086e-01
-8.202818e-01
-8.229609e-01
-8.256857e-01
-8.285008e-01
-8.314399e-01
-8.345128e-01
-8.377020e-01
-8.409738e-01
-8.442940e-01
-8.476353e-01
-8.509720e-01
-8.542736e-01
-8.575094e-01
-8.606624e-01
-8.637379e-01
-8.667570e-01
-8.697407e-01
-8.727009e-01
-8.756473e-01
-8.785988e-01
-8.815844e-01
-8.846299e-01
-8.877447e-01
-8.909254e-01
-8.941696e-01
-8.974804e-01
-9.008528e-01
-9.042549e-01
-9.076245e-01
-9.108864e-01
-9.139787e-01
-9.168767e-01
-9.196067e-01
-9.222475e-01
-9.249085e-01
-9.276860e-01
-9.306147e-01
-9.336488e-01
-9.366916e-01
-9.396579e-01
-9.425293e-01
-9.453673e-01
-9.482756e-01
-9.513346e-01
-9.545520e-01
-9.578627e-01
-9.611723e-01
-9.644041e-01
-9.675187e-01
-9.705080e-01
-9.733853e-01
-9.761862e-01
-9.789657e-01
-9.817792e-01
-9.846568e-01
-9.875938e-01
-9.905639e-01
-9.935366e-01
-9.964732e-01
-9.993096e-01
-1.001955e+00
-1.004322e+00
-1.006368e+00
-1.008118e+00
-1.009640e+00
-1.011002e+00
-1.012221e+00
-1.013240e+00
-1.013931e+00
-1.014151e+00
-1.013799e+00
-1.012870e+00
-1.011459e+00
-1.009704e+00
-1.007722e+00
-1.005565e+00
-1.003225e+00
-1.000673e+00
-9.978933e-01
-9.949127e-01
-9.918073e-01
-9.886963e-01
-9.857237e-01
-9.830261e-01
-9.806891e-01
-9.787079e-01
-9.769841e-01
-9.753647e-01
-9.736930e-01
-9.718403e-01
-9.697190e-01
-9.672974e-01
-9.646219e-01
-9.618234e-01
-9.590894e-01
-9.566125e-01
-9.545483e-01
-9.529983e-01
-9.520199e-01
-9.516631e-01
-9.520287e-01
-9.533163e-01
-9.557984e-01
-9.596790e-01
-9.648861e-01
-9.709484e-01
-9.770946e-01
-9.825533e-01
-9.868626e-01
-9.899886e-01
-9.922079e-01
-9.938942e-01
-9.953815e-01
-9.969403e-01
-9.987589e-01
-1.000865e+00
-1.003077e+00
-1.005120e+00
-1.006872e+00
-1.008537e+00
-1.010541e+00
-1.013217e+00
-1.016517e+00
-1.019993e+00
-1.023039e+00
-1.025170e+00
-1.026155e+00
-1.026013e+00
-1.024958e+00
-1.023333e+00
-1.021498e+00
-1.019686e+00
-1.017925e+00
-1.016101e+00
-1.014112e+00
-1.011999e+00
-1.009923e+00
-1.008026e+00
-1.006294e+00
-1.004572e+00
-1.002686e+00
-1.000554e+00
-9.981713e-01
-9.955313e-01
-9.925832e-01
-9.892708e-01
-9.855881e-01
-9.815945e-01
-9.773984e-01
-9.731415e-01
-9.689885e-01
-9.651088e-01
-9.616392e-01
-9.586362e-01
-9.560567e-01
-9.537930e-01
-9.517225e-01
-9.496946e-01
-9.474512e-01
-9.445925e-01
-9.407021e-01
-9.356166e-01
-9.296452e-01
-9.235077e-01
-9.179483e-01
-9.132819e-01
-9.092288e-01
-9.051587e-01
-9.005226e-01
-8.951190e-01
-8.890406e-01
-8.824485e-01
-8.754218e-01
-8.679702e-01
-8.601081e-01
-8.518708e-01
-8.432607e-01
-8.342050e-01
-8.246088e-01
-8.144928e-01
-8.041060e-01
-7.938976e-01
-7.843559e-01
-7.758301e-01
-7.684323e-01
-7.620134e-01
-7.561830e-01
-7.503940e-01
-7.441152e-01
-7.370186e-01
-7.290513e-01
-7.203470e-01
-7.110789e-01
-7.013809e-01
-6.913618e-01
-6.811544e-01
-6.709371e-01
-6.609047e-01
-6.512033e-01
-6.418831e-01
-6.329119e-01
-6.242284e-01
-6.157781e-01
-6.075132e-01
-5.994083e-01
-5.915390e-01
-5.841746e-01
-5.777507e-01
-5.726343e-01
-5.687966e-01
-5.656772e-01
-5.624178e-01
-5.583161e-01
-5.531514e-01
-5.471662e-01
-5.407915e-01
-5.343600e-01
-5.279799e-01
-5.215747e-01
-5.149907e-01
-5.080874e-01
-5.007897e-01
-4.931048e-01
-4.851070e-01
-4.769017e-01
-4.685847e-01
-4.602093e-01
-4.517668e-01
-4.431885e-01
-4.343692e-01
-4.251982e-01
-4.155804e-01
-4.054402e-01
-3.947051e-01
-3.832807e-01
-3.710380e-01
-3.578399e-01
-3.436144e-01
-3.284647e-01
-3.127680e-01
-2.971675e-01
-2.823955e-01
-2.690177e-01
-2.573009e-01
-2.472964e-01
-2.389953e-01
-2.323350e-01
-2.270390e-01
-2.225145e-01
-2.180021e-01
-2.129053e-01
-2.070453e-01
-2.006726e-01
-1.942690e-01
-1.883030e-01
-1.831039e-01
-1.788938e-01
-1.758654e-01
-1.741714e-01
-1.738352e-01
-1.747111e-01
-1.765738e-01
-1.792487e-01
-1.826215e-01
-1.864932e-01
-1.904427e-01
-1.938769e-01
-1.962591e-01
-1.973136e-01
-1.970401e-01
-1.955744e-01
-1.930700e-01
-1.896920e-01
-1.856587e-01
-1.812483e-01
-1.767744e-01
-1.725640e-01
-1.689214e-01
-1.660575e-01
-1.640274e-01
-1.627294e-01
-1.619555e-01
-1.614478e-01
-1.609417e-01
-1.602045e-01
-1.590692e-01
-1.574503e-01
-1.553428e-01
-1.528174e-01
-1.500162e-01
-1.471533e-01
-1.445115e-01
-1.423992e-01
-1.410608e-01
-1.405986e-01
-1.409735e-01
-1.420642e-01
-1.437105e-01
-1.457047e-01
-1.477723e-01
-1.496002e-01
-1.509080e-01
-1.514984e-01
-1.512439e-01
-1.500282e-01
-1.477118e-01
-1.441650e-01
-1.393524e-01
-1.334008e-01
-1.266092e-01
-1.194051e-01
-1.122507e-01
-1.055151e-01
-9.938112e-02
-9.384879e-02
-8.878877e-02
-8.396199e-02
-7.900420e-02
-7.345301e-02
-6.686296e-02
-5.897604e-02
-4.986855e-02
-3.998229e-02
-2.997680e-02
-2.044321e-02
-1.165513e-02
-3.544011e-03
4.102565e-03
1.142035e-02
1.839682e-02
2.492738e-02
3.088362e-02
3.615316e-02
4.069118e-02
4.458860e-02
4.808604e-02
5.148880e-02
5.505243e-02
5.894813e-02
6.331376e-02
6.827859e-02
7.387565e-02
7.990679e-02
8.592967e-02
9.144600e-02
9.615750e-02
1.000659e-01
1.033494e-01
1.061649e-01
1.085616e-01
1.105441e-01
1.121817e-01
1.136535e-01
1.152243e-01
1.172223e-01
1.200367e-01
1.240761e-01
1.296432e-01
1.367926e-01
1.452858e-01
1.546749e-01
1.644550e-01
1.742128e-01
1.837480e-01
1.931371e-01
2.026823e-01
2.127194e-01
2.233758e-01
2.344523e-01
2.455342e-01
2.562469e-01
2.664462e-01
2.762184e-01
2.857573e-01
2.952626e-01
3.049063e-01
3.148112e-01
3.250049e-01
3.354088e-01
3.459084e-01
3.564365e-01
3.669771e-01
3.775072e-01
3.879804e-01
3.983991e-01
4.088923e-01
4.196805e-01
4.309233e-01
4.425885e-01
4.544834e-01
4.664298e-01
4.784109e-01
4.905304e-01
5.028086e-01
5.150043e-01
5.266428e-01
5.372322e-01
5.464882e-01
5.544108e-01
5.612110e-01
5.671903e-01
5.726423e-01
5.777804e-01
5.827006e-01
5.874065e-01
5.918920e-01
5.962363e-01
6.006662e-01
6.055507e-01
6.113183e-01
6.183244e-01
6.267392e-01
6.365134e-01
6.474346e-01
6.592298e-01
6.716457e-01
6.844559e-01
6.974052e-01
7.101716e-01
7.224281e-01
7.339772e-01
7.448404e-01
7.552327e-01
7.654553e-01
7.757909e-01
7.864472e-01
7.975376e-01
8.090637e-01
8.208828e-01
8.326841e-01
8.440318e-01
8.544919e-01
8.637876e-01
8.718879e-01
8.789755e-01
8.853298e-01
8.912169e-01
8.968602e-01
9.024854e-01
9.083662e-01
9.148004e-01
9.220079e-01
9.300136e-01
9.385987e-01
9.473603e-01
9.558321e-01
9.635935e-01
9.703392e-01
9.759364e-01
9.804755e-01
9.842648e-01
9.877345e-01
9.912919e-01
9.952106e-01
9.996153e-01
1.004546e+00
1.010030e+00
1.016109e+00
1.022850e+00
1.030345e+00
1.038698e+00
1.047962e+00
1.058062e+00
1.068797e+00
1.079946e+00
1.091392e+00
1.103139e+00
1.115208e+00
1.127529e+00
1.139934e+00
1.152245e+00
1.164372e+00
1.176336e+00
1.188201e+00
1.199987e+00
1.211618e+00
1.222900e+00
1.233531e+00
1.243152e+00
1.251488e+00
1.258491e+00
1.264398e+00
1.269610e+00
1.274496e+00
1.279275e+00
1.284059e+00
1.288968e+00
1.294192e+00
1.299946e+00
1.306403e+00
1.313667e+00
1.321832e+00
1.331031e+00
1.341407e+00
1.352979e+00
1.365505e+00
1.378513e+00
1.391499e+00
1.404175e+00
1.416566e+00
1.428878e+00
1.441246e+00
1.453577e+00
1.465583e+00
1.476942e+00
1.487432e+00
1.496935e+00
1.505345e+00
1.512504e+00
1.518251e+00
1.522518e+00
1.525382e+00
1.527020e+00
1.527615e+00
1.527316e+00
1.526276e+00
1.524749e+00
1.523120e+00
1.521855e+00
1.521379e+00
1.521959e+00
1.523654e+00
1.526323e+00
1.529667e+00
1.533317e+00
1.536940e+00
1.540384e+00
1.543741e+00
1.547300e+00
1.551383e+00
1.556197e+00
1.561766e+00
1.567984e+00
1.574723e+00
1.581905e+00
1.589493e+00
1.597437e+00
1.605665e+00
1.614144e+00
1.622958e+00
1.632276e+00
1.642239e+00
1.652841e+00
1.663914e+00
1.675206e+00
1.686481e+00
1.697582e+00
1.708415e+00
1.718879e+00
1.728778e+00
1.737795e+00
1.745567e+00
1.751815e+00
1.756439e+00
1.759521e+00
1.761239e+00
1.761761e+00
1.761178e+00
1.759517e+00
1.756846e+00
1.753397e+00
1.749623e+00
1.746120e+00
1.743478e+00
1.742147e+00
1.742365e+00
1.744159e+00
1.747367e+00
1.751669e+00
1.756653e+00
1.761901e+00
1.767077e+00
1.771970e+00
1.776491e+00
1.780666e+00
1.784598e+00
1.788402e+00
1.792100e+00
1.795585e+00
1.798696e+00
1.801333e+00
1.803529e+00
1.805430e+00
1.807240e+00
1.809185e+00
1.811472e+00
1.814216e+00
1.817372e+00
1.820731e+00
1.824029e+00
1.827072e+00
1.829794e+00
1.832208e+00
1.834297e+00
1.835934e+00
1.836879e+00
1.836860e+00
1.835704e+00
1.833417e+00
1.830170e+00
1.826186e+00
1.821655e+00
1.816714e+00
1.811499e+00
1.806181e+00
1.800959e+00
1.796016e+00
1.791438e+00
1.787169e+00
1.782994e+00
1.778566e+00
1.773470e+00
1.767315e+00
1.759855e+00
1.751075e+00
1.741202e+00
1.730648e+00
1.719900e+00
1.709399e+00
1.699426e+00
1.690027e+00
1.681029e+00
1.672177e+00
1.663314e+00
1.654507e+00
1.645983e+00
1.637933e+00
1.630325e+00
1.622916e+00
1.615437e+00
1.607809e+00
1.600190e+00
1.592833e+00
1.585888e+00
1.579340e+00
1.573095e+00
1.567097e+00
1.561361e+00
1.555961e+00
1.550982e+00
1.546485e+00
1.542445e+00
1.538700e+00
1.534964e+00
1.530912e+00
1.526310e+00
1.521096e+00
1.515379e+00
1.509369e+00
1.503285e+00
1.497294e+00
1.491501e+00
1.485945e+00
1.480593e+00
1.475295e+00
1.469760e+00
1.463595e+00
1.456408e+00
1.447932e+00
1.438099e+00
1.427049e+00
1.415050e+00
1.402372e+00
1.389189e+00
1.375562e+00
1.361481e+00
1.346938e+00
1.331962e+00
1.316622e+00
1.301004e+00
1.285166e+00
1.269101e+00
1.252692e+00
1.235711e+00
1.217866e+00
1.198942e+00
1.178924e+00
1.158019e+00
1.136526e+00
1.114690e+00
1.092649e+00
1.070499e+00
1.048400e+00
1.026614e+00
1.005431e+00
9.850658e-01
9.656049e-01
9.470517e-01
9.294236e-01
9.128145e-01
8.973731e-01
8.832203e-01
8.703792e-01
8.587659e-01
8.482130e-01
8.384661e-01
8.291629e-01
8.198533e-01
8.100920e-01
7.995577e-01
7.881127e-01
7.757613e-01
7.625297e-01
7.483363e-01
7.329357e-01
7.159769e-01
6.971456e-01
6.763024e-01
6.535236e-01
6.290158e-01
6.029669e-01
5.754495e-01
5.464462e-01
5.159645e-01
4.841387e-01
4.512244e-01
4.174816e-01
3.830340e-01
3.478166e-01
3.116425e-01
2.743201e-01
2.357217e-01
1.957723e-01
1.544172e-01
1.116317e-01
6.747567e-02
2.214455e-02
-2.401927e-02
-7.055247e-02
-1.169141e-01
-1.625281e-01
-2.068265e-01
-2.493145e-01
-2.896646e-01
-3.278100e-01
-3.639782e-01
-3.986163e-01
-4.322090e-01
-4.650528e-01
-4.971007e-01
-5.279769e-01
-5.571506e-01
-5.841669e-01
-6.088091e-01
-6.311159e-01
-6.512816e-01
-6.695592e-01
-6.862466e-01
-7.017217e-01
-7.164353e-01
-7.308243e-01
-7.452044e-01
-7.597320e-01
-7.744614e-01
-7.894435e-01
-8.047978e-01
-8.207312e-01
-8.375188e-01
-8.554704e-01
-8.748690e-01
-8.958789e-01
-9.184725e-01
-9.424488e-01
-9.675274e-01
-9.934266e-01
-1.019860e+00
-1.046484e+00
-1.072862e+00
-1.098509e+00
-1.123014e+00
-1.146179e+00
-1.168080e+00
-1.189004e+00
-1.209308e+00
-1.229330e+00
-1.249381e+00
-1.269797e+00
-1.290943e+00
-1.313151e+00
-1.336582e+00
-1.361128e+00
-1.386410e+00
-1.411904e+00
-1.437096e+00
-1.461566e+00
-1.484991e+00
-1.507090e+00
-1.527590e+00
-1.546265e+00
-1.563037e+00
-1.578024e+00
-1.591480e+00
-1.603680e+00
-1.614880e+00
-1.625355e+00
-1.635391e+00
-1.645205e+00
-1.654840e+00
-1.664141e+00
-1.672861e+00
-1.680814e+00
-1.687986e+00
-1.694540e+00
-1.700781e+00
-1.707099e+00
-1.713898e+00
-1.721500e+00
-1.730049e+00
-1.739517e+00
-1.749782e+00
-1.760715e+00
-1.772208e+00
-1.784144e+00
-1.796397e+00
-1.808907e+00
-1.821774e+00
-1.835282e+00
-1.849796e+00
-1.865566e+00
-1.882573e+00
-1.900508e+00
-1.918907e+00
-1.937297e+00
-1.955270e+00
-1.972469e+00
-1.988578e+00
-2.003337e+00
-2.016556e+00
-2.028087e+00
-2.037777e+00
-2.045455e+00
-2.050959e+00
-2.054192e+00
-2.055198e+00
-2.054217e+00
-2.051709e+00
-2.048347e+00
-2.045000e+00
-2.042675e+00
-2.042360e+00
-2.044802e+00
-2.050303e+00
-2.058646e+00
-2.069178e+00
-2.080988e+00
-2.093095e+00
-2.104584e+00
-2.114707e+00
-2.122956e+00
-2.129099e+00
-2.133152e+00
-2.135305e+00
-2.135838e+00
-2.135079e+00
-2.133412e+00
-2.131313e+00
-2.129350e+00
-2.128129e+00
-2.128174e+00
-2.129805e+00
-2.133049e+00
-2.137652e+00
-2.143157e+00
-2.149027e+00
-2.154752e+00
-2.159890e+00
-2.164059e+00
-2.166930e+00
-2.168230e+00
-2.167746e+00
-2.165312e+00
-2.160817e+00
-2.154260e+00
-2.145838e+00
-2.135984e+00
-2.125276e+00
-2.114302e+00
-2.103569e+00
-2.093507e+00
-2.084468e+00
-2.076661e+00
-2.070018e+00
-2.064111e+00
-2.058231e+00
-2.051616e+00
-2.043720e+00
-2.034359e+00
-2.023670e+00
-2.011958e+00
-1.999576e+00
-1.986884e+00
-1.974284e+00
-1.962219e+00
-1.951109e+00
-1.941220e+00
-1.932524e+00
-1.924640e+00
-1.916930e+00
-1.908709e+00
-1.899452e+00
-1.888879e+00
-1.876902e+00
-1.863537e+00
-1.848861e+00
-1.833044e+00
-1.816372e+00
-1.799190e+00
-1.781781e+00
-1.764272e+00
-1.746639e+00
-1.728817e+00
-1.710806e+00
-1.692724e+00
-1.674769e+00
-1.657142e+00
-1.639986e+00
-1.623366e+00
-1.607286e+00
-1.591713e+00
-1.576593e+00
-1.561858e+00
-1.547391e+00
-1.532979e+00
-1.518271e+00
-1.502812e+00
-1.486154e+00
-1.468007e+00
-1.448360e+00
-1.427533e+00
-1.406095e+00
-1.384727e+00
-1.364057e+00
-1.344549e+00
-1.326396e+00
-1.309439e+00
-1.293141e+00
-1.276660e+00
-1.259039e+00
-1.239425e+00
-1.217220e+00
-1.192129e+00
-1.164163e+00
-1.133650e+00
-1.101231e+00
-1.067751e+00
-1.034008e+00
-1.000497e+00
-9.673042e-01
-9.342055e-01
-9.008703e-01
-8.670105e-01
-8.324030e-01
-7.968206e-01
-7.599638e-01
-7.214776e-01
-6.810583e-01
-6.385910e-01
-5.942296e-01
-5.483466e-01
-5.013683e-01
-4.536163e-01
-4.052811e-01
-3.565256e-01
-3.076026e-01
-2.588750e-01
-2.107183e-01
-1.633701e-01
-1.168175e-01
-7.079419e-02
-2.488903e-02
2.130586e-02
6.808249e-02
1.155574e-01
1.636374e-01
2.119948e-01
2.600741e-01
3.071587e-01
3.525077e-01
3.955252e-01
4.358763e-01
4.734802e-01
5.083885e-01
5.406428e-01
5.702120e-01
5.970468e-01
6.212063e-01
6.429501e-01
6.627107e-01
6.809570e-01
6.980576e-01
7.142534e-01
7.297464e-01
7.447945e-01
7.597092e-01
7.747671e-01
7.901319e-01
8.058429e-01
8.218464e-01
8.380110e-01
8.540997e-01
8.697339e-01
8.844024e-01
8.975426e-01
9.086645e-01
9.174632e-01
9.238690e-01
9.280149e-01
9.301522e-01
9.305826e-01
9.296366e-01
9.276735e-01
9.250584e-01
9.221172e-01
9.191101e-01
9.162560e-01
9.137839e-01
9.119378e-01
9.108887e-01
9.106089e-01
9.108129e-01
9.110250e-01
9.107519e-01
9.096854e-01
9.078444e-01
9.055780e-01
9.034236e-01
9.018952e-01
9.013223e-01
9.018139e-01
9.033329e-01
9.058155e-01
9.092786e-01
9.138833e-01
9.199136e-01
9.276413e-01
9.371127e-01
9.479723e-01
9.594611e-01
9.706377e-01
9.807284e-01
9.894183e-01
9.969239e-01
1.003850e+00
1.010967e+00
1.019026e+00
1.028645e+00
1.040243e+00
1.054033e+00
1.070070e+00
1.088288e+00
1.108477e+00
1.130186e+00
1.152634e+00
1.174727e+00
1.195213e+00
1.212961e+00
1.227239e+00
1.237850e+00
1.245056e+00
1.249318e+00
1.251038e+00
1.250441e+00
1.247643e+00
1.242834e+00
1.236430e+00
1.229098e+00
1.221629e+00
1.214757e+00
1.209012e+00
1.204650e+00
1.201665e+00
1.199866e+00
1.199018e+00
1.198955e+00
1.199553e+00
1.200600e+00
1.201694e+00
1.202344e+00
1.202238e+00
1.201478e+00
1.200581e+00
1.200249e+00
1.201101e+00
1.203542e+00
1.207805e+00
1.214046e+00
1.222392e+00
1.232908e+00
1.245558e+00
1.260154e+00
1.276254e+00
1.293070e+00
1.309501e+00
1.324390e+00
1.336864e+00
1.346532e+00
1.353449e+00
1.357949e+00
1.360520e+00
1.361723e+00
1.362108e+00
1.362072e+00
1.361758e+00
1.361097e+00
1.360012e+00
1.358619e+00
1.357235e+00
1.356157e+00
1.355388e+00
1.354585e+00
1.353250e+00
1.351015e+00
1.347777e+00
1.343640e+00
1.338807e+00
1.333541e+00
1.328205e+00
1.323281e+00
1.319310e+00
1.316784e+00
1.316053e+00
1.317273e+00
1.320389e+00
1.325119e+00
1.330975e+00
1.337320e+00
1.343494e+00
1.348940e+00
1.353292e+00
1.356381e+00
1.358204e+00
1.358888e+00
1.358626e+00
1.357581e+00
1.355794e+00
1.353190e+00
1.349674e+00
1.345250e+00
1.340043e+00
1.334236e+00
1.328012e+00
1.321556e+00
1.315077e+00
1.308786e+00
1.302802e+00
1.297044e+00
1.291178e+00
1.284700e+00
1.277148e+00
1.268357e+00
1.258600e+00
1.248550e+00
1.239066e+00
1.230949e+00
1.224802e+00
1.221030e+00
1.219910e+00
1.221629e+00
1.226248e+00
1.233615e+00
1.243287e+00
1.254538e+00
1.266447e+00
1.278058e+00
1.288536e+00
1.297287e+00
1.304028e+00
1.308809e+00
1.311944e+00
1.313871e+00
1.314985e+00
1.315557e+00
1.315736e+00
1.315593e+00
1.315118e+00
1.314178e+00
1.312475e+00
1.309577e+00
1.305054e+00
1.298632e+00
1.290255e+00
1.280013e+00
1.268022e+00
1.254371e+00
1.239185e+00
1.222755e+00
1.205619e+00
1.188507e+00
1.172158e+00
1.157119e+00
1.143609e+00
1.131487e+00
1.120290e+00
1.109345e+00
1.097901e+00
1.085279e+00
1.071005e+00
1.054923e+00
1.037277e+00
1.018714e+00
1.000146e+00
9.825130e-01
9.665698e-01
9.527846e-01
9.413707e-01
9.323689e-01
9.256977e-01
9.211489e-01
9.183673e-01
9.168768e-01
9.161852e-01
9.159233e-01
9.159238e-01
9.161809e-01
9.167421e-01
9.176180e-01
9.187497e-01
9.200222e-01
9.213123e-01
9.225599e-01
9.238149e-01
9.252110e-01
9.268632e-01
9.287417e-01
9.306101e-01
9.320787e-01
9.327439e-01
9.323233e-01
9.306995e-01
9.278530e-01
9.237496e-01
9.182756e-01
9.112673e-01
9.025962e-01
8.922243e-01
8.801695e-01
8.664007e-01
8.507503e-01
8.329267e-01
8.126251e-01
7.896632e-01
7.640661e-01
7.360873e-01
7.061911e-01
6.750093e-01
6.432604e-01
6.116364e-01
5.807041e-01
5.508755e-01
5.224501e-01
4.956629e-01
4.706672e-01
4.474589e-01
4.258021e-01
4.052184e-01
3.850636e-01
3.646836e-01
3.436100e-01
3.217124e-01
2.992217e-01
2.766169e-01
2.544592e-01
2.332590e-01
2.133996e-01
1.951054e-01
1.784425e-01
1.633384e-01
