EVENT_NAME: L_AQUILA
EVENT_ID: IT-2009-0009
EVENT_DATE_YYYYMMDD: 20090406
EVENT_TIME_HHMMSS: 013240
EVENT_LATITUDE_DEGREE: 42.3420
EVENT_LONGITUDE_DEGREE: 13.3800
EVENT_DEPTH_KM: 8.3
HYPOCENTER_REFERENCE: INGV-CNT_Seismic_Bulletin
MAGNITUDE_W: 6.1
MAGNITUDE_W_REFERENCE: INGV-CNT_Seismic_Bulletin
MAGNITUDE_L: 
MAGNITUDE_L_REFERENCE: 
FOCAL_MECHANISM: Normal faulting
NETWORK: IT
STATION_CODE: GSA
STATION_NAME: 
STATION_LATITUDE_DEGREE: 42.420689
STATION_LONGITUDE_DEGREE: 13.519362
STATION_ELEVATION_M: 1062
LOCATION: 
SENSOR_DEPTH_M: 0.0
VS30_M/S: 492
SITE_CLASSIFICATION_EC8: B
MORPHOLOGIC_CLASSIFICATION: 
EPICENTRAL_DISTANCE_KM: 14.4
EARTHQUAKE_BACKAZIMUTH_DEGREE: 52.7
DATE_TIME_FIRST_SAMPLE_YYYYMMDD_HHMMSS: 20090406_013229.000
DATE_TIME_FIRST_SAMPLE_PRECISION: seconds
SAMPLING_INTERVAL_S: 0.005000
NDATA: 33320
DURATION_S: 166.600
STREAM: HNZ
UNITS: cm/s^2
INSTRUMENT: sensor = FBA-3 [Kinemetrics] | digitizer = Etna [Kinemetrics]
INSTRUMENT_ANALOG/DIGITAL: D
INSTRUMENTAL_FREQUENCY_HZ: 208.000
INSTRUMENTAL_DAMPING: 0.700000
FULL_SCALE_G: 1.0
N_BIT_DIGITAL_CONVERTER: 18
PGA_CM/S^2: -107.113403
TIME_PGA_S: 16.310000
BASELINE_CORRECTION: BASELINE NOT REMOVED
FILTER_TYPE: 
FILTER_ORDER: 
LOW_CUT_FREQUENCY_HZ: 
HIGH_CUT_FREQUENCY_HZ: 
LATE/NORMAL_TRIGGERED: NT
DATABASE_VERSION: 0.5
HEADER_FORMAT: DYNA 1.2
DATA_TYPE: ACCELERATION
PROCESSING: converted to cm/s^2
DATA_TIMESTAMP_YYYYMMDD_HHMMSS: 20211011_155740.331
DATA_LICENSE: CC-BY3_0-IT (http://creativecommons.org/licenses/by/3.0/deed.en)
DATA_CITATION: Luzi L, Pacor F, Puglia R (2019). Italian Accelerometric Archive v 3.0 - Istituto Nazionale di Geofisica e Vulcanologia, Dipartimento della Protezione Civile Nazionale. doi: 10.13127/itaca.3.1
DATA_CREATOR: ITACA working group
ORIGINAL_DATA_MEDIATOR_CITATION: data obtained within the DPC-INGV data exchange agreements
ORIGINAL_DATA_MEDIATOR: Archive of Italian Department of Civil Protection
ORIGINAL_DATA_CREATOR_CITATION: Presidency Of Counsil Of Ministers-Civil Protection Department. (1972). Italian Strong Motion Network. Presidency of Counsil of Ministers - Civil Protection Department. https://doi.org/10.7914/SN/IT http://www.fdsn.org/networks/detail/IT/
ORIGINAL_DATA_CREATOR: network: IT (Italian Strong Motion Network (RAN)); owner: Presidency of Counsil of Ministers - Civil Protection Department (PCM - DPC)
USER1: 
USER2: 
USER3: 
USER4: 
USER5: 
[...]
-0.004420
-0.005122
-0.005824
-0.007696
-0.007462
-0.005590
-0.004420
-0.005824
-0.001378
-0.003952
-0.005356
-0.005356
-0.006760
-0.006058
-0.006292
-0.000208
-0.008398
-0.009568
-0.003952
-0.012142
-0.008398
-0.004186
-0.009802
-0.013311
-0.010972
-0.003250
-0.002548
-0.008398
-0.005122
-0.003250
-0.004186
-0.006760
-0.014013
-0.009099
-0.008164
-0.008865
-0.002548
-0.005356
-0.008164
-0.011206
-0.010036
-0.006994
-0.009099
-0.004888
-0.006760
-0.008164
-0.004420
-0.008164
-0.007228
-0.009099
-0.010972
-0.007930
-0.007462
-0.004888
-0.007462
-0.004420
0.000728
-0.010738
-0.012375
-0.000208
-0.001612
-0.009568
-0.009568
-0.004888
-0.003016
-0.008632
-0.011206
-0.002314
-0.004654
-0.013545
-0.002548
-0.000910
-0.004186
-0.008164
-0.014716
-0.006058
-0.003952
-0.006760
-0.012142
-0.008164
-0.007696
-0.015885
-0.003718
-0.003484
-0.002080
-0.000676
-0.009568
-0.004186
-0.005356
-0.008398
-0.009802
-0.008865
-0.007228
-0.009333
-0.007696
-0.004888
-0.004420
-0.010036
-0.009099
-0.003952
-0.004888
-0.003952
-0.001846
-0.006292
-0.008865
-0.007696
-0.008398
-0.005590
-0.006994
-0.007930
-0.003484
-0.006292
-0.004186
-0.004888
-0.012843
-0.009802
-0.008164
-0.006292
-0.008632
-0.012375
-0.007228
-0.003718
-0.003016
-0.007462
-0.008398
-0.006526
-0.006994
-0.005356
-0.010504
-0.010270
-0.006760
-0.013779
-0.012609
-0.006760
-0.007696
-0.007696
-0.004654
-0.006292
-0.010972
-0.006994
-0.015184
-0.017991
-0.002782
-0.010738
-0.014482
-0.006058
-0.010738
-0.008865
-0.008632
-0.010270
-0.005122
-0.004420
-0.005590
-0.003952
-0.007930
-0.009099
-0.007696
-0.013077
-0.009333
-0.010738
-0.008865
-0.006760
-0.009802
-0.003016
-0.008398
-0.007462
-0.005356
-0.007696
-0.006058
-0.008632
-0.003952
-0.007462
-0.010972
-0.004420
-0.009568
-0.013077
-0.003484
-0.005356
-0.012843
-0.006292
-0.001846
-0.008164
-0.009333
-0.007696
-0.006292
-0.003718
-0.006994
-0.003718
-0.006058
-0.009568
-0.001612
-0.007930
-0.007696
-0.007462
-0.008398
-0.006058
-0.011440
-0.003250
-0.012843
-0.012375
-0.005356
-0.013077
-0.006292
-0.010270
-0.007462
-0.006058
-0.001846
-0.000208
-0.010036
-0.005824
-0.006058
-0.003718
-0.005356
-0.010738
-0.008398
-0.008632
-0.007930
-0.001846
-0.001144
-0.005590
-0.006058
-0.010738
-0.008164
-0.005356
-0.011674
-0.006526
-0.003016
-0.006526
-0.006292
-0.003718
-0.000442
-0.008865
-0.010972
-0.004420
-0.003016
-0.004888
-0.009333
-0.009802
-0.008164
0.002600
0.000260
-0.008164
-0.007228
-0.007228
-0.002548
-0.008632
-0.009099
-0.005590
-0.003952
-0.003484
-0.009802
-0.005590
-0.007930
-0.010972
-0.008632
-0.004186
-0.003016
-0.008865
-0.010738
-0.008632
-0.001378
-0.006994
-0.009099
-0.001612
-0.007462
-0.010972
-0.000208
-0.001378
-0.011908
-0.005824
-0.006994
-0.005824
-0.000208
-0.002314
-0.004888
-0.009333
-0.003250
-0.007462
-0.009568
0.000026
-0.002782
-0.007696
-0.008632
-0.006058
-0.005590
-0.010738
-0.008398
-0.007696
-0.009568
-0.000676
-0.001612
-0.007696
-0.005590
-0.000910
-0.004420
-0.006526
-0.003718
-0.004186
0.001430
-0.006292
-0.009333
-0.005356
-0.006760
-0.007462
-0.008164
-0.001612
-0.010036
-0.010738
-0.005356
-0.006994
-0.004654
-0.010036
-0.009333
-0.011440
-0.005824
-0.000910
-0.008865
-0.007462
-0.006526
0.000962
0.001430
-0.003016
-0.000208
-0.003016
-0.006058
-0.005824
-0.000910
-0.005590
-0.006760
-0.006292
-0.006526
0.000260
-0.008398
-0.006994
-0.005122
-0.008164
-0.003484
-0.006058
-0.003016
-0.004186
-0.008865
-0.008632
-0.005356
-0.003718
-0.009333
-0.010972
-0.010738
-0.006994
-0.002080
-0.006994
-0.010972
-0.007696
-0.005824
-0.005122
-0.006292
-0.006292
-0.007228
-0.010738
-0.009333
-0.005356
-0.001144
-0.003484
-0.005590
-0.007696
-0.003718
0.003068
-0.007930
-0.004654
-0.003250
-0.007228
0.001196
-0.009568
-0.011440
0.000962
-0.002314
-0.006526
-0.003718
-0.005824
-0.003250
-0.000910
-0.006058
-0.009099
-0.011674
-0.009802
-0.008865
-0.005356
-0.003016
-0.004654
-0.004654
-0.005824
-0.004888
-0.003718
-0.000910
-0.003016
-0.002782
-0.007462
-0.013779
-0.004420
-0.001846
-0.007696
-0.010738
-0.007228
-0.004654
-0.005356
-0.005356
-0.005824
-0.002782
0.000260
-0.002080
-0.006292
-0.007228
-0.006526
-0.003952
-0.004888
-0.005122
-0.006760
-0.010504
-0.006058
-0.004420
0.003770
-0.005122
-0.016353
-0.002782
-0.002782
-0.003250
-0.008398
-0.010036
-0.004420
-0.007930
-0.007228
-0.009099
-0.002080
0.000260
-0.006292
-0.005122
-0.004654
-0.006760
-0.007930
-0.003718
-0.004186
-0.006994
-0.007228
-0.008632
-0.005824
-0.005824
-0.004888
-0.004654
-0.011908
-0.007930
-0.003718
-0.007930
-0.003718
-0.001846
-0.001612
-0.004186
-0.010036
-0.004186
-0.004888
-0.010504
-0.006760
-0.007462
-0.001846
-0.000910
-0.006760
-0.005590
-0.009333
-0.007696
-0.006292
-0.005590
-0.003016
-0.009333
-0.006526
-0.001612
-0.006058
-0.006058
-0.003484
-0.005824
-0.005356
-0.006058
-0.005824
-0.001612
-0.005356
-0.005356
-0.002548
-0.006058
-0.013311
-0.011908
-0.001846
-0.003250
-0.004186
-0.008632
-0.013779
-0.015885
-0.012609
-0.000442
-0.008398
-0.016119
-0.006760
-0.001144
-0.006994
-0.005356
0.001196
-0.009568
-0.008164
-0.003250
-0.006760
-0.007462
-0.009802
-0.006526
-0.007930
-0.007930
-0.006058
-0.005356
-0.003250
-0.006058
-0.000442
-0.003484
-0.011206
-0.004654
-0.008164
-0.007930
0.002132
-0.005824
-0.012375
-0.007462
-0.004654
-0.005824
-0.007462
-0.002782
-0.003718
-0.012142
-0.008164
-0.005590
-0.008398
-0.005590
-0.002314
-0.003952
-0.007696
-0.001144
-0.005590
-0.011908
-0.007462
-0.010036
-0.006994
-0.007930
-0.004420
0.000026
-0.002782
-0.004654
-0.011206
-0.007696
-0.004888
-0.006292
-0.006292
-0.007696
-0.002080
0.000260
-0.004888
-0.003484
-0.007696
-0.007696
-0.000910
-0.009333
-0.003016
0.001664
-0.005122
-0.004888
-0.004186
-0.002314
-0.005590
-0.005122
-0.006526
-0.008865
-0.008632
-0.007462
-0.006058
-0.003016
-0.003484
-0.008164
-0.002080
-0.006526
-0.005356
-0.001612
-0.012609
-0.002314
0.001664
-0.010036
-0.002080
-0.002080
-0.006994
-0.002782
-0.004888
-0.003016
-0.002080
-0.003016
-0.003484
-0.002782
-0.000208
-0.004654
-0.009802
-0.006994
-0.002548
-0.005122
-0.006760
-0.005356
-0.003952
0.000728
0.000026
-0.005356
-0.006760
-0.004654
-0.004654
-0.009568
-0.010270
-0.002548
-0.001378
-0.007696
-0.010738
-0.008398
-0.003718
-0.007228
-0.007930
-0.000442
-0.002548
-0.009568
-0.009099
-0.005356
-0.006760
-0.005824
-0.004186
-0.005590
-0.006058
-0.009099
-0.006292
-0.003718
-0.007930
-0.008632
-0.007462
-0.005824
-0.007228
-0.006526
-0.007228
-0.013077
-0.006058
-0.002782
-0.008632
-0.005122
-0.000208
-0.006292
-0.010504
-0.010270
-0.009568
-0.002080
-0.003016
-0.009099
-0.010270
-0.010270
-0.006994
-0.005122
-0.002548
-0.004654
-0.008398
-0.008398
-0.006526
-0.002314
-0.005356
-0.007930
-0.010972
-0.007462
-0.002782
-0.007228
-0.009802
-0.008398
-0.001378
-0.006526
-0.003484
-0.000208
-0.001612
-0.001612
-0.010036
-0.003952
-0.006292
-0.003484
-0.002314
-0.008164
-0.006526
-0.010270
-0.001612
-0.004186
-0.008398
-0.001612
-0.005824
-0.006994
-0.001846
-0.001378
-0.006292
-0.010504
-0.004654
0.000494
-0.004420
-0.004654
-0.007462
-0.004888
-0.002782
-0.008164
-0.009568
-0.007930
-0.000208
-0.004186
-0.007462
-0.004186
-0.006760
-0.007696
-0.004186
-0.003250
-0.003718
-0.006058
-0.010972
-0.006058
-0.002548
-0.005122
-0.007462
-0.007696
-0.001846
-0.002314
-0.005590
-0.007930
-0.007930
-0.001846
-0.008164
-0.010738
-0.000676
-0.001846
-0.007930
-0.006760
-0.004654
-0.006760
-0.000676
-0.002782
-0.007462
-0.000208
-0.007228
-0.008398
-0.002314
-0.006526
-0.006292
-0.006058
-0.007696
-0.000910
-0.001846
-0.006292
-0.006760
-0.010972
-0.004420
-0.005122
-0.005590
-0.004654
-0.007228
-0.003016
-0.010504
-0.005356
-0.006292
-0.007930
-0.003484
-0.009802
-0.002782
-0.005356
-0.007696
-0.005356
-0.003250
-0.001378
-0.006292
-0.003016
-0.006292
-0.011440
-0.005824
-0.006526
-0.008398
-0.006292
-0.011206
-0.010270
-0.006994
-0.006058
-0.001378
-0.004888
-0.004186
-0.005356
-0.007696
-0.004654
-0.009333
-0.007228
-0.006760
-0.007462
-0.005356
-0.005356
-0.005356
-0.007462
-0.006058
-0.002314
-0.004186
-0.007228
-0.000910
-0.002314
-0.002080
-0.002548
-0.005356
-0.004420
-0.013077
-0.007462
-0.008164
-0.010972
-0.006994
-0.011206
-0.003718
-0.006760
-0.004888
-0.001612
-0.009333
-0.003484
-0.004186
-0.003250
-0.005590
-0.005122
-0.002782
-0.010738
-0.005824
-0.011908
-0.006292
0.000026
-0.011440
-0.006058
-0.005824
-0.002548
-0.001612
-0.002548
-0.000910
-0.007228
-0.006526
-0.006994
-0.004654
-0.005824
-0.003484
-0.002548
-0.008865
-0.004420
-0.003016
-0.005356
-0.006526
-0.004186
-0.003952
-0.006526
-0.007228
-0.004888
-0.004420
-0.007696
-0.006994
-0.007696
-0.007930
-0.003952
-0.003484
-0.006292
-0.005824
-0.007930
-0.008398
-0.005356
-0.009099
-0.007696
-0.007462
-0.010036
-0.008632
-0.010036
-0.007462
-0.006994
-0.009099
-0.005590
-0.006292
-0.010504
-0.006526
-0.008398
-0.012609
-0.006292
-0.010972
-0.011674
-0.003016
-0.006526
-0.006526
-0.004420
-0.005356
-0.004654
-0.006994
-0.004186
-0.009568
-0.012843
-0.004186
-0.005122
-0.003952
-0.003952
-0.009099
-0.005356
-0.003718
-0.004654
-0.009568
-0.010972
-0.000676
-0.001846
-0.010036
-0.009568
-0.006292
-0.006292
-0.010504
-0.007228
-0.004186
-0.006292
-0.008164
-0.006058
-0.000208
-0.007930
-0.007930
-0.000910
-0.006526
-0.004420
0.000026
0.000260
0.006344
0.021085
0.035827
0.049866
0.085199
0.149313
0.246419
0.383304
0.579857
0.852224
1.143777
1.390638
1.542733
1.524949
1.354837
1.134183
0.949330
0.798405
0.642567
0.460288
0.190027
-0.138029
-0.438942
-0.702651
-0.903883
-0.937110
-0.800693
-0.647897
-0.464213
-0.197697
0.002366
0.001898
-0.178041
-0.392612
-0.451578
-0.167746
0.446482
1.001978
1.093001
0.696151
0.150483
-0.182721
-0.231860
-0.194421
-0.334348
-0.725114
-1.110498
-1.060658
-0.476849
0.333698
0.971793
1.203679
1.216314
1.307805
1.637967
2.181295
2.551938
2.063598
0.420275
-1.581055
-2.759437
-2.635889
-1.706942
-0.906926
-0.800693
-1.147702
-1.123368
-0.405481
0.471987
0.753947
0.167564
-0.699141
-1.071421
-0.749215
-0.062450
0.395004
0.137613
-0.682995
-1.447914
-1.660612
-1.216496
-0.613266
-0.472403
-0.814967
-1.525131
-2.568265
-3.560390
-4.150282
-4.345432
-4.011760
-2.637995
-0.101292
3.129663
6.333944
8.353760
8.190434
6.035137
3.236832
1.102126
-0.099888
-0.928921
-1.817854
-2.289114
-1.343788
1.082471
3.238002
3.170378
0.822741
-2.093965
-3.653285
-3.034377
-0.492058
2.765807
5.030143
5.177324
2.779846
-1.622472
-5.966291
-7.703913
-6.017302
-2.350185
0.934354
2.141283
1.241585
-0.615138
-1.603752
-0.090997
3.432215
6.489315
7.422239
6.988653
6.859255
7.653189
8.526212
8.493453
8.182712
9.353606
12.596730
16.401199
18.590420
18.649160
18.242241
19.108950
21.271271
23.243580
24.046410
24.596291
26.374620
29.804239
34.058910
37.453892
37.629379
32.134789
19.839470
2.482443
-15.029250
-27.294861
-31.709810
-28.821190
-21.169661
-12.475000
-6.740570
-7.120806
-14.729740
-27.709961
-41.162369
-48.765690
-45.720058
-31.318810
-9.505649
13.246990
31.130970
40.920010
40.838810
29.045170
6.228648
-22.187759
-47.949059
-63.699970
-65.617996
-53.324322
-31.313200
-9.414392
1.297041
-3.239120
-15.713440
-25.304760
-24.737560
-13.224240
3.576822
17.071819
23.264641
28.052580
35.281509
38.848480
29.211300
5.836946
-16.454960
-21.172939
-6.000220
15.451430
24.611500
15.299330
2.262725
2.596163
16.390430
31.355129
36.739040
33.049702
25.656031
16.577860
5.479173
-5.244427
-8.934709
-0.597120
16.649929
29.598560
26.765390
11.101990
-2.381540
-2.731592
5.418569
11.783370
13.345500
16.250509
24.926210
31.996500
27.265190
10.480980
-8.806248
-20.342501
-19.250700
-6.464694
11.120480
24.425240
28.332430
22.283751
5.213827
-21.876551
-45.998981
-49.386940
-24.800039
16.080860
46.757629
48.956211
25.264799
-5.262445
-19.852760
-10.692920
11.547740
28.698389
31.158810
25.736059
23.430540
27.328140
31.013741
22.798531
-0.828538
-27.225599
-41.595249
-40.635189
-30.487671
-22.047131
-20.400530
-20.479851
-17.145941
-9.349341
1.029823
11.385120
20.018240
26.042120
28.171680
24.516029
15.206200
3.420515
-6.174778
-10.330940
-7.661326
-0.295739
6.707395
8.328957
0.485793
-15.338360
-32.125610
-43.279758
-46.013020
-41.309319
-33.802170
-31.601009
-38.808880
-47.613049
-43.808350
-21.991440
8.187860
31.975679
42.612240
45.231998
49.516621
59.400902
67.445297
62.113800
43.942242
25.287970
16.541830
20.561100
32.317780
39.591171
32.988159
13.112450
-14.437250
-42.854599
-67.122566
-85.789711
-99.184097
-107.113403
-106.953102
-96.192978
-74.500320
-42.587151
-6.407599
20.182970
25.308090
9.362497
-13.723810
-27.298599
-27.841700
-25.329100
-26.239090
-22.972099
-4.872615
26.629669
54.541130
57.881359
31.149691
-9.609073
-41.542839
-51.939091
-45.174858
-37.362110
-37.485432
-38.755070
-31.762230
-17.801350
-7.293960
-10.839630
-27.928040
-42.630669
-37.447521
-10.880820
20.625681
39.994801
42.802940
36.643581
31.842300
30.595600
31.092590
32.546150
30.320190
18.554621
-0.449940
-18.289221
-28.683359
-28.586729
-19.078711
-5.616708
5.341820
9.490491
6.171554
-2.967923
-14.520320
-24.503111
-29.279110
-26.214050
-18.182289
-12.363150
-12.769830
-17.987379
-21.857830
-15.828570
2.092613
23.352150
36.139561
35.549431
25.807190
13.099810
2.141751
-2.267119
3.279886
15.268210
25.981750
31.737940
33.434151
34.274879
34.918362
31.928410
21.474600
1.793805
-23.686239
-44.997261
-49.446838
-31.521919
0.947926
32.560421
50.253460
47.625500
26.281490
-3.237949
-28.475109
-43.305500
-48.184929
-46.628181
-41.322891
-32.690701
-21.591551
-12.423760
-10.921770
-15.965690
-19.315041
-15.861800
-7.136250
4.176542
17.286860
29.319170
33.422920
23.212931
1.116400
-19.047819
-24.833969
-16.705570
-6.676456
-7.144205
-18.508711
-29.837179
-31.214220
-22.289780
-8.937984
6.796780
28.948299
56.300739
79.125450
87.639938
77.148460
52.415550
26.410191
10.227330
7.031473
15.740640
31.005079
41.311008
37.123730
17.543779
-7.072838
-20.989019
-17.828501
-5.009032
3.210157
-1.252063
-12.651200
-21.160999
-24.396870
-24.532591
-21.431730
-14.165360
-4.384040
3.342596
5.280281
3.503348
3.394542
7.501796
12.659910
14.166580
12.455400
13.245590
21.280390
33.659721
41.058529
34.802059
16.662331
-0.334348
-7.186090
-6.584965
-6.174544
-9.929875
-15.735910
-19.695280
-19.621811
-16.454260
-12.486930
-8.716863
-4.343326
0.818763
4.429721
4.580646
1.239011
-3.413911
-6.546123
-7.129698
-3.998188
1.003616
1.517696
-4.651961
-13.861640
-21.509180
-24.956579
-25.213970
-25.009701
-26.445240
-28.963221
-30.271700
-28.809490
-24.251801
-18.013821
-9.952572
1.338224
13.904740
22.818890
22.387171
10.777210
-6.901790
-21.094080
-22.250000
-6.527403
20.191160
43.475899
51.377090
43.198151
26.594339
10.299170
-3.847966
-17.828730
-29.244011
-32.024300
-23.803240
-11.161840
-3.419293
-5.638937
-15.193280
-21.422371
-15.746910
-0.164704
16.608509
25.627951
21.605410
6.134583
-13.762890
-29.090281
-32.131699
-19.534531
3.274504
22.006229
26.514780
19.356510
11.928680
14.219230
26.025040
39.089020
45.022820
41.921490
32.396400
17.285919
-3.094045
-23.205620
-33.815029
-31.408661
-23.072250
-20.697001
-29.249161
-41.901310
-47.175720
-39.137409
-22.573139
-7.996636
-1.080547
2.058684
7.910580
15.275230
16.287010
6.289018
-8.831051
-17.142670
-12.594570
0.661754
12.538700
14.510550
7.009244
-1.026963
-0.425371
10.247690
20.946251
18.671619
1.676108
-17.747299
-24.591551
-15.681620
-0.442686
9.613570
9.164307
0.375817
-9.431005
-11.211450
0.080519
19.805540
36.780930
44.410690
45.092079
44.227711
42.647331
38.753712
33.505280
27.879419
20.583099
9.767771
-4.518117
-17.999069
-23.921400
-19.973961
-9.838150
-0.794843
0.856669
-4.062536
-9.382568
-8.907098
-1.093417
10.482620
22.681299
34.731861
44.924770
48.592831
42.637039
30.827709
18.249729
5.518718
-7.327421
-16.223780
-15.017550
-2.081095
16.929079
32.912350
38.171310
28.811640
9.013382
-12.126820
-26.929131
-30.773849
-25.497339
-16.724760
-11.277430
-11.202320
-11.480770
-10.032360
-8.827073
-8.622798
-7.392470
-4.936260
-4.424053
-6.894068
-9.587077
-8.041563
-2.678943
1.303593
-0.123755
-4.551110
-4.995694
-2.554460
-0.859191
1.192681
6.987483
17.174770
24.683331
23.128460
10.974930
-5.946870
-17.230181
-18.184401
-11.990870
-5.723642
-4.826753
-10.101390
-16.679359
-17.777719
-10.330000
2.150643
12.230300
15.736190
13.203700
6.541963
-1.900454
-8.982911
-12.331330
-12.340220
-11.651120
-13.479530
-20.432350
-33.347988
-50.538651
-68.863930
-85.730507
-97.911423
-99.222473
-83.192879
-52.230640
-20.510969
-1.579885
3.919619
7.110796
17.700550
34.013039
45.642891
41.846149
20.304649
-9.598777
-31.587429
-35.138489
-25.601460
-17.521271
-19.966009
-29.049089
-33.649368
-28.175131
-16.460350
-6.004433
-0.311183
2.044878
3.661526
6.251813
8.000198
7.347830
6.127564
6.191443
6.784612
6.444856
6.048007
7.782820
13.720360
22.657431
29.514320
28.395140
17.036720
-0.314693
-15.979730
-22.684059
-17.539749
-3.738458
10.793120
17.734249
15.015730
7.140045
-0.061982
-3.429822
-2.844376
-0.764424
-1.944678
-9.863188
-23.935440
-40.541821
-54.921780
-62.477371
-59.071152
-44.037430
-25.166241
-15.116770
-19.610340
-32.695850
-42.003101
-37.808571
-20.293360
0.436420
11.538850
8.069226
-2.595175
-8.202549
-2.957160
9.876109
23.553850
35.039330
44.662941
50.734779
47.028358
27.777639
-0.345579
-23.211941
-31.854191
-26.506310
-15.545210
-8.119482
-9.510328
-19.112410
-31.671909
-38.833691
-32.279350
-11.077140
15.484420
32.874210
34.883961
25.716640
13.052780
4.464117
3.409050
10.255880
20.262760
27.687080
31.715250
34.143608
36.989422
37.951118
33.639130
24.681459
12.569590
-3.043736
-21.980209
-40.916679
-53.598320
-53.735210
-40.785179
-20.424400
-0.852873
9.486981
7.450552
-1.266804
-5.064254
3.808707
20.104580
31.551451
30.248119
19.987350
12.592990
19.767870
44.516220
73.131760
88.672539
82.764717
