EVENT_NAME: L_AQUILA
EVENT_ID: IT-2009-0009
EVENT_DATE_YYYYMMDD: 20090406
EVENT_TIME_HHMMSS: 013240
EVENT_LATITUDE_DEGREE: 42.3420
EVENT_LONGITUDE_DEGREE: 13.3800
EVENT_DEPTH_KM: 8.3
HYPOCENTER_REFERENCE: INGV-CNT_Seismic_Bulletin
MAGNITUDE_W: 6.1
MAGNITUDE_W_REFERENCE: INGV-CNT_Seismic_Bulletin
MAGNITUDE_L: 
MAGNITUDE_L_REFERENCE: 
FOCAL_MECHANISM: Normal faulting
NETWORK: IT
STATION_CODE: GSA
STATION_NAME: 
STATION_LATITUDE_DEGREE: 42.420689
STATION_LONGITUDE_DEGREE: 13.519362
STATION_ELEVATION_M: 1062
LOCATION: 
SENSOR_DEPTH_M: 0.0
VS30_M/S: 492
SITE_CLASSIFICATION_EC8: B
MORPHOLOGIC_CLASSIFICATION: 
EPICENTRAL_DISTANCE_KM: 14.4
EARTHQUAKE_BACKAZIMUTH_DEGREE: 52.7
DATE_TIME_FIRST_SAMPLE_YYYYMMDD_HHMMSS: 
DATE_TIME_FIRST_SAMPLE_PRECISION: 
SAMPLING_INTERVAL_S: 
NDATA: 105
DURATION_S: 
STREAM: HNN
UNITS: cm/s^2
INSTRUMENT: sensor = FBA-3 [Kinemetrics] | digitizer = Etna [Kinemetrics]
INSTRUMENT_ANALOG/DIGITAL: D
INSTRUMENTAL_FREQUENCY_HZ: 216.000
INSTRUMENTAL_DAMPING: 0.700000
FULL_SCALE_G: 1.0
N_BIT_DIGITAL_CONVERTER: 18
PGA_CM/S^2: 142.514912
TIME_PGA_S: 
BASELINE_CORRECTION: BASELINE REMOVED
FILTER_TYPE: BUTTERWORTH
FILTER_ORDER: 2
LOW_CUT_FREQUENCY_HZ: 0.100
HIGH_CUT_FREQUENCY_HZ: 40.000
LATE/NORMAL_TRIGGERED: NT
DATABASE_VERSION: 0.5
HEADER_FORMAT: DYNA 1.2
DATA_TYPE: ACCELERATION RESPONSE SPECTRUM
PROCESSING: manual (Paolucci et al., 2011)
DATA_TIMESTAMP_YYYYMMDD_HHMMSS: 20211011_155741.218
DATA_LICENSE: CC-BY3_0-IT (http://creativecommons.org/licenses/by/3.0/deed.en)
DATA_CITATION: Luzi L, Pacor F, Puglia R (2019). Italian Accelerometric Archive v 3.0 - Istituto Nazionale di Geofisica e Vulcanologia, Dipartimento della Protezione Civile Nazionale. doi: 10.13127/itaca.3.1
DATA_CREATOR: ITACA working group
ORIGINAL_DATA_MEDIATOR_CITATION: data obtained within the DPC-INGV data exchange agreements
ORIGINAL_DATA_MEDIATOR: Archive of Italian Department of Civil Protection
ORIGINAL_DATA_CREATOR_CITATION: Presidency Of Counsil Of Ministers-Civil Protection Department. (1972). Italian Strong Motion Network. Presidency of Counsil of Ministers - Civil Protection Department. https://doi.org/10.7914/SN/IT http://www.fdsn.org/networks/detail/IT/
ORIGINAL_DATA_CREATOR: network: IT (Italian Strong Motion Network (RAN)); owner: Presidency of Counsil of Ministers - Civil Protection Department (PCM - DPC)
USER1: 
USER2: 
USER3: 
USER4: 
USER5: 
    0.010000   142.930359
    0.020000   147.782654
    0.022000   149.094635
    0.025000   153.858307
    0.029000   167.679291
    0.030000   169.015076
    0.032000   177.659927
    0.035001   198.210220
    0.036000   208.871918
    0.040000   281.130493
    0.041999   338.638611
    0.044001   400.807129
    0.045000   408.972900
    0.046000   395.239014
    0.048001   366.844696
    0.050000   358.847137
    0.054999   338.487915
    0.059999   381.905609
    0.064998   519.940063
    0.067002   477.080658
    0.069999   401.924255
    0.075002   453.254730
    0.080000   485.527008
    0.084998   556.741699
    0.090001   501.754211
    0.095003   551.493408
    0.100000   572.138306
    0.109999   544.340881
    0.120005   560.335449
    0.130005   437.952393
    0.132996   429.956512
    0.139997   446.406067
    0.149993   525.969299
    0.160000   442.932709
    0.170010   425.432098
    0.179986   426.751984
    0.190006   384.546936
    0.200000   393.161621
    0.220022   349.599091
    0.239981   389.567963
    0.250000   411.961487
    0.260010   459.494720
    0.280034   459.897705
    0.290023   475.523438
    0.300030   481.216034
    0.320000   473.048798
    0.340020   418.257141
    0.350017   372.128326
    0.359971   359.230927
    0.379939   293.292725
    0.400000   219.591873
    0.419992   171.260788
    0.439947   144.392319
    0.450045   153.210388
    0.459982   162.723083
    0.480077   166.628738
    0.500000   166.690430
    0.550055   131.369415
    0.599880   143.564270
    0.650195   100.747726
    0.667111    92.544945
    0.699790    93.203239
    0.750188    86.542152
    0.800000    73.850616
    0.850340    69.829353
    0.900090    60.765564
    0.949668    66.917274
    1.000000    74.253746
    1.100110    49.508629
    1.200480    36.673943
    1.300390    33.756992
    1.400560    34.610703
    1.499250    32.979523
    1.600000    28.493391
    1.700680    32.229420
    1.798561    39.269890
    1.901141    44.256725
    2.000000    45.552101
    2.197802    40.595634
    2.398082    33.049706
    2.500000    31.044079
    2.597403    30.076981
    2.801121    27.705921
    3.003003    24.870010
    3.205128    21.767838
    3.401361    18.147249
    3.496503    16.638964
    3.597122    15.258840
    3.802281    14.407334
    4.000000    13.549288
    4.201681    11.220977
    4.405286     9.948898
    4.608295     8.608859
    4.807692     7.089664
    5.000000     5.823836
    5.494505     4.147114
    5.988024     3.363040
    6.493506     2.733003
    6.993007     2.432815
    7.518797     2.212214
    8.000000     1.981688
    8.474576     2.007137
    9.009009     1.976898
    9.523809     1.896813
   10.000000     1.781543
