EVENT_NAME: L_AQUILA
EVENT_ID: IT-2009-0009
EVENT_DATE_YYYYMMDD: 20090406
EVENT_TIME_HHMMSS: 013240
EVENT_LATITUDE_DEGREE: 42.3420
EVENT_LONGITUDE_DEGREE: 13.3800
EVENT_DEPTH_KM: 8.3
HYPOCENTER_REFERENCE: INGV-CNT_Seismic_Bulletin
MAGNITUDE_W: 6.1
MAGNITUDE_W_REFERENCE: INGV-CNT_Seismic_Bulletin
MAGNITUDE_L: 
MAGNITUDE_L_REFERENCE: 
FOCAL_MECHANISM: Normal faulting
NETWORK: IT
STATION_CODE: GSA
STATION_NAME: 
STATION_LATITUDE_DEGREE: 42.420689
STATION_LONGITUDE_DEGREE: 13.519362
STATION_ELEVATION_M: 1062
LOCATION: 
SENSOR_DEPTH_M: 0.0
VS30_M/S: 492
SITE_CLASSIFICATION_EC8: B
MORPHOLOGIC_CLASSIFICATION: 
EPICENTRAL_DISTANCE_KM: 14.4
EARTHQUAKE_BACKAZIMUTH_DEGREE: 52.7
DATE_TIME_FIRST_SAMPLE_YYYYMMDD_HHMMSS: 20090406_013229.000
DATE_TIME_FIRST_SAMPLE_PRECISION: seconds
SAMPLING_INTERVAL_S: 0.005000
NDATA: 20020
DURATION_S: 100.100
STREAM: HNN
UNITS: cm/s^2
INSTRUMENT: sensor = FBA-3 [Kinemetrics] | digitizer = Etna [Kinemetrics]
INSTRUMENT_ANALOG/DIGITAL: D
INSTRUMENTAL_FREQUENCY_HZ: 216.000
INSTRUMENTAL_DAMPING: 0.700000
FULL_SCALE_G: 1.0
N_BIT_DIGITAL_CONVERTER: 18
PGA_CM/S^2: 142.514908
TIME_PGA_S: 19.900000
BASELINE_CORRECTION: BASELINE REMOVED
FILTER_TYPE: BUTTERWORTH
FILTER_ORDER: 2
LOW_CUT_FREQUENCY_HZ: 0.100
HIGH_CUT_FREQUENCY_HZ: 40.000
LATE/NORMAL_TRIGGERED: NT
DATABASE_VERSION: 0.5
HEADER_FORMAT: DYNA 1.2
DATA_TYPE: ACCELERATION
PROCESSING: manual (Paolucci et al., 2011)
DATA_TIMESTAMP_YYYYMMDD_HHMMSS: 20211011_155739.900
DATA_LICENSE: CC-BY3_0-IT (http://creativecommons.org/licenses/by/3.0/deed.en)
DATA_CITATION: Luzi L, Pacor F, Puglia R (2019). Italian Accelerometric Archive v 3.0 - Istituto Nazionale di Geofisica e Vulcanologia, Dipartimento della Protezione Civile Nazionale. doi: 10.13127/itaca.3.1
DATA_CREATOR: ITACA working group
ORIGINAL_DATA_MEDIATOR_CITATION: data obtained within the DPC-INGV data exchange agreements
ORIGINAL_DATA_MEDIATOR: Archive of Italian Department of Civil Protection
ORIGINAL_DATA_CREATOR_CITATION: Presidency Of Counsil Of Ministers-Civil Protection Department. (1972). Italian Strong Motion Network. Presidency of Counsil of Ministers - Civil Protection Department. https://doi.org/10.7914/SN/IT http://www.fdsn.org/networks/detail/IT/
ORIGINAL_DATA_CREATOR: network: IT (Italian Strong Motion Network (RAN)); owner: Presidency of Counsil of Ministers - Civil Protection Department (PCM - DPC)
USER1: 
USER2: 
USER3: 
USER4: 
USER5: 
[...]
-0.216413
-0.216093
-0.216735
-0.218245
-0.220639
-0.222669
-0.223370
-0.223321
-0.223308
-0.223810
-0.224687
-0.224872
-0.224047
-0.223689
-0.224791
-0.226030
-0.226464
-0.227199
-0.228181
-0.228187
-0.228261
-0.229835
-0.231334
-0.230537
-0.228106
-0.226522
-0.226345
-0.226415
-0.227240
-0.229464
-0.231404
-0.232067
-0.232675
-0.233657
-0.233656
-0.232467
-0.231792
-0.232580
-0.234276
-0.235367
-0.234473
-0.232594
-0.232307
-0.234552
-0.237546
-0.239069
-0.239183
-0.238770
-0.237512
-0.236083
-0.236808
-0.239968
-0.242221
-0.240695
-0.236962
-0.234831
-0.235758
-0.238369
-0.241319
-0.244475
-0.247128
-0.247792
-0.246493
-0.244732
-0.243450
-0.242807
-0.243072
-0.244279
-0.245872
-0.247206
-0.247669
-0.247591
-0.248248
-0.249511
-0.249978
-0.249487
-0.249399
-0.250409
-0.251328
-0.250882
-0.249414
-0.248099
-0.247706
-0.248605
-0.250746
-0.253087
-0.254340
-0.254560
-0.254773
-0.254947
-0.254225
-0.253282
-0.253931
-0.256193
-0.257985
-0.258088
-0.257115
-0.255518
-0.253620
-0.252969
-0.254771
-0.258300
-0.262213
-0.265058
-0.265100
-0.262202
-0.258578
-0.256679
-0.257398
-0.260325
-0.264340
-0.267617
-0.268422
-0.266484
-0.263139
-0.259964
-0.258173
-0.258699
-0.260769
-0.262500
-0.263739
-0.265096
-0.265836
-0.265504
-0.265533
-0.266924
-0.268230
-0.268545
-0.269032
-0.269380
-0.268090
-0.266063
-0.265151
-0.265633
-0.267410
-0.270423
-0.273202
-0.273984
-0.273146
-0.272195
-0.271389
-0.270271
-0.269439
-0.270149
-0.272233
-0.273650
-0.273096
-0.271706
-0.271213
-0.272183
-0.274149
-0.276678
-0.279611
-0.281426
-0.280448
-0.278053
-0.276773
-0.276585
-0.275877
-0.274986
-0.276217
-0.279297
-0.280747
-0.279499
-0.277944
-0.277792
-0.278984
-0.280310
-0.280460
-0.279690
-0.278987
-0.278706
-0.278735
-0.278705
-0.278741
-0.279898
-0.282801
-0.286277
-0.287432
-0.284089
-0.277788
-0.271062
-0.263354
-0.254020
-0.245195
-0.239569
-0.239582
-0.246941
-0.258067
-0.259561
-0.232041
-0.166152
-0.076959
0.002564
0.041609
0.025118
-0.041296
-0.132726
-0.218524
-0.281245
-0.322508
-0.355992
-0.394752
-0.432171
-0.440493
-0.404747
-0.344031
-0.280794
-0.206658
-0.098109
0.043405
0.174111
0.220970
0.123758
-0.104902
-0.362993
-0.528283
-0.552159
-0.488693
-0.445205
-0.498570
-0.627012
-0.709937
-0.623461
-0.365922
-0.082633
0.054627
-0.006321
-0.169749
-0.280179
-0.230813
-0.035093
0.172012
0.250951
0.225160
0.280111
0.528290
0.820266
0.866739
0.520147
-0.113277
-0.775348
-1.206851
-1.282611
-1.100594
-0.902480
-0.829912
-0.780137
-0.552296
-0.106099
0.374765
0.640000
0.536007
0.070550
-0.584925
-1.184274
-1.586972
-1.830777
-1.964212
-1.875306
-1.401892
-0.584984
0.277230
0.820759
0.849509
0.471453
0.061454
-0.011505
0.251878
0.405316
-0.033031
-1.034125
-1.990626
-2.261474
-1.725626
-0.742652
0.316579
1.346715
2.343371
3.097197
3.146343
2.108103
0.123887
-2.040939
-3.428091
-3.523279
-2.580197
-1.394138
-0.723092
-0.781078
-1.139939
-1.082971
-0.146154
1.517969
3.172785
3.932025
3.352954
1.732718
-0.148574
-1.545591
-2.073156
-1.798538
-1.265003
-1.293140
-2.353860
-3.933703
-4.691351
-3.490586
-0.378631
3.383765
6.146843
6.782017
5.130038
1.988647
-1.180121
-2.811386
-2.024976
0.786097
4.112127
6.220076
6.164546
4.288969
1.961760
0.721441
1.362278
3.487433
5.757551
6.766827
6.073654
4.570523
3.773882
4.589269
6.580206
8.275718
8.158622
5.502377
0.602790
-5.360580
-10.608548
-13.354448
-12.583052
-8.431562
-1.959003
5.263974
11.437385
14.875035
14.453393
9.872968
1.756672
-8.169107
-17.080305
-21.797174
-20.153261
-12.095299
0.235369
13.246064
22.734543
24.773336
17.306351
2.092938
-15.086894
-27.216970
-29.869612
-23.029501
-10.284708
3.356274
13.918554
19.920004
21.606318
18.981119
11.628080
1.075756
-7.763487
-9.167167
-1.084650
13.095778
26.774534
33.871632
31.369249
19.586000
0.878369
-21.369707
-42.726662
-58.055832
-63.130413
-56.122986
-37.608692
-10.161520
20.923071
47.025372
58.257572
48.292294
19.418802
-16.052061
-41.196541
-44.497368
-26.734867
0.510450
22.602016
30.047562
22.477402
6.860328
-7.945882
-16.230362
-17.146439
-12.937583
-5.525871
5.265596
19.464344
33.253204
39.313465
32.282139
14.308549
-4.991078
-14.960718
-11.572881
0.087695
10.165817
11.212583
3.039185
-7.556101
-11.690541
-4.133966
13.930011
35.518654
50.983978
53.203812
42.216972
25.179380
11.187640
5.702428
8.581366
15.052170
18.413315
14.206184
2.975321
-10.962683
-22.532146
-27.909187
-25.702112
-17.528091
-7.122648
1.772039
6.850635
7.032454
2.087586
-6.430055
-14.124343
-15.210171
-6.749385
8.098254
21.457798
25.581108
17.066298
-1.597464
-22.853245
-37.218151
-38.159698
-25.844637
-7.071965
8.381300
12.698608
3.702274
-14.330028
-32.709831
-42.078083
-36.529083
-16.797129
9.398095
31.235075
40.955318
37.537704
25.447123
10.928944
-0.633295
-5.905828
-4.552820
0.753705
6.435282
10.534594
12.967678
13.688753
11.472102
5.018161
-4.984099
-15.403198
-22.224447
-22.499868
-15.577846
-3.375058
10.418337
21.567348
26.200607
21.978727
9.542454
-7.445358
-23.780525
-33.920841
-33.024540
-19.290895
3.652459
27.506037
43.674561
47.856354
41.143997
27.452200
10.468884
-7.195038
-23.276554
-35.474552
-41.576260
-39.669476
-29.309273
-13.441692
1.704671
10.180893
10.414651
5.846757
1.636400
0.798313
3.388370
8.936332
18.538584
33.236858
50.451935
63.721550
66.780792
57.374065
37.780960
13.557540
-8.361531
-22.854673
-29.338781
-30.495398
-27.960217
-20.738157
-8.810153
3.010900
6.545031
-3.947125
-27.210949
-55.561291
-79.317406
-90.956947
-86.755829
-66.879250
-35.389172
-0.115043
28.810614
42.545536
38.087887
20.641697
1.215801
-9.683276
-7.920415
3.167198
16.543020
26.121086
28.994909
25.364582
17.439852
7.895963
-1.411748
-9.658285
-16.302914
-20.237593
-19.705410
-13.319436
-1.470801
13.013871
25.665636
32.608925
32.923195
29.055313
24.929350
23.588629
25.832218
30.106041
33.685032
34.318401
31.057365
24.421391
16.235897
8.363023
1.036033
-6.874215
-15.885182
-24.946482
-32.292484
-36.556778
-37.423332
-36.209942
-35.659542
-37.737358
-40.994476
-40.974945
-34.246220
-22.259678
-10.752117
-4.743122
-4.123474
-4.776128
-4.195204
-4.762233
-10.338346
-20.686647
-30.815708
-35.335449
-32.395683
-23.815863
-12.657674
-1.325151
8.233750
13.459215
12.095388
5.470007
-0.160603
2.360111
15.132584
33.678612
50.773804
60.735188
60.493767
48.822262
26.778444
-0.467046
-23.529882
-33.078583
-26.374168
-9.847921
5.663415
12.639416
10.483714
3.444747
-3.192121
-5.447656
-1.764791
6.271302
14.360494
18.036934
16.205860
12.606366
13.103209
20.317606
30.366587
35.405853
30.103584
15.965251
-0.443822
-13.095096
-20.100397
-22.290388
-19.542240
-10.109397
5.703165
22.176624
30.247608
24.000765
5.462457
-16.483501
-31.553036
-33.438004
-21.891724
-1.423019
21.330034
39.770981
48.929993
47.067490
36.901340
24.895441
18.030684
19.855408
28.303013
36.600639
37.232452
26.928989
8.913919
-9.521714
-21.810068
-25.387653
-21.767029
-14.551140
-7.425505
-3.206911
-3.828255
-10.252824
-21.604738
-34.462276
-43.709827
-44.822327
-36.302574
-20.906488
-4.608852
6.687491
10.855056
10.533454
9.891168
9.969792
7.526123
-1.177674
-15.417086
-28.758030
-32.853313
-23.389353
-3.354044
19.078312
35.724869
42.104591
37.895958
25.659504
9.727503
-4.579750
-12.509160
-12.424833
-7.277433
-2.589800
-2.199010
-5.896435
-10.532409
-12.228234
-7.718179
4.496944
22.268093
38.598877
43.976875
32.676865
8.346773
-17.276779
-32.409309
-32.763504
-22.522673
-9.653541
-0.444835
3.111963
2.627957
1.093265
1.117753
4.237513
10.562186
18.250732
23.755913
23.730560
17.154610
5.441823
-9.204442
-24.908430
-39.897800
-52.300190
-60.645679
-64.220047
-62.843151
-56.526794
-45.517616
-30.897461
-15.094257
-1.291098
8.117398
12.601265
13.190090
11.446786
8.582113
4.657098
-1.731925
-12.207511
-26.349497
-40.755665
-50.434761
-50.986149
-40.222717
-19.519442
5.633456
27.629114
40.855824
44.595501
42.308617
38.323414
34.859444
31.592386
27.812466
24.861313
25.898956
32.931797
44.467175
56.124798
62.861057
60.837646
48.907425
29.792677
9.492881
-5.836199
-13.479634
-15.394019
-16.344337
-20.462887
-28.557253
-37.940067
-44.782379
-47.037460
-45.610580
-43.118195
-41.736694
-42.140598
-43.958107
-46.480125
-48.701790
-49.478016
-48.354877
-45.676872
-41.322926
-34.234066
-24.064615
-12.621215
-2.711515
4.139650
8.283242
10.964746
13.693530
17.959606
24.047205
29.783972
31.459356
26.627930
15.965740
2.771389
-8.692367
-14.581016
-12.407552
-1.960405
14.187726
31.682714
46.857838
58.700203
68.284592
76.182533
80.899277
80.287331
74.057281
64.233978
53.408356
43.455956
36.009743
32.849411
34.686249
39.923992
45.545139
49.163166
49.486599
45.190144
35.005432
19.802738
3.898640
-6.637529
-7.482008
1.507887
16.378513
30.942730
39.097240
36.916862
24.004536
3.404295
-19.981787
-41.434685
-57.872040
-68.520721
-74.643250
-78.216522
-80.589447
-82.286469
-83.574806
-84.594185
-84.863457
-83.080482
-77.864502
-69.078728
-58.736286
-50.560131
-48.026863
-52.057793
-60.220757
-68.132408
-71.979355
-70.478073
-65.051903
-58.223572
-51.559616
-44.528496
-34.803963
-20.105616
-0.610263
20.412169
38.844028
52.695412
62.769672
70.934975
78.601837
86.562935
94.803368
101.707375
104.284203
100.387367
91.041878
80.046219
70.717827
63.144390
54.970688
44.415611
31.855370
18.864576
6.502700
-5.521179
-18.543276
-33.974400
-52.271584
-72.339745
-91.810585
-108.281265
-120.566292
-128.789902
-133.464478
-134.642197
-131.756882
-124.110626
-111.679863
-95.688217
-78.446068
-62.523373
-49.872021
-41.335430
-36.373478
-32.883408
-27.600054
-17.555237
-2.277610
14.633119
26.287191
26.046230
11.938625
-11.246697
-34.108494
-47.614975
-47.460236
-35.193237
-15.846319
5.764151
27.135897
47.630791
66.854897
83.657425
96.614464
105.264824
110.186317
111.387566
107.202843
95.827477
78.100952
57.766270
38.441395
21.040722
4.499315
-11.817906
-26.932369
-38.653156
-44.127388
-40.080772
-24.004372
3.062242
34.695908
61.483299
76.500427
79.021439
73.668602
66.686478
62.487171
62.072418
63.447479
63.470127
59.724842
50.811283
35.437225
12.641856
-16.177912
-46.108883
-70.917831
-86.921906
-94.502319
-96.299118
-94.811050
-91.584190
-87.970482
-86.102203
-88.204224
-94.200485
-100.228630
-99.830254
-86.672821
-57.222626
-13.048330
38.042404
84.025002
114.085472
123.860138
116.126488
96.668236
69.738144
37.550518
3.158824
-27.792307
-48.836205
-56.152184
-50.768318
-38.066414
-25.113277
-17.558331
-17.756973
-24.594887
-34.334869
-41.903824
-42.753155
-34.992550
-20.261896
-2.300559
15.261228
29.781569
39.647720
44.410057
44.015099
37.505981
23.616255
3.070456
-20.659386
-43.218300
-61.103573
-71.800919
-73.919952
-67.367767
-52.454132
-29.644201
-1.266591
27.562490
51.024879
65.456345
70.263161
67.641769
62.102528
58.437557
58.623055
61.366070
64.688873
67.084183
65.974464
57.670189
40.342167
15.934334
-11.539498
-38.633232
-63.152397
-83.404533
-97.454277
-103.039894
-98.480370
-83.799248
-60.723309
-31.864098
-0.571211
28.386953
48.910378
55.674477
47.434788
28.917458
8.982756
-4.159543
-6.815409
-0.026980
12.612133
26.989302
39.628841
48.210140
51.366711
48.370171
39.667458
27.466965
14.783700
3.710706
-5.023901
-11.339319
-15.561208
-18.840481
-23.044598
-29.741568
-39.209873
-50.224689
-60.414444
-66.833672
-66.575745
-57.244999
-37.316551
-6.587988
32.828716
75.129974
111.045784
130.974716
129.246689
106.904182
71.017334
30.249632
-9.395045
-44.534077
-72.005898
-88.245338
-90.641525
-79.021797
-56.108288
-26.550943
4.450300
31.920069
51.851036
62.221813
63.423763
57.602551
47.631584
36.696167
28.341961
25.831894
30.282681
39.148361
47.465134
51.404716
50.520142
46.573673
40.845806
33.055000
22.588535
10.004636
-2.900582
-13.937880
-21.156088
-23.112700
-19.139662
-9.754180
2.914090
15.082678
22.182192
20.634609
9.499930
-9.325533
-32.273487
-55.367504
-74.972397
-88.240341
-93.430710
-90.072556
-78.776421
-60.834763
-38.458439
-15.871635
0.472344
4.426879
-5.704209
-25.182087
-45.323948
-58.483318
-61.208893
-53.632557
-37.231853
-13.999558
12.761751
38.293388
58.274082
71.229263
78.855400
83.849998
87.527184
89.529793
89.472328
88.316582
87.922546
89.449219
92.443512
95.514038
97.562080
97.893684
95.225861
87.425743
72.948540
52.496723
29.166178
7.295798
-8.989404
-17.210316
-17.526627
-12.576392
-6.396723
-3.379113
-7.313923
-20.085445
-40.620827
-65.110344
-88.503067
-106.335915
-115.675125
-114.463745
-100.326210
-71.122993
-27.560852
24.715849
75.856636
115.520767
137.617172
142.514908
134.873474
119.634758
99.815323
76.579781
50.374283
22.700668
-2.460463
-19.735844
-26.268862
-24.910681
-22.537415
-24.213623
-28.768934
-30.006498
-22.191957
-4.962300
16.006882
32.261120
36.734325
26.513428
3.547824
-26.662056
-57.507156
-83.250137
-99.646545
-104.060425
-96.556320
-81.142448
-64.569244
-52.558830
-46.441822
-42.773724
-35.857277
-21.086168
2.828507
33.188301
63.958008
87.721123
98.345802
93.048622
73.241585
44.203930
13.259457
-13.382932
-33.355103
-48.156700
-60.220798
-69.478516
-72.437744
-64.874672
-46.011318
-20.095476
6.053946
26.624422
38.628628
42.121601
39.860580
36.402882
36.428322
42.640530
54.351116
67.961105
78.739159
82.076591
74.198357
53.808544
24.151468
-7.365153
-32.792679
-47.555527
-51.905464
-49.681561
-45.304016
-40.860668
-35.484699
-27.021238
-13.995270
3.287798
22.294607
38.484123
46.961468
45.149296
34.195477
18.149733
2.456196
-7.274497
-6.953941
3.593951
19.061047
29.954620
27.117104
7.139024
-24.910387
-57.612736
-79.150932
-83.290924
-71.841774
-53.130058
-38.244633
-36.338806
-50.021816
-73.076820
-92.587852
-94.976212
-72.617493
-27.375496
29.993752
83.760948
119.636719
131.104340
121.768661
102.570541
85.643402
77.705116
77.118919
76.974670
71.077240
57.649586
39.035206
19.268787
1.465813
-14.091684
-29.620125
-46.608421
-62.796635
-72.870247
-72.311485
-60.870243
-43.032879
-25.724016
-15.038866
-13.784839
-21.351387
-35.620335
-54.009418
-72.344498
-84.573250
-85.582169
-74.458313
-54.420837
-29.745049
-3.406206
22.558598
45.752586
63.387459
73.564445
76.357216
73.279793
65.636948
53.691628
37.614712
19.178301
1.948785
-10.884948
-19.086721
-25.867821
-35.389626
-48.503067
-60.461098
-63.963760
-55.584888
-39.304974
-23.934984
-17.568457
-23.541899
-39.432030
-58.817585
-74.663429
-82.108994
-79.297615
-66.963821
-47.849701
-26.056004
-6.276648
6.947052
10.482669
4.537337
-6.474899
-15.682614
-17.326954
-10.073936
2.079657
12.343461
15.641337
11.774357
4.697342
-0.911106
-2.142400
1.375762
6.743672
7.938007
-1.079794
-21.859987
-49.461388
-74.243622
-85.761993
-77.139923
-48.484135
-7.277004
34.684536
66.083717
80.976295
81.525322
75.554695
69.928711
65.933426
60.595016
50.931244
36.462013
19.269379
3.039631
-8.660816
-14.487252
-15.732011
-14.354797
-11.173553
-6.262512
-0.438494
4.269482
5.887800
4.331008
1.710041
0.514496
1.475515
3.162455
3.429603
1.209550
-2.929274
-7.947893
-14.014423
-22.796234
-35.742832
-51.575390
-65.321182
-70.651520
-64.433556
-49.625835
-33.551395
-22.943481
-19.839958
-20.705908
-18.778114
-8.597882
10.051217
32.326645
52.277729
66.066956
71.959152
68.984695
56.564949
35.107285
6.651980
-24.678022
-52.921780
-72.286659
-79.865074
-76.344063
-64.338524
-46.366940
-24.090660
1.024984
26.629986
49.168125
64.627258
69.775764
63.315693
46.801163
24.803799
3.353490
-13.148334
-24.281088
-32.810253
-41.190239
-48.794128
-52.470291
-49.357697
-39.188568
-24.745443
-10.736751
-1.666926
0.355284
-3.797196
-12.035299
-23.371655
-38.279327
-56.922001
-77.201591
-94.263229
-102.061424
-96.727356
-79.699463
-57.629570
-38.683792
-28.355597
-27.657145
-33.728039
-41.711620
-47.181747
-48.137600
-45.243015
-40.243919
-34.223637
-27.168873
-18.432676
-6.940861
8.550203
28.010616
48.124138
62.177227
63.293514
48.964920
22.762348
-8.040548
-35.914272
-54.963997
-61.619251
-54.986137
-36.728374
-10.296975
20.114372
50.326656
76.493080
95.275139
104.165298
102.031136
89.828857
71.092918
51.391769
36.510647
30.322466
33.371853
42.448284
51.509018
54.408722
48.307575
35.102043
19.657528
6.584295
-1.859625
-5.632446
-5.289093
-0.811750
7.660905
18.087854
26.270842
28.026096
21.867912
10.001087
-2.625448
-10.584288
-11.032682
-5.715078
0.505432
3.724023
3.666212
2.802181
3.715705
7.336363
12.926974
19.409014
26.773762
36.060757
47.788425
60.646706
71.964264
79.161293
80.540985
75.268829
63.470165
46.600143
27.116238
7.088157
-12.833356
-32.704075
-51.672867
-67.489189
-77.568436
-80.035980
-73.678581
-57.753139
-32.802010
-1.867899
29.257374
53.118313
62.797588
54.928463
32.053734
2.095084
-25.448727
-43.974426
-51.689388
-50.172245
-41.657787
-27.677664
-9.556945
10.727307
30.319250
45.661045
53.069843
50.052650
36.724796
16.070812
-7.063533
-27.261547
-39.820904
-42.476543
-36.885380
-27.979567
-20.734882
-17.013409
-15.358247
-13.213385
-9.047982
-3.116156
2.938167
7.135138
8.419324
7.440864
6.126080
6.328492
8.959265
14.043240
20.573923
25.982759
26.804955
21.182060
11.278387
3.115595
3.398961
15.425593
37.158028
62.781563
85.751266
100.561211
103.082817
91.257790
66.545403
34.128353
0.721784
-28.082867
-48.875111
-60.127819
-61.518623
-53.455101
-37.236874
-15.616933
7.154937
26.238785
37.646332
39.570793
33.011589
21.260868
8.234384
-3.588323
-13.954636
-23.354393
-30.952374
-34.689266
-33.579075
-29.512972
-26.407906
-27.305014
-32.217793
-38.554485
-42.931927
-42.388885
-34.886841
-19.806654
1.827736
27.627209
54.043575
76.437599
89.711792
89.835548
75.820053
51.134281
23.179226
0.282053
-12.076110
-13.073663
-5.492600
6.624287
19.596779
30.571461
37.495113
38.954639
34.101120
23.133146
7.939872
-8.228347
-21.901682
-30.417570
-32.998436
-31.753824
-31.097914
-35.313766
-46.344463
-63.379246
-83.668564
-103.660088
-120.319946
-132.056992
-138.363907
-138.780762
-132.477844
-118.485832
-96.176674
-66.154480
