EVENT_NAME: L_AQUILA
EVENT_ID: IT-2009-0009
EVENT_DATE_YYYYMMDD: 20090406
EVENT_TIME_HHMMSS: 013240
EVENT_LATITUDE_DEGREE: 42.3420
EVENT_LONGITUDE_DEGREE: 13.3800
EVENT_DEPTH_KM: 8.3
HYPOCENTER_REFERENCE: INGV-CNT_Seismic_Bulletin
MAGNITUDE_W: 6.1
MAGNITUDE_W_REFERENCE: INGV-CNT_Seismic_Bulletin
MAGNITUDE_L: 
MAGNITUDE_L_REFERENCE: 
FOCAL_MECHANISM: Normal faulting
NETWORK: IT
STATION_CODE: GSA
STATION_NAME: 
STATION_LATITUDE_DEGREE: 42.420689
STATION_LONGITUDE_DEGREE: 13.519362
STATION_ELEVATION_M: 1062
LOCATION: 
SENSOR_DEPTH_M: 0.0
VS30_M/S: 492
SITE_CLASSIFICATION_EC8: B
MORPHOLOGIC_CLASSIFICATION: 
EPICENTRAL_DISTANCE_KM: 14.4
EARTHQUAKE_BACKAZIMUTH_DEGREE: 52.7
DATE_TIME_FIRST_SAMPLE_YYYYMMDD_HHMMSS: 20090406_013229.000
DATE_TIME_FIRST_SAMPLE_PRECISION: seconds
SAMPLING_INTERVAL_S: 0.005000
NDATA: 20020
DURATION_S: 100.100
STREAM: HNZ
UNITS: cm/s^2
INSTRUMENT: sensor = FBA-3 [Kinemetrics] | digitizer = Etna [Kinemetrics]
INSTRUMENT_ANALOG/DIGITAL: D
INSTRUMENTAL_FREQUENCY_HZ: 208.000
INSTRUMENTAL_DAMPING: 0.700000
FULL_SCALE_G: 1.0
N_BIT_DIGITAL_CONVERTER: 18
PGA_CM/S^2: -107.296211
TIME_PGA_S: 16.310000
BASELINE_CORRECTION: BASELINE REMOVED
FILTER_TYPE: BUTTERWORTH
FILTER_ORDER: 2
LOW_CUT_FREQUENCY_HZ: 0.100
HIGH_CUT_FREQUENCY_HZ: 40.000
LATE/NORMAL_TRIGGERED: NT
DATABASE_VERSION: 0.5
HEADER_FORMAT: DYNA 1.2
DATA_TYPE: ACCELERATION
PROCESSING: manual (Paolucci et al., 2011)
DATA_TIMESTAMP_YYYYMMDD_HHMMSS: 20211011_155740.498
DATA_LICENSE: CC-BY3_0-IT (http://creativecommons.org/licenses/by/3.0/deed.en)
DATA_CITATION: Luzi L, Pacor F, Puglia R (2019). Italian Accelerometric Archive v 3.0 - Istituto Nazionale di Geofisica e Vulcanologia, Dipartimento della Protezione Civile Nazionale. doi: 10.13127/itaca.3.1
DATA_CREATOR: ITACA working group
ORIGINAL_DATA_MEDIATOR_CITATION: data obtained within the DPC-INGV data exchange agreements
ORIGINAL_DATA_MEDIATOR: Archive of Italian Department of Civil Protection
ORIGINAL_DATA_CREATOR_CITATION: Presidency Of Counsil Of Ministers-Civil Protection Department. (1972). Italian Strong Motion Network. Presidency of Counsil of Ministers - Civil Protection Department. https://doi.org/10.7914/SN/IT http://www.fdsn.org/networks/detail/IT/
ORIGINAL_DATA_CREATOR: network: IT (Italian Strong Motion Network (RAN)); owner: Presidency of Counsil of Ministers - Civil Protection Department (PCM - DPC)
USER1: 
USER2: 
USER3: 
USER4: 
USER5: 
[...]
-0.009112
-0.008058
-0.007056
-0.006457
-0.006860
-0.008073
-0.009259
-0.009797
-0.009291
-0.008173
-0.008093
-0.009627
-0.011249
-0.012099
-0.012272
-0.011693
-0.011722
-0.013586
-0.015032
-0.013377
-0.010188
-0.008869
-0.009363
-0.009274
-0.008611
-0.009535
-0.012473
-0.015075
-0.015307
-0.013596
-0.011291
-0.009799
-0.010500
-0.012968
-0.014925
-0.014965
-0.013767
-0.012536
-0.011882
-0.011840
-0.011914
-0.011956
-0.012486
-0.013663
-0.014915
-0.015325
-0.014511
-0.013207
-0.012143
-0.011010
-0.010070
-0.011107
-0.013556
-0.013648
-0.011272
-0.010785
-0.012927
-0.013978
-0.012944
-0.012614
-0.013762
-0.014110
-0.013509
-0.013836
-0.013897
-0.011818
-0.010098
-0.011903
-0.015728
-0.017317
-0.015517
-0.013722
-0.014520
-0.016422
-0.017669
-0.018375
-0.017721
-0.014753
-0.011324
-0.010070
-0.011353
-0.013266
-0.014193
-0.014871
-0.016220
-0.017364
-0.017537
-0.017249
-0.016742
-0.015652
-0.014727
-0.015358
-0.016816
-0.016855
-0.015178
-0.013360
-0.012495
-0.013125
-0.015161
-0.017181
-0.017828
-0.017310
-0.016727
-0.016532
-0.016148
-0.015291
-0.014635
-0.015178
-0.017364
-0.019753
-0.020145
-0.018896
-0.018465
-0.019570
-0.020021
-0.018157
-0.015707
-0.015367
-0.017009
-0.018333
-0.018257
-0.017882
-0.018493
-0.019781
-0.020802
-0.021837
-0.022918
-0.022639
-0.020872
-0.019167
-0.018161
-0.017886
-0.018727
-0.020666
-0.023356
-0.025457
-0.024868
-0.022727
-0.022172
-0.022723
-0.022500
-0.022044
-0.022095
-0.022087
-0.021189
-0.019447
-0.018007
-0.017760
-0.018698
-0.020309
-0.021931
-0.023320
-0.024306
-0.024457
-0.023798
-0.022826
-0.021888
-0.021039
-0.020590
-0.020806
-0.021115
-0.021147
-0.021256
-0.021378
-0.021204
-0.021247
-0.021980
-0.022751
-0.023357
-0.024048
-0.023796
-0.022718
-0.022733
-0.023187
-0.022190
-0.021250
-0.022305
-0.023801
-0.023637
-0.022242
-0.021183
-0.021059
-0.021637
-0.022380
-0.022494
-0.022265
-0.022826
-0.023913
-0.024509
-0.024598
-0.024598
-0.024736
-0.025563
-0.026974
-0.027560
-0.027084
-0.026694
-0.026657
-0.026385
-0.025091
-0.022637
-0.020767
-0.021480
-0.023758
-0.024703
-0.023840
-0.023370
-0.024753
-0.026943
-0.028041
-0.027256
-0.024828
-0.022160
-0.021463
-0.023358
-0.026144
-0.027787
-0.027933
-0.027765
-0.027513
-0.026439
-0.025322
-0.025032
-0.024556
-0.023729
-0.024524
-0.027015
-0.028035
-0.026338
-0.024903
-0.026279
-0.028986
-0.029404
-0.026167
-0.022539
-0.022695
-0.025899
-0.028031
-0.027814
-0.027562
-0.028516
-0.028977
-0.027780
-0.026531
-0.026929
-0.028372
-0.029726
-0.030941
-0.031375
-0.029928
-0.027864
-0.027954
-0.030248
-0.031611
-0.030358
-0.028656
-0.028522
-0.029024
-0.029464
-0.030003
-0.029346
-0.027747
-0.028112
-0.030450
-0.031691
-0.030623
-0.028277
-0.026483
-0.026912
-0.029060
-0.030789
-0.031442
-0.031453
-0.030288
-0.028593
-0.028812
-0.030925
-0.032329
-0.032388
-0.032775
-0.033951
-0.034690
-0.034038
-0.031879
-0.029620
-0.029387
-0.030552
-0.030721
-0.030165
-0.030568
-0.031288
-0.030702
-0.029318
-0.029404
-0.031629
-0.033809
-0.034400
-0.034272
-0.034022
-0.033531
-0.033849
-0.035400
-0.036203
-0.035174
-0.034067
-0.034705
-0.036756
-0.038190
-0.037236
-0.034713
-0.033635
-0.034914
-0.035666
-0.033608
-0.030366
-0.028847
-0.029484
-0.031059
-0.032900
-0.034167
-0.034066
-0.033716
-0.034616
-0.035996
-0.036098
-0.034973
-0.034564
-0.035739
-0.037048
-0.037347
-0.036869
-0.036006
-0.035185
-0.035204
-0.036624
-0.038395
-0.038586
-0.037501
-0.037676
-0.039949
-0.041974
-0.041345
-0.038765
-0.037407
-0.038793
-0.040668
-0.040553
-0.039060
-0.038086
-0.038300
-0.039496
-0.041296
-0.042485
-0.041471
-0.038619
-0.036558
-0.037101
-0.038869
-0.039005
-0.037216
-0.036347
-0.037626
-0.038931
-0.038837
-0.038406
-0.039392
-0.041338
-0.041271
-0.039001
-0.037964
-0.039084
-0.040098
-0.039650
-0.038498
-0.038612
-0.041082
-0.044514
-0.046583
-0.046308
-0.044255
-0.041775
-0.040322
-0.040447
-0.041396
-0.041975
-0.041455
-0.040036
-0.038867
-0.039291
-0.041854
-0.045135
-0.046071
-0.044093
-0.042808
-0.044324
-0.046070
-0.045623
-0.044132
-0.043529
-0.043603
-0.042874
-0.041098
-0.040073
-0.041383
-0.044034
-0.045640
-0.045282
-0.044151
-0.043884
-0.045143
-0.047163
-0.047912
-0.045838
-0.042500
-0.042052
-0.045638
-0.048458
-0.046992
-0.044512
-0.044994
-0.047374
-0.048610
-0.048417
-0.048470
-0.048678
-0.047405
-0.045003
-0.043993
-0.045145
-0.046732
-0.047793
-0.048405
-0.048154
-0.047306
-0.047303
-0.048600
-0.049975
-0.050206
-0.049282
-0.048224
-0.048316
-0.049942
-0.051541
-0.051398
-0.050150
-0.048900
-0.047408
-0.046142
-0.046615
-0.048725
-0.050352
-0.050673
-0.051215
-0.052342
-0.052303
-0.050321
-0.048018
-0.047675
-0.049590
-0.052031
-0.053388
-0.053151
-0.051891
-0.050981
-0.051365
-0.052122
-0.051745
-0.050865
-0.050838
-0.051230
-0.051420
-0.051781
-0.052319
-0.052364
-0.051691
-0.051049
-0.050955
-0.051129
-0.052260
-0.055259
-0.057929
-0.056909
-0.053130
-0.050931
-0.052692
-0.057281
-0.061537
-0.062085
-0.058726
-0.055960
-0.057047
-0.058692
-0.057149
-0.054403
-0.053119
-0.052890
-0.053651
-0.055364
-0.056198
-0.055855
-0.056175
-0.057439
-0.058282
-0.058285
-0.058053
-0.057687
-0.056893
-0.055883
-0.054962
-0.054135
-0.054147
-0.055906
-0.058242
-0.059212
-0.058315
-0.056226
-0.055286
-0.057377
-0.060089
-0.060247
-0.058789
-0.057814
-0.057258
-0.057187
-0.058680
-0.060815
-0.061444
-0.060664
-0.059564
-0.058283
-0.057374
-0.057406
-0.057665
-0.058170
-0.059992
-0.062331
-0.063407
-0.063183
-0.062322
-0.060620
-0.058092
-0.056356
-0.057301
-0.060419
-0.062876
-0.062847
-0.061653
-0.061341
-0.061581
-0.060635
-0.058535
-0.057439
-0.058540
-0.060710
-0.062177
-0.062239
-0.061692
-0.060892
-0.059435
-0.058576
-0.059506
-0.060725
-0.060845
-0.060704
-0.061307
-0.062586
-0.064176
-0.065541
-0.065874
-0.064844
-0.063093
-0.061968
-0.062185
-0.062843
-0.063014
-0.062964
-0.063315
-0.064196
-0.064323
-0.062925
-0.062021
-0.062540
-0.062905
-0.062969
-0.063375
-0.063562
-0.063164
-0.062559
-0.062277
-0.062401
-0.062293
-0.061879
-0.062559
-0.064984
-0.067045
-0.066740
-0.065458
-0.065451
-0.066200
-0.065688
-0.063544
-0.061734
-0.062323
-0.064672
-0.066376
-0.067005
-0.068113
-0.069409
-0.068661
-0.066294
-0.065805
-0.068217
-0.070404
-0.070166
-0.068956
-0.068184
-0.067038
-0.065887
-0.066847
-0.069412
-0.070726
-0.070105
-0.068998
-0.068218
-0.068001
-0.068695
-0.069922
-0.070425
-0.069830
-0.069550
-0.070482
-0.071426
-0.071254
-0.070557
-0.070424
-0.071349
-0.072849
-0.073244
-0.071856
-0.070404
-0.069661
-0.068694
-0.068502
-0.070799
-0.074031
-0.074925
-0.072620
-0.069811
-0.069859
-0.072715
-0.075243
-0.075196
-0.072960
-0.070435
-0.069586
-0.071025
-0.073138
-0.073558
-0.071987
-0.070714
-0.071757
-0.074146
-0.075080
-0.073756
-0.072604
-0.073473
-0.074639
-0.073960
-0.072298
-0.071056
-0.069798
-0.068545
-0.068818
-0.071054
-0.073329
-0.073717
-0.072527
-0.071497
-0.072073
-0.074035
-0.075425
-0.074797
-0.073232
-0.072668
-0.072993
-0.073281
-0.073402
-0.072802
-0.071707
-0.072198
-0.074532
-0.075603
-0.073761
-0.071664
-0.071998
-0.073777
-0.074610
-0.074268
-0.074663
-0.076428
-0.077299
-0.075644
-0.073463
-0.073299
-0.074608
-0.075753
-0.076299
-0.075909
-0.074535
-0.073566
-0.074487
-0.076728
-0.077820
-0.076580
-0.075100
-0.075509
-0.076595
-0.076024
-0.074294
-0.073975
-0.075661
-0.077178
-0.077153
-0.077009
-0.077614
-0.077098
-0.075195
-0.074718
-0.076309
-0.077538
-0.077079
-0.075587
-0.074403
-0.074420
-0.075106
-0.075956
-0.076996
-0.077391
-0.077014
-0.077140
-0.077932
-0.078090
-0.076716
-0.074848
-0.074769
-0.076990
-0.079438
-0.079962
-0.078646
-0.077314
-0.077015
-0.077305
-0.077741
-0.078454
-0.079159
-0.079252
-0.078932
-0.078722
-0.078637
-0.078355
-0.077998
-0.078210
-0.078526
-0.077725
-0.076245
-0.075626
-0.076262
-0.077753
-0.079685
-0.080853
-0.080492
-0.079778
-0.080015
-0.081265
-0.082585
-0.082520
-0.080613
-0.078055
-0.076479
-0.076517
-0.077528
-0.078612
-0.079389
-0.080030
-0.080619
-0.080786
-0.080408
-0.079719
-0.079007
-0.078791
-0.079211
-0.079378
-0.078586
-0.077722
-0.077683
-0.077512
-0.076394
-0.075304
-0.075223
-0.076153
-0.077981
-0.080427
-0.082301
-0.082726
-0.082534
-0.082581
-0.082441
-0.081505
-0.079981
-0.078598
-0.077907
-0.078168
-0.078712
-0.078403
-0.077607
-0.077402
-0.077671
-0.078050
-0.079087
-0.080871
-0.082159
-0.081610
-0.079686
-0.078854
-0.079854
-0.080267
-0.078725
-0.076478
-0.075003
-0.074934
-0.076369
-0.078537
-0.079916
-0.079803
-0.078810
-0.077720
-0.077220
-0.077775
-0.078502
-0.078230
-0.077681
-0.077857
-0.078091
-0.077879
-0.078019
-0.078704
-0.078909
-0.078435
-0.078409
-0.079286
-0.080241
-0.080346
-0.079246
-0.077650
-0.076998
-0.077747
-0.079032
-0.079877
-0.079960
-0.079794
-0.079910
-0.080215
-0.080665
-0.081247
-0.081510
-0.081100
-0.080319
-0.079687
-0.079196
-0.078865
-0.079120
-0.079706
-0.080176
-0.080740
-0.081241
-0.081469
-0.081361
-0.080179
-0.078215
-0.077032
-0.076746
-0.076471
-0.076173
-0.076147
-0.076601
-0.078014
-0.079868
-0.080022
-0.077804
-0.075413
-0.074846
-0.075860
-0.076639
-0.076019
-0.075394
-0.076546
-0.078066
-0.077087
-0.074558
-0.074318
-0.076581
-0.078006
-0.077687
-0.077398
-0.077343
-0.076496
-0.075527
-0.075477
-0.075337
-0.074214
-0.073550
-0.074122
-0.074330
-0.073648
-0.073039
-0.072262
-0.070481
-0.066771
-0.059639
-0.049048
-0.035795
-0.016189
0.019004
0.079593
0.175092
0.319244
0.526017
0.791287
1.078096
1.322236
1.455028
1.437803
1.291971
1.088726
0.895967
0.733822
0.575183
0.376725
0.114889
-0.194614
-0.508623
-0.776567
-0.945975
-0.981025
-0.891842
-0.718293
-0.492021
-0.255624
-0.096900
-0.102601
-0.265539
-0.448964
-0.449619
-0.140512
0.388034
0.839186
0.928406
0.624992
0.167572
-0.161281
-0.274500
-0.318452
-0.493663
-0.824534
-1.091303
-1.010037
-0.502518
0.214019
0.806233
1.096258
1.181727
1.321669
1.695678
2.190469
2.364464
1.731229
0.249752
-1.462696
-2.539969
-2.566564
-1.881199
-1.209539
-0.998604
-1.076159
-0.943728
-0.384542
0.266616
0.469742
0.049491
-0.616170
-0.956902
-0.722688
-0.172102
0.169971
-0.048312
-0.718501
-1.369766
-1.565590
-1.256016
-0.786938
-0.588889
-0.880530
-1.621159
-2.603651
-3.556232
-4.243577
-4.476104
-4.007680
-2.551874
-0.027504
3.185834
6.215767
7.992400
7.842655
6.000238
3.475953
1.289181
-0.210269
-1.260706
-2.006216
-2.058917
-0.927682
1.093464
2.716992
2.626474
0.686732
-1.866763
-3.366470
-2.827065
-0.441547
2.616496
4.789748
4.822115
2.344137
-1.766266
-5.580801
-7.145507
-5.786923
-2.582640
0.444684
1.709036
0.999141
-0.506478
-1.068687
0.338221
3.172989
5.817982
7.101520
7.242749
7.244565
7.625208
8.044345
8.150950
8.440080
9.891220
12.735046
15.903839
17.970442
18.571800
18.687431
19.482225
21.092222
22.720224
23.800560
24.781969
26.684547
30.042767
34.236240
37.474743
37.257183
31.317879
19.001545
2.322935
-14.398652
-26.502291
-31.209005
-28.595821
-21.147627
-12.690934
-7.259832
-7.919587
-15.572399
-28.143480
-40.817390
-47.721390
-44.554497
-30.754314
-9.793945
12.587272
30.831572
40.904537
40.259285
27.897217
5.434896
-22.079790
-47.221653
-62.775318
-64.298882
-51.914886
-31.111689
-11.361110
-1.550888
-4.437602
-14.807124
-23.319082
-22.868576
-12.750546
1.885526
14.803531
23.797491
30.767693
36.348003
36.205593
25.142508
5.160898
-12.648801
-16.487238
-4.801012
11.600497
19.261763
14.616552
6.542200
6.250907
15.983593
28.422102
35.233089
33.829147
26.442137
15.848136
4.216123
-4.914806
-6.486038
1.996186
16.038036
25.670580
23.612276
12.308099
1.583669
-1.066033
3.378034
9.251104
13.889355
19.164282
25.869450
29.626986
24.515154
9.963551
-7.404301
-18.480186
-17.756519
-6.172928
10.146290
23.613882
28.407278
21.335676
2.277875
-23.358253
-43.314430
-43.967052
-21.048340
14.173164
40.983109
44.035023
24.586597
-1.114537
-14.608688
-8.724973
8.884476
24.322342
29.718632
27.958294
26.642521
28.596792
28.523514
18.768375
-1.657816
-24.380060
-38.478218
-39.575153
-32.245964
-24.544899
-20.787230
-19.329121
-16.141956
-9.155545
0.708568
11.167847
20.182634
26.194736
27.730108
23.742392
14.788871
3.655631
-5.569410
-9.433004
-6.890372
-0.095206
6.238176
6.917495
-0.849410
-15.390836
-31.187828
-42.075336
-44.731499
-40.556725
-35.173462
-34.776100
-40.403187
-45.278614
-39.764523
-20.451492
5.986535
28.538502
41.289726
47.153107
52.778488
60.275875
64.493813
58.951828
43.902298
27.489777
19.158401
22.216259
31.504801
37.165470
31.383198
12.887122
-13.706454
-41.840137
-66.622093
-86.038445
-99.790459
-107.296211
-106.722580
-95.655220
-72.838211
-40.601055
-6.821107
16.813669
21.641264
9.021513
-10.048840
-23.839251
-28.836233
-29.114393
-27.424496
-19.672533
-0.278002
27.760441
50.394634
52.093727
29.071442
-6.645757
-36.433472
-49.089596
-47.289425
-41.528446
-38.464268
-35.891060
-28.698311
-17.661421
-10.676078
-14.983629
-28.273380
-38.262650
-32.674770
-10.455802
17.161371
36.561459
42.253277
38.544903
33.197208
30.938595
31.804411
32.528713
28.544716
17.013624
-0.256133
-17.236753
-27.425831
-27.523670
-18.817163
-6.186389
4.463054
8.879569
5.820806
-3.134017
-14.504133
-23.974873
-27.858465
-25.141577
-18.753569
-13.968529
-14.333774
-18.366711
-19.983109
-13.050491
2.990688
21.613794
33.860416
34.835552
26.104992
13.314409
2.811971
-0.636635
4.252742
14.421220
24.580097
31.153534
34.176670
35.472038
35.382130
31.406557
19.952192
-0.092271
-24.337444
-43.067154
-46.024368
-29.397503
0.582078
30.693884
47.881516
45.537132
25.984686
-1.571759
-26.567675
-42.513260
-48.599865
-47.283913
-41.073345
-31.660612
-21.413536
-14.102709
-12.516259
-15.329715
-17.712055
-15.420010
-7.459510
4.734121
18.457531
29.180426
30.941084
20.373247
1.431047
-15.509950
-21.496267
-16.708126
-9.961268
-10.164415
-18.215418
-27.185743
-29.607704
-23.338202
-10.356473
7.873385
31.182812
56.896946
77.688499
85.014587
75.222710
52.846413
28.254791
11.686198
8.397256
17.105007
30.668806
38.877357
33.970795
16.361570
-4.587515
-17.049623
-15.989854
-6.895730
-0.280716
-2.334486
-10.913716
-19.771917
-24.687918
-24.870333
-20.805590
-13.342706
-4.667533
1.899764
4.422115
4.344731
5.002635
7.916112
11.275199
12.646852
12.741046
15.421553
23.271311
33.321224
38.111965
32.144558
17.591522
2.751681
-5.582877
-7.507015
-7.910893
-10.587642
-15.161069
-18.741983
-19.236893
-16.828951
-12.936417
-8.511108
-3.737521
0.887284
3.944668
4.016195
1.079028
-3.164109
-6.216578
-6.188430
-3.167101
0.156611
0.042287
-5.101975
-13.209207
-20.453756
-24.400530
-25.443291
-25.723108
-26.895414
-28.767609
-29.780474
-28.526670
-24.634924
-18.245520
-9.199466
2.344417
14.215372
21.844357
20.584946
9.404661
-6.960160
-19.448986
-19.446421
-4.400678
19.501715
40.536594
49.035114
43.240040
28.472588
11.288550
-4.913492
-18.899803
-28.305969
-29.744116
-22.747463
-12.262404
-5.835008
-7.614462
-14.593025
-18.750839
-13.684957
0.073958
15.472624
23.857031
20.173780
5.522851
-13.490916
-27.706306
-29.571039
-17.468809
2.240064
18.608692
23.993959
19.845922
14.736596
16.513371
25.985258
37.398033
43.959152
42.304356
32.473370
15.997789
-3.991354
-21.715092
-30.921709
-30.100672
-24.941004
-23.940336
-30.647581
-40.264977
-44.121849
-37.625835
-24.020939
-10.604901
-1.684212
4.149815
9.853034
14.462281
13.433284
4.611884
-7.429493
-14.218815
-10.733102
0.118281
9.977330
12.087049
6.893125
1.439825
2.790564
10.933281
17.882309
14.806993
0.967345
-14.649834
-21.087517
-14.858247
-2.101873
7.350395
7.566745
0.013354
-8.059766
-8.602193
1.620481
18.606836
34.442001
43.621235
46.128574
44.960827
42.299225
38.655399
34.030609
28.157654
20.005880
8.565500
-5.104292
-16.974697
-22.182032
-18.886299
-10.286550
-2.643520
-0.663255
-4.024330
-8.037940
-7.684732
-1.173891
9.923889
22.931520
35.370880
44.437080
47.149330
42.346237
31.799726
18.461510
4.496383
-7.958597
-15.194353
-13.136661
-0.974974
16.701365
31.627111
36.183548
27.536161
9.190655
-11.032852
-25.287489
-29.616879
-25.489185
-18.164221
-12.726487
-10.727751
-10.493511
-10.173770
-9.382008
-8.237859
-6.701515
-5.384648
-5.531335
-7.206036
-8.340827
-6.769398
-3.096174
-0.439398
-0.863380
-3.029481
-4.232980
-3.593226
-1.664570
2.044975
8.785037
17.427149
23.210133
20.965883
9.944976
-4.607742
-15.027951
-17.004456
-12.429682
-7.211515
-6.425367
-10.609349
-15.608167
-15.976672
-9.414031
1.387181
10.989545
15.185954
13.076042
6.452731
-1.683623
-8.349851
-11.743674
-12.151581
-11.862828
-14.007943
-21.025246
-33.574814
-50.451347
-69.263702
-86.691193
-97.850029
-96.784622
-80.261459
-52.408459
-24.017288
-4.827924
4.172992
10.219733
20.446203
34.218136
43.168713
38.375095
18.477732
-7.808533
-27.376209
-32.653072
-27.155445
-21.206154
-21.969849
-27.670441
-31.010843
-27.105150
-17.519539
-7.509241
-0.818013
2.526357
4.463922
6.154004
7.234963
7.242218
6.704791
6.382527
6.215783
5.867715
6.065259
8.651991
14.796356
22.910206
28.490229
26.686569
15.931256
-0.257564
-14.814643
-21.008503
-16.283014
-3.848895
9.128577
15.969856
14.538575
7.799618
0.855634
-2.655256
-2.406694
-1.153738
-2.960289
-10.710017
-24.329744
-40.712837
-54.848640
-61.377068
-56.886986
-42.906487
-26.912674
-18.359276
-21.599192
-32.001606
-39.200230
-34.998322
-19.693954
-1.905364
8.162166
6.752868
-0.913790
-5.711702
-2.134338
8.769765
22.546354
35.654087
45.969013
50.287254
44.052601
25.667255
0.629896
-20.578604
-29.719160
-26.247129
-16.715990
-9.768256
-10.952043
-20.098022
-31.552074
-36.854641
-29.533337
-10.011921
13.475026
30.052151
33.583534
25.887768
14.078341
5.588488
4.491833
10.262170
19.031336
26.736610
31.828552
35.091408
37.190594
37.135620
33.304237
25.024839
12.489127
-3.931494
-22.958389
-40.971081
-52.305023
-52.125782
-39.884495
-20.530493
-2.454060
6.925484
5.852299
-0.060899
-1.728006
5.838621
18.899025
28.232878
27.626827
19.920649
15.414165
23.776016
45.599522
70.728584
85.274002
