EVENT_NAME: L_AQUILA
EVENT_ID: IT-2009-0009
EVENT_DATE_YYYYMMDD: 20090406
EVENT_TIME_HHMMSS: 013240
EVENT_LATITUDE_DEGREE: 42.3420
EVENT_LONGITUDE_DEGREE: 13.3800
EVENT_DEPTH_KM: 8.3
HYPOCENTER_REFERENCE: INGV-CNT_Seismic_Bulletin
MAGNITUDE_W: 6.1
MAGNITUDE_W_REFERENCE: INGV-CNT_Seismic_Bulletin
MAGNITUDE_L: 
MAGNITUDE_L_REFERENCE: 
FOCAL_MECHANISM: Normal faulting
NETWORK: IT
STATION_CODE: GSA
STATION_NAME: 
STATION_LATITUDE_DEGREE: 42.420689
STATION_LONGITUDE_DEGREE: 13.519362
STATION_ELEVATION_M: 1062
LOCATION: 
SENSOR_DEPTH_M: 0.0
VS30_M/S: 492
SITE_CLASSIFICATION_EC8: B
MORPHOLOGIC_CLASSIFICATION: 
EPICENTRAL_DISTANCE_KM: 14.4
EARTHQUAKE_BACKAZIMUTH_DEGREE: 52.7
DATE_TIME_FIRST_SAMPLE_YYYYMMDD_HHMMSS: 
DATE_TIME_FIRST_SAMPLE_PRECISION: 
SAMPLING_INTERVAL_S: 
NDATA: 105
DURATION_S: 
STREAM: HNE
UNITS: cm/s^2
INSTRUMENT: sensor = FBA-3 [Kinemetrics] | digitizer = Etna [Kinemetrics]
INSTRUMENT_ANALOG/DIGITAL: D
INSTRUMENTAL_FREQUENCY_HZ: 216.000
INSTRUMENTAL_DAMPING: 0.700000
FULL_SCALE_G: 1.0
N_BIT_DIGITAL_CONVERTER: 18
PGA_CM/S^2: -146.613304
TIME_PGA_S: 
BASELINE_CORRECTION: BASELINE REMOVED
FILTER_TYPE: BUTTERWORTH
FILTER_ORDER: 2
LOW_CUT_FREQUENCY_HZ: 0.100
HIGH_CUT_FREQUENCY_HZ: 40.000
LATE/NORMAL_TRIGGERED: NT
DATABASE_VERSION: 0.5
HEADER_FORMAT: DYNA 1.2
DATA_TYPE: ACCELERATION RESPONSE SPECTRUM
PROCESSING: manual (Paolucci et al., 2011)
DATA_TIMESTAMP_YYYYMMDD_HHMMSS: 20211011_155740.920
DATA_LICENSE: CC-BY3_0-IT (http://creativecommons.org/licenses/by/3.0/deed.en)
DATA_CITATION: Luzi L, Pacor F, Puglia R (2019). Italian Accelerometric Archive v 3.0 - Istituto Nazionale di Geofisica e Vulcanologia, Dipartimento della Protezione Civile Nazionale. doi: 10.13127/itaca.3.1
DATA_CREATOR: ITACA working group
ORIGINAL_DATA_MEDIATOR_CITATION: data obtained within the DPC-INGV data exchange agreements
ORIGINAL_DATA_MEDIATOR: Archive of Italian Department of Civil Protection
ORIGINAL_DATA_CREATOR_CITATION: Presidency Of Counsil Of Ministers-Civil Protection Department. (1972). Italian Strong Motion Network. Presidency of Counsil of Ministers - Civil Protection Department. https://doi.org/10.7914/SN/IT http://www.fdsn.org/networks/detail/IT/
ORIGINAL_DATA_CREATOR: network: IT (Italian Strong Motion Network (RAN)); owner: Presidency of Counsil of Ministers - Civil Protection Department (PCM - DPC)
USER1: 
USER2: 
USER3: 
USER4: 
USER5: 
    0.010000   147.050079
    0.020000   155.544098
    0.022000   157.120239
    0.025000   163.982544
    0.029000   180.221695
    0.030000   175.052490
    0.032000   182.659821
    0.035001   199.866592
    0.036000   210.968307
    0.040000   282.775269
    0.041999   289.897949
    0.044001   279.039429
    0.045000   271.675232
    0.046000   272.118652
    0.048001   261.530212
    0.050000   250.486404
    0.054999   293.230530
    0.059999   342.447601
    0.064998   410.307312
    0.067002   404.499725
    0.069999   385.454773
    0.075002   458.559723
    0.080000   471.406738
    0.084998   501.095337
    0.090001   605.909180
    0.095003   548.964600
    0.100000   538.763000
    0.109999   518.429688
    0.120005   442.685028
    0.130005   381.949341
    0.132996   373.259827
    0.139997   371.000336
    0.149993   460.391449
    0.160000   420.026184
    0.170010   386.321381
    0.179986   371.604126
    0.190006   386.267059
    0.200000   390.021088
    0.220022   560.015625
    0.239981   573.411499
    0.250000   533.785522
    0.260010   469.487823
    0.280034   487.076233
    0.290023   530.891541
    0.300030   476.115234
    0.320000   400.384583
    0.340020   404.764191
    0.350017   367.024109
    0.359971   328.585541
    0.379939   313.362854
    0.400000   286.429108
    0.419992   229.529877
    0.439947   220.011902
    0.450045   223.515472
    0.459982   210.563263
    0.480077   201.152267
    0.500000   220.297760
    0.550055   165.397064
    0.599880   109.413391
    0.650195    89.239059
    0.667111    91.172516
    0.699790   109.991325
    0.750188   118.419708
    0.800000   100.294510
    0.850340    87.219406
    0.900090    86.268486
    0.949668    97.119217
    1.000000    92.151611
    1.100110    70.820602
    1.200480    61.046555
    1.300390    43.171444
    1.400560    41.971775
    1.499250    39.169689
    1.600000    42.439590
    1.700680    45.138580
    1.798561    45.530552
    1.901141    45.910107
    2.000000    44.921883
    2.197802    45.536602
    2.398082    41.195827
    2.500000    37.366524
    2.597403    33.026047
    2.801121    31.539053
    3.003003    28.579176
    3.205128    26.950741
    3.401361    23.454927
    3.496503    21.269783
    3.597122    18.951408
    3.802281    17.194847
    4.000000    15.213492
    4.201681    13.144055
    4.405286    11.545718
    4.608295     9.943196
    4.807692     8.556567
    5.000000     7.958776
    5.494505     6.754673
    5.988024     5.583711
    6.493506     4.548768
    6.993007     3.700042
    7.518797     3.026202
    8.000000     2.480650
    8.474576     2.041517
    9.009009     1.690529
    9.523809     1.412312
   10.000000     1.193125
