EVENT_NAME: L_AQUILA
EVENT_ID: IT-2009-0009
EVENT_DATE_YYYYMMDD: 20090406
EVENT_TIME_HHMMSS: 013240
EVENT_LATITUDE_DEGREE: 42.3420
EVENT_LONGITUDE_DEGREE: 13.3800
EVENT_DEPTH_KM: 8.3
HYPOCENTER_REFERENCE: INGV-CNT_Seismic_Bulletin
MAGNITUDE_W: 6.1
MAGNITUDE_W_REFERENCE: INGV-CNT_Seismic_Bulletin
MAGNITUDE_L: 
MAGNITUDE_L_REFERENCE: 
FOCAL_MECHANISM: Normal faulting
NETWORK: IT
STATION_CODE: GSA
STATION_NAME: 
STATION_LATITUDE_DEGREE: 42.420689
STATION_LONGITUDE_DEGREE: 13.519362
STATION_ELEVATION_M: 1062
LOCATION: 
SENSOR_DEPTH_M: 0.0
VS30_M/S: 492
SITE_CLASSIFICATION_EC8: B
MORPHOLOGIC_CLASSIFICATION: 
EPICENTRAL_DISTANCE_KM: 14.4
EARTHQUAKE_BACKAZIMUTH_DEGREE: 52.7
DATE_TIME_FIRST_SAMPLE_YYYYMMDD_HHMMSS: 20090406_013229.000
DATE_TIME_FIRST_SAMPLE_PRECISION: seconds
SAMPLING_INTERVAL_S: 0.005000
NDATA: 20020
DURATION_S: 100.100
STREAM: HNZ
UNITS: cm
INSTRUMENT: sensor = FBA-3 [Kinemetrics] | digitizer = Etna [Kinemetrics]
INSTRUMENT_ANALOG/DIGITAL: D
INSTRUMENTAL_FREQUENCY_HZ: 208.000
INSTRUMENTAL_DAMPING: 0.700000
FULL_SCALE_G: 1.0
N_BIT_DIGITAL_CONVERTER: 18
PGD_CM: -1.792147
TIME_PGD_S: 19.225000
BASELINE_CORRECTION: BASELINE REMOVED
FILTER_TYPE: BUTTERWORTH
FILTER_ORDER: 2
LOW_CUT_FREQUENCY_HZ: 0.100
HIGH_CUT_FREQUENCY_HZ: 40.000
LATE/NORMAL_TRIGGERED: NT
DATABASE_VERSION: 0.5
HEADER_FORMAT: DYNA 1.2
DATA_TYPE: DISPLACEMENT
PROCESSING: manual (Paolucci et al., 2011)
DATA_TIMESTAMP_YYYYMMDD_HHMMSS: 20211011_155740.636
DATA_LICENSE: CC-BY3_0-IT (http://creativecommons.org/licenses/by/3.0/deed.en)
DATA_CITATION: Luzi L, Pacor F, Puglia R (2019). Italian Accelerometric Archive v 3.0 - Istituto Nazionale di Geofisica e Vulcanologia, Dipartimento della Protezione Civile Nazionale. doi: 10.13127/itaca.3.1
DATA_CREATOR: ITACA working group
ORIGINAL_DATA_MEDIATOR_CITATION: data obtained within the DPC-INGV data exchange agreements
ORIGINAL_DATA_MEDIATOR: Archive of Italian Department of Civil Protection
ORIGINAL_DATA_CREATOR_CITATION: Presidency Of Counsil Of Ministers-Civil Protection Department. (1972). Italian Strong Motion Network. Presidency of Counsil of Ministers - Civil Protection Department. https://doi.org/10.7914/SN/IT http://www.fdsn.org/networks/detail/IT/
ORIGINAL_DATA_CREATOR: network: IT (Italian Strong Motion Network (RAN)); owner: Presidency of Counsil of Ministers - Civil Protection Department (PCM - DPC)
USER1: 
USER2: 
USER3: 
USER4: 
USER5: 
[...]
-2.870471e-01
-2.881122e-01
-2.891792e-01
-2.902481e-01
-2.913189e-01
-2.923917e-01
-2.934664e-01
-2.945429e-01
-2.956213e-01
-2.967016e-01
-2.977837e-01
-2.988677e-01
-2.999535e-01
-3.010412e-01
-3.021307e-01
-3.032220e-01
-3.043151e-01
-3.054098e-01
-3.065060e-01
-3.076035e-01
-3.087018e-01
-3.098006e-01
-3.108989e-01
-3.119952e-01
-3.130871e-01
-3.141710e-01
-3.152418e-01
-3.162928e-01
-3.173168e-01
-3.183078e-01
-3.192624e-01
-3.201811e-01
-3.210675e-01
-3.219266e-01
-3.227634e-01
-3.235818e-01
-3.243858e-01
-3.251804e-01
-3.259721e-01
-3.267687e-01
-3.275780e-01
-3.284068e-01
-3.292592e-01
-3.301361e-01
-3.310353e-01
-3.319524e-01
-3.328819e-01
-3.338177e-01
-3.347560e-01
-3.356968e-01
-3.366443e-01
-3.376030e-01
-3.385730e-01
-3.395464e-01
-3.405102e-01
-3.414529e-01
-3.423725e-01
-3.432764e-01
-3.441762e-01
-3.450800e-01
-3.459906e-01
-3.469092e-01
-3.478402e-01
-3.487917e-01
-3.497706e-01
-3.507747e-01
-3.517913e-01
-3.528026e-01
-3.537938e-01
-3.547575e-01
-3.556917e-01
-3.565929e-01
-3.574516e-01
-3.582556e-01
-3.590005e-01
-3.597021e-01
-3.603975e-01
-3.611294e-01
-3.619249e-01
-3.627845e-01
-3.636911e-01
-3.646280e-01
-3.655898e-01
-3.665785e-01
-3.675909e-01
-3.686128e-01
-3.696281e-01
-3.706316e-01
-3.716339e-01
-3.726516e-01
-3.736932e-01
-3.747529e-01
-3.758169e-01
-3.768767e-01
-3.779376e-01
-3.790165e-01
-3.801297e-01
-3.812820e-01
-3.824657e-01
-3.836691e-01
-3.848872e-01
-3.861273e-01
-3.874079e-01
-3.887536e-01
-3.901883e-01
-3.917290e-01
-3.933816e-01
-3.951344e-01
-3.969511e-01
-3.987684e-01
-4.005060e-01
-4.020883e-01
-4.034707e-01
-4.046571e-01
-4.056935e-01
-4.066430e-01
-4.075602e-01
-4.084827e-01
-4.094368e-01
-4.104409e-01
-4.114966e-01
-4.125754e-01
-4.136270e-01
-4.146105e-01
-4.155285e-01
-4.164292e-01
-4.173766e-01
-4.184082e-01
-4.195105e-01
-4.206238e-01
-4.216717e-01
-4.225998e-01
-4.234074e-01
-4.241564e-01
-4.249496e-01
-4.258822e-01
-4.269935e-01
-4.282495e-01
-4.295700e-01
-4.308795e-01
-4.321462e-01
-4.333879e-01
-4.346423e-01
-4.359234e-01
-4.371960e-01
-4.383893e-01
-4.394372e-01
-4.403075e-01
-4.409968e-01
-4.415049e-01
-4.418225e-01
-4.419389e-01
-4.418515e-01
-4.415531e-01
-4.410075e-01
-4.401435e-01
-4.388819e-01
-4.371710e-01
-4.349958e-01
-4.323534e-01
-4.292240e-01
-4.255673e-01
-4.213426e-01
-4.165228e-01
-4.110836e-01
-4.049771e-01
-3.981197e-01
-3.904063e-01
-3.817560e-01
-3.721744e-01
-3.618097e-01
-3.509701e-01
-3.400723e-01
-3.295346e-01
-3.196594e-01
-3.105644e-01
-3.021843e-01
-2.943329e-01
-2.867988e-01
-2.794461e-01
-2.722915e-01
-2.655262e-01
-2.594644e-01
-2.544231e-01
-2.505748e-01
-2.478404e-01
-2.458749e-01
-2.441541e-01
-2.421188e-01
-2.393126e-01
-2.354838e-01
-2.306485e-01
-2.251158e-01
-2.194472e-01
-2.143307e-01
-2.103946e-01
-2.080280e-01
-2.072688e-01
-2.078075e-01
-2.091239e-01
-2.107244e-01
-2.123637e-01
-2.141139e-01
-2.162343e-01
-2.189377e-01
-2.222128e-01
-2.258067e-01
-2.293534e-01
-2.325300e-01
-2.351117e-01
-2.369242e-01
-2.378280e-01
-2.378266e-01
-2.371967e-01
-2.364378e-01
-2.359951e-01
-2.359646e-01
-2.360541e-01
-2.358535e-01
-2.351715e-01
-2.341240e-01
-2.329130e-01
-2.315457e-01
-2.297788e-01
-2.273014e-01
-2.239431e-01
-2.197391e-01
-2.148740e-01
-2.096128e-01
-2.042461e-01
-1.990023e-01
-1.939207e-01
-1.887892e-01
-1.832567e-01
-1.770824e-01
-1.703178e-01
-1.632456e-01
-1.561337e-01
-1.490485e-01
-1.418788e-01
-1.344779e-01
-1.267297e-01
-1.185025e-01
-1.096284e-01
-1.000138e-01
-8.978619e-02
-7.930954e-02
-6.901799e-02
-5.918845e-02
-4.980282e-02
-4.057151e-02
-3.108655e-02
-2.101123e-02
-1.022574e-02
1.093145e-03
1.246898e-02
2.326085e-02
3.296987e-02
4.157971e-02
4.966334e-02
5.810130e-02
6.756383e-02
7.812725e-02
8.930533e-02
1.004555e-01
1.112405e-01
1.218074e-01
1.325964e-01
1.439934e-01
1.561334e-01
1.689724e-01
1.824774e-01
1.966974e-01
2.116304e-01
2.270327e-01
2.423935e-01
2.571448e-01
2.709341e-01
2.837341e-01
2.957279e-01
3.071081e-01
3.179686e-01
3.283459e-01
3.383196e-01
3.480645e-01
3.578270e-01
3.678688e-01
3.784151e-01
3.896163e-01
4.015108e-01
4.139988e-01
4.268565e-01
4.398056e-01
4.526155e-01
4.651895e-01
4.775913e-01
4.899908e-01
5.025461e-01
5.152744e-01
5.279815e-01
5.403038e-01
5.518464e-01
5.623371e-01
5.717096e-01
5.800681e-01
5.875473e-01
5.941571e-01
5.997568e-01
6.042245e-01
6.076981e-01
6.106604e-01
6.137724e-01
6.175979e-01
6.224556e-01
6.284921e-01
6.358481e-01
6.447110e-01
6.551863e-01
6.671353e-01
6.801819e-01
6.939157e-01
7.081285e-01
7.228967e-01
7.384525e-01
7.549375e-01
7.722070e-01
7.897987e-01
8.070478e-01
8.232508e-01
8.377883e-01
8.501749e-01
8.600666e-01
8.672760e-01
8.718173e-01
8.739672e-01
8.742962e-01
8.736101e-01
8.727536e-01
8.723173e-01
8.724221e-01
8.727524e-01
8.728315e-01
8.723146e-01
8.710769e-01
8.691112e-01
8.664600e-01
8.633169e-01
8.601669e-01
8.577109e-01
8.565147e-01
8.566209e-01
8.574539e-01
8.581208e-01
8.578768e-01
8.564055e-01
8.537521e-01
8.500604e-01
8.454071e-01
8.398565e-01
8.335885e-01
8.268790e-01
8.199025e-01
8.125515e-01
8.044936e-01
7.954791e-01
7.856478e-01
7.755551e-01
7.658914e-01
7.571418e-01
7.494485e-01
7.427188e-01
7.368190e-01
7.316927e-01
7.273615e-01
7.238436e-01
7.210392e-01
7.186602e-01
7.162748e-01
7.134585e-01
7.099565e-01
7.057664e-01
7.011060e-01
6.962908e-01
6.915872e-01
6.871056e-01
6.827696e-01
6.783551e-01
6.735781e-01
6.682017e-01
6.621289e-01
6.554275e-01
6.482572e-01
6.407378e-01
6.328600e-01
6.245230e-01
6.156865e-01
6.065237e-01
5.974357e-01
5.888880e-01
5.811868e-01
5.743565e-01
5.681788e-01
5.623340e-01
5.565595e-01
5.507691e-01
5.450850e-01
5.397614e-01
5.350524e-01
5.311221e-01
5.280463e-01
5.258573e-01
5.245529e-01
5.240336e-01
5.240131e-01
5.239903e-01
5.233590e-01
5.216511e-01
5.187926e-01
5.151991e-01
5.116202e-01
5.088087e-01
5.071941e-01
5.067181e-01
5.068916e-01
5.070258e-01
5.064958e-01
5.049030e-01
5.020953e-01
4.981054e-01
4.930886e-01
4.872804e-01
4.809368e-01
4.742407e-01
4.672316e-01
4.598393e-01
4.520042e-01
4.437836e-01
4.353766e-01
4.270878e-01
4.192605e-01
4.121628e-01
4.058385e-01
4.000236e-01
3.942444e-01
3.880775e-01
3.813732e-01
3.742512e-01
3.668802e-01
3.592551e-01
3.511745e-01
3.424143e-01
3.329140e-01
3.228302e-01
3.124874e-01
3.023415e-01
2.929752e-01
2.850313e-01
2.790296e-01
2.751533e-01
2.731575e-01
2.724829e-01
2.725147e-01
2.728386e-01
2.733724e-01
2.743339e-01
2.760621e-01
2.787622e-01
2.823116e-01
2.862701e-01
2.901138e-01
2.935314e-01
2.965491e-01
2.993945e-01
3.022329e-01
3.050129e-01
3.075200e-01
3.095329e-01
3.109285e-01
3.117024e-01
3.119562e-01
3.118764e-01
3.116799e-01
3.115309e-01
3.114924e-01
3.115626e-01
3.117578e-01
3.121509e-01
3.128260e-01
3.138171e-01
3.151269e-01
3.168221e-01
3.190991e-01
3.222092e-01
3.262721e-01
3.311385e-01
3.364448e-01
3.418199e-01
3.470554e-01
3.521032e-01
3.569532e-01
3.615386e-01
3.657449e-01
3.694826e-01
3.727395e-01
3.755756e-01
3.780883e-01
3.803883e-01
3.825948e-01
3.848235e-01
3.871508e-01
3.895785e-01
3.920331e-01
3.944087e-01
3.966289e-01
3.986943e-01
4.006806e-01
4.026708e-01
4.046620e-01
4.065257e-01
4.080592e-01
4.090813e-01
4.094934e-01
4.092694e-01
4.084024e-01
4.068630e-01
4.046043e-01
4.016012e-01
3.978849e-01
3.935527e-01
3.887644e-01
3.837461e-01
3.787864e-01
3.741821e-01
3.701239e-01
3.665803e-01
3.632719e-01
3.597894e-01
3.558207e-01
3.513659e-01
3.468010e-01
3.427237e-01
3.396598e-01
3.378217e-01
3.370647e-01
3.370195e-01
3.372565e-01
3.373706e-01
3.370123e-01
3.359463e-01
3.341367e-01
3.317585e-01
3.290736e-01
3.262429e-01
3.232219e-01
3.198360e-01
3.159813e-01
3.117845e-01
3.075896e-01
3.037814e-01
3.005698e-01
2.978624e-01
2.952931e-01
2.923866e-01
2.887873e-01
2.844489e-01
2.796736e-01
2.749544e-01
2.707004e-01
2.670463e-01
2.638883e-01
2.610987e-01
2.587220e-01
2.569949e-01
2.562027e-01
2.565095e-01
2.578740e-01
2.600502e-01
2.626264e-01
2.651028e-01
2.670364e-01
2.681969e-01
2.686049e-01
2.683893e-01
2.675753e-01
2.659950e-01
2.634082e-01
2.597183e-01
2.550877e-01
2.498566e-01
2.443604e-01
2.388221e-01
2.333876e-01
2.281993e-01
2.233726e-01
2.188818e-01
2.145062e-01
2.099450e-01
2.050282e-01
1.998431e-01
1.946610e-01
1.897283e-01
1.850978e-01
1.806396e-01
1.762174e-01
1.718650e-01
1.677859e-01
1.641538e-01
1.608920e-01
1.576543e-01
1.540503e-01
1.499192e-01
1.454167e-01
1.408615e-01
1.364902e-01
1.323080e-01
1.281261e-01
1.237428e-01
1.191444e-01
1.145865e-01
1.104938e-01
1.072621e-01
1.051209e-01
1.041330e-01
1.042691e-01
1.054627e-01
1.076226e-01
1.106334e-01
1.143480e-01
1.185628e-01
1.229918e-01
1.272931e-01
1.311701e-01
1.344925e-01
1.373428e-01
1.399359e-01
1.424629e-01
1.449733e-01
1.473832e-01
1.495920e-01
1.516088e-01
1.535962e-01
1.558317e-01
1.586405e-01
1.623336e-01
1.671376e-01
1.731203e-01
1.801617e-01
1.879981e-01
1.962960e-01
2.047063e-01
2.129177e-01
2.207492e-01
2.282523e-01
2.357310e-01
2.436272e-01
2.523141e-01
2.619057e-01
2.721856e-01
2.826953e-01
2.929291e-01
3.025308e-01
3.113920e-01
3.196161e-01
3.273860e-01
3.348377e-01
3.420213e-01
3.489425e-01
3.556094e-01
3.620417e-01
3.682681e-01
3.743269e-01
3.802512e-01
3.860371e-01
3.916429e-01
3.970402e-01
4.022682e-01
4.074188e-01
4.125585e-01
4.176766e-01
4.227189e-01
4.276554e-01
4.325021e-01
4.373071e-01
4.421633e-01
4.472391e-01
4.527506e-01
4.588423e-01
4.654582e-01
4.723227e-01
4.790720e-01
4.854457e-01
4.913942e-01
4.970319e-01
5.024894e-01
5.077863e-01
5.128179e-01
5.174593e-01
5.217013e-01
5.257079e-01
5.297492e-01
5.340653e-01
5.387610e-01
5.437836e-01
5.489675e-01
5.541093e-01
5.590424e-01
5.636819e-01
5.680176e-01
5.720568e-01
5.757457e-01
5.789090e-01
5.812329e-01
5.822956e-01
5.816266e-01
5.787904e-01
5.735080e-01
5.658059e-01
5.560972e-01
5.450784e-01
5.334591e-01
5.217192e-01
5.100835e-01
4.987034e-01
4.878344e-01
4.778209e-01
4.688865e-01
4.609116e-01
4.533986e-01
4.456904e-01
4.372978e-01
4.280888e-01
4.182010e-01
4.077830e-01
3.968158e-01
3.851568e-01
3.727225e-01
3.596106e-01
3.460607e-01
3.323231e-01
3.185650e-01
3.048701e-01
2.912868e-01
2.778574e-01
2.646088e-01
2.515413e-01
2.386414e-01
2.259010e-01
2.133161e-01
2.008778e-01
1.885912e-01
1.765209e-01
1.648205e-01
1.536928e-01
1.432774e-01
1.335291e-01
1.241792e-01
1.148228e-01
1.050960e-01
9.484404e-02
8.418499e-02
7.342972e-02
6.290266e-02
5.277484e-02
4.301049e-02
3.344113e-02
2.389316e-02
1.427881e-02
4.604297e-03
-5.099064e-03
-1.487643e-02
-2.492155e-02
-3.557491e-02
-4.724609e-02
-6.028849e-02
-7.486532e-02
-9.086432e-02
-1.079360e-01
-1.256805e-01
-1.438839e-01
-1.626274e-01
-1.821708e-01
-2.026943e-01
-2.240928e-01
-2.459836e-01
-2.679220e-01
-2.896564e-01
-3.112219e-01
-3.328103e-01
-3.545415e-01
-3.763261e-01
-3.978914e-01
-4.188930e-01
-4.390033e-01
-4.579644e-01
-4.756682e-01
-4.922708e-01
-5.082317e-01
-5.241769e-01
-5.406365e-01
-5.578390e-01
-5.756978e-01
-5.939745e-01
-6.124953e-01
-6.312900e-01
-6.505871e-01
-6.706731e-01
-6.916804e-01
-7.134260e-01
-7.354219e-01
-7.570809e-01
-7.779887e-01
-7.980568e-01
-8.174778e-01
-8.365468e-01
-8.554761e-01
-8.742931e-01
-8.928535e-01
-9.109382e-01
-9.283544e-01
-9.449749e-01
-9.607182e-01
-9.755317e-01
-9.894167e-01
-1.002469e+00
-1.014896e+00
-1.027011e+00
-1.039224e+00
-1.052011e+00
-1.065822e+00
-1.080940e+00
-1.097362e+00
-1.114781e+00
-1.132714e+00
-1.150707e+00
-1.168528e+00
-1.186202e+00
-1.203878e+00
-1.221597e+00
-1.239170e+00
-1.256270e+00
-1.272665e+00
-1.288369e+00
-1.303575e+00
-1.318395e+00
-1.332622e+00
-1.345708e+00
-1.357026e+00
-1.366212e+00
-1.373370e+00
-1.379036e+00
-1.383989e+00
-1.389063e+00
-1.394993e+00
-1.402283e+00
-1.411093e+00
-1.421195e+00
-1.432067e+00
-1.443113e+00
-1.453889e+00
-1.464218e+00
-1.474138e+00
-1.483781e+00
-1.493279e+00
-1.502746e+00
-1.512306e+00
-1.522068e+00
-1.532059e+00
-1.542151e+00
-1.552066e+00
-1.561452e+00
-1.569998e+00
-1.577513e+00
-1.583926e+00
-1.589236e+00
-1.593484e+00
-1.596795e+00
-1.599477e+00
-1.602033e+00
-1.605031e+00
-1.608914e+00
-1.613859e+00
-1.619790e+00
-1.626503e+00
-1.633823e+00
-1.641675e+00
-1.650001e+00
-1.658621e+00
-1.667196e+00
-1.675344e+00
-1.682793e+00
-1.689427e+00
-1.695224e+00
-1.700207e+00
-1.704448e+00
-1.708087e+00
-1.711302e+00
-1.714236e+00
-1.716960e+00
-1.719497e+00
-1.721908e+00
-1.724347e+00
-1.727041e+00
-1.730215e+00
-1.734031e+00
-1.738579e+00
-1.743899e+00
-1.749958e+00
-1.756618e+00
-1.763602e+00
-1.770534e+00
-1.777007e+00
-1.782649e+00
-1.787147e+00
-1.790269e+00
-1.791907e+00
-1.792147e+00
-1.791276e+00
-1.789690e+00
-1.787756e+00
-1.785714e+00
-1.783678e+00
-1.781684e+00
-1.779719e+00
-1.777725e+00
-1.775620e+00
-1.773372e+00
-1.771073e+00
-1.768952e+00
-1.767303e+00
-1.766339e+00
-1.766060e+00
-1.766179e+00
-1.766170e+00
-1.765412e+00
-1.763347e+00
-1.759602e+00
-1.754048e+00
-1.746805e+00
-1.738214e+00
-1.728754e+00
-1.718910e+00
-1.709043e+00
-1.699316e+00
-1.689702e+00
-1.680022e+00
-1.669960e+00
-1.659073e+00
-1.646893e+00
-1.633094e+00
-1.617631e+00
-1.600745e+00
-1.582826e+00
-1.564250e+00
-1.545291e+00
-1.526159e+00
-1.507101e+00
-1.488445e+00
-1.470561e+00
-1.453787e+00
-1.438366e+00
-1.424441e+00
-1.412044e+00
-1.401115e+00
-1.391505e+00
-1.382981e+00
-1.375228e+00
-1.367857e+00
-1.360429e+00
-1.352503e+00
-1.343687e+00
-1.333707e+00
-1.322480e+00
-1.310152e+00
-1.297070e+00
-1.283633e+00
-1.270120e+00
-1.256583e+00
-1.242922e+00
-1.229053e+00
-1.215049e+00
-1.201134e+00
-1.187584e+00
-1.174629e+00
-1.162435e+00
-1.151121e+00
-1.140731e+00
-1.131172e+00
-1.122193e+00
-1.113451e+00
-1.104638e+00
-1.095594e+00
-1.086351e+00
-1.077073e+00
-1.067955e+00
-1.059157e+00
-1.050794e+00
-1.042973e+00
-1.035792e+00
-1.029316e+00
-1.023524e+00
-1.018285e+00
-1.013370e+00
-1.008464e+00
-1.003215e+00
-9.973021e-01
-9.905138e-01
-9.827732e-01
-9.741141e-01
-9.646433e-01
-9.545344e-01
-9.440352e-01
-9.334300e-01
-9.229364e-01
-9.126061e-01
-9.023298e-01
-8.919725e-01
-8.815438e-01
-8.712801e-01
-8.615922e-01
-8.529197e-01
-8.455640e-01
-8.395567e-01
-8.346179e-01
-8.302354e-01
-8.258546e-01
-8.210883e-01
-8.158238e-01
-8.101630e-01
-8.042497e-01
-7.981187e-01
-7.916860e-01
-7.848912e-01
-7.778738e-01
-7.710307e-01
-7.648952e-01
-7.599084e-01
-7.562147e-01
-7.535853e-01
-7.514852e-01
-7.492342e-01
-7.461872e-01
-7.418899e-01
-7.361780e-01
-7.291735e-01
-7.211605e-01
-7.124084e-01
-7.030787e-01
-6.932821e-01
-6.832126e-01
-6.732122e-01
-6.636880e-01
-6.549172e-01
-6.468585e-01
-6.391105e-01
-6.310771e-01
-6.222425e-01
-6.123733e-01
-6.015259e-01
-5.898767e-01
-5.774994e-01
-5.642462e-01
-5.498171e-01
-5.339688e-01
-5.167190e-01
-4.984115e-01
-4.796145e-01
-4.609337e-01
-4.428397e-01
-4.255527e-01
-4.090015e-01
-3.928751e-01
-3.767692e-01
-3.603684e-01
-3.435864e-01
-3.266064e-01
-3.098085e-01
-2.936024e-01
-2.782334e-01
-2.636679e-01
-2.496331e-01
-2.357917e-01
-2.219374e-01
-2.080741e-01
-1.943185e-01
-1.807021e-01
-1.670328e-01
-1.529363e-01
-1.380563e-01
-1.222693e-01
-1.057696e-01
-8.897683e-02
-7.234851e-02
-5.622582e-02
-4.077963e-02
-2.602533e-02
-1.185412e-02
1.914055e-03
1.542034e-02
2.861909e-02
4.119133e-02
5.261685e-02
6.239913e-02
7.032087e-02
7.657846e-02
8.171582e-02
8.639868e-02
9.115823e-02
9.623219e-02
1.015594e-01
1.069042e-01
1.120368e-01
1.168885e-01
1.216295e-01
1.266620e-01
1.325440e-01
1.398575e-01
1.490357e-01
1.602001e-01
1.730868e-01
1.871318e-01
2.016984e-01
2.163405e-01
2.309660e-01
2.458286e-01
2.613676e-01
2.779634e-01
2.956997e-01
3.142394e-01
3.328879e-01
3.508212e-01
3.673593e-01
3.821723e-01
3.953715e-01
4.074796e-01
4.192836e-01
4.315891e-01
4.449507e-01
4.594968e-01
4.749353e-01
4.907202e-01
5.062718e-01
5.211502e-01
5.351292e-01
5.481595e-01
5.602576e-01
5.714034e-01
5.815423e-01
5.907054e-01
5.991446e-01
6.073435e-01
6.158659e-01
6.251336e-01
6.352622e-01
6.460455e-01
6.571023e-01
6.681017e-01
6.789202e-01
6.896262e-01
7.003312e-01
7.110462e-01
7.216479e-01
7.319704e-01
7.419632e-01
7.517968e-01
7.618177e-01
7.723597e-01
7.835330e-01
7.951318e-01
8.066972e-01
8.176859e-01
8.276878e-01
8.366510e-01
8.450065e-01
8.535501e-01
8.630706e-01
8.739342e-01
8.859035e-01
8.983027e-01
9.103774e-01
9.215736e-01
9.315781e-01
9.401887e-01
9.472003e-01
9.524160e-01
9.557353e-01
9.572174e-01
9.570870e-01
9.557069e-01
9.535362e-01
9.510477e-01
9.486004e-01
9.463309e-01
9.441340e-01
9.417077e-01
9.385895e-01
9.341970e-01
9.279720e-01
9.196324e-01
9.093602e-01
8.977397e-01
8.854436e-01
8.728808e-01
8.600644e-01
8.468038e-01
8.330767e-01
8.192710e-01
8.060749e-01
7.940928e-01
7.835153e-01
7.741129e-01
7.655021e-01
7.574009e-01
7.496782e-01
7.422652e-01
7.351140e-01
7.282662e-01
7.219082e-01
7.162792e-01
7.114691e-01
7.072910e-01
7.033483e-01
6.992296e-01
6.946656e-01
6.895749e-01
6.840331e-01
6.782230e-01
6.723769e-01
6.667101e-01
6.613586e-01
6.563562e-01
6.516770e-01
6.473292e-01
6.434264e-01
6.401745e-01
6.377781e-01
6.363389e-01
6.358153e-01
6.360600e-01
6.369046e-01
6.382580e-01
6.401857e-01
6.429279e-01
6.468330e-01
6.522194e-01
6.592271e-01
6.677347e-01
6.773943e-01
6.877724e-01
6.985161e-01
7.094387e-01
7.204727e-01
7.315409e-01
7.424714e-01
7.530478e-01
7.631718e-01
7.730068e-01
7.829740e-01
7.935878e-01
8.052388e-01
8.180591e-01
8.319284e-01
8.465772e-01
8.617074e-01
8.770685e-01
8.924809e-01
9.078329e-01
9.230818e-01
9.382501e-01
9.533856e-01
9.684862e-01
9.834530e-01
9.981301e-01
1.012403e+00
1.026254e+00
1.039723e+00
1.052802e+00
1.065387e+00
1.077321e+00
1.088511e+00
1.099023e+00
1.109072e+00
1.118905e+00
1.128618e+00
1.138053e+00
1.146866e+00
1.154756e+00
1.161688e+00
1.167931e+00
1.173903e+00
1.179965e+00
1.186320e+00
1.193051e+00
1.200178e+00
1.207651e+00
1.215250e+00
1.222522e+00
1.228832e+00
1.233579e+00
1.236421e+00
1.237400e+00
1.236875e+00
1.235352e+00
1.233332e+00
1.231252e+00
1.229538e+00
1.228660e+00
1.229104e+00
1.231249e+00
