EVENT_NAME: L_AQUILA
EVENT_ID: IT-2009-0009
EVENT_DATE_YYYYMMDD: 20090406
EVENT_TIME_HHMMSS: 013240
EVENT_LATITUDE_DEGREE: 42.3420
EVENT_LONGITUDE_DEGREE: 13.3800
EVENT_DEPTH_KM: 8.3
HYPOCENTER_REFERENCE: INGV-CNT_Seismic_Bulletin
MAGNITUDE_W: 6.1
MAGNITUDE_W_REFERENCE: INGV-CNT_Seismic_Bulletin
MAGNITUDE_L: 
MAGNITUDE_L_REFERENCE: 
FOCAL_MECHANISM: Normal faulting
NETWORK: IT
STATION_CODE: GSA
STATION_NAME: 
STATION_LATITUDE_DEGREE: 42.420689
STATION_LONGITUDE_DEGREE: 13.519362
STATION_ELEVATION_M: 1062
LOCATION: 
SENSOR_DEPTH_M: 0.0
VS30_M/S: 492
SITE_CLASSIFICATION_EC8: B
MORPHOLOGIC_CLASSIFICATION: 
EPICENTRAL_DISTANCE_KM: 14.4
EARTHQUAKE_BACKAZIMUTH_DEGREE: 52.7
DATE_TIME_FIRST_SAMPLE_YYYYMMDD_HHMMSS: 20090406_013229.000
DATE_TIME_FIRST_SAMPLE_PRECISION: seconds
SAMPLING_INTERVAL_S: 0.005000
NDATA: 20020
DURATION_S: 100.100
STREAM: HNN
UNITS: cm/s
INSTRUMENT: sensor = FBA-3 [Kinemetrics] | digitizer = Etna [Kinemetrics]
INSTRUMENT_ANALOG/DIGITAL: D
INSTRUMENTAL_FREQUENCY_HZ: 216.000
INSTRUMENTAL_DAMPING: 0.700000
FULL_SCALE_G: 1.0
N_BIT_DIGITAL_CONVERTER: 18
PGV_CM/S: -7.474070
TIME_PGV_S: 23.365000
BASELINE_CORRECTION: BASELINE REMOVED
FILTER_TYPE: BUTTERWORTH
FILTER_ORDER: 2
LOW_CUT_FREQUENCY_HZ: 0.100
HIGH_CUT_FREQUENCY_HZ: 40.000
LATE/NORMAL_TRIGGERED: NT
DATABASE_VERSION: 0.5
HEADER_FORMAT: DYNA 1.2
DATA_TYPE: VELOCITY
PROCESSING: manual (Paolucci et al., 2011)
DATA_TIMESTAMP_YYYYMMDD_HHMMSS: 20211011_155740.193
DATA_LICENSE: CC-BY3_0-IT (http://creativecommons.org/licenses/by/3.0/deed.en)
DATA_CITATION: Luzi L, Pacor F, Puglia R (2019). Italian Accelerometric Archive v 3.0 - Istituto Nazionale di Geofisica e Vulcanologia, Dipartimento della Protezione Civile Nazionale. doi: 10.13127/itaca.3.1
DATA_CREATOR: ITACA working group
ORIGINAL_DATA_MEDIATOR_CITATION: data obtained within the DPC-INGV data exchange agreements
ORIGINAL_DATA_MEDIATOR: Archive of Italian Department of Civil Protection
ORIGINAL_DATA_CREATOR_CITATION: Presidency Of Counsil Of Ministers-Civil Protection Department. (1972). Italian Strong Motion Network. Presidency of Counsil of Ministers - Civil Protection Department. https://doi.org/10.7914/SN/IT http://www.fdsn.org/networks/detail/IT/
ORIGINAL_DATA_CREATOR: network: IT (Italian Strong Motion Network (RAN)); owner: Presidency of Counsil of Ministers - Civil Protection Department (PCM - DPC)
USER1: 
USER2: 
USER3: 
USER4: 
USER5: 
[...]
-0.311506
-0.465585
-0.642262
-0.804241
-0.923320
-0.986608
-0.993234
-0.952065
-0.884769
-0.824292
-0.796942
-0.797745
-0.785945
-0.710282
-0.541889
-0.288020
0.015656
0.318125
0.562236
0.696129
0.693793
0.576144
0.410751
0.278880
0.229641
0.257958
0.321155
0.373573
0.390797
0.374836
0.347598
0.338774
0.370131
0.441933
0.532118
0.613147
0.676179
0.741695
0.843283
0.995116
1.172145
1.322663
1.402489
1.400270
1.334795
1.234293
1.122841
1.025130
0.974583
1.003099
1.113982
1.265220
1.385224
1.412536
1.330118
1.172353
1.005163
0.895705
0.888589
0.995240
1.194095
1.438744
1.674082
1.858589
1.983066
2.073219
2.172496
2.314011
2.497015
2.683177
2.817822
2.862391
2.814783
2.705732
2.578794
2.469959
2.397203
2.360076
2.344041
2.324900
2.273636
2.165612
1.993301
1.774752
1.550640
1.369127
1.264595
1.241550
1.274988
1.329263
1.381930
1.431386
1.481235
1.518866
1.512978
1.435892
1.292102
1.127835
1.010889
0.994118
1.089510
1.268134
1.478657
1.668137
1.796435
1.845072
1.822173
1.759628
1.697503
1.661116
1.648167
1.637172
1.607690
1.555028
1.493887
1.455296
1.477781
1.589121
1.782115
2.002000
2.165384
2.207118
2.120734
1.958688
1.794870
1.682257
1.633989
1.631765
1.647325
1.660464
1.665931
1.671519
1.692707
1.745518
1.836772
1.955551
2.074204
2.159977
2.187186
2.141164
2.016622
1.817133
1.555632
1.252403
0.931303
0.617087
0.334453
0.106865
-0.047622
-0.123093
-0.129549
-0.088962
-0.025955
0.039995
0.097229
0.140140
0.163425
0.154765
0.093728
-0.038020
-0.241798
-0.493972
-0.748902
-0.950016
-1.047613
-1.019446
-0.881300
-0.677021
-0.454044
-0.242501
-0.050884
0.123414
0.281375
0.420438
0.544744
0.674239
0.838898
1.061234
1.341858
1.656163
1.960352
2.204889
2.353852
2.401316
2.372135
2.304737
2.227767
2.146045
2.043731
1.900945
1.711244
1.487333
1.252145
1.024092
0.808501
0.599818
0.389115
0.169324
-0.063076
-0.306585
-0.553975
-0.795750
-1.024134
-1.230749
-1.401919
-1.522242
-1.585348
-1.598906
-1.578207
-1.536791
-1.481968
-1.413500
-1.323702
-1.203466
-1.054546
-0.897249
-0.764110
-0.684281
-0.670424
-0.713886
-0.786791
-0.848829
-0.858631
-0.787692
-0.629278
-0.394989
-0.101488
0.239935
0.620847
1.025344
1.426781
1.797067
2.118237
2.385279
2.602558
2.782607
2.946854
3.120285
3.319905
3.547631
3.793447
4.040880
4.266831
4.441858
4.540871
4.560365
4.527177
4.489767
4.497306
4.579199
4.733913
4.929399
5.113983
5.234006
5.251027
5.151118
4.943945
4.654585
4.311981
3.938765
3.547682
3.144735
2.733303
2.315429
1.892458
1.468140
1.052738
0.663415
0.318022
0.024340
-0.228460
-0.468595
-0.728884
-1.029987
-1.370649
-1.730546
-2.082937
-2.408196
-2.699314
-2.957112
-3.179754
-3.353774
-3.454302
-3.457354
-3.355293
-3.161073
-2.897596
-2.583747
-2.229072
-1.836063
-1.403249
-0.929232
-0.420695
0.100726
0.602663
1.057872
1.458104
1.811693
2.127415
2.402268
2.624346
2.783623
2.877946
2.910459
2.882854
2.790137
2.620265
2.358907
1.997208
1.538156
0.996749
0.393918
-0.250032
-0.917354
-1.590565
-2.249350
-2.869903
-3.428302
-3.906743
-4.298973
-4.611590
-4.860950
-5.067628
-5.249495
-5.413912
-5.551912
-5.639688
-5.651076
-5.577911
-5.446475
-5.316244
-5.256551
-5.312784
-5.483327
-5.721401
-5.958703
-6.134669
-6.213900
-6.185080
-6.049400
-5.811246
-5.476972
-5.058685
-4.575612
-4.049288
-3.498357
-2.941419
-2.405405
-1.926267
-1.535762
-1.246931
-1.054724
-0.949521
-0.927024
-0.986113
-1.120775
-1.314041
-1.534678
-1.735082
-1.855104
-1.839793
-1.666313
-1.358897
-0.976394
-0.581287
-0.212944
0.120488
0.432924
0.743286
1.060524
1.377874
1.676498
1.930555
2.107741
2.170950
2.090061
1.859516
1.504927
1.070318
0.597806
0.116310
-0.357745
-0.815666
-1.255518
-1.686029
-2.127050
-2.598053
-3.099196
-3.598347
-4.031711
-4.317824
-4.383066
-4.192854
-3.772729
-3.202302
-2.583001
-2.002368
-1.519027
-1.170337
-0.982584
-0.966790
-1.105751
-1.349932
-1.630693
-1.884535
-2.074867
-2.200433
-2.288225
-2.377010
-2.499984
-2.671659
-2.881178
-3.094944
-3.269906
-3.371216
-3.382719
-3.306412
-3.157505
-2.959266
-2.737216
-2.517140
-2.329610
-2.211529
-2.196177
-2.299474
-2.515565
-2.821083
-3.180088
-3.549687
-3.886526
-4.148797
-4.297018
-4.303351
-4.165538
-3.910414
-3.583132
-3.231817
-2.893608
-2.583095
-2.290907
-1.997792
-1.690962
-1.367517
-1.032096
-0.702224
-0.413873
-0.212162
-0.132491
-0.190188
-0.383354
-0.699116
-1.116139
-1.603410
-2.118610
-2.611012
-3.030008
-3.333624
-3.492945
-3.495801
-3.353866
-3.109314
-2.830942
-2.593768
-2.449181
-2.404267
-2.425065
-2.459142
-2.459277
-2.396216
-2.261269
-2.063125
-1.822074
-1.565241
-1.323390
-1.125053
-0.987718
-0.913799
-0.895246
-0.920365
-0.977062
-1.054868
-1.149070
-1.264293
-1.413001
-1.609051
-1.860174
-2.162246
-2.496415
-2.829293
-3.115518
-3.302101
-3.335041
-3.170898
-2.795248
-2.240019
-1.585145
-0.938912
-0.404391
-0.049304
0.101944
0.054969
-0.167702
-0.527731
-0.968958
-1.422165
-1.817274
-2.097816
-2.230570
-2.208319
-2.048719
-1.789463
-1.478354
-1.161236
-0.873223
-0.635065
-0.451584
-0.309874
-0.180715
-0.029301
0.166440
0.403766
0.660790
0.913390
1.146259
1.350488
1.515763
1.628705
1.678729
1.664226
1.594536
1.488756
1.373192
1.277494
1.228723
1.243294
1.318707
1.429618
1.532791
1.580291
1.533663
1.372296
1.095458
0.720596
0.279394
-0.187759
-0.638122
-1.032004
-1.336178
-1.528470
-1.607828
-1.605466
-1.583332
-1.611853
-1.737764
-1.964383
-2.256800
-2.562844
-2.831007
-3.017166
-3.087164
-3.023355
-2.831889
-2.540518
-2.184372
-1.790095
-1.370845
-0.933209
-0.485560
-0.038198
0.403385
0.842997
1.290243
1.752461
2.230031
2.717842
3.207310
3.683439
4.120568
4.485311
4.747794
4.893625
4.930104
4.885157
4.799106
4.711472
4.648591
4.616607
4.599711
4.563142
4.462715
4.259610
3.934059
3.491543
2.959864
2.381488
1.809169
1.307538
0.951923
0.814119
0.937698
1.316982
1.894585
2.582671
3.295246
3.969613
4.567787
5.066864
5.449762
5.701634
5.815137
5.802835
5.704156
5.572811
5.448258
5.335571
5.214503
5.070658
4.920626
4.809666
4.784854
4.864889
5.026194
5.209866
5.342433
5.360172
5.226862
4.939326
4.523075
4.024843
3.504541
3.021759
2.616047
2.293201
2.030406
1.798197
1.584329
1.405042
1.299611
1.313754
1.479695
1.799485
2.238091
2.729820
3.195063
3.561271
3.782291
3.848588
3.781673
3.614898
3.374114
3.073010
2.725618
2.363429
2.039056
1.808999
1.708522
1.738792
1.871914
2.065057
2.275665
2.474968
2.656982
2.839124
3.052326
3.324082
3.663887
4.057583
4.467966
4.838958
5.108001
5.228758
5.191932
5.027969
4.790191
4.530664
4.282256
4.055736
3.851433
3.674009
3.538903
3.468927
3.485366
3.596839
3.789259
4.024067
4.249813
4.420791
4.511539
4.523820
4.487448
4.452678
4.470648
4.565953
4.715726
4.851312
4.887007
4.762455
4.474391
4.078636
3.662182
3.302973
3.037323
2.846099
2.664405
2.414296
2.048912
1.585973
1.111092
0.748004
0.611127
0.761096
1.179901
1.778084
2.433606
3.042449
3.555302
3.983519
4.372044
4.757639
5.142512
5.497899
5.786146
5.981323
6.077666
6.084996
6.014537
5.866436
5.633394
5.319411
4.955060
4.593503
4.289151
4.073987
3.945367
3.870173
3.801248
3.694491
3.516390
3.246343
2.884620
2.461754
2.033843
1.661552
1.389447
1.240722
1.223691
1.336484
1.565247
1.882184
2.250007
2.631793
2.998192
3.326376
3.594834
3.782908
3.878799
3.888543
3.834119
3.738685
3.609346
3.432398
3.189883
2.887577
2.567758
2.289834
2.093309
1.973634
1.885792
1.768082
1.570922
1.276834
0.903517
0.492972
0.096484
-0.238335
-0.477584
-0.607864
-0.639247
-0.604512
-0.552098
-0.529412
-0.561786
-0.640199
-0.726834
-0.777204
-0.766805
-0.705088
-0.626881
-0.568010
-0.544523
-0.549078
-0.559790
-0.552912
-0.519193
-0.479503
-0.484902
-0.594202
-0.841509
-1.212727
-1.641537
-2.027237
-2.269657
-2.306042
-2.132620
-1.802201
-1.397320
-0.989693
-0.611920
-0.262276
0.067391
0.370366
0.625022
0.807332
0.903679
0.918877
0.875573
0.803137
0.724477
0.652703
0.596835
0.565523
0.563330
0.584678
0.614117
0.635772
0.644322
0.646894
0.654272
0.670084
0.687232
0.693280
0.678634
0.638894
0.568822
0.454841
0.276127
0.018250
-0.308356
-0.661614
-0.983781
-1.231911
-1.399668
-1.514385
-1.613585
-1.717114
-1.811005
-1.853994
-1.803738
-1.642105
-1.380716
-1.050382
-0.690586
-0.345662
-0.062838
0.112699
0.145959
0.022569
-0.242040
-0.603474
-1.002799
-1.384519
-1.706212
-1.938047
-2.058500
-2.053375
-1.920225
-1.674384
-1.351248
-1.002369
-0.685791
-0.451785
-0.327766
-0.310999
-0.376740
-0.498146
-0.662197
-0.868148
-1.112119
-1.374470
-1.621259
-1.817202
-1.940929
-1.994613
-2.002947
-2.001171
-2.020157
-2.080333
-2.197192
-2.388588
-2.673198
-3.059206
-3.530522
-4.040829
-4.524466
-4.922964
-5.211111
-5.404530
-5.546308
-5.684594
-5.853234
-6.061792
-6.297701
-6.538389
-6.764604
-6.965824
-7.136942
-7.272786
-7.364950
-7.399654
-7.356903
-7.216850
-6.976229
-6.665343
-6.348876
-6.104051
-5.990239
-6.030442
-6.210013
-6.484833
-6.792930
-7.067860
-7.251502
-7.302987
-7.202415
-6.950782
-6.568316
-6.091941
-5.571114
-5.060959
-4.611814
-4.256350
-3.999391
-3.816838
-3.665225
-3.498366
-3.286125
-3.028579
-2.756536
-2.514998
-2.339488
-2.241200
-2.208279
-2.217577
-2.245739
-2.272184
-2.276243
-2.237939
-2.147499
-2.016145
-1.876015
-1.766675
-1.716670
-1.729797
-1.782718
-1.837882
-1.866457
-1.863930
-1.845310
-1.826979
-1.812968
-1.794389
-1.757708
-1.693073
-1.596028
-1.462159
-1.281855
-1.042913
-0.739679
-0.379858
0.015948
0.418653
0.794997
1.112348
1.345349
1.480930
1.516371
1.452204
1.288684
1.030320
0.692874
0.305031
-0.095148
-0.463541
-0.752307
-0.916317
-0.925657
-0.779370
-0.513778
-0.199790
0.074852
0.235121
0.245596
0.118353
-0.101520
-0.359967
-0.610828
-0.819117
-0.957505
-1.005290
-0.951653
-0.800057
-0.571752
-0.306403
-0.056139
0.127485
0.207839
0.172521
0.036213
-0.162891
-0.375274
-0.559701
-0.699599
-0.803273
-0.888340
-0.965131
-1.031198
-1.076438
-1.092019
-1.077328
-1.041652
-0.999556
-0.962351
-0.931721
-0.900079
-0.855282
-0.785066
-0.682196
-0.552283
-0.418258
-0.312348
-0.255956
-0.240378
-0.223383
-0.146255
0.039535
0.353443
0.782199
1.285006
1.800420
2.256709
2.589436
2.760077
2.763686
2.623272
2.378896
2.078257
1.770664
1.503389
1.317204
1.239120
1.274894
1.406088
1.594320
1.792174
1.957232
2.063536
2.104708
2.086766
2.016993
1.900221
1.745459
1.572013
1.404118
1.256553
1.124513
0.987988
0.826899
0.634127
0.419467
0.207523
0.033089
-0.065945
-0.056806
0.081330
0.351548
0.733736
1.182295
1.631473
2.010573
2.266244
2.382141
2.383551
2.323170
2.257802
2.230339
2.263460
2.361444
2.514302
2.701777
2.896550
3.067056
3.182722
3.222421
3.181279
3.071771
2.919683
2.754691
2.595922
2.440432
2.263863
2.032141
1.715245
1.296902
0.778602
0.177002
-0.483283
-1.175103
-1.869006
-2.531396
-3.123825
-3.604708
-3.935481
-4.091539
-4.073568
-3.913189
-3.668266
-3.406169
-3.180884
-3.017572
-2.913125
-2.846131
-2.785217
-2.696218
-2.553264
-2.348640
-2.091765
-1.798437
-1.481390
-1.149471
-0.812245
-0.482024
-0.169355
0.124463
0.410165
0.704365
1.018149
1.348540
1.678225
1.983128
2.243132
2.449614
2.605401
2.717839
2.789865
2.814901
2.778991
2.668924
2.481688
2.230286
1.942415
1.651934
1.387276
1.162011
0.969986
0.785818
0.572114
0.292843
-0.073030
-0.524666
-1.041065
-1.589044
-2.134163
-2.649638
-3.118803
-3.532115
-3.883678
-4.170413
-4.392937
-4.555715
-4.665775
-4.731488
-4.762623
-4.770523
-4.765838
-4.753356
-4.727511
-4.672811
-4.569026
-4.397381
-4.146238
-3.816647
-3.425156
-2.999787
-2.569786
-2.155995
-1.769201
-1.415618
-1.100572
-0.825067
-0.580473
-0.349535
-0.114803
0.132006
0.387051
0.638760
0.873427
1.076154
1.228067
1.305666
1.285861
1.153437
0.905546
0.553183
0.123286
-0.338936
-0.772861
-1.114357
-1.313942
-1.353207
-1.252412
-1.065921
-0.865120
-0.714104
-0.648978
-0.670872
-0.756217
-0.877800
-1.022900
-1.198054
-1.420886
-1.706990
-2.058106
-2.454264
-2.854163
-3.207474
-3.473384
-3.633310
-3.692444
-3.674048
-3.612054
-3.545767
-3.517264
-3.566638
-3.721682
-3.988035
-4.347612
-4.763312
-5.183422
-5.546991
-5.796062
-5.891398
-5.820363
-5.593612
-5.236546
-4.779868
-4.251227
-3.671703
-3.059679
-2.438671
-1.840747
-1.300694
-0.845327
-0.486063
-0.218370
-0.026260
0.112216
0.222801
0.336446
0.488299
0.709501
1.015552
1.399070
1.831062
2.270054
2.675333
3.017579
3.280927
3.458169
3.547181
3.553122
3.492200
3.389982
3.271935
3.150481
3.017665
2.850117
2.622677
2.320106
1.940866
1.495229
1.001411
0.480382
-0.050176
-0.581139
-1.114985
-1.664510
-2.245696
-2.868331
-3.530997
-4.221549
-4.918632
-5.592654
-6.208754
-6.731818
-7.130793
-7.382170
-7.474070
-7.410248
-7.212063
-6.917346
-6.575723
-6.240848
-5.961990
-5.777486
-5.709495
-5.758707
-5.902086
-6.098195
-6.298647
-6.460234
-6.555465
-6.580100
-6.553004
-6.506488
-6.472060
-6.466940
-6.483906
-6.488720
-6.431005
-6.265970
-5.973370
-5.563634
-5.072983
-4.551457
-4.045605
-3.583617
-3.173597
-2.813475
-2.500060
-2.230337
-1.998590
-1.793700
-1.597892
-1.388896
-1.146314
-0.858450
-0.526132
-0.164355
0.196843
0.513574
0.733560
0.805845
0.692993
0.382974
-0.104836
-0.724724
-1.418620
-2.131135
-2.819314
-3.455493
-4.025040
-4.521095
-4.937771
-5.263808
-5.479868
-5.562287
-5.492493
-5.267149
-4.903340
-4.435451
-3.903949
-3.341938
-2.768750
-2.193837
-1.625002
-1.073928
-0.557475
-0.097046
0.282015
0.551352
0.683385
0.660122
0.483427
0.178364
-0.212486
-0.635283
-1.025928
-1.312494
-1.427121
-1.324034
-0.994637
-0.472495
0.176341
0.873841
1.548437
2.142494
2.612346
2.928513
3.076915
3.058120
2.885856
2.587205
2.201954
1.778062
1.366590
1.019477
0.785580
0.701358
0.782278
1.020531
1.386246
1.830000
2.290368
2.708094
3.040630
3.268135
3.387812
3.402757
3.316723
3.140250
2.901427
2.649090
2.442836
2.335982
2.362095
2.530206
2.826860
3.220356
3.664136
4.100835
4.471277
4.728412
4.848544
4.832196
4.695500
4.459588
4.145382
3.775841
3.380290
2.993656
2.649450
2.371139
2.166994
2.030581
1.945317
1.889131
1.837030
1.764214
1.652217
1.494569
1.297584
1.077860
0.859169
0.667669
0.525503
0.445818
0.429580
0.462605
0.516150
0.556320
0.558453
0.516302
0.442516
0.363717
0.312284
0.316260
0.391158
0.537132
0.741817
0.986536
1.252233
1.521797
1.778643
2.005868
2.190197
2.328504
2.430170
2.512314
2.591539
2.677781
2.773037
2.874172
2.976671
3.076748
3.171653
3.259477
3.339717
3.415087
3.493134
3.584451
3.695922
3.821981
3.939738
4.012424
4.000931
3.878325
3.640562
3.309493
2.928109
2.548801
2.217153
1.958495
1.774563
1.650157
1.563540
1.494984
1.431096
1.364189
1.287382
1.188480
1.047420
0.840453
0.549445
0.170800
-0.280462
-0.771909
-1.258499
-1.690232
-2.022150
-2.224229
-2.287693
-2.226074
-2.071337
-1.866821
-1.659680
-1.494127
-1.404907
-1.411574
-1.515672
-1.701273
-1.937531
-2.183063
-2.393756
-2.534032
-2.586544
-2.553497
-2.449490
-2.292742
-2.099460
-1.880945
-1.642834
-1.387128
-1.115576
-0.831330
-0.538509
-0.241921
0.052580
0.337979
0.606142
0.849193
1.064259
1.258940
1.451318
1.663772
1.916712
2.226128
2.602366
3.047103
3.549928
4.087209
4.624198
5.120472
5.538012
5.848625
6.036893
6.099338
6.043563
5.888312
5.662670
5.403312
5.149299
4.934237
4.778033
4.682220
4.630228
4.591214
4.527349
4.404376
4.201615
3.916601
3.563511
3.167551
2.757507
2.358543
1.988132
1.656691
1.370713
1.134902
0.952227
0.822913
0.742995
0.702667
0.685913
0.673495
0.649038
0.604738
0.543432
0.476759
0.420414
0.387699
0.383931
0.404519
0.437520
0.469724
0.494283
0.516123
0.550882
0.617154
0.727216
0.881872
1.071014
1.278206
1.486478
1.682520
1.858024
2.009729
2.139815
2.255853
2.368662
2.488060
2.617908
2.753080
2.880769
2.985215
3.052284
3.072043
3.039900
2.955986
2.822173
2.638764
2.403600
2.113417
1.765547
1.359706
0.901004
0.403573
-0.107442
-0.596992
-1.024655
-1.351464
-1.546292
-1.590429
-1.482287
-1.242775
-0.916640
-0.565231
-0.252844
-0.032683
0.063013
0.026603
-0.127563
-0.370274
-0.666895
-0.986192
-1.304310
-1.601961
-1.858486
-2.048220
-2.141704
-2.111636
-1.942319
-1.638395
-1.226578
-0.749091
-0.254681
0.208631
0.600888
0.897909
1.094835
1.203194
1.244980
1.247402
1.238851
1.245566
1.288496
1.379959
1.520812
1.700098
1.897768
2.089092
2.250047
2.363176
2.421171
2.425324
2.379846
2.286726
2.144798
1.952603
1.711813
1.428985
1.116108
0.790772
0.474617
0.188072
-0.056425
-0.257494
-0.422877
-0.565725
-0.700667
-0.839067
-0.984903
-1.134038
-1.276732
-1.400857
-1.494828
-1.550880
-1.567498
-1.548855
-1.502146
-1.435506
-1.356838
-1.272445
-1.185659
-1.096143
-0.999928
-0.890506
-0.761644
-0.610851
-0.441175
-0.260762
-0.081236
0.084969
0.227988
0.342419
0.427119
0.485041
0.523587
0.553675
0.587600
0.637239
0.712988
0.822830
0.970902
1.155165
1.364598
1.577615
1.763955
1.891019
1.932889
1.877668
1.729253
1.503936
1.225916
0.924010
0.627854
0.362426
0.143010
-0.026779
-0.154010
-0.254124
-0.347206
-0.452034
-0.579961
-0.732510
-0.904222
-1.088744
-1.283549
-1.489312
-1.704796
-1.922438
-2.128425
-2.306825
-2.445065
-2.538171
-2.589563
-2.607637
-2.600295
-2.571073
-2.518787
-2.440124
-2.333524
-2.201995
-2.052646
-1.892861
-1.725804
-1.548825
-1.356073
-1.143449
-0.912475
-0.670459
-0.427647
-0.194876
0.016729
0.196121
0.334170
0.425764
0.470911
0.474969
0.447678
0.400003
0.339988
0.270826
0.192597
0.105480
0.011522
-0.085640
-0.181865
-0.273496
-0.358051
-0.434758
-0.505228
-0.574133
-0.648722
-0.736444
-0.842068
-0.966368
-1.106814
-1.259228
-1.419221
-1.582877
-1.747090
-1.910376
-2.073925
-2.241316
-2.415970
-2.597754
-2.781351
-2.957203
-3.113805
-3.240196
-3.328306
-3.374642
-3.380715
-3.352203
-3.297319
-3.224989
-3.143204
-3.057388
-2.968813
-2.874198
-2.767591
-2.643961
-2.502727
-2.349879
-2.198194
-2.064950
-1.966626
-1.912425
-1.900668
-1.919866
-1.952332
-1.978130
-1.979428
-1.944734
-1.870613
-1.760159
-1.620243
-1.459114
-1.284292
-1.101077
-0.912762
-0.722403
-0.534974
-0.358837
-0.205438
-0.086693
-0.011853
0.014054
-0.009065
-0.075082
-0.171400
-0.281762
-0.390464
-0.485331
