EVENT_NAME: L_AQUILA
EVENT_ID: IT-2009-0009
EVENT_DATE_YYYYMMDD: 20090406
EVENT_TIME_HHMMSS: 013240
EVENT_LATITUDE_DEGREE: 42.3420
EVENT_LONGITUDE_DEGREE: 13.3800
EVENT_DEPTH_KM: 8.3
HYPOCENTER_REFERENCE: INGV-CNT_Seismic_Bulletin
MAGNITUDE_W: 6.1
MAGNITUDE_W_REFERENCE: INGV-CNT_Seismic_Bulletin
MAGNITUDE_L: 
MAGNITUDE_L_REFERENCE: 
FOCAL_MECHANISM: Normal faulting
NETWORK: IT
STATION_CODE: GSA
STATION_NAME: 
STATION_LATITUDE_DEGREE: 42.420689
STATION_LONGITUDE_DEGREE: 13.519362
STATION_ELEVATION_M: 1062
LOCATION: 
SENSOR_DEPTH_M: 0.0
VS30_M/S: 492
SITE_CLASSIFICATION_EC8: B
MORPHOLOGIC_CLASSIFICATION: 
EPICENTRAL_DISTANCE_KM: 14.4
EARTHQUAKE_BACKAZIMUTH_DEGREE: 52.7
DATE_TIME_FIRST_SAMPLE_YYYYMMDD_HHMMSS: 20090406_013229.000
DATE_TIME_FIRST_SAMPLE_PRECISION: seconds
SAMPLING_INTERVAL_S: 0.005000
NDATA: 20020
DURATION_S: 100.100
STREAM: HNZ
UNITS: cm/s
INSTRUMENT: sensor = FBA-3 [Kinemetrics] | digitizer = Etna [Kinemetrics]
INSTRUMENT_ANALOG/DIGITAL: D
INSTRUMENTAL_FREQUENCY_HZ: 208.000
INSTRUMENTAL_DAMPING: 0.700000
FULL_SCALE_G: 1.0
N_BIT_DIGITAL_CONVERTER: 18
PGV_CM/S: -4.399184
TIME_PGV_S: 18.690000
BASELINE_CORRECTION: BASELINE REMOVED
FILTER_TYPE: BUTTERWORTH
FILTER_ORDER: 2
LOW_CUT_FREQUENCY_HZ: 0.100
HIGH_CUT_FREQUENCY_HZ: 40.000
LATE/NORMAL_TRIGGERED: NT
DATABASE_VERSION: 0.5
HEADER_FORMAT: DYNA 1.2
DATA_TYPE: VELOCITY
PROCESSING: manual (Paolucci et al., 2011)
DATA_TIMESTAMP_YYYYMMDD_HHMMSS: 20211011_155740.783
DATA_LICENSE: CC-BY3_0-IT (http://creativecommons.org/licenses/by/3.0/deed.en)
DATA_CITATION: Luzi L, Pacor F, Puglia R (2019). Italian Accelerometric Archive v 3.0 - Istituto Nazionale di Geofisica e Vulcanologia, Dipartimento della Protezione Civile Nazionale. doi: 10.13127/itaca.3.1
DATA_CREATOR: ITACA working group
ORIGINAL_DATA_MEDIATOR_CITATION: data obtained within the DPC-INGV data exchange agreements
ORIGINAL_DATA_MEDIATOR: Archive of Italian Department of Civil Protection
ORIGINAL_DATA_CREATOR_CITATION: Presidency Of Counsil Of Ministers-Civil Protection Department. (1972). Italian Strong Motion Network. Presidency of Counsil of Ministers - Civil Protection Department. https://doi.org/10.7914/SN/IT http://www.fdsn.org/networks/detail/IT/
ORIGINAL_DATA_CREATOR: network: IT (Italian Strong Motion Network (RAN)); owner: Presidency of Counsil of Ministers - Civil Protection Department (PCM - DPC)
USER1: 
USER2: 
USER3: 
USER4: 
USER5: 
[...]
-0.053784
-0.054029
-0.054266
-0.054497
-0.054730
-0.054973
-0.055225
-0.055478
-0.055734
-0.055996
-0.056258
-0.056509
-0.056749
-0.056988
-0.057236
-0.057496
-0.057763
-0.058029
-0.058288
-0.058543
-0.058800
-0.059060
-0.059319
-0.059573
-0.059828
-0.060084
-0.060341
-0.060600
-0.060861
-0.061123
-0.061382
-0.061637
-0.061892
-0.062147
-0.062409
-0.062685
-0.062974
-0.063259
-0.063525
-0.063779
-0.064043
-0.064329
-0.064637
-0.064947
-0.065241
-0.065521
-0.065806
-0.066099
-0.066385
-0.066657
-0.066923
-0.067187
-0.067456
-0.067732
-0.068013
-0.068293
-0.068573
-0.068861
-0.069152
-0.069444
-0.069734
-0.070022
-0.070307
-0.070586
-0.070861
-0.071132
-0.071402
-0.071682
-0.071973
-0.072269
-0.072561
-0.072842
-0.073118
-0.073405
-0.073706
-0.074007
-0.074301
-0.074590
-0.074876
-0.075162
-0.075455
-0.075760
-0.076067
-0.076370
-0.076668
-0.076959
-0.077246
-0.077533
-0.077822
-0.078112
-0.078412
-0.078724
-0.079041
-0.079357
-0.079669
-0.079972
-0.080262
-0.080544
-0.080830
-0.081132
-0.081447
-0.081761
-0.082069
-0.082376
-0.082684
-0.082987
-0.083280
-0.083567
-0.083860
-0.084163
-0.084474
-0.084785
-0.085094
-0.085398
-0.085695
-0.085988
-0.086286
-0.086589
-0.086894
-0.087197
-0.087504
-0.087817
-0.088138
-0.088465
-0.088795
-0.089119
-0.089434
-0.089744
-0.090055
-0.090369
-0.090684
-0.090999
-0.091316
-0.091637
-0.091958
-0.092273
-0.092583
-0.092896
-0.093210
-0.093525
-0.093842
-0.094160
-0.094476
-0.094788
-0.095100
-0.095412
-0.095723
-0.096033
-0.096346
-0.096670
-0.097006
-0.097339
-0.097667
-0.097994
-0.098325
-0.098653
-0.098971
-0.099280
-0.099591
-0.099915
-0.100247
-0.100582
-0.100922
-0.101269
-0.101613
-0.101944
-0.102273
-0.102614
-0.102966
-0.103317
-0.103662
-0.104003
-0.104338
-0.104667
-0.105002
-0.105349
-0.105702
-0.106053
-0.106398
-0.106739
-0.107079
-0.107422
-0.107772
-0.108124
-0.108473
-0.108821
-0.109173
-0.109530
-0.109887
-0.110240
-0.110592
-0.110948
-0.111313
-0.111679
-0.112038
-0.112390
-0.112738
-0.113082
-0.113424
-0.113778
-0.114149
-0.114523
-0.114886
-0.115235
-0.115585
-0.115948
-0.116324
-0.116700
-0.117065
-0.117417
-0.117765
-0.118120
-0.118486
-0.118854
-0.119214
-0.119567
-0.119926
-0.120297
-0.120672
-0.121041
-0.121404
-0.121772
-0.122145
-0.122515
-0.122876
-0.123231
-0.123580
-0.123923
-0.124267
-0.124622
-0.124989
-0.125358
-0.125720
-0.126078
-0.126438
-0.126808
-0.127185
-0.127559
-0.127926
-0.128289
-0.128654
-0.129020
-0.129387
-0.129751
-0.130110
-0.130471
-0.130843
-0.131221
-0.131590
-0.131949
-0.132309
-0.132677
-0.133050
-0.133422
-0.133795
-0.134177
-0.134564
-0.134942
-0.135309
-0.135676
-0.136049
-0.136428
-0.136809
-0.137189
-0.137561
-0.137929
-0.138302
-0.138685
-0.139074
-0.139457
-0.139833
-0.140210
-0.140593
-0.140973
-0.141345
-0.141715
-0.142093
-0.142479
-0.142865
-0.143250
-0.143638
-0.144023
-0.144399
-0.144773
-0.145154
-0.145542
-0.145927
-0.146305
-0.146677
-0.147050
-0.147425
-0.147805
-0.148190
-0.148577
-0.148962
-0.149348
-0.149737
-0.150128
-0.150511
-0.150885
-0.151259
-0.151644
-0.152041
-0.152441
-0.152835
-0.153221
-0.153606
-0.153993
-0.154381
-0.154774
-0.155169
-0.155566
-0.155960
-0.156354
-0.156747
-0.157139
-0.157529
-0.157920
-0.158313
-0.158701
-0.159082
-0.159461
-0.159842
-0.160231
-0.160629
-0.161033
-0.161436
-0.161835
-0.162235
-0.162641
-0.163054
-0.163467
-0.163870
-0.164260
-0.164642
-0.165025
-0.165413
-0.165806
-0.166203
-0.166603
-0.167006
-0.167410
-0.167812
-0.168210
-0.168605
-0.168999
-0.169395
-0.169792
-0.170185
-0.170574
-0.170962
-0.171350
-0.171732
-0.172108
-0.172484
-0.172865
-0.173255
-0.173657
-0.174069
-0.174482
-0.174895
-0.175308
-0.175720
-0.176128
-0.176528
-0.176921
-0.177310
-0.177701
-0.178095
-0.178487
-0.178875
-0.179262
-0.179650
-0.180040
-0.180436
-0.180840
-0.181251
-0.181659
-0.182057
-0.182452
-0.182851
-0.183252
-0.183646
-0.184028
-0.184403
-0.184778
-0.185160
-0.185552
-0.185952
-0.186351
-0.186745
-0.187134
-0.187520
-0.187909
-0.188301
-0.188692
-0.189081
-0.189470
-0.189860
-0.190250
-0.190640
-0.191033
-0.191428
-0.191820
-0.192212
-0.192609
-0.193010
-0.193412
-0.193808
-0.194196
-0.194581
-0.194970
-0.195365
-0.195764
-0.196164
-0.196563
-0.196963
-0.197364
-0.197767
-0.198173
-0.198581
-0.198986
-0.199388
-0.199786
-0.200182
-0.200577
-0.200972
-0.201371
-0.201772
-0.202175
-0.202582
-0.202989
-0.203396
-0.203797
-0.204188
-0.204573
-0.204957
-0.205339
-0.205720
-0.206101
-0.206484
-0.206874
-0.207273
-0.207673
-0.208062
-0.208439
-0.208813
-0.209193
-0.209576
-0.209956
-0.210333
-0.210716
-0.211106
-0.211491
-0.211864
-0.212236
-0.212619
-0.213009
-0.213397
-0.213784
-0.214171
-0.214553
-0.214931
-0.215308
-0.215685
-0.216056
-0.216424
-0.216794
-0.217166
-0.217534
-0.217900
-0.218261
-0.218613
-0.218947
-0.219245
-0.219491
-0.219670
-0.219750
-0.219655
-0.219257
-0.218382
-0.216786
-0.214156
-0.210199
-0.204809
-0.198198
-0.190923
-0.183733
-0.177274
-0.171830
-0.167350
-0.163681
-0.160805
-0.158922
-0.158347
-0.159320
-0.161863
-0.165746
-0.170476
-0.175381
-0.179840
-0.183432
-0.185892
-0.187170
-0.187654
-0.188167
-0.189495
-0.191740
-0.193988
-0.194691
-0.192750
-0.188555
-0.183913
-0.180788
-0.179950
-0.180756
-0.182129
-0.183721
-0.186189
-0.190312
-0.195768
-0.200819
-0.203331
-0.202261
-0.198230
-0.192749
-0.186840
-0.180232
-0.171753
-0.160801
-0.148979
-0.140322
-0.139074
-0.146387
-0.159087
-0.171920
-0.181326
-0.187374
-0.192367
-0.197747
-0.202466
-0.204389
-0.203056
-0.200707
-0.200459
-0.203540
-0.208325
-0.211938
-0.212799
-0.211949
-0.212190
-0.215783
-0.222632
-0.230460
-0.236740
-0.240674
-0.243619
-0.248022
-0.256127
-0.269146
-0.286927
-0.308145
-0.330525
-0.350564
-0.363323
-0.363460
-0.347531
-0.316452
-0.276490
-0.237277
-0.207276
-0.189896
-0.183450
-0.184502
-0.190805
-0.200836
-0.211131
-0.215769
-0.210302
-0.196717
-0.183585
-0.180151
-0.189485
-0.206317
-0.220452
-0.222660
-0.209578
-0.185629
-0.161518
-0.149798
-0.158629
-0.186533
-0.222261
-0.251195
-0.264108
-0.261885
-0.253340
-0.248344
-0.250877
-0.256220
-0.254529
-0.238664
-0.209574
-0.174066
-0.137853
-0.101630
-0.063504
-0.023282
0.017473
0.059673
0.109129
0.172804
0.252324
0.342176
0.435035
0.528472
0.625883
0.731344
0.844945
0.963948
1.087858
1.221281
1.371495
1.542676
1.730049
1.916335
2.072925
2.167933
2.179547
2.107554
1.975042
1.818997
1.676018
1.570280
1.506826
1.470526
1.430928
1.353066
1.212349
1.008262
0.769655
0.546883
0.393111
0.344141
0.407078
0.561236
0.765758
0.967055
1.106541
1.133715
1.023316
0.787208
0.473331
0.151837
-0.107737
-0.263296
-0.320101
-0.327856
-0.350044
-0.424079
-0.540675
-0.655018
-0.718770
-0.709343
-0.635325
-0.516338
-0.362499
-0.180759
0.000269
0.125981
0.151786
0.088542
0.006106
-0.017900
0.040103
0.136412
0.209495
0.242206
0.273460
0.353378
0.495489
0.671654
0.840800
0.973010
1.052251
1.073332
1.048758
1.016327
1.026308
1.106499
1.234851
1.352913
1.414453
1.422372
1.417042
1.433932
1.480187
1.549634
1.645455
1.774803
1.922938
2.045513
2.095331
2.058310
1.965909
1.877126
1.846261
1.896993
2.015062
2.157099
2.263777
2.275166
2.158375
1.941803
1.721968
1.616726
1.687592
1.892507
2.112683
2.235616
2.230043
2.156999
2.113375
2.157797
2.279409
2.428002
2.567793
2.701006
2.843990
2.986607
3.080449
3.072160
2.950260
2.757869
2.559993
2.398763
2.276039
2.172103
2.075457
1.994747
1.948969
1.952512
2.008352
2.109265
2.240238
2.378889
2.497601
2.571545
2.589823
2.561976
2.514811
2.480359
2.479883
2.511074
2.545662
2.541415
2.464461
2.308521
2.098145
1.874487
1.671704
1.495836
1.321956
1.119940
0.893547
0.694724
0.592467
0.622399
0.765092
0.971541
1.207306
1.471199
1.772578
2.095047
2.389806
2.609318
2.746766
2.842558
2.953640
3.111164
3.296991
3.453907
3.518343
3.449810
3.240610
2.907499
2.477307
1.978355
1.441874
0.908261
0.429985
0.065794
-0.137212
-0.171317
-0.087249
0.020958
0.066065
0.015821
-0.103375
-0.247556
-0.393128
-0.530251
-0.628614
-0.630004
-0.491201
-0.239228
0.021240
0.166598
0.133369
-0.048799
-0.294247
-0.530694
-0.738336
-0.930657
-1.110112
-1.253604
-1.341911
-1.395292
-1.470210
-1.611577
-1.802890
-1.966264
-2.018543
-1.932736
-1.749929
-1.538662
-1.345938
-1.179952
-1.025259
-0.866237
-0.703593
-0.560869
-0.475801
-0.477082
-0.563266
-0.700395
-0.838013
-0.932099
-0.963031
-0.940716
-0.896318
-0.867214
-0.882884
-0.955405
-1.075279
-1.214571
-1.340279
-1.434047
-1.503890
-1.575559
-1.667392
-1.767308
-1.832560
-1.817607
-1.709538
-1.540236
-1.366058
-1.235533
-1.168961
-1.154901
-1.158084
-1.136820
-1.064714
-0.941814
-0.786046
-0.615163
-0.437803
-0.260892
-0.103859
-0.004098
-0.004560
-0.126247
-0.341583
-0.571704
-0.718692
-0.715782
-0.562312
-0.322905
-0.095219
0.034705
0.026846
-0.105993
-0.318559
-0.561558
-0.797978
-1.003345
-1.161648
-1.268715
-1.339229
-1.401810
-1.478459
-1.567019
-1.644119
-1.681417
-1.657746
-1.565458
-1.419556
-1.264851
-1.162985
-1.155829
-1.233379
-1.340860
-1.424401
-1.474207
-1.525029
-1.616107
-1.752035
-1.900074
-2.016765
-2.068547
-2.029180
-1.873266
-1.588781
-1.200339
-0.775266
-0.399152
-0.134920
0.006354
0.064785
0.106771
0.192296
0.345640
0.540027
0.709881
0.791689
0.768751
0.683503
0.603554
0.569075
0.567671
0.555999
0.501430
0.402571
0.279131
0.154779
0.050752
-0.015962
-0.039300
-0.029801
-0.007690
0.014033
0.039047
0.078627
0.135003
0.198237
0.261943
0.339050
0.455407
0.622013
0.812573
0.973296
1.061253
1.075012
1.047097
1.009562
0.970008
0.917070
0.841264
0.747554
0.651370
0.567225
0.502543
0.459987
0.441300
0.445736
0.465460
0.485541
0.490936
0.475115
0.444032
0.413090
0.397255
0.398038
0.398249
0.372739
0.306693
0.204424
0.082422
-0.044795
-0.173410
-0.307887
-0.451725
-0.600628
-0.743261
-0.866436
-0.957663
-1.003661
-0.991939
-0.920862
-0.811640
-0.708715
-0.661692
-0.696493
-0.793738
-0.890970
-0.912973
-0.815465
-0.612782
-0.367606
-0.151406
-0.009043
0.047400
0.022832
-0.071667
-0.213196
-0.361917
-0.475654
-0.536966
-0.566141
-0.604214
-0.677179
-0.770933
-0.839358
-0.838988
-0.761625
-0.642340
-0.541471
-0.513857
-0.581311
-0.719843
-0.867698
-0.955042
-0.943842
-0.850798
-0.730828
-0.631599
-0.557916
-0.475349
-0.345423
-0.158432
0.061363
0.272885
0.435252
0.515241
0.495284
0.386709
0.232100
0.081597
-0.043108
-0.162810
-0.316048
-0.517373
-0.737982
-0.926111
-1.046216
-1.099240
-1.107661
-1.086912
-1.037647
-0.965336
-0.898169
-0.875110
-0.912257
-0.983351
-1.037017
-1.036426
-0.986539
-0.926104
-0.891638
-0.884439
-0.870486
-0.815820
-0.726408
-0.652373
-0.647536
-0.720786
-0.826223
-0.900514
-0.911024
-0.874272
-0.836438
-0.836371
-0.876670
-0.919681
-0.911579
-0.818545
-0.646335
-0.428228
-0.197586
0.027219
0.238715
0.431992
0.602145
0.742933
0.842962
0.885790
0.860268
0.775395
0.664485
0.570053
0.518621
0.505403
0.502087
0.481965
0.441775
0.403352
0.397482
0.447102
0.561759
0.738614
0.960799
1.196546
1.408277
1.567276
1.659583
1.682065
1.642272
1.566300
1.500617
1.495742
1.579249
1.737384
1.918302
2.055983
2.101936
2.046772
1.920335
1.772250
1.644804
1.553983
1.490351
1.436712
1.384244
1.333376
1.286466
1.245276
1.211769
1.184845
1.157189
1.121159
1.079454
1.045607
1.030127
1.027930
1.023613
1.008465
0.987300
0.969334
0.961011
0.971236
1.015161
1.102297
1.218348
1.323177
1.372902
1.349863
1.274724
1.189701
1.127553
1.091495
1.059369
1.006322
0.928281
0.848398
0.801328
0.808263
0.863211
0.939141
1.004521
1.036785
1.028367
0.986617
0.927899
0.867141
0.807827
0.737787
0.632661
0.464787
0.212530
-0.133788
-0.567244
-1.056494
-1.540417
-1.941725
-2.203767
-2.323854
-2.347993
-2.327128
-2.276030
-2.173799
-2.002708
-1.786864
-1.594989
-1.502600
-1.541643
-1.678524
-1.841789
-1.977566
-2.083597
-2.193446
-2.331799
-2.486853
-2.622379
-2.709976
-2.747523
-2.751613
-2.738981
-2.716661
-2.685891
-2.649716
-2.613505
-2.579981
-2.548069
-2.516990
-2.487651
-2.457325
-2.414065
-2.340083
-2.225532
-2.083081
-1.949648
-1.869992
-1.871280
-1.945353
-2.050395
-2.131811
-2.151055
-2.105412
-2.025563
-1.952870
-1.913872
-1.909594
-1.922870
-1.934903
-1.940672
-1.955474
-2.009024
-2.130672
-2.334237
-2.608480
-2.915365
-3.199800
-3.414332
-3.548896
-3.640692
-3.748688
-3.908696
-4.104697
-4.279689
-4.378159
-4.387686
-4.346875
-4.313110
-4.317679
-4.346238
-4.356910
-4.313061
-4.200329
-4.022058
-3.792213
-3.540777
-3.320514
-3.192178
-3.189028
-3.291921
-3.440517
-3.571753
-3.655333
-3.704174
-3.758934
-3.859424
-4.017185
-4.201458
-4.349125
-4.399184
-4.331809
-4.181548
-4.013631
-3.884192
-3.813800
-3.785858
-3.763399
-3.712088
-3.616931
-3.483248
-3.324105
-3.148648
-2.962695
-2.777017
-2.610496
-2.485372
-2.422926
-2.442584
-2.557376
-2.762231
-3.023756
-3.284385
-3.483807
-3.586460
-3.598730
-3.564103
-3.534841
-3.535146
-3.543786
-3.514593
-3.420098
-3.278933
-3.140799
-3.041196
-2.964125
-2.845245
-2.617247
-2.263604
-1.837234
-1.431640
-1.133046
-0.990672
-1.014913
-1.185987
-1.457955
-1.761930
-2.020403
-2.174529
-2.209159
-2.155227
-2.065688
-1.984028
-1.928655
-1.899453
-1.893489
-1.911950
-1.952460
-1.998149
-2.018447
-1.982952
-1.877214
-1.709292
-1.502944
-1.282547
-1.062129
-0.849476
-0.662262
-0.536464
-0.511064
-0.599694
-0.776543
-0.989096
-1.186218
-1.342461
-1.464001
-1.570436
-1.665249
-1.723997
-1.714906
-1.629623
-1.489912
-1.326682
-1.159383
-0.996598
-0.848197
-0.727856
-0.642958
-0.586908
-0.544694
-0.507400
-0.482205
-0.487790
-0.538864
-0.634869
-0.763107
-0.909695
-1.063844
-1.211967
-1.331921
-1.396828
-1.386310
-1.294582
-1.128393
-0.899748
-0.624326
-0.327643
-0.048036
0.174308
0.317195
0.386832
0.408387
0.407169
0.398784
0.392938
0.398860
0.420990
0.449592
0.459834
0.424106
0.329932
0.192700
0.055825
-0.023684
0.001764
0.151639
0.412968
0.748895
1.110894
1.448574
1.718084
1.892047
1.968821
1.973392
1.945447
1.922882
1.935874
2.012405
2.177359
2.436103
2.759816
3.092494
3.377347
3.583747
3.715069
3.791843
3.826386
3.811682
3.731259
3.576639
3.354959
3.084068
2.785153
2.479243
2.185777
1.922091
1.704756
1.550548
1.474343
1.485562
1.585226
1.763231
1.995904
2.245474
2.465465
2.616511
2.687277
2.702781
2.707369
2.732192
2.773681
2.800905
2.782957
2.709962
2.591039
2.438803
2.262826
2.078061
1.911818
1.795720
1.748310
1.762709
1.808708
1.848568
1.855741
1.823598
1.759633
1.672426
1.564354
1.436068
1.295185
1.158572
1.047633
0.983015
0.981190
1.049917
1.182534
1.357667
1.548121
1.731822
1.894155
2.021780
2.099842
2.121044
2.098703
2.066069
2.055263
2.071463
2.085739
2.052728
1.937592
1.734489
1.471153
1.201445
0.987765
0.876502
0.876161
0.953256
1.052909
1.132160
1.182643
1.226206
1.286552
1.358951
1.403473
1.368625
1.227094
0.997373
0.738728
0.525896
0.420016
0.450194
0.609402
0.859455
1.142392
1.400888
1.602606
1.750418
1.865950
1.959317
2.013898
2.000082
1.904837
1.754150
1.611739
1.549605
1.606684
1.766911
1.973854
2.169475
2.329836
2.475472
2.650638
2.885816
3.169662
3.449953
3.661495
3.759411
3.736146
3.618804
3.457397
3.310252
3.225269
3.221197
3.280156
3.356406
3.395999
3.359572
3.241223
3.073802
2.913101
2.806957
2.768282
2.770857
2.772665
2.751117
2.723277
2.733861
2.819288
2.976011
3.157389
3.299946
3.358558
3.325663
3.224538
3.089239
2.950861
2.834240
2.753636
2.701256
2.639750
2.514448
2.285105
1.956455
1.584348
1.251519
1.027472
0.936572
0.951910
1.014792
1.065452
1.068958
1.026511
0.970340
0.948205
1.006489
1.176403
1.462695
1.835656
2.232870
2.577350
2.808995
2.913314
2.928428
2.925097
2.972525
3.107803
3.319148
3.547267
3.707933
3.729711
3.586661
3.307611
2.962606
2.639830
2.421627
2.360805
2.461092
2.672320
2.909222
3.087707
3.156972
3.110314
2.975691
2.795794
2.606064
2.419616
2.229172
2.027779
1.832614
1.687843
1.639772
1.704490
1.853543
2.025712
2.156668
2.211347
2.199877
2.163713
2.141189
2.140998
2.143017
2.120327
2.064508
1.998558
1.966710
2.004195
2.108389
2.234670
2.319758
2.313085
2.197729
2.000375
1.792641
1.671110
1.708708
1.904101
2.172735
2.393858
2.479834
2.414936
2.239238
2.000914
1.722117
1.402308
1.043148
0.663850
0.296432
-0.026091
-0.276022
-0.434139
-0.497688
-0.489454
-0.453901
-0.439394
-0.485260
-0.623643
-0.878497
-1.244991
-1.667934
-2.054423
-2.324100
-2.459231
-2.512551
-2.563285
-2.652116
-2.745426
-2.761148
-2.639214
-2.396424
-2.115497
-1.880471
-1.722154
-1.620249
-1.544536
-1.482606
-1.430234
-1.369554
-1.271604
-1.125812
-0.962009
-0.835634
-0.788525
-0.823749
-0.912791
-1.018152
-1.108358
-1.162016
-1.169215
-1.133372
-1.070286
-1.000496
-0.935835
-0.869556
-0.780559
-0.650390
-0.479266
-0.287848
-0.104720
0.048949
0.168912
0.270690
0.385533
0.548439
0.781011
1.077286
1.401545
1.701527
1.931918
2.075613
2.148739
2.184527
2.206789
2.213653
2.186098
2.115271
2.024811
1.966998
1.993429
2.122768
2.330201
2.564065
2.773846
2.929767
3.026035
3.072225
3.082476
3.070402
3.049773
3.033659
3.027102
3.020127
2.993361
2.935417
2.854490
2.770271
2.693729
2.615882
2.516948
2.386775
2.238139
2.102347
2.009792
1.966515
1.942727
1.887033
1.762493
1.577983
1.386390
1.248646
1.194438
1.212290
1.271060
1.346172
1.425532
1.494480
1.519897
1.454273
1.262165
0.949248
0.568409
0.195766
-0.104999
-0.304452
-0.404150
-0.415961
-0.342659
-0.175694
0.088848
0.428986
0.788310
1.092548
1.284547
1.351384
1.321516
1.237417
1.129133
1.006177
0.864191
0.694556
0.492698
0.266559
0.042061
-0.142964
-0.257825
-0.297232
-0.282364
-0.243490
-0.199520
-0.151535
-0.092822
-0.022471
0.051059
0.117251
0.171315
0.215070
0.253853
0.293990
0.339880
0.390080
0.435653
0.461929
0.450762
0.382645
0.241703
0.022254
-0.269796
-0.621398
-1.012965
-1.409859
-1.756622
-1.990485
-2.071972
-2.009680
-1.858662
-1.694284
-1.581239
-1.554786
-1.617336
-1.744856
-1.897688
-2.032424
-2.112354
-2.114786
-2.034522
-1.883359
-1.684516
-1.460631
-1.219846
-0.952606
-0.647247
-0.312171
0.019229
0.306811
0.524923
