EVENT_NAME: L_AQUILA
EVENT_ID: IT-2009-0009
EVENT_DATE_YYYYMMDD: 20090406
EVENT_TIME_HHMMSS: 013240
EVENT_LATITUDE_DEGREE: 42.3420
EVENT_LONGITUDE_DEGREE: 13.3800
EVENT_DEPTH_KM: 8.3
HYPOCENTER_REFERENCE: INGV-CNT_Seismic_Bulletin
MAGNITUDE_W: 6.1
MAGNITUDE_W_REFERENCE: INGV-CNT_Seismic_Bulletin
MAGNITUDE_L: 
MAGNITUDE_L_REFERENCE: 
FOCAL_MECHANISM: Normal faulting
NETWORK: IT
STATION_CODE: GSA
STATION_NAME: 
STATION_LATITUDE_DEGREE: 42.420689
STATION_LONGITUDE_DEGREE: 13.519362
STATION_ELEVATION_M: 1062
LOCATION: 
SENSOR_DEPTH_M: 0.0
VS30_M/S: 492
SITE_CLASSIFICATION_EC8: B
MORPHOLOGIC_CLASSIFICATION: 
EPICENTRAL_DISTANCE_KM: 14.4
EARTHQUAKE_BACKAZIMUTH_DEGREE: 52.7
DATE_TIME_FIRST_SAMPLE_YYYYMMDD_HHMMSS: 20090406_013229.000
DATE_TIME_FIRST_SAMPLE_PRECISION: seconds
SAMPLING_INTERVAL_S: 0.005000
NDATA: 20020
DURATION_S: 100.100
STREAM: HNE
UNITS: cm/s
INSTRUMENT: sensor = FBA-3 [Kinemetrics] | digitizer = Etna [Kinemetrics]
INSTRUMENT_ANALOG/DIGITAL: D
INSTRUMENTAL_FREQUENCY_HZ: 216.000
INSTRUMENTAL_DAMPING: 0.700000
FULL_SCALE_G: 1.0
N_BIT_DIGITAL_CONVERTER: 18
PGV_CM/S: 9.784584
TIME_PGV_S: 19.975000
BASELINE_CORRECTION: BASELINE REMOVED
FILTER_TYPE: BUTTERWORTH
FILTER_ORDER: 2
LOW_CUT_FREQUENCY_HZ: 0.100
HIGH_CUT_FREQUENCY_HZ: 40.000
LATE/NORMAL_TRIGGERED: NT
DATABASE_VERSION: 0.5
HEADER_FORMAT: DYNA 1.2
DATA_TYPE: VELOCITY
PROCESSING: manual (Paolucci et al., 2011)
DATA_TIMESTAMP_YYYYMMDD_HHMMSS: 20211011_155739.600
DATA_LICENSE: CC-BY3_0-IT (http://creativecommons.org/licenses/by/3.0/deed.en)
DATA_CITATION: Luzi L, Pacor F, Puglia R (2019). Italian Accelerometric Archive v 3.0 - Istituto Nazionale di Geofisica e Vulcanologia, Dipartimento della Protezione Civile Nazionale. doi: 10.13127/itaca.3.1
DATA_CREATOR: ITACA working group
ORIGINAL_DATA_MEDIATOR_CITATION: data obtained within the DPC-INGV data exchange agreements
ORIGINAL_DATA_MEDIATOR: Archive of Italian Department of Civil Protection
ORIGINAL_DATA_CREATOR_CITATION: Presidency Of Counsil Of Ministers-Civil Protection Department. (1972). Italian Strong Motion Network. Presidency of Counsil of Ministers - Civil Protection Department. https://doi.org/10.7914/SN/IT http://www.fdsn.org/networks/detail/IT/
ORIGINAL_DATA_CREATOR: network: IT (Italian Strong Motion Network (RAN)); owner: Presidency of Counsil of Ministers - Civil Protection Department (PCM - DPC)
USER1: 
USER2: 
USER3: 
USER4: 
USER5: 
[...]
-0.263293
-0.264173
-0.265054
-0.265942
-0.266840
-0.267740
-0.268637
-0.269529
-0.270416
-0.271300
-0.272179
-0.273059
-0.273946
-0.274850
-0.275770
-0.276687
-0.277586
-0.278468
-0.279346
-0.280232
-0.281136
-0.282056
-0.282983
-0.283907
-0.284818
-0.285719
-0.286616
-0.287516
-0.288419
-0.289331
-0.290260
-0.291202
-0.292146
-0.293079
-0.294000
-0.294913
-0.295829
-0.296749
-0.297675
-0.298613
-0.299560
-0.300508
-0.301452
-0.302392
-0.303328
-0.304264
-0.305207
-0.306154
-0.307098
-0.308040
-0.308986
-0.309935
-0.310884
-0.311837
-0.312802
-0.313767
-0.314726
-0.315679
-0.316629
-0.317583
-0.318544
-0.319505
-0.320461
-0.321417
-0.322385
-0.323361
-0.324330
-0.325286
-0.326243
-0.327208
-0.328181
-0.329155
-0.330128
-0.331102
-0.332079
-0.333059
-0.334042
-0.335025
-0.336008
-0.336995
-0.337987
-0.338980
-0.339969
-0.340952
-0.341936
-0.342920
-0.343895
-0.344858
-0.345821
-0.346796
-0.347775
-0.348751
-0.349730
-0.350727
-0.351745
-0.352772
-0.353795
-0.354805
-0.355800
-0.356781
-0.357761
-0.358756
-0.359768
-0.360786
-0.361804
-0.362825
-0.363849
-0.364866
-0.365868
-0.366861
-0.367859
-0.368870
-0.369889
-0.370912
-0.371933
-0.372948
-0.373952
-0.374953
-0.375964
-0.376985
-0.378011
-0.379035
-0.380059
-0.381082
-0.382104
-0.383129
-0.384160
-0.385194
-0.386226
-0.387256
-0.388286
-0.389316
-0.390345
-0.391371
-0.392395
-0.393420
-0.394448
-0.395476
-0.396502
-0.397526
-0.398551
-0.399582
-0.400615
-0.401648
-0.402686
-0.403734
-0.404779
-0.405806
-0.406816
-0.407823
-0.408833
-0.409847
-0.410865
-0.411890
-0.412926
-0.413974
-0.415028
-0.416074
-0.417108
-0.418138
-0.419174
-0.420218
-0.421264
-0.422311
-0.423360
-0.424416
-0.425475
-0.426531
-0.427583
-0.428640
-0.429704
-0.430767
-0.431822
-0.432872
-0.433920
-0.434960
-0.435987
-0.437007
-0.438037
-0.439086
-0.440140
-0.441179
-0.442208
-0.443246
-0.444304
-0.445375
-0.446442
-0.447496
-0.448544
-0.449594
-0.450653
-0.451724
-0.452807
-0.453897
-0.454980
-0.456041
-0.457077
-0.458100
-0.459128
-0.460166
-0.461215
-0.462274
-0.463341
-0.464411
-0.465480
-0.466545
-0.467603
-0.468651
-0.469697
-0.470749
-0.471815
-0.472889
-0.473959
-0.475013
-0.476052
-0.477087
-0.478133
-0.479196
-0.480272
-0.481354
-0.482435
-0.483501
-0.484548
-0.485584
-0.486617
-0.487651
-0.488689
-0.489735
-0.490793
-0.491856
-0.492912
-0.493957
-0.495001
-0.496060
-0.497132
-0.498202
-0.499259
-0.500303
-0.501338
-0.502374
-0.503417
-0.504463
-0.505516
-0.506583
-0.507669
-0.508771
-0.509889
-0.511023
-0.512157
-0.513243
-0.514174
-0.514790
-0.514938
-0.514571
-0.513807
-0.512875
-0.511969
-0.511125
-0.510222
-0.509116
-0.507797
-0.506427
-0.505258
-0.504502
-0.504271
-0.504570
-0.505288
-0.506218
-0.507164
-0.507997
-0.508558
-0.508646
-0.508256
-0.507810
-0.507967
-0.509090
-0.510811
-0.512094
-0.511907
-0.510098
-0.507638
-0.505890
-0.505615
-0.506669
-0.508508
-0.510850
-0.513942
-0.518280
-0.523935
-0.530125
-0.535599
-0.539600
-0.542374
-0.544689
-0.546922
-0.548548
-0.548282
-0.544859
-0.538290
-0.530640
-0.525027
-0.523216
-0.524184
-0.525295
-0.524887
-0.523711
-0.524061
-0.527598
-0.533754
-0.540030
-0.544018
-0.545368
-0.545696
-0.546547
-0.547771
-0.548065
-0.546765
-0.544722
-0.543503
-0.543931
-0.545242
-0.545466
-0.543001
-0.538387
-0.534647
-0.535808
-0.544975
-0.563012
-0.587814
-0.614578
-0.637852
-0.654357
-0.664032
-0.668256
-0.667348
-0.660328
-0.647158
-0.630589
-0.615102
-0.603825
-0.596727
-0.592043
-0.589281
-0.590303
-0.597133
-0.609092
-0.622956
-0.636140
-0.648840
-0.662170
-0.674479
-0.680407
-0.673923
-0.652384
-0.618467
-0.579583
-0.546018
-0.528158
-0.532197
-0.555499
-0.585740
-0.606817
-0.608563
-0.593267
-0.574275
-0.567594
-0.581662
-0.611798
-0.643473
-0.662157
-0.661919
-0.646345
-0.622932
-0.597847
-0.575460
-0.560192
-0.555902
-0.562696
-0.575526
-0.587387
-0.594023
-0.594539
-0.587328
-0.567281
-0.529053
-0.473352
-0.409285
-0.349903
-0.304389
-0.272430
-0.243931
-0.203648
-0.138338
-0.043942
0.070468
0.185682
0.282231
0.350944
0.396435
0.431504
0.467928
0.510423
0.555914
0.596124
0.621088
0.622191
0.594532
0.539510
0.467396
0.396249
0.344761
0.323876
0.334346
0.370537
0.424252
0.484314
0.535110
0.559695
0.546811
0.495372
0.412833
0.310006
0.195685
0.071366
-0.073129
-0.257524
-0.496419
-0.776127
-1.041419
-1.212451
-1.229250
-1.091737
-0.861858
-0.625200
-0.443861
-0.337249
-0.297472
-0.311744
-0.363736
-0.421253
-0.442400
-0.408518
-0.350515
-0.332877
-0.400755
-0.535230
-0.659980
-0.695253
-0.609320
-0.426170
-0.196951
0.028471
0.211007
0.324948
0.366989
0.362387
0.352114
0.364951
0.397801
0.422620
0.415051
0.379456
0.346346
0.344479
0.377143
0.426439
0.476550
0.528007
0.589603
0.662480
0.736548
0.798725
0.839215
0.851376
0.830603
0.775943
0.693923
0.600588
0.515906
0.452743
0.414087
0.405598
0.448669
0.571737
0.778078
1.017114
1.194275
1.227496
1.111882
0.933271
0.810639
0.814017
0.927213
1.080714
1.215682
1.318434
1.405338
1.490312
1.572427
1.647461
1.722019
1.811127
1.919247
2.023196
2.077373
2.041670
1.908337
1.705160
1.479573
1.283780
1.166076
1.157786
1.255768
1.419321
1.593456
1.740864
1.853622
1.939605
2.003810
2.041493
2.043459
2.006470
1.940288
1.864034
1.794233
1.736703
1.690068
1.652981
1.620977
1.573862
1.472882
1.284784
1.023279
0.767540
0.623877
0.651882
0.820330
1.032946
1.197047
1.274939
1.286293
1.276018
1.281041
1.316803
1.380654
1.459545
1.536988
1.599551
1.641066
1.663399
1.675081
1.688502
1.715648
1.763856
1.834219
1.923548
2.028050
2.147017
2.284872
2.448538
2.639636
2.845092
3.029929
3.139352
3.120100
2.954390
2.675559
2.343373
2.000904
1.660213
1.332053
1.059195
0.904915
0.902477
1.019353
1.172010
1.274532
1.280718
1.193206
1.039828
0.842007
0.605689
0.338800
0.067239
-0.175185
-0.372543
-0.534985
-0.674544
-0.774339
-0.789903
-0.686854
-0.476427
-0.210910
0.054698
0.293151
0.500870
0.675602
0.806665
0.882075
0.894775
0.842080
0.728532
0.572783
0.406012
0.259604
0.154786
0.101533
0.101219
0.147442
0.227054
0.323780
0.421498
0.505090
0.560243
0.572563
0.528378
0.422456
0.267675
0.092431
-0.074978
-0.218137
-0.329261
-0.398834
-0.413512
-0.365590
-0.261551
-0.118091
0.050913
0.243128
0.463289
0.709356
0.962515
1.190331
1.358319
1.440814
1.430869
1.347136
1.226789
1.106468
1.012003
0.965355
0.991559
1.110237
1.318009
1.577384
1.821498
1.977253
2.001098
1.906718
1.757615
1.622224
1.529315
1.463557
1.395295
1.306111
1.191249
1.053907
0.907604
0.779485
0.699486
0.680553
0.712725
0.779141
0.873126
0.992966
1.119411
1.206228
1.204577
1.103267
0.942300
0.781683
0.656693
0.563099
0.479335
0.396503
0.327537
0.294348
0.314169
0.399595
0.562876
0.807875
1.113420
1.429894
1.698623
1.877838
1.956014
1.951556
1.907043
1.877824
1.909028
2.007425
2.131290
2.215289
2.216381
2.142551
2.039853
1.954429
1.907798
1.901041
1.928742
1.980992
2.038728
2.080785
2.099926
2.105613
2.108120
2.106025
2.094644
2.083732
2.098636
2.157644
2.248558
2.333047
2.378981
2.389285
2.396206
2.423915
2.455622
2.439139
2.327706
2.117878
1.851211
1.584521
1.360030
1.195860
1.090401
1.027624
0.984042
0.941185
0.897090
0.868864
0.885968
0.976913
1.153510
1.401223
1.682960
1.954845
2.184246
2.359038
2.483167
2.562055
2.589862
2.553262
2.451316
2.309819
2.172638
2.078460
2.044525
2.067116
2.131258
2.218071
2.305230
2.363811
2.360273
2.269539
2.092017
1.859144
1.620049
1.417530
1.270862
1.177405
1.128666
1.125041
1.176151
1.286840
1.441517
1.601127
1.717032
1.752311
1.694357
1.552294
1.349131
1.119433
0.907832
0.757848
0.693950
0.711485
0.783729
0.880940
0.986169
1.096684
1.215876
1.348192
1.499010
1.670660
1.852806
2.020015
2.146938
2.229732
2.289250
2.349452
2.413780
2.464199
2.481000
2.462152
2.425395
2.392768
2.372972
2.357207
2.326186
2.256558
2.126040
1.924252
1.667168
1.400743
1.181338
1.042417
0.977277
0.955784
0.956647
0.981870
1.044795
1.150868
1.291240
1.452891
1.632952
1.839799
2.075325
2.314247
2.505320
2.601640
2.597130
2.535202
2.478287
2.462259
2.473559
2.466302
2.401225
2.271715
2.097987
1.900670
1.681964
1.431886
1.149377
0.853373
0.572820
0.327522
0.119079
-0.059913
-0.207862
-0.305530
-0.325767
-0.252866
-0.095298
0.115967
0.339077
0.533662
0.668940
0.729862
0.724771
0.688745
0.671461
0.711647
0.816699
0.962825
1.113778
1.243611
1.347783
1.436349
1.517557
1.588870
1.645504
1.695945
1.762736
1.863632
1.992550
2.120443
2.214684
2.258352
2.255046
2.220129
2.166586
2.092767
1.979750
1.803401
1.554388
1.249592
0.924958
0.616410
0.343474
0.104381
-0.116552
-0.332101
-0.534301
-0.689727
-0.754822
-0.700658
-0.528312
-0.266240
0.043657
0.358822
0.641426
0.860463
0.996837
1.049577
1.035188
0.978536
0.904340
0.834848
0.786542
0.760797
0.739467
0.697117
0.622237
0.527428
0.439178
0.380125
0.362023
0.388976
0.457314
0.548960
0.631157
0.671810
0.659495
0.608578
0.544495
0.482758
0.417798
0.327496
0.188985
-0.003756
-0.231351
-0.457316
-0.649478
-0.796707
-0.906292
-0.988086
-1.042970
-1.063768
-1.044266
-0.988672
-0.915515
-0.853826
-0.835064
-0.885512
-1.019302
-1.230994
-1.491924
-1.756095
-1.974602
-2.110813
-2.149589
-2.100148
-1.994595
-1.879860
-1.799455
-1.770535
-1.772540
-1.761443
-1.704691
-1.610123
-1.521497
-1.481777
-1.495815
-1.525747
-1.523700
-1.471360
-1.389056
-1.309687
-1.248891
-1.199718
-1.147023
-1.080102
-0.995752
-0.899355
-0.808026
-0.748964
-0.747341
-0.810351
-0.920355
-1.042863
-1.143433
-1.202019
-1.216818
-1.198034
-1.158737
-1.111102
-1.070349
-1.059666
-1.107077
-1.233013
-1.437260
-1.695313
-1.966585
-2.209903
-2.399822
-2.535674
-2.636521
-2.725521
-2.816146
-2.908636
-2.995235
-3.067881
-3.123684
-3.167546
-3.213095
-3.281640
-3.396331
-3.568922
-3.784901
-4.003520
-4.181063
-4.298558
-4.367086
-4.408203
-4.430037
-4.419759
-4.357351
-4.236583
-4.072984
-3.892192
-3.710642
-3.525609
-3.321833
-3.088281
-2.830542
-2.568234
-2.322650
-2.110593
-1.949376
-1.860631
-1.861932
-1.952243
-2.106866
-2.289012
-2.470261
-2.646329
-2.838684
-3.080109
-3.391763
-3.766261
-4.168648
-4.555761
-4.901560
-5.209774
-5.503480
-5.800668
-6.096333
-6.365169
-6.582848
-6.748570
-6.889519
-7.043474
-7.234830
-7.464479
-7.719679
-7.989867
-8.271025
-8.557106
-8.831201
-9.066225
-9.232763
-9.306641
-9.272330
-9.122793
-8.859688
-8.497602
-8.070004
-7.629084
-7.233642
-6.927614
-6.718557
-6.568751
-6.409584
-6.175242
-5.834744
-5.403245
-4.928438
-4.461368
-4.033145
-3.655507
-3.337480
-3.095028
-2.942723
-2.877801
-2.876015
-2.905531
-2.945880
-2.996402
-3.070876
-3.186667
-3.357525
-3.590317
-3.879732
-4.201963
-4.518733
-4.795256
-5.015726
-5.179831
-5.286719
-5.324731
-5.275604
-5.129521
-4.901000
-4.632820
-4.380214
-4.184822
-4.060920
-4.004247
-4.010251
-4.083144
-4.229335
-4.441495
-4.686352
-4.909192
-5.056304
-5.098790
-5.038341
-4.894099
-4.685025
-4.419814
-4.099976
-3.735012
-3.354287
-2.997507
-2.691238
-2.439896
-2.240089
-2.094852
-2.007191
-1.962954
-1.926955
-1.860182
-1.743941
-1.590714
-1.434287
-1.310896
-1.248227
-1.263514
-1.359913
-1.520231
-1.709889
-1.893674
-2.052884
-2.186613
-2.298602
-2.387139
-2.450630
-2.501998
-2.573426
-2.701715
-2.902743
-3.154036
-3.401263
-3.587096
-3.679783
-3.678091
-3.594569
-3.439804
-3.221763
-2.951848
-2.643818
-2.306035
-1.937997
-1.535754
-1.100778
-0.646588
-0.201171
0.196123
0.501643
0.672529
0.669323
0.464957
0.062947
-0.488283
-1.100120
-1.668696
-2.106448
-2.362051
-2.421334
-2.297818
-2.024638
-1.649809
-1.228513
-0.810613
-0.430606
-0.106605
0.151850
0.333300
0.419819
0.392585
0.244322
-0.009115
-0.326090
-0.648868
-0.920584
-1.100915
-1.174034
-1.145012
-1.027546
-0.833885
-0.574181
-0.259939
0.096824
0.486626
0.898995
1.311574
1.684276
1.970859
2.141580
2.194825
2.146484
2.012561
1.807804
1.561331
1.328611
1.181305
1.176066
1.323100
1.579199
1.872139
2.137830
2.342261
2.476566
2.538314
2.519975
2.413024
2.221977
1.977729
1.739280
1.576859
1.542042
1.644149
1.851281
2.114687
2.395400
2.673054
2.935199
3.163393
3.334377
3.436326
3.481745
3.501950
3.526487
3.564464
3.602168
3.616379
3.591020
3.525389
3.431236
3.324010
3.215981
3.114655
3.023925
2.947100
2.893254
2.882402
2.941699
3.091831
3.331513
3.629519
3.929216
4.165533
4.287503
4.273762
4.133852
3.901626
3.630706
3.391340
3.259651
3.296203
3.524153
3.922754
4.441004
5.018131
5.593203
6.102699
6.483762
6.696090
6.748604
6.702118
6.638570
6.619736
6.667032
6.771969
6.921492
7.116496
7.371352
7.697233
8.083865
8.493454
8.872286
9.176603
9.395670
9.550390
9.667039
9.751111
9.784584
9.745519
9.631347
9.469644
9.310522
9.204658
9.181032
9.238978
9.355326
9.494988
9.615991
9.671480
9.615861
9.416923
9.069809
8.603484
8.070234
7.520782
6.981643
6.450861
5.913842
5.366973
4.831899
4.348758
3.952115
3.649265
3.420111
3.239155
3.098602
3.009636
2.982928
3.011585
3.072957
3.142196
3.200715
3.232903
3.217750
3.126835
2.933700
2.628045
2.224378
1.759732
1.281170
0.829170
0.427478
0.086067
-0.189206
-0.392618
-0.523020
-0.588239
-0.601415
-0.570828
-0.494411
-0.369219
-0.209812
-0.055960
0.040793
0.042421
-0.054632
-0.213290
-0.368209
-0.453271
-0.430886
-0.305680
-0.114566
0.098303
0.303802
0.496522
0.692622
0.920950
1.206062
1.545539
1.894267
2.171921
2.297773
2.235312
2.018148
1.737968
1.501115
1.385274
1.423378
1.611811
1.923748
2.319561
2.758127
3.207347
3.643589
4.037799
4.341724
4.489648
4.418561
4.097303
3.549639
2.855433
2.122367
1.441180
0.852291
0.343982
-0.119392
-0.559553
-0.961827
-1.280669
-1.466420
-1.493843
-1.374411
-1.149084
-0.872360
-0.597057
-0.359766
-0.169454
-0.012770
0.119663
0.209461
0.218852
0.129968
-0.021202
-0.152009
-0.179484
-0.066342
0.170462
0.488205
0.852439
1.248312
1.669156
2.103151
2.530076
2.919114
3.220090
3.363143
3.286188
2.977784
2.494774
1.933722
1.383344
0.900053
0.514112
0.240728
0.076991
-0.007254
-0.062890
-0.132094
-0.216989
-0.278748
-0.276742
-0.215655
-0.153612
-0.160722
-0.267009
-0.446881
-0.647668
-0.827451
-0.966660
-1.053125
-1.067088
-0.984830
-0.794309
-0.505224
-0.146190
0.244151
0.623101
0.946091
1.171121
1.269051
1.234719
1.089301
0.870407
0.617684
0.364636
0.136834
-0.052358
-0.209126
-0.357338
-0.520876
-0.703173
-0.884760
-1.041390
-1.161427
-1.244826
-1.291204
-1.295693
-1.258244
-1.196766
-1.151584
-1.173227
-1.295687
-1.510255
-1.758320
-1.951446
-2.010015
-1.896752
-1.623307
-1.229372
-0.754436
-0.224068
0.343814
0.923859
1.473274
1.934510
2.250137
2.381779
2.322235
2.095696
1.750158
1.348230
0.956074
0.627058
0.385295
0.222825
0.114406
0.035965
-0.028705
-0.095046
-0.187855
-0.340617
-0.579674
-0.904644
-1.284326
-1.675410
-2.048478
-2.398169
-2.730111
-3.037228
-3.286102
-3.427105
-3.422331
-3.269802
-3.007899
-2.701896
-2.424516
-2.239339
-2.189099
-2.288808
-2.524299
-2.854799
-3.216526
-3.529132
-3.712542
-3.713695
-3.526539
-3.188635
-2.757056
-2.282769
-1.800358
-1.334245
-0.909756
-0.556324
-0.298095
-0.138333
-0.052367
0.000089
0.051432
0.112239
0.175166
0.226354
0.254494
0.258017
0.249525
0.250992
0.279230
0.330446
0.375696
0.373669
0.293720
0.133048
-0.084112
-0.324771
-0.569299
-0.820676
-1.094801
-1.401663
-1.734219
-2.074384
-2.410958
-2.753765
-3.130073
-3.564725
-4.060319
-4.592384
-5.119412
-5.595764
-5.979240
-6.236346
-6.349782
-6.324801
-6.186458
-5.965731
-5.685072
-5.357453
-4.999124
-4.641658
-4.331371
-4.116736
-4.030959
-4.076002
-4.214726
-4.379526
-4.498140
-4.520960
-4.431534
-4.240032
-3.971893
-3.658838
-3.332567
-3.020832
-2.745656
-2.521260
-2.349871
-2.218137
-2.097570
-1.949866
-1.738695
-1.447235
-1.091518
-0.717440
-0.381619
-0.126705
0.037784
0.138997
0.223877
0.330494
0.466862
0.611572
0.731375
0.798639
0.797230
0.716906
0.544693
0.264270
-0.132294
-0.627902
-1.173327
-1.700174
-2.149972
-2.501159
-2.776799
-3.030027
-3.316594
-3.669941
-4.092926
-4.567902
-5.072292
-5.586081
-6.087812
-6.545105
-6.911054
-7.134645
-7.180198
-7.041524
-6.740763
-6.313868
-5.794789
-5.209887
-4.581952
-3.934729
-3.293872
-2.686230
-2.137108
-1.662856
-1.260843
-0.905631
-0.558470
-0.185452
0.228344
0.675227
1.128230
1.546816
1.885113
2.103965
2.185505
2.146140
2.039951
1.943799
1.926887
2.023068
2.223281
2.487683
2.764945
3.008577
3.185669
3.276889
3.271329
3.162674
2.950574
2.645748
2.272682
1.863991
1.448198
1.040592
0.645518
0.268262
-0.073968
-0.351503
-0.532996
-0.599333
-0.550896
-0.406113
-0.196378
0.038359
0.253893
0.409653
0.482390
0.480756
0.448576
0.447724
0.527687
0.703032
0.954647
1.250586
1.568541
1.904992
2.268935
2.668526
3.099614
3.539488
3.946313
4.266424
4.450766
4.475774
4.359215
4.161253
3.966025
3.851557
3.865326
4.017370
4.288987
4.646307
5.049551
5.455200
5.814871
6.078397
6.204042
6.169447
5.975778
5.645029
5.213865
4.725629
4.222387
3.740353
3.310785
2.963222
2.723022
2.600067
2.576733
2.608262
2.640865
2.635961
2.581850
2.487119
2.367036
2.237418
2.118102
2.033851
2.002256
2.015594
2.034913
2.004767
1.879512
1.645221
1.325935
0.972788
0.642626
0.377430
0.195313
0.093941
0.058125
0.065947
0.093337
0.117141
0.116624
0.075553
-0.014765
-0.153886
-0.331437
-0.525993
-0.709092
-0.859165
-0.977722
-1.093030
-1.244895
-1.459222
-1.729550
-2.018746
-2.279269
-2.475670
-2.593677
-2.635406
-2.611512
-2.538017
-2.435975
-2.328796
-2.236219
-2.168782
-2.128277
-2.115870
-2.140625
-2.216960
-2.349755
-2.521609
-2.697909
-2.847313
-2.957964
-3.034548
-3.081922
-3.094639
-3.063726
-2.991530
-2.898135
-2.814625
-2.770647
-2.784370
-2.857154
-2.972960
-3.103526
-3.218398
-3.294908
-3.322650
-3.301366
-3.236423
-3.135763
-3.007488
-2.856484
-2.681444
-2.475551
-2.232157
-1.951212
-1.640409
-1.310782
-0.972697
-0.637109
-0.319517
-0.039974
0.183241
0.342458
0.446045
0.515869
0.577172
0.647916
0.735730
0.842611
0.969364
1.114355
1.270339
1.425700
1.569623
1.695125
1.796612
1.865098
1.886577
1.845766
1.731728
1.539994
1.270937
0.930114
0.534223
0.116513
-0.279610
-0.620030
