EVENT_NAME: L_AQUILA
EVENT_ID: IT-2009-0009
EVENT_DATE_YYYYMMDD: 20090406
EVENT_TIME_HHMMSS: 013240
EVENT_LATITUDE_DEGREE: 42.3420
EVENT_LONGITUDE_DEGREE: 13.3800
EVENT_DEPTH_KM: 8.3
HYPOCENTER_REFERENCE: INGV-CNT_Seismic_Bulletin
MAGNITUDE_W: 6.1
MAGNITUDE_W_REFERENCE: INGV-CNT_Seismic_Bulletin
MAGNITUDE_L: 
MAGNITUDE_L_REFERENCE: 
FOCAL_MECHANISM: Normal faulting
NETWORK: IT
STATION_CODE: GSA
STATION_NAME: 
STATION_LATITUDE_DEGREE: 42.420689
STATION_LONGITUDE_DEGREE: 13.519362
STATION_ELEVATION_M: 1062
LOCATION: 
SENSOR_DEPTH_M: 0.0
VS30_M/S: 492
SITE_CLASSIFICATION_EC8: B
MORPHOLOGIC_CLASSIFICATION: 
EPICENTRAL_DISTANCE_KM: 14.4
EARTHQUAKE_BACKAZIMUTH_DEGREE: 52.7
DATE_TIME_FIRST_SAMPLE_YYYYMMDD_HHMMSS: 
DATE_TIME_FIRST_SAMPLE_PRECISION: 
SAMPLING_INTERVAL_S: 
NDATA: 105
DURATION_S: 
STREAM: HNZ
UNITS: cm
INSTRUMENT: sensor = FBA-3 [Kinemetrics] | digitizer = Etna [Kinemetrics]
INSTRUMENT_ANALOG/DIGITAL: D
INSTRUMENTAL_FREQUENCY_HZ: 208.000
INSTRUMENTAL_DAMPING: 0.700000
FULL_SCALE_G: 1.0
N_BIT_DIGITAL_CONVERTER: 18
PGD_CM: -1.792147
TIME_PGD_S: 
BASELINE_CORRECTION: BASELINE REMOVED
FILTER_TYPE: BUTTERWORTH
FILTER_ORDER: 2
LOW_CUT_FREQUENCY_HZ: 0.100
HIGH_CUT_FREQUENCY_HZ: 40.000
LATE/NORMAL_TRIGGERED: NT
DATABASE_VERSION: 0.5
HEADER_FORMAT: DYNA 1.2
DATA_TYPE: DISPLACEMENT RESPONSE SPECTRUM
PROCESSING: manual (Paolucci et al., 2011)
DATA_TIMESTAMP_YYYYMMDD_HHMMSS: 20211011_155741.681
DATA_LICENSE: CC-BY3_0-IT (http://creativecommons.org/licenses/by/3.0/deed.en)
DATA_CITATION: Luzi L, Pacor F, Puglia R (2019). Italian Accelerometric Archive v 3.0 - Istituto Nazionale di Geofisica e Vulcanologia, Dipartimento della Protezione Civile Nazionale. doi: 10.13127/itaca.3.1
DATA_CREATOR: ITACA working group
ORIGINAL_DATA_MEDIATOR_CITATION: data obtained within the DPC-INGV data exchange agreements
ORIGINAL_DATA_MEDIATOR: Archive of Italian Department of Civil Protection
ORIGINAL_DATA_CREATOR_CITATION: Presidency Of Counsil Of Ministers-Civil Protection Department. (1972). Italian Strong Motion Network. Presidency of Counsil of Ministers - Civil Protection Department. https://doi.org/10.7914/SN/IT http://www.fdsn.org/networks/detail/IT/
ORIGINAL_DATA_CREATOR: network: IT (Italian Strong Motion Network (RAN)); owner: Presidency of Counsil of Ministers - Civil Protection Department (PCM - DPC)
USER1: 
USER2: 
USER3: 
USER4: 
USER5: 
    0.010000     0.000275
    0.020000     0.001126
    0.022000     0.001375
    0.025000     0.001793
    0.029000     0.002854
    0.030000     0.003274
    0.032000     0.003936
    0.035001     0.005175
    0.036000     0.005668
    0.040000     0.008928
    0.041999     0.010450
    0.044001     0.013029
    0.045000     0.014707
    0.046000     0.015661
    0.048001     0.017265
    0.050000     0.019188
    0.054999     0.020061
    0.059999     0.024895
    0.064998     0.034154
    0.067002     0.034663
    0.069999     0.029582
    0.075002     0.039649
    0.080000     0.040788
    0.084998     0.046296
    0.090001     0.054004
    0.095003     0.059456
    0.100000     0.059848
    0.109999     0.070863
    0.120005     0.099421
    0.130005     0.137119
    0.132996     0.136964
    0.139997     0.127902
    0.149993     0.157701
    0.160000     0.181017
    0.170010     0.148967
    0.179986     0.178949
    0.190006     0.178811
    0.200000     0.164468
    0.220022     0.185870
    0.239981     0.204949
    0.250000     0.253911
    0.260010     0.306726
    0.280034     0.367483
    0.290023     0.357675
    0.300030     0.372761
    0.320000     0.425538
    0.340020     0.361384
    0.350017     0.384005
    0.359971     0.382241
    0.379939     0.323956
    0.400000     0.314821
    0.419992     0.378833
    0.439947     0.568859
    0.450045     0.629765
    0.459982     0.625853
    0.480077     0.731304
    0.500000     0.769951
    0.550055     0.645375
    0.599880     0.814963
    0.650195     0.774488
    0.667111     0.760986
    0.699790     0.754714
    0.750188     0.929125
    0.800000     1.107139
    0.850340     0.946698
    0.900090     1.098693
    0.949668     1.183465
    1.000000     1.325025
    1.100110     1.366309
    1.200480     1.198073
    1.300390     1.080809
    1.400560     1.108400
    1.499250     1.515292
    1.600000     2.051031
    1.700680     2.476558
    1.798561     2.772358
    1.901141     2.860485
    2.000000     3.130155
    2.197802     2.865601
    2.398082     2.256124
    2.500000     2.242418
    2.597403     2.132634
    2.801121     2.097271
    3.003003     2.251434
    3.205128     2.561596
    3.401361     2.941975
    3.496503     3.135149
    3.597122     3.320381
    3.802281     3.630086
    4.000000     3.820842
    4.201681     4.362858
    4.405286     4.660602
    4.608295     4.594506
    4.807692     4.563663
    5.000000     4.333925
    5.494505     4.177295
    5.988024     3.368140
    6.493506     3.049870
    6.993007     2.625365
    7.518797     2.470944
    8.000000     2.407571
    8.474576     2.330443
    9.009009     2.250247
    9.523809     2.173247
   10.000000     2.102751
