EVENT_NAME: L_AQUILA
EVENT_ID: IT-2009-0009
EVENT_DATE_YYYYMMDD: 20090406
EVENT_TIME_HHMMSS: 013240
EVENT_LATITUDE_DEGREE: 42.3420
EVENT_LONGITUDE_DEGREE: 13.3800
EVENT_DEPTH_KM: 8.3
HYPOCENTER_REFERENCE: INGV-CNT_Seismic_Bulletin
MAGNITUDE_W: 6.1
MAGNITUDE_W_REFERENCE: INGV-CNT_Seismic_Bulletin
MAGNITUDE_L: 
MAGNITUDE_L_REFERENCE: 
FOCAL_MECHANISM: Normal faulting
NETWORK: IT
STATION_CODE: GSA
STATION_NAME: 
STATION_LATITUDE_DEGREE: 42.420689
STATION_LONGITUDE_DEGREE: 13.519362
STATION_ELEVATION_M: 1062
LOCATION: 
SENSOR_DEPTH_M: 0.0
VS30_M/S: 492
SITE_CLASSIFICATION_EC8: B
MORPHOLOGIC_CLASSIFICATION: 
EPICENTRAL_DISTANCE_KM: 14.4
EARTHQUAKE_BACKAZIMUTH_DEGREE: 52.7
DATE_TIME_FIRST_SAMPLE_YYYYMMDD_HHMMSS: 20090406_013229.000
DATE_TIME_FIRST_SAMPLE_PRECISION: seconds
SAMPLING_INTERVAL_S: 0.005000
NDATA: 33320
DURATION_S: 166.600
STREAM: HNN
UNITS: cm/s^2
INSTRUMENT: sensor = FBA-3 [Kinemetrics] | digitizer = Etna [Kinemetrics]
INSTRUMENT_ANALOG/DIGITAL: D
INSTRUMENTAL_FREQUENCY_HZ: 216.000
INSTRUMENTAL_DAMPING: 0.700000
FULL_SCALE_G: 1.0
N_BIT_DIGITAL_CONVERTER: 18
PGA_CM/S^2: -142.426697
TIME_PGA_S: 23.620000
BASELINE_CORRECTION: BASELINE NOT REMOVED
FILTER_TYPE: 
FILTER_ORDER: 
LOW_CUT_FREQUENCY_HZ: 
HIGH_CUT_FREQUENCY_HZ: 
LATE/NORMAL_TRIGGERED: NT
DATABASE_VERSION: 0.5
HEADER_FORMAT: DYNA 1.2
DATA_TYPE: ACCELERATION
PROCESSING: converted to cm/s^2
DATA_TIMESTAMP_YYYYMMDD_HHMMSS: 20211011_155739.738
DATA_LICENSE: CC-BY3_0-IT (http://creativecommons.org/licenses/by/3.0/deed.en)
DATA_CITATION: Luzi L, Pacor F, Puglia R (2019). Italian Accelerometric Archive v 3.0 - Istituto Nazionale di Geofisica e Vulcanologia, Dipartimento della Protezione Civile Nazionale. doi: 10.13127/itaca.3.1
DATA_CREATOR: ITACA working group
ORIGINAL_DATA_MEDIATOR_CITATION: data obtained within the DPC-INGV data exchange agreements
ORIGINAL_DATA_MEDIATOR: Archive of Italian Department of Civil Protection
ORIGINAL_DATA_CREATOR_CITATION: Presidency Of Counsil Of Ministers-Civil Protection Department. (1972). Italian Strong Motion Network. Presidency of Counsil of Ministers - Civil Protection Department. https://doi.org/10.7914/SN/IT http://www.fdsn.org/networks/detail/IT/
ORIGINAL_DATA_CREATOR: network: IT (Italian Strong Motion Network (RAN)); owner: Presidency of Counsil of Ministers - Civil Protection Department (PCM - DPC)
USER1: 
USER2: 
USER3: 
USER4: 
USER5: 
[...]
42.105991
44.607059
41.417080
37.297161
34.606041
32.454208
28.828951
24.409121
24.384340
32.129978
44.497662
56.380268
63.222630
61.834061
50.132851
29.836720
8.249739
-7.368004
-14.333800
-15.213460
-15.298790
-19.324949
-28.294359
-38.676659
-45.903339
-47.613571
-45.322659
-42.581501
-41.538441
-42.378361
-43.995560
-46.166088
-49.032310
-50.219139
-48.155449
-44.924080
-41.580280
-35.410229
-24.605749
-11.924120
-2.035077
3.957776
8.115790
11.177200
13.530300
16.877150
23.132750
30.293501
32.501671
27.179260
15.995610
2.492056
-9.006010
-15.089800
-13.351510
-2.736144
14.315760
32.589329
47.672680
58.329418
67.055946
75.728470
81.672943
81.151161
73.931038
63.467861
53.314880
43.875610
35.716900
31.784000
33.944241
40.387569
46.154598
48.687698
48.849468
45.718861
36.264851
20.348351
3.210423
-8.087306
-8.696269
0.983557
16.267250
31.363920
39.927280
37.781059
24.377800
3.013590
-20.488411
-42.081940
-58.709099
-68.789131
-74.340874
-78.003990
-80.789787
-82.535797
-83.471802
-84.366432
-84.866463
-83.521133
-78.645920
-69.801338
-58.962502
-49.864281
-47.031731
-51.677849
-60.528969
-69.067307
-73.009560
-70.888603
-64.745659
-57.753922
-51.128262
-44.370762
-35.768600
-21.496420
-1.054190
21.171921
39.881229
52.585300
62.108028
70.812820
78.523857
85.928673
93.878380
101.674301
105.316597
101.390999
90.802940
78.405807
69.591148
63.580528
55.775749
44.517761
31.417690
18.289570
6.017497
-5.660804
-18.438511
-33.714722
-51.937801
-72.424438
-92.487968
-108.892998
-120.694801
-128.728897
-133.401398
-134.683899
-132.072205
-124.641502
-112.182404
-95.898163
-78.361656
-62.416401
-49.800228
-41.076050
-36.097038
-33.000561
-28.283140
-18.967060
-3.631238
14.378410
27.367910
28.108250
13.222200
-11.703210
-35.704311
-49.592880
-48.597729
-34.937321
-15.025980
6.103056
26.910660
47.098549
66.364464
83.914047
97.107170
104.869904
109.139900
110.767303
108.077400
97.125397
77.675507
56.274849
37.585400
21.355419
4.984715
-11.839270
-27.020571
-38.695591
-43.965401
-40.934620
-26.245630
1.642313
35.431938
63.516251
77.821854
78.995827
72.817368
65.520798
61.474289
61.529461
63.754688
63.845860
59.294651
50.206020
35.844299
13.921630
-15.664160
-47.351761
-72.720863
-87.434158
-94.301529
-96.171432
-94.728157
-92.248352
-88.664940
-85.578751
-86.982986
-93.658203
-100.599403
-100.565804
-87.932549
-59.172890
-14.863040
38.059010
86.037827
116.230003
124.391098
114.734802
95.270233
70.097488
38.643429
3.314682
-28.759790
-50.460621
-57.597301
-51.331638
-37.759121
-24.295309
-16.900320
-17.438219
-24.393030
-34.513031
-42.785580
-44.173691
-35.867481
-19.944670
-2.075986
14.843610
30.132210
39.931252
43.393810
43.348461
38.005711
24.708111
2.969642
-21.771090
-43.231609
-61.305309
-72.882858
-74.073914
-66.847931
-53.235668
-31.220190
-1.722530
28.412609
51.660511
65.433372
70.910767
68.050858
60.699821
56.590191
58.751610
62.218842
63.685261
65.766022
66.471764
59.165611
40.624142
14.958390
-12.090800
-38.823231
-63.368069
-83.273338
-97.623131
-103.932503
-99.201759
-83.994743
-60.856949
-32.500530
-1.479412
28.116671
49.675369
57.323761
48.721359
28.357679
7.035319
-5.740051
-7.318446
-0.214966
12.485600
27.197729
39.719688
47.852680
51.219631
48.962608
39.848969
26.613541
14.029160
3.574631
-5.162412
-11.894670
-16.138241
-18.994169
-22.783070
-29.616320
-39.216431
-50.223122
-60.753151
-67.136162
-66.928581
-57.796940
-37.733181
-7.732681
31.036880
74.808830
111.943901
132.283707
131.232697
107.107002
68.996223
29.027889
-8.932140
-44.417049
-72.661011
-88.818527
-91.934174
-79.734100
-56.040409
-26.958851
4.364998
32.172989
52.315769
62.433201
63.118839
57.323059
47.549019
36.657108
27.734461
24.305090
28.898149
39.488499
48.648190
51.804749
49.860039
45.455170
40.530628
33.444450
22.677610
9.720367
-3.245990
-14.271150
-21.544109
-23.607100
-19.752520
-10.509600
2.322809
14.975450
22.735121
21.286690
9.436808
-9.600714
-32.591000
-55.861111
-75.427650
-88.814552
-94.007217
-90.397163
-78.956123
-61.575550
-39.782841
-16.459669
1.472364
6.342901
-4.686462
-26.062590
-47.236271
-59.759411
-61.350430
-53.669312
-37.894711
-15.049590
12.435100
39.041302
59.126572
71.182167
77.834007
82.843170
87.298538
89.926323
89.553452
87.745033
86.991837
88.800728
92.496819
95.563141
97.019272
96.976730
94.999046
88.007790
73.315987
52.397110
28.854900
6.682097
-10.075030
-18.237471
-18.002069
-12.863870
-6.772132
-3.276146
-6.727951
-19.656441
-40.605942
-65.657356
-89.382843
-107.041603
-115.571800
-114.203102
-101.447800
-72.943642
-29.089411
23.930599
76.814087
117.446098
138.508499
141.658005
133.727707
119.022598
99.109383
76.395866
50.994980
23.268339
-3.254406
-22.218519
-28.305820
-24.536560
-20.452410
-22.777929
-29.354971
-32.197109
-24.514820
-5.879376
16.286180
32.924320
37.781059
27.108660
3.289669
-27.375429
-58.399590
-83.622124
-100.259300
-105.827003
-97.985001
-81.099770
-63.492199
-51.389851
-46.227341
-43.605400
-37.137070
-22.366730
1.574520
32.310909
64.047600
88.286201
98.874924
93.717323
73.583191
43.566799
11.674430
-15.167640
-33.942410
-47.533859
-59.329281
-69.202904
-74.014763
-67.206757
-46.941490
-19.782669
6.493680
26.799620
38.951302
42.275940
39.490841
35.702179
34.906670
41.314220
54.032082
67.748131
78.315804
81.875137
75.209511
55.093620
23.778879
-9.002036
-34.445011
-48.938801
-52.568741
-49.041420
-44.597279
-41.101292
-36.157349
-27.867270
-14.858600
2.294056
21.395399
38.858028
47.921879
45.260208
33.936062
17.916241
1.920028
-8.550398
-8.978426
1.747976
18.535721
31.174810
29.266100
8.707221
-25.205370
-59.861561
-81.920998
-85.217110
-72.893379
-53.291779
-36.971802
-34.142052
-48.416561
-73.164078
-94.828453
-98.125504
-75.035622
-29.320370
29.597111
85.861343
122.126801
132.480301
121.839500
100.592201
82.126678
75.724274
77.463959
78.084839
71.873421
57.315811
38.504570
18.099751
-0.379538
-14.258520
-28.474600
-45.872940
-63.461811
-74.793671
-74.141228
-61.850460
-43.237919
-25.188770
-14.185820
-14.061690
-22.470060
-35.520100
-53.200142
-72.931480
-86.563606
-87.497513
-74.915703
-53.850948
-29.961121
-4.264747
21.906639
45.392990
63.702091
73.719009
75.541458
72.381859
64.949707
53.744549
38.201611
18.583179
0.510880
-12.413170
-20.171890
-25.426979
-33.649269
-47.591129
-62.328739
-67.238564
-57.439041
-39.081081
-23.037411
-16.517651
-22.725100
-39.949760
-60.135311
-75.885597
-83.030220
-80.168678
-67.808708
-48.331009
-26.472851
-6.773301
7.306956
11.544220
4.721259
-7.172809
-17.328350
-19.618570
-11.363080
2.117327
13.550410
16.789721
10.997440
3.321929
-1.492971
-3.313782
-0.479824
5.931003
8.968573
0.549920
-21.199530
-49.760262
-75.332039
-88.198578
-79.862442
-49.828049
-7.670499
35.355499
68.235771
82.694260
80.447762
72.525864
68.174759
66.058228
61.031769
50.959919
36.390148
19.102610
1.823482
-10.333570
-14.971750
-15.364240
-14.575280
-12.002440
-7.226575
-1.118944
4.528167
6.315784
3.984659
0.521868
-0.746786
0.878830
3.070162
3.634476
0.995947
-3.975577
-9.044816
-14.567800
-22.544630
-34.803841
-51.307560
-66.663719
-73.257118
-66.464317
-49.587040
-32.487679
-21.892651
-19.246180
-21.312441
-21.101589
-11.043290
9.699562
33.088661
52.285610
65.489937
71.417107
68.748894
56.568451
34.889832
7.001189
-24.767050
-54.637341
-73.822144
-80.678291
-76.573341
-64.313187
-46.737652
-24.852610
0.101320
26.018610
48.930820
64.568199
69.918427
63.765911
46.986340
23.927090
1.514910
-14.843640
-24.530951
-31.874041
-40.745499
-49.509659
-53.764450
-50.620750
-40.149632
-25.261471
-10.473600
-0.981956
0.281789
-4.926074
-13.211710
-23.697571
-37.976299
-56.583920
-77.040642
-95.030647
-104.195503
-98.994637
-80.466026
-56.947659
-37.872971
-27.917530
-27.565710
-34.244900
-42.977741
-48.538589
-48.811401
-45.230320
-40.243370
-34.695370
-27.589560
-18.532490
-7.424343
7.091423
26.270140
47.270840
63.145260
65.091370
49.286610
21.902670
-8.859204
-36.788059
-56.040878
-62.654850
-55.830959
-37.217018
-10.612460
19.753651
49.990952
76.181976
95.132767
104.120399
102.292397
90.116127
70.734741
50.398411
35.284660
29.037710
32.016830
41.785728
52.122669
55.644840
48.699619
34.366901
18.437771
5.424664
-2.314194
-5.551167
-5.436153
-1.913752
6.262485
17.638990
26.804770
28.709030
22.054621
9.922342
-3.528848
-12.663760
-12.673820
-5.573375
1.652599
4.094296
3.015928
1.866496
2.755979
6.799915
13.033550
19.571541
26.261490
34.854061
46.919949
60.532909
71.886040
78.879883
80.228020
75.233589
63.604610
46.084469
26.017910
6.379369
-12.780880
-32.413570
-52.008400
-68.330254
-78.063606
-80.233429
-74.183296
-58.904060
-33.959709
-2.622767
28.742929
53.489738
64.119362
56.290272
32.143299
0.595738
-27.365610
-45.272869
-51.853180
-49.966671
-42.013920
-28.350000
-10.095600
10.239100
29.720310
45.460781
53.489281
50.552460
36.711811
15.718830
-7.382966
-28.072050
-41.304199
-44.061489
-37.335300
-26.921921
-19.996099
-17.312460
-16.117201
-14.097690
-9.741675
-3.588692
2.835226
7.330567
8.597818
6.984591
5.244196
5.963264
8.611844
13.140850
19.633730
25.955959
27.822121
22.137609
11.280300
1.766911
1.245143
14.047860
37.090981
62.935101
85.579178
100.375900
103.601898
92.388817
66.523903
33.096840
-0.126369
-28.818939
-49.440231
-60.461411
-61.860039
-54.191551
-38.044559
-16.077930
7.005163
26.484501
38.075611
39.897121
32.928059
20.520399
6.970332
-4.294436
-13.414390
-22.970091
-31.633030
-36.017799
-34.754520
-29.477930
-25.489630
-26.837061
-32.601990
-39.092999
-43.232780
-43.030571
-35.732601
-20.242260
1.348468
26.984060
53.498161
76.288567
90.111458
90.669456
76.878372
51.198589
21.915529
-1.472166
-13.310360
-13.363660
-5.483608
6.534122
19.467991
30.518391
37.205299
38.714729
34.468121
23.363480
7.479243
-8.642736
-22.341490
-31.626249
-34.204460
-31.881050
-30.460680
-34.865791
-46.277599
-63.397289
-83.965523
-104.557404
-120.982498
-132.007706
-138.469696
-139.061401
-132.648895
-118.903198
-97.076576
-67.085213
-31.739149
3.381774
32.612469
50.196899
53.218811
44.503269
31.339149
20.485809
13.312430
11.170890
16.677740
28.473391
41.644531
51.774361
58.291550
62.681702
65.944153
67.519043
66.402573
62.612270
58.116230
56.149540
58.081631
62.589359
66.288254
66.345757
61.268341
51.703758
40.638161
30.396601
21.919729
14.331420
5.313624
-6.879431
-21.874189
-37.650421
-51.005070
-58.456631
-58.731770
-53.299721
-45.309799
-38.382820
-36.267929
-42.065109
-55.776951
-73.593742
-90.852074
-104.065002
-110.403603
-109.227600
-102.933403
-93.799400
-82.845078
-70.653191
-57.555920
-44.560810
-32.654819
-22.215481
-13.464650
-6.350884
-1.414191
1.117740
2.338237
4.529570
10.482680
20.497959
33.790661
49.751339
65.922867
78.776093
85.590157
85.945023
81.924698
76.777382
71.005913
63.372711
54.920631
48.164532
45.383400
46.609982
49.642170
51.347500
50.123970
46.459900
40.186062
30.554859
15.985320
-3.976979
-26.782129
-49.616020
-70.248772
-86.100052
-93.132462
-87.951714
-69.393883
-40.295502
-7.940266
20.827339
38.638760
41.074612
30.535450
12.292970
-5.924259
-18.289600
-24.620480
-28.442810
-34.402000
-44.265800
-56.879631
-70.066673
-80.003868
-81.452293
-71.435371
-53.054970
-31.784510
-11.560850
3.920607
12.183100
13.028410
6.301057
-9.118919
-31.249649
-53.921551
-72.121948
-83.067863
-84.620773
-74.155487
-50.273609
-18.540430
14.413940
45.659012
71.838364
91.466843
105.412399
115.133400
121.923401
124.565697
120.255501
108.307899
90.879379
71.525108
53.104729
38.102959
28.018250
22.244909
22.113991
29.526979
43.757320
61.295219
77.026108
87.066872
88.472748
80.973038
67.859627
52.222019
35.700771
18.201900
1.022129
-12.669140
-21.355459
-24.299520
-23.983231
-25.622641
-32.853519
-45.593361
-60.791962
-75.985413
-89.390556
-99.187263
-104.458000
-106.298500
-106.362503
-106.399902
-109.220497
-116.035301
-124.860703
-132.703400
-137.934906
-139.581696
-135.260803
-123.348000
-104.675903
-80.060440
-50.554829
-18.496019
12.762610
39.758030
59.304001
68.756599
67.193871
55.777618
37.219318
13.941500
-10.153810
-29.470680
-39.757599
-40.370541
-32.978119
-19.164829
-4.216591
6.130173
9.880264
7.324723
1.453195
-3.775472
-2.527624
10.340550
33.047279
58.917351
82.221817
99.055153
105.528198
101.164001
91.322838
81.441513
72.251419
62.960350
53.959850
46.495430
41.098221
38.629639
41.393929
48.498119
57.541630
66.396019
72.275726
72.481209
63.861290
44.504669
15.080410
-21.952030
-62.345341
-98.438507
-124.682404
-139.254196
-142.426697
-137.476196
-126.949402
-113.523697
-98.844559
-83.039337
-65.359070
-43.734680
-17.094351
13.737890
45.183769
73.346382
94.593941
106.728302
111.937599
114.076103
114.790703
113.824097
110.342102
103.300598
92.116943
75.869667
54.279881
27.318119
-4.324358
-35.930599
-61.557079
-77.797813
-84.068611
-78.898376
-58.363350
-23.450939
20.121599
66.354179
105.921402
130.852097
139.668396
134.523499
118.909698
94.331886
63.075600
29.523939
-3.581446
-34.152569
-60.011181
-77.524773
-84.466949
-82.046516
-70.160172
-47.384949
-16.518579
16.382959
47.554859
73.394539
89.632004
93.076317
83.876663
66.223503
44.615238
23.525480
3.660892
-16.318710
-34.785610
-48.377529
-51.534550
-41.780151
-21.440081
5.552301
33.971130
59.496391
78.742897
89.073761
88.305138
74.954231
51.412491
23.455589
-3.807031
-27.630470
-46.802399
-62.207420
-73.917267
-79.460831
-77.758537
-69.041603
-55.485680
-40.470360
-26.839399
-17.008320
-11.258120
-9.886144
-13.984550
-22.446911
-31.766270
-39.229519
-44.022449
-44.174858
-38.386791
-28.322880
-16.040529
-3.525575
7.173475
12.004040
8.476727
0.271971
-8.493593
-15.003070
-16.256060
-10.664820
0.804258
15.244750
29.637791
41.394630
49.153599
53.020340
53.732159
51.692780
46.123981
37.146622
27.373520
19.896481
16.209040
15.904210
17.566759
19.416790
20.373131
20.555470
20.090040
19.057730
17.757750
16.338079
15.183500
15.299220
17.797020
22.032881
25.435120
24.302521
15.435040
-1.591854
-24.394430
-47.683239
-66.518082
-77.147713
-76.612137
-66.339020
-51.063980
-36.103352
-24.430189
-16.987520
-13.683690
-12.948730
-13.728340
-15.498890
-19.465919
-27.536489
-40.738491
-57.982780
-75.731537
-90.373779
-98.440613
-97.707977
-86.806961
-66.540527
-40.349960
-12.410360
12.812400
31.429609
41.163670
41.796711
33.570690
18.054859
-1.348503
-20.823400
-37.119541
-47.423759
-49.571838
-42.778801
-28.027870
-9.718766
7.212982
21.004299
31.565660
38.862709
43.690929
47.405251
51.136181
54.626080
56.920738
58.545658
59.500832
59.006882
57.049782
53.990700
49.293621
43.149288
38.480259
38.149948
42.694851
50.799549
61.719749
75.115768
89.012047
100.744102
107.760902
107.883102
99.888763
83.692436
61.923119
37.774750
12.692720
-11.082330
-31.050240
-45.186138
-52.107979
-51.246552
-43.139042
-30.980820
-18.922640
-10.107990
-7.090055
-12.043580
-24.343941
-40.596359
-57.199890
-70.829453
-79.485367
-82.179543
-79.531662
-73.702911
-66.069481
-57.163429
-47.103031
-36.467331
-25.880489
-15.983960
-7.874578
-2.844846
-2.007726
-4.749346
-8.894036
-12.313110
-13.602340
-11.522510
-6.496521
-0.520032
4.527232
7.093761
6.968228
5.016740
3.917801
6.484096
13.118870
22.233219
31.267151
38.269642
41.789001
41.727749
39.216862
35.277889
30.541300
25.978630
23.115219
22.412750
23.711090
26.156759
27.513309
25.884420
21.005239
13.566300
4.149932
-6.571794
-16.959230
-26.640459
-36.453999
-46.811050
-57.984180
-69.300850
-80.773903
-91.556183
-99.390167
-102.271797
-98.182533
-85.794746
-65.301559
-38.962090
-9.150245
21.404980
48.440369
66.137939
70.988373
63.082142
44.251499
19.076191
-7.561096
-31.139780
-48.932491
-59.558140
-63.385139
-63.081470
-59.213799
-51.261040
-38.106972
-19.010771
5.448508
33.765881
61.505619
83.007278
95.670914
99.218788
93.325287
78.849960
59.109970
39.146259
21.635481
8.252544
0.524673
-1.753621
1.355715
8.480000
18.297510
28.565729
36.096771
39.819981
38.731331
32.546089
22.661240
11.248040
0.601816
-8.994088
-18.293579
-28.014080
-38.343540
-48.046749
-56.426830
-62.403320
-65.174622
-63.738361
-57.332439
-48.500721
-39.926140
-32.921780
-28.207399
-26.549990
-27.572960
-29.300261
-29.885851
-28.459169
-24.886980
-18.941811
-11.044690
-2.909132
3.855853
9.418341
13.552980
15.904210
17.014130
17.438890
18.030319
19.226040
21.695089
25.802610
30.386311
34.069309
36.251999
36.271858
33.515282
28.511030
22.954849
17.262859
11.571800
7.658542
6.083186
6.863266
10.020520
15.207820
21.988461
29.534700
36.823090
42.016220
43.012772
37.885319
25.964371
8.573273
-11.285470
-29.861771
-44.937180
-55.585732
-60.605881
-59.422321
-53.044922
-43.625038
-33.749550
-25.304480
-19.582800
-18.067989
-20.761221
-25.646021
-30.774630
-34.628052
-36.734760
-38.408531
-40.729370
-43.041088
-43.685822
-41.355400
-35.811378
-27.623220
-18.297079
-9.787494
-3.282691
1.520520
5.841003
10.334010
15.623450
21.466230
26.637150
30.321560
32.177200
33.321251
35.221081
38.398682
42.608120
46.612080
48.693081
48.514950
46.641769
42.585911
36.131599
27.726271
18.416740
9.216833
0.747686
-5.653791
-9.559570
-11.720750
-13.443140
-15.479490
-17.367390
-18.747080
-19.348330
-19.161320
-18.232800
-16.794661
-15.310470
-14.018440
-13.505330
-14.586030
-17.385389
-21.087561
-24.830870
-28.066681
-30.379570
-31.849730
-32.655289
-32.823372
-32.591942
-32.430168
-33.103420
-34.722488
-36.348808
-36.734291
-35.127838
-31.324690
-25.264271
-17.503910
-9.102323
-1.024034
5.929601
11.139100
14.631810
16.586109
17.352631
17.732500
18.805019
21.274071
24.730320
28.370300
30.725040
30.678289
27.254530
19.986250
10.803180
2.216679
-3.819421
-6.508209
-5.379348
-0.233668
7.255761
15.103560
22.263140
28.198021
32.474548
35.068432
36.608021
37.686150
38.120491
37.521111
35.537830
31.058390
23.868650
15.007010
5.427469
-4.313604
-13.327190
-19.461710
-21.978451
-21.659590
-18.981079
-14.748030
-10.399030
