EVENT_NAME: L_AQUILA
EVENT_ID: IT-2009-0009
EVENT_DATE_YYYYMMDD: 20090406
EVENT_TIME_HHMMSS: 013240
EVENT_LATITUDE_DEGREE: 42.3420
EVENT_LONGITUDE_DEGREE: 13.3800
EVENT_DEPTH_KM: 8.3
HYPOCENTER_REFERENCE: INGV-CNT_Seismic_Bulletin
MAGNITUDE_W: 6.1
MAGNITUDE_W_REFERENCE: INGV-CNT_Seismic_Bulletin
MAGNITUDE_L: 
MAGNITUDE_L_REFERENCE: 
FOCAL_MECHANISM: Normal faulting
NETWORK: IT
STATION_CODE: GSA
STATION_NAME: 
STATION_LATITUDE_DEGREE: 42.420689
STATION_LONGITUDE_DEGREE: 13.519362
STATION_ELEVATION_M: 1062
LOCATION: 
SENSOR_DEPTH_M: 0.0
VS30_M/S: 492
SITE_CLASSIFICATION_EC8: B
MORPHOLOGIC_CLASSIFICATION: 
EPICENTRAL_DISTANCE_KM: 14.4
EARTHQUAKE_BACKAZIMUTH_DEGREE: 52.7
DATE_TIME_FIRST_SAMPLE_YYYYMMDD_HHMMSS: 20090406_013229.000
DATE_TIME_FIRST_SAMPLE_PRECISION: seconds
SAMPLING_INTERVAL_S: 0.005000
NDATA: 20020
DURATION_S: 100.100
STREAM: HNN
UNITS: cm
INSTRUMENT: sensor = FBA-3 [Kinemetrics] | digitizer = Etna [Kinemetrics]
INSTRUMENT_ANALOG/DIGITAL: D
INSTRUMENTAL_FREQUENCY_HZ: 216.000
INSTRUMENTAL_DAMPING: 0.700000
FULL_SCALE_G: 1.0
N_BIT_DIGITAL_CONVERTER: 18
PGD_CM: 2.306127
TIME_PGD_S: 20.750000
BASELINE_CORRECTION: BASELINE REMOVED
FILTER_TYPE: BUTTERWORTH
FILTER_ORDER: 2
LOW_CUT_FREQUENCY_HZ: 0.100
HIGH_CUT_FREQUENCY_HZ: 40.000
LATE/NORMAL_TRIGGERED: NT
DATABASE_VERSION: 0.5
HEADER_FORMAT: DYNA 1.2
DATA_TYPE: DISPLACEMENT
PROCESSING: manual (Paolucci et al., 2011)
DATA_TIMESTAMP_YYYYMMDD_HHMMSS: 20211011_155740.039
DATA_LICENSE: CC-BY3_0-IT (http://creativecommons.org/licenses/by/3.0/deed.en)
DATA_CITATION: Luzi L, Pacor F, Puglia R (2019). Italian Accelerometric Archive v 3.0 - Istituto Nazionale di Geofisica e Vulcanologia, Dipartimento della Protezione Civile Nazionale. doi: 10.13127/itaca.3.1
DATA_CREATOR: ITACA working group
ORIGINAL_DATA_MEDIATOR_CITATION: data obtained within the DPC-INGV data exchange agreements
ORIGINAL_DATA_MEDIATOR: Archive of Italian Department of Civil Protection
ORIGINAL_DATA_CREATOR_CITATION: Presidency Of Counsil Of Ministers-Civil Protection Department. (1972). Italian Strong Motion Network. Presidency of Counsil of Ministers - Civil Protection Department. https://doi.org/10.7914/SN/IT http://www.fdsn.org/networks/detail/IT/
ORIGINAL_DATA_CREATOR: network: IT (Italian Strong Motion Network (RAN)); owner: Presidency of Counsil of Ministers - Civil Protection Department (PCM - DPC)
USER1: 
USER2: 
USER3: 
USER4: 
USER5: 
[...]
-8.613535e-01
-8.624612e-01
-8.633339e-01
-8.634258e-01
-8.624938e-01
-8.606233e-01
-8.581167e-01
-8.553368e-01
-8.525728e-01
-8.499564e-01
-8.474538e-01
-8.449324e-01
-8.422501e-01
-8.393044e-01
-8.360346e-01
-8.324225e-01
-8.285237e-01
-8.244993e-01
-8.205996e-01
-8.170850e-01
-8.141259e-01
-8.117294e-01
-8.097223e-01
-8.077996e-01
-8.056165e-01
-8.028941e-01
-7.995167e-01
-7.955899e-01
-7.914245e-01
-7.874452e-01
-7.840605e-01
-7.815238e-01
-7.798126e-01
-7.785838e-01
-7.772636e-01
-7.752558e-01
-7.721562e-01
-7.678601e-01
-7.625354e-01
-7.565244e-01
-7.502517e-01
-7.441589e-01
-7.386480e-01
-7.340239e-01
-7.304393e-01
-7.278464e-01
-7.259862e-01
-7.244621e-01
-7.228953e-01
-7.210740e-01
-7.189924e-01
-7.167646e-01
-7.144959e-01
-7.122072e-01
-7.098338e-01
-7.072370e-01
-7.041768e-01
-7.002856e-01
-6.951331e-01
-6.883876e-01
-6.799725e-01
-6.701232e-01
-6.593292e-01
-6.481964e-01
-6.372726e-01
-6.269201e-01
-6.173012e-01
-6.084446e-01
-6.002870e-01
-5.926479e-01
-5.852290e-01
-5.777348e-01
-5.700770e-01
-5.625179e-01
-5.556391e-01
-5.501493e-01
-5.466425e-01
-5.454095e-01
-5.463455e-01
-5.489534e-01
-5.524461e-01
-5.559417e-01
-5.587170e-01
-5.604286e-01
-5.611880e-01
-5.614314e-01
-5.616445e-01
-5.620996e-01
-5.627527e-01
-5.633266e-01
-5.634869e-01
-5.629942e-01
-5.617767e-01
-5.599250e-01
-5.576374e-01
-5.551523e-01
-5.527025e-01
-5.504942e-01
-5.486935e-01
-5.473987e-01
-5.465965e-01
-5.461273e-01
-5.456949e-01
-5.449372e-01
-5.435378e-01
-5.413232e-01
-5.382855e-01
-5.345214e-01
-5.301341e-01
-5.251570e-01
-5.195342e-01
-5.131587e-01
-5.059411e-01
-4.978655e-01
-4.890135e-01
-4.795510e-01
-4.696825e-01
-4.596050e-01
-4.495016e-01
-4.395700e-01
-4.300356e-01
-4.211248e-01
-4.130214e-01
-4.058318e-01
-3.995779e-01
-3.942292e-01
-3.897720e-01
-3.862582e-01
-3.837693e-01
-3.823047e-01
-3.816963e-01
-3.816444e-01
-3.818613e-01
-3.821968e-01
-3.826354e-01
-3.831933e-01
-3.838562e-01
-3.846381e-01
-3.856785e-01
-3.872360e-01
-3.895639e-01
-3.927752e-01
-3.967964e-01
-4.014130e-01
-4.063461e-01
-4.113123e-01
-4.160726e-01
-4.204964e-01
-4.246179e-01
-4.286026e-01
-4.325913e-01
-4.365210e-01
-4.400725e-01
-4.427819e-01
-4.442220e-01
-4.441437e-01
-4.425531e-01
-4.397419e-01
-4.362613e-01
-4.327923e-01
-4.299116e-01
-4.278578e-01
-4.264634e-01
-4.253152e-01
-4.240254e-01
-4.224197e-01
-4.205518e-01
-4.185978e-01
-4.167236e-01
-4.149856e-01
-4.132918e-01
-4.114411e-01
-4.092314e-01
-4.065708e-01
-4.035051e-01
-4.001242e-01
-3.964157e-01
-3.921993e-01
-3.872237e-01
-3.813630e-01
-3.747497e-01
-3.677373e-01
-3.607359e-01
-3.540619e-01
-3.478905e-01
-3.422763e-01
-3.371506e-01
-3.322777e-01
-3.272622e-01
-3.216923e-01
-3.153662e-01
-3.084401e-01
-3.013774e-01
-2.947268e-01
-2.888650e-01
-2.838392e-01
-2.793607e-01
-2.749178e-01
-2.699416e-01
-2.639711e-01
-2.567774e-01
-2.484070e-01
-2.391140e-01
-2.291987e-01
-2.188326e-01
-2.079701e-01
-1.964000e-01
-1.839150e-01
-1.704991e-01
-1.564100e-01
-1.420980e-01
-1.280241e-01
-1.144954e-01
-1.016015e-01
-8.925168e-02
-7.726566e-02
-6.546528e-02
-5.374508e-02
-4.212058e-02
-3.075240e-02
-1.992434e-02
-9.957834e-03
-1.084076e-03
6.669124e-03
1.351476e-02
1.983773e-02
2.604549e-02
3.242043e-02
3.906674e-02
4.597639e-02
5.313333e-02
6.053950e-02
6.813383e-02
7.569872e-02
8.287818e-02
8.933869e-02
9.497787e-02
1.000323e-01
1.050029e-01
1.104504e-01
1.167911e-01
1.241844e-01
1.325251e-01
1.415073e-01
1.507326e-01
1.598435e-01
1.686416e-01
1.771291e-01
1.854347e-01
1.936756e-01
2.018614e-01
2.098999e-01
2.176750e-01
2.251444e-01
2.324209e-01
2.398098e-01
2.477554e-01
2.566660e-01
2.666760e-01
2.775029e-01
2.885385e-01
2.991422e-01
3.089356e-01
3.179100e-01
3.263213e-01
3.344912e-01
3.426500e-01
3.508867e-01
3.591890e-01
3.675186e-01
3.758762e-01
3.843398e-01
3.930674e-01
4.022512e-01
4.120290e-01
4.224000e-01
4.331999e-01
4.441358e-01
4.548416e-01
4.649247e-01
4.740104e-01
4.817886e-01
4.880506e-01
4.927071e-01
4.957925e-01
4.974648e-01
4.979991e-01
4.977610e-01
4.971455e-01
4.964978e-01
4.960530e-01
4.959232e-01
4.961232e-01
4.966093e-01
4.973100e-01
4.981272e-01
4.989010e-01
4.993696e-01
4.991795e-01
4.979705e-01
4.955007e-01
4.917562e-01
4.870061e-01
4.817680e-01
4.766708e-01
4.722643e-01
4.688792e-01
4.666090e-01
4.653965e-01
4.651420e-01
4.657591e-01
4.671660e-01
4.692682e-01
4.719919e-01
4.753631e-01
4.795576e-01
4.848638e-01
4.915730e-01
4.998539e-01
5.096556e-01
5.206801e-01
5.324493e-01
5.444559e-01
5.563166e-01
5.678403e-01
5.789791e-01
5.897093e-01
5.999280e-01
6.094327e-01
6.179889e-01
6.254256e-01
6.316863e-01
6.368068e-01
6.408493e-01
6.438484e-01
6.457940e-01
6.466406e-01
6.463252e-01
6.447923e-01
6.420224e-01
6.380436e-01
6.329230e-01
6.267692e-01
6.197596e-01
6.121484e-01
6.042217e-01
5.962272e-01
5.883361e-01
5.806522e-01
5.732423e-01
5.661748e-01
5.595563e-01
5.535390e-01
5.482663e-01
5.437800e-01
5.399595e-01
5.365381e-01
5.331859e-01
5.296165e-01
5.256826e-01
5.214384e-01
5.171453e-01
5.132068e-01
5.100604e-01
5.080855e-01
5.075780e-01
5.087777e-01
5.118819e-01
5.170087e-01
5.241426e-01
5.331279e-01
5.437191e-01
5.556455e-01
5.686583e-01
5.825713e-01
5.973056e-01
6.129070e-01
6.295065e-01
6.472447e-01
6.662119e-01
6.864163e-01
7.077505e-01
7.299597e-01
7.526641e-01
7.754659e-01
7.981018e-01
8.205506e-01
8.430372e-01
8.659332e-01
8.896027e-01
9.142497e-01
9.398196e-01
9.659897e-01
9.922448e-01
1.018000e+00
1.042720e+00
1.065993e+00
1.087553e+00
1.107247e+00
1.124985e+00
1.140709e+00
1.154375e+00
1.165953e+00
1.175415e+00
1.182756e+00
1.188019e+00
1.191336e+00
1.192926e+00
1.193048e+00
1.191906e+00
1.189563e+00
1.185918e+00
1.180768e+00
1.173915e+00
1.165262e+00
1.154848e+00
1.142807e+00
1.129310e+00
1.114525e+00
1.098626e+00
1.081857e+00
1.064586e+00
1.047299e+00
1.030522e+00
1.014717e+00
1.000229e+00
9.873102e-01
9.761649e-01
9.669846e-01
9.599683e-01
9.553222e-01
9.532187e-01
9.537223e-01
9.567356e-01
9.620250e-01
9.693155e-01
9.783740e-01
9.890110e-01
1.001022e+00
1.014144e+00
1.028062e+00
1.042452e+00
1.057004e+00
1.071419e+00
1.085369e+00
1.098471e+00
1.110265e+00
1.120251e+00
1.127942e+00
1.132926e+00
1.134895e+00
1.133645e+00
1.129058e+00
1.121105e+00
1.109859e+00
1.095509e+00
1.078368e+00
1.058834e+00
1.037339e+00
1.014281e+00
9.899764e-01
9.646383e-01
9.383908e-01
9.113212e-01
8.835617e-01
8.553632e-01
8.271079e-01
7.992183e-01
7.719859e-01
7.454047e-01
7.191220e-01
6.925580e-01
6.651414e-01
6.365344e-01
6.067409e-01
5.760675e-01
5.449980e-01
5.140726e-01
4.838256e-01
4.547694e-01
4.273845e-01
4.020911e-01
3.792131e-01
3.589666e-01
3.414748e-01
3.267677e-01
3.147407e-01
3.051094e-01
2.974306e-01
2.911959e-01
2.859223e-01
2.811747e-01
2.765396e-01
2.716090e-01
2.660051e-01
2.594349e-01
2.517615e-01
2.430861e-01
2.338106e-01
2.246116e-01
2.162801e-01
2.094856e-01
2.046036e-01
2.016972e-01
2.006325e-01
2.012349e-01
2.033995e-01
2.071160e-01
2.124186e-01
2.193079e-01
2.276904e-01
2.373432e-01
2.478819e-01
2.587367e-01
2.691870e-01
2.784846e-01
2.860092e-01
2.913608e-01
2.943498e-01
2.949314e-01
2.931426e-01
2.890643e-01
2.827867e-01
2.743566e-01
2.637213e-01
2.507311e-01
2.352351e-01
2.172433e-01
1.970848e-01
1.754957e-01
1.535803e-01
1.326161e-01
1.137524e-01
9.774091e-02
8.482590e-02
7.481406e-02
6.721892e-02
6.136724e-02
5.645432e-02
5.162037e-02
4.609161e-02
3.934195e-02
3.118849e-02
2.176581e-02
1.139148e-02
3.893084e-04
-1.105182e-02
-2.293687e-02
-3.543679e-02
-4.879508e-02
-6.320097e-02
-7.867569e-02
-9.502522e-02
-1.118813e-01
-1.287949e-01
-1.453270e-01
-1.611145e-01
-1.759108e-01
-1.895969e-01
-2.021826e-01
-2.138306e-01
-2.248883e-01
-2.358692e-01
-2.473665e-01
-2.599444e-01
-2.740498e-01
-2.899502e-01
-3.076987e-01
-3.271313e-01
-3.478753e-01
-3.693604e-01
-3.908771e-01
-4.117048e-01
-4.312569e-01
-4.491725e-01
-4.653316e-01
-4.797997e-01
-4.927151e-01
-5.041697e-01
-5.141586e-01
-5.226134e-01
-5.294510e-01
-5.346115e-01
-5.381226e-01
-5.401920e-01
-5.412528e-01
-5.419153e-01
-5.428662e-01
-5.447830e-01
-5.482786e-01
-5.538592e-01
-5.618763e-01
-5.724693e-01
-5.855244e-01
-6.006744e-01
-6.173426e-01
-6.348073e-01
-6.522863e-01
-6.690556e-01
-6.846022e-01
-6.987569e-01
-7.117257e-01
-7.239716e-01
-7.359930e-01
-7.481183e-01
-7.604140e-01
-7.727104e-01
-7.846915e-01
-7.959978e-01
-8.063135e-01
-8.154238e-01
-8.232500e-01
-8.298670e-01
-8.354922e-01
-8.404308e-01
-8.449998e-01
-8.494761e-01
-8.540779e-01
-8.589632e-01
-8.642375e-01
-8.699829e-01
-8.763044e-01
-8.833694e-01
-8.914146e-01
-9.007155e-01
-9.115267e-01
-9.240088e-01
-9.381553e-01
-9.537328e-01
-9.702434e-01
-9.869186e-01
-1.002773e+00
-1.016749e+00
-1.027949e+00
-1.035875e+00
-1.040570e+00
-1.042592e+00
-1.042838e+00
-1.042328e+00
-1.042054e+00
-1.042892e+00
-1.045531e+00
-1.050376e+00
-1.057486e+00
-1.066573e+00
-1.077062e+00
-1.088215e+00
-1.099256e+00
-1.109500e+00
-1.118447e+00
-1.125839e+00
-1.131645e+00
-1.136011e+00
-1.139187e+00
-1.141444e+00
-1.142994e+00
-1.143897e+00
-1.144044e+00
-1.143212e+00
-1.141193e+00
-1.137889e+00
-1.133322e+00
-1.127591e+00
-1.120838e+00
-1.113259e+00
-1.105116e+00
-1.096722e+00
-1.088401e+00
-1.080428e+00
-1.072985e+00
-1.066119e+00
-1.059731e+00
-1.053588e+00
-1.047371e+00
-1.040778e+00
-1.033630e+00
-1.025966e+00
-1.018064e+00
-1.010396e+00
-1.003534e+00
-9.980570e-01
-9.944541e-01
-9.930571e-01
-9.939959e-01
-9.971865e-01
-1.002347e+00
-1.009027e+00
-1.016670e+00
-1.024709e+00
-1.032736e+00
-1.040653e+00
-1.048712e+00
-1.057401e+00
-1.067223e+00
-1.078507e+00
-1.091321e+00
-1.105476e+00
-1.120562e+00
-1.135998e+00
-1.151115e+00
-1.165274e+00
-1.177977e+00
-1.188898e+00
-1.197849e+00
-1.204703e+00
-1.209369e+00
-1.211797e+00
-1.211988e+00
-1.209971e+00
-1.205756e+00
-1.199305e+00
-1.190543e+00
-1.179392e+00
-1.165803e+00
-1.149767e+00
-1.131349e+00
-1.110747e+00
-1.088320e+00
-1.064581e+00
-1.040113e+00
-1.015462e+00
-9.910367e-01
-9.670411e-01
-9.434838e-01
-9.202408e-01
-8.971578e-01
-8.741592e-01
-8.513435e-01
-8.290299e-01
-8.077319e-01
-7.880616e-01
-7.706039e-01
-7.558046e-01
-7.438971e-01
-7.348513e-01
-7.283136e-01
-7.235540e-01
-7.194834e-01
-7.147949e-01
-7.082100e-01
-6.987371e-01
-6.858237e-01
-6.693475e-01
-6.494994e-01
-6.266605e-01
-6.013261e-01
-5.740773e-01
-5.455692e-01
-5.164935e-01
-4.874793e-01
-4.589585e-01
-4.310945e-01
-4.038532e-01
-3.771753e-01
-3.511028e-01
-3.257495e-01
-3.011464e-01
-2.770981e-01
-2.531738e-01
-2.288494e-01
-2.037184e-01
-1.776691e-01
-1.509569e-01
-1.241560e-01
-9.802172e-02
-7.332508e-02
-5.070971e-02
-3.058549e-02
-1.306279e-02
2.046004e-03
1.512624e-02
2.659224e-02
3.674427e-02
4.573526e-02
5.365690e-02
6.068211e-02
6.718017e-02
7.374894e-02
8.114742e-02
9.014484e-02
1.013353e-01
1.149844e-01
1.309597e-01
1.487661e-01
1.676775e-01
1.869205e-01
2.058288e-01
2.239033e-01
2.407739e-01
2.561389e-01
2.697670e-01
2.815842e-01
2.917795e-01
3.008245e-01
3.093671e-01
3.180610e-01
3.274206e-01
3.377459e-01
3.491242e-01
3.614990e-01
3.747839e-01
3.889796e-01
4.042412e-01
4.208616e-01
4.391810e-01
4.594690e-01
4.818088e-01
5.060036e-01
5.315436e-01
5.576874e-01
5.836470e-01
6.087869e-01
6.327378e-01
6.553912e-01
6.768024e-01
6.970811e-01
7.163383e-01
7.347083e-01
7.524028e-01
7.697475e-01
7.871743e-01
8.051585e-01
8.241048e-01
8.442251e-01
8.654742e-01
8.875781e-01
9.101358e-01
9.327549e-01
9.551922e-01
9.774556e-01
9.998088e-01
1.022639e+00
1.046217e+00
1.070474e+00
1.094909e+00
1.118721e+00
1.141093e+00
1.161486e+00
1.179797e+00
1.196312e+00
1.211499e+00
1.225729e+00
1.239051e+00
1.251123e+00
1.261367e+00
1.269297e+00
1.274852e+00
1.278593e+00
1.281648e+00
1.285454e+00
1.291353e+00
1.300244e+00
1.312412e+00
1.327624e+00
1.345400e+00
1.365318e+00
1.387178e+00
1.410966e+00
1.436679e+00
1.464168e+00
1.493099e+00
1.523006e+00
1.553394e+00
1.583819e+00
1.613892e+00
1.643224e+00
1.671391e+00
1.697988e+00
1.722763e+00
1.745731e+00
1.767177e+00
1.787546e+00
1.807273e+00
1.826624e+00
1.845630e+00
1.864103e+00
1.881685e+00
1.897917e+00
1.912340e+00
1.924648e+00
1.934818e+00
1.943125e+00
1.950073e+00
1.956276e+00
1.962395e+00
1.969077e+00
1.976903e+00
1.986314e+00
1.997564e+00
2.010723e+00
2.025714e+00
2.042346e+00
2.060320e+00
2.079235e+00
2.098629e+00
2.118071e+00
2.137242e+00
2.155936e+00
2.173982e+00
2.191144e+00
2.207094e+00
2.221532e+00
2.234370e+00
2.245819e+00
2.256286e+00
2.266154e+00
2.275583e+00
2.284424e+00
2.292278e+00
2.298662e+00
2.303180e+00
2.305645e+00
2.306127e+00
2.304936e+00
2.302548e+00
2.299508e+00
2.296312e+00
2.293290e+00
2.290529e+00
2.287882e+00
2.285073e+00
2.281872e+00
2.278238e+00
2.274352e+00
2.270518e+00
2.266992e+00
2.263858e+00
2.261018e+00
2.258295e+00
2.255550e+00
2.252751e+00
2.249986e+00
2.247390e+00
2.244993e+00
2.242568e+00
2.239597e+00
2.235390e+00
2.229326e+00
2.221119e+00
2.210982e+00
2.199634e+00
2.188104e+00
2.177441e+00
2.168430e+00
2.161443e+00
2.156495e+00
2.153435e+00
2.152124e+00
2.152461e+00
2.154312e+00
2.157438e+00
2.161474e+00
2.165993e+00
2.170587e+00
2.174965e+00
2.178981e+00
2.182603e+00
2.185867e+00
2.188851e+00
2.191678e+00
2.194495e+00
2.197418e+00
2.200489e+00
2.203668e+00
2.206889e+00
2.210124e+00
2.213395e+00
2.216746e+00
2.220182e+00
2.223648e+00
2.227041e+00
2.230236e+00
2.233080e+00
2.235354e+00
2.236735e+00
2.236826e+00
2.235284e+00
2.231976e+00
2.227057e+00
2.220898e+00
2.213899e+00
2.206327e+00
2.198260e+00
2.189674e+00
2.180619e+00
2.171349e+00
2.162330e+00
2.154120e+00
2.147216e+00
2.141964e+00
2.138511e+00
2.136783e+00
2.136469e+00
2.137032e+00
2.137762e+00
2.137875e+00
2.136665e+00
2.133647e+00
2.128633e+00
2.121711e+00
2.113180e+00
2.103490e+00
2.093197e+00
2.082930e+00
2.073329e+00
2.064957e+00
2.058201e+00
2.053189e+00
2.049760e+00
2.047501e+00
2.045862e+00
2.044307e+00
2.042424e+00
2.039933e+00
2.036622e+00
2.032281e+00
2.026721e+00
2.019848e+00
2.011742e+00
2.002656e+00
1.992951e+00
1.982978e+00
1.972963e+00
1.962958e+00
1.952857e+00
1.942455e+00
1.931469e+00
1.919526e+00
1.906160e+00
1.890864e+00
1.873212e+00
1.853007e+00
1.830385e+00
1.805770e+00
1.779715e+00
1.752692e+00
1.724961e+00
1.696538e+00
1.667271e+00
1.636962e+00
1.605474e+00
1.572782e+00
1.538959e+00
1.504130e+00
1.468445e+00
1.432081e+00
1.395256e+00
1.358258e+00
1.321474e+00
1.285389e+00
1.250508e+00
1.217182e+00
1.185437e+00
1.154917e+00
1.124966e+00
1.094814e+00
1.063763e+00
1.031339e+00
9.973747e-01
9.620354e-01
9.257779e-01
8.892629e-01
8.532509e-01
8.184970e-01
7.856554e-01
7.551957e-01
7.273401e-01
7.020353e-01
6.789762e-01
6.576945e-01
6.376975e-01
6.186133e-01
6.002872e-01
5.827954e-01
5.663648e-01
5.512219e-01
5.374392e-01
5.248642e-01
5.131668e-01
5.019608e-01
4.909194e-01
4.798315e-01
4.686028e-01
4.572419e-01
4.458606e-01
4.346710e-01
4.239335e-01
4.138527e-01
4.044727e-01
3.956393e-01
3.870559e-01
3.784069e-01
3.694934e-01
3.603039e-01
3.509717e-01
3.416520e-01
3.324255e-01
3.232906e-01
3.142257e-01
3.052538e-01
2.964652e-01
2.879999e-01
2.800197e-01
2.727089e-01
2.662997e-01
2.610851e-01
2.573867e-01
2.554874e-01
2.555672e-01
2.576604e-01
2.616354e-01
2.671972e-01
2.739239e-01
2.813286e-01
2.889104e-01
2.961714e-01
3.026148e-01
3.077664e-01
3.112308e-01
3.127560e-01
3.122802e-01
3.099625e-01
3.062010e-01
3.016194e-01
2.969911e-01
2.930943e-01
2.905254e-01
2.895264e-01
2.899007e-01
2.910763e-01
2.923043e-01
2.928960e-01
2.923884e-01
2.905886e-01
2.875345e-01
2.834389e-01
2.786514e-01
2.736249e-01
2.688666e-01
2.648664e-01
2.620076e-01
2.604756e-01
2.601949e-01
2.608323e-01
2.618715e-01
2.627341e-01
2.629152e-01
2.621007e-01
2.602244e-01
2.574259e-01
2.539279e-01
2.499115e-01
2.454698e-01
2.406441e-01
2.354881e-01
2.301060e-01
2.246459e-01
2.192592e-01
2.140510e-01
2.090532e-01
2.042414e-01
1.995828e-01
1.950824e-01
1.908060e-01
1.868807e-01
1.834697e-01
1.807083e-01
1.786170e-01
1.770553e-01
1.757755e-01
1.745736e-01
1.734567e-01
1.727254e-01
1.729231e-01
1.746903e-01
1.786013e-01
1.850263e-01
1.940284e-01
2.053120e-01
2.182591e-01
2.320595e-01
2.458780e-01
2.589943e-01
2.708888e-01
2.812801e-01
2.901334e-01
2.976504e-01
3.042364e-01
3.104320e-01
3.168064e-01
3.238369e-01
3.318085e-01
3.407694e-01
3.505555e-01
3.608732e-01
3.713967e-01
3.818306e-01
3.919155e-01
4.014166e-01
4.101439e-01
4.180040e-01
4.250246e-01
4.313074e-01
4.369299e-01
4.418699e-01
4.460044e-01
4.491750e-01
4.512723e-01
4.523100e-01
4.524754e-01
4.521457e-01
4.518616e-01
4.522683e-01
4.540260e-01
4.576947e-01
4.636062e-01
4.717636e-01
4.818164e-01
4.931476e-01
5.050583e-01
5.169761e-01
5.285919e-01
5.398810e-01
5.510327e-01
5.623500e-01
5.741572e-01
5.867287e-01
6.002376e-01
6.147203e-01
6.300556e-01
6.459692e-01
6.620813e-01
6.779877e-01
6.933466e-01
7.079450e-01
7.217184e-01
7.346980e-01
7.469002e-01
7.582195e-01
7.683802e-01
7.769565e-01
7.834410e-01
7.873340e-01
7.882190e-01
7.858026e-01
7.799271e-01
7.705820e-01
7.579250e-01
7.423059e-01
7.242824e-01
7.046050e-01
6.841473e-01
6.637794e-01
6.442135e-01
6.258722e-01
6.088413e-01
5.929369e-01
5.778490e-01
5.632834e-01
5.490528e-01
5.351267e-01
5.216456e-01
5.088793e-01
4.971361e-01
4.866772e-01
4.776851e-01
4.702781e-01
4.645307e-01
4.604695e-01
4.580594e-01
4.572126e-01
4.578349e-01
4.598858e-01
4.634076e-01
4.684983e-01
4.752410e-01
4.836322e-01
4.935478e-01
5.047635e-01
5.170115e-01
5.300385e-01
5.436277e-01
5.575771e-01
5.716516e-01
5.855465e-01
5.988911e-01
6.112996e-01
6.224510e-01
6.321631e-01
6.404227e-01
6.473591e-01
6.531692e-01
6.580191e-01
6.619482e-01
6.648088e-01
6.662730e-01
6.659078e-01
6.632845e-01
6.580792e-01
6.501340e-01
6.394631e-01
6.262150e-01
6.106209e-01
5.929604e-01
5.735420e-01
5.526899e-01
5.307252e-01
5.079467e-01
4.846178e-01
4.609603e-01
4.371472e-01
4.132946e-01
3.894654e-01
3.656986e-01
3.420611e-01
3.186970e-01
2.958519e-01
2.738650e-01
2.531338e-01
