EVENT_NAME: L_AQUILA
EVENT_ID: IT-2009-0009
EVENT_DATE_YYYYMMDD: 20090406
EVENT_TIME_HHMMSS: 013240
EVENT_LATITUDE_DEGREE: 42.3420
EVENT_LONGITUDE_DEGREE: 13.3800
EVENT_DEPTH_KM: 8.3
HYPOCENTER_REFERENCE: INGV-CNT_Seismic_Bulletin
MAGNITUDE_W: 6.1
MAGNITUDE_W_REFERENCE: INGV-CNT_Seismic_Bulletin
MAGNITUDE_L: 
MAGNITUDE_L_REFERENCE: 
FOCAL_MECHANISM: Normal faulting
NETWORK: IT
STATION_CODE: GSA
STATION_NAME: 
STATION_LATITUDE_DEGREE: 42.420689
STATION_LONGITUDE_DEGREE: 13.519362
STATION_ELEVATION_M: 1062
LOCATION: 
SENSOR_DEPTH_M: 0.0
VS30_M/S: 492
SITE_CLASSIFICATION_EC8: B
MORPHOLOGIC_CLASSIFICATION: 
EPICENTRAL_DISTANCE_KM: 14.4
EARTHQUAKE_BACKAZIMUTH_DEGREE: 52.7
DATE_TIME_FIRST_SAMPLE_YYYYMMDD_HHMMSS: 20090406_013229.000
DATE_TIME_FIRST_SAMPLE_PRECISION: seconds
SAMPLING_INTERVAL_S: 0.005000
NDATA: 33320
DURATION_S: 166.600
STREAM: HNE
UNITS: cm/s^2
INSTRUMENT: sensor = FBA-3 [Kinemetrics] | digitizer = Etna [Kinemetrics]
INSTRUMENT_ANALOG/DIGITAL: D
INSTRUMENTAL_FREQUENCY_HZ: 216.000
INSTRUMENTAL_DAMPING: 0.700000
FULL_SCALE_G: 1.0
N_BIT_DIGITAL_CONVERTER: 18
PGA_CM/S^2: -148.861801
TIME_PGA_S: 20.445000
BASELINE_CORRECTION: BASELINE NOT REMOVED
FILTER_TYPE: 
FILTER_ORDER: 
LOW_CUT_FREQUENCY_HZ: 
HIGH_CUT_FREQUENCY_HZ: 
LATE/NORMAL_TRIGGERED: NT
DATABASE_VERSION: 0.5
HEADER_FORMAT: DYNA 1.2
DATA_TYPE: ACCELERATION
PROCESSING: converted to cm/s^2
DATA_TIMESTAMP_YYYYMMDD_HHMMSS: 20211011_155739.154
DATA_LICENSE: CC-BY3_0-IT (http://creativecommons.org/licenses/by/3.0/deed.en)
DATA_CITATION: Luzi L, Pacor F, Puglia R (2019). Italian Accelerometric Archive v 3.0 - Istituto Nazionale di Geofisica e Vulcanologia, Dipartimento della Protezione Civile Nazionale. doi: 10.13127/itaca.3.1
DATA_CREATOR: ITACA working group
ORIGINAL_DATA_MEDIATOR_CITATION: data obtained within the DPC-INGV data exchange agreements
ORIGINAL_DATA_MEDIATOR: Archive of Italian Department of Civil Protection
ORIGINAL_DATA_CREATOR_CITATION: Presidency Of Counsil Of Ministers-Civil Protection Department. (1972). Italian Strong Motion Network. Presidency of Counsil of Ministers - Civil Protection Department. https://doi.org/10.7914/SN/IT http://www.fdsn.org/networks/detail/IT/
ORIGINAL_DATA_CREATOR: network: IT (Italian Strong Motion Network (RAN)); owner: Presidency of Counsil of Ministers - Civil Protection Department (PCM - DPC)
USER1: 
USER2: 
USER3: 
USER4: 
USER5: 
[...]
0.086757
0.084654
0.079979
0.083953
0.082784
0.081148
0.083485
0.076940
0.080446
0.085121
0.080446
0.077875
0.079979
0.081849
0.083485
0.083718
0.082083
0.087692
0.090497
0.089562
0.081615
0.077408
0.087926
0.090731
0.083953
0.082550
0.078109
0.076707
0.087926
0.082550
0.082083
0.083953
0.078109
0.078576
0.074837
0.076707
0.080680
0.087692
0.091198
0.087225
0.085355
0.084654
0.083718
0.079044
0.079511
0.082083
0.080914
0.080446
0.085822
0.085589
0.083485
0.082083
0.076707
0.081615
0.082784
0.084887
0.091900
0.082316
0.079745
0.082083
0.076239
0.077408
0.079511
0.086757
0.088160
0.084420
0.088861
0.086056
0.085121
0.082784
0.079979
0.081615
0.084654
0.089328
0.079745
0.077408
0.080213
0.082784
0.084654
0.084887
0.090497
0.080914
0.083018
0.086290
0.078343
0.075538
0.071097
0.072266
0.065721
0.067123
0.078109
0.102418
0.163891
0.256218
0.368413
0.456299
0.486451
0.473362
0.451858
0.460506
0.510760
0.561949
0.575506
0.528290
0.435496
0.341533
0.235883
0.136778
0.092835
0.115040
0.142153
0.150802
0.244297
0.383840
0.415394
0.289175
0.066422
-0.090183
-0.034086
0.291747
0.712944
0.866277
0.647263
0.290812
0.037672
-0.089482
-0.172927
-0.283251
-0.530080
-0.868067
-1.032853
-0.854276
-0.465334
-0.190691
-0.161006
-0.177134
-0.054888
0.264633
0.867212
1.639720
2.018844
1.540147
0.543016
-0.123140
-0.028943
0.448585
0.669001
0.318860
-0.433546
-1.085678
-1.142009
-0.517224
0.201991
0.359063
0.041178
-0.131789
0.167631
0.627396
0.790078
0.562416
0.186330
-0.062135
0.085121
0.725800
1.346377
1.151906
0.051696
-1.508745
-3.277448
-4.795350
-5.303498
-4.472322
-2.863263
-1.430443
-0.546208
0.243596
1.495970
2.990263
3.850189
3.520851
2.407318
1.429822
1.102821
1.014935
0.347376
-1.083574
-2.431781
-2.726759
-2.188458
-1.912880
-2.318651
-2.459829
-1.198574
1.498308
4.664069
7.138897
8.115226
7.151286
4.186306
-0.336077
-4.757484
-6.458870
-4.364335
0.025050
3.838736
4.666873
2.003885
-2.729331
-6.480608
-6.664794
-3.470049
0.823970
3.784743
4.817636
4.982889
4.772757
3.634448
1.303135
-1.346998
-2.749198
-2.196639
-0.629653
0.501878
1.402708
3.719062
7.716467
11.733270
13.581450
12.444310
9.355912
6.337874
5.611647
7.961425
12.962970
19.224840
23.761480
24.012289
19.800779
13.515060
8.702145
6.994213
7.591183
8.923495
9.506674
8.438954
5.315032
0.492061
-5.037971
-10.584130
-14.698640
-14.680410
-10.111280
-3.532925
2.689675
7.317241
10.620910
12.414390
10.977830
5.495712
-2.616201
-10.380780
-16.465710
-20.511259
-22.948231
-24.917940
-27.883390
-35.212509
-46.132801
-56.201111
-56.087280
-36.715450
-3.410446
30.455999
49.629379
48.445728
34.915508
19.250320
8.410906
-0.541533
-9.974305
-14.088350
-6.644927
8.074087
15.445750
7.346925
-13.556590
-31.131189
-28.360220
-6.675313
20.138990
38.692730
45.664001
44.689072
37.640671
24.073059
7.858814
-2.750601
-3.356920
3.272854
8.825792
7.080697
-1.270799
-9.333860
-8.468792
0.596074
8.746087
11.196140
9.293737
8.751229
12.635500
15.866950
15.244500
12.272740
8.239107
2.753486
-3.831644
-10.319770
-16.341820
-19.547550
-17.345030
-11.272730
-6.067358
-1.794608
6.579093
22.292431
41.440102
51.450439
40.636742
8.413009
-27.270531
-41.480221
-26.736200
3.640993
27.905680
33.021519
24.944901
17.937639
17.243670
18.491369
17.727039
15.159650
13.607390
16.511600
21.906530
22.949471
13.255850
-7.197953
-28.194260
-41.149010
-44.643650
-39.374939
-24.963289
-2.318417
21.426901
35.541000
35.538189
28.070459
21.339951
17.371759
13.368280
8.202644
1.328146
-7.515838
-14.053520
-15.780850
-13.447430
-10.288220
-9.342275
-8.595946
-6.950424
-8.220327
-17.004471
-34.946281
-54.423519
-56.789429
-31.920300
7.917015
39.156940
45.671009
32.188709
13.369210
0.225832
-2.216040
1.935165
7.550512
13.032630
16.405479
15.821370
12.513260
8.434046
4.456742
2.269880
2.518812
5.410398
9.983735
14.401870
18.072741
21.268190
23.922529
27.027519
32.435070
38.030548
40.680679
37.857109
24.679140
-1.972951
-34.848110
-59.426472
-67.694763
-65.479141
-64.510300
-66.165871
-59.028419
-33.575871
1.302200
26.876989
33.000019
20.991671
-0.309898
-20.071131
-31.211830
-37.461319
-45.505909
-54.116150
-56.649891
-49.435760
-37.392830
-29.421860
-27.713699
-22.960381
-6.084187
21.121870
45.559052
55.457199
52.244690
45.337929
41.224361
36.400452
26.664749
14.387610
2.618151
-9.317733
-22.604160
-32.374222
-33.907780
-28.880289
-20.568529
-10.719470
-0.169187
9.686653
16.290720
19.109610
19.712891
16.845610
10.632130
2.883679
-7.557678
-21.089300
-32.528950
-35.795219
-32.941971
-27.575790
-21.818100
-14.950140
-3.654703
9.957790
21.914709
29.388981
33.489929
37.486172
43.152241
49.606010
51.749161
45.822472
33.688381
17.688471
-2.089587
-18.722691
-24.859980
-22.779230
-17.875620
-10.198930
3.975708
23.163811
41.703758
52.843288
50.873569
33.365120
4.924454
-22.128269
-33.635712
-26.737600
-15.549450
-11.491040
-14.431010
-18.828110
-22.368549
-26.602501
-29.764521
-27.586069
-16.679110
-2.117402
8.066140
12.921600
16.638990
22.652861
26.872549
20.725210
1.172943
-22.940510
-35.958370
-32.677380
-22.903811
-16.511520
-16.311670
-18.088560
-14.979130
-6.171138
4.931466
16.650209
30.886320
48.345451
62.726719
65.161797
54.041908
35.372940
15.401810
-0.989377
-9.922182
-7.977707
5.036415
21.096390
28.083080
19.019381
-1.017893
-18.039240
-22.130610
-15.990510
-7.829984
-1.594060
4.230717
10.766060
13.389780
8.787459
1.961578
-0.168719
1.374893
1.269944
-1.878988
-4.098574
0.755251
11.926570
20.633820
19.276030
8.800549
-0.951511
-1.285291
5.729918
9.467172
-0.410172
-22.678490
-44.499199
-55.398449
-53.352760
-43.987770
-33.070530
-21.197281
-11.647880
-7.982381
-8.702532
-9.295060
-6.164827
2.269880
17.424120
35.516449
50.346020
57.463840
54.766258
45.453400
34.061890
23.576130
15.568460
7.341082
-6.007053
-21.369789
-30.169821
-28.516590
-18.487310
-6.042581
4.726243
12.709830
16.891661
16.995199
12.419060
0.594205
-17.864170
-36.379341
-48.268711
-49.156681
-40.263611
-28.239370
-17.738880
-9.807883
-1.923632
8.988475
21.752960
31.657890
33.295231
23.937960
6.336238
-12.599660
-28.338711
-40.189751
-46.665722
-43.874409
-30.724251
-12.476480
4.670847
15.559110
19.091379
19.976780
21.714630
24.196699
26.345230
29.065960
33.536911
37.301521
35.265179
25.771170
14.540710
9.671227
12.166620
14.452360
11.133030
3.384815
-4.993560
-9.074410
-6.652173
-2.994390
-3.276280
-6.518474
-13.497920
-25.241440
-39.688850
-52.585629
-55.969238
-45.627460
-26.508539
-10.223470
-3.775546
-1.397018
3.544459
12.049760
21.904430
29.108030
32.535809
34.583599
39.351170
46.671410
49.661171
40.900162
19.909929
-3.249166
-15.771270
-13.140070
-1.980197
5.080124
0.029024
-13.842920
-28.152189
-36.434731
-38.928730
-41.973881
-49.346710
-57.664780
-60.783329
-56.931541
-48.531658
-40.398479
-35.250141
-30.527910
-21.160351
-4.940502
14.675580
32.147339
42.729870
44.723431
38.724049
27.291880
12.818760
-1.703450
-9.266543
-5.036569
8.096760
22.048639
30.477739
30.774349
25.145451
19.463249
16.677549
16.657450
15.834920
11.356950
8.244249
11.643980
20.100189
27.208670
26.695379
18.662930
7.830765
-1.486307
-7.898703
-11.337240
-14.250090
-21.312519
-34.538879
-50.646770
-62.462280
-66.052971
-61.959499
-54.438721
-47.237450
-42.965630
-42.832870
-41.588440
-33.119381
-14.079000
11.113400
35.149010
53.137569
61.664371
62.669682
56.609058
44.157551
27.351950
9.365262
-3.654469
-11.273430
-14.698640
-14.970940
-10.868820
-4.177110
-3.057968
-7.681325
-16.072090
-20.976870
-17.761789
-11.351260
-3.571726
4.279802
12.932590
19.282810
17.871260
8.330265
-3.928412
-11.762410
-13.592590
-12.184540
-12.257700
-17.221380
-27.285250
-39.013580
-47.266430
-46.856689
-38.109470
-28.216700
-21.474030
-16.867741
-11.739970
-4.889546
3.368220
11.234010
15.002350
12.404100
3.672314
-9.806013
-26.474880
-42.871441
-53.240570
-53.914200
-44.262890
-27.336910
-8.026091
9.819417
21.741039
24.309370
16.893761
4.878875
-2.847369
-0.412509
11.387340
21.503099
20.131750
8.254300
-5.446313
-9.357234
-0.347764
12.688800
18.740999
15.403680
10.369870
9.019795
10.643810
13.378090
16.114479
18.884279
18.833561
12.815720
0.593270
-13.398580
-23.213051
-25.625469
-20.353020
-11.451300
-2.502603
3.890860
7.191723
8.793303
8.011445
2.790183
-8.737124
-25.185810
-41.623501
-52.560860
-55.258438
-49.635849
-37.872231
-26.100430
-19.581909
-17.952049
-18.731100
-19.196011
-17.686060
-14.791670
-11.385860
-8.991900
-9.188475
-13.312570
-21.947821
-33.974628
-45.124210
-46.421700
-35.658249
-22.077311
-12.329230
-7.807545
-5.652003
0.223962
11.726730
24.990250
33.911831
36.608952
35.600830
35.696201
39.619270
46.670010
52.761951
52.688320
48.122231
41.601379
32.664371
18.871660
-0.037592
-19.013460
-32.477299
-37.416199
-36.593208
-34.644058
-37.087799
-47.441269
-62.460400
-76.289810
-82.275864
-78.597282
-68.596046
-59.865200
-57.949711
-59.616970
-60.768600
-55.705349
-43.890072
-32.150761
-26.569309
-30.264490
-39.448799
-47.477032
-51.356400
-53.288952
-55.645039
-57.591621
-55.649021
-47.432388
-33.666561
-14.808730
6.932039
29.428949
51.980560
71.955673
85.989357
89.275963
79.993721
61.960979
41.085751
27.498970
29.647730
46.440708
68.588188
87.831223
97.031891
92.570747
83.810440
74.863380
63.876709
50.014351
30.662861
11.599810
-1.043370
-6.526187
-7.611905
-9.487427
-14.705180
-23.510130
-34.209770
-45.863060
-57.838451
-66.012070
-65.089043
-54.779739
-42.729561
-32.541340
-21.724600
-8.731749
8.717104
28.514330
46.307011
55.672001
51.331470
37.872311
23.198400
10.763490
-0.879520
-13.682810
-28.416080
-42.558701
-50.584591
-46.624580
-29.689020
-7.359934
12.926980
29.114111
41.812450
51.864399
62.248718
73.456268
78.386528
72.053833
59.274620
48.631779
40.712471
30.628031
17.743401
7.424527
5.409462
12.433790
23.975590
32.053379
31.660931
23.879761
12.526820
-2.246893
-19.368040
-33.340500
-39.579689
-36.805908
-30.685921
-26.014410
-22.949631
-19.275249
-13.325890
-9.432498
-12.771690
-24.545830
-40.472569
-52.386021
-51.814060
-37.342339
-16.959129
1.416265
16.109329
29.938971
43.628132
54.723961
61.762310
66.835381
72.945549
80.092346
86.690811
90.701073
89.584030
79.714630
60.527458
34.183910
0.565221
-39.718769
-80.889793
-111.668098
-124.457298
-115.091003
-87.022171
-50.641861
-11.431670
24.380190
54.565250
75.959618
84.510490
83.536957
75.371986
63.836040
51.282379
36.472912
17.993971
-4.946345
-29.392879
-51.425350
-64.651711
-65.234421
-55.089680
-36.006989
-13.775370
6.433006
23.148849
37.932140
52.056061
63.202839
71.153473
76.935944
81.456917
83.015961
76.295502
58.178391
32.942520
8.709858
-9.782873
-25.330959
-40.061890
-49.789181
-48.684528
-31.786831
-1.753236
30.931890
53.677738
59.749352
52.236511
39.103180
26.078300
12.702350
-2.978730
-20.683531
-37.937210
-49.772350
-49.746639
-34.277088
-7.118014
22.189819
43.106659
52.793041
55.155441
53.940929
52.268532
47.094009
34.998489
19.893339
7.506335
2.491698
4.853631
8.378650
8.529178
3.088668
-5.639615
-13.685850
-19.688499
-21.251751
-21.648399
-20.682831
-17.640011
-15.100670
-10.939880
-3.265060
10.733340
29.495800
47.887089
60.283669
61.152710
48.147709
23.927900
-3.639510
-28.244749
-46.289398
-54.628750
-49.262100
-27.968700
6.593818
46.537010
81.111458
103.946404
114.442596
114.234100
103.161697
78.381393
42.777088
8.178102
-12.426700
-13.938990
-2.752237
11.011720
21.878719
29.764139
37.528481
49.488899
64.908913
77.416748
83.232407
77.669182
60.584259
41.557671
28.743860
23.211491
18.259729
7.890603
-7.461611
-23.332260
-33.800732
-33.700451
-21.530359
-4.181084
12.163820
23.227619
27.258221
24.522770
11.363730
-10.534110
-39.153118
-70.191559
-95.032410
-108.436203
-110.207703
-106.916603
-104.872398
-106.598000
-109.801201
-109.011398
-98.398483
-79.518913
-59.292542
-43.909470
-36.484051
-30.125879
-19.326200
-5.118144
6.901886
12.386810
13.332750
10.756480
5.802378
-2.432716
-17.487610
-38.369862
-61.434059
-81.633553
-94.061691
-96.813026
-90.152397
-79.557480
-68.310188
-55.789021
-41.414780
-26.006229
-12.611120
-2.043774
5.362949
13.361500
24.124010
32.686111
32.196892
20.143440
0.498605
-20.163931
-33.459000
-33.104420
-18.036659
4.941283
26.482910
39.452381
42.306099
40.565681
38.250500
38.185051
44.092571
55.617771
67.566277
71.692467
58.093540
26.540171
-13.110150
-46.732109
-59.219151
-47.866211
-22.140421
8.062401
37.542030
62.582031
79.899986
87.665970
88.307114
85.933960
78.572594
61.748520
30.961109
-13.134460
-63.907021
-111.373100
-141.992706
-148.861801
-136.392807
-116.257103
-99.408234
-91.553200
-88.871277
-82.278214
-65.982384
-37.951469
-4.945878
24.639410
45.366451
55.358791
56.027050
47.461922
35.714199
28.860729
26.552090
20.753960
4.387322
-18.327900
-33.910580
-29.804260
-5.852785
24.734541
49.520691
63.758209
71.102287
77.860619
84.320686
86.983452
84.137680
76.446960
61.361439
31.910561
-13.967500
-64.253883
-100.696800
-113.590797
-108.638100
-95.998917
-77.833656
-56.169552
-33.221989
-14.959260
-9.089837
-13.414480
-19.957529
-16.629089
-0.537560
15.169000
16.126400
-0.812904
-24.158760
-39.182331
-40.744881
-34.438839
-26.808889
-18.108891
-4.424873
15.579680
38.282520
58.257858
71.752083
77.633186
75.490044
64.957977
45.536381
19.602100
-7.833724
-30.438160
-44.385361
-50.431492
-50.792622
-46.920731
-38.251591
-30.427870
-28.300150
-32.426811
-38.701069
-37.932770
-31.159941
-22.965290
-16.599871
-10.573140
-1.848368
6.663706
12.508820
10.412180
-2.851342
-24.257860
-44.205391
-52.151581
-41.337639
-12.012740
23.856380
56.396130
79.324989
93.743652
104.914497
112.584602
115.834801
110.479797
93.091751
63.593651
25.848770
-12.806520
-45.859329
-69.638763
-81.318939
-80.024490
-66.572578
-47.121281
-31.624620
-21.620590
-16.605009
-14.187450
-13.628350
-17.931480
-29.202850
-47.599979
-66.580994
-78.293877
-79.040451
-73.776176
-68.726013
-65.429123
-62.293751
-52.109741
-30.002230
0.653808
31.262640
53.140839
61.573681
55.638809
37.122471
9.819183
-20.481340
-47.554871
-66.253990
-73.042473
-64.654984
-38.451199
-0.165914
38.827370
69.029716
86.363808
93.898376
95.340553
92.633392
85.236023
71.444481
52.241650
30.992201
14.879170
9.435150
10.758350
12.752370
12.498300
10.037260
6.220303
0.083251
-2.960966
-0.707488
4.558887
10.987640
10.243190
0.358830
-16.152500
-33.759590
-45.094528
-49.085388
-48.371780
-49.144058
-54.334469
-62.074970
-68.008667
-69.434013
-67.461250
-67.264442
-74.240623
-86.960228
-100.322403
-107.572304
-105.661903
-95.523956
-77.446823
-52.206039
-22.995199
5.601830
28.728201
43.875431
54.685162
64.330399
71.551773
72.059677
62.579460
43.504951
17.472969
-9.343210
-29.592960
-35.328911
-24.157591
-3.926542
18.150339
38.377880
53.630989
62.542061
65.023201
61.957008
55.118740
45.029869
33.769951
26.047449
23.466499
28.256281
40.843601
58.127430
72.416832
75.492126
68.173073
51.159439
31.532370
18.374729
15.006790
21.459850
28.478340
29.621790
23.957590
12.708660
-1.272669
-16.569490
-33.878330
-55.199299
-78.883377
-99.891609
-111.276299
-107.350502
-90.474960
-69.579857
-53.848759
-49.331520
-57.040699
-71.960487
-85.962868
-95.488899
-100.846397
-102.247902
-99.990013
-92.319397
-74.830353
-45.791538
-9.253922
28.463610
61.092411
85.313148
102.868103
116.477600
125.538696
129.128006
127.900902
121.611198
110.296799
95.150757
79.610863
69.485283
68.397217
74.494537
82.819153
89.294891
90.612953
84.079712
68.118607
44.215050
16.660259
-8.678924
-23.425289
-21.356701
-3.757782
20.089439
40.788441
53.395851
55.682289
48.383549
34.659561
17.786650
-1.271734
-21.583660
-42.233559
-61.476830
-75.706161
-82.655693
-83.225777
-80.823410
-78.461479
-75.646088
-69.327888
-56.770729
-36.838871
-13.152920
9.739712
28.912861
41.731339
46.948860
43.526920
31.947491
14.893420
-1.445168
-8.721931
-1.954018
16.078251
36.385029
51.501400
59.382839
62.778141
66.169922
72.065987
79.476677
85.875526
87.906952
81.976303
65.058731
37.436619
5.181333
-24.474070
-41.825218
-40.531479
-23.357500
3.374764
31.018379
54.480629
71.332748
80.011719
80.855743
72.410759
53.308670
24.948410
-7.456936
-39.082291
-66.782944
-86.895714
-98.034782
-100.891296
-96.041222
-86.007507
-70.638702
-49.009430
-25.230450
-3.711034
7.985267
6.808391
-1.834344
-12.174020
-19.543579
-23.519480
-25.662170
-24.758770
-18.640181
-7.124559
3.666471
5.045765
-4.836020
-25.013309
-47.851479
-64.995773
-72.356216
-66.528633
-52.660431
-36.196320
-20.297621
-7.224833
1.661925
5.117990
4.563094
0.079044
-8.399606
-18.489889
-27.707621
-35.492531
-40.051140
-38.054779
-30.581440
-22.979780
-21.594879
-29.418119
-43.048382
-55.748821
-59.617439
-52.536308
-38.873798
-23.142691
-8.590804
4.353663
14.668330
20.519760
21.681440
18.388060
12.780420
7.040260
2.218925
-3.876522
-14.383790
-26.864759
-36.346851
-36.659119
-29.595060
-21.107759
-14.306890
-10.593250
-3.983574
5.704675
14.760190
19.431000
16.756559
8.901757
-2.902297
-14.878150
-23.982050
-26.909630
-23.320101
-15.365260
-5.136375
3.886185
12.940300
20.175930
25.566650
30.281870
34.277168
40.549320
48.408791
56.420200
62.394810
65.547478
66.986839
66.838654
63.828560
56.201660
44.860168
31.617451
19.859440
13.038700
11.904370
14.560810
17.825911
20.919920
24.774509
28.894390
31.534710
31.140390
28.332479
24.561810
19.943821
13.793920
4.607504
-8.227340
-23.287849
-38.696621
-53.547001
-67.599861
-79.457672
-85.082138
-80.832993
-68.140961
-54.068470
-45.559200
-43.304089
-43.941490
-45.811642
-49.888279
-57.466572
-69.079659
-82.751991
-95.893738
-104.503700
-103.783401
-90.678307
-64.622963
-32.620350
-2.460063
22.437349
41.613770
57.307240
70.516769
81.307564
89.247223
92.963203
91.096077
84.359734
76.008469
69.639313
67.926697
71.575844
77.945229
79.423393
68.841797
47.245239
22.070379
0.017571
-14.369770
-19.037540
-17.422630
-14.012610
-11.721270
-8.138286
-0.878819
10.052690
25.860460
