EVENT_NAME: L_AQUILA
EVENT_ID: IT-2009-0009
EVENT_DATE_YYYYMMDD: 20090406
EVENT_TIME_HHMMSS: 013240
EVENT_LATITUDE_DEGREE: 42.3420
EVENT_LONGITUDE_DEGREE: 13.3800
EVENT_DEPTH_KM: 8.3
HYPOCENTER_REFERENCE: INGV-CNT_Seismic_Bulletin
MAGNITUDE_W: 6.1
MAGNITUDE_W_REFERENCE: INGV-CNT_Seismic_Bulletin
MAGNITUDE_L: 
MAGNITUDE_L_REFERENCE: 
FOCAL_MECHANISM: Normal faulting
NETWORK: IT
STATION_CODE: MMP
STATION_NAME: 
STATION_LATITUDE_DEGREE: 42.248547
STATION_LONGITUDE_DEGREE: 12.748537
STATION_ELEVATION_M: 475
LOCATION: 
SENSOR_DEPTH_M: 0.0
VS30_M/S: 
SITE_CLASSIFICATION_EC8: B (inferred from geology)
MORPHOLOGIC_CLASSIFICATION: 
EPICENTRAL_DISTANCE_KM: 53.1
EARTHQUAKE_BACKAZIMUTH_DEGREE: 258.9
DATE_TIME_FIRST_SAMPLE_YYYYMMDD_HHMMSS: 20090406_013237.000
DATE_TIME_FIRST_SAMPLE_PRECISION: seconds
SAMPLING_INTERVAL_S: 0.005000
NDATA: 20380
DURATION_S: 101.900
STREAM: HNE
UNITS: cm/s
INSTRUMENT: sensor = Unknown [Unknown] | digitizer = Etna [Kinemetrics]
INSTRUMENT_ANALOG/DIGITAL: D
INSTRUMENTAL_FREQUENCY_HZ: 218.000
INSTRUMENTAL_DAMPING: 0.700000
FULL_SCALE_G: 1.0
N_BIT_DIGITAL_CONVERTER: 18
PGV_CM/S: 0.862070
TIME_PGV_S: 33.900000
BASELINE_CORRECTION: BASELINE REMOVED
FILTER_TYPE: BUTTERWORTH
FILTER_ORDER: 2
LOW_CUT_FREQUENCY_HZ: 0.030
HIGH_CUT_FREQUENCY_HZ: 40.000
LATE/NORMAL_TRIGGERED: NT
DATABASE_VERSION: 0.5
HEADER_FORMAT: DYNA 1.2
DATA_TYPE: VELOCITY
PROCESSING: manual (Paolucci et al., 2011)
DATA_TIMESTAMP_YYYYMMDD_HHMMSS: 20211011_160301.063
DATA_LICENSE: CC-BY3_0-IT (http://creativecommons.org/licenses/by/3.0/deed.en)
DATA_CITATION: Luzi L, Pacor F, Puglia R (2019). Italian Accelerometric Archive v 3.0 - Istituto Nazionale di Geofisica e Vulcanologia, Dipartimento della Protezione Civile Nazionale. doi: 10.13127/itaca.3.1
DATA_CREATOR: ITACA working group
ORIGINAL_DATA_MEDIATOR_CITATION: data obtained within the DPC-INGV data exchange agreements
ORIGINAL_DATA_MEDIATOR: Archive of Italian Department of Civil Protection
ORIGINAL_DATA_CREATOR_CITATION: Presidency Of Counsil Of Ministers-Civil Protection Department. (1972). Italian Strong Motion Network. Presidency of Counsil of Ministers - Civil Protection Department. https://doi.org/10.7914/SN/IT http://www.fdsn.org/networks/detail/IT/
ORIGINAL_DATA_CREATOR: network: IT (Italian Strong Motion Network (RAN)); owner: Presidency of Counsil of Ministers - Civil Protection Department (PCM - DPC)
USER1: 
USER2: 
USER3: 
USER4: 
USER5: 
[...]
0.516125
0.514587
0.510777
0.504669
0.496406
0.486211
0.474282
0.460758
0.445759
0.429441
0.412030
0.393854
0.375350
0.356988
0.339135
0.321937
0.305279
0.288880
0.272485
0.256081
0.239985
0.224755
0.211012
0.199297
0.189975
0.183199
0.178950
0.177123
0.177598
0.180250
0.184896
0.191266
0.199007
0.207702
0.216877
0.226046
0.234766
0.242689
0.249604
0.255468
0.260370
0.264435
0.267736
0.270242
0.271825
0.272345
0.271762
0.270174
0.267771
0.264762
0.261318
0.257537
0.253461
0.249134
0.244654
0.240184
0.235931
0.232080
0.228720
0.225838
0.223414
0.221498
0.220179
0.219493
0.219353
0.219572
0.219946
0.220337
0.220657
0.220819
0.220699
0.220154
0.219079
0.217503
0.215618
0.213746
0.212248
0.211453
0.211602
0.212791
0.214938
0.217788
0.220947
0.223954
0.226396
0.227967
0.228450
0.227653
0.225358
0.221287
0.215099
0.206452
0.195107
0.181007
0.164340
0.145563
0.125319
0.104297
0.083118
0.062300
0.042290
0.023518
0.006442
-0.008500
-0.020992
-0.030921
-0.038351
-0.043450
-0.046437
-0.047547
-0.047015
-0.045062
-0.041900
-0.037741
-0.032831
-0.027444
-0.021828
-0.016126
-0.010342
-0.004342
0.002109
0.009285
0.017414
0.026592
0.036773
0.047837
0.059668
0.072170
0.085236
0.098714
0.112404
0.126132
0.139839
0.153583
0.167476
0.181624
0.196091
0.210887
0.225982
0.241308
0.256752
0.272129
0.287168
0.301547
0.314967
0.327197
0.338056
0.347381
0.355038
0.360997
0.365390
0.368534
0.370848
0.372704
0.374283
0.375569
0.376451
0.376818
0.376564
0.375572
0.373717
0.370896
0.367060
0.362232
0.356469
0.349796
0.342159
0.333426
0.323453
0.312172
0.299623
0.285903
0.271106
0.255298
0.238575
0.221149
0.203402
0.185839
0.168976
0.153237
0.138901
0.126084
0.114755
0.104787
0.095987
0.088080
0.080715
0.073498
0.066075
0.058198
0.049768
0.040827
0.031531
0.022136
0.012982
0.004454
-0.003067
-0.009220
-0.013674
-0.016157
-0.016496
-0.014635
-0.010615
-0.004489
0.003767
0.014243
0.026986
0.041868
0.058557
0.076557
0.095276
0.114112
0.132517
0.150047
0.166362
0.181231
0.194542
0.206291
0.216549
0.225434
0.233113
0.239797
0.245716
0.251088
0.256065
0.260672
0.264797
0.268263
0.270895
0.272554
0.273125
0.272508
0.270612
0.267359
0.262667
0.256437
0.248573
0.239040
0.227948
0.215606
0.202518
0.189307
0.176625
0.165084
0.155206
0.147399
0.141948
0.139026
0.138722
0.141051
0.145995
0.153544
0.163716
0.176531
0.191937
0.209749
0.229641
0.251185
0.273866
0.297099
0.320297
0.342938
0.364584
0.384829
0.403284
0.419619
0.433600
0.445094
0.454023
0.460258
0.463537
0.463462
0.459603
0.451615
0.439325
0.422763
0.402158
0.377920
0.350628
0.320966
0.289680
0.257564
0.225453
0.194174
0.164480
0.136945
0.111887
0.089324
0.069011
0.050537
0.033456
0.017425
0.002318
-0.011741
-0.024474
-0.035596
-0.044928
-0.052421
-0.058117
-0.062112
-0.064511
-0.065383
-0.064758
-0.062647
-0.059081
-0.054142
-0.048000
-0.040940
-0.033351
-0.025706
-0.018543
-0.012408
-0.007782
-0.005024
-0.004347
-0.005839
-0.009530
-0.015456
-0.023673
-0.034213
-0.047038
-0.062020
-0.078952
-0.097557
-0.117499
-0.138393
-0.159832
-0.181389
-0.202618
-0.223095
-0.242472
-0.260504
-0.277024
-0.291913
-0.305045
-0.316237
-0.325195
-0.331503
-0.334658
-0.334178
-0.329754
-0.321345
-0.309169
-0.293615
-0.275149
-0.254269
-0.231487
-0.207306
-0.182228
-0.156790
-0.131578
-0.107189
-0.084208
-0.063181
-0.044559
-0.028643
-0.015581
-0.005386
0.002034
0.006812
0.009068
0.008922
0.006548
0.002189
-0.003842
-0.011170
-0.019404
-0.028220
-0.037387
-0.046738
-0.056135
-0.065486
-0.074747
-0.083919
-0.093024
-0.102049
-0.110884
-0.119308
-0.127094
-0.134141
-0.140543
-0.146554
-0.152473
-0.158538
-0.164881
-0.171567
-0.178616
-0.185992
-0.193585
-0.201237
-0.208808
-0.216215
-0.223398
-0.230281
-0.236778
-0.242818
-0.248379
-0.253542
-0.258524
-0.263615
-0.269108
-0.275305
-0.282515
-0.290977
-0.300786
-0.311871
-0.323991
-0.336730
-0.349545
-0.361863
-0.373168
-0.383048
-0.391193
-0.397386
-0.401485
-0.403417
-0.403204
-0.401004
-0.397116
-0.391930
-0.385851
-0.379219
-0.372248
-0.365001
-0.357433
-0.349484
-0.341173
-0.332649
-0.324172
-0.316000
-0.308309
-0.301229
-0.294965
-0.289837
-0.286236
-0.284560
-0.285126
-0.288087
-0.293407
-0.300896
-0.310207
-0.320876
-0.332412
-0.344382
-0.356420
-0.368174
-0.379274
-0.389360
-0.398151
-0.405464
-0.411196
-0.415328
-0.417954
-0.419277
-0.419550
-0.419045
-0.418018
-0.416667
-0.415114
-0.413422
-0.411616
-0.409708
-0.407733
-0.405756
-0.403845
-0.402075
-0.400585
-0.399601
-0.399398
-0.400239
-0.402317
-0.405719
-0.410450
-0.416466
-0.423727
-0.432221
-0.441995
-0.453151
-0.465831
-0.480125
-0.495946
-0.513016
-0.530952
-0.549368
-0.567909
-0.586283
-0.604328
-0.622016
-0.639405
-0.656608
-0.673754
-0.690876
-0.707827
-0.724314
-0.739981
-0.754448
-0.767334
-0.778308
-0.787169
-0.793863
-0.798447
-0.801031
-0.801737
-0.800704
-0.798114
-0.794176
-0.789068
-0.782917
-0.775840
-0.767964
-0.759428
-0.750391
-0.741021
-0.731471
-0.721857
-0.712252
-0.702698
-0.693260
-0.684056
-0.675278
-0.667188
-0.660056
-0.654082
-0.649388
-0.646069
-0.644177
-0.643654
-0.644292
-0.645764
-0.647684
-0.649681
-0.651488
-0.653007
-0.654253
-0.655260
-0.656022
-0.656451
-0.656368
-0.655563
-0.653836
-0.650980
-0.646774
-0.641042
-0.633701
-0.624774
-0.614398
-0.602816
-0.590366
-0.577462
-0.564531
-0.551950
-0.540012
-0.528931
-0.518835
-0.509787
-0.501870
-0.495237
-0.490098
-0.486681
-0.485195
-0.485746
-0.488306
-0.492748
-0.498869
-0.506373
-0.514884
-0.523979
-0.533253
-0.542335
-0.550883
-0.558597
-0.565295
-0.570926
-0.575539
-0.579287
-0.582422
-0.585194
-0.587762
-0.590190
-0.592505
-0.594746
-0.596994
-0.599357
-0.601927
-0.604672
-0.607380
-0.609710
-0.611283
-0.611747
-0.610839
-0.608422
-0.604413
-0.598691
-0.591131
-0.581647
-0.570172
-0.556656
-0.541113
-0.523627
-0.504298
-0.483226
-0.460515
-0.436270
-0.410608
-0.383671
-0.355640
-0.326712
-0.297035
-0.266703
-0.235802
-0.204421
-0.172608
-0.140377
-0.107727
-0.074652
-0.041189
-0.007499
0.026083
0.059090
0.090990
0.121273
0.149506
0.175321
0.198393
0.218456
0.235310
0.248807
0.258830
0.265287
0.268133
0.267425
0.263353
0.256239
0.246544
0.234816
0.221579
0.207255
0.192143
0.176430
0.160237
0.143673
0.126868
0.109961
0.093066
0.076273
0.059694
0.043492
0.027865
0.013030
-0.000788
-0.013389
-0.024617
-0.034365
-0.042606
-0.049426
-0.054992
-0.059467
-0.062967
-0.065557
-0.067265
-0.068107
-0.068122
-0.067399
-0.066089
-0.064360
-0.062341
-0.060089
-0.057593
-0.054759
-0.051398
-0.047271
-0.042151
-0.035826
-0.028143
-0.019085
-0.008798
0.002411
0.014127
0.025942
0.037567
0.048882
0.059911
0.070737
0.081423
0.092022
0.102634
0.113398
0.124476
0.136022
0.148124
0.160778
0.173946
0.187584
0.201593
0.215780
0.229884
0.243608
0.256648
0.268736
0.279645
0.289170
0.297119
0.303360
0.307880
0.310750
0.312063
0.311922
0.310461
0.307835
0.304216
0.299754
0.294498
0.288359
0.281160
0.272703
0.262855
0.251642
0.239261
0.226027
0.212307
0.198436
0.184646
0.171070
0.157787
0.144859
0.132385
0.120527
0.109451
0.099274
0.090065
0.081839
0.074523
0.067960
0.061923
0.056160
0.050478
0.044839
0.039348
0.034192
0.029603
0.025797
0.022915
0.021040
0.020255
0.020634
0.022195
0.024899
0.028694
0.033551
0.039474
0.046490
0.054606
0.063740
0.073690
0.084155
0.094809
0.105386
0.115710
0.125677
0.135224
0.144301
0.152853
0.160841
0.168235
0.174992
0.181050
0.186384
0.191083
0.195353
0.199461
0.203716
0.208412
0.213735
0.219741
0.226420
0.233734
0.241632
0.250065
0.258976
0.268273
0.277837
0.287563
0.297380
0.307231
0.317038
0.326669
0.335897
0.344399
0.351812
0.357805
0.362131
0.364652
0.365352
0.364294
0.361555
0.357190
0.351224
0.343648
0.334448
0.323662
0.311416
0.297946
0.283582
0.268700
0.253676
0.238833
0.224366
0.210326
0.196675
0.183357
0.170332
0.157602
0.145225
0.133289
0.121853
0.110918
0.100442
0.090358
0.080563
0.070962
0.061525
0.052308
0.043403
0.034879
0.026742
0.018917
0.011290
0.003779
-0.003644
-0.010973
-0.018204
-0.025354
-0.032468
-0.039642
-0.047033
-0.054824
-0.063184
-0.072252
-0.082125
-0.092875
-0.104618
-0.117526
-0.131758
-0.147375
-0.164322
-0.182419
-0.201353
-0.220731
-0.240129
-0.259121
-0.277315
-0.294377
-0.309998
-0.323881
-0.335758
-0.345388
-0.352574
-0.357219
-0.359350
-0.359057
-0.356432
-0.351553
-0.344492
-0.335366
-0.324377
-0.311788
-0.297873
-0.282910
-0.267206
-0.251088
-0.234907
-0.219043
-0.203859
-0.189645
-0.176631
-0.165024
-0.155011
-0.146731
-0.140255
-0.135567
-0.132536
-0.130972
-0.130691
-0.131545
-0.133423
-0.136259
-0.139998
-0.144533
-0.149672
-0.155166
-0.160750
-0.166181
-0.171279
-0.175924
-0.180021
-0.183488
-0.186241
-0.188186
-0.189245
-0.189383
-0.188603
-0.186968
-0.184639
-0.181821
-0.178642
-0.175102
-0.171085
-0.166396
-0.160840
-0.154298
-0.146745
-0.138235
-0.128904
-0.118972
-0.108727
-0.098474
-0.088474
-0.078922
-0.069944
-0.061606
-0.053933
-0.046941
-0.040629
-0.034967
-0.029890
-0.025293
-0.021040
-0.016972
-0.012948
-0.008908
-0.004884
-0.000940
0.002881
0.006578
0.010207
0.013869
0.017681
0.021759
0.026235
0.031263
0.036979
0.043461
0.050712
0.058659
0.067182
0.076156
0.085479
0.095121
0.105095
0.115399
0.125983
0.136780
0.147736
0.158832
0.170113
0.181673
0.193603
0.205922
0.218565
0.231379
0.244134
0.256562
0.268363
0.279204
0.288756
0.296738
0.302946
0.307271
0.309705
0.310306
0.309139
0.306266
0.301780
0.295809
0.288466
0.279844
0.270018
0.259017
0.246834
0.233478
0.219017
0.203553
0.187189
0.170025
0.152143
0.133626
0.114591
0.095183
0.075506
0.055586
0.035354
0.014692
-0.006508
-0.028259
-0.050427
-0.072739
-0.094871
-0.116535
-0.137520
-0.157700
-0.177020
-0.195461
-0.212995
-0.229586
-0.245192
-0.259759
-0.273224
-0.285544
-0.296706
-0.306746
-0.315782
-0.324017
-0.331688
-0.338998
-0.346084
-0.353037
-0.359938
-0.366831
-0.373709
-0.380505
-0.387086
-0.393252
-0.398796
-0.403583
-0.407547
-0.410620
-0.412703
-0.413656
-0.413326
-0.411596
-0.408441
-0.403922
-0.398117
-0.391053
-0.382708
-0.373039
-0.362029
-0.349731
-0.336293
-0.321923
-0.306865
-0.291404
-0.275836
-0.260414
-0.245318
-0.230672
-0.216574
-0.203118
-0.190405
-0.178539
-0.167608
-0.157698
-0.148926
-0.141446
-0.135412
-0.130929
-0.128039
-0.126725
-0.126911
-0.128460
-0.131180
-0.134804
-0.138982
-0.143307
-0.147364
-0.150773
-0.153204
-0.154399
-0.154189
-0.152471
-0.149163
-0.144195
-0.137494
-0.128973
-0.118535
-0.106139
-0.091847
-0.075827
-0.058353
-0.039796
-0.020587
-0.001136
0.018207
0.037158
0.055492
0.073039
0.089645
0.105154
0.119427
0.132343
0.143782
0.153629
0.161808
0.168312
0.173196
0.176547
0.178451
0.178942
0.177976
0.175457
0.171303
0.165479
0.157999
0.148956
0.138538
0.126980
0.114514
0.101379
0.087834
0.074171
0.060725
0.047873
0.036003
0.025449
0.016448
0.009153
0.003643
-0.000076
-0.002043
-0.002347
-0.001173
0.001183
0.004328
0.007820
0.011207
0.014079
0.016084
0.016924
0.016365
0.014256
0.010538
0.005261
-0.001447
-0.009411
-0.018418
-0.028202
-0.038460
-0.048860
-0.059054
-0.068713
-0.077556
-0.085354
-0.091923
-0.097118
-0.100851
-0.103103
-0.103911
-0.103356
-0.101532
-0.098547
-0.094519
-0.089572
-0.083818
-0.077350
-0.070227
-0.062469
-0.054066
-0.044990
-0.035233
-0.024823
-0.013802
-0.002189
0.010025
0.022861
0.036324
0.050365
0.064839
0.079496
0.094045
0.108199
0.121689
0.134281
0.145792
0.156080
0.165025
0.172517
0.178432
0.182645
0.185078
0.185749
0.184760
0.182274
0.178483
0.173572
0.167670
0.160861
0.153215
0.144792
0.135638
0.125804
0.115351
0.104323
0.092747
0.080646
0.068042
0.054954
0.041409
0.027426
0.012979
-0.001997
-0.017563
-0.033754
-0.050564
-0.067922
-0.085686
-0.103683
-0.121746
-0.139735
-0.157561
-0.175187
-0.192592
-0.209744
-0.226591
-0.243070
-0.259135
-0.274783
-0.290022
-0.304850
-0.319260
-0.333221
-0.346642
-0.359374
-0.371255
-0.382155
-0.391995
-0.400764
-0.408492
-0.415207
-0.420923
-0.425671
-0.429494
-0.432426
-0.434478
-0.435646
-0.435951
-0.435470
-0.434338
-0.432731
-0.430817
-0.428708
-0.426463
-0.424078
-0.421497
-0.418617
-0.415321
-0.411517
-0.407137
-0.402118
-0.396371
-0.389745
-0.382011
-0.372886
-0.362090
-0.349388
-0.334598
-0.317579
-0.298225
-0.276452
-0.252189
-0.225394
-0.196081
-0.164335
-0.130306
-0.094186
-0.056192
-0.016562
0.024443
0.066555
0.109508
0.153052
0.196981
0.241132
0.285356
0.329505
0.373435
0.416981
0.459916
0.501960
0.542803
0.582129
0.619661
0.655178
0.688473
0.719331
0.747544
0.772919
0.795276
0.814478
0.830472
0.843240
0.852768
0.859047
0.862070
0.861806
0.858200
0.851233
0.840957
0.827475
0.810929
0.791522
0.769495
0.745072
0.718479
0.689978
0.659839
0.628313
0.595643
0.562065
0.527787
0.492968
0.457707
0.422064
0.386099
0.349896
0.313560
0.277207
0.240963
0.204957
0.169317
0.134167
0.099633
0.065861
0.032991
0.001140
-0.029559
-0.058928
-0.086751
-0.112799
-0.136847
-0.158673
-0.178086
-0.194970
-0.209288
-0.221044
-0.230267
-0.236996
-0.241261
-0.243061
-0.242415
-0.239386
-0.234079
-0.226645
-0.217302
-0.206309
-0.193939
-0.180464
-0.166140
-0.151173
-0.135717
-0.119897
-0.103817
-0.087524
-0.070995
-0.054184
-0.037094
-0.019778
-0.002309
0.015217
0.032665
0.049897
0.066808
0.083323
0.099383
0.114937
0.129929
0.144265
0.157821
0.170454
0.182026
0.192440
0.201696
0.209882
0.217138
0.223615
0.229428
0.234626
0.239181
0.242996
0.245941
0.247910
0.248879
0.248911
0.248132
0.246678
0.244651
0.242097
0.239029
0.235444
0.231308
0.226576
0.221229
0.215291
0.208789
0.201715
0.193995
0.185505
0.176103
0.165677
0.154158
0.141516
0.127815
0.113247
0.098084
0.082605
0.067091
0.051821
0.037074
0.023127
0.010257
-0.001285
-0.011289
-0.019564
-0.025935
-0.030294
-0.032632
-0.033010
-0.031537
-0.028386
-0.023794
-0.017993
-0.011159
-0.003400
0.005185
0.014472
0.024290
0.034404
0.044521
0.054313
0.063455
0.071640
0.078607
0.084148
0.088100
0.090339
0.090779
0.089359
0.086010
0.080664
0.073303
0.063967
0.052714
0.039586
0.024626
0.007884
-0.010568
-0.030598
-0.051984
-0.074428
-0.097577
-0.121029
-0.144376
-0.167236
-0.189266
-0.210152
-0.229606
-0.247378
-0.263274
-0.277173
-0.289008
-0.298746
-0.306380
-0.311937
-0.315468
-0.317060
-0.316826
-0.314893
-0.311411
-0.306546
-0.300446
-0.293232
-0.285030
-0.275990
-0.266279
-0.256067
-0.245502
-0.234674
-0.223585
-0.212166
-0.200325
-0.187974
-0.175030
-0.161424
-0.147109
-0.132051
-0.116244
-0.099735
-0.082621
-0.065058
-0.047253
-0.029432
-0.011791
0.005504
0.022316
0.038534
0.054046
0.068732
0.082464
0.095122
0.106615
0.116906
0.125995
0.133879
0.140561
0.146068
0.150472
0.153875
0.156377
0.158044
0.158918
0.159028
0.158406
0.157087
0.155115
0.152531
0.149349
0.145550
0.141092
0.135912
0.129920
0.122989
0.114956
0.105653
0.094961
0.082845
0.069349
0.054595
0.038774
0.022094
0.004743
-0.013122
-0.031350
-0.049787
-0.068268
-0.086595
-0.104517
-0.121728
-0.137905
-0.152724
-0.165877
-0.177074
-0.186058
-0.192621
-0.196600
-0.197882
-0.196403
-0.192151
-0.185140
-0.175397
-0.162991
-0.148058
-0.130814
-0.111529
-0.090498
-0.068021
-0.044396
-0.019905
0.005171
0.030551
0.055953
0.081084
0.105642
0.129331
0.151878
0.173044
0.192623
0.210435
0.226303
0.240038
0.251467
0.260447
0.266891
0.270778
0.272178
0.271241
0.268159
0.263128
0.256348
0.248040
0.238459
0.227901
0.216697
0.205180
0.193658
0.182396
0.171614
0.161488
0.152139
0.143629
0.135969
0.129142
0.123120
0.117892
0.113467
0.109847
0.107007
0.104917
0.103561
0.102918
0.102951
0.103616
0.104862
0.106602
0.108717
0.111068
0.113505
0.115860
0.117977
0.119722
0.120997
0.121736
0.121909
0.121520
0.120601
0.119185
0.117310
0.115025
0.112395
0.109499
0.106463
0.103465
0.100690
0.098284
0.096356
0.094965
0.094107
0.093718
0.093699
0.093941
0.094340
0.094823
0.095342
0.095842
0.096255
0.096541
0.096715
0.096846
0.097025
0.097333
0.097831
0.098541
0.099430
0.100405
0.101313
0.101951
0.102103
0.101583
0.100226
0.097850
0.094262
0.089277
0.082711
0.074411
0.064316
0.052478
0.039042
0.024212
0.008216
-0.008739
-0.026507
-0.044986
-0.064061
-0.083561
-0.103289
-0.123045
-0.142664
-0.162047
-0.181167
-0.200055
-0.218771
-0.237386
-0.255953
-0.274492
-0.292979
-0.311376
-0.329652
-0.347782
-0.365745
-0.383527
-0.401097
-0.418385
-0.435294
-0.451754
-0.467731
-0.483210
-0.498185
-0.512643
-0.526538
-0.539782
-0.552254
-0.563829
-0.574394
-0.583855
-0.592137
-0.599157
-0.604819
-0.609012
-0.611638
-0.612600
-0.611787
-0.609069
-0.604322
-0.597470
-0.588489
-0.577388
-0.564174
-0.548834
-0.531329
-0.511619
-0.489698
-0.465588
-0.439353
-0.411125
-0.381111
-0.349558
-0.316737
-0.282947
-0.248527
-0.213850
-0.179312
-0.145314
-0.112232
-0.080410
-0.050157
-0.021754
0.004580
0.028702
0.050544
0.070122
0.087519
0.102846
0.116208
0.127693
0.137377
0.145349
0.151733
0.156685
0.160386
0.163017
0.164719
0.165557
0.165542
0.164667
0.162921
0.160308
0.156872
0.152691
0.147869
0.142526
0.136780
0.130730
0.124451
0.118009
0.111470
0.104878
0.098254
0.091609
0.084956
0.078299
0.071603
0.064818
0.057880
0.050708
0.043219
0.035346
0.027055
0.018336
0.009197
-0.000327
-0.010169
-0.020250
-0.030507
-0.040887
-0.051339
-0.061805
-0.072219
-0.082483
-0.092460
-0.102002
-0.110966
-0.119231
-0.126689
-0.133244
-0.138798
-0.143243
-0.146481
-0.148438
-0.149075
-0.148379
-0.146380
-0.143148
-0.138763
-0.133292
-0.126786
-0.119284
-0.110817
-0.101419
-0.091135
-0.080023
-0.068123
-0.055465
-0.042100
-0.028104
-0.013541
0.001543
0.017114
0.033147
0.049625
0.066497
0.083677
0.101077
0.118621
0.136237
0.153831
0.171288
0.188489
0.205328
0.221714
0.237564
0.252798
0.267335
0.281116
0.294110
0.306311
0.317728
0.328365
0.338206
0.347199
0.355270
0.362353
0.368399
0.373381
0.377312
0.380248
0.382271
0.383456
0.383864
0.383543
0.382539
0.380915
0.378775
0.376264
0.373561
0.370846
0.368289
0.366064
0.364326
0.363184
0.362704
0.362908
0.363765
0.365209
0.367156
0.369492
0.372065
