EVENT_NAME: L_AQUILA
EVENT_ID: IT-2009-0009
EVENT_DATE_YYYYMMDD: 20090406
EVENT_TIME_HHMMSS: 013240
EVENT_LATITUDE_DEGREE: 42.3420
EVENT_LONGITUDE_DEGREE: 13.3800
EVENT_DEPTH_KM: 8.3
HYPOCENTER_REFERENCE: INGV-CNT_Seismic_Bulletin
MAGNITUDE_W: 6.1
MAGNITUDE_W_REFERENCE: INGV-CNT_Seismic_Bulletin
MAGNITUDE_L: 
MAGNITUDE_L_REFERENCE: 
FOCAL_MECHANISM: Normal faulting
NETWORK: IT
STATION_CODE: MMP
STATION_NAME: 
STATION_LATITUDE_DEGREE: 42.248547
STATION_LONGITUDE_DEGREE: 12.748537
STATION_ELEVATION_M: 475
LOCATION: 
SENSOR_DEPTH_M: 0.0
VS30_M/S: 
SITE_CLASSIFICATION_EC8: B (inferred from geology)
MORPHOLOGIC_CLASSIFICATION: 
EPICENTRAL_DISTANCE_KM: 53.1
EARTHQUAKE_BACKAZIMUTH_DEGREE: 258.9
DATE_TIME_FIRST_SAMPLE_YYYYMMDD_HHMMSS: 20090406_013237.000
DATE_TIME_FIRST_SAMPLE_PRECISION: seconds
SAMPLING_INTERVAL_S: 0.005000
NDATA: 20380
DURATION_S: 101.900
STREAM: HNE
UNITS: cm/s^2
INSTRUMENT: sensor = Unknown [Unknown] | digitizer = Etna [Kinemetrics]
INSTRUMENT_ANALOG/DIGITAL: D
INSTRUMENTAL_FREQUENCY_HZ: 218.000
INSTRUMENTAL_DAMPING: 0.700000
FULL_SCALE_G: 1.0
N_BIT_DIGITAL_CONVERTER: 18
PGA_CM/S^2: 8.844919
TIME_PGA_S: 33.800000
BASELINE_CORRECTION: BASELINE REMOVED
FILTER_TYPE: BUTTERWORTH
FILTER_ORDER: 2
LOW_CUT_FREQUENCY_HZ: 0.030
HIGH_CUT_FREQUENCY_HZ: 40.000
LATE/NORMAL_TRIGGERED: NT
DATABASE_VERSION: 0.5
HEADER_FORMAT: DYNA 1.2
DATA_TYPE: ACCELERATION
PROCESSING: manual (Paolucci et al., 2011)
DATA_TIMESTAMP_YYYYMMDD_HHMMSS: 20211011_160300.779
DATA_LICENSE: CC-BY3_0-IT (http://creativecommons.org/licenses/by/3.0/deed.en)
DATA_CITATION: Luzi L, Pacor F, Puglia R (2019). Italian Accelerometric Archive v 3.0 - Istituto Nazionale di Geofisica e Vulcanologia, Dipartimento della Protezione Civile Nazionale. doi: 10.13127/itaca.3.1
DATA_CREATOR: ITACA working group
ORIGINAL_DATA_MEDIATOR_CITATION: data obtained within the DPC-INGV data exchange agreements
ORIGINAL_DATA_MEDIATOR: Archive of Italian Department of Civil Protection
ORIGINAL_DATA_CREATOR_CITATION: Presidency Of Counsil Of Ministers-Civil Protection Department. (1972). Italian Strong Motion Network. Presidency of Counsil of Ministers - Civil Protection Department. https://doi.org/10.7914/SN/IT http://www.fdsn.org/networks/detail/IT/
ORIGINAL_DATA_CREATOR: network: IT (Italian Strong Motion Network (RAN)); owner: Presidency of Counsil of Ministers - Civil Protection Department (PCM - DPC)
USER1: 
USER2: 
USER3: 
USER4: 
USER5: 
[...]
0.178802
0.067383
-0.042770
-0.136533
-0.190102
-0.183156
-0.114121
-0.003270
0.119937
0.233502
0.333000
0.428340
0.527673
0.625716
0.707590
0.754359
0.740789
0.637134
0.422872
0.099914
-0.307597
-0.761958
-1.221634
-1.652511
-2.038995
-2.385830
-2.704820
-2.999672
-3.263608
-3.482350
-3.635109
-3.700781
-3.672487
-3.570488
-3.439743
-3.331568
-3.279716
-3.278993
-3.280908
-3.219140
-3.046035
-2.748579
-2.342994
-1.864477
-1.355163
-0.849706
-0.365451
0.095070
0.530355
0.929195
1.273909
1.548353
1.739000
1.835015
1.833733
1.744008
1.584555
1.383028
1.172772
0.980347
0.813050
0.660129
0.501229
0.316748
0.104003
-0.116699
-0.317540
-0.480556
-0.601805
-0.688859
-0.756187
-0.815240
-0.865418
-0.895989
-0.893958
-0.850725
-0.770201
-0.671965
-0.576373
-0.484817
-0.383217
-0.263731
-0.137286
-0.027943
0.043729
0.074963
0.078125
0.064080
0.032354
-0.024000
-0.109116
-0.214830
-0.315379
-0.376886
-0.374404
-0.299691
-0.158935
0.029907
0.237800
0.429338
0.570026
0.631743
0.601463
0.488294
0.314287
0.096647
-0.159500
-0.458981
-0.814153
-1.237720
-1.729386
-2.269027
-2.820001
-3.333250
-3.755518
-4.048795
-4.204333
-4.235847
-4.163502
-4.002044
-3.754390
-3.415347
-2.988238
-2.498434
-1.985897
-1.485940
-1.019798
-0.597343
-0.222011
0.106455
0.390494
0.632477
0.831678
0.982086
1.077430
1.123217
1.140314
1.156868
1.199970
1.290072
1.435301
1.625836
1.835597
2.036184
2.212789
2.366114
2.500390
2.613380
2.695552
2.737883
2.745684
2.741355
2.748743
2.778743
2.829607
2.893244
2.959333
3.018989
3.065182
3.088713
3.075397
3.007920
2.875767
2.683896
2.446050
2.171945
1.864900
1.531488
1.191689
0.878701
0.628683
0.462912
0.371208
0.315751
0.257112
0.176499
0.073317
-0.050805
-0.198377
-0.370925
-0.564275
-0.767200
-0.965522
-1.152557
-1.334632
-1.527414
-1.746605
-1.994630
-2.256113
-2.509929
-2.744013
-2.959439
-3.161542
-3.344665
-3.485083
-3.549399
-3.512612
-3.372577
-3.147870
-2.867172
-2.563378
-2.265838
-1.993527
-1.760088
-1.581285
-1.473107
-1.443325
-1.484666
-1.575337
-1.686039
-1.788277
-1.859091
-1.879002
-1.830779
-1.705640
-1.504285
-1.230578
-0.890748
-0.496665
-0.067682
0.372140
0.803962
1.225337
1.651060
2.095269
2.548556
2.976493
3.337816
3.599829
3.743903
3.767106
3.681083
3.505953
3.263056
2.973854
2.662118
2.349846
2.051559
1.776984
1.535888
1.336758
1.183743
1.074448
0.995473
0.921277
0.825048
0.693109
0.526486
0.331792
0.114231
-0.123476
-0.379110
-0.650612
-0.938509
-1.245972
-1.572797
-1.906529
-2.218411
-2.468365
-2.617658
-2.642194
-2.536332
-2.308327
-1.975573
-1.561304
-1.090333
-0.584315
-0.060852
0.465897
0.988779
1.509670
2.034386
2.563032
3.081317
3.562275
3.978445
4.308889
4.536109
4.646666
4.639511
4.528274
4.329144
4.048956
3.691106
3.267009
2.796126
2.298862
1.785731
1.247061
0.655719
-0.014887
-0.771838
-1.597691
-2.458012
-3.312236
-4.121143
-4.847539
-5.458449
-5.932286
-6.257228
-6.423130
-6.422292
-6.255718
-5.938948
-5.506851
-5.011660
-4.512720
-4.062581
-3.694695
-3.416212
-3.206266
-3.021306
-2.811940
-2.546603
-2.224300
-1.866457
-1.498542
-1.139227
-0.799071
-0.479698
-0.174459
0.125136
0.422182
0.713105
0.987915
1.228390
1.411895
1.517908
1.528963
1.432492
1.227002
0.925249
0.551571
0.135389
-0.298392
-0.738130
-1.185242
-1.643446
-2.108032
-2.564933
-2.996408
-3.386319
-3.721144
-3.988389
-4.178786
-4.287798
-4.311373
-4.245820
-4.095327
-3.875494
-3.606363
-3.304038
-2.977623
-2.626508
-2.238307
-1.791640
-1.261730
-0.630918
0.095970
0.884778
1.681941
2.435183
3.110715
3.693239
4.175945
4.556400
4.836189
5.015627
5.087597
5.042482
4.877697
4.596228
4.205412
3.724404
3.183211
2.612439
2.038993
1.483980
0.955673
0.451098
-0.029215
-0.474778
-0.871796
-1.206286
-1.465510
-1.646798
-1.763142
-1.833529
-1.870117
-1.879494
-1.870096
-1.852198
-1.834439
-1.820903
-1.805082
-1.766906
-1.684888
-1.557233
-1.409431
-1.280434
-1.202021
-1.183965
-1.213015
-1.268598
-1.337070
-1.409789
-1.475317
-1.518639
-1.530233
-1.514233
-1.481506
-1.436605
-1.376577
-1.299295
-1.207981
-1.112233
-1.032699
-0.996360
-1.018172
-1.098618
-1.239380
-1.442017
-1.692431
-1.961725
-2.217063
-2.423950
-2.547749
-2.563051
-2.463540
-2.261150
-1.975998
-1.628946
-1.238566
-0.819750
-0.386418
0.042509
0.440037
0.777642
1.037065
1.215795
1.326424
1.394232
1.449408
1.513589
1.589794
1.662280
1.704710
1.695535
1.634323
1.538288
1.415966
1.252763
1.025628
0.720156
0.335178
-0.113256
-0.592033
-1.064172
-1.497649
-1.862259
-2.133910
-2.307114
-2.393990
-2.407656
-2.350822
-2.219844
-2.017192
-1.758204
-1.462728
-1.146407
-0.826246
-0.525358
-0.264472
-0.054590
0.100890
0.205371
0.270259
0.310527
0.338394
0.361354
0.381602
0.394895
0.395364
0.382304
0.353978
0.297888
0.196827
0.040756
-0.168239
-0.415574
-0.680542
-0.946095
-1.203334
-1.452009
-1.698949
-1.954679
-2.231207
-2.536124
-2.858647
-3.164307
-3.413905
-3.587200
-3.683309
-3.708091
-3.674794
-3.609062
-3.537714
-3.477744
-3.440583
-3.429153
-3.424353
-3.390208
-3.297418
-3.133400
-2.893497
-2.577090
-2.194925
-1.772221
-1.338802
-0.916771
-0.516765
-0.141223
0.206714
0.518024
0.787456
1.021668
1.230222
1.415449
1.575207
1.707115
1.807454
1.874028
1.909995
1.922626
1.921129
1.910791
1.887553
1.840731
1.755702
1.618064
1.426286
1.194902
0.938765
0.663779
0.378348
0.104639
-0.127546
-0.294368
-0.384141
-0.399327
-0.361399
-0.303795
-0.249296
-0.201383
-0.152277
-0.085777
0.016424
0.161025
0.345449
0.571276
0.841119
1.146363
1.468308
1.785363
2.075176
2.316394
2.489919
2.580941
2.586084
2.516224
2.387706
2.216151
2.019177
1.809600
1.583471
1.326480
1.027936
0.683314
0.297170
-0.110192
-0.511875
-0.888480
-1.224233
-1.500880
-1.702028
-1.819124
-1.854686
-1.816515
-1.709456
-1.542865
-1.339698
-1.126166
-0.922490
-0.749743
-0.626954
-0.554369
-0.513592
-0.485641
-0.462922
-0.448336
-0.449456
-0.472760
-0.513942
-0.548912
-0.541622
-0.465978
-0.314722
-0.092776
0.181722
0.483253
0.801865
1.144426
1.512061
1.896741
2.294891
2.703302
3.108629
3.497228
3.865665
4.214394
4.542373
4.848844
5.132383
5.387558
5.606093
5.785590
5.935392
6.066496
6.180172
6.276250
6.362422
6.446214
6.530136
6.614956
6.692653
6.737856
6.716474
6.601432
6.380040
6.056494
5.646552
5.163144
4.614408
4.012442
3.370889
2.699408
2.004593
1.291362
0.569185
-0.141517
-0.814479
-1.422788
-1.938997
-2.345602
-2.647289
-2.864774
-3.022525
-3.142605
-3.238550
-3.312720
-3.361022
-3.381470
-3.379043
-3.358614
-3.315810
-3.240420
-3.125315
-2.966956
-2.763706
-2.520181
-2.245645
-1.949600
-1.648048
-1.364064
-1.113250
-0.895028
-0.699889
-0.517997
-0.341681
-0.168439
-0.002878
0.144551
0.262080
0.345723
0.403821
0.450470
0.499147
0.566677
0.672350
0.825264
1.024019
1.265157
1.536485
1.811526
2.057412
2.241883
2.343189
2.362970
2.325121
2.262974
2.205727
2.165266
2.137129
2.119861
2.122297
2.152830
2.215570
2.309248
2.420398
2.530772
2.633601
2.727734
2.801700
2.837332
2.820899
2.744757
2.608099
2.417539
2.181700
1.905035
1.589818
1.248218
0.903918
0.574150
0.262558
-0.028208
-0.292210
-0.525192
-0.723855
-0.892248
-1.051235
-1.227891
-1.439749
-1.691343
-1.969627
-2.242722
-2.476165
-2.646805
-2.744038
-2.774109
-2.758013
-2.715237
-2.656504
-2.585580
-2.494870
-2.371581
-2.215131
-2.035545
-1.841822
-1.645212
-1.463117
-1.312658
-1.207249
-1.152779
-1.136376
-1.127741
-1.098242
-1.031130
-0.917897
-0.761213
-0.576331
-0.374915
-0.156999
0.075662
0.312166
0.540919
0.758997
0.971343
1.184626
1.403280
1.623134
1.826802
1.990001
2.093016
2.130831
2.115320
2.064766
1.993422
1.909515
1.815312
1.710496
1.597537
1.478821
1.351397
1.211532
1.066768
0.939838
0.853951
0.821743
0.850929
0.939201
1.064565
1.201158
1.335844
1.462858
1.579509
1.686582
1.782238
1.859440
1.912866
1.945210
1.963340
1.970110
1.961536
1.926200
1.845523
1.700399
1.482546
1.198714
0.865216
0.504217
0.139915
-0.211648
-0.547813
-0.872987
-1.193162
-1.515138
-1.839989
-2.157291
-2.449081
-2.693991
-2.872883
-2.976410
-3.004707
-2.968634
-2.893379
-2.808080
-2.730218
-2.663637
-2.604975
-2.545952
-2.475330
-2.387184
-2.287220
-2.187118
-2.095115
-2.016922
-1.958848
-1.920269
-1.887480
-1.843406
-1.780999
-1.704710
-1.627357
-1.565056
-1.525336
-1.502183
-1.484651
-1.465906
-1.446181
-1.429881
-1.422774
-1.434879
-1.478259
-1.558181
-1.672024
-1.813617
-1.974495
-2.150061
-2.348466
-2.581688
-2.846337
-3.123379
-3.389579
-3.619299
-3.786767
-3.875576
-3.879692
-3.798444
-3.638824
-3.412312
-3.124163
-2.776625
-2.375480
-1.926017
-1.437021
-0.929107
-0.426239
0.058718
0.524955
0.975851
1.412103
1.825193
2.197882
2.517678
2.783030
2.992595
3.140834
3.223608
3.236203
3.172763
3.036851
2.842838
2.602813
2.321243
2.002599
1.656188
1.295013
0.937697
0.606178
0.312899
0.056187
-0.170791
-0.375679
-0.567195
-0.747835
-0.907002
-1.027826
-1.098841
-1.116757
-1.086201
-1.019577
-0.928919
-0.819479
-0.693392
-0.550612
-0.388990
-0.211744
-0.027629
0.155929
0.327025
0.465837
0.563660
0.635746
0.708003
0.803434
0.937717
1.111190
1.308372
1.510673
1.702090
1.866178
1.986258
2.049002
2.050750
1.999977
1.910415
1.795551
1.667693
1.534497
1.398435
1.262460
1.132355
1.015425
0.919291
0.850559
0.813673
0.804888
0.807938
0.804811
0.788862
0.764091
0.739369
0.725791
0.732477
0.762371
0.815514
0.895278
1.005590
1.143142
1.296529
1.450195
1.589278
1.704763
1.794643
1.864707
1.928299
1.994958
2.060808
2.116790
2.159386
2.191100
2.219288
2.256120
2.312105
2.385866
2.463883
2.528659
2.562627
2.551073
2.485644
2.360142
2.168255
1.910381
1.596335
1.241603
0.865096
0.486805
0.120123
-0.233417
-0.574660
-0.897034
-1.194324
-1.468610
-1.724283
-1.965275
-2.200125
-2.436730
-2.671162
-2.892062
-3.092934
-3.272821
-3.432796
-3.576290
-3.703471
-3.806927
-3.881751
-3.935254
-3.984147
-4.046329
-4.132454
-4.239838
-4.350227
-4.433669
-4.462478
-4.426326
-4.332743
-4.197049
-4.036002
-3.864073
-3.688060
-3.506839
-3.318181
-3.121267
-2.913394
-2.693013
-2.463954
-2.232411
-2.007985
-1.807214
-1.646952
-1.534152
-1.462118
-1.417125
-1.390738
-1.380145
-1.378673
-1.375426
-1.359222
-1.316347
-1.233113
-1.108694
-0.957546
-0.792688
-0.614656
-0.416569
-0.190730
0.066075
0.346089
0.631002
0.903736
1.161064
1.412685
1.669073
1.933744
2.202042
2.459546
2.687629
2.874085
3.011537
3.092188
3.113596
3.084382
3.019208
2.929298
2.819605
2.691160
2.542519
2.373257
2.186153
1.981972
1.754509
1.495936
1.206713
0.896604
0.578039
0.262779
-0.037128
-0.309857
-0.543965
-0.724841
-0.835554
-0.864896
-0.811585
-0.681768
-0.486056
-0.239078
0.041895
0.343760
0.661534
0.993651
1.340055
1.704285
2.087537
2.479187
2.858526
3.203865
3.494799
3.711404
3.841960
3.890180
3.868654
3.790016
3.666879
3.509499
3.321066
3.101767
2.854584
2.583196
2.287920
1.969409
1.635773
1.300821
0.976750
0.670257
0.380678
0.098214
-0.193089
-0.503759
-0.830831
-1.164842
-1.495980
-1.808602
-2.083616
-2.311647
-2.493074
-2.627082
-2.709009
-2.732530
-2.689311
-2.570442
-2.373825
-2.110817
-1.800251
-1.458948
-1.102174
-0.743783
-0.393221
-0.060853
0.234845
0.471033
0.629144
0.698391
0.677368
0.574364
0.401036
0.167954
-0.111827
-0.421831
-0.743434
-1.055576
-1.341473
-1.592781
-1.801395
-1.956884
-2.051621
-2.080002
-2.038843
-1.931795
-1.768511
-1.559653
-1.313740
-1.038986
-0.746676
-0.450262
-0.161757
0.111088
0.364766
0.597014
0.805534
0.989548
1.150736
1.293544
1.424701
1.551535
1.680645
1.815182
1.951406
2.081940
2.204223
2.322567
2.442807
2.567207
2.692562
2.808290
2.894764
2.931507
2.909756
2.830788
2.698035
2.518330
2.302146
2.057607
1.789123
1.498359
1.183057
0.842536
0.486650
0.134107
-0.197699
-0.497314
-0.758176
-0.982198
-1.180377
-1.361902
-1.529190
-1.684601
-1.830818
-1.966646
-2.090639
-2.205629
-2.315281
-2.420175
-2.520698
-2.617607
-2.709121
-2.796607
-2.889318
-2.995118
-3.113243
-3.238293
-3.362024
-3.471461
-3.552879
-3.599439
-3.612441
-3.597818
-3.565309
-3.525087
-3.480996
-3.430488
-3.369440
-3.295708
-3.213114
-3.129502
-3.047767
-2.965692
-2.881923
-2.792179
-2.684359
-2.546404
-2.376125
-2.179885
-1.968132
-1.753799
-1.545643
-1.342952
-1.143254
-0.949439
-0.764595
-0.586577
-0.410320
-0.233558
-0.061096
0.096303
0.226420
0.321285
0.382952
0.421641
0.449139
0.476927
0.516242
0.576040
0.659097
0.760915
0.875981
1.003714
1.149443
1.325205
1.546798
1.824924
2.159194
2.540440
2.957992
3.403747
3.870910
4.354623
4.852463
5.358993
5.862677
6.349218
6.805736
7.223961
7.598981
7.925878
8.200936
8.422554
8.590585
8.708742
8.785728
8.830222
8.844919
8.829709
8.785940
8.709191
8.587037
8.408784
8.168592
7.865241
7.506430
7.103347
6.659130
6.171604
5.642528
5.075062
4.471252
3.840562
3.198649
2.553697
1.905669
1.255721
0.604619
-0.052914
-0.721144
-1.393297
-2.055232
-2.696488
-3.309245
-3.881376
-4.405396
-4.884521
-5.318588
-5.700299
-6.027796
-6.305110
-6.534038
-6.715675
-6.855562
-6.963809
-7.052142
-7.128559
-7.193035
-7.240583
-7.267169
-7.270546
-7.248912
-7.201254
-7.127919
-7.030085
-6.906679
-6.754391
-6.574114
-6.370051
-6.139824
-5.873908
-5.564501
-5.209574
-4.809634
-4.365258
-3.882603
-3.376870
-2.863549
-2.351208
-1.844476
-1.345967
-0.852828
-0.360089
0.129183
0.605716
1.061559
1.486762
1.868628
2.198631
2.473993
2.694852
2.864846
2.993428
3.091295
3.163959
3.215980
3.258572
3.305855
3.362051
3.417998
3.463308
3.493864
3.505037
3.489585
3.446434
3.382211
3.303116
3.211994
3.110799
2.998254
2.867382
2.711160
2.526606
2.314243
2.082937
1.851174
1.637092
1.451201
1.295397
1.162634
1.039638
0.911029
0.763025
0.588942
0.393922
0.193729
0.006448
-0.155884
-0.290739
-0.405367
-0.510822
-0.613582
-0.717172
-0.827165
-0.946385
-1.069302
-1.187706
-1.300287
-1.414910
-1.543972
-1.698074
-1.880369
-2.085079
-2.303870
-2.528356
-2.740319
-2.913584
-3.032604
-3.095646
-3.102965
-3.053903
-2.949355
-2.789483
-2.574034
-2.308315
-2.000829
-1.655000
-1.274187
-0.871891
-0.467601
-0.075574
0.294662
0.630131
0.918557
1.160036
1.366936
1.551752
1.717048
1.857332
1.963540
2.022956
2.023261
1.958444
1.828365
1.637057
1.393381
1.108200
0.790401
0.447752
0.088048
-0.284084
-0.669816
-1.069135
-1.472233
-1.867051
-2.250714
-2.625606
-2.991949
-3.348314
-3.690501
-4.006096
-4.277153
-4.488801
-4.629648
-4.690482
-4.669342
-4.572030
-4.405994
-4.177193
-3.890927
-3.554350
-3.179188
-2.779796
-2.367074
-1.947447
-1.526913
-1.111345
-0.706242
-0.318374
0.046897
0.386564
0.696293
0.973022
1.220062
1.442684
1.640440
1.808128
1.942132
2.042412
2.112992
2.165530
2.217789
2.283898
2.368254
2.470141
2.588736
2.721207
2.863069
3.011536
3.161366
3.301929
3.422634
3.512718
3.560970
3.564293
3.528167
3.458962
3.362455
3.243422
3.102427
2.937186
2.746504
2.531621
2.298602
2.058223
1.817655
1.576941
1.336318
1.101366
0.880821
0.680712
0.500271
0.333513
0.174721
0.022071
-0.124413
-0.263927
-0.394367
-0.516662
-0.636465
-0.759870
-0.891537
-1.035953
-1.198508
-1.386196
-1.606472
-1.860678
-2.138412
-2.423158
-2.699224
-2.950786
-3.164325
-3.335878
-3.470277
-3.572968
-3.645608
-3.687407
-3.696132
-3.665471
-3.584288
-3.442325
-3.235266
-2.963846
-2.630601
-2.239357
-1.796898
-1.312528
-0.795892
-0.256342
0.295707
0.850378
1.402332
1.948463
2.481242
2.986642
3.448804
3.856918
4.206296
4.495336
4.725156
4.898169
5.015147
5.075997
5.080405
5.026282
4.911543
4.737690
4.509498
4.233189
3.915785
3.562446
3.173471
2.747140
2.285654
1.796149
1.288745
0.777448
0.280016
-0.187420
-0.616453
-1.006133
-1.356022
-1.661713
-1.916207
-2.111470
-2.240875
-2.303377
-2.304316
-2.252445
-2.156498
-2.025153
-1.869697
-1.702179
-1.531925
-1.365355
-1.204372
-1.045605
-0.885069
-0.724053
-0.567919
-0.417938
-0.271224
-0.128605
0.006485
0.133061
0.249121
0.348058
0.422973
0.470325
0.487271
0.471151
0.423277
0.349048
0.254957
0.147738
0.034589
-0.077607
-0.183934
-0.283136
-0.375102
-0.456994
-0.525967
-0.579127
-0.607232
-0.599567
-0.555119
-0.481022
-0.385605
-0.278293
-0.171576
-0.077785
-0.003825
0.048327
0.079863
0.096566
0.103803
0.099969
0.082670
0.057182
0.034820
0.026249
0.035717
0.061561
0.099614
0.142053
0.177712
0.195008
0.181741
0.127573
0.030405
-0.103970
-0.271514
-0.475193
-0.717520
-0.997092
-1.313166
-1.659903
-2.019121
-2.367630
-2.687130
-2.966047
-3.199258
-3.390972
-3.553483
-3.695904
-3.814856
-3.900111
-3.945528
-3.951286
-3.923822
-3.876493
-3.824108
-3.777541
-3.743227
-3.722908
-3.713512
-3.707705
-3.697375
-3.679402
-3.655197
-3.626009
-3.592706
-3.556363
-3.514062
-3.457528
-3.381856
-3.291970
-3.195448
-3.095795
-2.994838
-2.891625
-2.779153
-2.648623
-2.494412
-2.315031
-2.112952
-1.892390
-1.656250
-1.404082
-1.132280
-0.838755
-0.525159
-0.192361
0.162578
0.543599
0.949360
1.370516
1.796108
2.220308
2.642775
3.067897
3.501116
3.941892
4.384204
4.821956
5.247051
5.645565
6.002872
6.310547
6.564249
6.757977
6.883990
6.935430
6.907563
6.799710
6.616288
6.364500
6.050508
5.680653
5.266787
4.824286
4.368396
3.915607
3.479534
3.065382
2.672319
2.297057
1.936875
1.594339
1.276711
0.990509
0.740115
0.526218
0.340398
0.167624
-0.003010
-0.175029
-0.349122
-0.522532
-0.687398
-0.836142
-0.964318
-1.068735
-1.149164
-1.209904
-1.255840
-1.288355
-1.307863
-1.318306
-1.324852
-1.329121
-1.330426
-1.331533
-1.339052
-1.357115
-1.387663
-1.434212
-1.497887
-1.574609
-1.658208
-1.743778
-1.827783
-1.904862
-1.968437
-2.016225
-2.051227
-2.076069
-2.090337
-2.093272
-2.082882
-2.052764
-1.995440
-1.908228
-1.792990
-1.652906
-1.491529
-1.311098
-1.110777
-0.889018
-0.647486
-0.391579
-0.127290
0.139262
0.399699
0.646417
0.877080
1.094102
1.301169
1.500523
1.693328
1.879624
2.056695
2.222459
2.379963
2.531704
2.672999
2.799153
2.912540
3.016919
3.114049
3.206754
3.295622
3.374408
3.436003
3.479852
3.508944
3.523189
3.518669
3.491371
3.440341
3.367783
3.277061
3.170176
3.046799
2.907377
2.756088
2.598819
2.440313
2.283315
2.127473
1.968197
1.798470
