EVENT_NAME: L_AQUILA
EVENT_ID: IT-2009-0009
EVENT_DATE_YYYYMMDD: 20090406
EVENT_TIME_HHMMSS: 013240
EVENT_LATITUDE_DEGREE: 42.3420
EVENT_LONGITUDE_DEGREE: 13.3800
EVENT_DEPTH_KM: 8.3
HYPOCENTER_REFERENCE: INGV-CNT_Seismic_Bulletin
MAGNITUDE_W: 6.1
MAGNITUDE_W_REFERENCE: INGV-CNT_Seismic_Bulletin
MAGNITUDE_L: 
MAGNITUDE_L_REFERENCE: 
FOCAL_MECHANISM: Normal faulting
NETWORK: IT
STATION_CODE: MMP
STATION_NAME: 
STATION_LATITUDE_DEGREE: 42.248547
STATION_LONGITUDE_DEGREE: 12.748537
STATION_ELEVATION_M: 475
LOCATION: 
SENSOR_DEPTH_M: 0.0
VS30_M/S: 
SITE_CLASSIFICATION_EC8: B (inferred from geology)
MORPHOLOGIC_CLASSIFICATION: 
EPICENTRAL_DISTANCE_KM: 53.1
EARTHQUAKE_BACKAZIMUTH_DEGREE: 258.9
DATE_TIME_FIRST_SAMPLE_YYYYMMDD_HHMMSS: 20090406_013237.000
DATE_TIME_FIRST_SAMPLE_PRECISION: seconds
SAMPLING_INTERVAL_S: 0.005000
NDATA: 20380
DURATION_S: 101.900
STREAM: HNE
UNITS: cm
INSTRUMENT: sensor = Unknown [Unknown] | digitizer = Etna [Kinemetrics]
INSTRUMENT_ANALOG/DIGITAL: D
INSTRUMENTAL_FREQUENCY_HZ: 218.000
INSTRUMENTAL_DAMPING: 0.700000
FULL_SCALE_G: 1.0
N_BIT_DIGITAL_CONVERTER: 18
PGD_CM: 0.499430
TIME_PGD_S: 28.900000
BASELINE_CORRECTION: BASELINE REMOVED
FILTER_TYPE: BUTTERWORTH
FILTER_ORDER: 2
LOW_CUT_FREQUENCY_HZ: 0.030
HIGH_CUT_FREQUENCY_HZ: 40.000
LATE/NORMAL_TRIGGERED: NT
DATABASE_VERSION: 0.5
HEADER_FORMAT: DYNA 1.2
DATA_TYPE: DISPLACEMENT
PROCESSING: manual (Paolucci et al., 2011)
DATA_TIMESTAMP_YYYYMMDD_HHMMSS: 20211011_160300.913
DATA_LICENSE: CC-BY3_0-IT (http://creativecommons.org/licenses/by/3.0/deed.en)
DATA_CITATION: Luzi L, Pacor F, Puglia R (2019). Italian Accelerometric Archive v 3.0 - Istituto Nazionale di Geofisica e Vulcanologia, Dipartimento della Protezione Civile Nazionale. doi: 10.13127/itaca.3.1
DATA_CREATOR: ITACA working group
ORIGINAL_DATA_MEDIATOR_CITATION: data obtained within the DPC-INGV data exchange agreements
ORIGINAL_DATA_MEDIATOR: Archive of Italian Department of Civil Protection
ORIGINAL_DATA_CREATOR_CITATION: Presidency Of Counsil Of Ministers-Civil Protection Department. (1972). Italian Strong Motion Network. Presidency of Counsil of Ministers - Civil Protection Department. https://doi.org/10.7914/SN/IT http://www.fdsn.org/networks/detail/IT/
ORIGINAL_DATA_CREATOR: network: IT (Italian Strong Motion Network (RAN)); owner: Presidency of Counsil of Ministers - Civil Protection Department (PCM - DPC)
USER1: 
USER2: 
USER3: 
USER4: 
USER5: 
[...]
-9.093924e-02
-9.022743e-02
-8.947908e-02
-8.870527e-02
-8.791718e-02
-8.712689e-02
-8.634739e-02
-8.559129e-02
-8.486862e-02
-8.418498e-02
-8.354106e-02
-8.293377e-02
-8.235826e-02
-8.180976e-02
-8.128467e-02
-8.078067e-02
-8.029631e-02
-7.983075e-02
-7.938353e-02
-7.895429e-02
-7.854215e-02
-7.814550e-02
-7.776223e-02
-7.739011e-02
-7.702749e-02
-7.667378e-02
-7.632966e-02
-7.599663e-02
-7.567604e-02
-7.536804e-02
-7.507071e-02
-7.477992e-02
-7.448971e-02
-7.419316e-02
-7.388323e-02
-7.355399e-02
-7.320178e-02
-7.282600e-02
-7.242890e-02
-7.201448e-02
-7.158698e-02
-7.114963e-02
-7.070404e-02
-7.025007e-02
-6.978576e-02
-6.930743e-02
-6.881032e-02
-6.828994e-02
-6.774369e-02
-6.717177e-02
-6.657692e-02
-6.596325e-02
-6.533486e-02
-6.469509e-02
-6.404636e-02
-6.339054e-02
-6.272930e-02
-6.206455e-02
-6.139878e-02
-6.073529e-02
-6.007826e-02
-5.943241e-02
-5.880258e-02
-5.819343e-02
-5.760902e-02
-5.705225e-02
-5.652449e-02
-5.602569e-02
-5.555470e-02
-5.510938e-02
-5.468656e-02
-5.428194e-02
-5.389037e-02
-5.350685e-02
-5.312759e-02
-5.275081e-02
-5.237689e-02
-5.200841e-02
-5.164992e-02
-5.130697e-02
-5.098449e-02
-5.068551e-02
-5.041059e-02
-5.015856e-02
-4.992775e-02
-4.971712e-02
-4.952650e-02
-4.935639e-02
-4.920747e-02
-4.908027e-02
-4.897489e-02
-4.889057e-02
-4.882497e-02
-4.877388e-02
-4.873139e-02
-4.869055e-02
-4.864387e-02
-4.858354e-02
-4.850182e-02
-4.839167e-02
-4.824748e-02
-4.806576e-02
-4.784525e-02
-4.758668e-02
-4.729241e-02
-4.696589e-02
-4.661100e-02
-4.623107e-02
-4.582816e-02
-4.540286e-02
-4.495494e-02
-4.448444e-02
-4.399278e-02
-4.348309e-02
-4.295983e-02
-4.242794e-02
-4.189224e-02
-4.135714e-02
-4.082686e-02
-4.030580e-02
-3.979915e-02
-3.931325e-02
-3.885554e-02
-3.843389e-02
-3.805595e-02
-3.772878e-02
-3.745864e-02
-3.725079e-02
-3.710892e-02
-3.703437e-02
-3.702565e-02
-3.707874e-02
-3.718827e-02
-3.734849e-02
-3.755358e-02
-3.779731e-02
-3.807279e-02
-3.837272e-02
-3.869013e-02
-3.901918e-02
-3.935579e-02
-3.969824e-02
-4.004758e-02
-4.040777e-02
-4.078505e-02
-4.118633e-02
-4.161722e-02
-4.208021e-02
-4.257383e-02
-4.309338e-02
-4.363234e-02
-4.418398e-02
-4.474226e-02
-4.530217e-02
-4.585967e-02
-4.641155e-02
-4.695560e-02
-4.749056e-02
-4.801554e-02
-4.852928e-02
-4.902972e-02
-4.951461e-02
-4.998271e-02
-5.043535e-02
-5.087747e-02
-5.131799e-02
-5.176921e-02
-5.224520e-02
-5.276002e-02
-5.332622e-02
-5.395385e-02
-5.464943e-02
-5.541523e-02
-5.624940e-02
-5.714681e-02
-5.809993e-02
-5.909911e-02
-6.013251e-02
-6.118610e-02
-6.224424e-02
-6.329054e-02
-6.430899e-02
-6.528481e-02
-6.620483e-02
-6.705758e-02
-6.783360e-02
-6.852608e-02
-6.913151e-02
-6.964969e-02
-7.008270e-02
-7.043374e-02
-7.070631e-02
-7.090403e-02
-7.103091e-02
-7.109159e-02
-7.109141e-02
-7.103644e-02
-7.093350e-02
-7.078968e-02
-7.061169e-02
-7.040518e-02
-7.017437e-02
-6.992188e-02
-6.964903e-02
-6.935682e-02
-6.904703e-02
-6.872311e-02
-6.839041e-02
-6.805558e-02
-6.772537e-02
-6.740549e-02
-6.709996e-02
-6.681106e-02
-6.653951e-02
-6.628489e-02
-6.604578e-02
-6.582000e-02
-6.560473e-02
-6.539701e-02
-6.519440e-02
-6.499569e-02
-6.480107e-02
-6.461172e-02
-6.442900e-02
-6.425353e-02
-6.408462e-02
-6.392026e-02
-6.375773e-02
-6.359438e-02
-6.342790e-02
-6.325612e-02
-6.307658e-02
-6.288613e-02
-6.268113e-02
-6.245811e-02
-6.221437e-02
-6.194842e-02
-6.166012e-02
-6.135082e-02
-6.102333e-02
-6.068167e-02
-6.033014e-02
-5.997192e-02
-5.960774e-02
-5.923556e-02
-5.885122e-02
-5.844993e-02
-5.802780e-02
-5.758271e-02
-5.711447e-02
-5.662440e-02
-5.611498e-02
-5.558975e-02
-5.505322e-02
-5.451024e-02
-5.396525e-02
-5.342191e-02
-5.288307e-02
-5.235097e-02
-5.182724e-02
-5.131258e-02
-5.080631e-02
-5.030603e-02
-4.980789e-02
-4.930727e-02
-4.879946e-02
-4.828017e-02
-4.774613e-02
-4.719579e-02
-4.662959e-02
-4.604993e-02
-4.546097e-02
-4.486868e-02
-4.428082e-02
-4.370693e-02
-4.315812e-02
-4.264639e-02
-4.218364e-02
-4.178073e-02
-4.144695e-02
-4.118981e-02
-4.101475e-02
-4.092486e-02
-4.092085e-02
-4.100150e-02
-4.116464e-02
-4.140837e-02
-4.173184e-02
-4.213535e-02
-4.261947e-02
-4.318399e-02
-4.382711e-02
-4.454531e-02
-4.533353e-02
-4.618564e-02
-4.709497e-02
-4.805453e-02
-4.905713e-02
-5.009567e-02
-5.116384e-02
-5.225651e-02
-5.336941e-02
-5.449810e-02
-5.563708e-02
-5.677966e-02
-5.791873e-02
-5.904762e-02
-6.016079e-02
-6.125424e-02
-6.232554e-02
-6.337308e-02
-6.439442e-02
-6.538444e-02
-6.633446e-02
-6.723267e-02
-6.806592e-02
-6.882198e-02
-6.949147e-02
-7.006825e-02
-7.054817e-02
-7.092724e-02
-7.120038e-02
-7.136111e-02
-7.140249e-02
-7.131825e-02
-7.110393e-02
-7.075712e-02
-7.027723e-02
-6.966517e-02
-6.892330e-02
-6.805551e-02
-6.706727e-02
-6.596549e-02
-6.475842e-02
-6.345523e-02
-6.206576e-02
-6.060040e-02
-5.907002e-02
-5.748550e-02
-5.585715e-02
-5.419394e-02
-5.250301e-02
-5.078982e-02
-4.905859e-02
-4.731281e-02
-4.555524e-02
-4.378797e-02
-4.201250e-02
-4.022988e-02
-3.844099e-02
-3.664684e-02
-3.484881e-02
-3.304879e-02
-3.124912e-02
-2.945283e-02
-2.766376e-02
-2.588671e-02
-2.412732e-02
-2.239222e-02
-2.068924e-02
-1.902741e-02
-1.741638e-02
-1.586539e-02
-1.438248e-02
-1.297389e-02
-1.164393e-02
-1.039503e-02
-9.227882e-03
-8.141525e-03
-7.133623e-03
-6.201241e-03
-5.341903e-03
-4.554544e-03
-3.840038e-03
-3.201248e-03
-2.642854e-03
-2.171196e-03
-1.793999e-03
-1.519405e-03
-1.354032e-03
-1.300880e-03
-1.358320e-03
-1.520510e-03
-1.778691e-03
-2.122587e-03
-2.541459e-03
-3.024618e-03
-3.561454e-03
-4.141342e-03
-4.753780e-03
-5.388742e-03
-6.037138e-03
-6.691449e-03
-7.346505e-03
-8.000303e-03
-8.654599e-03
-9.314832e-03
-9.988975e-03
-1.068550e-02
-1.141127e-02
-1.217036e-02
-1.296428e-02
-1.379313e-02
-1.465698e-02
-1.555685e-02
-1.649486e-02
-1.747345e-02
-1.849388e-02
-1.955484e-02
-2.065171e-02
-2.177667e-02
-2.291952e-02
-2.406902e-02
-2.521408e-02
-2.634436e-02
-2.745061e-02
-2.852467e-02
-2.955928e-02
-3.054791e-02
-3.148478e-02
-3.236519e-02
-3.318537e-02
-3.394181e-02
-3.463054e-02
-3.524701e-02
-3.578659e-02
-3.624543e-02
-3.662097e-02
-3.691175e-02
-3.711720e-02
-3.723754e-02
-3.727404e-02
-3.722956e-02
-3.710902e-02
-3.691991e-02
-3.667237e-02
-3.637867e-02
-3.605207e-02
-3.570573e-02
-3.535181e-02
-3.500084e-02
-3.466132e-02
-3.433969e-02
-3.404074e-02
-3.376844e-02
-3.352652e-02
-3.331855e-02
-3.314736e-02
-3.301443e-02
-3.291976e-02
-3.286200e-02
-3.283890e-02
-3.284780e-02
-3.288597e-02
-3.295045e-02
-3.303745e-02
-3.314149e-02
-3.325491e-02
-3.336803e-02
-3.347028e-02
-3.355182e-02
-3.360486e-02
-3.362406e-02
-3.360598e-02
-3.354828e-02
-3.344895e-02
-3.330585e-02
-3.311655e-02
-3.287860e-02
-3.259008e-02
-3.225017e-02
-3.185953e-02
-3.142030e-02
-3.093566e-02
-3.040930e-02
-2.984499e-02
-2.924658e-02
-2.861781e-02
-2.796145e-02
-2.727840e-02
-2.656725e-02
-2.582463e-02
-2.504597e-02
-2.422599e-02
-2.335908e-02
-2.243966e-02
-2.146261e-02
-2.042389e-02
-1.932105e-02
-1.815329e-02
-1.692114e-02
-1.562595e-02
-1.426966e-02
-1.285473e-02
-1.138455e-02
-9.863805e-03
-8.298710e-03
-6.697046e-03
-5.068251e-03
-3.423531e-03
-1.775571e-03
-1.374828e-04
1.478824e-03
3.064238e-03
4.613397e-03
6.124454e-03
7.597540e-03
9.032657e-03
1.042814e-02
1.178030e-02
1.308417e-02
1.433473e-02
1.552790e-02
1.666103e-02
1.773302e-02
1.874444e-02
1.969748e-02
2.059549e-02
2.144217e-02
2.224044e-02
2.299155e-02
2.369454e-02
2.434644e-02
2.494321e-02
2.548114e-02
2.595845e-02
2.637608e-02
2.673771e-02
2.704915e-02
2.731787e-02
2.755278e-02
2.776436e-02
2.796469e-02
2.816743e-02
2.838755e-02
2.864091e-02
2.894367e-02
2.931178e-02
2.976054e-02
3.030415e-02
3.095512e-02
3.172335e-02
3.261548e-02
3.363448e-02
3.477959e-02
3.604655e-02
3.742819e-02
3.891525e-02
4.049694e-02
4.216155e-02
4.389723e-02
4.569299e-02
4.753948e-02
4.942963e-02
5.135886e-02
5.332454e-02
5.532530e-02
5.736045e-02
5.942992e-02
6.153420e-02
6.367415e-02
6.585060e-02
6.806405e-02
7.031443e-02
7.260094e-02
7.492193e-02
7.727511e-02
7.965805e-02
8.206862e-02
8.450505e-02
8.696540e-02
8.944676e-02
9.194454e-02
9.445241e-02
9.696286e-02
9.946795e-02
1.019600e-01
1.044322e-01
1.068791e-01
1.092974e-01
1.116859e-01
1.140459e-01
1.163818e-01
1.187004e-01
1.210107e-01
1.233226e-01
1.256453e-01
1.279853e-01
1.303464e-01
1.327292e-01
1.351321e-01
1.375518e-01
1.399849e-01
1.424281e-01
1.448786e-01
1.473335e-01
1.497901e-01
1.522456e-01
1.546977e-01
1.571451e-01
1.595879e-01
1.620278e-01
1.644677e-01
1.669105e-01
1.693592e-01
1.718162e-01
1.742839e-01
1.767649e-01
1.792614e-01
1.817757e-01
1.843088e-01
1.868604e-01
1.894279e-01
1.920061e-01
1.945867e-01
1.971596e-01
1.997135e-01
2.022368e-01
2.047189e-01
2.071499e-01
2.095213e-01
2.118251e-01
2.140539e-01
2.162011e-01
2.182613e-01
2.202306e-01
2.221073e-01
2.238922e-01
2.255879e-01
2.271976e-01
2.287240e-01
2.301684e-01
2.315308e-01
2.328112e-01
2.340112e-01
2.351349e-01
2.361900e-01
2.371865e-01
2.381363e-01
2.390523e-01
2.399471e-01
2.408327e-01
2.417207e-01
2.426219e-01
2.435464e-01
2.445028e-01
2.454978e-01
2.465363e-01
2.476207e-01
2.487509e-01
2.499248e-01
2.511382e-01
2.523862e-01
2.536636e-01
2.549654e-01
2.562876e-01
2.576263e-01
2.589775e-01
2.603366e-01
2.616983e-01
2.630571e-01
2.644080e-01
2.657469e-01
2.670707e-01
2.683773e-01
2.696649e-01
2.709323e-01
2.721779e-01
2.734012e-01
2.746021e-01
2.757818e-01
2.769422e-01
2.780858e-01
2.792150e-01
2.803320e-01
2.814395e-01
2.825404e-01
2.836379e-01
2.847346e-01
2.858325e-01
2.869322e-01
2.880339e-01
2.891372e-01
2.902413e-01
2.913448e-01
2.924456e-01
2.935410e-01
2.946285e-01
2.957066e-01
2.967753e-01
2.978365e-01
2.988938e-01
2.999518e-01
3.010158e-01
3.020904e-01
3.031794e-01
3.042841e-01
3.054039e-01
3.065359e-01
3.076757e-01
3.088180e-01
3.099562e-01
3.110830e-01
3.121895e-01
3.132650e-01
3.142972e-01
3.152727e-01
3.161778e-01
3.169995e-01
3.177273e-01
3.183539e-01
3.188754e-01
3.192910e-01
3.196025e-01
3.198139e-01
3.199315e-01
3.199637e-01
3.199212e-01
3.198163e-01
3.196616e-01
3.194699e-01
3.192526e-01
3.190205e-01
3.187827e-01
3.185477e-01
3.183223e-01
3.181128e-01
3.179241e-01
3.177600e-01
3.176228e-01
3.175136e-01
3.174330e-01
3.173813e-01
3.173596e-01
3.173701e-01
3.174165e-01
3.175036e-01
3.176366e-01
3.178204e-01
3.180596e-01
3.183580e-01
3.187188e-01
3.191450e-01
3.196386e-01
3.202006e-01
3.208312e-01
3.215304e-01
3.222984e-01
3.231357e-01
3.240439e-01
3.250243e-01
3.260787e-01
3.272087e-01
3.284152e-01
3.296990e-01
3.310596e-01
3.324954e-01
3.340032e-01
3.355780e-01
3.372140e-01
3.389043e-01
3.406412e-01
3.424164e-01
3.442214e-01
3.460483e-01
3.478910e-01
3.497452e-01
3.516087e-01
3.534802e-01
3.553580e-01
3.572403e-01
3.591243e-01
3.610072e-01
3.628850e-01
3.647536e-01
3.666081e-01
3.684434e-01
3.702545e-01
3.720369e-01
3.737859e-01
3.754967e-01
3.771638e-01
3.787811e-01
3.803419e-01
3.818400e-01
3.832696e-01
3.846251e-01
3.859016e-01
3.870944e-01
3.882002e-01
3.892172e-01
3.901464e-01
3.909913e-01
3.917575e-01
3.924520e-01
3.930824e-01
3.936562e-01
3.941801e-01
3.946600e-01
3.951004e-01
3.955040e-01
3.958715e-01
3.962019e-01
3.964929e-01
3.967417e-01
3.969458e-01
3.971035e-01
3.972142e-01
3.972791e-01
3.973014e-01
3.972860e-01
3.972399e-01
3.971716e-01
3.970908e-01
3.970083e-01
3.969351e-01
3.968820e-01
3.968596e-01
3.968784e-01
3.969496e-01
3.970846e-01
3.972939e-01
3.975867e-01
3.979695e-01
3.984459e-01
3.990164e-01
3.996790e-01
4.004292e-01
4.012611e-01
4.021672e-01
4.031399e-01
4.041714e-01
4.052541e-01
4.063813e-01
4.075469e-01
4.087458e-01
4.099744e-01
4.112299e-01
4.125102e-01
4.138136e-01
4.151375e-01
4.164789e-01
4.178333e-01
4.191961e-01
4.205617e-01
4.219243e-01
4.232773e-01
4.246141e-01
4.259275e-01
4.272096e-01
4.284525e-01
4.296477e-01
4.307874e-01
4.318655e-01
4.328781e-01
4.338246e-01
4.347077e-01
4.355331e-01
4.363092e-01
4.370462e-01
4.377559e-01
4.384510e-01
4.391447e-01
4.398499e-01
4.405799e-01
4.413476e-01
4.421662e-01
4.430488e-01
4.440085e-01
4.450573e-01
4.462055e-01
4.474614e-01
4.488307e-01
4.503162e-01
4.519177e-01
4.536324e-01
4.554553e-01
4.573795e-01
4.593959e-01
4.614940e-01
4.636620e-01
4.658874e-01
4.681576e-01
4.704588e-01
4.727765e-01
4.750938e-01
4.773919e-01
4.796499e-01
4.818466e-01
4.839604e-01
4.859712e-01
4.878608e-01
4.896139e-01
4.912187e-01
4.926671e-01
4.939549e-01
4.950822e-01
4.960531e-01
4.968755e-01
4.975602e-01
4.981196e-01
4.985663e-01
4.989113e-01
4.991640e-01
4.993313e-01
4.994184e-01
4.994300e-01
4.993713e-01
4.992489e-01
4.990709e-01
4.988463e-01
4.985842e-01
4.982936e-01
4.979830e-01
4.976605e-01
4.973336e-01
4.970098e-01
4.966966e-01
4.964011e-01
4.961304e-01
4.958904e-01
4.956857e-01
4.955190e-01
4.953905e-01
4.952977e-01
4.952357e-01
4.951968e-01
4.951717e-01
4.951499e-01
4.951207e-01
4.950731e-01
4.949958e-01
4.948774e-01
4.947064e-01
4.944712e-01
4.941611e-01
4.937663e-01
4.932785e-01
4.926910e-01
4.919991e-01
4.911999e-01
4.902930e-01
4.892799e-01
4.881644e-01
4.869520e-01
4.856495e-01
4.842644e-01
4.828048e-01
4.812796e-01
4.796984e-01
4.780724e-01
4.764149e-01
4.747416e-01
4.730707e-01
4.714220e-01
4.698153e-01
4.682694e-01
4.668013e-01
4.654256e-01
4.641542e-01
4.629968e-01
4.619603e-01
4.610491e-01
4.602652e-01
4.596073e-01
4.590713e-01
4.586503e-01
4.583344e-01
4.581116e-01
4.579684e-01
4.578905e-01
4.578636e-01
4.578737e-01
4.579078e-01
4.579531e-01
4.579977e-01
4.580305e-01
4.580414e-01
4.580222e-01
4.579664e-01
4.578693e-01
4.577282e-01
4.575413e-01
4.573076e-01
4.570269e-01
4.566995e-01
4.563258e-01
4.559062e-01
4.554411e-01
4.549308e-01
4.543764e-01
4.537799e-01
4.531444e-01
4.524737e-01
4.517710e-01
4.510382e-01
4.502758e-01
4.494831e-01
4.486587e-01
4.478009e-01
4.469078e-01
4.459779e-01
4.450099e-01
4.440038e-01
4.429597e-01
4.418786e-01
4.407616e-01
4.396102e-01
4.384264e-01
4.372123e-01
4.359704e-01
4.347027e-01
4.334100e-01
4.320920e-01
4.307464e-01
4.293699e-01
4.279573e-01
4.265024e-01
4.249985e-01
4.234392e-01
4.218192e-01
4.201355e-01
4.183878e-01
4.165785e-01
4.147127e-01
4.127974e-01
4.108415e-01
4.088545e-01
4.068471e-01
4.048300e-01
4.028140e-01
4.008090e-01
3.988234e-01
3.968638e-01
3.949345e-01
3.930384e-01
3.911772e-01
3.893522e-01
3.875650e-01
3.858176e-01
3.841117e-01
3.824485e-01
3.808276e-01
3.792476e-01
3.777061e-01
3.761999e-01
3.747251e-01
3.732759e-01
3.718447e-01
3.704219e-01
3.689963e-01
3.675559e-01
3.660888e-01
3.645843e-01
3.630333e-01
3.614289e-01
3.597669e-01
3.580450e-01
3.562629e-01
3.544220e-01
3.525256e-01
3.505788e-01
3.485881e-01
3.465607e-01
3.445048e-01
3.424281e-01
3.403384e-01
3.382420e-01
3.361442e-01
3.340490e-01
3.319589e-01
3.298756e-01
3.278000e-01
3.257329e-01
3.236748e-01
3.216263e-01
3.195876e-01
3.175588e-01
3.155396e-01
3.135292e-01
3.115263e-01
3.095283e-01
3.075313e-01
3.055301e-01
3.035185e-01
3.014899e-01
2.994377e-01
2.973553e-01
2.952367e-01
2.930756e-01
2.908656e-01
2.885999e-01
2.862707e-01
2.838701e-01
2.813904e-01
2.788253e-01
2.761705e-01
2.734237e-01
2.705841e-01
2.676527e-01
2.646311e-01
2.615210e-01
2.583240e-01
2.550409e-01
2.516722e-01
2.482178e-01
2.446787e-01
2.410571e-01
2.373572e-01
2.335850e-01
2.297483e-01
2.258567e-01
2.219209e-01
2.179516e-01
2.139593e-01
2.099542e-01
2.059455e-01
2.019420e-01
1.979514e-01
1.939805e-01
1.900352e-01
1.861206e-01
1.822414e-01
1.784016e-01
1.746045e-01
1.708525e-01
1.671474e-01
1.634900e-01
1.598808e-01
1.563195e-01
1.528060e-01
1.493397e-01
1.459194e-01
1.425430e-01
1.392071e-01
1.359068e-01
1.326364e-01
1.293895e-01
1.261591e-01
1.229382e-01
1.197200e-01
1.164985e-01
1.132697e-01
1.100313e-01
1.067829e-01
1.035254e-01
1.002604e-01
9.698913e-02
9.371283e-02
9.043272e-02
8.715047e-02
8.386863e-02
8.059081e-02
7.732163e-02
7.406673e-02
7.083286e-02
6.762765e-02
6.445915e-02
6.133528e-02
5.826329e-02
5.524921e-02
5.229737e-02
4.941006e-02
4.658741e-02
4.382766e-02
4.112760e-02
3.848294e-02
3.588877e-02
3.333983e-02
3.083049e-02
2.835430e-02
2.590381e-02
2.347041e-02
2.104443e-02
1.861570e-02
1.617417e-02
1.371043e-02
1.121609e-02
8.684219e-03
6.109801e-03
3.489905e-03
8.236417e-04
-1.888035e-03
-4.642447e-03
-7.435431e-03
-1.026191e-02
-1.311654e-02
-1.599423e-02
-1.889067e-02
-2.180278e-02
-2.472875e-02
-2.766756e-02
-3.061851e-02
-3.358103e-02
-3.655477e-02
-3.953973e-02
-4.253652e-02
-4.554616e-02
-4.856952e-02
-5.160642e-02
-5.465496e-02
-5.771138e-02
-6.077012e-02
-6.382431e-02
-6.686642e-02
-6.988849e-02
-7.288194e-02
-7.583760e-02
-7.874583e-02
-8.159669e-02
-8.437997e-02
-8.708554e-02
-8.970367e-02
-9.222516e-02
-9.464129e-02
-9.694387e-02
-9.912522e-02
-1.011783e-01
-1.030966e-01
-1.048748e-01
-1.065084e-01
-1.079935e-01
-1.093271e-01
-1.105061e-01
-1.115282e-01
-1.123912e-01
-1.130931e-01
-1.136317e-01
-1.140050e-01
-1.142109e-01
-1.142484e-01
-1.141180e-01
-1.138226e-01
-1.133676e-01
-1.127613e-01
-1.120137e-01
-1.111371e-01
-1.101452e-01
-1.090529e-01
-1.078763e-01
-1.066323e-01
-1.053381e-01
-1.040117e-01
-1.026710e-01
-1.013339e-01
-1.000172e-01
-9.873597e-02
-9.750325e-02
-9.632917e-02
-9.522127e-02
-9.418499e-02
-9.322428e-02
-9.234213e-02
-9.154095e-02
-9.082258e-02
-9.018824e-02
-8.963843e-02
-8.917310e-02
-8.879174e-02
-8.849327e-02
-8.827581e-02
-8.813649e-02
-8.807134e-02
-8.807528e-02
-8.814222e-02
-8.826531e-02
-8.843714e-02
-8.865017e-02
-8.889730e-02
-8.917226e-02
-8.946960e-02
-8.978443e-02
-9.011221e-02
-9.044854e-02
-9.078908e-02
-9.112969e-02
-9.146668e-02
-9.179713e-02
-9.211893e-02
-9.243063e-02
-9.273107e-02
-9.301904e-02
-9.329284e-02
-9.354982e-02
-9.378618e-02
-9.399694e-02
-9.417607e-02
-9.431678e-02
-9.441221e-02
-9.445620e-02
-9.444415e-02
-9.437351e-02
-9.424380e-02
-9.405596e-02
-9.381155e-02
-9.351200e-02
-9.315831e-02
-9.275120e-02
-9.229109e-02
-9.177792e-02
-9.121093e-02
-9.058855e-02
-8.990844e-02
