EVENT_NAME: L_AQUILA
EVENT_ID: IT-2009-0009
EVENT_DATE_YYYYMMDD: 20090406
EVENT_TIME_HHMMSS: 013240
EVENT_LATITUDE_DEGREE: 42.3420
EVENT_LONGITUDE_DEGREE: 13.3800
EVENT_DEPTH_KM: 8.3
HYPOCENTER_REFERENCE: INGV-CNT_Seismic_Bulletin
MAGNITUDE_W: 6.1
MAGNITUDE_W_REFERENCE: INGV-CNT_Seismic_Bulletin
MAGNITUDE_L: 
MAGNITUDE_L_REFERENCE: 
FOCAL_MECHANISM: Normal faulting
NETWORK: IT
STATION_CODE: MMP
STATION_NAME: 
STATION_LATITUDE_DEGREE: 42.248547
STATION_LONGITUDE_DEGREE: 12.748537
STATION_ELEVATION_M: 475
LOCATION: 
SENSOR_DEPTH_M: 0.0
VS30_M/S: 
SITE_CLASSIFICATION_EC8: B (inferred from geology)
MORPHOLOGIC_CLASSIFICATION: 
EPICENTRAL_DISTANCE_KM: 53.1
EARTHQUAKE_BACKAZIMUTH_DEGREE: 258.9
DATE_TIME_FIRST_SAMPLE_YYYYMMDD_HHMMSS: 20090406_013237.000
DATE_TIME_FIRST_SAMPLE_PRECISION: seconds
SAMPLING_INTERVAL_S: 0.005000
NDATA: 20380
DURATION_S: 101.900
STREAM: HNN
UNITS: cm/s
INSTRUMENT: sensor = Unknown [Unknown] | digitizer = Etna [Kinemetrics]
INSTRUMENT_ANALOG/DIGITAL: D
INSTRUMENTAL_FREQUENCY_HZ: 206.000
INSTRUMENTAL_DAMPING: 0.700000
FULL_SCALE_G: 1.0
N_BIT_DIGITAL_CONVERTER: 18
PGV_CM/S: 0.632920
TIME_PGV_S: 28.515000
BASELINE_CORRECTION: BASELINE REMOVED
FILTER_TYPE: BUTTERWORTH
FILTER_ORDER: 2
LOW_CUT_FREQUENCY_HZ: 0.030
HIGH_CUT_FREQUENCY_HZ: 40.000
LATE/NORMAL_TRIGGERED: NT
DATABASE_VERSION: 0.5
HEADER_FORMAT: DYNA 1.2
DATA_TYPE: VELOCITY
PROCESSING: manual (Paolucci et al., 2011)
DATA_TIMESTAMP_YYYYMMDD_HHMMSS: 20211011_160301.620
DATA_LICENSE: CC-BY3_0-IT (http://creativecommons.org/licenses/by/3.0/deed.en)
DATA_CITATION: Luzi L, Pacor F, Puglia R (2019). Italian Accelerometric Archive v 3.0 - Istituto Nazionale di Geofisica e Vulcanologia, Dipartimento della Protezione Civile Nazionale. doi: 10.13127/itaca.3.1
DATA_CREATOR: ITACA working group
ORIGINAL_DATA_MEDIATOR_CITATION: data obtained within the DPC-INGV data exchange agreements
ORIGINAL_DATA_MEDIATOR: Archive of Italian Department of Civil Protection
ORIGINAL_DATA_CREATOR_CITATION: Presidency Of Counsil Of Ministers-Civil Protection Department. (1972). Italian Strong Motion Network. Presidency of Counsil of Ministers - Civil Protection Department. https://doi.org/10.7914/SN/IT http://www.fdsn.org/networks/detail/IT/
ORIGINAL_DATA_CREATOR: network: IT (Italian Strong Motion Network (RAN)); owner: Presidency of Counsil of Ministers - Civil Protection Department (PCM - DPC)
USER1: 
USER2: 
USER3: 
USER4: 
USER5: 
[...]
-0.067568
-0.068452
-0.071749
-0.077586
-0.085927
-0.096651
-0.109493
-0.123941
-0.139269
-0.154695
-0.169539
-0.183281
-0.195522
-0.205940
-0.214346
-0.220814
-0.225707
-0.229491
-0.232432
-0.234473
-0.235381
-0.235004
-0.233435
-0.230953
-0.227835
-0.224164
-0.219775
-0.214381
-0.207827
-0.200320
-0.192439
-0.184921
-0.178372
-0.173112
-0.169264
-0.166901
-0.166033
-0.166468
-0.167809
-0.169675
-0.171903
-0.174527
-0.177572
-0.180817
-0.183746
-0.185742
-0.186314
-0.185136
-0.181939
-0.176450
-0.168517
-0.158298
-0.146369
-0.133665
-0.121272
-0.110135
-0.100815
-0.093390
-0.087494
-0.082382
-0.076993
-0.070194
-0.061219
-0.050032
-0.037302
-0.023978
-0.010812
0.001817
0.013751
0.024821
0.034755
0.043222
0.049980
0.055050
0.058823
0.061960
0.065098
0.068515
0.071966
0.074788
0.076215
0.075733
0.073315
0.069398
0.064660
0.059732
0.054960
0.050314
0.045511
0.040301
0.034693
0.028944
0.023347
0.018043
0.013036
0.008383
0.004332
0.001290
-0.000309
-0.000175
0.001703
0.004995
0.009044
0.012935
0.015641
0.016264
0.014251
0.009566
0.002767
-0.005099
-0.012888
-0.019804
-0.025576
-0.030324
-0.034380
-0.038223
-0.042444
-0.047597
-0.053919
-0.061150
-0.068616
-0.075499
-0.081087
-0.084926
-0.086888
-0.087124
-0.085907
-0.083449
-0.079857
-0.075180
-0.069443
-0.062656
-0.054830
-0.046066
-0.036641
-0.026992
-0.017591
-0.008778
-0.000676
0.006718
0.013326
0.018835
0.022737
0.024562
0.024136
0.021748
0.018058
0.013809
0.009537
0.005456
0.001453
-0.002871
-0.008070
-0.014620
-0.022664
-0.031872
-0.041485
-0.050591
-0.058521
-0.065155
-0.070946
-0.076713
-0.083379
-0.091738
-0.102253
-0.114905
-0.129157
-0.144071
-0.158541
-0.171568
-0.182432
-0.190760
-0.196520
-0.200004
-0.201728
-0.202221
-0.201792
-0.200379
-0.197614
-0.193086
-0.186622
-0.178391
-0.168846
-0.158606
-0.148373
-0.138896
-0.130935
-0.125127
-0.121801
-0.120939
-0.122324
-0.125741
-0.131019
-0.137946
-0.146198
-0.155441
-0.165515
-0.176449
-0.188247
-0.200704
-0.213450
-0.226150
-0.238641
-0.250906
-0.262916
-0.274537
-0.285602
-0.296038
-0.305892
-0.315232
-0.324055
-0.332303
-0.339932
-0.346912
-0.353151
-0.358497
-0.362831
-0.366174
-0.368684
-0.370590
-0.372190
-0.373913
-0.376280
-0.379723
-0.384378
-0.389988
-0.395989
-0.401743
-0.406790
-0.410982
-0.414442
-0.417413
-0.420101
-0.422593
-0.424892
-0.427020
-0.429082
-0.431247
-0.433656
-0.436348
-0.439246
-0.442212
-0.445142
-0.448033
-0.450957
-0.453949
-0.456909
-0.459610
-0.461853
-0.463595
-0.464934
-0.465937
-0.466484
-0.466284
-0.464995
-0.462313
-0.458004
-0.451921
-0.444052
-0.434614
-0.424088
-0.413087
-0.402074
-0.391153
-0.380017
-0.368064
-0.354635
-0.339306
-0.322097
-0.303504
-0.284376
-0.265663
-0.248138
-0.232167
-0.217643
-0.204139
-0.191163
-0.178326
-0.165382
-0.152282
-0.139259
-0.126794
-0.115471
-0.105804
-0.098120
-0.092482
-0.088726
-0.086574
-0.085722
-0.085854
-0.086637
-0.087747
-0.088916
-0.090013
-0.091094
-0.092369
-0.094087
-0.096417
-0.099337
-0.102554
-0.105504
-0.107462
-0.107735
-0.105944
-0.102212
-0.097065
-0.091101
-0.084690
-0.077954
-0.070957
-0.063927
-0.057265
-0.051317
-0.046161
-0.041636
-0.037522
-0.033670
-0.030066
-0.026841
-0.024206
-0.022288
-0.020966
-0.019796
-0.018077
-0.015086
-0.010378
-0.003986
0.003578
0.011535
0.019191
0.026220
0.032678
0.038822
0.044929
0.051181
0.057605
0.064062
0.070315
0.076160
0.081558
0.086715
0.092017
0.097831
0.104328
0.111472
0.119117
0.127060
0.134997
0.142546
0.149398
0.155485
0.161009
0.166267
0.171419
0.176373
0.180870
0.184671
0.187660
0.189820
0.191173
0.191787
0.191807
0.191438
0.190867
0.190193
0.189419
0.188474
0.187259
0.185705
0.183801
0.181576
0.179086
0.176428
0.173663
0.170652
0.166999
0.162249
0.156207
0.149109
0.141485
0.133815
0.126256
0.118633
0.110578
0.101648
0.091416
0.079628
0.066426
0.052430
0.038584
0.025880
0.015119
0.006819
0.001261
-0.001435
-0.001273
0.001626
0.007054
0.014754
0.024402
0.035529
0.047515
0.059666
0.071278
0.081635
0.090027
0.095835
0.098636
0.098332
0.095234
0.089928
0.082955
0.074570
0.064731
0.053215
0.039725
0.024029
0.006208
-0.013114
-0.032749
-0.051254
-0.067378
-0.080424
-0.090365
-0.097707
-0.103210
-0.107622
-0.111546
-0.115404
-0.119449
-0.123785
-0.128396
-0.133106
-0.137565
-0.141354
-0.144198
-0.146104
-0.147319
-0.148183
-0.149022
-0.150158
-0.152002
-0.155057
-0.159746
-0.166170
-0.174027
-0.182749
-0.191660
-0.200074
-0.207419
-0.213462
-0.218536
-0.223534
-0.229588
-0.237587
-0.247828
-0.260003
-0.273408
-0.287088
-0.299921
-0.310853
-0.319263
-0.325176
-0.329108
-0.331669
-0.333140
-0.333337
-0.331831
-0.328332
-0.322896
-0.315897
-0.307865
-0.299342
-0.290808
-0.282677
-0.275277
-0.268769
-0.263103
-0.258087
-0.253532
-0.249369
-0.245654
-0.242468
-0.239832
-0.237742
-0.236221
-0.235295
-0.234917
-0.234907
-0.235003
-0.235019
-0.235003
-0.235264
-0.236277
-0.238601
-0.242793
-0.249229
-0.257939
-0.268630
-0.280846
-0.294081
-0.307780
-0.321282
-0.333813
-0.344566
-0.352864
-0.358271
-0.360556
-0.359630
-0.355530
-0.348395
-0.338397
-0.325714
-0.310557
-0.293213
-0.274071
-0.253628
-0.232431
-0.210978
-0.189631
-0.168645
-0.148271
-0.128878
-0.111005
-0.095278
-0.082192
-0.071886
-0.064080
-0.058246
-0.053857
-0.050495
-0.047802
-0.045408
-0.042933
-0.040072
-0.036693
-0.032909
-0.029048
-0.025532
-0.022726
-0.020803
-0.019662
-0.018955
-0.018219
-0.017127
-0.015702
-0.014321
-0.013503
-0.013626
-0.014776
-0.016815
-0.019565
-0.022946
-0.026998
-0.031836
-0.037611
-0.044435
-0.052248
-0.060721
-0.069297
-0.077373
-0.084514
-0.090574
-0.095637
-0.099826
-0.103159
-0.105564
-0.106986
-0.107398
-0.106701
-0.104681
-0.101122
-0.095959
-0.089340
-0.081544
-0.072793
-0.063118
-0.052356
-0.040205
-0.026295
-0.010288
0.008003
0.028538
0.051058
0.075158
0.100405
0.126398
0.152713
0.178756
0.203668
0.226372
0.245792
0.261062
0.271617
0.277109
0.277305
0.272138
0.261867
0.247121
0.228758
0.207671
0.184701
0.160667
0.136366
0.112486
0.089564
0.068085
0.048629
0.031868
0.018414
0.008598
0.002227
-0.001538
-0.004020
-0.006600
-0.010277
-0.015434
-0.021814
-0.028697
-0.035222
-0.040713
-0.044919
-0.048134
-0.051124
-0.054814
-0.059911
-0.066736
-0.075310
-0.085495
-0.097087
-0.109848
-0.123523
-0.137908
-0.152922
-0.168531
-0.184579
-0.200676
-0.216296
-0.230985
-0.244494
-0.256787
-0.267960
-0.278146
-0.287453
-0.295879
-0.303232
-0.309140
-0.313137
-0.314761
-0.313661
-0.309787
-0.303489
-0.295413
-0.286273
-0.276699
-0.267231
-0.258424
-0.250918
-0.245347
-0.242090
-0.241085
-0.241893
-0.243955
-0.246818
-0.250209
-0.253994
-0.258080
-0.262267
-0.266115
-0.268915
-0.269844
-0.268304
-0.264270
-0.258381
-0.251652
-0.245037
-0.239105
-0.233923
-0.229188
-0.224515
-0.219689
-0.214783
-0.210121
-0.206143
-0.203283
-0.201946
-0.202538
-0.205448
-0.210922
-0.218929
-0.229046
-0.240462
-0.252138
-0.263091
-0.272652
-0.280627
-0.287298
-0.293266
-0.299228
-0.305728
-0.312934
-0.320573
-0.328054
-0.334715
-0.339997
-0.343479
-0.344822
-0.343754
-0.340146
-0.334121
-0.326085
-0.316620
-0.306311
-0.295658
-0.285144
-0.275260
-0.266396
-0.258703
-0.252048
-0.246089
-0.240395
-0.234611
-0.228549
-0.222138
-0.215292
-0.207845
-0.199627
-0.190563
-0.180664
-0.169954
-0.158437
-0.146110
-0.133009
-0.119220
-0.104868
-0.090156
-0.075517
-0.061756
-0.049968
-0.041187
-0.035986
-0.034272
-0.035381
-0.038370
-0.042345
-0.046666
-0.050975
-0.055083
-0.058823
-0.062010
-0.064532
-0.066466
-0.068120
-0.069975
-0.072575
-0.076446
-0.081984
-0.089331
-0.098328
-0.108594
-0.119653
-0.130993
-0.142082
-0.152437
-0.161745
-0.169972
-0.177367
-0.184382
-0.191537
-0.199279
-0.207892
-0.217488
-0.228043
-0.239495
-0.251876
-0.265392
-0.280303
-0.296669
-0.314234
-0.332518
-0.351012
-0.369322
-0.387207
-0.404502
-0.421020
-0.436484
-0.450491
-0.462449
-0.471577
-0.477013
-0.478036
-0.474274
-0.465819
-0.453206
-0.437299
-0.419151
-0.399907
-0.380690
-0.362427
-0.345722
-0.330894
-0.318150
-0.307718
-0.299839
-0.294670
-0.292174
-0.292047
-0.293733
-0.296509
-0.299617
-0.302377
-0.304200
-0.304544
-0.302899
-0.298841
-0.292096
-0.282641
-0.270808
-0.257330
-0.243267
-0.229826
-0.218129
-0.209008
-0.202909
-0.199863
-0.199453
-0.200839
-0.202957
-0.204813
-0.205687
-0.205194
-0.203267
-0.200071
-0.195854
-0.190779
-0.184841
-0.177824
-0.169342
-0.159030
-0.146791
-0.132909
-0.117927
-0.102418
-0.086819
-0.071435
-0.056535
-0.042434
-0.029479
-0.017953
-0.007975
0.000492
0.007548
0.013273
0.017684
0.020693
0.022088
0.021637
0.019294
0.015322
0.010204
0.004429
-0.001765
-0.008545
-0.016402
-0.025834
-0.037094
-0.050178
-0.065014
-0.081615
-0.100062
-0.120372
-0.142406
-0.165908
-0.190620
-0.216342
-0.242929
-0.270264
-0.298193
-0.326406
-0.354309
-0.381084
-0.405907
-0.428165
-0.447541
-0.464028
-0.477918
-0.489734
-0.500085
-0.509497
-0.518311
-0.526678
-0.534622
-0.542100
-0.549003
-0.555147
-0.560318
-0.564418
-0.567588
-0.570216
-0.572788
-0.575678
-0.578975
-0.582499
-0.585940
-0.588998
-0.591456
-0.593178
-0.594065
-0.593975
-0.592694
-0.589960
-0.585552
-0.579357
-0.571389
-0.561749
-0.550585
-0.538091
-0.524522
-0.510202
-0.495487
-0.480728
-0.466234
-0.452287
-0.439169
-0.427070
-0.415896
-0.405196
-0.394305
-0.382575
-0.369492
-0.354695
-0.337946
-0.319134
-0.298373
-0.276078
-0.252867
-0.229394
-0.206241
-0.183892
-0.162718
-0.142967
-0.124800
-0.108338
-0.093706
-0.081098
-0.070812
-0.063156
-0.058268
-0.055996
-0.055942
-0.057618
-0.060593
-0.064563
-0.069271
-0.074378
-0.079433
-0.083955
-0.087564
-0.090110
-0.091727
-0.092746
-0.093475
-0.093975
-0.093929
-0.092724
-0.089698
-0.084393
-0.076663
-0.066669
-0.054804
-0.041638
-0.027851
-0.014199
-0.001440
0.009788
0.019066
0.026190
0.031093
0.033787
0.034345
0.032972
0.030100
0.026375
0.022496
0.019061
0.016535
0.015258
0.015396
0.016911
0.019619
0.023285
0.027675
0.032578
0.037779
0.043015
0.047964
0.052297
0.055704
0.057887
0.058580
0.057610
0.054942
0.050668
0.044997
0.038238
0.030775
0.022994
0.015191
0.007519
0.000029
-0.007233
-0.014163
-0.020590
-0.026274
-0.030959
-0.034462
-0.036730
-0.037863
-0.038075
-0.037589
-0.036544
-0.035032
-0.033247
-0.031604
-0.030706
-0.031173
-0.033409
-0.037443
-0.042966
-0.049515
-0.056649
-0.064008
-0.071302
-0.078280
-0.084689
-0.090265
-0.094788
-0.098111
-0.100096
-0.100544
-0.099217
-0.095947
-0.090700
-0.083584
-0.074814
-0.064680
-0.053497
-0.041548
-0.029061
-0.016204
-0.003086
0.010288
0.024066
0.038508
0.053831
0.070042
0.086887
0.103945
0.120783
0.137048
0.152516
0.167108
0.180857
0.193819
0.205965
0.217157
0.227200
0.235936
0.243336
0.249543
0.254852
0.259652
0.264329
0.269174
0.274290
0.279528
0.284509
0.288739
0.291747
0.293171
0.292793
0.290534
0.286413
0.280499
0.272890
0.263716
0.253174
0.241597
0.229488
0.217460
0.206078
0.195749
0.186741
0.179248
0.173456
0.169570
0.167786
0.168167
0.170505
0.174270
0.178669
0.182784
0.185781
0.187090
0.186510
0.184223
0.180734
0.176695
0.172694
0.169148
0.166294
0.164202
0.162781
0.161813
0.161025
0.160196
0.159246
0.158213
0.157139
0.156002
0.154772
0.153467
0.152150
0.150887
0.149711
0.148590
0.147410
0.146005
0.144209
0.141948
0.139322
0.136606
0.134159
0.132344
0.131477
0.131757
0.133219
0.135767
0.139253
0.143543
0.148584
0.154429
0.161171
0.168828
0.177327
0.186594
0.196601
0.207321
0.218615
0.230141
0.241395
0.251888
0.261282
0.269359
0.275907
0.280699
0.283599
0.284660
0.284095
0.282139
0.278852
0.274061
0.267468
0.258830
0.248068
0.235315
0.220906
0.205344
0.189233
0.173211
0.157849
0.143553
0.130510
0.118731
0.108169
0.098822
0.090789
0.084240
0.079365
0.076343
0.075313
0.076324
0.079259
0.083781
0.089351
0.095348
0.101224
0.106585
0.111184
0.114878
0.117621
0.119467
0.120546
0.120964
0.120669
0.119390
0.116706
0.112252
0.105904
0.097844
0.088476
0.078301
0.067780
0.057208
0.046677
0.036124
0.025433
0.014552
0.003597
-0.007154
-0.017413
-0.027078
-0.036298
-0.045406
-0.054789
-0.064766
-0.075460
-0.086692
-0.098007
-0.108828
-0.118608
-0.126890
-0.133278
-0.137379
-0.138793
-0.137205
-0.132493
-0.124763
-0.114333
-0.101718
-0.087609
-0.072824
-0.058218
-0.044560
-0.032400
-0.021972
-0.013183
-0.005694
0.000913
0.006990
0.012798
0.018591
0.024732
0.031721
0.040114
0.050394
0.062898
0.077835
0.095318
0.115371
0.137943
0.162942
0.190234
0.219607
0.250747
0.283282
0.316835
0.351054
0.385569
0.419879
0.453286
0.484982
0.514239
0.540540
0.563624
0.583445
0.600038
0.613384
0.623378
0.629913
0.632920
0.632359
0.628199
0.620457
0.609264
0.594935
0.577979
0.559011
0.538628
0.517343
0.495622
0.473944
0.452822
0.432767
0.414229
0.397563
0.383027
0.370792
0.360948
0.353503
0.348401
0.345529
0.344750
0.345935
0.348952
0.353633
0.359727
0.366832
0.374391
0.381775
0.388409
0.393816
0.397591
0.399364
0.398814
0.395704
0.389920
0.381479
0.370492
0.357135
0.341660
0.324435
0.305973
0.286915
0.267995
0.249999
0.233681
0.219647
0.208231
0.199423
0.192886
0.188047
0.184217
0.180713
0.176977
0.172666
0.167677
0.162108
0.156185
0.150207
0.144528
0.139555
0.135724
0.133426
0.132887
0.134096
0.136799
0.140581
0.144930
0.149270
0.152994
0.155541
0.156495
0.155633
0.152909
0.148409
0.142284
0.134726
0.125973
0.116362
0.106321
0.096306
0.086695
0.077756
0.069678
0.062565
0.056420
0.051176
0.046741
0.043024
0.039966
0.037570
0.035869
0.034864
0.034538
0.034899
0.035950
0.037585
0.039521
0.041310
0.042469
0.042636
0.041661
0.039573
0.036504
0.032648
0.028265
0.023660
0.019136
0.014926
0.011112
0.007584
0.004065
0.000161
-0.004560
-0.010479
-0.017840
-0.026687
-0.036855
-0.048009
-0.059695
-0.071374
-0.082433
-0.092196
-0.099975
-0.105155
-0.107278
-0.106075
-0.101488
-0.093716
-0.083193
-0.070532
-0.056428
-0.041546
-0.026389
-0.011251
0.003723
0.018450
0.032807
0.046526
0.059170
0.070200
0.079087
0.085395
0.088888
0.089596
0.087807
0.084001
0.078807
0.072916
0.067002
0.061690
0.057563
0.055168
0.054958
0.057198
0.061890
0.068769
0.077365
0.087087
0.097349
0.107699
0.117912
0.128019
0.138235
0.148838
0.160031
0.171855
0.184177
0.196729
0.209200
0.221350
0.233074
0.244374
0.255253
0.265662
0.275507
0.284669
0.293033
0.300497
0.306976
0.312402
0.316783
0.320292
0.323277
0.326193
0.329475
0.333447
0.338271
0.343965
0.350469
0.357714
0.365657
0.374292
0.383641
0.393702
0.404372
0.415393
0.426370
0.436844
0.446408
0.454822
0.462065
0.468289
0.473728
0.478614
0.483132
0.487366
0.491301
0.494912
0.498257
0.501491
0.504791
0.508271
0.511904
0.515495
0.518723
0.521192
0.522469
0.522135
0.519884
0.515616
0.509450
0.501676
0.492676
0.482822
0.472409
0.461637
0.450654
0.439622
0.428759
0.418306
0.408509
0.399653
0.392100
0.386248
0.382496
0.381212
0.382694
0.387100
0.394413
0.404381
0.416501
0.430096
0.444484
0.459093
0.473460
0.487158
0.499757
0.510873
0.520266
0.527866
0.533703
0.537816
0.540245
0.541092
0.540595
0.539136
0.537156
0.535053
0.533117
0.531497
0.530214
0.529237
0.528555
0.528228
0.528412
0.529328
0.531149
0.533900
0.537460
0.541611
0.546057
0.550459
0.554517
0.558051
0.560972
0.563183
0.564512
0.564716
0.563559
0.560917
0.556870
0.551707
0.545834
0.539688
0.533683
0.528120
0.523052
0.518235
0.513195
0.507351
0.500144
0.491197
0.480441
0.468099
0.454595
0.440435
0.426060
0.411756
0.397691
0.384031
0.371013
0.358918
0.348009
0.338474
0.330403
0.323828
0.318729
0.315003
0.312464
0.310886
0.310040
0.309696
0.309614
0.309518
0.309128
0.308252
0.306803
0.304776
0.302229
0.299277
0.296027
0.292516
0.288683
0.284397
0.279526
0.274032
0.268001
0.261604
0.255065
0.248601
0.242375
0.236499
0.231061
0.226120
0.221729
0.217978
0.214985
0.212863
0.211719
0.211645
0.212699
0.214882
0.218138
0.222372
0.227501
0.233469
0.240195
0.247560
0.255459
0.263811
0.272528
0.281550
0.290875
0.300576
0.310811
0.321775
0.333596
0.346242
0.359479
0.372878
0.385887
0.397934
0.408502
0.417161
0.423610
0.427778
0.429883
0.430342
0.429599
0.428028
0.425901
0.423328
0.420247
0.416503
0.411892
0.406158
0.399057
0.390417
0.380097
0.367939
0.353799
0.337582
0.319260
0.298908
0.276728
0.253029
0.228207
0.202739
0.177177
0.152115
0.128118
0.105660
0.085100
0.066682
0.050539
0.036697
0.025076
0.015514
0.007826
0.001830
-0.002673
-0.005922
-0.008167
-0.009644
-0.010552
-0.011070
-0.011354
-0.011470
-0.011328
-0.010731
-0.009454
-0.007258
-0.003913
0.000766
0.006910
0.014605
0.023834
0.034398
0.045933
0.057968
0.069967
0.081377
0.091721
0.100691
0.108214
0.114451
0.119735
0.124476
0.129071
0.133831
0.138966
0.144602
0.150811
0.157650
0.165170
0.173360
0.182032
0.190774
0.199063
0.206410
0.212443
0.216932
0.219795
0.221072
0.220852
0.219197
0.216104
0.211544
0.205524
0.198136
0.189531
0.179858
0.169244
0.157832
0.145811
0.133433
0.121019
0.108929
0.097537
0.087201
0.078221
0.070772
0.064910
0.060612
0.057797
0.056384
0.056333
0.057585
0.059983
0.063285
0.067152
0.071102
0.074541
0.076860
0.077468
0.075821
0.071546
0.064508
0.054814
0.042793
0.028971
0.013952
-0.001673
-0.017347
-0.032561
-0.046863
-0.059886
-0.071340
-0.081037
-0.088905
-0.094970
-0.099324
-0.102142
-0.103680
-0.104225
-0.104048
-0.103361
-0.102254
-0.100687
-0.098524
-0.095556
-0.091540
-0.086267
-0.079592
-0.071423
-0.061755
-0.050696
-0.038434
-0.025195
-0.011226
0.003203
0.017733
0.031882
0.045154
0.057161
0.067605
0.076210
0.082744
0.087074
0.089164
0.089035
0.086687
0.082036
0.074978
0.065493
0.053741
0.040111
0.025208
0.009747
-0.005574
-0.020185
-0.033693
-0.045887
-0.056707
-0.066260
-0.074855
-0.082944
-0.091003
-0.099478
-0.108736
-0.118971
-0.130163
-0.142164
-0.154830
-0.168110
-0.182114
-0.197042
-0.213006
-0.229919
-0.247528
-0.265519
-0.283578
-0.301460
-0.319055
-0.336377
-0.353530
-0.370652
-0.387866
-0.405232
-0.422735
-0.440312
-0.457859
-0.475233
-0.492245
-0.508630
-0.524062
-0.538179
-0.550603
-0.560956
-0.568893
-0.574125
-0.576459
-0.575867
