EVENT_NAME: L_AQUILA
EVENT_ID: IT-2009-0009
EVENT_DATE_YYYYMMDD: 20090406
EVENT_TIME_HHMMSS: 013240
EVENT_LATITUDE_DEGREE: 42.3420
EVENT_LONGITUDE_DEGREE: 13.3800
EVENT_DEPTH_KM: 8.3
HYPOCENTER_REFERENCE: INGV-CNT_Seismic_Bulletin
MAGNITUDE_W: 6.1
MAGNITUDE_W_REFERENCE: INGV-CNT_Seismic_Bulletin
MAGNITUDE_L: 
MAGNITUDE_L_REFERENCE: 
FOCAL_MECHANISM: Normal faulting
NETWORK: IT
STATION_CODE: MMP
STATION_NAME: 
STATION_LATITUDE_DEGREE: 42.248547
STATION_LONGITUDE_DEGREE: 12.748537
STATION_ELEVATION_M: 475
LOCATION: 
SENSOR_DEPTH_M: 0.0
VS30_M/S: 
SITE_CLASSIFICATION_EC8: B (inferred from geology)
MORPHOLOGIC_CLASSIFICATION: 
EPICENTRAL_DISTANCE_KM: 53.1
EARTHQUAKE_BACKAZIMUTH_DEGREE: 258.9
DATE_TIME_FIRST_SAMPLE_YYYYMMDD_HHMMSS: 20090406_013237.000
DATE_TIME_FIRST_SAMPLE_PRECISION: seconds
SAMPLING_INTERVAL_S: 0.005000
NDATA: 20380
DURATION_S: 101.900
STREAM: HNZ
UNITS: cm/s^2
INSTRUMENT: sensor = Unknown [Unknown] | digitizer = Etna [Kinemetrics]
INSTRUMENT_ANALOG/DIGITAL: D
INSTRUMENTAL_FREQUENCY_HZ: 206.000
INSTRUMENTAL_DAMPING: 0.700000
FULL_SCALE_G: 1.0
N_BIT_DIGITAL_CONVERTER: 18
PGA_CM/S^2: 5.110544
TIME_PGA_S: 24.520000
BASELINE_CORRECTION: BASELINE REMOVED
FILTER_TYPE: BUTTERWORTH
FILTER_ORDER: 2
LOW_CUT_FREQUENCY_HZ: 0.030
HIGH_CUT_FREQUENCY_HZ: 40.000
LATE/NORMAL_TRIGGERED: NT
DATABASE_VERSION: 0.5
HEADER_FORMAT: DYNA 1.2
DATA_TYPE: ACCELERATION
PROCESSING: manual (Paolucci et al., 2011)
DATA_TIMESTAMP_YYYYMMDD_HHMMSS: 20211011_160301.896
DATA_LICENSE: CC-BY3_0-IT (http://creativecommons.org/licenses/by/3.0/deed.en)
DATA_CITATION: Luzi L, Pacor F, Puglia R (2019). Italian Accelerometric Archive v 3.0 - Istituto Nazionale di Geofisica e Vulcanologia, Dipartimento della Protezione Civile Nazionale. doi: 10.13127/itaca.3.1
DATA_CREATOR: ITACA working group
ORIGINAL_DATA_MEDIATOR_CITATION: data obtained within the DPC-INGV data exchange agreements
ORIGINAL_DATA_MEDIATOR: Archive of Italian Department of Civil Protection
ORIGINAL_DATA_CREATOR_CITATION: Presidency Of Counsil Of Ministers-Civil Protection Department. (1972). Italian Strong Motion Network. Presidency of Counsil of Ministers - Civil Protection Department. https://doi.org/10.7914/SN/IT http://www.fdsn.org/networks/detail/IT/
ORIGINAL_DATA_CREATOR: network: IT (Italian Strong Motion Network (RAN)); owner: Presidency of Counsil of Ministers - Civil Protection Department (PCM - DPC)
USER1: 
USER2: 
USER3: 
USER4: 
USER5: 
[...]
0.316872
0.448108
0.600878
0.753832
0.877359
0.948356
0.955242
0.899033
0.796739
0.681759
0.588506
0.525607
0.470072
0.400122
0.331295
0.306503
0.348767
0.439393
0.544319
0.640090
0.704410
0.702619
0.610869
0.451038
0.280168
0.141218
0.038820
-0.037535
-0.090675
-0.128901
-0.181805
-0.276718
-0.398008
-0.484502
-0.472341
-0.338065
-0.107781
0.159870
0.394859
0.537788
0.565250
0.499427
0.385862
0.259570
0.131580
0.000166
-0.132961
-0.258791
-0.371432
-0.475188
-0.570590
-0.638038
-0.650961
-0.605906
-0.530953
-0.467191
-0.446960
-0.481765
-0.560531
-0.659969
-0.760502
-0.852211
-0.926197
-0.962160
-0.929266
-0.806936
-0.603398
-0.349157
-0.079210
0.176275
0.395742
0.566478
0.679542
0.726392
0.700667
0.600930
0.434630
0.228171
0.033210
-0.092799
-0.124262
-0.083536
-0.018177
0.032465
0.050151
0.034640
0.002181
-0.016388
0.012671
0.107210
0.254704
0.410976
0.517258
0.531769
0.454244
0.325436
0.205874
0.147450
0.172674
0.272670
0.418643
0.571306
0.687185
0.732283
0.699429
0.613744
0.519374
0.455392
0.434802
0.438028
0.428541
0.380028
0.285075
0.143273
-0.041359
-0.250282
-0.449039
-0.597337
-0.661197
-0.625271
-0.504115
-0.341721
-0.190529
-0.084560
-0.031465
-0.022999
-0.045897
-0.088943
-0.151072
-0.241824
-0.363858
-0.494757
-0.593305
-0.625801
-0.587205
-0.500887
-0.404048
-0.334948
-0.324819
-0.390013
-0.525570
-0.705440
-0.891234
-1.043643
-1.127423
-1.111730
-0.980512
-0.752380
-0.486736
-0.258600
-0.111468
-0.029184
0.043118
0.152444
0.307300
0.481006
0.637008
0.747076
0.794449
0.778654
0.723701
0.671279
0.653956
0.673395
0.709382
0.742704
0.755997
0.724331
0.629803
0.485772
0.331892
0.202257
0.105102
0.029488
-0.042597
-0.130698
-0.250898
-0.411036
-0.603523
-0.793790
-0.924644
-0.953683
-0.892293
-0.799212
-0.738702
-0.752919
-0.858674
-1.040936
-1.247500
-1.413218
-1.502289
-1.525339
-1.514708
-1.489975
-1.451105
-1.392848
-1.310239
-1.189084
-1.004796
-0.744104
-0.427826
-0.107975
0.158464
0.335401
0.408985
0.374992
0.246790
0.072101
-0.084497
-0.183251
-0.222776
-0.215468
-0.168718
-0.096331
-0.031736
-0.015121
-0.070166
-0.199210
-0.391655
-0.619032
-0.824251
-0.939238
-0.924953
-0.791651
-0.585505
-0.365749
-0.189396
-0.095414
-0.085936
-0.120882
-0.137266
-0.087115
0.025677
0.139582
0.179772
0.121506
0.008664
-0.089183
-0.130140
-0.114118
-0.059895
0.020277
0.122066
0.232751
0.327084
0.387957
0.428619
0.485216
0.584970
0.731025
0.913925
1.114948
1.294506
1.398779
1.391004
1.272014
1.067641
0.806104
0.515933
0.235624
0.008965
-0.133056
-0.183643
-0.153830
-0.055932
0.103399
0.312747
0.545185
0.760257
0.909010
0.938191
0.809137
0.532387
0.183327
-0.131244
-0.331261
-0.395259
-0.352767
-0.256950
-0.150268
-0.038409
0.098931
0.260457
0.389133
0.400714
0.256966
0.008724
-0.234369
-0.376867
-0.391851
-0.319512
-0.225943
-0.164554
-0.158482
-0.196444
-0.237280
-0.227923
-0.132120
0.050444
0.293559
0.568855
0.855778
1.136250
1.391550
1.606785
1.772143
1.871630
1.878963
1.779789
1.589987
1.339096
1.044805
0.716029
0.377049
0.076227
-0.134740
-0.226576
-0.198627
-0.070393
0.123635
0.335040
0.510768
0.611114
0.629075
0.600633
0.589530
0.645749
0.763461
0.871264
0.871995
0.713085
0.432919
0.143987
-0.028573
-0.006447
0.212543
0.559904
0.927488
1.209184
1.338582
1.304691
1.138311
0.886534
0.594344
0.296495
0.016573
-0.230591
-0.434630
-0.584079
-0.668570
-0.692708
-0.681831
-0.666421
-0.666708
-0.698554
-0.785577
-0.951116
-1.192763
-1.468111
-1.710423
-1.861529
-1.895116
-1.819194
-1.663284
-1.460673
-1.235934
-1.003860
-0.778105
-0.576005
-0.409606
-0.276650
-0.167115
-0.075879
-0.002973
0.055695
0.106919
0.149194
0.177861
0.208001
0.281173
0.436353
0.670336
0.933219
1.168361
1.348830
1.471338
1.532803
1.528773
1.465555
1.358852
1.222639
1.067031
0.901901
0.730490
0.541580
0.323494
0.089007
-0.121158
-0.258681
-0.294826
-0.243849
-0.163238
-0.116433
-0.127573
-0.174199
-0.218410
-0.235882
-0.223278
-0.199892
-0.204693
-0.273959
-0.414494
-0.599584
-0.785126
-0.928554
-1.002921
-1.005349
-0.950859
-0.847325
-0.683518
-0.453849
-0.184825
0.074171
0.279605
0.406192
0.441881
0.388382
0.267197
0.113700
-0.037605
-0.160024
-0.233250
-0.240106
-0.165064
-0.004848
0.212819
0.432626
0.604556
0.707055
0.733791
0.669576
0.489381
0.177438
-0.255768
-0.767559
-1.283642
-1.708404
-1.956616
-1.992717
-1.840601
-1.557055
-1.199352
-0.809111
-0.413013
-0.035063
0.291949
0.530006
0.654707
0.675051
0.635245
0.592161
0.584537
0.617524
0.671364
0.723982
0.769618
0.821864
0.901104
1.013675
1.140273
1.248599
1.317846
1.349107
1.351210
1.318493
1.227763
1.056650
0.805027
0.504808
0.206570
-0.051526
-0.262158
-0.436101
-0.576952
-0.672520
-0.707064
-0.675578
-0.584389
-0.444962
-0.278230
-0.122438
-0.021139
0.007989
-0.008509
-0.020893
0.004741
0.076376
0.196882
0.373007
0.595957
0.826303
1.015624
1.145812
1.236258
1.311839
1.375409
1.414533
1.422699
1.399863
1.338764
1.230417
1.081164
0.906842
0.709822
0.474014
0.185360
-0.149347
-0.504227
-0.848316
-1.158368
-1.419946
-1.615378
-1.716789
-1.701379
-1.579444
-1.402223
-1.231235
-1.099119
-1.001152
-0.911154
-0.796407
-0.631611
-0.417802
-0.190034
0.001544
0.124313
0.181048
0.199723
0.213001
0.248959
0.324927
0.434064
0.542843
0.616486
0.656559
0.715418
0.868378
1.160209
1.564376
1.988985
2.329023
2.521264
2.562372
2.493566
2.373253
2.253048
2.165100
2.115158
2.079224
2.018859
1.915889
1.794078
1.698651
1.652706
1.640086
1.627727
1.590349
1.511887
1.379831
1.189720
0.951263
0.685765
0.421034
0.186140
-0.001088
-0.142681
-0.250598
-0.332999
-0.396274
-0.452259
-0.508467
-0.550744
-0.550606
-0.496572
-0.407439
-0.304797
-0.184079
-0.032622
0.127329
0.236409
0.247645
0.168449
0.052846
-0.037392
-0.069274
-0.056031
-0.047797
-0.098730
-0.231623
-0.427196
-0.642853
-0.840521
-1.004314
-1.141080
-1.270052
-1.409424
-1.559194
-1.688818
-1.746345
-1.687433
-1.500718
-1.214715
-0.891638
-0.609259
-0.430717
-0.375676
-0.411978
-0.479070
-0.526777
-0.536130
-0.512703
-0.468591
-0.407420
-0.321830
-0.207654
-0.077036
0.050340
0.164801
0.265715
0.346166
0.389988
0.383329
0.321002
0.202334
0.027995
-0.189335
-0.408940
-0.570249
-0.628764
-0.583902
-0.465493
-0.291411
-0.053426
0.245093
0.556361
0.811043
0.964381
1.009766
0.959367
0.827510
0.631358
0.393533
0.138594
-0.103651
-0.290486
-0.377820
-0.347466
-0.217826
-0.032443
0.149828
0.263207
0.261129
0.142736
-0.056446
-0.296833
-0.548735
-0.783899
-0.966190
-1.050263
-0.989470
-0.758640
-0.385426
0.042947
0.418837
0.666740
0.760344
0.706439
0.538196
0.320810
0.129991
0.005065
-0.070832
-0.140464
-0.228482
-0.323713
-0.394402
-0.420904
-0.417373
-0.424035
-0.478702
-0.585614
-0.704318
-0.773978
-0.755686
-0.662689
-0.560908
-0.535383
-0.639661
-0.858409
-1.104689
-1.258460
-1.231387
-1.018807
-0.706539
-0.433683
-0.328417
-0.441016
-0.717247
-1.038863
-1.296974
-1.437747
-1.458291
-1.378054
-1.217836
-0.993273
-0.716633
-0.403704
-0.079601
0.222701
0.472385
0.659455
0.805620
0.940878
1.063190
1.131772
1.105871
0.988236
0.826163
0.669749
0.531056
0.378238
0.164484
-0.129853
-0.468897
-0.770951
-0.958128
-1.005062
-0.942781
-0.824843
-0.692853
-0.560885
-0.416902
-0.234269
0.011577
0.327375
0.697097
1.090801
1.473937
1.809475
2.063223
2.209038
2.222355
2.081114
1.791835
1.411849
1.030867
0.719827
0.491923
0.313854
0.153857
0.011204
-0.100413
-0.181532
-0.245250
-0.296379
-0.329273
-0.342715
-0.342695
-0.335503
-0.333617
-0.361454
-0.437080
-0.550068
-0.667709
-0.762669
-0.829841
-0.872630
-0.875834
-0.805549
-0.647452
-0.444470
-0.288471
-0.266803
-0.412029
-0.696078
-1.056966
-1.422572
-1.725996
-1.925030
-2.016871
-2.030019
-1.999283
-1.945366
-1.869212
-1.758925
-1.601076
-1.387270
-1.118323
-0.813270
-0.515607
-0.277741
-0.125213
-0.035332
0.047463
0.175782
0.369264
0.608750
0.855838
1.077467
1.259301
1.408533
1.547082
1.692925
1.836443
1.933295
1.929339
1.798833
1.558367
1.242412
0.866225
0.416795
-0.120200
-0.732144
-1.380984
-2.020228
-2.594123
-3.027746
-3.243193
-3.194065
-2.876320
-2.314933
-1.565994
-0.732235
0.050045
0.660670
1.046543
1.233653
1.294438
1.301197
1.290402
1.250858
1.144648
0.945609
0.663142
0.333609
-0.006738
-0.333703
-0.622446
-0.838412
-0.954938
-0.981006
-0.961288
-0.942506
-0.946354
-0.975339
-1.027211
-1.088323
-1.122025
-1.088439
-0.982057
-0.835020
-0.683250
-0.542618
-0.416176
-0.313155
-0.254369
-0.255951
-0.306105
-0.358669
-0.352877
-0.243130
-0.018244
0.294677
0.638886
0.946947
1.164027
1.260489
1.226657
1.066866
0.808078
0.507331
0.233421
0.033508
-0.077826
-0.101214
-0.041741
0.080246
0.222693
0.338545
0.397130
0.386964
0.311079
0.193189
0.080740
0.024113
0.044405
0.123795
0.229206
0.341936
0.458836
0.566809
0.633766
0.632145
0.552153
0.385173
0.116279
-0.255719
-0.704836
-1.192504
-1.684439
-2.149820
-2.558914
-2.886243
-3.105056
-3.182912
-3.102703
-2.887025
-2.584273
-2.235251
-1.867073
-1.509450
-1.196973
-0.952222
-0.775041
-0.647803
-0.544010
-0.435295
-0.299713
-0.124561
0.103542
0.413252
0.843979
1.404666
2.029828
2.598723
3.012254
3.245830
3.334631
3.321781
3.216856
2.994702
2.630555
2.133540
1.547838
0.928255
0.319791
-0.240491
-0.710182
-1.042084
-1.205833
-1.207263
-1.082727
-0.876113
-0.620941
-0.335176
-0.023365
0.312843
0.652845
0.939741
1.095877
1.072504
0.886739
0.602300
0.277736
-0.058289
-0.393428
-0.718300
-1.030984
-1.340560
-1.656008
-1.968695
-2.246468
-2.447474
-2.543635
-2.533821
-2.433617
-2.256319
-2.013850
-1.735254
-1.468077
-1.251447
-1.095938
-0.990422
-0.909376
-0.807977
-0.629686
-0.335730
0.069783
0.544828
1.038387
1.517023
1.971472
2.403514
2.810304
3.185844
3.533770
3.865423
4.176619
4.431515
4.579548
4.586761
4.445639
4.165668
3.768893
3.291984
2.781631
2.281630
1.823221
1.428350
1.118191
0.910886
0.808155
0.788712
0.818557
0.862244
0.881086
0.834273
0.696923
0.475807
0.201160
-0.098394
-0.413187
-0.744394
-1.083009
-1.409458
-1.715243
-2.007133
-2.282393
-2.514257
-2.669789
-2.735031
-2.722207
-2.659658
-2.574944
-2.481580
-2.375779
-2.240453
-2.049925
-1.779380
-1.427765
-1.034547
-0.658335
-0.334759
-0.062678
0.174805
0.389402
0.584710
0.759078
0.907218
1.026199
1.118620
1.184908
1.219100
1.217315
1.182528
1.114209
1.001256
0.836026
0.629992
0.407832
0.192459
-0.000166
-0.160975
-0.294945
-0.430428
-0.608437
-0.848934
-1.127465
-1.385092
-1.554253
-1.580238
-1.440188
-1.156826
-0.789490
-0.404454
-0.050619
0.247037
0.486134
0.680407
0.840939
0.959388
1.014048
0.987084
0.876491
0.706321
0.529718
0.414639
0.418344
0.560620
0.807372
1.081352
1.304517
1.446216
1.535260
1.624789
1.743263
1.870968
1.954561
1.941359
1.805911
1.559592
1.247899
0.936037
0.685331
0.529256
0.461733
0.449750
0.459835
0.474952
0.498064
0.546408
0.633904
0.752992
0.873957
0.958200
0.973809
0.909391
0.779807
0.618408
0.457323
0.307517
0.156941
-0.015285
-0.226081
-0.474951
-0.729333
-0.932607
-1.038977
-1.042357
-0.972668
-0.865138
-0.730500
-0.555903
-0.336421
-0.098269
0.110874
0.243359
0.261156
0.141532
-0.104805
-0.421201
-0.732543
-0.992318
-1.190210
-1.320074
-1.363080
-1.304064
-1.150427
-0.930024
-0.675312
-0.410777
-0.150900
0.091053
0.291193
0.413505
0.423645
0.311622
0.109067
-0.113826
-0.274283
-0.311619
-0.210616
-0.004612
0.242425
0.472470
0.665202
0.834943
0.999373
1.154381
1.277491
1.349603
1.364445
1.318359
1.202939
1.009197
0.732536
0.378357
-0.029519
-0.451533
-0.855665
-1.241235
-1.635101
-2.065168
-2.540179
-3.048946
-3.569832
-4.074911
-4.522050
-4.850893
-5.004670
-4.965549
-4.762145
-4.438932
-4.027109
-3.546374
-3.019955
-2.474615
-1.928047
-1.383663
-0.837404
-0.286516
0.266315
0.807196
1.301119
1.693450
1.930085
1.980887
1.851298
1.580260
1.227043
0.851689
0.500097
0.200504
-0.034140
-0.204858
-0.325284
-0.415358
-0.491570
-0.563444
-0.638300
-0.720909
-0.805546
-0.877668
-0.926147
-0.947271
-0.938687
-0.894812
-0.802542
-0.637530
-0.376629
-0.025372
0.372612
0.763294
1.118728
1.439596
1.721362
1.929396
2.015136
1.950125
1.741883
1.427888
1.063155
0.706911
0.407152
0.193204
0.080331
0.074742
0.180180
0.408291
0.771294
1.251306
1.778934
2.248433
2.562957
2.681197
2.634670
2.504636
2.375843
2.296059
2.259443
2.214131
2.087903
1.825287
1.417442
0.900304
0.323487
-0.276812
-0.874500
-1.429398
-1.875938
-2.144362
-2.198761
-2.056159
-1.771466
-1.410318
-1.032502
-0.682589
-0.378637
-0.109949
0.141754
0.376046
0.573440
0.718640
0.820051
0.912167
1.048754
1.291825
1.690041
2.249564
2.921163
3.619517
4.255087
4.751683
5.049353
5.110544
4.936740
4.575839
4.102560
3.585560
3.065856
2.553475
2.035611
1.494793
0.934422
0.391174
-0.083453
-0.455396
-0.720079
-0.889086
-0.977968
-1.008232
-1.004458
-0.979500
-0.929829
-0.847440
-0.731246
-0.594214
-0.470627
-0.409057
-0.445731
-0.583125
-0.787229
-0.996703
-1.141408
-1.166386
-1.053067
-0.830439
-0.567989
-0.344405
-0.205130
-0.143963
-0.122071
-0.095267
-0.023289
0.127858
0.369056
0.670757
0.977676
1.248512
1.478926
1.688549
1.891900
2.079948
2.222442
2.288089
2.269972
2.189992
2.075112
1.943178
1.820192
1.751538
1.776183
1.892557
2.057690
2.217664
2.335886
2.397256
2.396207
2.327891
2.186261
1.960650
1.636517
1.212334
0.717986
0.210816
-0.245125
-0.598398
-0.821932
-0.916434
-0.904647
-0.818410
-0.690656
-0.562988
-0.491920
-0.530625
-0.699176
-0.979210
-1.339386
-1.755653
-2.201513
-2.633144
-2.998733
-3.256216
-3.372505
-3.317508
-3.080922
-2.696908
-2.234181
-1.750931
-1.263073
-0.757146
-0.225282
0.317698
0.845410
1.340498
1.803985
2.243670
2.653199
3.005137
3.257339
3.365021
3.303666
3.085608
2.746735
2.319141
1.820931
1.268042
0.692661
0.150487
-0.293273
-0.587545
-0.712619
-0.687158
-0.560614
-0.395299
-0.249005
-0.159370
-0.138091
-0.183968
-0.297774
-0.477432
-0.703826
-0.944320
-1.169247
-1.354008
-1.471111
-1.498267
-1.440047
-1.332686
-1.222747
-1.149278
-1.145682
-1.237096
-1.419411
-1.648205
-1.864665
-2.038723
-2.185274
-2.339023
-2.515646
-2.693783
-2.827830
-2.876210
-2.822895
-2.681971
-2.485447
-2.260841
-2.017933
-1.756721
-1.480480
-1.194633
-0.899143
-0.591998
-0.277290
0.036817
0.344651
0.639981
0.904544
1.107951
1.223269
1.234579
1.127179
0.882073
0.492815
-0.012309
-0.569729
-1.097190
-1.512648
-1.755663
-1.810791
-1.719781
-1.564863
-1.428419
-1.360656
-1.371955
-1.440266
-1.529397
-1.618833
-1.720502
-1.858228
-2.035416
-2.230095
-2.407825
-2.523933
-2.526940
-2.388601
-2.134223
-1.824661
-1.508456
-1.208685
-0.947443
-0.749567
-0.612019
-0.493399
-0.351384
-0.180926
-0.007344
0.145096
0.268562
0.369082
0.462293
0.566199
0.688075
0.820081
0.952649
1.090686
1.251035
1.438879
1.629508
1.784027
1.886454
1.956758
2.022329
2.084575
2.118472
2.093091
1.982157
1.765685
1.438230
1.016066
0.534492
0.044194
-0.393016
-0.721151
-0.916557
-0.996428
-0.996748
-0.949026
-0.876824
-0.796035
-0.707730
-0.596579
-0.446822
-0.260711
-0.057416
0.138303
0.301170
0.411384
0.467960
0.498442
0.550085
0.662137
0.842138
1.068626
1.309444
1.528703
1.685948
1.750640
1.721785
1.621466
1.468720
1.271102
1.040250
0.799750
0.574302
0.381660
0.231467
0.117775
0.015773
-0.098121
-0.218900
-0.314349
-0.354369
-0.334424
-0.279486
-0.235961
-0.252579
-0.354507
-0.528467
-0.730832
-0.911432
-1.035477
-1.089417
-1.074420
-1.005658
-0.917520
-0.854240
-0.844017
-0.884017
-0.952694
-1.026014
-1.077601
-1.082676
-1.037244
-0.965539
-0.896451
-0.835293
-0.768937
-0.691461
-0.609650
-0.530611
-0.459882
-0.407581
-0.383091
-0.384645
-0.400942
-0.420803
-0.438374
-0.448496
-0.438672
-0.392563
-0.301082
-0.165116
0.003372
0.174743
0.305103
0.356824
0.317526
0.197149
0.011881
-0.221640
-0.486351
-0.772435
-1.077373
-1.388592
-1.674098
-1.896132
-2.027404
-2.055694
-1.985358
-1.837245
-1.635359
-1.386081
-1.078420
-0.709799
-0.301808
0.114053
0.516794
0.899819
1.264328
1.612599
1.938606
2.216026
2.401182
2.459046
2.385640
2.205909
1.957680
1.673744
1.370258
1.050140
0.716695
0.384629
0.080573
-0.163709
-0.316449
-0.349797
-0.250746
-0.034984
0.255347
0.573963
0.892990
1.208491
1.525420
1.835022
2.109421
2.321918
2.469821
2.571684
2.645973
2.700932
2.740599
2.767502
2.775076
2.746134
2.669239
2.553452
2.418863
2.276883
2.126379
1.965443
1.798726
1.630935
1.455894
1.252386
0.992742
0.658772
0.251561
-0.207702
-0.682480
-1.131867
-1.523875
-1.840452
-2.071788
-2.208425
-2.235300
-2.131856
-1.885780
-1.512587
-1.060488
-0.590948
-0.149720
0.244902
0.590018
0.879675
1.094358
1.205678
1.195693
1.074542
0.881389
0.665976
0.462354
0.274632
0.081695
-0.144610
-0.420421
-0.744439
-1.106589
-1.496999
-1.900570
-2.283975
-2.599870
-2.810566
-2.906945
-2.905567
-2.830679
-2.701447
-2.532299
-2.337278
-2.134095
-1.948172
-1.808825
-1.731955
-1.704414
-1.691637
-1.661178
-1.595081
-1.484961
-1.326623
-1.126201
-0.906982
-0.698791
-0.519787
-0.372767
-0.250985
-0.142505
-0.036400
0.070203
0.168981
0.246503
0.302850
0.364171
0.468090
0.640192
0.892742
1.236743
1.678387
2.200109
2.749867
3.249689
3.618403
3.802641
3.801166
3.660197
3.439072
3.174172
2.869551
2.517082
2.123927
1.720488
1.342466
1.008798
0.718900
0.464097
0.233017
0.009396
-0.223266
-0.466538
-0.699940
-0.898330
-1.053462
-1.167685
-1.230008
-1.210509
-1.080322
-0.837786
-0.524033
-0.217304
-0.006050
0.045268
-0.079909
-0.348947
-0.699009
-1.063472
-1.393367
-1.663505
-1.863680
-1.990388
-2.048065
-2.049736
-2.010804
-1.943327
-1.855952
-1.756332
-1.650745
-1.543978
-1.443480
-1.361511
-1.311510
-1.300394
-1.316175
-1.323249
-1.282073
-1.175017
-1.010494
-0.812391
-0.610042
-0.428729
-0.281729
-0.169250
-0.084822
-0.023600
0.014508
0.028390
0.021532
0.006239
0.001712
0.023736
0.075811
0.152937
0.252392
0.376594
0.524344
0.682628
0.830072
0.946079
1.014184
1.023156
0.974580
0.887991
0.793213
0.718618
0.681314
0.677718
0.684716
0.679157
0.659409
0.643749
0.646957
0.663882
0.674028
0.656036
0.599443
0.506238
0.383213
0.232366
