EVENT_NAME: L_AQUILA
EVENT_ID: IT-2009-0009
EVENT_DATE_YYYYMMDD: 20090406
EVENT_TIME_HHMMSS: 013240
EVENT_LATITUDE_DEGREE: 42.3420
EVENT_LONGITUDE_DEGREE: 13.3800
EVENT_DEPTH_KM: 8.3
HYPOCENTER_REFERENCE: INGV-CNT_Seismic_Bulletin
MAGNITUDE_W: 6.1
MAGNITUDE_W_REFERENCE: INGV-CNT_Seismic_Bulletin
MAGNITUDE_L: 
MAGNITUDE_L_REFERENCE: 
FOCAL_MECHANISM: Normal faulting
NETWORK: IT
STATION_CODE: MMP
STATION_NAME: 
STATION_LATITUDE_DEGREE: 42.248547
STATION_LONGITUDE_DEGREE: 12.748537
STATION_ELEVATION_M: 475
LOCATION: 
SENSOR_DEPTH_M: 0.0
VS30_M/S: 
SITE_CLASSIFICATION_EC8: B (inferred from geology)
MORPHOLOGIC_CLASSIFICATION: 
EPICENTRAL_DISTANCE_KM: 53.1
EARTHQUAKE_BACKAZIMUTH_DEGREE: 258.9
DATE_TIME_FIRST_SAMPLE_YYYYMMDD_HHMMSS: 20090406_013237.000
DATE_TIME_FIRST_SAMPLE_PRECISION: seconds
SAMPLING_INTERVAL_S: 0.005000
NDATA: 20380
DURATION_S: 101.900
STREAM: HNN
UNITS: cm
INSTRUMENT: sensor = Unknown [Unknown] | digitizer = Etna [Kinemetrics]
INSTRUMENT_ANALOG/DIGITAL: D
INSTRUMENTAL_FREQUENCY_HZ: 206.000
INSTRUMENTAL_DAMPING: 0.700000
FULL_SCALE_G: 1.0
N_BIT_DIGITAL_CONVERTER: 18
PGD_CM: -0.582068
TIME_PGD_S: 27.415000
BASELINE_CORRECTION: BASELINE REMOVED
FILTER_TYPE: BUTTERWORTH
FILTER_ORDER: 2
LOW_CUT_FREQUENCY_HZ: 0.030
HIGH_CUT_FREQUENCY_HZ: 40.000
LATE/NORMAL_TRIGGERED: NT
DATABASE_VERSION: 0.5
HEADER_FORMAT: DYNA 1.2
DATA_TYPE: DISPLACEMENT
PROCESSING: manual (Paolucci et al., 2011)
DATA_TIMESTAMP_YYYYMMDD_HHMMSS: 20211011_160301.466
DATA_LICENSE: CC-BY3_0-IT (http://creativecommons.org/licenses/by/3.0/deed.en)
DATA_CITATION: Luzi L, Pacor F, Puglia R (2019). Italian Accelerometric Archive v 3.0 - Istituto Nazionale di Geofisica e Vulcanologia, Dipartimento della Protezione Civile Nazionale. doi: 10.13127/itaca.3.1
DATA_CREATOR: ITACA working group
ORIGINAL_DATA_MEDIATOR_CITATION: data obtained within the DPC-INGV data exchange agreements
ORIGINAL_DATA_MEDIATOR: Archive of Italian Department of Civil Protection
ORIGINAL_DATA_CREATOR_CITATION: Presidency Of Counsil Of Ministers-Civil Protection Department. (1972). Italian Strong Motion Network. Presidency of Counsil of Ministers - Civil Protection Department. https://doi.org/10.7914/SN/IT http://www.fdsn.org/networks/detail/IT/
ORIGINAL_DATA_CREATOR: network: IT (Italian Strong Motion Network (RAN)); owner: Presidency of Counsil of Ministers - Civil Protection Department (PCM - DPC)
USER1: 
USER2: 
USER3: 
USER4: 
USER5: 
[...]
1.066928e-01
1.059001e-01
1.050422e-01
1.041301e-01
1.031763e-01
1.021937e-01
1.011936e-01
1.001850e-01
9.917390e-02
9.816494e-02
9.716305e-02
9.617498e-02
9.520955e-02
9.427643e-02
9.338448e-02
9.254025e-02
9.174722e-02
9.100535e-02
9.031087e-02
8.965620e-02
8.903057e-02
8.842156e-02
8.781686e-02
8.720524e-02
8.657654e-02
8.592144e-02
8.523171e-02
8.450072e-02
8.372351e-02
8.289594e-02
8.201369e-02
8.107246e-02
8.006894e-02
7.900169e-02
7.787094e-02
7.667773e-02
7.542320e-02
7.410862e-02
7.273594e-02
7.130793e-02
6.982774e-02
6.829828e-02
6.672212e-02
6.510184e-02
6.344033e-02
6.174067e-02
6.000611e-02
5.824035e-02
5.644787e-02
5.463372e-02
5.280285e-02
5.095942e-02
4.910648e-02
4.724553e-02
4.537596e-02
4.349456e-02
4.159594e-02
3.967405e-02
3.772411e-02
3.574416e-02
3.373545e-02
3.170150e-02
2.964659e-02
2.757438e-02
2.548731e-02
2.338681e-02
2.127385e-02
1.914938e-02
1.701429e-02
1.486888e-02
1.271264e-02
1.054436e-02
8.362622e-03
6.166393e-03
3.955333e-03
1.729623e-03
-5.105433e-04
-2.765327e-03
-5.035073e-03
-7.319615e-03
-9.617668e-03
-1.192693e-02
-1.424490e-02
-1.656958e-02
-1.889926e-02
-2.123168e-02
-2.356311e-02
-2.588808e-02
-2.819965e-02
-3.048966e-02
-3.274927e-02
-3.496953e-02
-3.714260e-02
-3.926304e-02
-4.132847e-02
-4.333884e-02
-4.529460e-02
-4.719469e-02
-4.903501e-02
-5.080818e-02
-5.250471e-02
-5.411520e-02
-5.563272e-02
-5.705460e-02
-5.838291e-02
-5.962360e-02
-6.078444e-02
-6.187265e-02
-6.289335e-02
-6.384916e-02
-6.474079e-02
-6.556770e-02
-6.632911e-02
-6.702540e-02
-6.765937e-02
-6.823673e-02
-6.876575e-02
-6.925635e-02
-6.971876e-02
-7.016239e-02
-7.059526e-02
-7.102387e-02
-7.145314e-02
-7.188633e-02
-7.232507e-02
-7.276965e-02
-7.321971e-02
-7.367518e-02
-7.413702e-02
-7.460746e-02
-7.508954e-02
-7.558623e-02
-7.609900e-02
-7.662652e-02
-7.716383e-02
-7.770250e-02
-7.823222e-02
-7.874328e-02
-7.922861e-02
-7.968411e-02
-8.010756e-02
-8.049733e-02
-8.085212e-02
-8.117175e-02
-8.145808e-02
-8.171466e-02
-8.194547e-02
-8.215365e-02
-8.234126e-02
-8.250961e-02
-8.265994e-02
-8.279415e-02
-8.291518e-02
-8.302662e-02
-8.313145e-02
-8.323043e-02
-8.332082e-02
-8.339624e-02
-8.344813e-02
-8.346806e-02
-8.345017e-02
-8.339250e-02
-8.329654e-02
-8.316544e-02
-8.300205e-02
-8.280794e-02
-8.258330e-02
-8.232739e-02
-8.203936e-02
-8.171906e-02
-8.136748e-02
-8.098668e-02
-8.057889e-02
-8.014532e-02
-7.968523e-02
-7.919608e-02
-7.867444e-02
-7.811708e-02
-7.752149e-02
-7.688619e-02
-7.621121e-02
-7.549848e-02
-7.475149e-02
-7.397406e-02
-7.316902e-02
-7.233768e-02
-7.148059e-02
-7.059872e-02
-6.969437e-02
-6.877102e-02
-6.783272e-02
-6.688362e-02
-6.592776e-02
-6.496882e-02
-6.400979e-02
-6.305260e-02
-6.209826e-02
-6.114730e-02
-6.020020e-02
-5.925783e-02
-5.832154e-02
-5.739301e-02
-5.647401e-02
-5.556613e-02
-5.467070e-02
-5.378856e-02
-5.292024e-02
-5.206698e-02
-5.123199e-02
-5.042074e-02
-4.963971e-02
-4.889416e-02
-4.818674e-02
-4.751766e-02
-4.688638e-02
-4.629322e-02
-4.574033e-02
-4.523209e-02
-4.477501e-02
-4.437687e-02
-4.404474e-02
-4.378259e-02
-4.358967e-02
-4.346027e-02
-4.338468e-02
-4.335058e-02
-4.334427e-02
-4.335145e-02
-4.335782e-02
-4.334969e-02
-4.331442e-02
-4.324065e-02
-4.311864e-02
-4.294099e-02
-4.270342e-02
-4.240509e-02
-4.204870e-02
-4.164052e-02
-4.119038e-02
-4.071121e-02
-4.021803e-02
-3.972637e-02
-3.925020e-02
-3.880056e-02
-3.838578e-02
-3.801293e-02
-3.768927e-02
-3.742320e-02
-3.722458e-02
-3.710443e-02
-3.707339e-02
-3.713896e-02
-3.730271e-02
-3.755898e-02
-3.789587e-02
-3.829799e-02
-3.874981e-02
-3.923835e-02
-3.975440e-02
-4.029251e-02
-4.085024e-02
-4.142726e-02
-4.202451e-02
-4.264343e-02
-4.328541e-02
-4.395094e-02
-4.463876e-02
-4.534553e-02
-4.606652e-02
-4.679704e-02
-4.753363e-02
-4.827455e-02
-4.901966e-02
-4.977045e-02
-5.053046e-02
-5.130574e-02
-5.210447e-02
-5.293532e-02
-5.380546e-02
-5.471920e-02
-5.567750e-02
-5.667787e-02
-5.771496e-02
-5.878227e-02
-5.987495e-02
-6.099262e-02
-6.214056e-02
-6.332849e-02
-6.456763e-02
-6.586764e-02
-6.723469e-02
-6.867013e-02
-7.016973e-02
-7.172399e-02
-7.332031e-02
-7.494619e-02
-7.659173e-02
-7.825007e-02
-7.991577e-02
-8.158245e-02
-8.324161e-02
-8.488327e-02
-8.649775e-02
-8.807723e-02
-8.961656e-02
-9.111327e-02
-9.256731e-02
-9.398069e-02
-9.535707e-02
-9.670092e-02
-9.801643e-02
-9.930687e-02
-1.005745e-01
-1.018214e-01
-1.030496e-01
-1.042620e-01
-1.054611e-01
-1.066499e-01
-1.078310e-01
-1.090074e-01
-1.101820e-01
-1.113566e-01
-1.125316e-01
-1.137067e-01
-1.148817e-01
-1.160580e-01
-1.172394e-01
-1.184324e-01
-1.196464e-01
-1.208925e-01
-1.221822e-01
-1.235253e-01
-1.249296e-01
-1.264000e-01
-1.279389e-01
-1.295453e-01
-1.312144e-01
-1.329372e-01
-1.347015e-01
-1.364929e-01
-1.382956e-01
-1.400938e-01
-1.418715e-01
-1.436134e-01
-1.453054e-01
-1.469340e-01
-1.484868e-01
-1.499528e-01
-1.513232e-01
-1.525913e-01
-1.537535e-01
-1.548084e-01
-1.557565e-01
-1.565998e-01
-1.573411e-01
-1.579855e-01
-1.585405e-01
-1.590169e-01
-1.594279e-01
-1.597873e-01
-1.601077e-01
-1.603989e-01
-1.606682e-01
-1.609207e-01
-1.611597e-01
-1.613867e-01
-1.616014e-01
-1.618018e-01
-1.619852e-01
-1.621498e-01
-1.622950e-01
-1.624227e-01
-1.625363e-01
-1.626403e-01
-1.627386e-01
-1.628334e-01
-1.629245e-01
-1.630101e-01
-1.630886e-01
-1.631602e-01
-1.632278e-01
-1.632959e-01
-1.633698e-01
-1.634538e-01
-1.635517e-01
-1.636664e-01
-1.638014e-01
-1.639606e-01
-1.641486e-01
-1.643708e-01
-1.646320e-01
-1.649356e-01
-1.652821e-01
-1.656690e-01
-1.660916e-01
-1.665444e-01
-1.670226e-01
-1.675217e-01
-1.680375e-01
-1.685654e-01
-1.691003e-01
-1.696373e-01
-1.701708e-01
-1.706942e-01
-1.711998e-01
-1.716796e-01
-1.721263e-01
-1.725340e-01
-1.728980e-01
-1.732136e-01
-1.734754e-01
-1.736764e-01
-1.738079e-01
-1.738593e-01
-1.738193e-01
-1.736766e-01
-1.734213e-01
-1.730455e-01
-1.725435e-01
-1.719115e-01
-1.711479e-01
-1.702542e-01
-1.692358e-01
-1.681040e-01
-1.668750e-01
-1.655697e-01
-1.642116e-01
-1.628261e-01
-1.614395e-01
-1.600788e-01
-1.587695e-01
-1.575339e-01
-1.563901e-01
-1.553518e-01
-1.544283e-01
-1.536249e-01
-1.529431e-01
-1.523807e-01
-1.519328e-01
-1.515924e-01
-1.513493e-01
-1.511899e-01
-1.510979e-01
-1.510549e-01
-1.510437e-01
-1.510514e-01
-1.510715e-01
-1.511045e-01
-1.511559e-01
-1.512331e-01
-1.513421e-01
-1.514856e-01
-1.516617e-01
-1.518653e-01
-1.520899e-01
-1.523306e-01
-1.525862e-01
-1.528603e-01
-1.531598e-01
-1.534935e-01
-1.538700e-01
-1.542975e-01
-1.547829e-01
-1.553322e-01
-1.559498e-01
-1.566393e-01
-1.574040e-01
-1.582466e-01
-1.591695e-01
-1.601729e-01
-1.612544e-01
-1.624093e-01
-1.636318e-01
-1.649157e-01
-1.662555e-01
-1.676462e-01
-1.690835e-01
-1.705629e-01
-1.720790e-01
-1.736247e-01
-1.751904e-01
-1.767642e-01
-1.783325e-01
-1.798815e-01
-1.813989e-01
-1.828760e-01
-1.843073e-01
-1.856908e-01
-1.870270e-01
-1.883191e-01
-1.895737e-01
-1.908005e-01
-1.920109e-01
-1.932163e-01
-1.944258e-01
-1.956456e-01
-1.968797e-01
-1.981307e-01
-1.994007e-01
-2.006911e-01
-2.020024e-01
-2.033330e-01
-2.046776e-01
-2.060268e-01
-2.073683e-01
-2.086896e-01
-2.099816e-01
-2.112398e-01
-2.124650e-01
-2.136605e-01
-2.148301e-01
-2.159761e-01
-2.170986e-01
-2.181971e-01
-2.192710e-01
-2.203216e-01
-2.213523e-01
-2.223687e-01
-2.233785e-01
-2.243912e-01
-2.254184e-01
-2.264730e-01
-2.275676e-01
-2.287129e-01
-2.299152e-01
-2.311759e-01
-2.324913e-01
-2.338546e-01
-2.352577e-01
-2.366942e-01
-2.381605e-01
-2.396567e-01
-2.411853e-01
-2.427500e-01
-2.443529e-01
-2.459931e-01
-2.476667e-01
-2.493667e-01
-2.510841e-01
-2.528082e-01
-2.545270e-01
-2.562277e-01
-2.578983e-01
-2.595287e-01
-2.611118e-01
-2.626434e-01
-2.641217e-01
-2.655474e-01
-2.669237e-01
-2.682557e-01
-2.695492e-01
-2.708094e-01
-2.720399e-01
-2.732418e-01
-2.744149e-01
-2.755576e-01
-2.766683e-01
-2.777448e-01
-2.787840e-01
-2.797822e-01
-2.807350e-01
-2.816383e-01
-2.824881e-01
-2.832802e-01
-2.840108e-01
-2.846758e-01
-2.852719e-01
-2.857963e-01
-2.862471e-01
-2.866246e-01
-2.869334e-01
-2.871833e-01
-2.873892e-01
-2.875691e-01
-2.877405e-01
-2.879174e-01
-2.881092e-01
-2.883210e-01
-2.885543e-01
-2.888092e-01
-2.890846e-01
-2.893787e-01
-2.896888e-01
-2.900114e-01
-2.903437e-01
-2.906843e-01
-2.910342e-01
-2.913971e-01
-2.917793e-01
-2.921892e-01
-2.926359e-01
-2.931275e-01
-2.936705e-01
-2.942688e-01
-2.949237e-01
-2.956341e-01
-2.963963e-01
-2.972051e-01
-2.980549e-01
-2.989417e-01
-2.998637e-01
-3.008213e-01
-3.018177e-01
-3.028572e-01
-3.039446e-01
-3.050848e-01
-3.062823e-01
-3.075417e-01
-3.088687e-01
-3.102702e-01
-3.117535e-01
-3.133247e-01
-3.149873e-01
-3.167423e-01
-3.185889e-01
-3.205250e-01
-3.225475e-01
-3.246526e-01
-3.268350e-01
-3.290875e-01
-3.313997e-01
-3.337576e-01
-3.361427e-01
-3.385328e-01
-3.409042e-01
-3.432333e-01
-3.454993e-01
-3.476858e-01
-3.497816e-01
-3.517811e-01
-3.536846e-01
-3.554967e-01
-3.572253e-01
-3.588798e-01
-3.604705e-01
-3.620091e-01
-3.635083e-01
-3.649817e-01
-3.664425e-01
-3.679028e-01
-3.693714e-01
-3.708540e-01
-3.723521e-01
-3.738640e-01
-3.753850e-01
-3.769077e-01
-3.784222e-01
-3.799164e-01
-3.813769e-01
-3.827901e-01
-3.841441e-01
-3.854307e-01
-3.866471e-01
-3.877962e-01
-3.888869e-01
-3.899319e-01
-3.909464e-01
-3.919458e-01
-3.929430e-01
-3.939472e-01
-3.949620e-01
-3.959861e-01
-3.970145e-01
-3.980405e-01
-3.990568e-01
-4.000572e-01
-4.010364e-01
-4.019903e-01
-4.029145e-01
-4.038037e-01
-4.046504e-01
-4.054455e-01
-4.061795e-01
-4.068440e-01
-4.074336e-01
-4.079457e-01
-4.083798e-01
-4.087370e-01
-4.090197e-01
-4.092319e-01
-4.093792e-01
-4.094690e-01
-4.095089e-01
-4.095064e-01
-4.094687e-01
-4.094023e-01
-4.093139e-01
-4.092104e-01
-4.091000e-01
-4.089918e-01
-4.088953e-01
-4.088187e-01
-4.087677e-01
-4.087456e-01
-4.087544e-01
-4.087971e-01
-4.088791e-01
-4.090083e-01
-4.091938e-01
-4.094447e-01
-4.097697e-01
-4.101778e-01
-4.106781e-01
-4.112800e-01
-4.119920e-01
-4.128216e-01
-4.137747e-01
-4.148564e-01
-4.160710e-01
-4.174223e-01
-4.189133e-01
-4.205453e-01
-4.223169e-01
-4.242223e-01
-4.262518e-01
-4.283927e-01
-4.306304e-01
-4.329505e-01
-4.353401e-01
-4.377888e-01
-4.402892e-01
-4.428367e-01
-4.454282e-01
-4.480616e-01
-4.507347e-01
-4.534452e-01
-4.561902e-01
-4.589660e-01
-4.617676e-01
-4.645896e-01
-4.674276e-01
-4.702787e-01
-4.731426e-01
-4.760210e-01
-4.789159e-01
-4.818284e-01
-4.847581e-01
-4.877031e-01
-4.906603e-01
-4.936262e-01
-4.965965e-01
-4.995664e-01
-5.025299e-01
-5.054797e-01
-5.084075e-01
-5.113042e-01
-5.141612e-01
-5.169699e-01
-5.197229e-01
-5.224133e-01
-5.250359e-01
-5.275869e-01
-5.300644e-01
-5.324680e-01
-5.347992e-01
-5.370606e-01
-5.392565e-01
-5.413918e-01
-5.434713e-01
-5.454973e-01
-5.474688e-01
-5.493817e-01
-5.512291e-01
-5.530026e-01
-5.546923e-01
-5.562880e-01
-5.577799e-01
-5.591603e-01
-5.604246e-01
-5.615716e-01
-5.626028e-01
-5.635222e-01
-5.643358e-01
-5.650507e-01
-5.656747e-01
-5.662163e-01
-5.666849e-01
-5.670904e-01
-5.674444e-01
-5.677602e-01
-5.680515e-01
-5.683315e-01
-5.686112e-01
-5.688993e-01
-5.692023e-01
-5.695251e-01
-5.698715e-01
-5.702433e-01
-5.706405e-01
-5.710603e-01
-5.714981e-01
-5.719487e-01
-5.724073e-01
-5.728710e-01
-5.733384e-01
-5.738083e-01
-5.742779e-01
-5.747415e-01
-5.751900e-01
-5.756120e-01
-5.759953e-01
-5.763286e-01
-5.766027e-01
-5.768109e-01
-5.769501e-01
-5.770211e-01
-5.770283e-01
-5.769794e-01
-5.768840e-01
-5.767531e-01
-5.765976e-01
-5.764287e-01
-5.762570e-01
-5.760921e-01
-5.759416e-01
-5.758097e-01
-5.756972e-01
-5.756019e-01
-5.755193e-01
-5.754430e-01
-5.753660e-01
-5.752814e-01
-5.751834e-01
-5.750669e-01
-5.749286e-01
-5.747657e-01
-5.745768e-01
-5.743617e-01
-5.741219e-01
-5.738604e-01
-5.735819e-01
-5.732924e-01
-5.729995e-01
-5.727115e-01
-5.724368e-01
-5.721834e-01
-5.719584e-01
-5.717673e-01
-5.716134e-01
-5.714984e-01
-5.714225e-01
-5.713849e-01
-5.713847e-01
-5.714209e-01
-5.714917e-01
-5.715946e-01
-5.717260e-01
-5.718808e-01
-5.720531e-01
-5.722368e-01
-5.724261e-01
-5.726165e-01
-5.728044e-01
-5.729871e-01
-5.731623e-01
-5.733285e-01
-5.734865e-01
-5.736401e-01
-5.737959e-01
-5.739630e-01
-5.741502e-01
-5.743650e-01
-5.746126e-01
-5.748958e-01
-5.752159e-01
-5.755724e-01
-5.759638e-01
-5.763873e-01
-5.768386e-01
-5.773125e-01
-5.778031e-01
-5.783035e-01
-5.788063e-01
-5.793024e-01
-5.797821e-01
-5.802356e-01
-5.806535e-01
-5.810276e-01
-5.813510e-01
-5.816185e-01
-5.818262e-01
-5.819715e-01
-5.820525e-01
-5.820680e-01
-5.820165e-01
-5.818962e-01
-5.817037e-01
-5.814345e-01
-5.810843e-01
-5.806499e-01
-5.801301e-01
-5.795262e-01
-5.788410e-01
-5.780784e-01
-5.772429e-01
-5.763386e-01
-5.753695e-01
-5.743397e-01
-5.732539e-01
-5.721179e-01
-5.709382e-01
-5.697215e-01
-5.684738e-01
-5.671995e-01
-5.659013e-01
-5.645796e-01
-5.632338e-01
-5.618623e-01
-5.604647e-01
-5.590421e-01
-5.575984e-01
-5.561397e-01
-5.546738e-01
-5.532099e-01
-5.517572e-01
-5.503252e-01
-5.489227e-01
-5.475582e-01
-5.462396e-01
-5.449738e-01
-5.437658e-01
-5.426183e-01
-5.415310e-01
-5.405006e-01
-5.395219e-01
-5.385882e-01
-5.376920e-01
-5.368247e-01
-5.359768e-01
-5.351379e-01
-5.342971e-01
-5.334445e-01
-5.325732e-01
-5.316798e-01
-5.307659e-01
-5.298370e-01
-5.289016e-01
-5.279690e-01
-5.270479e-01
-5.261442e-01
-5.252608e-01
-5.243973e-01
-5.235515e-01
-5.227201e-01
-5.218991e-01
-5.210852e-01
-5.202761e-01
-5.194710e-01
-5.186700e-01
-5.178738e-01
-5.170827e-01
-5.162970e-01
-5.155170e-01
-5.147431e-01
-5.139758e-01
-5.132150e-01
-5.124606e-01
-5.117120e-01
-5.109691e-01
-5.102320e-01
-5.095020e-01
-5.087810e-01
-5.080712e-01
-5.073746e-01
-5.066916e-01
-5.060208e-01
-5.053591e-01
-5.047017e-01
-5.040429e-01
-5.033768e-01
-5.026980e-01
-5.020017e-01
-5.012840e-01
-5.005411e-01
-4.997689e-01
-4.989631e-01
-4.981189e-01
-4.972323e-01
-4.962993e-01
-4.953163e-01
-4.942797e-01
-4.931866e-01
-4.920359e-01
-4.908290e-01
-4.895695e-01
-4.882631e-01
-4.869163e-01
-4.855368e-01
-4.841333e-01
-4.827153e-01
-4.812920e-01
-4.798715e-01
-4.784608e-01
-4.770666e-01
-4.756963e-01
-4.743589e-01
-4.730648e-01
-4.718244e-01
-4.706479e-01
-4.695433e-01
-4.685166e-01
-4.675704e-01
-4.667044e-01
-4.659151e-01
-4.651974e-01
-4.645448e-01
-4.639512e-01
-4.634103e-01
-4.629162e-01
-4.624623e-01
-4.620411e-01
-4.616442e-01
-4.612625e-01
-4.608860e-01
-4.605043e-01
-4.601080e-01
-4.596891e-01
-4.592424e-01
-4.587656e-01
-4.582595e-01
-4.577266e-01
-4.571707e-01
-4.565963e-01
-4.560082e-01
-4.554108e-01
-4.548081e-01
-4.542033e-01
-4.535999e-01
-4.530030e-01
-4.524195e-01
-4.518582e-01
-4.513287e-01
-4.508395e-01
-4.503971e-01
-4.500056e-01
-4.496667e-01
-4.493806e-01
-4.491473e-01
-4.489666e-01
-4.488395e-01
-4.487667e-01
-4.487487e-01
-4.487845e-01
-4.488716e-01
-4.490069e-01
-4.491884e-01
-4.494155e-01
-4.496894e-01
-4.500132e-01
-4.503905e-01
-4.508240e-01
-4.513140e-01
-4.518582e-01
-4.524512e-01
-4.530857e-01
-4.537521e-01
-4.544390e-01
-4.551329e-01
-4.558189e-01
-4.564814e-01
-4.571052e-01
-4.576769e-01
-4.581855e-01
-4.586235e-01
-4.589876e-01
-4.592787e-01
-4.595015e-01
-4.596635e-01
-4.597734e-01
-4.598393e-01
-4.598678e-01
-4.598632e-01
-4.598283e-01
-4.597643e-01
-4.596713e-01
-4.595477e-01
-4.593891e-01
-4.591885e-01
-4.589365e-01
-4.586220e-01
-4.582329e-01
-4.577563e-01
-4.571794e-01
-4.564897e-01
-4.556750e-01
-4.547238e-01
-4.536258e-01
-4.523720e-01
-4.509556e-01
-4.493715e-01
-4.476162e-01
-4.456883e-01
-4.435889e-01
-4.413225e-01
-4.388976e-01
-4.363264e-01
-4.336237e-01
-4.308056e-01
-4.278884e-01
-4.248882e-01
-4.218213e-01
-4.187044e-01
-4.155548e-01
-4.123902e-01
-4.092284e-01
-4.060874e-01
-4.029851e-01
-3.999388e-01
-3.969641e-01
-3.940742e-01
-3.912792e-01
-3.885860e-01
-3.859993e-01
-3.835212e-01
-3.811515e-01
-3.788874e-01
-3.767236e-01
-3.746524e-01
-3.726646e-01
-3.707495e-01
-3.688955e-01
-3.670908e-01
-3.653232e-01
-3.635812e-01
-3.618536e-01
-3.601298e-01
-3.584002e-01
-3.566554e-01
-3.548872e-01
-3.530886e-01
-3.512544e-01
-3.493825e-01
-3.474736e-01
-3.455316e-01
-3.435625e-01
-3.415745e-01
-3.395777e-01
-3.375836e-01
-3.356051e-01
-3.336555e-01
-3.317481e-01
-3.298957e-01
-3.281100e-01
-3.264017e-01
-3.247795e-01
-3.232496e-01
-3.218151e-01
-3.204751e-01
-3.192251e-01
-3.180567e-01
-3.169585e-01
-3.159173e-01
-3.149202e-01
-3.139558e-01
-3.130155e-01
-3.120944e-01
-3.111909e-01
-3.103060e-01
-3.094427e-01
-3.086043e-01
-3.077937e-01
-3.070128e-01
-3.062618e-01
-3.055391e-01
-3.048414e-01
-3.041627e-01
-3.034956e-01
-3.028312e-01
-3.021607e-01
-3.014767e-01
-3.007738e-01
-3.000491e-01
-2.993028e-01
-2.985378e-01
-2.977601e-01
-2.969777e-01
-2.961995e-01
-2.954349e-01
-2.946929e-01
-2.939815e-01
-2.933078e-01
-2.926780e-01
-2.920962e-01
-2.915646e-01
-2.910830e-01
-2.906496e-01
-2.902608e-01
-2.899124e-01
-2.895996e-01
-2.893175e-01
-2.890616e-01
-2.888279e-01
-2.886128e-01
-2.884129e-01
-2.882251e-01
-2.880457e-01
-2.878714e-01
-2.876987e-01
-2.875242e-01
-2.873445e-01
-2.871566e-01
-2.869590e-01
-2.867524e-01
-2.865401e-01
-2.863269e-01
-2.861186e-01
-2.859207e-01
-2.857382e-01
-2.855750e-01
-2.854336e-01
-2.853153e-01
-2.852196e-01
-2.851450e-01
-2.850895e-01
-2.850515e-01
-2.850312e-01
-2.850304e-01
-2.850532e-01
-2.851056e-01
-2.851948e-01
-2.853282e-01
-2.855125e-01
-2.857526e-01
-2.860510e-01
-2.864079e-01
-2.868201e-01
-2.872811e-01
-2.877809e-01
-2.883067e-01
-2.888431e-01
-2.893735e-01
-2.898809e-01
-2.903495e-01
-2.907655e-01
-2.911181e-01
-2.914003e-01
-2.916080e-01
-2.917399e-01
-2.917962e-01
-2.917776e-01
-2.916853e-01
-2.915213e-01
-2.912886e-01
-2.909928e-01
-2.906418e-01
-2.902464e-01
-2.898194e-01
-2.893749e-01
-2.889270e-01
-2.884879e-01
-2.880679e-01
-2.876739e-01
-2.873093e-01
-2.869743e-01
-2.866658e-01
-2.863780e-01
-2.861022e-01
-2.858274e-01
-2.855414e-01
-2.852320e-01
