EVENT_NAME: L_AQUILA
EVENT_ID: IT-2009-0009
EVENT_DATE_YYYYMMDD: 20090406
EVENT_TIME_HHMMSS: 013240
EVENT_LATITUDE_DEGREE: 42.3420
EVENT_LONGITUDE_DEGREE: 13.3800
EVENT_DEPTH_KM: 8.3
HYPOCENTER_REFERENCE: INGV-CNT_Seismic_Bulletin
MAGNITUDE_W: 6.1
MAGNITUDE_W_REFERENCE: INGV-CNT_Seismic_Bulletin
MAGNITUDE_L: 
MAGNITUDE_L_REFERENCE: 
FOCAL_MECHANISM: Normal faulting
NETWORK: IT
STATION_CODE: MMP
STATION_NAME: 
STATION_LATITUDE_DEGREE: 42.248547
STATION_LONGITUDE_DEGREE: 12.748537
STATION_ELEVATION_M: 475
LOCATION: 
SENSOR_DEPTH_M: 0.0
VS30_M/S: 
SITE_CLASSIFICATION_EC8: B (inferred from geology)
MORPHOLOGIC_CLASSIFICATION: 
EPICENTRAL_DISTANCE_KM: 53.1
EARTHQUAKE_BACKAZIMUTH_DEGREE: 258.9
DATE_TIME_FIRST_SAMPLE_YYYYMMDD_HHMMSS: 
DATE_TIME_FIRST_SAMPLE_PRECISION: 
SAMPLING_INTERVAL_S: 
NDATA: 105
DURATION_S: 
STREAM: HNE
UNITS: cm/s^2
INSTRUMENT: sensor = Unknown [Unknown] | digitizer = Etna [Kinemetrics]
INSTRUMENT_ANALOG/DIGITAL: D
INSTRUMENTAL_FREQUENCY_HZ: 218.000
INSTRUMENTAL_DAMPING: 0.700000
FULL_SCALE_G: 1.0
N_BIT_DIGITAL_CONVERTER: 18
PGA_CM/S^2: 8.844919
TIME_PGA_S: 
BASELINE_CORRECTION: BASELINE REMOVED
FILTER_TYPE: BUTTERWORTH
FILTER_ORDER: 2
LOW_CUT_FREQUENCY_HZ: 0.030
HIGH_CUT_FREQUENCY_HZ: 40.000
LATE/NORMAL_TRIGGERED: NT
DATABASE_VERSION: 0.5
HEADER_FORMAT: DYNA 1.2
DATA_TYPE: ACCELERATION RESPONSE SPECTRUM
PROCESSING: manual (Paolucci et al., 2011)
DATA_TIMESTAMP_YYYYMMDD_HHMMSS: 20211011_160302.318
DATA_LICENSE: CC-BY3_0-IT (http://creativecommons.org/licenses/by/3.0/deed.en)
DATA_CITATION: Luzi L, Pacor F, Puglia R (2019). Italian Accelerometric Archive v 3.0 - Istituto Nazionale di Geofisica e Vulcanologia, Dipartimento della Protezione Civile Nazionale. doi: 10.13127/itaca.3.1
DATA_CREATOR: ITACA working group
ORIGINAL_DATA_MEDIATOR_CITATION: data obtained within the DPC-INGV data exchange agreements
ORIGINAL_DATA_MEDIATOR: Archive of Italian Department of Civil Protection
ORIGINAL_DATA_CREATOR_CITATION: Presidency Of Counsil Of Ministers-Civil Protection Department. (1972). Italian Strong Motion Network. Presidency of Counsil of Ministers - Civil Protection Department. https://doi.org/10.7914/SN/IT http://www.fdsn.org/networks/detail/IT/
ORIGINAL_DATA_CREATOR: network: IT (Italian Strong Motion Network (RAN)); owner: Presidency of Counsil of Ministers - Civil Protection Department (PCM - DPC)
USER1: 
USER2: 
USER3: 
USER4: 
USER5: 
    0.010000     8.844910
    0.020000     8.852994
    0.022000     8.855005
    0.025000     8.859383
    0.029000     8.863070
    0.030000     8.860812
    0.032000     8.842600
    0.035001     8.867176
    0.036000     8.884272
    0.040000     8.929616
    0.041999     8.923315
    0.044001     8.923794
    0.045000     8.902763
    0.046000     8.877708
    0.048001     8.907558
    0.050000     9.009295
    0.054999     9.021571
    0.059999     8.926399
    0.064998     9.008291
    0.067002     9.087066
    0.069999     9.092814
    0.075002     8.992391
    0.080000     9.223512
    0.084998     9.334296
    0.090001     9.464557
    0.095003     9.458787
    0.100000    10.154484
    0.109999    10.436234
    0.120005    11.957759
    0.130005    12.551636
    0.132996    11.818036
    0.139997    12.510587
    0.149993    13.564097
    0.160000    12.905083
    0.170010    14.240048
    0.179986    16.974857
    0.190006    18.283316
    0.200000    20.466125
    0.220022    26.515301
    0.239981    22.408525
    0.250000    20.333261
    0.260010    20.445961
    0.280034    19.421484
    0.290023    20.366060
    0.300030    21.937416
    0.320000    21.071247
    0.340020    25.652651
    0.350017    24.324722
    0.359971    25.438091
    0.379939    23.864428
    0.400000    24.115473
    0.419992    26.243526
    0.439947    21.892092
    0.450045    23.014408
    0.459982    26.205315
    0.480077    29.146414
    0.500000    29.226425
    0.550055    26.099953
    0.599880    19.604067
    0.650195    13.363367
    0.667111    10.813444
    0.699790    11.395457
    0.750188    14.455036
    0.800000    13.868612
    0.850340    14.768044
    0.900090    13.007584
    0.949668     9.680615
    1.000000     8.141393
    1.100110     9.331704
    1.200480    11.688893
    1.300390     9.822814
    1.400560     7.838581
    1.499250     7.738152
    1.600000     8.015511
    1.700680     6.486320
    1.798561     7.339462
    1.901141     5.638171
    2.000000     4.524211
    2.197802     3.236582
    2.398082     2.440992
    2.500000     2.385766
    2.597403     2.756979
    2.801121     3.412800
    3.003003     3.180499
    3.205128     2.248107
    3.401361     1.716622
    3.496503     1.811812
    3.597122     1.964643
    3.802281     2.227865
    4.000000     2.243014
    4.201681     2.029723
    4.405286     1.706782
    4.608295     1.536664
    4.807692     1.412398
    5.000000     1.248330
    5.494505     0.882714
    5.988024     0.750582
    6.493506     0.735924
    6.993007     0.685446
    7.518797     0.568314
    8.000000     0.426266
    8.474576     0.369857
    9.009009     0.297712
    9.523809     0.263040
   10.000000     0.259312
