EVENT_NAME: L_AQUILA
EVENT_ID: IT-2009-0009
EVENT_DATE_YYYYMMDD: 20090406
EVENT_TIME_HHMMSS: 013240
EVENT_LATITUDE_DEGREE: 42.3420
EVENT_LONGITUDE_DEGREE: 13.3800
EVENT_DEPTH_KM: 8.3
HYPOCENTER_REFERENCE: INGV-CNT_Seismic_Bulletin
MAGNITUDE_W: 6.1
MAGNITUDE_W_REFERENCE: INGV-CNT_Seismic_Bulletin
MAGNITUDE_L: 
MAGNITUDE_L_REFERENCE: 
FOCAL_MECHANISM: Normal faulting
NETWORK: IT
STATION_CODE: MMP
STATION_NAME: 
STATION_LATITUDE_DEGREE: 42.248547
STATION_LONGITUDE_DEGREE: 12.748537
STATION_ELEVATION_M: 475
LOCATION: 
SENSOR_DEPTH_M: 0.0
VS30_M/S: 
SITE_CLASSIFICATION_EC8: B (inferred from geology)
MORPHOLOGIC_CLASSIFICATION: 
EPICENTRAL_DISTANCE_KM: 53.1
EARTHQUAKE_BACKAZIMUTH_DEGREE: 258.9
DATE_TIME_FIRST_SAMPLE_YYYYMMDD_HHMMSS: 20090406_013237.000
DATE_TIME_FIRST_SAMPLE_PRECISION: seconds
SAMPLING_INTERVAL_S: 0.005000
NDATA: 20380
DURATION_S: 101.900
STREAM: HNZ
UNITS: cm
INSTRUMENT: sensor = Unknown [Unknown] | digitizer = Etna [Kinemetrics]
INSTRUMENT_ANALOG/DIGITAL: D
INSTRUMENTAL_FREQUENCY_HZ: 206.000
INSTRUMENTAL_DAMPING: 0.700000
FULL_SCALE_G: 1.0
N_BIT_DIGITAL_CONVERTER: 18
PGD_CM: -0.239056
TIME_PGD_S: 24.490000
BASELINE_CORRECTION: BASELINE REMOVED
FILTER_TYPE: BUTTERWORTH
FILTER_ORDER: 2
LOW_CUT_FREQUENCY_HZ: 0.030
HIGH_CUT_FREQUENCY_HZ: 40.000
LATE/NORMAL_TRIGGERED: NT
DATABASE_VERSION: 0.5
HEADER_FORMAT: DYNA 1.2
DATA_TYPE: DISPLACEMENT
PROCESSING: manual (Paolucci et al., 2011)
DATA_TIMESTAMP_YYYYMMDD_HHMMSS: 20211011_160302.035
DATA_LICENSE: CC-BY3_0-IT (http://creativecommons.org/licenses/by/3.0/deed.en)
DATA_CITATION: Luzi L, Pacor F, Puglia R (2019). Italian Accelerometric Archive v 3.0 - Istituto Nazionale di Geofisica e Vulcanologia, Dipartimento della Protezione Civile Nazionale. doi: 10.13127/itaca.3.1
DATA_CREATOR: ITACA working group
ORIGINAL_DATA_MEDIATOR_CITATION: data obtained within the DPC-INGV data exchange agreements
ORIGINAL_DATA_MEDIATOR: Archive of Italian Department of Civil Protection
ORIGINAL_DATA_CREATOR_CITATION: Presidency Of Counsil Of Ministers-Civil Protection Department. (1972). Italian Strong Motion Network. Presidency of Counsil of Ministers - Civil Protection Department. https://doi.org/10.7914/SN/IT http://www.fdsn.org/networks/detail/IT/
ORIGINAL_DATA_CREATOR: network: IT (Italian Strong Motion Network (RAN)); owner: Presidency of Counsil of Ministers - Civil Protection Department (PCM - DPC)
USER1: 
USER2: 
USER3: 
USER4: 
USER5: 
[...]
-1.043535e-01
-1.046024e-01
-1.048711e-01
-1.051629e-01
-1.054798e-01
-1.058218e-01
-1.061876e-01
-1.065746e-01
-1.069787e-01
-1.073941e-01
-1.078142e-01
-1.082324e-01
-1.086436e-01
-1.090446e-01
-1.094346e-01
-1.098149e-01
-1.101885e-01
-1.105593e-01
-1.109310e-01
-1.113067e-01
-1.116882e-01
-1.120758e-01
-1.124674e-01
-1.128592e-01
-1.132457e-01
-1.136214e-01
-1.139819e-01
-1.143248e-01
-1.146493e-01
-1.149571e-01
-1.152526e-01
-1.155437e-01
-1.158412e-01
-1.161579e-01
-1.165067e-01
-1.168982e-01
-1.173386e-01
-1.178288e-01
-1.183651e-01
-1.189402e-01
-1.195454e-01
-1.201708e-01
-1.208065e-01
-1.214430e-01
-1.220723e-01
-1.226884e-01
-1.232880e-01
-1.238708e-01
-1.244377e-01
-1.249898e-01
-1.255273e-01
-1.260494e-01
-1.265546e-01
-1.270418e-01
-1.275097e-01
-1.279571e-01
-1.283820e-01
-1.287815e-01
-1.291525e-01
-1.294923e-01
-1.297991e-01
-1.300722e-01
-1.303116e-01
-1.305179e-01
-1.306936e-01
-1.308429e-01
-1.309720e-01
-1.310885e-01
-1.311999e-01
-1.313125e-01
-1.314317e-01
-1.315618e-01
-1.317063e-01
-1.318677e-01
-1.320467e-01
-1.322426e-01
-1.324531e-01
-1.326747e-01
-1.329033e-01
-1.331350e-01
-1.333671e-01
-1.335991e-01
-1.338313e-01
-1.340640e-01
-1.342966e-01
-1.345273e-01
-1.347531e-01
-1.349695e-01
-1.351711e-01
-1.353519e-01
-1.355074e-01
-1.356343e-01
-1.357302e-01
-1.357934e-01
-1.358221e-01
-1.358155e-01
-1.357734e-01
-1.356962e-01
-1.355856e-01
-1.354442e-01
-1.352757e-01
-1.350846e-01
-1.348758e-01
-1.346551e-01
-1.344298e-01
-1.342082e-01
-1.339992e-01
-1.338114e-01
-1.336526e-01
-1.335293e-01
-1.334463e-01
-1.334063e-01
-1.334088e-01
-1.334508e-01
-1.335279e-01
-1.336357e-01
-1.337710e-01
-1.339314e-01
-1.341145e-01
-1.343175e-01
-1.345364e-01
-1.347656e-01
-1.349997e-01
-1.352336e-01
-1.354645e-01
-1.356909e-01
-1.359122e-01
-1.361282e-01
-1.363381e-01
-1.365397e-01
-1.367306e-01
-1.369078e-01
-1.370697e-01
-1.372151e-01
-1.373427e-01
-1.374485e-01
-1.375253e-01
-1.375631e-01
-1.375511e-01
-1.374808e-01
-1.373476e-01
-1.371503e-01
-1.368906e-01
-1.365716e-01
-1.361963e-01
-1.357669e-01
-1.352845e-01
-1.347502e-01
-1.341655e-01
-1.335328e-01
-1.328553e-01
-1.321353e-01
-1.313740e-01
-1.305717e-01
-1.297287e-01
-1.288459e-01
-1.279254e-01
-1.269703e-01
-1.259855e-01
-1.249769e-01
-1.239512e-01
-1.229150e-01
-1.218741e-01
-1.208332e-01
-1.197959e-01
-1.187649e-01
-1.177421e-01
-1.167293e-01
-1.157278e-01
-1.147390e-01
-1.137640e-01
-1.128028e-01
-1.118539e-01
-1.109153e-01
-1.099842e-01
-1.090578e-01
-1.081322e-01
-1.072034e-01
-1.062687e-01
-1.053277e-01
-1.043826e-01
-1.034362e-01
-1.024907e-01
-1.015469e-01
-1.006046e-01
-9.966338e-02
-9.872468e-02
-9.779176e-02
-9.686953e-02
-9.596336e-02
-9.507821e-02
-9.421817e-02
-9.338665e-02
-9.258689e-02
-9.182236e-02
-9.109681e-02
-9.041348e-02
-8.977381e-02
-8.917633e-02
-8.861636e-02
-8.808676e-02
-8.757946e-02
-8.708738e-02
-8.660607e-02
-8.613416e-02
-8.567254e-02
-8.522290e-02
-8.478643e-02
-8.436336e-02
-8.395311e-02
-8.355458e-02
-8.316623e-02
-8.278592e-02
-8.241081e-02
-8.203763e-02
-8.166318e-02
-8.128462e-02
-8.089941e-02
-8.050555e-02
-8.010193e-02
-7.968874e-02
-7.926752e-02
-7.884124e-02
-7.841426e-02
-7.799202e-02
-7.758000e-02
-7.718223e-02
-7.680019e-02
-7.643274e-02
-7.607693e-02
-7.572840e-02
-7.538121e-02
-7.502789e-02
-7.466067e-02
-7.427316e-02
-7.386155e-02
-7.342470e-02
-7.296386e-02
-7.248233e-02
-7.198502e-02
-7.147787e-02
-7.096725e-02
-7.045923e-02
-6.995846e-02
-6.946715e-02
-6.898452e-02
-6.850733e-02
-6.803096e-02
-6.755084e-02
-6.706414e-02
-6.657092e-02
-6.607412e-02
-6.557874e-02
-6.509077e-02
-6.461653e-02
-6.416188e-02
-6.373139e-02
-6.332715e-02
-6.294765e-02
-6.258712e-02
-6.223622e-02
-6.188425e-02
-6.152181e-02
-6.114269e-02
-6.074457e-02
-6.032879e-02
-5.989956e-02
-5.946230e-02
-5.902180e-02
-5.858117e-02
-5.814230e-02
-5.770695e-02
-5.727732e-02
-5.685577e-02
-5.644409e-02
-5.604292e-02
-5.565220e-02
-5.527207e-02
-5.490391e-02
-5.455039e-02
-5.421448e-02
-5.389792e-02
-5.360025e-02
-5.331914e-02
-5.305207e-02
-5.279837e-02
-5.256067e-02
-5.234442e-02
-5.215580e-02
-5.199863e-02
-5.187225e-02
-5.177134e-02
-5.168810e-02
-5.161569e-02
-5.155150e-02
-5.149833e-02
-5.146309e-02
-5.145383e-02
-5.147698e-02
-5.153609e-02
-5.163165e-02
-5.176166e-02
-5.192211e-02
-5.210740e-02
-5.231061e-02
-5.252390e-02
-5.273919e-02
-5.294891e-02
-5.314682e-02
-5.332824e-02
-5.348953e-02
-5.362729e-02
-5.373847e-02
-5.382136e-02
-5.387660e-02
-5.390713e-02
-5.391701e-02
-5.391015e-02
-5.389001e-02
-5.386041e-02
-5.382670e-02
-5.379624e-02
-5.377750e-02
-5.377804e-02
-5.380253e-02
-5.385214e-02
-5.392532e-02
-5.401913e-02
-5.413026e-02
-5.425540e-02
-5.439097e-02
-5.453240e-02
-5.467354e-02
-5.480649e-02
-5.492202e-02
-5.501028e-02
-5.506169e-02
-5.506786e-02
-5.502245e-02
-5.492181e-02
-5.476562e-02
-5.455740e-02
-5.430438e-02
-5.401606e-02
-5.370198e-02
-5.336990e-02
-5.302552e-02
-5.267329e-02
-5.231722e-02
-5.196087e-02
-5.160702e-02
-5.125772e-02
-5.091455e-02
-5.057878e-02
-5.025125e-02
-4.993229e-02
-4.962189e-02
-4.931988e-02
-4.902622e-02
-4.874158e-02
-4.846788e-02
-4.820793e-02
-4.796467e-02
-4.774047e-02
-4.753703e-02
-4.735539e-02
-4.719566e-02
-4.705606e-02
-4.693265e-02
-4.682035e-02
-4.671526e-02
-4.661685e-02
-4.652873e-02
-4.645801e-02
-4.641372e-02
-4.640500e-02
-4.643942e-02
-4.652197e-02
-4.665494e-02
-4.683866e-02
-4.707237e-02
-4.735471e-02
-4.768377e-02
-4.805682e-02
-4.846988e-02
-4.891763e-02
-4.939334e-02
-4.988938e-02
-5.039831e-02
-5.091419e-02
-5.143319e-02
-5.195308e-02
-5.247178e-02
-5.298608e-02
-5.349116e-02
-5.398101e-02
-5.444947e-02
-5.489100e-02
-5.530104e-02
-5.567586e-02
-5.601201e-02
-5.630584e-02
-5.655376e-02
-5.675334e-02
-5.690469e-02
-5.701107e-02
-5.707849e-02
-5.711485e-02
-5.712955e-02
-5.713384e-02
-5.714113e-02
-5.716672e-02
-5.722684e-02
-5.733746e-02
-5.751294e-02
-5.776411e-02
-5.809636e-02
-5.850846e-02
-5.899247e-02
-5.953435e-02
-6.011538e-02
-6.071472e-02
-6.131281e-02
-6.189438e-02
-6.244979e-02
-6.297435e-02
-6.346656e-02
-6.392623e-02
-6.435365e-02
-6.474979e-02
-6.511732e-02
-6.546120e-02
-6.578851e-02
-6.610748e-02
-6.642662e-02
-6.675410e-02
-6.709714e-02
-6.746114e-02
-6.784901e-02
-6.826141e-02
-6.869784e-02
-6.915784e-02
-6.964149e-02
-7.014953e-02
-7.068324e-02
-7.124417e-02
-7.183314e-02
-7.244933e-02
-7.309007e-02
-7.375168e-02
-7.443037e-02
-7.512263e-02
-7.582530e-02
-7.653579e-02
-7.725264e-02
-7.797590e-02
-7.870680e-02
-7.944667e-02
-8.019536e-02
-8.095013e-02
-8.170536e-02
-8.245322e-02
-8.318511e-02
-8.389332e-02
-8.457244e-02
-8.522004e-02
-8.583697e-02
-8.642723e-02
-8.699730e-02
-8.755467e-02
-8.810622e-02
-8.865692e-02
-8.920957e-02
-8.976475e-02
-9.032098e-02
-9.087519e-02
-9.142384e-02
-9.196403e-02
-9.249429e-02
-9.301488e-02
-9.352768e-02
-9.403566e-02
-9.454162e-02
-9.504698e-02
-9.555122e-02
-9.605238e-02
-9.654780e-02
-9.703467e-02
-9.751007e-02
-9.797130e-02
-9.841669e-02
-9.884628e-02
-9.926206e-02
-9.966821e-02
-1.000715e-01
-1.004811e-01
-1.009083e-01
-1.013654e-01
-1.018646e-01
-1.024175e-01
-1.030344e-01
-1.037235e-01
-1.044902e-01
-1.053364e-01
-1.062602e-01
-1.072562e-01
-1.083168e-01
-1.094333e-01
-1.105965e-01
-1.117974e-01
-1.130282e-01
-1.142828e-01
-1.155569e-01
-1.168471e-01
-1.181509e-01
-1.194655e-01
-1.207877e-01
-1.221130e-01
-1.234357e-01
-1.247481e-01
-1.260393e-01
-1.272955e-01
-1.285009e-01
-1.296414e-01
-1.307065e-01
-1.316905e-01
-1.325911e-01
-1.334087e-01
-1.341458e-01
-1.348081e-01
-1.354046e-01
-1.359478e-01
-1.364523e-01
-1.369336e-01
-1.374069e-01
-1.378862e-01
-1.383833e-01
-1.389064e-01
-1.394596e-01
-1.400431e-01
-1.406536e-01
-1.412860e-01
-1.419339e-01
-1.425902e-01
-1.432471e-01
-1.438962e-01
-1.445289e-01
-1.451382e-01
-1.457200e-01
-1.462751e-01
-1.468080e-01
-1.473258e-01
-1.478367e-01
-1.483490e-01
-1.488712e-01
-1.494113e-01
-1.499772e-01
-1.505766e-01
-1.512174e-01
-1.519075e-01
-1.526537e-01
-1.534611e-01
-1.543320e-01
-1.552664e-01
-1.562615e-01
-1.573131e-01
-1.584150e-01
-1.595603e-01
-1.607423e-01
-1.619556e-01
-1.631963e-01
-1.644617e-01
-1.657499e-01
-1.670583e-01
-1.683824e-01
-1.697149e-01
-1.710457e-01
-1.723628e-01
-1.736540e-01
-1.749073e-01
-1.761112e-01
-1.772551e-01
-1.783288e-01
-1.793227e-01
-1.802284e-01
-1.810374e-01
-1.817420e-01
-1.823358e-01
-1.828151e-01
-1.831797e-01
-1.834332e-01
-1.835826e-01
-1.836377e-01
-1.836106e-01
-1.835139e-01
-1.833601e-01
-1.831608e-01
-1.829258e-01
-1.826628e-01
-1.823770e-01
-1.820711e-01
-1.817454e-01
-1.813992e-01
-1.810315e-01
-1.806418e-01
-1.802312e-01
-1.798032e-01
-1.793633e-01
-1.789184e-01
-1.784759e-01
-1.780438e-01
-1.776302e-01
-1.772438e-01
-1.768926e-01
-1.765842e-01
-1.763261e-01
-1.761250e-01
-1.759867e-01
-1.759152e-01
-1.759121e-01
-1.759770e-01
-1.761084e-01
-1.763042e-01
-1.765621e-01
-1.768793e-01
-1.772525e-01
-1.776770e-01
-1.781460e-01
-1.786507e-01
-1.791812e-01
-1.797282e-01
-1.802835e-01
-1.808405e-01
-1.813930e-01
-1.819358e-01
-1.824640e-01
-1.829733e-01
-1.834598e-01
-1.839207e-01
-1.843536e-01
-1.847569e-01
-1.851298e-01
-1.854722e-01
-1.857850e-01
-1.860700e-01
-1.863299e-01
-1.865689e-01
-1.867922e-01
-1.870053e-01
-1.872136e-01
-1.874219e-01
-1.876342e-01
-1.878539e-01
-1.880843e-01
-1.883300e-01
-1.885969e-01
-1.888919e-01
-1.892216e-01
-1.895902e-01
-1.899982e-01
-1.904423e-01
-1.909153e-01
-1.914080e-01
-1.919108e-01
-1.924149e-01
-1.929129e-01
-1.933986e-01
-1.938674e-01
-1.943151e-01
-1.947389e-01
-1.951373e-01
-1.955110e-01
-1.958628e-01
-1.961969e-01
-1.965179e-01
-1.968284e-01
-1.971285e-01
-1.974145e-01
-1.976804e-01
-1.979193e-01
-1.981255e-01
-1.982956e-01
-1.984273e-01
-1.985184e-01
-1.985659e-01
-1.985666e-01
-1.985185e-01
-1.984218e-01
-1.982800e-01
-1.980992e-01
-1.978871e-01
-1.976517e-01
-1.973992e-01
-1.971334e-01
-1.968561e-01
-1.965675e-01
-1.962675e-01
-1.959555e-01
-1.956312e-01
-1.952931e-01
-1.949392e-01
-1.945665e-01
-1.941720e-01
-1.937534e-01
-1.933106e-01
-1.928450e-01
-1.923599e-01
-1.918593e-01
-1.913473e-01
-1.908277e-01
-1.903041e-01
-1.897808e-01
-1.892633e-01
-1.887576e-01
-1.882701e-01
-1.878060e-01
-1.873678e-01
-1.869557e-01
-1.865679e-01
-1.862017e-01
-1.858538e-01
-1.855198e-01
-1.851942e-01
-1.848711e-01
-1.845452e-01
-1.842132e-01
-1.838747e-01
-1.835326e-01
-1.831932e-01
-1.828643e-01
-1.825537e-01
-1.822679e-01
-1.820119e-01
-1.817888e-01
-1.815999e-01
-1.814435e-01
-1.813159e-01
-1.812116e-01
-1.811241e-01
-1.810469e-01
-1.809735e-01
-1.808978e-01
-1.808149e-01
-1.807215e-01
-1.806176e-01
-1.805059e-01
-1.803915e-01
-1.802800e-01
-1.801752e-01
-1.800783e-01
-1.799867e-01
-1.798951e-01
-1.797975e-01
-1.796881e-01
-1.795620e-01
-1.794151e-01
-1.792432e-01
-1.790424e-01
-1.788097e-01
-1.785433e-01
-1.782427e-01
-1.779092e-01
-1.775456e-01
-1.771568e-01
-1.767497e-01
-1.763331e-01
-1.759173e-01
-1.755127e-01
-1.751295e-01
-1.747774e-01
-1.744661e-01
-1.742065e-01
-1.740104e-01
-1.738905e-01
-1.738598e-01
-1.739310e-01
-1.741153e-01
-1.744208e-01
-1.748515e-01
-1.754063e-01
-1.760801e-01
-1.768649e-01
-1.777504e-01
-1.787246e-01
-1.797743e-01
-1.808858e-01
-1.820455e-01
-1.832398e-01
-1.844551e-01
-1.856775e-01
-1.868932e-01
-1.880888e-01
-1.892518e-01
-1.903726e-01
-1.914450e-01
-1.924679e-01
-1.934446e-01
-1.943817e-01
-1.952882e-01
-1.961734e-01
-1.970461e-01
-1.979137e-01
-1.987823e-01
-1.996559e-01
-2.005377e-01
-2.014298e-01
-2.023343e-01
-2.032528e-01
-2.041873e-01
-2.051398e-01
-2.061124e-01
-2.071070e-01
-2.081248e-01
-2.091662e-01
-2.102311e-01
-2.113184e-01
-2.124257e-01
-2.135489e-01
-2.146816e-01
-2.158149e-01
-2.169389e-01
-2.180439e-01
-2.191208e-01
-2.201618e-01
-2.211597e-01
-2.221094e-01
-2.230087e-01
-2.238593e-01
-2.246663e-01
-2.254376e-01
-2.261823e-01
-2.269094e-01
-2.276263e-01
-2.283383e-01
-2.290484e-01
-2.297565e-01
-2.304602e-01
-2.311537e-01
-2.318279e-01
-2.324708e-01
-2.330692e-01
-2.336114e-01
-2.340896e-01
-2.345007e-01
-2.348459e-01
-2.351285e-01
-2.353518e-01
-2.355176e-01
-2.356270e-01
-2.356809e-01
-2.356827e-01
-2.356389e-01
-2.355596e-01
-2.354579e-01
-2.353480e-01
-2.352450e-01
-2.351640e-01
-2.351186e-01
-2.351202e-01
-2.351753e-01
-2.352854e-01
-2.354470e-01
-2.356528e-01
-2.358939e-01
-2.361607e-01
-2.364447e-01
-2.367381e-01
-2.370343e-01
-2.373269e-01
-2.376101e-01
-2.378790e-01
-2.381299e-01
-2.383604e-01
-2.385680e-01
-2.387494e-01
-2.388985e-01
-2.390053e-01
-2.390559e-01
-2.390335e-01
-2.389206e-01
-2.387013e-01
-2.383632e-01
-2.378989e-01
-2.373069e-01
-2.365914e-01
-2.357615e-01
-2.348290e-01
-2.338069e-01
-2.327082e-01
-2.315456e-01
-2.303322e-01
-2.290813e-01
-2.278071e-01
-2.265232e-01
-2.252413e-01
-2.239708e-01
-2.227183e-01
-2.214880e-01
-2.202822e-01
-2.191015e-01
-2.179460e-01
-2.168150e-01
-2.157072e-01
-2.146207e-01
-2.135524e-01
-2.124989e-01
-2.114572e-01
-2.104258e-01
-2.094054e-01
-2.083997e-01
-2.074136e-01
-2.064525e-01
-2.055199e-01
-2.046165e-01
-2.037393e-01
-2.028830e-01
-2.020408e-01
-2.012073e-01
-2.003789e-01
-1.995540e-01
-1.987323e-01
-1.979129e-01
-1.970941e-01
-1.962721e-01
-1.954408e-01
-1.945928e-01
-1.937204e-01
-1.928168e-01
-1.918761e-01
-1.908933e-01
-1.898632e-01
-1.887810e-01
-1.876433e-01
-1.864484e-01
-1.851968e-01
-1.838904e-01
-1.825321e-01
-1.811253e-01
-1.796729e-01
-1.781768e-01
-1.766362e-01
-1.750483e-01
-1.734090e-01
-1.717143e-01
-1.699611e-01
-1.681481e-01
-1.662751e-01
-1.643439e-01
-1.623581e-01
-1.603232e-01
-1.582474e-01
-1.561414e-01
-1.540173e-01
-1.518880e-01
-1.497649e-01
-1.476567e-01
-1.455690e-01
-1.435043e-01
-1.414621e-01
-1.394405e-01
-1.374361e-01
-1.354457e-01
-1.334677e-01
-1.315029e-01
-1.295557e-01
-1.276328e-01
-1.257435e-01
-1.238981e-01
-1.221077e-01
-1.203831e-01
-1.187335e-01
-1.171653e-01
-1.156815e-01
-1.142805e-01
-1.129566e-01
-1.117001e-01
-1.104995e-01
-1.093426e-01
-1.082173e-01
-1.071110e-01
-1.060102e-01
-1.049016e-01
-1.037718e-01
-1.026084e-01
-1.014000e-01
-1.001355e-01
-9.880467e-02
-9.739870e-02
-9.591130e-02
-9.433977e-02
-9.268565e-02
-9.095439e-02
-8.915446e-02
-8.729656e-02
-8.539313e-02
-8.345800e-02
-8.150555e-02
-7.954934e-02
-7.760046e-02
-7.566627e-02
-7.374990e-02
-7.185070e-02
-6.996553e-02
-6.809023e-02
-6.622116e-02
-6.435607e-02
-6.249443e-02
-6.063740e-02
-5.878781e-02
-5.695015e-02
-5.513009e-02
-5.333364e-02
-5.156642e-02
-4.983305e-02
-4.813645e-02
-4.647732e-02
-4.485418e-02
-4.326436e-02
-4.170511e-02
-4.017460e-02
-3.867272e-02
-3.720177e-02
-3.576631e-02
-3.437205e-02
-3.302441e-02
-3.172774e-02
-3.048570e-02
-2.930213e-02
-2.818146e-02
-2.712813e-02
-2.614549e-02
-2.523477e-02
-2.439461e-02
-2.362150e-02
-2.291053e-02
-2.225608e-02
-2.165208e-02
-2.109200e-02
-2.056893e-02
-2.007572e-02
-1.960499e-02
-1.914907e-02
-1.870007e-02
-1.825015e-02
-1.779162e-02
-1.731709e-02
-1.681995e-02
-1.629510e-02
-1.573968e-02
-1.515339e-02
-1.453892e-02
-1.390240e-02
-1.325356e-02
-1.260502e-02
-1.197073e-02
-1.136387e-02
-1.079483e-02
-1.026967e-02
-9.789791e-03
-9.352902e-03
-8.955135e-03
-8.593079e-03
-8.265038e-03
-7.971297e-03
-7.713562e-03
-7.494062e-03
-7.315033e-03
-7.179017e-03
-7.089456e-03
-7.050781e-03
-7.067858e-03
-7.145131e-03
-7.285502e-03
-7.489046e-03
-7.752306e-03
-8.068921e-03
-8.431152e-03
-8.831095e-03
-9.261256e-03
-9.715102e-03
-1.018769e-02
-1.067557e-02
-1.117579e-02
-1.168480e-02
-1.219833e-02
-1.271204e-02
-1.322212e-02
-1.372550e-02
-1.421964e-02
-1.470223e-02
-1.517066e-02
-1.562189e-02
-1.605261e-02
-1.645952e-02
-1.683917e-02
-1.718754e-02
-1.749993e-02
-1.777159e-02
-1.799865e-02
-1.817855e-02
-1.830952e-02
-1.838994e-02
-1.841825e-02
-1.839359e-02
-1.831661e-02
-1.819007e-02
-1.801939e-02
-1.781275e-02
-1.758072e-02
-1.733532e-02
-1.708881e-02
-1.685213e-02
-1.663348e-02
-1.643774e-02
-1.626692e-02
-1.612101e-02
-1.599883e-02
-1.589857e-02
-1.581821e-02
-1.575554e-02
-1.570779e-02
-1.567121e-02
-1.564114e-02
-1.561252e-02
-1.558043e-02
-1.554081e-02
-1.549091e-02
-1.542931e-02
-1.535525e-02
-1.526744e-02
-1.516308e-02
-1.503766e-02
-1.488552e-02
-1.470065e-02
-1.447756e-02
-1.421233e-02
-1.390332e-02
-1.355128e-02
-1.315869e-02
-1.272939e-02
-1.226831e-02
-1.178122e-02
-1.127414e-02
-1.075270e-02
-1.022173e-02
-9.684960e-03
-9.145250e-03
-8.605145e-03
-8.067494e-03
-7.535315e-03
-7.010995e-03
-6.495534e-03
-5.988433e-03
-5.488320e-03
-4.994106e-03
-4.506206e-03
-4.027169e-03
-3.561344e-03
-3.113789e-03
-2.689021e-03
-2.290139e-03
-1.918492e-03
-1.573706e-03
-1.254062e-03
-9.573556e-04
-6.820051e-04
-4.277550e-04
-1.956054e-04
1.272686e-05
1.954088e-04
3.511507e-04
4.798257e-04
5.825696e-04
6.611750e-04
7.173692e-04
7.526810e-04
7.687694e-04
7.675713e-04
7.511319e-04
7.214273e-04
6.802256e-04
6.288343e-04
5.678658e-04
4.972812e-04
4.166730e-04
3.255447e-04
2.234571e-04
1.101571e-04
-1.410975e-05
-1.481907e-04
-2.897986e-04
-4.355345e-04
-5.811861e-04
-7.224691e-04
-8.561245e-04
-9.808594e-04
-1.097656e-03
-1.209524e-03
-1.321095e-03
-1.438207e-03
-1.567478e-03
-1.716059e-03
-1.891575e-03
-2.101806e-03
-2.353889e-03
-2.653376e-03
-3.003547e-03
-3.405111e-03
-3.856309e-03
-4.353438e-03
-4.891451e-03
-5.464116e-03
-6.063742e-03
-6.681112e-03
-7.306028e-03
-7.928093e-03
-8.537237e-03
-9.123886e-03
-9.678927e-03
-1.019365e-02
-1.065991e-02
-1.107077e-02
-1.142160e-02
-1.171096e-02
-1.194067e-02
-1.211524e-02
-1.224086e-02
-1.232464e-02
-1.237417e-02
-1.239744e-02
-1.240279e-02
-1.239853e-02
-1.239225e-02
-1.239006e-02
-1.239579e-02
-1.241026e-02
-1.243100e-02
-1.245262e-02
-1.246785e-02
-1.246873e-02
-1.244729e-02
-1.239563e-02
-1.230584e-02
-1.217018e-02
-1.198177e-02
-1.173533e-02
-1.142713e-02
-1.105464e-02
-1.061601e-02
-1.010985e-02
-9.535172e-03
-8.891310e-03
-8.178071e-03
-7.396179e-03
-6.547555e-03
-5.635095e-03
