EVENT_NAME: L_AQUILA
EVENT_ID: IT-2009-0009
EVENT_DATE_YYYYMMDD: 20090406
EVENT_TIME_HHMMSS: 013240
EVENT_LATITUDE_DEGREE: 42.3420
EVENT_LONGITUDE_DEGREE: 13.3800
EVENT_DEPTH_KM: 8.3
HYPOCENTER_REFERENCE: INGV-CNT_Seismic_Bulletin
MAGNITUDE_W: 6.1
MAGNITUDE_W_REFERENCE: INGV-CNT_Seismic_Bulletin
MAGNITUDE_L: 
MAGNITUDE_L_REFERENCE: 
FOCAL_MECHANISM: Normal faulting
NETWORK: IT
STATION_CODE: MMP
STATION_NAME: 
STATION_LATITUDE_DEGREE: 42.248547
STATION_LONGITUDE_DEGREE: 12.748537
STATION_ELEVATION_M: 475
LOCATION: 
SENSOR_DEPTH_M: 0.0
VS30_M/S: 
SITE_CLASSIFICATION_EC8: B (inferred from geology)
MORPHOLOGIC_CLASSIFICATION: 
EPICENTRAL_DISTANCE_KM: 53.1
EARTHQUAKE_BACKAZIMUTH_DEGREE: 258.9
DATE_TIME_FIRST_SAMPLE_YYYYMMDD_HHMMSS: 20090406_013237.000
DATE_TIME_FIRST_SAMPLE_PRECISION: seconds
SAMPLING_INTERVAL_S: 0.005000
NDATA: 20400
DURATION_S: 102.000
STREAM: HNN
UNITS: cm/s^2
INSTRUMENT: sensor = Unknown [Unknown] | digitizer = Etna [Kinemetrics]
INSTRUMENT_ANALOG/DIGITAL: D
INSTRUMENTAL_FREQUENCY_HZ: 206.000
INSTRUMENTAL_DAMPING: 0.700000
FULL_SCALE_G: 1.0
N_BIT_DIGITAL_CONVERTER: 18
PGA_CM/S^2: 6.893607
TIME_PGA_S: 28.455000
BASELINE_CORRECTION: BASELINE NOT REMOVED
FILTER_TYPE: 
FILTER_ORDER: 
LOW_CUT_FREQUENCY_HZ: 
HIGH_CUT_FREQUENCY_HZ: 
LATE/NORMAL_TRIGGERED: NT
DATABASE_VERSION: 0.5
HEADER_FORMAT: DYNA 1.2
DATA_TYPE: ACCELERATION
PROCESSING: converted to cm/s^2
DATA_TIMESTAMP_YYYYMMDD_HHMMSS: 20211011_160301.199
DATA_LICENSE: CC-BY3_0-IT (http://creativecommons.org/licenses/by/3.0/deed.en)
DATA_CITATION: Luzi L, Pacor F, Puglia R (2019). Italian Accelerometric Archive v 3.0 - Istituto Nazionale di Geofisica e Vulcanologia, Dipartimento della Protezione Civile Nazionale. doi: 10.13127/itaca.3.1
DATA_CREATOR: ITACA working group
ORIGINAL_DATA_MEDIATOR_CITATION: data obtained within the DPC-INGV data exchange agreements
ORIGINAL_DATA_MEDIATOR: Archive of Italian Department of Civil Protection
ORIGINAL_DATA_CREATOR_CITATION: Presidency Of Counsil Of Ministers-Civil Protection Department. (1972). Italian Strong Motion Network. Presidency of Counsil of Ministers - Civil Protection Department. https://doi.org/10.7914/SN/IT http://www.fdsn.org/networks/detail/IT/
ORIGINAL_DATA_CREATOR: network: IT (Italian Strong Motion Network (RAN)); owner: Presidency of Counsil of Ministers - Civil Protection Department (PCM - DPC)
USER1: 
USER2: 
USER3: 
USER4: 
USER5: 
[...]
-1.304642
-1.244372
-1.087620
-0.803786
-0.457112
-0.179118
-0.041289
0.011273
0.068741
0.241377
0.547638
0.915571
1.258041
1.465718
1.488612
1.322283
1.044990
0.768398
0.554646
0.441813
0.429665
0.482227
0.579408
0.712799
0.829136
0.881230
0.877726
0.887304
0.929120
0.981448
1.033777
1.020227
0.913468
0.752512
0.545769
0.249320
-0.165568
-0.672966
-1.178961
-1.658559
-2.134886
-2.568697
-2.905794
-3.072123
-3.088475
-2.966999
-2.737829
-2.455397
-2.092837
-1.689162
-1.284319
-0.950726
-0.749823
-0.603117
-0.425107
-0.191733
0.079253
0.327579
0.507224
0.627065
0.728451
0.860906
1.061810
1.310836
1.514309
1.595371
1.515710
1.298455
1.037047
0.767463
0.492740
0.181807
-0.116277
-0.279102
-0.368340
-0.436320
-0.505001
-0.603818
-0.664789
-0.607555
-0.396140
-0.101560
0.240910
0.631970
1.079097
1.585793
2.043665
2.396414
2.559472
2.488455
2.236859
1.853742
1.479268
1.186089
1.016957
1.045457
1.332328
1.799545
2.261155
2.586337
2.670203
2.612735
2.514853
2.379127
2.222609
1.990870
1.703298
1.364332
1.005977
0.740598
0.603704
0.617720
0.692241
0.705790
0.587585
0.298144
-0.097822
-0.499862
-0.797012
-0.958669
-0.995345
-0.946054
-0.910545
-0.942550
-1.044403
-1.138080
-1.164477
-1.119157
-1.040198
-0.993009
-0.936009
-0.818504
-0.614330
-0.328393
0.022253
0.382710
0.656499
0.814418
0.795730
0.551843
0.128311
-0.393804
-0.934841
-1.381967
-1.610202
-1.564882
-1.361643
-1.145555
-0.949091
-0.813131
-0.767811
-0.820840
-1.011464
-1.278478
-1.461394
-1.506013
-1.381032
-1.119157
-0.771315
-0.378386
-0.034047
0.245115
0.482928
0.718172
0.938698
1.146609
1.355455
1.553789
1.755159
1.895558
1.936673
1.891119
1.756093
1.607051
1.465485
1.325553
1.120445
0.788955
0.382944
-0.089412
-0.500329
-0.754028
-0.852377
-0.846770
-0.820840
-0.795376
-0.848172
-1.026882
-1.300671
-1.608800
-1.854089
-1.947299
-1.841241
-1.583804
-1.310015
-1.142985
-1.147424
-1.321696
-1.660895
-2.101480
-2.536225
-2.859539
-2.999470
-2.905560
-2.597898
-2.175534
-1.664633
-1.149059
-0.685113
-0.327693
-0.093150
0.091634
0.261000
0.532453
0.908563
1.295651
1.656109
1.913779
2.048571
2.044833
1.900931
1.611023
1.165532
0.654630
0.154241
-0.275598
-0.670863
-1.051878
-1.383602
-1.672575
-1.855491
-1.985377
-2.174599
-2.366626
-2.502352
-2.561689
-2.534357
-2.484832
-2.443016
-2.408208
-2.337425
-2.211510
-2.078587
-1.960381
-1.869974
-1.774896
-1.645711
-1.517226
-1.392946
-1.254183
-1.080379
-0.861721
-0.659416
-0.500796
-0.390066
-0.321152
-0.327693
-0.461317
-0.681843
-0.933439
-1.135510
-1.215638
-1.155600
-1.004923
-0.828315
-0.680675
-0.590035
-0.537473
-0.506403
-0.464353
-0.421603
-0.404083
-0.428845
-0.480239
-0.538407
-0.587231
-0.595174
-0.585363
-0.569010
-0.574850
-0.597744
-0.600313
-0.553358
-0.444964
-0.333533
-0.254807
-0.201077
-0.123052
0.039540
0.261935
0.532219
0.867681
1.209216
1.565002
1.899062
2.124494
2.215134
2.202052
2.181494
2.216535
2.373987
2.675108
3.066869
3.449987
3.731251
3.843617
3.754379
3.511893
3.189981
2.881385
2.694264
2.605727
2.565079
2.578395
2.620911
2.623247
2.497566
2.270265
1.943447
1.534866
1.119044
0.747139
0.435272
0.171762
-0.025637
-0.158093
-0.223503
-0.238688
-0.217196
-0.203880
-0.249901
-0.339373
-0.455476
-0.583961
-0.648904
-0.592838
-0.407820
-0.070723
0.364255
0.774238
1.052465
1.189593
1.270422
1.334898
1.390730
1.431378
1.356623
1.176978
1.019526
0.903657
0.822828
0.768164
0.724479
0.658835
0.535023
0.392522
0.263570
0.221988
0.327812
0.586183
0.948042
1.283737
1.539305
1.616162
1.523653
1.397738
1.279532
1.229307
1.222766
1.244491
1.294717
1.298688
1.257807
1.180483
1.075826
1.022330
1.045924
1.164597
1.318078
1.429042
1.524354
1.587662
1.599576
1.525522
1.375312
1.206179
1.089843
1.047326
1.036113
1.011117
0.905993
0.753914
0.597163
0.433637
0.276185
0.128311
-0.005313
-0.075863
-0.107166
-0.136367
-0.149917
-0.182855
-0.237053
-0.315545
-0.380021
-0.436087
-0.499628
-0.541911
-0.564104
-0.584194
-0.705204
-0.937410
-1.212367
-1.445742
-1.541288
-1.525169
-1.499472
-1.515123
-1.611604
-1.781437
-2.020652
-2.351208
-2.649993
-2.813752
-2.781281
-2.541365
-2.145399
-1.651551
-1.108178
-0.540276
0.034167
0.591089
1.083535
1.535334
1.928029
2.235925
2.408561
2.420242
2.327266
2.082444
1.679470
1.170671
0.574503
-0.063014
-0.643765
-1.077575
-1.383836
-1.663932
-1.966221
-2.298178
-2.681763
-3.119545
-3.555926
-3.881809
-3.955163
-3.714546
-3.228874
-2.600000
-1.965988
-1.451582
-1.096030
-0.879943
-0.783229
-0.770614
-0.809627
-0.865692
-0.908676
-0.946755
-0.907742
-0.762905
-0.563871
-0.364836
-0.236118
-0.171642
-0.173044
-0.233315
-0.352922
-0.589100
-0.929468
-1.298335
-1.580534
-1.738687
-1.783072
-1.692899
-1.486156
-1.209097
-0.991607
-0.970816
-1.181998
-1.600157
-2.072046
-2.436708
-2.669849
-2.742034
-2.597198
-2.197260
-1.666268
-1.159805
-0.754495
-0.500096
-0.307836
-0.067219
0.291369
0.715135
1.094281
1.411054
1.616162
1.698159
1.710773
1.636252
1.486743
1.300090
1.124417
0.999903
0.911366
0.843152
0.756483
0.633372
0.518670
0.429198
0.310058
0.190451
0.081356
-0.008817
-0.028440
-0.002510
0.018515
-0.046428
-0.205983
-0.449636
-0.816868
-1.290159
-1.756207
-2.140026
-2.436708
-2.640648
-2.736194
-2.698116
-2.516836
-2.157780
-1.650616
-1.067764
-0.461317
0.184143
0.838246
1.423902
2.000915
2.539849
3.027156
3.476852
3.826797
4.100353
4.251965
4.285370
4.269018
4.191927
4.071852
3.885667
3.588750
3.164985
2.625583
2.052075
1.542809
1.164364
0.891976
0.678692
0.540162
0.478022
0.490637
0.570531
0.679159
0.767930
0.782881
0.711397
0.570765
0.384579
0.226894
0.131815
0.128778
0.225025
0.300714
0.296742
0.178770
-0.031477
-0.239389
-0.413427
-0.546350
-0.665724
-0.810094
-0.965210
-1.138313
-1.357204
-1.560444
-1.701777
-1.728642
-1.616510
-1.424250
-1.194847
-0.996513
-0.839061
-0.676703
-0.480940
-0.265786
-0.075396
0.130647
0.398362
0.709995
1.038682
1.342373
1.570842
1.748852
1.933402
2.154863
2.430754
2.772757
3.203998
3.661403
4.111099
4.518511
4.825239
5.051138
5.190135
5.256714
5.215832
4.997175
4.559627
3.891040
3.050283
2.100432
1.104093
0.062200
-1.028284
-2.062234
-2.960458
-3.673898
-4.205123
-4.589175
-4.810636
-4.867870
-4.761578
-4.565114
-4.297865
-3.895826
-3.359461
-2.700218
-1.971828
-1.269134
-0.716417
-0.466222
-0.511075
-0.726696
-1.036227
-1.293896
-1.389910
-1.311183
-1.099534
-0.844201
-0.619002
-0.563637
-0.730200
-1.028284
-1.370053
-1.714158
-2.036070
-2.310560
-2.553279
-2.742968
-2.868650
-2.985688
-3.107164
-3.214157
-3.236116
-3.121881
-2.935462
-2.694612
-2.443950
-2.236740
-2.028829
-1.848015
-1.683321
-1.477279
-1.180830
-0.793040
-0.338672
0.211943
0.788488
1.280701
1.625506
1.828746
1.913545
1.884812
1.769643
1.524120
1.130490
0.653930
0.180406
-0.171175
-0.405718
-0.568776
-0.670162
-0.746319
-0.803085
-0.832520
-0.771081
-0.573682
-0.209253
0.302115
0.831705
1.213421
1.357791
1.335131
1.186323
1.014621
0.939165
0.934960
0.969067
0.994063
0.945940
0.798533
0.568195
0.270345
-0.103429
-0.573682
-1.086452
-1.589645
-2.033033
-2.296310
-2.341863
-2.197493
-1.909688
-1.579366
-1.320061
-1.180596
-1.174289
-1.288757
-1.448779
-1.540353
-1.501107
-1.330573
-1.042768
-0.691888
-0.271627
0.211943
0.719106
1.215290
1.625039
1.904668
2.053477
2.126129
2.119588
1.992038
1.774081
1.538604
1.331160
1.183286
1.137031
1.162495
1.227905
1.294951
1.360595
1.485341
1.650269
1.823840
1.985497
2.141314
2.307876
2.463927
2.627686
2.766917
2.859893
2.932778
2.933479
2.777896
2.388237
1.771512
1.034711
0.330148
-0.236819
-0.605453
-0.788602
-0.855414
-0.844901
-0.815233
-0.752626
-0.641662
-0.503366
-0.377918
-0.319516
-0.364836
-0.515981
-0.757532
-1.099534
-1.472840
-1.807368
-2.048218
-2.204735
-2.268744
-2.218518
-2.080222
-1.851987
-1.637768
-1.471439
-1.386873
-1.425885
-1.541755
-1.725137
-1.915762
-2.111759
-2.305187
-2.459602
-2.677325
-2.973540
-3.275596
-3.525089
-3.657545
-3.697492
-3.653807
-3.561766
-3.457577
-3.297788
-3.084738
-2.793895
-2.390687
-1.839605
-1.091125
-0.206683
0.754615
1.707736
2.530505
3.190215
3.634771
3.860671
3.863708
3.651124
3.328978
2.961979
2.557603
2.094358
1.586027
1.044756
0.499514
0.025523
-0.337971
-0.561535
-0.618301
-0.537239
-0.362267
-0.071191
0.335521
0.808812
1.346111
1.891119
2.374688
2.710383
2.823683
2.710850
2.343385
1.822438
1.232811
0.614450
0.077151
-0.294987
-0.430247
-0.363435
-0.170241
0.102847
0.399296
0.656499
0.846423
1.019526
1.199171
1.394468
1.679937
2.062354
2.458320
2.798687
3.010570
3.101444
3.117563
3.074111
2.985574
2.830224
2.604325
2.309278
1.989468
1.693720
1.415960
1.149413
0.879128
0.606507
0.306087
-0.077965
-0.476735
-0.797012
-1.033657
-1.165879
-1.230355
-1.328003
-1.548062
-1.884925
-2.264773
-2.624763
-2.955786
-3.309936
-3.674599
-4.059819
-4.419576
-4.692196
-4.937719
-5.139556
-5.311258
-5.459600
-5.565191
-5.639478
-5.596961
-5.363587
-4.957575
-4.447608
-3.872699
-3.291014
-2.766563
-2.345835
-2.063869
-1.876749
-1.764384
-1.673977
-1.582403
-1.490361
-1.372155
-1.238531
-1.039964
-0.811262
-0.626945
-0.505702
-0.497292
-0.577186
-0.666425
-0.708007
-0.684880
-0.609424
-0.482575
-0.335402
-0.171409
0.022486
0.253759
0.545302
0.888005
1.244725
1.600744
1.935972
2.228216
2.507378
2.720662
2.865032
2.957307
2.951233
2.897504
2.796351
2.643571
2.438230
2.219806
2.128699
2.183129
2.347823
2.623948
2.970389
3.344163
3.754612
4.165997
4.479265
4.648631
4.694652
4.638586
4.476929
4.234444
3.950610
3.640611
3.291601
2.923901
2.531206
2.075202
1.546780
0.972805
0.451858
0.007769
-0.340074
-0.581158
-0.778790
-0.935308
-1.025481
-1.012165
-0.904004
-0.728331
-0.495891
-0.306434
-0.190097
-0.126556
-0.103662
-0.001809
0.230398
0.603470
1.073490
1.549584
2.008390
2.380762
2.636329
2.764580
2.740519
2.567415
2.246904
1.849770
1.432546
0.979813
0.544367
0.131114
-0.271860
-0.580924
-0.756130
-0.765942
-0.673900
-0.513645
-0.251536
0.037204
0.313095
0.549740
0.734992
0.884734
0.981215
1.037047
1.063678
0.995932
0.862308
0.691540
0.443215
0.148401
-0.193601
-0.531399
-0.845369
-1.135510
-1.347159
-1.494099
-1.559042
-1.550398
-1.523066
-1.489894
-1.451115
-1.379164
-1.280581
-1.143219
-0.931804
-0.697728
-0.449636
-0.215093
-0.029608
0.102847
0.196992
0.300013
0.364489
0.341362
0.198393
-0.077732
-0.444263
-0.818270
-1.111682
-1.302306
-1.420979
-1.469570
-1.447611
-1.389442
-1.283618
-1.115887
-0.893258
-0.650773
-0.397775
-0.091748
0.264738
0.659770
1.059006
1.424603
1.762167
2.036657
2.239429
2.396180
2.498267
2.577927
2.636797
2.676043
2.751031
2.881852
3.063599
3.255391
3.384810
3.419151
3.370327
3.261465
3.098173
2.914557
2.749863
2.592645
2.439164
2.249241
2.014230
1.759130
1.480202
1.241688
1.065080
0.956919
0.937296
0.968833
1.026067
1.061342
1.009248
0.852496
0.607208
0.289734
-0.073293
-0.452439
-0.818971
-1.177559
-1.518160
-1.824655
-2.099845
-2.311728
-2.431101
-2.409843
-2.265006
-2.057095
-1.795687
-1.491763
-1.152797
-0.779024
-0.366238
0.080421
0.479424
0.755549
0.901321
0.838947
0.601134
0.271980
-0.114642
-0.460849
-0.709876
-0.808225
-0.789069
-0.706138
-0.567375
-0.413193
-0.274664
-0.185892
-0.145478
-0.157859
-0.201778
-0.206917
-0.200142
-0.220466
-0.241958
-0.262049
-0.258311
-0.248967
-0.236352
-0.212991
-0.232848
-0.273028
-0.344045
-0.449870
-0.528129
-0.544948
-0.480706
-0.363668
-0.178183
0.068273
0.301181
0.514933
0.704856
0.867915
1.009481
1.158523
1.353820
1.547014
1.706101
1.853975
2.000681
2.138977
2.263023
2.324930
2.266995
2.097629
1.870094
1.617330
1.326488
0.970235
0.579408
0.212877
-0.124220
-0.395673
-0.638158
-0.943250
-1.312118
-1.721166
-2.146800
-2.551410
-2.877761
-3.111603
-3.222567
-3.204579
-3.074926
-2.849261
-2.598365
-2.344199
-2.105685
-1.868339
-1.604829
-1.309081
-0.966845
-0.604986
-0.205749
0.204000
0.587351
0.919776
1.125818
1.209917
1.176278
1.069519
0.929821
0.739197
0.556982
0.368460
0.206803
0.088597
-0.057408
-0.234716
-0.519485
-0.886951
-1.269835
-1.616743
-1.871376
-2.041677
-2.101714
-2.104751
-2.097275
-2.101714
-2.127411
-2.165956
-2.200063
-2.161284
-2.048685
-1.922770
-1.832597
-1.812273
-1.868573
-1.981873
-2.131616
-2.257998
-2.268744
-2.156846
-1.954074
-1.644543
-1.270769
-0.823643
-0.285877
0.318234
0.955051
1.546313
2.089219
2.533308
2.826253
2.967586
2.934414
2.738416
2.438697
2.086883
1.750253
1.492817
1.323451
1.228840
1.171605
1.166232
1.228606
1.388628
1.681572
2.063522
2.506677
2.993049
3.496242
4.020926
4.521315
4.995072
5.463457
5.880682
6.236701
6.512125
6.714429
6.841746
6.893607
6.875152
6.702048
6.345562
5.856386
5.265123
4.614524
3.953179
3.323138
2.684686
2.002784
1.309668
0.600433
-0.103429
-0.823643
-1.542456
-2.229498
-2.868183
-3.396371
-3.794673
-4.065893
-4.249508
-4.338981
-4.332673
-4.226614
-4.007023
-3.703800
-3.326756
-2.904158
-2.444885
-1.959680
-1.488492
-1.016136
-0.561535
-0.158327
0.238340
0.612114
0.929120
1.221130
1.433247
1.522018
1.486977
1.321348
1.084236
0.763492
0.355378
-0.100158
-0.616666
-1.158871
-1.685190
-2.191887
-2.666112
-3.087074
-3.442159
-3.693988
-3.804952
-3.783226
-3.604283
-3.263915
-2.808846
-2.277621
-1.751769
-1.298101
-0.958669
-0.757065
-0.691187
-0.741880
-0.861955
-0.998382
-1.113084
-1.181064
-1.189707
-1.132707
-0.994177
-0.769212
-0.461784
-0.104129
0.253759
0.547171
0.759053
0.875157
0.873288
0.757885
0.514933
0.191385
-0.170007
-0.544247
-0.900500
-1.218441
-1.503910
-1.746863
-1.918799
-2.017381
-2.000561
-1.906417
-1.791949
-1.614173
-1.413738
-1.223113
-1.044636
-0.885549
-0.730200
-0.612461
-0.484911
-0.332365
-0.190331
-0.063949
0.066405
0.211709
0.327812
0.400465
0.371030
0.240676
0.035802
-0.203647
-0.410156
-0.608723
-0.770848
-0.872000
-0.922926
-0.905172
-0.841631
-0.756831
-0.698429
-0.699130
-0.769913
-0.939746
-1.174055
-1.467467
-1.773261
-2.027193
-2.233703
-2.330884
-2.331351
-2.212444
-1.948934
-1.565817
-1.025013
-0.421370
0.234369
0.926550
1.559862
2.113514
2.536345
2.836532
2.985340
3.022717
3.030660
2.995152
2.940487
2.869704
2.755937
2.541017
2.204621
1.790901
1.272758
0.694344
0.143495
-0.355258
-0.760335
-1.043936
-1.174055
-1.176158
-1.060522
-0.820840
-0.483509
-0.045727
0.455362
0.944538
1.380451
1.731331
1.952558
2.061887
2.074502
2.043198
2.016800
2.038059
2.122158
2.239195
2.371885
2.471168
2.520460
2.502939
2.432389
2.336844
2.259753
2.186400
2.081743
1.974050
1.838791
1.673863
1.494218
1.302192
1.096150
0.881698
0.698315
0.593892
0.581277
0.657901
0.798299
0.971403
1.148712
1.302192
1.453571
1.592568
1.727360
1.868225
2.010259
2.140613
2.208593
2.206490
2.104170
1.917750
1.686712
1.440489
1.245426
1.093580
0.973506
0.903890
0.858570
0.798066
0.723778
0.666778
0.646220
0.658835
0.695512
0.734758
0.725881
0.645987
0.499047
0.264972
-0.058109
-0.445898
-0.856115
-1.231523
-1.558341
-1.801527
-1.966922
-2.079054
-2.144932
-2.190952
-2.205202
-2.178338
-2.078820
-1.950569
-1.778167
-1.506246
-1.167982
-0.748421
-0.260180
0.299079
0.885202
1.455907
2.001382
2.441734
2.727904
2.876245
2.921565
2.870405
2.745191
2.532607
2.229384
1.873131
1.514309
1.175577
0.824230
0.496945
0.176668
-0.109269
-0.290783
-0.396140
-0.419968
-0.383992
-0.317881
-0.245463
-0.195237
-0.131228
-0.057875
0.027158
0.178303
0.370095
0.559785
0.713032
0.828669
0.902489
0.888706
0.810681
0.703922
0.579408
0.447887
0.274783
0.043277
-0.217196
-0.524624
-0.818504
-1.032255
-1.172187
-1.227085
-1.210031
-1.118690
-0.997681
-0.954931
-1.008193
-1.150928
-1.429623
-1.792183
-2.155210
-2.466844
-2.707928
-2.838281
-2.867482
-2.849261
-2.803239
-2.738063
-2.600000
-2.421056
-2.184879
-1.893335
-1.614173
-1.317491
-1.015903
-0.740479
-0.500329
-0.317180
-0.164634
-0.067687
-0.021666
0.002863
-0.079601
-0.182155
-0.277467
-0.410156
-0.504300
-0.596576
-0.649138
-0.692121
-0.772016
-0.836959
-0.972685
-1.108178
-1.193912
-1.285019
-1.310950
-1.286187
-1.239933
-1.174289
-1.090424
-0.971984
-0.881578
-0.755429
-0.586531
-0.429079
-0.223270
-0.016760
0.214279
0.439944
0.653930
0.858570
1.016490
1.191929
1.360361
1.475063
1.568973
1.684609
1.747450
1.799778
1.876168
1.939943
2.038759
2.191539
2.367680
2.526767
2.655485
2.689826
2.605260
2.414402
2.111412
1.742311
1.303594
0.824931
0.411911
0.085093
-0.133330
-0.322086
-0.436087
-0.486780
-0.619937
-0.755663
-0.910545
-1.133875
-1.428922
-1.733080
-2.051488
-2.428999
-2.830338
-3.236349
-3.656377
-4.076872
-4.432190
-4.736348
-4.964817
-5.088630
-5.117130
-5.014576
-4.795918
-4.489191
-4.110512
-3.680906
-3.224903
-2.771469
-2.312896
-1.907586
-1.542689
-1.196949
-0.896061
-0.646802
-0.445431
-0.293352
-0.186126
-0.093383
-0.049231
-0.020030
0.011273
0.130647
0.264504
0.420555
0.684065
0.937764
1.226737
1.531829
1.849770
2.125195
2.302970
2.412533
2.406926
2.288253
2.075436
1.794405
1.505432
1.240286
1.057371
0.946641
0.915571
0.963460
1.023264
1.134462
1.244959
1.368537
1.497489
1.627375
1.753524
1.758196
1.658912
1.475063
1.204311
0.904124
0.568896
0.247685
-0.037084
-0.333766
-0.607555
-0.908443
-1.203724
-1.480316
-1.725371
-1.922069
-2.122972
-2.281826
-2.398163
-2.476421
-2.486934
-2.411011
-2.278555
-2.076718
-1.789380
-1.481718
-1.174990
-0.858451
-0.546584
-0.289381
-0.025403
0.268009
0.481059
0.649024
0.776807
0.809513
0.683130
0.456063
0.144430
-0.326525
-0.861254
-1.403692
-1.930246
-2.419421
-2.764694
-3.000171
-3.125386
-3.130292
-3.048762
-2.851830
-2.606541
-2.291404
-1.938188
-1.563247
-1.217507
-0.875037
-0.548452
-0.310639
-0.107400
0.046782
0.137188
0.216147
0.318702
0.432936
0.588986
0.800168
1.065314
1.333262
1.622937
1.949287
2.213265
2.445939
2.664129
2.782568
2.876946
2.923200
2.840737
2.654551
2.383565
2.105572
1.724790
1.300791
0.875857
0.406772
-0.027740
-0.465054
-0.917787
-1.409533
-1.893335
-2.343966
-2.735493
-2.984987
-3.095250
-3.066049
-2.920511
-2.697415
-2.432737
-2.175301
-1.907819
-1.696170
-1.625153
-1.613239
-1.679817
-1.846847
