EVENT_NAME: L_AQUILA
EVENT_ID: IT-2009-0009
EVENT_DATE_YYYYMMDD: 20090406
EVENT_TIME_HHMMSS: 013240
EVENT_LATITUDE_DEGREE: 42.3420
EVENT_LONGITUDE_DEGREE: 13.3800
EVENT_DEPTH_KM: 8.3
HYPOCENTER_REFERENCE: INGV-CNT_Seismic_Bulletin
MAGNITUDE_W: 6.1
MAGNITUDE_W_REFERENCE: INGV-CNT_Seismic_Bulletin
MAGNITUDE_L: 
MAGNITUDE_L_REFERENCE: 
FOCAL_MECHANISM: Normal faulting
NETWORK: IT
STATION_CODE: MMP
STATION_NAME: 
STATION_LATITUDE_DEGREE: 42.248547
STATION_LONGITUDE_DEGREE: 12.748537
STATION_ELEVATION_M: 475
LOCATION: 
SENSOR_DEPTH_M: 0.0
VS30_M/S: 
SITE_CLASSIFICATION_EC8: B (inferred from geology)
MORPHOLOGIC_CLASSIFICATION: 
EPICENTRAL_DISTANCE_KM: 53.1
EARTHQUAKE_BACKAZIMUTH_DEGREE: 258.9
DATE_TIME_FIRST_SAMPLE_YYYYMMDD_HHMMSS: 20090406_013237.000
DATE_TIME_FIRST_SAMPLE_PRECISION: seconds
SAMPLING_INTERVAL_S: 0.005000
NDATA: 20380
DURATION_S: 101.900
STREAM: HNZ
UNITS: cm/s
INSTRUMENT: sensor = Unknown [Unknown] | digitizer = Etna [Kinemetrics]
INSTRUMENT_ANALOG/DIGITAL: D
INSTRUMENTAL_FREQUENCY_HZ: 206.000
INSTRUMENTAL_DAMPING: 0.700000
FULL_SCALE_G: 1.0
N_BIT_DIGITAL_CONVERTER: 18
PGV_CM/S: -0.513015
TIME_PGV_S: 38.055000
BASELINE_CORRECTION: BASELINE REMOVED
FILTER_TYPE: BUTTERWORTH
FILTER_ORDER: 2
LOW_CUT_FREQUENCY_HZ: 0.030
HIGH_CUT_FREQUENCY_HZ: 40.000
LATE/NORMAL_TRIGGERED: NT
DATABASE_VERSION: 0.5
HEADER_FORMAT: DYNA 1.2
DATA_TYPE: VELOCITY
PROCESSING: manual (Paolucci et al., 2011)
DATA_TIMESTAMP_YYYYMMDD_HHMMSS: 20211011_160302.189
DATA_LICENSE: CC-BY3_0-IT (http://creativecommons.org/licenses/by/3.0/deed.en)
DATA_CITATION: Luzi L, Pacor F, Puglia R (2019). Italian Accelerometric Archive v 3.0 - Istituto Nazionale di Geofisica e Vulcanologia, Dipartimento della Protezione Civile Nazionale. doi: 10.13127/itaca.3.1
DATA_CREATOR: ITACA working group
ORIGINAL_DATA_MEDIATOR_CITATION: data obtained within the DPC-INGV data exchange agreements
ORIGINAL_DATA_MEDIATOR: Archive of Italian Department of Civil Protection
ORIGINAL_DATA_CREATOR_CITATION: Presidency Of Counsil Of Ministers-Civil Protection Department. (1972). Italian Strong Motion Network. Presidency of Counsil of Ministers - Civil Protection Department. https://doi.org/10.7914/SN/IT http://www.fdsn.org/networks/detail/IT/
ORIGINAL_DATA_CREATOR: network: IT (Italian Strong Motion Network (RAN)); owner: Presidency of Counsil of Ministers - Civil Protection Department (PCM - DPC)
USER1: 
USER2: 
USER3: 
USER4: 
USER5: 
[...]
-0.171900
-0.177178
-0.182386
-0.187495
-0.192475
-0.197297
-0.201902
-0.206196
-0.210052
-0.213331
-0.215917
-0.217749
-0.218822
-0.219142
-0.218700
-0.217505
-0.215647
-0.213327
-0.210844
-0.208533
-0.206690
-0.205528
-0.205182
-0.205728
-0.207184
-0.209520
-0.212664
-0.216477
-0.220708
-0.225010
-0.229016
-0.232418
-0.234994
-0.236600
-0.237145
-0.236554
-0.234754
-0.231686
-0.227328
-0.221709
-0.214906
-0.207017
-0.198129
-0.188327
-0.177706
-0.166387
-0.154501
-0.142166
-0.129478
-0.116538
-0.103471
-0.090398
-0.077394
-0.064477
-0.051627
-0.038812
-0.026016
-0.013243
-0.000504
0.012206
0.024926
0.037729
0.050706
0.063924
0.077374
0.090945
0.104441
0.117617
0.130196
0.141883
0.152354
0.161266
0.168309
0.173274
0.176081
0.176765
0.175420
0.172145
0.167037
0.160212
0.151853
0.142243
0.131761
0.120823
0.109788
0.098886
0.088215
0.077751
0.067398
0.057054
0.046672
0.036267
0.025924
0.015789
0.006037
-0.003172
-0.011716
-0.019521
-0.026549
-0.032772
-0.038148
-0.042625
-0.046162
-0.048746
-0.050410
-0.051240
-0.051374
-0.050955
-0.050085
-0.048821
-0.047192
-0.045245
-0.043086
-0.040892
-0.038883
-0.037285
-0.036279
-0.035965
-0.036372
-0.037467
-0.039140
-0.041180
-0.043315
-0.045278
-0.046848
-0.047854
-0.048150
-0.047599
-0.046070
-0.043461
-0.039718
-0.034836
-0.028854
-0.021857
-0.013986
-0.005429
0.003578
0.012752
0.021774
0.030339
0.038214
0.045272
0.051469
0.056811
0.061319
0.064987
0.067748
0.069502
0.070190
0.069844
0.068550
0.066377
0.063315
0.059278
0.054146
0.047848
0.040384
0.031817
0.022257
0.011840
0.000709
-0.010984
-0.023058
-0.035296
-0.047455
-0.059298
-0.070632
-0.081308
-0.091187
-0.100104
-0.107879
-0.114359
-0.119459
-0.123169
-0.125524
-0.126575
-0.126382
-0.125018
-0.122581
-0.119173
-0.114881
-0.109774
-0.103917
-0.097410
-0.090433
-0.083257
-0.076212
-0.069621
-0.063737
-0.058697
-0.054543
-0.051278
-0.048942
-0.047679
-0.047706
-0.049211
-0.052269
-0.056791
-0.062533
-0.069154
-0.076306
-0.083707
-0.091154
-0.098483
-0.105528
-0.112102
-0.118041
-0.123259
-0.127758
-0.131600
-0.134868
-0.137654
-0.140061
-0.142229
-0.144358
-0.146699
-0.149502
-0.152980
-0.157299
-0.162573
-0.168847
-0.176070
-0.184068
-0.192552
-0.201168
-0.209566
-0.217434
-0.224497
-0.230493
-0.235164
-0.238264
-0.239588
-0.239004
-0.236454
-0.231959
-0.225614
-0.217572
-0.208038
-0.197280
-0.185623
-0.173435
-0.161095
-0.148944
-0.137251
-0.126215
-0.115954
-0.106512
-0.097870
-0.089973
-0.082748
-0.076121
-0.070049
-0.064527
-0.059575
-0.055195
-0.051358
-0.048001
-0.045043
-0.042384
-0.039891
-0.037407
-0.034786
-0.031944
-0.028882
-0.025677
-0.022436
-0.019241
-0.016129
-0.013096
-0.010131
-0.007221
-0.004339
-0.001427
0.001589
0.004776
0.008161
0.011716
0.015356
0.018977
0.022478
0.025781
0.028821
0.031543
0.033901
0.035857
0.037354
0.038305
0.038583
0.038049
0.036597
0.034213
0.031016
0.027255
0.023249
0.019316
0.015706
0.012558
0.009891
0.007636
0.005694
0.003989
0.002470
0.001107
-0.000137
-0.001309
-0.002459
-0.003619
-0.004811
-0.006071
-0.007451
-0.009014
-0.010824
-0.012951
-0.015464
-0.018422
-0.021862
-0.025769
-0.030067
-0.034613
-0.039205
-0.043595
-0.047530
-0.050794
-0.053218
-0.054681
-0.055108
-0.054471
-0.052786
-0.050099
-0.046484
-0.042017
-0.036752
-0.030700
-0.023824
-0.016036
-0.007231
0.002665
0.013676
0.025782
0.038910
0.052920
0.067624
0.082816
0.098292
0.113859
0.129321
0.144463
0.159056
0.172893
0.185823
0.197751
0.208620
0.218403
0.227093
0.234706
0.241272
0.246806
0.251313
0.254797
0.257270
0.258735
0.259181
0.258591
0.256959
0.254295
0.250648
0.246120
0.240873
0.235120
0.229102
0.223066
0.217250
0.211880
0.207156
0.203252
0.200313
0.198462
0.197795
0.198363
0.200151
0.203062
0.206943
0.211611
0.216876
0.222575
0.228614
0.234961
0.241598
0.248477
0.255518
0.262605
0.269603
0.276367
0.282751
0.288609
0.293807
0.298216
0.301718
0.304213
0.305633
0.305966
0.305255
0.303601
0.301142
0.298037
0.294429
0.290428
0.286126
0.281643
0.277136
0.272785
0.268772
0.265255
0.262344
0.260079
0.258442
0.257376
0.256805
0.256669
0.256947
0.257638
0.258725
0.260175
0.261951
0.264003
0.266251
0.268594
0.270936
0.273211
0.275383
0.277432
0.279343
0.281113
0.282755
0.284283
0.285669
0.286817
0.287569
0.287759
0.287262
0.286018
0.284035
0.281363
0.278087
0.274307
0.270108
0.265534
0.260581
0.255207
0.249362
0.243021
0.236211
0.229027
0.221615
0.214126
0.206691
0.199420
0.192413
0.185747
0.179472
0.173611
0.168192
0.163280
0.158999
0.155516
0.152992
0.151535
0.151192
0.151958
0.153794
0.156647
0.160445
0.165098
0.170481
0.176430
0.182766
0.189321
0.195955
0.202527
0.208880
0.214860
0.220353
0.225284
0.229599
0.233209
0.235960
0.237661
0.238132
0.237252
0.234965
0.231259
0.226137
0.219609
0.211702
0.202471
0.192005
0.180441
0.167961
0.154793
0.141185
0.127381
0.113586
0.099954
0.086581
0.073523
0.060800
0.048401
0.036304
0.024521
0.013153
0.002389
-0.007545
-0.016448
-0.024180
-0.030677
-0.035943
-0.040031
-0.043029
-0.045044
-0.046195
-0.046598
-0.046379
-0.045685
-0.044678
-0.043505
-0.042287
-0.041110
-0.040020
-0.039026
-0.038119
-0.037304
-0.036631
-0.036177
-0.036007
-0.036149
-0.036610
-0.037404
-0.038550
-0.040062
-0.041944
-0.044205
-0.046869
-0.049940
-0.053351
-0.056966
-0.060628
-0.064195
-0.067560
-0.070664
-0.073508
-0.076142
-0.078624
-0.080988
-0.083242
-0.085382
-0.087411
-0.089334
-0.091144
-0.092832
-0.094412
-0.095932
-0.097450
-0.099009
-0.100629
-0.102304
-0.104011
-0.105717
-0.107398
-0.109055
-0.110707
-0.112386
-0.114142
-0.116052
-0.118224
-0.120785
-0.123847
-0.127489
-0.131745
-0.136612
-0.142054
-0.147999
-0.154329
-0.160899
-0.167553
-0.174141
-0.180539
-0.186693
-0.192616
-0.198338
-0.203866
-0.209165
-0.214172
-0.218823
-0.223052
-0.226794
-0.229980
-0.232545
-0.234432
-0.235620
-0.236136
-0.236049
-0.235443
-0.234397
-0.232967
-0.231209
-0.229187
-0.226974
-0.224638
-0.222243
-0.219870
-0.217595
-0.215463
-0.213506
-0.211771
-0.210320
-0.209207
-0.208482
-0.208195
-0.208412
-0.209198
-0.210619
-0.212740
-0.215623
-0.219295
-0.223726
-0.228823
-0.234473
-0.240569
-0.247031
-0.253804
-0.260840
-0.268070
-0.275400
-0.282723
-0.289950
-0.297020
-0.303875
-0.310437
-0.316626
-0.322371
-0.327610
-0.332272
-0.336298
-0.339655
-0.342330
-0.344319
-0.345627
-0.346278
-0.346336
-0.345900
-0.345077
-0.343955
-0.342600
-0.341071
-0.339427
-0.337700
-0.335894
-0.333998
-0.331982
-0.329765
-0.327180
-0.323996
-0.319971
-0.314896
-0.308599
-0.300937
-0.291820
-0.281230
-0.269213
-0.255849
-0.241249
-0.225547
-0.208921
-0.191596
-0.173838
-0.155912
-0.138057
-0.120468
-0.103281
-0.086578
-0.070407
-0.054805
-0.039799
-0.025418
-0.011694
0.001370
0.013817
0.025704
0.037067
0.047931
0.058308
0.068194
0.077564
0.086382
0.094615
0.102248
0.109269
0.115640
0.121262
0.125974
0.129580
0.131907
0.132818
0.132202
0.129956
0.125991
0.120253
0.112740
0.103511
0.092679
0.080404
0.066875
0.052296
0.036871
0.020789
0.004241
-0.012575
-0.029470
-0.046272
-0.062823
-0.078963
-0.094539
-0.109427
-0.123523
-0.136724
-0.148915
-0.159985
-0.169843
-0.178439
-0.185763
-0.191830
-0.196677
-0.200341
-0.202842
-0.204168
-0.204278
-0.203089
-0.200491
-0.196377
-0.190689
-0.183443
-0.174735
-0.164708
-0.153513
-0.141298
-0.128225
-0.114476
-0.100245
-0.085745
-0.071208
-0.056864
-0.042929
-0.029608
-0.017082
-0.005492
0.005068
0.014537
0.022880
0.030067
0.036065
0.040844
0.044387
0.046691
0.047767
0.047648
0.046396
0.044104
0.040904
0.036970
0.032507
0.027728
0.022844
0.018053
0.013516
0.009333
0.005549
0.002184
-0.000744
-0.003228
-0.005265
-0.006878
-0.008131
-0.009128
-0.009999
-0.010871
-0.011853
-0.013012
-0.014369
-0.015922
-0.017658
-0.019535
-0.021457
-0.023263
-0.024742
-0.025672
-0.025854
-0.025134
-0.023418
-0.020667
-0.016897
-0.012171
-0.006600
-0.000336
0.006451
0.013590
0.020902
0.028211
0.035360
0.042238
0.048782
0.054946
0.060681
0.065929
0.070637
0.074771
0.078309
0.081250
0.083611
0.085419
0.086716
0.087555
0.087994
0.088086
0.087891
0.087495
0.087018
0.086597
0.086354
0.086368
0.086653
0.087167
0.087834
0.088544
0.089149
0.089476
0.089353
0.088626
0.087163
0.084862
0.081642
0.077456
0.072302
0.066222
0.059279
0.051554
0.043123
0.034035
0.024325
0.014037
0.003251
-0.007925
-0.019344
-0.030817
-0.042136
-0.053104
-0.063560
-0.073396
-0.082567
-0.091071
-0.098929
-0.106158
-0.112775
-0.118796
-0.124245
-0.129155
-0.133581
-0.137575
-0.141161
-0.144311
-0.146951
-0.148968
-0.150233
-0.150616
-0.150018
-0.148392
-0.145751
-0.142134
-0.137587
-0.132151
-0.125874
-0.118820
-0.111072
-0.102715
-0.093836
-0.084519
-0.074851
-0.064909
-0.054769
-0.044510
-0.034221
-0.023992
-0.013906
-0.004039
0.005523
0.014686
0.023375
0.031571
0.039331
0.046760
0.053985
0.061130
0.068297
0.075544
0.082876
0.090268
0.097691
0.105121
0.112517
0.119817
0.126973
0.133964
0.140780
0.147414
0.153870
0.160184
0.166434
0.172721
0.179153
0.185828
0.192810
0.200114
0.207711
0.215538
0.223504
0.231494
0.239385
0.247051
0.254359
0.261180
0.267393
0.272874
0.277490
0.281121
0.283684
0.285137
0.285472
0.284716
0.282928
0.280194
0.276618
0.272305
0.267352
0.261853
0.255914
0.249692
0.243391
0.237247
0.231483
0.226295
0.221836
0.218211
0.215475
0.213653
0.212752
0.212761
0.213645
0.215360
0.217857
0.221087
0.224989
0.229494
0.234523
0.239992
0.245822
0.251948
0.258306
0.264805
0.271303
0.277613
0.283528
0.288846
0.293384
0.297001
0.299604
0.301138
0.301569
0.300882
0.299086
0.296230
0.292412
0.287782
0.282540
0.276933
0.271244
0.265778
0.260845
0.256737
0.253713
0.251987
0.251700
0.252892
0.255511
0.259429
0.264447
0.270313
0.276749
0.283465
0.290158
0.296511
0.302202
0.306944
0.310514
0.312776
0.313666
0.313163
0.311288
0.308113
0.303749
0.298315
0.291938
0.284753
0.276903
0.268523
0.259718
0.250571
0.241145
0.231486
0.221655
0.211740
0.201866
0.192171
0.182769
0.173716
0.165000
0.156558
0.148312
0.140171
0.132042
0.123854
0.115578
0.107224
0.098842
0.090511
0.082335
0.074427
0.066900
0.059863
0.053392
0.047526
0.042273
0.037632
0.033586
0.030114
0.027209
0.024898
0.023227
0.022240
0.021974
0.022452
0.023687
0.025677
0.028398
0.031794
0.035769
0.040192
0.044923
0.049828
0.054784
0.059674
0.064399
0.068864
0.072953
0.076532
0.079469
0.081634
0.082909
0.083218
0.082551
0.080947
0.078460
0.075151
0.071087
0.066354
0.061069
0.055375
0.049413
0.043304
0.037156
0.031057
0.025070
0.019250
0.013666
0.008403
0.003550
-0.000832
-0.004725
-0.008155
-0.011177
-0.013847
-0.016194
-0.018216
-0.019886
-0.021177
-0.022049
-0.022428
-0.022213
-0.021328
-0.019745
-0.017474
-0.014545
-0.011006
-0.006912
-0.002311
0.002753
0.008222
0.014023
0.020075
0.026286
0.032552
0.038779
0.044898
0.050851
0.056585
0.062052
0.067225
0.072100
0.076670
0.080907
0.084767
0.088192
0.091107
0.093414
0.095003
0.095790
0.095745
0.094892
0.093291
0.091021
0.088172
0.084833
0.081077
0.076960
0.072532
0.067850
0.062971
0.057950
0.052844
0.047722
0.042655
0.037701
0.032898
0.028282
0.023879
0.019717
0.015829
0.012246
0.008993
0.006084
0.003511
0.001238
-0.000783
-0.002602
-0.004268
-0.005823
-0.007300
-0.008722
-0.010116
-0.011506
-0.012911
-0.014334
-0.015752
-0.017125
-0.018410
-0.019577
-0.020607
-0.021478
-0.022152
-0.022574
-0.022678
-0.022387
-0.021628
-0.020347
-0.018513
-0.016112
-0.013145
-0.009644
-0.005686
-0.001370
0.003192
0.007898
0.012654
0.017382
0.021997
0.026392
0.030452
0.034064
0.037124
0.039550
0.041296
0.042344
0.042698
0.042365
0.041354
0.039672
0.037325
0.034315
0.030639
0.026302
0.021321
0.015726
0.009543
0.002805
-0.004452
-0.012202
-0.020433
-0.029130
-0.038252
-0.047712
-0.057381
-0.067111
-0.076771
-0.086248
-0.095438
-0.104235
-0.112540
-0.120258
-0.127299
-0.133591
-0.139096
-0.143808
-0.147763
-0.151039
-0.153745
-0.155990
-0.157872
-0.159463
-0.160823
-0.162008
-0.163091
-0.164155
-0.165282
-0.166533
-0.167945
-0.169540
-0.171338
-0.173359
-0.175643
-0.178257
-0.181286
-0.184822
-0.188960
-0.193780
-0.199331
-0.205626
-0.212636
-0.220303
-0.228545
-0.237274
-0.246395
-0.255800
-0.265371
-0.274981
-0.284512
-0.293856
-0.302918
-0.311614
-0.319852
-0.327543
-0.334611
-0.341006
-0.346711
-0.351747
-0.356195
-0.360179
-0.363841
-0.367320
-0.370761
-0.374316
-0.378122
-0.382282
-0.386872
-0.391953
-0.397571
-0.403751
-0.410497
-0.417778
-0.425525
-0.433628
-0.441944
-0.450305
-0.458542
-0.466504
-0.474067
-0.481122
-0.487565
-0.493332
-0.498415
-0.502817
-0.506516
-0.509458
-0.511569
-0.512775
-0.513015
-0.512265
-0.510531
-0.507846
-0.504249
-0.499769
-0.494414
-0.488183
-0.481086
-0.473150
-0.464426
-0.454974
-0.444852
-0.434115
-0.422820
-0.411022
-0.398786
-0.386195
-0.373355
-0.360378
-0.347360
-0.334390
-0.321575
-0.309021
-0.296805
-0.284970
-0.273547
-0.262578
-0.252119
-0.242218
-0.232903
-0.224194
-0.216109
-0.208662
-0.201863
-0.195729
-0.190284
-0.185557
-0.181584
-0.178395
-0.176009
-0.174425
-0.173617
-0.173527
-0.174089
-0.175241
-0.176926
-0.179093
-0.181706
-0.184730
-0.188119
-0.191811
-0.195728
-0.199791
-0.203926
-0.208058
-0.212104
-0.215978
-0.219613
-0.222963
-0.225992
-0.228666
-0.230964
-0.232884
-0.234440
-0.235655
-0.236555
-0.237166
-0.237512
-0.237603
-0.237419
-0.236929
-0.236099
-0.234894
-0.233276
-0.231208
-0.228653
-0.225589
-0.222005
-0.217896
-0.213250
-0.208062
-0.202340
-0.196093
-0.189327
-0.182046
-0.174260
-0.165984
-0.157221
-0.147969
-0.138235
-0.128058
-0.117498
-0.106613
-0.095453
-0.084062
-0.072480
-0.060753
-0.048939
-0.037103
-0.025301
-0.013587
-0.002032
0.009270
0.020223
0.030745
0.040774
0.050263
0.059183
0.067537
0.075352
0.082677
0.089576
0.096112
0.102338
0.108278
0.113939
0.119315
0.124391
0.129128
0.133469
0.137351
0.140689
0.143391
0.145379
0.146612
0.147072
0.146756
0.145685
0.143896
0.141434
0.138352
0.134703
0.130534
0.125883
0.120786
0.115279
0.109415
0.103271
0.096953
0.090585
0.084310
0.078283
0.072654
0.067558
0.063119
0.059440
0.056599
0.054641
0.053571
0.053342
0.053881
0.055118
0.056968
0.059322
0.062045
0.065002
0.068069
0.071147
0.074159
0.077044
0.079743
0.082185
0.084302
0.086051
0.087404
0.088332
0.088811
0.088828
0.088391
0.087529
0.086286
0.084719
0.082898
0.080905
0.078832
0.076769
0.074808
0.073042
0.071544
0.070334
0.069394
0.068679
0.068142
0.067735
0.067412
0.067129
0.066850
0.066553
0.066229
0.065871
0.065477
0.065042
0.064568
0.064049
0.063479
0.062855
0.062185
0.061470
0.060708
0.059899
0.059059
0.058210
0.057374
0.056588
0.055899
0.055353
0.054993
0.054872
0.055046
0.055566
0.056467
0.057757
0.059435
0.061489
0.063909
0.066687
0.069811
0.073265
0.077014
0.081003
0.085140
0.089304
0.093383
0.097293
0.100968
0.104348
0.107387
0.110059
0.112363
0.114320
0.115965
0.117333
0.118463
0.119386
0.120123
0.120699
0.121146
0.121502
0.121814
0.122142
0.122545
0.123063
0.123707
0.124470
0.125337
0.126287
0.127298
0.128350
0.129436
0.130555
0.131702
0.132856
0.133978
0.135020
0.135924
0.136637
0.137129
0.137390
0.137415
0.137207
0.136781
0.136155
0.135349
0.134386
0.133278
0.132038
0.130690
0.129257
0.127750
0.126170
0.124506
0.122720
0.120761
0.118573
0.116097
0.113269
0.110022
0.106290
0.102018
0.097191
0.091838
0.086025
0.079835
0.073354
0.066670
0.059875
0.053062
0.046332
0.039786
0.033512
0.027583
0.022058
0.016981
0.012388
0.008309
0.004767
0.001776
-0.000645
-0.002471
-0.003675
-0.004233
-0.004109
-0.003269
-0.001684
0.000676
0.003834
0.007805
0.012587
0.018153
0.024435
0.031332
0.038729
0.046515
0.054585
0.062834
0.071162
0.079464
0.087630
0.095558
0.103153
0.110330
0.117026
0.123215
0.128893
0.134065
0.138736
0.142912
0.146611
0.149863
0.152693
0.155120
0.157154
0.158777
0.159931
0.160532
0.160493
0.159744
0.158255
0.156032
0.153106
0.149534
0.145392
0.140750
0.135670
0.130211
0.124438
0.118433
0.112294
0.106121
0.100005
0.094033
0.088286
0.082822
0.077682
0.072896
0.068484
0.064446
0.060762
0.057408
0.054386
0.051705
0.049361
0.047342
0.045631
0.044198
0.042991
0.041934
0.040948
0.039973
0.038965
0.037887
0.036716
0.035445
0.034071
0.032584
0.030953
0.029127
0.027047
0.024658
0.021904
0.018731
0.015108
0.011027
0.006495
0.001530
-0.003831
-0.009522
-0.015466
-0.021590
-0.027833
-0.034137
-0.040443
-0.046703
-0.052885
-0.058969
-0.064942
-0.070798
-0.076545
-0.082189
-0.087715
-0.093102
-0.098337
-0.103401
-0.108272
-0.112931
-0.117368
-0.121576
-0.125555
-0.129318
-0.132882
-0.136261
-0.139463
-0.142494
-0.145370
-0.148112
-0.150729
-0.153210
-0.155532
-0.157669
-0.159599
-0.161307
-0.162780
-0.164003
-0.164966
-0.165663
-0.166097
-0.166273
-0.166204
-0.165891
-0.165325
-0.164483
-0.163317
-0.161760
-0.159740
-0.157197
-0.154094
-0.150421
-0.146197
-0.141461
-0.136265
-0.130673
-0.124768
-0.118651
-0.112430
-0.106213
-0.100111
-0.094229
-0.088669
-0.083522
-0.078873
-0.074791
-0.071319
-0.068484
-0.066311
-0.064815
-0.064000
-0.063858
-0.064367
-0.065481
-0.067138
-0.069258
-0.071747
-0.074507
-0.077458
-0.080536
-0.083692
-0.086897
-0.090146
-0.093460
-0.096883
-0.100459
-0.104210
-0.108130
-0.112203
-0.116412
-0.120740
-0.125144
-0.129549
-0.133861
-0.137990
-0.141859
-0.145400
-0.148570
-0.151346
-0.153714
-0.155656
-0.157156
-0.158230
-0.158929
-0.159332
-0.159515
-0.159556
-0.159541
-0.159569
-0.159748
-0.160200
-0.161038
-0.162359
-0.164243
-0.166754
-0.169928
-0.173764
-0.178235
-0.183296
-0.188894
-0.194977
-0.201488
-0.208358
-0.215521
-0.222923
-0.230520
-0.238254
-0.246056
-0.253869
-0.261659
-0.269398
-0.277051
-0.284574
-0.291914
-0.299007
-0.305784
-0.312188
-0.318167
-0.323679
-0.328677
-0.333110
-0.336920
-0.340052
-0.342469
-0.344145
-0.345065
-0.345212
-0.344565
-0.343103
-0.340818
-0.337722
-0.333849
-0.329266
-0.324074
-0.318397
-0.312372
-0.306126
-0.299769
-0.293381
-0.287026
-0.280762
-0.274643
-0.268713
-0.263018
-0.257605
-0.252514
-0.247768
-0.243386
-0.239396
