EVENT_NAME: L_AQUILA
EVENT_ID: IT-2009-0009
EVENT_DATE_YYYYMMDD: 20090406
EVENT_TIME_HHMMSS: 013240
EVENT_LATITUDE_DEGREE: 42.3420
EVENT_LONGITUDE_DEGREE: 13.3800
EVENT_DEPTH_KM: 8.3
HYPOCENTER_REFERENCE: INGV-CNT_Seismic_Bulletin
MAGNITUDE_W: 6.1
MAGNITUDE_W_REFERENCE: INGV-CNT_Seismic_Bulletin
MAGNITUDE_L: 
MAGNITUDE_L_REFERENCE: 
FOCAL_MECHANISM: Normal faulting
NETWORK: IT
STATION_CODE: MMP
STATION_NAME: 
STATION_LATITUDE_DEGREE: 42.248547
STATION_LONGITUDE_DEGREE: 12.748537
STATION_ELEVATION_M: 475
LOCATION: 
SENSOR_DEPTH_M: 0.0
VS30_M/S: 
SITE_CLASSIFICATION_EC8: B (inferred from geology)
MORPHOLOGIC_CLASSIFICATION: 
EPICENTRAL_DISTANCE_KM: 53.1
EARTHQUAKE_BACKAZIMUTH_DEGREE: 258.9
DATE_TIME_FIRST_SAMPLE_YYYYMMDD_HHMMSS: 20090406_013237.000
DATE_TIME_FIRST_SAMPLE_PRECISION: seconds
SAMPLING_INTERVAL_S: 0.005000
NDATA: 20380
DURATION_S: 101.900
STREAM: HNN
UNITS: cm/s^2
INSTRUMENT: sensor = Unknown [Unknown] | digitizer = Etna [Kinemetrics]
INSTRUMENT_ANALOG/DIGITAL: D
INSTRUMENTAL_FREQUENCY_HZ: 206.000
INSTRUMENTAL_DAMPING: 0.700000
FULL_SCALE_G: 1.0
N_BIT_DIGITAL_CONVERTER: 18
PGA_CM/S^2: 6.902876
TIME_PGA_S: 28.455000
BASELINE_CORRECTION: BASELINE REMOVED
FILTER_TYPE: BUTTERWORTH
FILTER_ORDER: 2
LOW_CUT_FREQUENCY_HZ: 0.030
HIGH_CUT_FREQUENCY_HZ: 40.000
LATE/NORMAL_TRIGGERED: NT
DATABASE_VERSION: 0.5
HEADER_FORMAT: DYNA 1.2
DATA_TYPE: ACCELERATION
PROCESSING: manual (Paolucci et al., 2011)
DATA_TIMESTAMP_YYYYMMDD_HHMMSS: 20211011_160301.333
DATA_LICENSE: CC-BY3_0-IT (http://creativecommons.org/licenses/by/3.0/deed.en)
DATA_CITATION: Luzi L, Pacor F, Puglia R (2019). Italian Accelerometric Archive v 3.0 - Istituto Nazionale di Geofisica e Vulcanologia, Dipartimento della Protezione Civile Nazionale. doi: 10.13127/itaca.3.1
DATA_CREATOR: ITACA working group
ORIGINAL_DATA_MEDIATOR_CITATION: data obtained within the DPC-INGV data exchange agreements
ORIGINAL_DATA_MEDIATOR: Archive of Italian Department of Civil Protection
ORIGINAL_DATA_CREATOR_CITATION: Presidency Of Counsil Of Ministers-Civil Protection Department. (1972). Italian Strong Motion Network. Presidency of Counsil of Ministers - Civil Protection Department. https://doi.org/10.7914/SN/IT http://www.fdsn.org/networks/detail/IT/
ORIGINAL_DATA_CREATOR: network: IT (Italian Strong Motion Network (RAN)); owner: Presidency of Counsil of Ministers - Civil Protection Department (PCM - DPC)
USER1: 
USER2: 
USER3: 
USER4: 
USER5: 
[...]
-1.057857
-0.786144
-0.471861
-0.210313
-0.058247
0.012343
0.091530
0.265259
0.557427
0.916803
1.246550
1.449693
1.469983
1.315756
1.054802
0.779475
0.565034
0.447637
0.426810
0.482269
0.588101
0.711997
0.814551
0.869396
0.885827
0.898967
0.934823
0.987746
1.024530
1.007446
0.919896
0.766135
0.543810
0.232934
-0.176814
-0.659333
-1.167500
-1.668288
-2.144807
-2.568288
-2.889639
-3.065641
-3.085208
-2.968750
-2.748354
-2.448200
-2.083622
-1.681288
-1.293473
-0.978619
-0.756770
-0.588302
-0.408243
-0.181407
0.075241
0.313841
0.496423
0.623689
0.734122
0.877692
1.078985
1.310783
1.501383
1.576173
1.503491
1.309958
1.051945
0.769529
0.472705
0.173586
-0.087085
-0.268203
-0.373165
-0.445543
-0.524913
-0.609023
-0.648948
-0.585795
-0.399151
-0.114318
0.235437
0.639444
1.097747
1.586666
2.043819
2.385824
2.540735
2.478617
2.227386
1.863974
1.485024
1.179145
1.022513
1.077779
1.359843
1.795047
2.237289
2.546062
2.664848
2.633177
2.525823
2.386663
2.214121
1.986790
1.693379
1.351454
1.014063
0.754678
0.627432
0.627519
0.683323
0.690225
0.564553
0.285217
-0.096393
-0.483490
-0.783335
-0.947658
-0.985694
-0.954373
-0.929234
-0.960546
-1.041913
-1.121613
-1.149904
-1.119334
-1.060806
-1.001372
-0.930600
-0.810329
-0.608253
-0.319788
0.026797
0.375597
0.658344
0.809813
0.778086
0.541329
0.124502
-0.402500
-0.937074
-1.359744
-1.573263
-1.557769
-1.383276
-1.154413
-0.949503
-0.811261
-0.768635
-0.844169
-1.030498
-1.264512
-1.446136
-1.493148
-1.376627
-1.117571
-0.767818
-0.392330
-0.047372
0.243519
0.491575
0.718318
0.935519
1.147267
1.357423
1.565165
1.752811
1.885172
1.929726
1.880094
1.762692
1.620340
1.478795
1.321739
1.101660
0.780477
0.364881
-0.085086
-0.477660
-0.737916
-0.849891
-0.854406
-0.816175
-0.800587
-0.864724
-1.039880
-1.309950
-1.608828
-1.841545
-1.922649
-1.821115
-1.586010
-1.326800
-1.158189
-1.153486
-1.333140
-1.671765
-2.103130
-2.530379
-2.850333
-2.982767
-2.894190
-2.605235
-2.172935
-1.665516
-1.151931
-0.696884
-0.344739
-0.098660
0.085852
0.282534
0.552981
0.905554
1.292804
1.646218
1.909073
2.047924
2.046691
1.895425
1.592114
1.161713
0.665072
0.172408
-0.277029
-0.683263
-1.055720
-1.385384
-1.650435
-1.848603
-2.014715
-2.186799
-2.359635
-2.491323
-2.549321
-2.539941
-2.498265
-2.452953
-2.401880
-2.324255
-2.213061
-2.087228
-1.970795
-1.868018
-1.764534
-1.649524
-1.525947
-1.395866
-1.247889
-1.069140
-0.866752
-0.668690
-0.502086
-0.381077
-0.320051
-0.344632
-0.473386
-0.688661
-0.931006
-1.121999
-1.200145
-1.150673
-1.009456
-0.838463
-0.691964
-0.594188
-0.537525
-0.498427
-0.459932
-0.425440
-0.412434
-0.433075
-0.481804
-0.538364
-0.579590
-0.593202
-0.586047
-0.578216
-0.584708
-0.598477
-0.591877
-0.540394
-0.448470
-0.348341
-0.267950
-0.200599
-0.109434
0.039992
0.257906
0.536459
0.861807
1.216565
1.573725
1.887727
2.105037
2.200338
2.202616
2.184162
2.227114
2.390662
2.685812
3.065705
3.441915
3.718553
3.825684
3.742487
3.505008
3.194310
2.904691
2.700822
2.595248
2.567370
2.588805
2.619950
2.604707
2.492826
2.264705
1.933333
1.536827
1.127620
0.751231
0.430322
0.170370
-0.026323
-0.156686
-0.221902
-0.233816
-0.219401
-0.216212
-0.254906
-0.343624
-0.466054
-0.584020
-0.643299
-0.590131
-0.391465
-0.054625
0.358082
0.746476
1.029295
1.192909
1.282133
1.347245
1.399351
1.406113
1.332394
1.189469
1.031303
0.905019
0.822719
0.770338
0.720952
0.644854
0.527006
0.383778
0.264279
0.233937
0.343898
0.598240
0.941547
1.278444
1.512849
1.591243
1.531259
1.405899
1.291452
1.228854
1.221495
1.250379
1.284714
1.291370
1.250730
1.168926
1.079545
1.031418
1.060351
1.162820
1.299515
1.428683
1.529144
1.588565
1.587334
1.509884
1.370335
1.217390
1.104718
1.051651
1.030488
0.990767
0.899324
0.760172
0.597945
0.431894
0.270596
0.122821
0.003971
-0.073653
-0.114183
-0.134931
-0.154833
-0.188875
-0.243066
-0.310860
-0.380647
-0.445126
-0.498021
-0.531472
-0.553006
-0.602333
-0.730552
-0.949950
-1.208459
-1.419609
-1.524664
-1.534134
-1.511805
-1.524496
-1.611095
-1.786020
-2.046431
-2.357475
-2.640364
-2.799349
-2.769177
-2.540748
-2.152247
-1.659906
-1.111600
-0.539323
0.032386
0.579862
1.085546
1.540133
1.929593
2.225436
2.397106
2.430151
2.322512
2.071378
1.678384
1.161577
0.560118
-0.060710
-0.619551
-1.061265
-1.394527
-1.676966
-1.967800
-2.303214
-2.698174
-3.139158
-3.564239
-3.864246
-3.927127
-3.700947
-3.224824
-2.609223
-1.988063
-1.468473
-1.100621
-0.882400
-0.784764
-0.771709
-0.808829
-0.867313
-0.922069
-0.942043
-0.891845
-0.757807
-0.568770
-0.381151
-0.243056
-0.172921
-0.167718
-0.227214
-0.368676
-0.611021
-0.937929
-1.284707
-1.571435
-1.744321
-1.782188
-1.682938
-1.468923
-1.208555
-1.014829
-0.999604
-1.210759
-1.599791
-2.048218
-2.435117
-2.680994
-2.735979
-2.566634
-2.186267
-1.682092
-1.182497
-0.786562
-0.512075
-0.294197
-0.039368
0.301059
0.699917
1.087118
1.399870
1.606357
1.704526
1.706899
1.626209
1.479968
1.301576
1.133179
1.003182
0.910983
0.832598
0.743033
0.637307
0.527052
0.418009
0.304293
0.185094
0.075739
0.002029
-0.019258
-0.003155
0.003124
-0.052230
-0.202625
-0.464808
-0.838293
-1.287191
-1.742142
-2.138179
-2.443081
-2.647151
-2.739787
-2.700412
-2.506094
-2.150550
-1.659727
-1.081311
-0.457022
0.185177
0.819941
1.427026
1.999668
2.536662
3.031316
3.468815
3.828304
4.088713
4.239327
4.290639
4.269361
4.197270
4.074788
3.878578
3.574572
3.145467
2.617226
2.061218
1.561140
1.166722
0.877901
0.672425
0.538540
0.478864
0.494842
0.572243
0.675772
0.756787
0.772316
0.703224
0.561118
0.384703
0.228058
0.141498
0.147216
0.218340
0.285098
0.276207
0.163560
-0.024614
-0.230039
-0.407777
-0.549947
-0.676305
-0.810435
-0.967537
-1.154927
-1.364788
-1.562610
-1.694629
-1.715282
-1.615096
-1.428198
-1.212100
-1.012514
-0.837871
-0.666666
-0.480953
-0.284339
-0.082449
0.139477
0.403962
0.711729
1.032671
1.323708
1.559188
1.750315
1.934994
2.152448
2.430188
2.781965
3.201418
3.658143
4.107065
4.503945
4.820013
5.049356
5.198608
5.262947
5.208775
4.982217
4.540965
3.883925
3.054005
2.111009
1.098370
0.039150
-1.033329
-2.054242
-2.949221
-3.672533
-4.217450
-4.593977
-4.806725
-4.860209
-4.775959
-4.584549
-4.295718
-3.891149
-3.352311
-2.690741
-1.963263
-1.274223
-0.752847
-0.496399
-0.516020
-0.735473
-1.031370
-1.275992
-1.376654
-1.304932
-1.098215
-0.841291
-0.642940
-0.597922
-0.738024
-1.019348
-1.365175
-1.714785
-2.036849
-2.318449
-2.552265
-2.734923
-2.877142
-3.002617
-3.121891
-3.209642
-3.219328
-3.123983
-2.937773
-2.701851
-2.458688
-2.234557
-2.037243
-1.861370
-1.685208
-1.470626
-1.181450
-0.799561
-0.324704
0.219931
0.774888
1.259634
1.615178
1.827883
1.914812
1.893559
1.761485
1.501143
1.114202
0.651516
0.201032
-0.161628
-0.412410
-0.572701
-0.678211
-0.756990
-0.817150
-0.837427
-0.769569
-0.559898
-0.185842
0.307997
0.806662
1.177811
1.345859
1.322943
1.186556
1.036401
0.946850
0.934754
0.965208
0.981112
0.932455
0.795619
0.571904
0.267491
-0.118542
-0.581892
-1.094829
-1.601327
-2.023564
-2.283113
-2.335208
-2.190593
-1.912236
-1.595059
-1.334042
-1.193593
-1.192497
-1.299900
-1.441382
-1.527682
-1.496177
-1.332166
-1.056480
-0.696471
-0.268571
0.213712
0.721583
1.204985
1.607244
1.892867
2.061904
2.130484
2.102826
1.976860
1.772702
1.538725
1.330856
1.191971
1.138796
1.156676
1.212404
1.282189
1.369242
1.489510
1.643556
1.812755
1.979867
2.141926
2.303483
2.465287
2.620213
2.757790
2.870348
2.942478
2.927863
2.752096
2.357695
1.756251
1.040184
0.342670
-0.221793
-0.597767
-0.794901
-0.864199
-0.861956
-0.821561
-0.747900
-0.637463
-0.504374
-0.386753
-0.330933
-0.370890
-0.520123
-0.774151
-1.107520
-1.469517
-1.799365
-2.053138
-2.211811
-2.267981
-2.217931
-2.070960
-1.861562
-1.645331
-1.479095
-1.403017
-1.430905
-1.548383
-1.722768
-1.919013
-2.111053
-2.290441
-2.476152
-2.703344
-2.982082
-3.273141
-3.513018
-3.656883
-3.698723
-3.662065
-3.576985
-3.459071
-3.303503
-3.092903
-2.801239
-2.391696
-1.825581
-1.087215
-0.204601
0.752342
1.691062
2.522521
3.181530
3.629599
3.848653
3.843494
3.652546
3.340957
2.965752
2.548787
2.086322
1.575884
1.033799
0.499177
0.025340
-0.337132
-0.555175
-0.621683
-0.551960
-0.364679
-0.068660
0.328983
0.811593
1.348896
1.891094
2.366635
2.695481
2.812569
2.688228
2.339445
1.824270
1.219816
0.609026
0.082039
-0.277108
-0.423694
-0.371205
-0.174707
0.098541
0.385455
0.639075
0.843528
1.014949
1.187604
1.403425
1.696371
2.062500
2.447734
2.776424
2.996354
3.101883
3.119749
3.076748
2.979949
2.820267
2.591006
2.305291
1.995534
1.693286
1.411279
1.145050
0.882067
0.601801
0.279145
-0.090289
-0.468583
-0.794443
-1.023586
-1.155027
-1.238631
-1.356175
-1.571290
-1.886482
-2.252000
-2.616755
-2.967219
-3.320229
-3.689266
-4.061997
-4.406918
-4.700459
-4.942277
-5.144400
-5.317523
-5.466915
-5.585875
-5.642442
-5.580755
-5.354933
-4.964506
-4.451580
-3.875277
-3.297434
-2.777932
-2.363192
-2.070231
-1.882437
-1.762750
-1.673380
-1.588898
-1.495486
-1.380670
-1.228819
-1.034269
-0.819899
-0.634115
-0.525467
-0.514531
-0.577880
-0.659369
-0.704842
-0.688264
-0.611648
-0.491423
-0.344511
-0.177291
0.017938
0.256228
0.546674
0.881653
1.238938
1.593667
1.928068
2.232692
2.498941
2.713696
2.864064
2.942949
2.951772
2.898906
2.789380
2.623514
2.419830
2.234706
2.140145
2.178116
2.346025
2.616668
2.959376
3.349813
3.762415
4.152075
4.459163
4.642098
4.694534
4.630706
4.469744
4.234746
3.950211
3.633461
3.292478
2.926426
2.521531
2.057220
1.531080
0.977575
0.454520
0.010711
-0.335073
-0.595030
-0.794081
-0.941593
-1.021455
-1.011000
-0.904324
-0.721770
-0.509169
-0.323527
-0.203663
-0.145853
-0.100005
0.009220
0.241069
0.605097
1.061087
1.545843
1.998983
2.372810
2.633291
2.757396
2.730406
2.551810
2.245553
1.855632
1.424791
0.980700
0.538726
0.111657
-0.274609
-0.574460
-0.745011
-0.775752
-0.687065
-0.505244
-0.255375
0.027605
0.302998
0.541725
0.733093
0.878064
0.980527
1.040150
1.047233
0.989934
0.866561
0.681442
0.436615
0.138474
-0.193966
-0.533629
-0.854690
-1.134340
-1.351739
-1.492532
-1.556209
-1.560647
-1.534498
-1.497979
-1.452261
-1.386172
-1.285326
-1.136707
-0.937141
-0.700503
-0.453565
-0.226682
-0.042420
0.097241
0.208915
0.302390
0.357040
0.328728
0.179598
-0.093515
-0.447229
-0.806819
-1.104436
-1.309792
-1.426948
-1.471810
-1.458723
-1.395695
-1.281782
-1.115068
-0.904578
-0.664679
-0.397078
-0.089423
0.265251
0.654023
1.049345
1.423220
1.754013
2.026839
2.236694
2.389663
2.497431
2.571395
2.623557
2.674803
2.755736
2.888429
3.064457
3.242154
3.369001
3.411737
3.367471
3.252992
3.093622
2.918375
2.749971
2.592251
2.429172
2.238422
2.008589
1.747357
1.480017
1.241233
1.061975
0.959888
0.935328
0.969122
1.023242
1.047555
0.996134
0.846007
0.601600
0.284813
-0.075595
-0.451831
-0.824195
-1.182681
-1.521792
-1.834892
-2.108354
-2.315539
-2.421757
-2.405561
-2.276466
-2.065698
-1.801717
-1.498579
-1.158406
-0.777137
-0.356811
0.076244
0.467573
0.753027
0.879814
0.823061
0.599228
0.261894
-0.116091
-0.457407
-0.697706
-0.807839
-0.800115
-0.709179
-0.570880
-0.418441
-0.284111
-0.193612
-0.157625
-0.165729
-0.190027
-0.206590
-0.214908
-0.227282
-0.245980
-0.261034
-0.263457
-0.252571
-0.235153
-0.224367
-0.236001
-0.280992
-0.359114
-0.452236
-0.525119
-0.543160
-0.489392
-0.362996
-0.173497
0.055944
0.292401
0.509717
0.697230
0.857997
1.008040
1.169042
1.348459
1.531297
1.699878
1.853388
2.001375
2.144020
2.258846
2.305181
2.250843
2.098551
1.878692
1.615447
1.309705
0.958426
0.580013
0.212019
-0.112868
-0.391328
-0.657279
-0.958250
-1.318590
-1.727648
-2.152338
-2.550688
-2.881649
-3.112494
-3.222196
-3.204468
-3.072338
-2.859153
-2.608621
-2.355703
-2.112552
-1.869280
-1.606591
-1.309901
-0.974937
-0.604392
-0.206017
0.202168
0.587089
0.904406
1.113927
1.199434
1.175158
1.072239
0.919738
0.738825
0.548584
0.369255
0.215792
0.083513
-0.058871
-0.255842
-0.536747
-0.890960
-1.269464
-1.612066
-1.873640
-2.034885
-2.104299
-2.114341
-2.106165
-2.110605
-2.138234
-2.176160
-2.191070
-2.150183
-2.051906
-1.932979
-1.843998
-1.821464
-1.876622
-1.995521
-2.138705
-2.246431
-2.263078
-2.164100
-1.955985
-1.656477
-1.277651
-0.820023
-0.282809
0.317446
0.942401
1.545998
2.086018
2.523148
2.821762
2.956917
2.921158
2.731586
2.432159
2.085575
1.757787
1.497748
1.321382
1.215483
1.161522
1.158708
1.228209
1.397741
1.678601
2.055878
2.500820
2.987493
3.496541
4.010567
4.514507
4.999751
5.458439
5.874485
6.228075
6.507035
6.710663
6.843796
6.902876
6.862048
6.681395
6.339219
5.851329
5.260259
4.616894
3.964096
3.318653
2.669080
1.998939
1.306853
0.601383
-0.112170
-0.831841
-1.548514
-2.238653
-2.865685
-3.391218
-3.793603
-4.076703
-4.256972
-4.344130
-4.335539
-4.224418
-4.011052
-3.707554
-3.333218
-2.907280
-2.446882
-1.968863
-1.488929
-1.020412
-0.574429
-0.155836
0.236982
0.603436
0.936214
1.218673
1.421150
1.511759
1.476793
1.326711
1.081575
0.755003
0.354542
-0.110043
-0.622051
-1.156789
-1.688150
-2.197355
-2.671433
-3.095006
-3.444939
-3.692479
-3.811607
-3.783893
-3.599374
-3.263603
-2.806677
-2.283177
-1.761623
-1.307395
-0.967806
-0.766061
-0.700794
-0.747151
-0.862276
-0.997845
-1.113797
-1.184518
-1.195508
-1.135861
-0.994677
-0.766100
-0.459747
-0.107611
0.241684
0.540569
0.756375
0.869857
0.867996
0.744751
0.509490
0.190836
-0.172469
-0.544700
-0.900157
-1.224866
-1.511749
-1.750432
-1.922366
-2.008131
-2.002890
-1.922304
-1.787867
-1.615550
-1.422555
-1.229058
-1.048840
-0.886926
-0.743409
-0.611637
-0.479103
-0.340249
-0.201078
-0.065190
0.072307
0.210093
0.327104
0.387117
0.357814
0.231765
0.033450
-0.194995
-0.417498
-0.613880
-0.771124
-0.876582
-0.921129
-0.904747
-0.841966
-0.762922
-0.705494
-0.703842
-0.780857
-0.944152
-1.183748
-1.472231
-1.769451
-2.033562
-2.230792
-2.337257
-2.335827
-2.211748
-1.952655
-1.555693
-1.035955
-0.424693
0.240672
0.917270
1.554576
2.104465
2.532259
2.820817
2.976459
3.031390
3.027497
2.994884
2.945404
2.871241
2.743931
2.528719
2.206131
1.777404
1.261603
0.698451
0.141749
-0.357977
-0.761045
-1.038781
-1.178218
-1.182825
-1.062533
-0.825265
-0.479049
-0.042055
0.448046
0.938316
1.375887
1.719143
1.944387
2.052436
2.069998
2.042725
2.021223
2.043286
2.120684
2.238457
2.364861
2.464442
2.510371
2.494235
2.429871
2.344860
2.259968
2.175898
2.081845
1.968859
1.832501
1.672704
1.492912
1.295799
1.085079
0.876337
0.701678
0.597050
0.583103
0.656533
0.794402
0.964715
1.138754
1.300841
1.449022
1.588569
1.727022
1.869820
2.012221
2.133912
2.204315
2.195447
2.094661
1.912760
1.682904
1.448506
1.244863
1.087726
0.977274
0.903627
0.846826
0.787013
0.722119
0.669081
0.646668
0.660036
0.696132
0.726578
0.718145
0.645535
0.493940
0.255377
-0.066926
-0.450064
-0.853592
-1.233308
-1.554709
-1.800093
-1.970810
-2.082576
-2.154337
-2.196709
-2.206360
-2.172650
-2.090517
-1.959474
-1.771059
-1.510680
-1.170369
-0.750493
-0.256670
0.296250
0.881383
1.462468
1.993663
2.424011
2.718947
2.877552
2.921926
2.873368
2.739532
2.519832
2.223254
1.878472
1.520093
1.167376
0.822558
0.485846
0.169386
-0.099435
-0.291803
-0.396002
-0.420528
-0.387150
-0.324136
-0.256520
-0.195398
-0.136397
-0.065407
0.036791
0.183187
0.364184
0.550192
0.712007
0.830205
0.889322
0.880233
0.811651
0.706867
0.584118
0.442321
0.265737
0.040736
-0.231374
-0.528412
-0.809407
-1.032646
-1.174560
-1.229108
-1.200987
-1.112754
-1.013463
-0.963482
-1.008035
-1.168695
-1.441480
-1.789325
-2.151251
-2.468442
-2.700646
-2.831995
-2.875045
-2.860842
-2.813057
-2.731883
-2.603670
-2.419089
-2.181620
-1.907109
-1.614234
-1.314958
-1.019815
-0.745255
-0.507778
-0.315516
-0.169317
-0.068668
-0.016341
-0.019359
-0.077850
-0.175231
-0.289765
-0.405581
-0.509219
-0.590411
-0.650037
-0.702285
-0.766512
-0.857177
-0.974212
-1.098769
-1.206305
-1.279328
-1.307846
-1.292778
-1.245236
-1.175114
-1.087645
-0.988259
-0.878169
-0.750206
-0.598664
-0.424309
-0.228828
-0.014799
0.210766
0.436729
0.651106
0.846719
1.025915
1.193614
1.345096
1.472975
1.579930
1.670278
1.743510
1.804387
1.864977
1.940222
2.046898
2.192802
2.364230
2.529217
2.647405
2.679822
2.601753
2.409362
2.113660
1.731794
1.289822
0.833580
0.421013
0.091852
-0.148596
-0.314242
-0.425398
-0.514522
-0.616327
-0.748843
-0.922089
-1.146728
-1.420203
-1.727986
-2.064075
-2.431671
-2.828038
-3.243313
-3.664348
-4.070468
-4.436075
-4.739730
-4.964398
-5.093633
-5.112367
-5.012415
-4.799355
-4.491554
-4.111989
-3.683595
-3.228608
-2.768433
-2.324212
-1.912343
-1.537665
-1.199133
-0.900700
-0.649710
-0.449154
-0.295358
-0.181590
-0.103657
-0.056795
-0.023019
0.028278
0.119336
0.255573
0.439020
0.669117
0.935816
1.228707
1.539115
1.845724
2.112805
2.307012
2.407005
2.399721
2.282058
2.068782
1.794063
1.504565
1.247318
1.056824
0.948354
0.918925
0.952072
1.026988
1.127074
1.241924
1.367761
1.503882
1.638028
1.734366
1.748497
1.657768
1.469354
1.206608
0.897913
0.572610
0.255302
-0.043885
-0.331106
-0.618534
-0.912014
-1.203949
-1.477651
-1.721077
-1.934591
-2.122678
-2.282467
-2.404287
-2.475556
-2.482860
-2.417833
-2.278562
-2.067147
-1.795968
-1.489746
-1.172360
-0.859762
-0.562975
-0.282575
-0.010218
0.250348
0.479741
0.660365
0.773472
0.789971
0.687741
0.463851
0.121457
-0.329268
-0.855094
-1.407444
-1.938988
-2.404024
-2.764452
-3.003926
-3.124852
-3.134895
-3.042683
-2.860576
-2.604411
-2.290796
-1.939413
-1.573722
-1.212978
-0.870821
-0.563655
-0.307606
-0.108890
0.035313
0.137383
0.221426
0.313372
0.432607
0.593709
0.803277
1.054535
1.335018
1.633750
1.933611
2.211776
2.452461
2.647755
2.793727
2.885828
2.906034
2.829754
2.654377
2.401531
2.088843
1.720901
1.306869
0.865935
0.417926
-0.025644
-0.469767
-0.930094
-1.411666
-1.897013
-2.350371
-2.725882
-2.980694
-3.092147
-3.064338
-2.922154
-2.701580
-2.438719
-2.164034
-1.910644
-1.718950
-1.617785
-1.611938
-1.694951
