EVENT_NAME: L_AQUILA
EVENT_ID: IT-2009-0009
EVENT_DATE_YYYYMMDD: 20090406
EVENT_TIME_HHMMSS: 013240
EVENT_LATITUDE_DEGREE: 42.3420
EVENT_LONGITUDE_DEGREE: 13.3800
EVENT_DEPTH_KM: 8.3
HYPOCENTER_REFERENCE: INGV-CNT_Seismic_Bulletin
MAGNITUDE_W: 6.1
MAGNITUDE_W_REFERENCE: INGV-CNT_Seismic_Bulletin
MAGNITUDE_L: 
MAGNITUDE_L_REFERENCE: 
FOCAL_MECHANISM: Normal faulting
NETWORK: IT
STATION_CODE: MMP
STATION_NAME: 
STATION_LATITUDE_DEGREE: 42.248547
STATION_LONGITUDE_DEGREE: 12.748537
STATION_ELEVATION_M: 475
LOCATION: 
SENSOR_DEPTH_M: 0.0
VS30_M/S: 
SITE_CLASSIFICATION_EC8: B (inferred from geology)
MORPHOLOGIC_CLASSIFICATION: 
EPICENTRAL_DISTANCE_KM: 53.1
EARTHQUAKE_BACKAZIMUTH_DEGREE: 258.9
DATE_TIME_FIRST_SAMPLE_YYYYMMDD_HHMMSS: 20090406_013237.000
DATE_TIME_FIRST_SAMPLE_PRECISION: seconds
SAMPLING_INTERVAL_S: 0.005000
NDATA: 20400
DURATION_S: 102.000
STREAM: HNZ
UNITS: cm/s^2
INSTRUMENT: sensor = Unknown [Unknown] | digitizer = Etna [Kinemetrics]
INSTRUMENT_ANALOG/DIGITAL: D
INSTRUMENTAL_FREQUENCY_HZ: 206.000
INSTRUMENTAL_DAMPING: 0.700000
FULL_SCALE_G: 1.0
N_BIT_DIGITAL_CONVERTER: 18
PGA_CM/S^2: 5.127604
TIME_PGA_S: 24.520000
BASELINE_CORRECTION: BASELINE NOT REMOVED
FILTER_TYPE: 
FILTER_ORDER: 
LOW_CUT_FREQUENCY_HZ: 
HIGH_CUT_FREQUENCY_HZ: 
LATE/NORMAL_TRIGGERED: NT
DATABASE_VERSION: 0.5
HEADER_FORMAT: DYNA 1.2
DATA_TYPE: ACCELERATION
PROCESSING: converted to cm/s^2
DATA_TIMESTAMP_YYYYMMDD_HHMMSS: 20211011_160301.760
DATA_LICENSE: CC-BY3_0-IT (http://creativecommons.org/licenses/by/3.0/deed.en)
DATA_CITATION: Luzi L, Pacor F, Puglia R (2019). Italian Accelerometric Archive v 3.0 - Istituto Nazionale di Geofisica e Vulcanologia, Dipartimento della Protezione Civile Nazionale. doi: 10.13127/itaca.3.1
DATA_CREATOR: ITACA working group
ORIGINAL_DATA_MEDIATOR_CITATION: data obtained within the DPC-INGV data exchange agreements
ORIGINAL_DATA_MEDIATOR: Archive of Italian Department of Civil Protection
ORIGINAL_DATA_CREATOR_CITATION: Presidency Of Counsil Of Ministers-Civil Protection Department. (1972). Italian Strong Motion Network. Presidency of Counsil of Ministers - Civil Protection Department. https://doi.org/10.7914/SN/IT http://www.fdsn.org/networks/detail/IT/
ORIGINAL_DATA_CREATOR: network: IT (Italian Strong Motion Network (RAN)); owner: Presidency of Counsil of Ministers - Civil Protection Department (PCM - DPC)
USER1: 
USER2: 
USER3: 
USER4: 
USER5: 
[...]
0.092216
0.201910
0.303418
0.439307
0.597884
0.755291
0.879018
0.947313
0.957838
0.901705
0.800197
0.671558
0.569583
0.524443
0.483278
0.415684
0.318621
0.281900
0.348091
0.447025
0.545726
0.625716
0.698923
0.723715
0.624547
0.440476
0.258277
0.136889
0.050116
-0.040866
-0.106121
-0.135591
-0.165061
-0.258850
-0.401990
-0.500691
-0.489699
-0.345155
-0.110799
0.156770
0.402821
0.553445
0.570285
0.490763
0.374286
0.255470
0.132679
0.001702
-0.133018
-0.269375
-0.374625
-0.464205
-0.566648
-0.651082
-0.664881
-0.608280
-0.529460
-0.463737
-0.442219
-0.478004
-0.566180
-0.666284
-0.761945
-0.851524
-0.919820
-0.965194
-0.944846
-0.815037
-0.600562
-0.351938
-0.078990
0.179924
0.392295
0.564905
0.677873
0.726522
0.700093
0.600690
0.444453
0.233251
0.019477
-0.112436
-0.133018
-0.077821
-0.011630
0.030704
0.053625
0.037720
0.002403
-0.021454
0.000766
0.099233
0.244244
0.414749
0.530757
0.539645
0.459422
0.320258
0.195361
0.135719
0.168230
0.271375
0.412410
0.571454
0.693544
0.740556
0.704069
0.609812
0.510409
0.444687
0.424338
0.442581
0.439541
0.373117
0.281666
0.149519
-0.038761
-0.250664
-0.452276
-0.601965
-0.670495
-0.636814
-0.510515
-0.333695
-0.182603
-0.085305
-0.031745
-0.024962
-0.048117
-0.098403
-0.152665
-0.230316
-0.359890
-0.497885
-0.605240
-0.636814
-0.588633
-0.502796
-0.404329
-0.332759
-0.321533
-0.384215
-0.525016
-0.706513
-0.896431
-1.044482
-1.126343
-1.126811
-0.992559
-0.762880
-0.481279
-0.232655
-0.104016
-0.035487
0.029768
0.136655
0.307628
0.485617
0.635306
0.747806
0.800899
0.785696
0.720208
0.657057
0.642088
0.680213
0.713424
0.729095
0.755291
0.736112
0.639750
0.481173
0.316048
0.199571
0.104846
0.024388
-0.040866
-0.130445
-0.251132
-0.405966
-0.591908
-0.794923
-0.949758
-0.971509
-0.890583
-0.787673
-0.739258
-0.751186
-0.841467
-1.037700
-1.258724
-1.433205
-1.511090
-1.515300
-1.508751
-1.493081
-1.455659
-1.391573
-1.302929
-1.191598
-1.021561
-0.752589
-0.432396
-0.100976
0.170335
0.326573
0.407732
0.390892
0.255237
0.058536
-0.103548
-0.184474
-0.214879
-0.218388
-0.181434
-0.100508
-0.024962
-0.007654
-0.072441
-0.202016
-0.377900
-0.612022
-0.838426
-0.956306
-0.935724
-0.790947
-0.587698
-0.365971
-0.178393
-0.085071
-0.078288
-0.126002
-0.152431
-0.109396
0.014097
0.160044
0.204951
0.126832
-0.007420
-0.105186
-0.134188
-0.111033
-0.053262
0.013162
0.113032
0.233719
0.335928
0.400715
0.420128
0.470180
0.586189
0.733539
0.902640
1.104486
1.300017
1.412518
1.398250
1.264466
1.064024
0.812360
0.517894
0.229977
0.000064
-0.140269
-0.183772
-0.148689
-0.058408
0.094555
0.309265
0.544791
0.755057
0.906851
0.949184
0.832474
0.544089
0.168464
-0.151496
-0.343752
-0.401756
-0.353809
-0.243414
-0.136761
-0.046947
0.076078
0.241671
0.405159
0.434162
0.272077
0.003806
-0.261657
-0.399418
-0.394506
-0.314984
-0.218388
-0.158746
-0.150092
-0.192660
-0.242712
-0.241309
-0.144947
0.056431
0.295933
0.565841
0.855629
1.133021
1.397081
1.605476
1.759374
1.873044
1.895965
1.781594
1.579514
1.332995
1.048821
0.729095
0.375222
0.066723
-0.144245
-0.231251
-0.198741
-0.079458
0.121920
0.337799
0.515321
0.625015
0.638580
0.596948
0.571688
0.623611
0.750145
0.882994
0.904044
0.734240
0.432758
0.128235
-0.049988
-0.027301
0.203080
0.559526
0.936320
1.228681
1.346093
1.305631
1.136295
0.881825
0.591101
0.293594
0.014565
-0.232187
-0.430291
-0.589569
-0.680552
-0.693649
-0.675406
-0.664179
-0.674704
-0.702537
-0.778785
-0.937829
-1.184582
-1.474136
-1.721356
-1.870811
-1.902386
-1.818888
-1.661013
-1.457997
-1.234634
-1.011504
-0.776680
-0.569689
-0.408072
-0.280368
-0.173247
-0.071974
0.000298
0.049648
0.099233
0.157004
0.189982
0.208225
0.267399
0.413346
0.669688
0.950120
1.174887
1.341649
1.466312
1.540923
1.530865
1.461634
1.355683
1.223770
1.069169
0.890478
0.726522
0.552743
0.332888
0.088006
-0.125066
-0.269142
-0.315218
-0.246922
-0.147987
-0.098871
-0.126704
-0.185175
-0.221194
-0.239672
-0.234292
-0.202717
-0.190789
-0.266335
-0.411814
-0.600094
-0.792350
-0.931046
-1.016182
-1.003786
-0.933853
-0.852694
-0.697626
-0.464205
-0.178861
0.082393
0.277222
0.407498
0.448195
0.394400
0.262020
0.110460
-0.037592
-0.163892
-0.231954
-0.238970
-0.176288
-0.020284
0.216411
0.446791
0.608876
0.697988
0.727926
0.673196
0.495440
0.185772
-0.251366
-0.758670
-1.281879
-1.727203
-1.976762
-1.999918
-1.836663
-1.554126
-1.193937
-0.808021
-0.420000
-0.037358
0.292425
0.540113
0.666179
0.678341
0.628523
0.579173
0.578237
0.615425
0.678809
0.728627
0.771429
0.820311
0.886736
1.010229
1.144715
1.255812
1.323406
1.339310
1.342819
1.320600
1.231488
1.066362
0.814464
0.497779
0.193958
-0.058876
-0.256511
-0.429121
-0.577874
-0.676108
-0.714699
-0.671898
-0.585125
-0.454849
-0.282005
-0.118050
-0.002509
0.016904
-0.019115
-0.035487
0.008250
0.083562
0.191385
0.360253
0.585721
0.842063
1.031279
1.143780
1.224705
1.303993
1.382112
1.420938
1.413921
1.393573
1.351005
1.234295
1.073847
0.897027
0.709682
0.485383
0.187409
-0.147754
-0.506772
-0.855734
-1.155813
-1.414494
-1.614001
-1.726034
-1.719719
-1.584765
-1.386895
-1.220133
-1.098043
-1.000277
-0.910230
-0.803343
-0.646170
-0.422339
-0.185175
0.014565
0.132445
0.175948
0.198168
0.214774
0.241203
0.312773
0.431823
0.552977
0.635774
0.664542
0.706408
0.846975
1.135126
1.561739
2.006127
2.345967
2.530037
2.567460
2.488172
2.367017
2.250774
2.153009
2.108102
2.084012
2.036065
1.926371
1.782295
1.681489
1.648979
1.649447
1.628163
1.587934
1.513324
1.384919
1.193364
0.948249
0.690504
0.418959
0.174545
-0.002509
-0.138866
-0.248092
-0.338607
-0.400119
-0.440582
-0.500691
-0.557059
-0.567116
-0.499990
-0.389360
-0.297676
-0.200378
-0.053496
0.132913
0.259914
0.259681
0.167996
0.045205
-0.052327
-0.080861
-0.058174
-0.038060
-0.081797
-0.229380
-0.428186
-0.650614
-0.849653
-1.002617
-1.145756
-1.264806
-1.399525
-1.551319
-1.689547
-1.761351
-1.693757
-1.510154
-1.222705
-0.885438
-0.600562
-0.412515
-0.365971
-0.419766
-0.490166
-0.533669
-0.535541
-0.512152
-0.461398
-0.406902
-0.332759
-0.210202
-0.071506
0.057133
0.158875
0.258745
0.351365
0.391594
0.384577
0.320258
0.198870
0.040995
-0.179094
-0.415556
-0.584658
-0.644533
-0.576705
-0.445260
-0.295805
-0.077353
0.236292
0.571454
0.824054
0.966258
1.006019
0.959475
0.832942
0.628757
0.391126
0.146245
-0.098169
-0.301184
-0.391933
-0.349599
-0.218622
-0.039697
0.150454
0.282836
0.274883
0.135486
-0.061916
-0.294635
-0.547469
-0.779954
-0.965662
-1.050563
-1.003318
-0.783463
-0.390764
0.055730
0.439073
0.668752
0.758565
0.722780
0.546194
0.307862
0.106016
-0.001339
-0.059811
-0.130679
-0.219791
-0.327146
-0.409942
-0.426782
-0.417427
-0.417193
-0.459059
-0.579980
-0.712828
-0.786737
-0.774575
-0.669091
-0.551445
-0.515894
-0.618571
-0.846145
-1.112544
-1.286323
-1.255918
-1.032788
-0.706981
-0.412515
-0.291829
-0.421637
-0.726628
-1.058048
-1.312986
-1.437883
-1.457062
-1.377306
-1.214754
-0.994898
-0.719611
-0.406902
-0.078522
0.222960
0.487956
0.668518
0.786866
0.928134
1.059346
1.149861
1.125536
0.984268
0.814464
0.653081
0.527483
0.385746
0.180392
-0.110565
-0.469116
-0.792350
-0.976888
-1.006592
-0.938297
-0.815739
-0.686633
-0.556825
-0.416725
-0.239905
0.004508
0.322363
0.701964
1.086945
1.471925
1.817847
2.062494
2.201892
2.228321
2.102021
1.802644
1.407606
1.009294
0.700795
0.498013
0.329379
0.160512
-0.000638
-0.107758
-0.172780
-0.238970
-0.301418
-0.335332
-0.336501
-0.341647
-0.347260
-0.332526
-0.347494
-0.429823
-0.552381
-0.677979
-0.768728
-0.820183
-0.860178
-0.880058
-0.826264
-0.666284
-0.443389
-0.266569
-0.247858
-0.408305
-0.696456
-1.054306
-1.428060
-1.739365
-1.934897
-2.016056
-2.024008
-1.994772
-1.939340
-1.871746
-1.760415
-1.600435
-1.392041
-1.124706
-0.822756
-0.506305
-0.257915
-0.118283
-0.035487
0.037253
0.161448
0.365866
0.613086
0.860306
1.083203
1.264934
1.408541
1.540688
1.678215
1.831178
1.945550
1.943445
1.807555
1.547705
1.228915
0.867089
0.427846
-0.108460
-0.737387
-1.382685
-2.007636
-2.588849
-3.039319
-3.261045
-3.193451
-2.875362
-2.336015
-1.576579
-0.729434
0.069295
0.690270
1.053265
1.232891
1.285984
1.283177
1.282475
1.256280
1.157345
0.956201
0.660332
0.323766
-0.003678
-0.326678
-0.620910
-0.850121
-0.972211
-0.978058
-0.947653
-0.937128
-0.950693
-0.975719
-1.014778
-1.079800
-1.138740
-1.106463
-0.975251
-0.826498
-0.678680
-0.545364
-0.423976
-0.311241
-0.247390
-0.241776
-0.301418
-0.365738
-0.360124
-0.254407
-0.024260
0.290554
0.642556
0.958306
1.167636
1.260256
1.230318
1.079694
0.815166
0.498013
0.218750
0.033510
-0.071506
-0.107525
-0.049988
0.076546
0.233017
0.345284
0.393933
0.393933
0.320258
0.198168
0.069997
0.008484
0.042164
0.130106
0.241203
0.337332
0.442815
0.572857
0.647936
0.627821
0.543387
0.390658
0.130106
-0.252536
-0.713296
-1.190195
-1.681127
-2.154284
-2.560549
-2.878169
-3.102235
-3.204444
-3.112058
-2.875129
-2.578090
-2.238718
-1.873618
-1.503372
-1.187388
-0.950225
-0.772938
-0.646170
-0.544896
-0.440816
-0.299079
-0.119921
0.112331
0.414281
0.813295
1.379071
2.042847
2.629206
3.027285
3.246906
3.322218
3.305378
3.220009
3.007404
2.643239
2.135000
1.540923
0.925561
0.322831
-0.233357
-0.713764
-1.055709
-1.214052
-1.207269
-1.076759
-0.872808
-0.617402
-0.330654
-0.027535
0.301313
0.639984
0.947313
1.122729
1.089751
0.878550
0.586891
0.277690
-0.053028
-0.397780
-0.721950
-1.032320
-1.334972
-1.645342
-1.966939
-2.248073
-2.458573
-2.549790
-2.527336
-2.429103
-2.261873
-2.026347
-1.731179
-1.451916
-1.249135
-1.098277
-0.980865
-0.902278
-0.811763
-0.644533
-0.348196
0.070465
0.551574
1.046950
1.521744
1.966366
2.399995
2.816551
3.191942
3.531315
3.850573
4.170064
4.442311
4.589661
4.586620
4.447690
4.171702
3.771752
3.292982
2.775153
2.279309
1.825799
1.430527
1.114544
0.901471
0.805576
0.793414
0.818674
0.855395
0.886502
0.846741
0.704303
0.475326
0.192789
-0.104484
-0.406434
-0.733878
-1.090091
-1.420809
-1.709428
-1.992667
-2.281753
-2.522191
-2.676090
-2.739707
-2.720762
-2.654338
-2.569670
-2.478220
-2.374607
-2.237081
-2.051139
-1.798306
-1.436947
-1.020626
-0.643597
-0.332526
-0.068465
0.174077
0.390658
0.581979
0.758565
0.914569
1.024263
1.113140
1.187984
1.223302
1.219560
1.172314
1.115245
1.013270
0.838789
0.627587
0.405393
0.193724
-0.001807
-0.167400
-0.305160
-0.422572
-0.590037
-0.840531
-1.127045
-1.388299
-1.557634
-1.595290
-1.452384
-1.155112
-0.781826
-0.398014
-0.047181
0.254769
0.488424
0.668518
0.836918
0.966258
1.013971
0.993857
0.888841
0.708981
0.528653
0.407030
0.401885
0.548065
0.803472
1.099341
1.327382
1.451811
1.527357
1.607113
1.734348
1.872810
1.965430
1.948824
1.815742
1.567586
1.244118
0.933280
0.670389
0.520700
0.466906
0.454744
0.464567
0.480705
0.500820
0.535669
0.628289
0.753653
0.873170
0.965790
0.981695
0.914569
0.782422
0.610280
0.447727
0.309967
0.159109
-0.016776
-0.212307
-0.463035
-0.733878
-0.945781
-1.051265
-1.041909
-0.964025
-0.850588
-0.733878
-0.572027
-0.339074
-0.096064
0.116073
0.242841
0.266229
0.161448
-0.093023
-0.437307
-0.751186
-0.983905
-1.181541
-1.321173
-1.371459
-1.311349
-1.147393
-0.928474
-0.670261
-0.408539
-0.155939
0.087539
0.290086
0.419660
0.436500
0.324000
0.113734
-0.119921
-0.288087
-0.322000
-0.220726
-0.005549
0.261084
0.483746
0.664776
0.826627
0.990349
1.159450
1.285984
1.348432
1.359425
1.322003
1.203655
1.009528
0.738918
0.385980
-0.028236
-0.465374
-0.865090
-1.238610
-1.626631
-2.060027
-2.537160
-3.050311
-3.567439
-4.063984
-4.519132
-4.862480
-5.025500
-4.965158
-4.751851
-4.434464
-4.030304
-3.551769
-3.011720
-2.471671
-1.924372
-1.385024
-0.840063
-0.282941
0.257342
0.800431
1.301187
1.701604
1.940171
1.988585
1.859011
1.579046
1.222366
0.847443
0.498013
0.198168
-0.037592
-0.206459
-0.323872
-0.409942
-0.491804
-0.566648
-0.632137
-0.714699
-0.809658
-0.881228
-0.923328
-0.946249
-0.938765
-0.889180
-0.796794
-0.646638
-0.393103
-0.028002
0.384109
0.778446
1.116882
1.422107
1.717742
1.938767
2.026475
1.957478
1.744172
1.431930
1.060515
0.697754
0.407732
0.193022
0.074675
0.081458
0.187409
0.399312
0.753887
1.240142
1.780191
2.265743
2.585937
2.695397
2.634820
2.492381
2.361872
2.284220
2.254049
2.216627
2.104828
1.841469
1.418599
0.893519
0.315814
-0.269142
-0.863453
-1.424785
-1.884844
-2.164575
-2.205973
-2.055115
-1.768836
-1.407477
-1.027643
-0.669091
-0.374392
-0.121090
0.135018
0.378028
0.583616
0.724885
0.823586
0.917376
1.047183
1.283411
1.669093
2.241185
2.925543
3.622999
4.261047
4.751044
5.060011
5.127604
4.943534
4.573288
4.092413
3.579496
3.060263
2.549918
2.041912
1.508646
0.941934
0.382004
-0.093725
-0.458592
-0.714699
-0.891285
-0.984841
-0.999810
-0.997471
-0.979461
-0.933385
-0.847314
-0.735983
-0.605941
-0.462801
-0.397079
-0.439880
-0.572495
-0.785334
-1.000511
-1.148563
-1.180839
-1.062024
-0.838426
-0.555421
-0.323170
-0.199910
-0.144479
-0.127171
-0.089749
-0.026365
0.111863
0.358382
0.677873
0.994325
1.253941
1.477539
1.678917
1.887078
2.077697
2.229023
2.305037
2.268316
2.178503
2.079100
1.957712
1.820186
1.735284
1.762415
1.891755
2.066470
2.225514
2.336378
2.395785
2.397423
2.328659
2.180842
1.961454
1.651084
1.220261
0.717401
0.209161
-0.252302
-0.604772
-0.826966
-0.920287
-0.898302
-0.819949
-0.699730
-0.564543
-0.480343
-0.514023
-0.697859
-0.988115
-1.340352
-1.743342
-2.198255
-2.640772
-3.002364
-3.250520
-3.371908
-3.335422
-3.095452
-2.691526
-2.214627
-1.741470
-1.268080
-0.767090
-0.228211
0.322831
0.850249
1.348666
1.794692
2.235572
2.656805
2.996178
3.263512
3.380690
3.310758
3.081313
2.738666
2.321409
1.822524
1.279669
0.697286
0.142035
-0.296273
-0.599860
-0.722184
-0.685464
-0.561736
-0.390764
-0.236631
-0.157109
-0.142140
-0.186345
-0.289958
-0.467713
-0.712127
-0.946717
-1.163766
-1.352280
-1.478112
-1.513897
-1.439286
-1.324447
-1.223407
-1.152773
-1.138272
-1.219431
-1.412857
-1.659609
-1.882037
-2.044590
-2.176270
-2.326426
-2.507456
-2.695970
-2.837005
-2.882145
-2.830690
-2.679598
-2.474945
-2.259534
-2.020266
-1.760883
-1.473902
-1.192300
-0.906020
-0.590271
-0.277562
0.041229
0.340606
0.629926
0.911060
1.112672
1.223770
1.229149
1.125770
0.898664
0.501521
-0.010461
-0.566648
-1.102955
-1.521615
-1.772344
-1.826372
-1.715509
-1.553190
-1.418470
-1.353917
-1.364910
-1.442561
-1.547109
-1.623591
-1.707557
-1.849059
-2.037807
-2.229596
-2.398230
-2.525465
-2.550024
-2.405246
-2.120604
-1.809065
-1.515300
-1.218730
-0.936894
-0.728265
-0.612256
-0.513321
-0.361060
-0.174884
-0.000404
0.145543
0.271375
0.372649
0.458486
0.558590
0.687697
0.826627
0.958774
1.089985
1.236166
1.431697
1.638688
1.801240
1.889651
1.941340
2.014547
2.086117
2.123773
2.088923
1.985779
1.775980
1.438479
1.020520
0.538476
0.045907
-0.400587
-0.740193
-0.918884
-0.987648
-0.998406
-0.947886
-0.873510
-0.789076
-0.703707
-0.608514
-0.451341
-0.257213
-0.059811
0.138059
0.305991
0.419660
0.476963
0.496376
0.537774
0.651912
0.843934
1.071742
1.302590
1.528059
1.699265
1.760778
1.716105
1.612726
1.472159
1.280604
1.036659
0.795052
0.577535
0.377560
0.222726
0.114202
0.028832
-0.084837
-0.224235
-0.323170
-0.360124
-0.341179
-0.282239
-0.228913
-0.239905
-0.345857
-0.527588
-0.735983
-0.920287
-1.036296
-1.088688
-1.083542
-1.010568
-0.913505
-0.840297
-0.837959
-0.892455
-0.948822
-1.020860
-1.085647
-1.094067
-1.042143
-0.951628
-0.885672
-0.846379
-0.774107
-0.687568
-0.606643
-0.535775
-0.462567
-0.398950
-0.382110
-0.385384
-0.402458
-0.424210
-0.433565
-0.443623
-0.445961
-0.394974
-0.298144
-0.173949
-0.001807
0.175247
0.314410
0.367035
0.312540
0.195829
0.016904
-0.224703
-0.494376
-0.768494
-1.065532
-1.389702
-1.679724
-1.898176
-2.030557
-2.060962
-1.990562
-1.828945
-1.624292
-1.390872
-1.091494
-0.711893
-0.294168
0.116775
0.518127
0.899834
1.263999
1.607815
1.926605
2.218966
2.415900
2.463145
2.389003
2.206102
1.948356
1.671198
1.369950
1.053966
0.722078
0.382940
0.081224
-0.164359
-0.317089
-0.358487
-0.263294
-0.032212
0.259914
0.582447
0.897963
1.200848
1.517534
1.832581
2.120966
2.330998
2.465016
2.565822
2.646982
2.702647
2.738198
2.760652
2.773749
2.759482
2.671306
2.547813
2.413561
2.276268
2.133362
1.962624
1.796797
1.625824
1.450408
1.258619
0.996664
0.663138
0.256406
-0.206927
-0.684528
-1.139441
-1.523720
-1.840171
-2.072657
-2.202231
-2.237081
-2.139783
-1.897474
-1.517873
-1.054072
-0.579512
-0.147286
0.241437
0.588528
0.870130
1.099809
1.213946
1.202018
1.082969
0.870364
0.659396
0.454510
0.270205
0.089877
-0.141673
-0.416491
-0.747678
-1.109971
-1.487701
-1.893732
-2.288536
-2.609197
-2.819697
-2.907639
-2.900155
-2.831859
-2.701349
-2.532248
-2.340459
-2.137444
-1.947526
-1.796902
-1.723461
-1.709662
-1.697734
-1.663118
-1.594121
-1.485362
-1.335206
-1.131723
-0.897834
-0.694819
-0.522209
-0.367375
-0.253471
-0.145180
-0.038060
0.064150
0.171739
0.258277
0.309031
0.353002
0.462930
0.644427
0.894220
1.229851
1.665351
2.195343
2.746150
3.254858
3.635161
3.817361
3.804497
3.649194
3.427468
3.169723
2.875725
2.527231
2.125176
1.712597
1.333931
1.010463
0.719506
0.460591
0.231380
0.010823
-0.211371
-0.463971
-0.711425
-0.904851
-1.045886
-1.157918
-1.233230
-1.215923
-1.093365
-0.851056
-0.525016
-0.213710
0.009420
0.058302
-0.074078
-0.347494
-0.706747
-1.070912
-1.398122
-1.660779
-1.866835
-1.995941
-2.045760
-2.050905
-2.007636
-1.945421
-1.857011
-1.752697
-1.654230
-1.545706
-1.444432
-1.360232
-1.310881
-1.287960
-1.312285
-1.338480
-1.286323
-1.178501
-1.012440
-0.811997
-0.606643
-0.424678
-0.281070
-0.169739
-0.089047
-0.022857
0.014565
0.030236
0.025090
0.005210
-0.004379
0.019945
0.078183
0.155366
0.252196
0.369842
0.521636
0.683954
0.832006
0.944273
1.015141
1.032683
0.974678
0.885566
0.793180
0.711553
0.672728
0.676704
0.692375
0.689568
0.655186
0.633435
0.645129
0.661501
0.678341
0.660800
0.597884
0.506433
0.378262
0.227872
0.056899
