EVENT_NAME: L_AQUILA
EVENT_ID: IT-2009-0009
EVENT_DATE_YYYYMMDD: 20090406
EVENT_TIME_HHMMSS: 013240
EVENT_LATITUDE_DEGREE: 42.3420
EVENT_LONGITUDE_DEGREE: 13.3800
EVENT_DEPTH_KM: 8.3
HYPOCENTER_REFERENCE: INGV-CNT_Seismic_Bulletin
MAGNITUDE_W: 6.1
MAGNITUDE_W_REFERENCE: INGV-CNT_Seismic_Bulletin
MAGNITUDE_L: 
MAGNITUDE_L_REFERENCE: 
FOCAL_MECHANISM: Normal faulting
NETWORK: IT
STATION_CODE: MMP
STATION_NAME: 
STATION_LATITUDE_DEGREE: 42.248547
STATION_LONGITUDE_DEGREE: 12.748537
STATION_ELEVATION_M: 475
LOCATION: 
SENSOR_DEPTH_M: 0.0
VS30_M/S: 
SITE_CLASSIFICATION_EC8: B (inferred from geology)
MORPHOLOGIC_CLASSIFICATION: 
EPICENTRAL_DISTANCE_KM: 53.1
EARTHQUAKE_BACKAZIMUTH_DEGREE: 258.9
DATE_TIME_FIRST_SAMPLE_YYYYMMDD_HHMMSS: 
DATE_TIME_FIRST_SAMPLE_PRECISION: 
SAMPLING_INTERVAL_S: 
NDATA: 105
DURATION_S: 
STREAM: HNN
UNITS: cm/s^2
INSTRUMENT: sensor = Unknown [Unknown] | digitizer = Etna [Kinemetrics]
INSTRUMENT_ANALOG/DIGITAL: D
INSTRUMENTAL_FREQUENCY_HZ: 206.000
INSTRUMENTAL_DAMPING: 0.700000
FULL_SCALE_G: 1.0
N_BIT_DIGITAL_CONVERTER: 18
PGA_CM/S^2: 6.902876
TIME_PGA_S: 
BASELINE_CORRECTION: BASELINE REMOVED
FILTER_TYPE: BUTTERWORTH
FILTER_ORDER: 2
LOW_CUT_FREQUENCY_HZ: 0.030
HIGH_CUT_FREQUENCY_HZ: 40.000
LATE/NORMAL_TRIGGERED: NT
DATABASE_VERSION: 0.5
HEADER_FORMAT: DYNA 1.2
DATA_TYPE: ACCELERATION RESPONSE SPECTRUM
PROCESSING: manual (Paolucci et al., 2011)
DATA_TIMESTAMP_YYYYMMDD_HHMMSS: 20211011_160302.602
DATA_LICENSE: CC-BY3_0-IT (http://creativecommons.org/licenses/by/3.0/deed.en)
DATA_CITATION: Luzi L, Pacor F, Puglia R (2019). Italian Accelerometric Archive v 3.0 - Istituto Nazionale di Geofisica e Vulcanologia, Dipartimento della Protezione Civile Nazionale. doi: 10.13127/itaca.3.1
DATA_CREATOR: ITACA working group
ORIGINAL_DATA_MEDIATOR_CITATION: data obtained within the DPC-INGV data exchange agreements
ORIGINAL_DATA_MEDIATOR: Archive of Italian Department of Civil Protection
ORIGINAL_DATA_CREATOR_CITATION: Presidency Of Counsil Of Ministers-Civil Protection Department. (1972). Italian Strong Motion Network. Presidency of Counsil of Ministers - Civil Protection Department. https://doi.org/10.7914/SN/IT http://www.fdsn.org/networks/detail/IT/
ORIGINAL_DATA_CREATOR: network: IT (Italian Strong Motion Network (RAN)); owner: Presidency of Counsil of Ministers - Civil Protection Department (PCM - DPC)
USER1: 
USER2: 
USER3: 
USER4: 
USER5: 
    0.010000     6.906227
    0.020000     6.936240
    0.022000     6.939979
    0.025000     6.927357
    0.029000     6.971940
    0.030000     6.988383
    0.032000     6.939472
    0.035001     6.996728
    0.036000     7.059611
    0.040000     7.147533
    0.041999     7.367796
    0.044001     7.407571
    0.045000     7.332473
    0.046000     7.220607
    0.048001     6.848790
    0.050000     7.106574
    0.054999     6.999270
    0.059999     7.639786
    0.064998     7.725877
    0.067002     7.755241
    0.069999     7.976272
    0.075002     7.518120
    0.080000     7.793515
    0.084998     8.765991
    0.090001     9.413317
    0.095003    11.050614
    0.100000    11.189761
    0.109999    13.555652
    0.120005    14.104294
    0.130005    14.671943
    0.132996    13.804184
    0.139997    12.115812
    0.149993    13.712344
    0.160000    14.430326
    0.170010    17.546787
    0.179986    19.510643
    0.190006    18.011177
    0.200000    18.617243
    0.220022    17.886303
    0.239981    13.707875
    0.250000    15.447634
    0.260010    15.153709
    0.280034    15.815201
    0.290023    17.138723
    0.300030    17.248726
    0.320000    17.896015
    0.340020    18.744297
    0.350017    18.425127
    0.359971    18.079298
    0.379939    21.052460
    0.400000    20.620295
    0.419992    19.415628
    0.439947    19.568724
    0.450045    19.571466
    0.459982    18.591465
    0.480077    18.082987
    0.500000    17.478382
    0.550055    14.374088
    0.599880    12.433790
    0.650195    10.753202
    0.667111    10.302984
    0.699790     9.798298
    0.750188     9.589808
    0.800000     7.495378
    0.850340     7.158954
    0.900090     7.302504
    0.949668     6.619320
    1.000000     5.700920
    1.100110     7.221816
    1.200480     8.257505
    1.300390     5.831108
    1.400560     3.951129
    1.499250     4.396663
    1.600000     4.638900
    1.700680     3.681303
    1.798561     3.265443
    1.901141     3.869322
    2.000000     3.758936
    2.197802     2.466033
    2.398082     2.525740
    2.500000     2.324778
    2.597403     2.349266
    2.801121     2.435642
    3.003003     2.262697
    3.205128     1.869408
    3.401361     1.613667
    3.496503     1.478284
    3.597122     1.281496
    3.802281     1.129596
    4.000000     1.127322
    4.201681     1.202364
    4.405286     1.231019
    4.608295     1.170870
    4.807692     1.205181
    5.000000     1.239692
    5.494505     0.921028
    5.988024     0.700709
    6.493506     0.571073
    6.993007     0.473887
    7.518797     0.487649
    8.000000     0.517512
    8.474576     0.523908
    9.009009     0.492881
    9.523809     0.431233
   10.000000     0.372257
