EVENT_NAME: L_AQUILA
EVENT_ID: IT-2009-0009
EVENT_DATE_YYYYMMDD: 20090406
EVENT_TIME_HHMMSS: 013240
EVENT_LATITUDE_DEGREE: 42.3420
EVENT_LONGITUDE_DEGREE: 13.3800
EVENT_DEPTH_KM: 8.3
HYPOCENTER_REFERENCE: INGV-CNT_Seismic_Bulletin
MAGNITUDE_W: 6.1
MAGNITUDE_W_REFERENCE: INGV-CNT_Seismic_Bulletin
MAGNITUDE_L: 
MAGNITUDE_L_REFERENCE: 
FOCAL_MECHANISM: Normal faulting
NETWORK: IT
STATION_CODE: MMP
STATION_NAME: 
STATION_LATITUDE_DEGREE: 42.248547
STATION_LONGITUDE_DEGREE: 12.748537
STATION_ELEVATION_M: 475
LOCATION: 
SENSOR_DEPTH_M: 0.0
VS30_M/S: 
SITE_CLASSIFICATION_EC8: B (inferred from geology)
MORPHOLOGIC_CLASSIFICATION: 
EPICENTRAL_DISTANCE_KM: 53.1
EARTHQUAKE_BACKAZIMUTH_DEGREE: 258.9
DATE_TIME_FIRST_SAMPLE_YYYYMMDD_HHMMSS: 
DATE_TIME_FIRST_SAMPLE_PRECISION: 
SAMPLING_INTERVAL_S: 
NDATA: 105
DURATION_S: 
STREAM: HNZ
UNITS: cm/s^2
INSTRUMENT: sensor = Unknown [Unknown] | digitizer = Etna [Kinemetrics]
INSTRUMENT_ANALOG/DIGITAL: D
INSTRUMENTAL_FREQUENCY_HZ: 206.000
INSTRUMENTAL_DAMPING: 0.700000
FULL_SCALE_G: 1.0
N_BIT_DIGITAL_CONVERTER: 18
PGA_CM/S^2: 5.110544
TIME_PGA_S: 
BASELINE_CORRECTION: BASELINE REMOVED
FILTER_TYPE: BUTTERWORTH
FILTER_ORDER: 2
LOW_CUT_FREQUENCY_HZ: 0.030
HIGH_CUT_FREQUENCY_HZ: 40.000
LATE/NORMAL_TRIGGERED: NT
DATABASE_VERSION: 0.5
HEADER_FORMAT: DYNA 1.2
DATA_TYPE: ACCELERATION RESPONSE SPECTRUM
PROCESSING: manual (Paolucci et al., 2011)
DATA_TIMESTAMP_YYYYMMDD_HHMMSS: 20211011_160302.882
DATA_LICENSE: CC-BY3_0-IT (http://creativecommons.org/licenses/by/3.0/deed.en)
DATA_CITATION: Luzi L, Pacor F, Puglia R (2019). Italian Accelerometric Archive v 3.0 - Istituto Nazionale di Geofisica e Vulcanologia, Dipartimento della Protezione Civile Nazionale. doi: 10.13127/itaca.3.1
DATA_CREATOR: ITACA working group
ORIGINAL_DATA_MEDIATOR_CITATION: data obtained within the DPC-INGV data exchange agreements
ORIGINAL_DATA_MEDIATOR: Archive of Italian Department of Civil Protection
ORIGINAL_DATA_CREATOR_CITATION: Presidency Of Counsil Of Ministers-Civil Protection Department. (1972). Italian Strong Motion Network. Presidency of Counsil of Ministers - Civil Protection Department. https://doi.org/10.7914/SN/IT http://www.fdsn.org/networks/detail/IT/
ORIGINAL_DATA_CREATOR: network: IT (Italian Strong Motion Network (RAN)); owner: Presidency of Counsil of Ministers - Civil Protection Department (PCM - DPC)
USER1: 
USER2: 
USER3: 
USER4: 
USER5: 
    0.010000     5.122931
    0.020000     5.208367
    0.022000     5.222588
    0.025000     5.255195
    0.029000     5.283754
    0.030000     5.324413
    0.032000     5.367858
    0.035001     5.390819
    0.036000     5.486373
    0.040000     5.969466
    0.041999     5.923768
    0.044001     6.096914
    0.045000     6.266110
    0.046000     6.450220
    0.048001     6.720545
    0.050000     6.660642
    0.054999     5.937263
    0.059999     6.711316
    0.064998     7.967700
    0.067002     8.581514
    0.069999     9.278530
    0.075002     8.405906
    0.080000     7.508904
    0.084998     7.691208
    0.090001     9.198133
    0.095003     9.294470
    0.100000     9.881537
    0.109999     8.619660
    0.120005     8.734205
    0.130005    10.832536
    0.132996    11.752772
    0.139997    12.806129
    0.149993    14.350889
    0.160000    13.607329
    0.170010    11.614623
    0.179986     9.576747
    0.190006    10.837967
    0.200000    15.156900
    0.220022    13.352315
    0.239981    13.028782
    0.250000    14.346583
    0.260010    13.513064
    0.280034    13.005827
    0.290023    14.213724
    0.300030    13.750437
    0.320000    13.074018
    0.340020    14.768884
    0.350017    14.657001
    0.359971    12.987578
    0.379939    10.323050
    0.400000    10.087861
    0.419992     8.920672
    0.439947     8.344387
    0.450045     7.826643
    0.459982     7.233273
    0.480077     7.967185
    0.500000     8.495544
    0.550055     8.407091
    0.599880     6.795406
    0.650195     7.625272
    0.667111     7.630452
    0.699790     6.061320
    0.750188     5.546197
    0.800000     6.079151
    0.850340     4.851265
    0.900090     5.107556
    0.949668     4.599292
    1.000000     5.850304
    1.100110     4.997545
    1.200480     3.915656
    1.300390     4.115252
    1.400560     4.233063
    1.499250     3.823086
    1.600000     4.021081
    1.700680     4.519101
    1.798561     3.752825
    1.901141     3.659866
    2.000000     3.642430
    2.197802     3.279580
    2.398082     3.022485
    2.500000     3.420337
    2.597403     3.598954
    2.801121     3.545354
    3.003003     2.890629
    3.205128     2.133988
    3.401361     1.439474
    3.496503     1.190064
    3.597122     1.095182
    3.802281     1.040446
    4.000000     0.962089
    4.201681     1.022748
    4.405286     0.961063
    4.608295     0.954078
    4.807692     0.942917
    5.000000     0.841304
    5.494505     0.644863
    5.988024     0.458598
    6.493506     0.327078
    6.993007     0.287004
    7.518797     0.278263
    8.000000     0.254474
    8.474576     0.214659
    9.009009     0.222974
    9.523809     0.216159
   10.000000     0.197622
