EVENT_NAME: L_AQUILA
EVENT_ID: IT-2009-0009
EVENT_DATE_YYYYMMDD: 20090406
EVENT_TIME_HHMMSS: 013240
EVENT_LATITUDE_DEGREE: 42.3420
EVENT_LONGITUDE_DEGREE: 13.3800
EVENT_DEPTH_KM: 8.3
HYPOCENTER_REFERENCE: INGV-CNT_Seismic_Bulletin
MAGNITUDE_W: 6.1
MAGNITUDE_W_REFERENCE: INGV-CNT_Seismic_Bulletin
MAGNITUDE_L: 
MAGNITUDE_L_REFERENCE: 
FOCAL_MECHANISM: Normal faulting
NETWORK: IT
STATION_CODE: MMP
STATION_NAME: 
STATION_LATITUDE_DEGREE: 42.248547
STATION_LONGITUDE_DEGREE: 12.748537
STATION_ELEVATION_M: 475
LOCATION: 
SENSOR_DEPTH_M: 0.0
VS30_M/S: 
SITE_CLASSIFICATION_EC8: B (inferred from geology)
MORPHOLOGIC_CLASSIFICATION: 
EPICENTRAL_DISTANCE_KM: 53.1
EARTHQUAKE_BACKAZIMUTH_DEGREE: 258.9
DATE_TIME_FIRST_SAMPLE_YYYYMMDD_HHMMSS: 20090406_013237.000
DATE_TIME_FIRST_SAMPLE_PRECISION: seconds
SAMPLING_INTERVAL_S: 0.005000
NDATA: 20400
DURATION_S: 102.000
STREAM: HNE
UNITS: cm/s^2
INSTRUMENT: sensor = Unknown [Unknown] | digitizer = Etna [Kinemetrics]
INSTRUMENT_ANALOG/DIGITAL: D
INSTRUMENTAL_FREQUENCY_HZ: 218.000
INSTRUMENTAL_DAMPING: 0.700000
FULL_SCALE_G: 1.0
N_BIT_DIGITAL_CONVERTER: 18
PGA_CM/S^2: 8.854571
TIME_PGA_S: 33.800000
BASELINE_CORRECTION: BASELINE NOT REMOVED
FILTER_TYPE: 
FILTER_ORDER: 
LOW_CUT_FREQUENCY_HZ: 
HIGH_CUT_FREQUENCY_HZ: 
LATE/NORMAL_TRIGGERED: NT
DATABASE_VERSION: 0.5
HEADER_FORMAT: DYNA 1.2
DATA_TYPE: ACCELERATION
PROCESSING: converted to cm/s^2
DATA_TIMESTAMP_YYYYMMDD_HHMMSS: 20211011_160300.644
DATA_LICENSE: CC-BY3_0-IT (http://creativecommons.org/licenses/by/3.0/deed.en)
DATA_CITATION: Luzi L, Pacor F, Puglia R (2019). Italian Accelerometric Archive v 3.0 - Istituto Nazionale di Geofisica e Vulcanologia, Dipartimento della Protezione Civile Nazionale. doi: 10.13127/itaca.3.1
DATA_CREATOR: ITACA working group
ORIGINAL_DATA_MEDIATOR_CITATION: data obtained within the DPC-INGV data exchange agreements
ORIGINAL_DATA_MEDIATOR: Archive of Italian Department of Civil Protection
ORIGINAL_DATA_CREATOR_CITATION: Presidency Of Counsil Of Ministers-Civil Protection Department. (1972). Italian Strong Motion Network. Presidency of Counsil of Ministers - Civil Protection Department. https://doi.org/10.7914/SN/IT http://www.fdsn.org/networks/detail/IT/
ORIGINAL_DATA_CREATOR: network: IT (Italian Strong Motion Network (RAN)); owner: Presidency of Counsil of Ministers - Civil Protection Department (PCM - DPC)
USER1: 
USER2: 
USER3: 
USER4: 
USER5: 
[...]
0.527725
0.400072
0.291825
0.181474
0.070421
-0.039696
-0.134851
-0.197040
-0.191195
-0.115212
-0.000886
0.124896
0.239923
0.333207
0.419010
0.527491
0.627555
0.704474
0.751467
0.740946
0.647428
0.427193
0.101984
-0.305054
-0.764929
-1.224804
-1.661299
-2.041918
-2.378582
-2.703090
-3.000478
-3.259289
-3.482095
-3.637102
-3.709344
-3.682224
-3.569535
-3.437675
-3.321712
-3.264199
-3.271680
-3.291319
-3.230766
-3.049575
-2.754759
-2.344916
-1.862129
-1.350352
-0.843718
-0.365607
0.088891
0.528192
0.931723
1.275167
1.544967
1.742524
1.839081
1.833470
1.746732
1.586349
1.384350
1.162712
0.974975
0.815526
0.653506
0.506683
0.329232
0.102217
-0.121057
-0.321653
-0.482270
-0.604779
-0.690582
-0.748797
-0.813792
-0.866395
-0.896321
-0.895854
-0.858447
-0.774514
-0.660890
-0.569242
-0.491388
-0.388986
-0.268114
-0.138358
-0.020057
0.048912
0.073694
0.069954
0.064343
0.033482
-0.025435
-0.099080
-0.213172
-0.320484
-0.381738
-0.378465
-0.300612
-0.163140
0.026000
0.241092
0.428362
0.570509
0.641817
0.605111
0.483537
0.308892
0.096606
-0.162906
-0.462398
-0.809584
-1.231350
-1.726996
-2.268933
-2.813675
-3.338078
-3.768728
-4.053257
-4.204990
-4.234916
-4.161036
-3.996912
-3.756571
-3.425517
-2.994633
-2.494311
-1.980897
-1.486187
-1.016960
-0.599635
-0.220186
0.105491
0.387915
0.633634
0.823709
0.989470
1.082754
1.120629
1.142372
1.151958
1.199184
1.284286
1.427836
1.625393
1.838848
2.043886
2.210816
2.360912
2.501423
2.607098
2.700616
2.747609
2.741297
2.737322
2.741998
2.781042
2.825931
2.892328
2.964337
3.011564
3.068142
3.083573
3.073753
3.018110
2.875027
2.680978
2.442507
2.169901
1.871813
1.533044
1.192170
0.877950
0.615398
0.453144
0.369211
0.326427
0.261900
0.173525
0.069019
-0.049983
-0.196105
-0.373789
-0.557552
-0.774047
-0.971136
-1.152327
-1.340298
-1.522892
-1.738919
-1.995392
-2.260750
-2.514417
-2.748213
-2.956290
-3.154315
-3.344390
-3.485602
-3.558547
-3.523243
-3.367068
-3.155016
-2.868150
-2.555565
-2.268465
-1.995159
-1.763000
-1.579237
-1.470289
-1.439194
-1.484550
-1.576899
-1.687718
-1.794095
-1.853479
-1.884340
-1.839451
-1.698940
-1.510267
-1.231116
-0.892347
-0.503312
-0.063777
0.372485
0.811786
1.227239
1.638485
2.085501
2.548416
2.979300
3.339111
3.602832
3.746850
3.768592
3.679283
3.502767
3.265232
2.973923
2.655494
2.348287
2.052770
1.775489
1.532576
1.336188
1.180247
1.068259
0.992275
0.926813
0.830022
0.689978
0.526555
0.328297
0.113673
-0.122927
-0.382440
-0.652006
-0.940509
-1.243040
-1.568249
-1.905615
-2.217030
-2.475841
-2.624535
-2.643706
-2.541304
-2.308678
-1.978793
-1.560767
-1.087799
-0.588881
-0.058400
0.468574
0.987366
1.509430
2.027754
2.556365
3.081235
3.566360
3.976202
4.305386
4.540818
4.649065
4.642986
4.517906
4.325259
4.057563
3.686530
3.269440
2.793433
2.289604
1.779931
1.243371
0.663793
-0.009537
-0.770306
-1.595837
-2.462281
-3.314464
-4.118486
-4.854239
-5.466314
-5.926190
-6.261218
-6.427212
-6.422771
-6.266128
-5.941854
-5.512138
-5.009947
-4.508924
-4.058167
-3.687601
-3.413594
-3.200372
-3.031806
-2.821157
-2.555565
-2.224979
-1.861194
-1.503254
-1.134559
-0.799764
-0.478530
-0.178570
0.119986
0.424855
0.705409
0.985028
1.231448
1.409366
1.516210
1.531875
1.434616
1.228876
0.924942
0.550636
0.128870
-0.303885
-0.740614
-1.182019
-1.640959
-2.111355
-2.563047
-3.003517
-3.383434
-3.722671
-3.995510
-4.175766
-4.289390
-4.313237
-4.253386
-4.097210
-3.873001
-3.607643
-3.303710
-2.973591
-2.626639
-2.239241
-1.790588
-1.270627
-0.641953
0.090995
0.881457
1.689219
2.441571
3.105316
3.695648
4.174461
4.556716
4.831892
5.007707
5.096315
5.040672
4.871404
4.602773
4.208595
3.719496
3.180831
2.612709
2.034300
1.474127
0.958141
0.458287
-0.036189
-0.474321
-0.871072
-1.210308
-1.472626
-1.653116
-1.755519
-1.834775
-1.873819
-1.881534
-1.869377
-1.853946
-1.834775
-1.814435
-1.805551
-1.772819
-1.699408
-1.559364
-1.408099
-1.278109
-1.191839
-1.184591
-1.221531
-1.269459
-1.336792
-1.410437
-1.473562
-1.530140
-1.532946
-1.510501
-1.480809
-1.437557
-1.383083
-1.297982
-1.211244
-1.124038
-1.025610
-0.986566
-1.028182
-1.104165
-1.230181
-1.437323
-1.700343
-1.958453
-2.218199
-2.427212
-2.552994
-2.574269
-2.461112
-2.264257
-1.976923
-1.627633
-1.240234
-0.821507
-0.391090
0.037924
0.444493
0.780223
1.037398
1.219524
1.326135
1.392065
1.439993
1.509196
1.584478
1.660929
1.709325
1.706052
1.628900
1.520886
1.418016
1.254827
1.027345
0.718501
0.345832
-0.115913
-0.601740
-1.058575
-1.501150
-1.867740
-2.145957
-2.304470
-2.390038
-2.409210
-2.349592
-2.231292
-2.018772
-1.753181
-1.465613
-1.153029
-0.827118
-0.519210
-0.267880
-0.055127
0.104555
0.203217
0.268680
0.306087
0.338584
0.356820
0.377161
0.398670
0.397267
0.371082
0.351209
0.304216
0.191995
0.047743
-0.168751
-0.420081
-0.682867
-0.949861
-1.206801
-1.454390
-1.698239
-1.960557
-2.226148
-2.527744
-2.855758
-3.177227
-3.422478
-3.584264
-3.684796
-3.717060
-3.680120
-3.596188
-3.545220
-3.480927
-3.430894
-3.423179
-3.429024
-3.404008
-3.292955
-3.136546
-2.896672
-2.584322
-2.199963
-1.765338
-1.341467
-0.913622
-0.516404
-0.150281
0.206256
0.526322
0.784198
1.016356
1.226538
1.418718
1.570685
1.702779
1.815702
1.865266
1.914597
1.920910
1.912259
1.911090
1.886542
1.834639
1.757721
1.628900
1.420120
1.187962
0.937100
0.671742
0.377628
0.101282
-0.133682
-0.296871
-0.387116
-0.415405
-0.351579
-0.295702
-0.255957
-0.198443
-0.147242
-0.096041
0.008699
0.167914
0.346299
0.562092
0.836100
1.150321
1.461502
1.786711
2.075682
2.311347
2.494409
2.582784
2.589797
2.505865
2.392007
2.219466
2.002972
1.808688
1.584946
1.328707
1.021266
0.691849
0.303281
-0.126668
-0.507988
-0.886268
-1.230415
-1.499980
-1.708058
-1.825891
-1.848335
-1.816773
-1.722553
-1.543700
-1.332116
-1.131052
-0.931391
-0.738744
-0.619976
-0.562228
-0.514066
-0.495129
-0.460060
-0.452111
-0.451176
-0.462632
-0.514534
-0.546798
-0.563164
-0.456319
-0.319549
-0.110770
0.198307
0.487979
0.795887
1.131617
1.522523
1.897530
2.281656
2.703188
3.117707
3.491779
3.862344
4.217011
4.538012
4.849194
5.126474
5.388325
5.609963
5.788582
5.923950
6.062824
6.191645
6.269031
6.356003
6.451625
6.525738
6.606164
6.686823
6.742934
6.718152
6.599851
6.391306
6.047393
5.639187
5.171363
4.611658
4.005193
3.374882
2.694070
2.001569
1.299716
0.566768
-0.145839
-0.812389
-1.421425
-1.954712
-2.349592
-2.643005
-2.872825
-3.016843
-3.140988
-3.240351
-3.309788
-3.371043
-3.381096
-3.375485
-3.357717
-3.319140
-3.246196
-3.120414
-2.972188
-2.772294
-2.510443
-2.253502
-1.957751
-1.642128
-1.362977
-1.106503
-0.906843
-0.692218
-0.525523
-0.345500
-0.165946
-0.013511
0.153419
0.258860
0.352612
0.394228
0.451507
0.505514
0.558352
0.661923
0.834230
1.020565
1.248515
1.547539
1.800973
2.060251
2.247755
2.350391
2.360678
2.323271
2.262250
2.186267
2.174811
2.141846
2.113323
2.118700
2.156809
2.207776
2.298723
2.433622
2.531349
2.623230
2.723528
2.807928
2.834113
2.818917
2.752285
2.600084
2.421231
2.173175
1.905713
1.602948
1.237059
0.896653
0.573782
0.270550
-0.040865
-0.288454
-0.521314
-0.742017
-0.890944
-1.046652
-1.227375
-1.442233
-1.677899
-1.972480
-2.255139
-2.471165
-2.654227
-2.755694
-2.769722
-2.752655
-2.722495
-2.653291
-2.575204
-2.510677
-2.376946
-2.206743
-2.041450
-1.846932
-1.645167
-1.459300
-1.320893
-1.199320
-1.143911
-1.143443
-1.133857
-1.100658
-1.027480
-0.935132
-0.757447
-0.564333
-0.386414
-0.158230
0.072292
0.314737
0.545259
0.752402
0.973338
1.182818
1.393000
1.623288
1.825989
1.990581
2.101399
2.129221
2.110050
2.063992
1.991516
1.902907
1.820378
1.709325
1.590557
1.480206
1.348579
1.221161
1.067557
0.924007
0.859480
0.825112
0.830723
0.939204
1.077611
1.193807
1.333850
1.469919
1.571152
1.685946
1.779697
1.861526
1.917169
1.935405
1.966266
1.963928
1.959486
1.923248
1.845861
1.709091
1.478102
1.199418
0.867896
0.499202
0.133078
-0.214341
-0.545863
-0.876683
-1.197216
-1.503955
-1.846231
-2.157412
-2.443811
-2.707065
-2.871890
-2.976163
-3.016609
-2.969850
-2.888723
-2.804791
-2.731613
-2.665449
-2.600688
-2.551591
-2.478413
-2.394481
-2.282025
-2.186637
-2.102704
-2.013161
-1.957050
-1.914733
-1.900238
-1.843659
-1.782405
-1.712266
-1.623892
-1.558663
-1.528504
-1.504890
-1.485485
-1.474029
-1.439194
-1.437090
-1.426569
-1.430777
-1.476835
-1.561235
-1.672287
-1.810928
-1.984170
-2.156711
-2.339539
-2.574737
-2.855758
-3.119713
-3.388577
-3.624710
-3.794212
-3.872534
-3.881417
-3.811279
-3.626815
-3.413126
-3.135144
-2.769956
-2.375543
-1.937177
-1.438259
-0.924377
-0.423588
0.056861
0.523049
0.975208
1.402118
1.826223
2.207542
2.511009
2.777301
2.996835
3.140385
3.214732
3.241151
3.179662
3.029332
2.839491
2.600786
2.325609
1.998763
1.654851
1.302054
0.929852
0.597863
0.314036
0.057095
-0.176700
-0.374725
-0.562462
-0.745758
-0.912921
-1.032156
-1.096450
-1.125908
-1.086865
-1.012985
-0.933729
-0.821741
-0.688244
-0.555448
-0.397403
-0.204989
-0.028240
0.142664
0.330402
0.480264
0.560222
0.629659
0.711254
0.797290
0.926111
1.114550
1.311172
1.502650
1.706519
1.861759
1.986840
2.056277
2.046691
1.998763
1.909454
1.795595
1.659059
1.538421
1.398144
1.257867
1.137228
1.007940
0.921669
0.849427
0.803369
0.803603
0.814124
0.805707
0.786068
0.766196
0.736971
0.722710
0.728321
0.764793
0.817163
0.888003
1.003498
1.142372
1.292702
1.452852
1.591025
1.700441
1.801206
1.864097
1.915532
1.995724
2.063758
2.115193
2.159381
2.191411
2.220635
2.249625
2.304801
2.387799
2.463080
2.523633
2.568522
2.550520
2.477342
2.366757
2.168265
1.909220
1.597337
1.239163
0.866961
0.476523
0.116946
-0.224628
-0.577893
-0.904972
-1.194177
-1.464911
-1.730970
-1.969441
-2.192715
-2.433992
-2.678776
-2.894802
-3.090021
-3.277992
-3.436038
-3.567431
-3.707708
-3.815487
-3.880950
-3.940568
-3.980780
-4.044840
-4.130409
-4.235617
-4.351112
-4.441123
-4.471984
-4.423822
-4.336149
-4.197976
-4.034787
-3.861545
-3.688537
-3.513424
-3.314231
-3.121116
-2.921922
-2.690933
-2.462749
-2.242046
-2.006614
-1.804849
-1.646804
-1.527802
-1.468886
-1.424465
-1.383784
-1.381680
-1.382382
-1.374666
-1.357599
-1.319491
-1.247014
-1.104867
-0.950562
-0.796959
-0.613429
-0.418444
-0.194936
0.060134
0.344663
0.635738
0.908109
1.158738
1.406794
1.669346
1.930261
2.193281
2.467523
2.688926
2.864507
3.017876
3.091054
3.117707
3.080066
3.013200
2.933243
2.812370
2.692667
2.543272
2.371900
2.181825
1.977722
1.759123
1.497741
1.204795
0.894549
0.577523
0.262835
-0.040631
-0.310197
-0.539784
-0.731028
-0.839275
-0.866162
-0.815428
-0.680529
-0.491388
-0.239357
0.047743
0.340221
0.659117
0.996484
1.339695
1.697635
2.081761
2.481083
2.858896
3.199535
3.494585
3.718093
3.844108
3.883152
3.870293
3.791738
3.657540
3.510249
3.322044
3.100172
2.853518
2.576939
2.294748
1.968838
1.632173
1.300417
0.972169
0.668937
0.375056
0.097308
-0.185351
-0.503546
-0.838106
-1.161445
-1.490862
-1.817007
-2.091716
-2.304470
-2.496415
-2.628276
-2.707532
-2.735588
-2.686958
-2.580348
-2.378115
-2.105042
-1.803447
-1.463041
-1.096684
-0.746225
-0.398338
-0.064479
0.237351
0.471847
0.627321
0.703538
0.676652
0.568639
0.402644
0.170953
-0.119420
-0.416106
-0.744588
-1.066758
-1.337727
-1.589056
-1.810460
-1.954946
-2.050100
-2.088677
-2.036774
-1.936710
-1.765806
-1.560533
-1.317620
-1.039638
-0.747862
-0.450007
-0.161270
0.110868
0.360561
0.599733
0.802434
0.990405
1.150321
1.292001
1.423627
1.550578
1.677529
1.809623
1.955277
2.082930
2.202399
2.321401
2.438766
2.566652
2.688693
2.800681
2.904719
2.932541
2.904252
2.832243
2.700616
2.514282
2.297554
2.062122
1.781100
1.498208
1.186559
0.844985
0.484706
0.127701
-0.195638
-0.500039
-0.766331
-0.982124
-1.172200
-1.369990
-1.530608
-1.680003
-1.834775
-1.967805
-2.095457
-2.200665
-2.317796
-2.425575
-2.515586
-2.619158
-2.717586
-2.797076
-2.881242
-3.001647
-3.111764
-3.237780
-3.362159
-3.473679
-3.561118
-3.594785
-3.618632
-3.599227
-3.563456
-3.522542
-3.484901
-3.430427
-3.369874
-3.305580
-3.205983
-3.128831
-3.052848
-2.967045
-2.876332
-2.793569
-2.690933
-2.549954
-2.374842
-2.183597
-1.971779
-1.744530
-1.549545
-1.348014
-1.144144
-0.945886
-0.767500
-0.586309
-0.414236
-0.238890
-0.057231
0.089359
0.233376
0.322452
0.378563
0.422750
0.447299
0.475354
0.515333
0.570041
0.657481
0.765494
0.871637
1.006771
1.150789
1.321459
1.542629
1.820845
2.157978
2.542337
2.956388
3.400365
3.875671
4.350508
4.847323
5.360737
5.859189
6.350158
6.808630
7.217772
7.600261
7.927340
8.195503
8.426024
8.589214
8.709385
8.782796
8.822074
8.854571
8.823243
8.776952
8.714995
8.587343
8.403347
8.173526
7.869359
7.495520
7.102277
6.660404
6.175279
5.631472
5.080183
4.479096
3.827743
3.197899
2.552624
1.910856
1.244073
0.606280
-0.048580
-0.720975
-1.392902
-2.067869
-2.683919
-3.312126
-3.896614
-4.398338
-4.877618
-5.329310
-5.702915
-6.023916
-6.306808
-6.538031
-6.716651
-6.857629
-6.965409
-7.048406
-7.128598
-7.195463
-7.243625
-7.264901
-7.275421
-7.247366
-7.204348
-7.129767
-7.025728
-6.911402
-6.760370
-6.569828
-6.365958
-6.146893
-5.872884
-5.570120
-5.206802
-4.810052
-4.375895
-3.880015
-3.374082
-2.865578
-2.352164
-1.845763
-1.340298
-0.860083
-0.369113
0.140794
0.596694
1.058206
1.491662
1.865500
2.200762
2.470094
2.697109
2.867780
2.983976
3.092457
3.165167
3.217537
3.255880
3.293988
3.365062
3.420705
3.462555
3.485233
3.510483
3.492480
3.441513
3.380960
3.301002
3.214732
3.101341
2.999874
2.870352
2.706461
2.526906
2.322102
2.077318
1.846563
1.638485
1.443032
1.295508
1.160842
1.037632
0.912318
0.764793
0.591317
0.394929
0.187085
0.006128
-0.160568
-0.296169
-0.400208
-0.511027
-0.618573
-0.718403
-0.821975
-0.947757
-1.073071
-1.192306
-1.301722
-1.416048
-1.542999
-1.696602
-1.877793
-2.093353
-2.302365
-2.514651
-2.756395
-2.918416
-3.028767
-3.098204
-3.104516
-3.056588
-2.945536
-2.794270
-2.581049
-2.301196
-2.000536
-1.665040
-1.274368
-0.873176
-0.460761
-0.083650
0.289955
0.640414
0.914889
1.165518
1.355827
1.549409
1.720547
1.848901
1.965331
2.022844
2.025650
1.954342
1.830899
1.637784
1.387389
1.109874
0.788172
0.447065
0.084917
-0.290091
-0.661357
-1.067927
-1.483849
-1.865870
-2.250229
-2.626405
-2.995100
-3.346261
-3.685264
-4.014447
-4.278168
-4.486246
-4.635406
-4.695258
-4.667904
-4.573451
-4.406989
-4.177402
-3.894744
-3.556442
-3.180032
-2.775567
-2.372270
-1.948633
-1.523828
-1.117959
-0.705545
-0.315808
0.042132
0.383707
0.701668
0.970766
1.216953
1.438123
1.641524
1.809857
1.936808
2.047393
2.112622
2.165226
2.209880
2.282357
2.370264
2.466821
2.585589
2.721892
2.866377
2.998004
3.168908
3.301236
3.412523
3.521237
3.562151
3.559580
3.527550
3.460450
3.356645
3.242320
3.102276
2.936983
2.743401
2.536726
2.296151
2.048094
1.823885
1.573256
1.338760
1.099587
0.874676
0.681796
0.494759
0.338351
0.172823
0.017116
-0.118953
-0.269049
-0.398805
-0.514534
-0.638913
-0.760253
-0.893048
-1.038235
-1.198618
-1.390564
-1.598642
-1.860493
-2.145723
-2.419263
-2.701454
-2.954420
-3.171382
-3.333402
-3.470873
-3.573977
-3.645518
-3.691342
-3.689472
-3.671469
-3.585433
-3.445623
-3.237078
-2.962135
-2.636459
-2.238072
-1.800407
-1.311542
-0.797426
-0.260633
0.299307
0.850128
1.397910
1.946627
2.477576
2.987717
3.452268
3.851590
4.208361
4.495228
4.720840
4.897823
5.014954
5.073169
5.077845
5.028280
4.910448
4.736037
4.509022
4.232676
3.911441
3.560047
3.174519
2.748311
2.283058
1.795829
1.291066
0.773911
0.278499
-0.193767
-0.616469
-1.003633
-1.359236
-1.661533
-1.916603
-2.115095
-2.244618
-2.303301
-2.308210
-2.249060
-2.161387
-2.028591
-1.864233
-1.708760
-1.528971
-1.364847
-1.206334
-1.046418
-0.892113
-0.721910
-0.562930
-0.426393
-0.273257
-0.124564
0.002621
0.130273
0.246235
0.351677
0.420179
0.466470
0.490551
0.469510
0.422750
0.346533
0.255587
0.145236
0.033482
-0.078740
-0.189793
-0.278401
-0.376595
-0.464268
-0.520145
-0.576490
-0.618339
-0.600571
-0.554513
-0.483673
-0.386648
-0.282609
-0.168284
-0.077103
-0.008134
0.050549
0.082345
0.086553
0.103153
0.105724
0.078604
0.059433
0.029975
0.020857
0.039093
0.057095
0.095437
0.145002
0.173992
0.192229
0.185448
0.127935
0.030910
-0.112173
-0.273491
-0.465905
-0.729158
-0.996386
-1.304060
-1.665274
-2.019240
-2.373907
-2.686023
-2.970318
-3.205750
-3.389980
-3.550597
-3.690875
-3.824138
-3.900355
-3.945711
-3.958804
-3.923968
-3.873936
-3.827878
-3.775274
-3.743712
-3.725242
-3.709344
-3.715423
-3.698823
-3.679419
-3.655805
-3.629153
-3.593382
-3.552935
-3.515996
-3.465029
-3.385071
-3.284772
-3.202243
-3.096567
-2.990424
-2.894568
-2.782113
-2.649317
-2.497584
-2.317796
-2.110887
-1.896497
-1.652882
-1.405995
-1.138767
-0.835769
-0.526925
-0.192131
0.160900
0.537076
0.947854
1.373829
1.794193
2.219232
2.646610
3.060427
3.498091
3.943237
4.383473
4.816228
5.244775
5.649474
6.001570
6.308776
6.559639
6.761404
6.879003
6.936984
6.908461
6.796473
6.619490
6.354600
6.057914
5.680335
5.258802
4.830256
4.365238
3.908870
3.479154
3.063934
2.669054
2.298489
1.939146
1.590323
1.273765
0.993444
0.732529
0.521880
0.342091
0.170719
-0.005796
-0.178570
-0.342461
-0.527860
-0.691049
-0.833898
-0.968097
-1.071668
-1.150691
-1.209607
-1.254496
-1.294007
-1.309671
-1.315750
-1.327674
-1.327907
-1.338896
-1.329076
-1.334453
-1.369289
-1.380745
-1.436154
-1.499747
-1.573158
-1.665274
-1.740088
-1.829632
-1.906784
-1.973416
-2.016901
-2.048464
-2.080260
-2.091950
-2.091248
-2.083299
-2.057114
-1.998432
-1.907953
-1.794796
-1.655922
-1.488291
-1.314581
-1.111647
-0.892347
-0.650135
-0.387817
-0.134851
0.139858
0.401475
0.644154
0.878651
1.089768
1.299950
1.501247
1.688751
1.877891
2.058615
2.224142
2.370731
2.529712
2.680978
2.793433
2.909162
3.018811
3.113498
3.199769
3.293755
3.378622
3.434733
3.476582
3.506274
3.522172
3.518198
3.491779
3.438006
3.367634
3.273414
3.168440
3.048971
2.905421
2.753688
2.598214
2.437597
2.281188
2.125013
1.966032
1.803311
1.609261
