EVENT_NAME: L_AQUILA
EVENT_ID: IT-2009-0009
EVENT_DATE_YYYYMMDD: 20090406
EVENT_TIME_HHMMSS: 013240
EVENT_LATITUDE_DEGREE: 42.3420
EVENT_LONGITUDE_DEGREE: 13.3800
EVENT_DEPTH_KM: 8.3
HYPOCENTER_REFERENCE: INGV-CNT_Seismic_Bulletin
MAGNITUDE_W: 6.1
MAGNITUDE_W_REFERENCE: INGV-CNT_Seismic_Bulletin
MAGNITUDE_L: 
MAGNITUDE_L_REFERENCE: 
FOCAL_MECHANISM: Normal faulting
NETWORK: IT
STATION_CODE: MMP
STATION_NAME: 
STATION_LATITUDE_DEGREE: 42.248547
STATION_LONGITUDE_DEGREE: 12.748537
STATION_ELEVATION_M: 475
LOCATION: 
SENSOR_DEPTH_M: 0.0
VS30_M/S: 
SITE_CLASSIFICATION_EC8: B (inferred from geology)
MORPHOLOGIC_CLASSIFICATION: 
EPICENTRAL_DISTANCE_KM: 53.1
EARTHQUAKE_BACKAZIMUTH_DEGREE: 258.9
DATE_TIME_FIRST_SAMPLE_YYYYMMDD_HHMMSS: 
DATE_TIME_FIRST_SAMPLE_PRECISION: 
SAMPLING_INTERVAL_S: 
NDATA: 105
DURATION_S: 
STREAM: HNZ
UNITS: cm
INSTRUMENT: sensor = Unknown [Unknown] | digitizer = Etna [Kinemetrics]
INSTRUMENT_ANALOG/DIGITAL: D
INSTRUMENTAL_FREQUENCY_HZ: 206.000
INSTRUMENTAL_DAMPING: 0.700000
FULL_SCALE_G: 1.0
N_BIT_DIGITAL_CONVERTER: 18
PGD_CM: -0.239056
TIME_PGD_S: 
BASELINE_CORRECTION: BASELINE REMOVED
FILTER_TYPE: BUTTERWORTH
FILTER_ORDER: 2
LOW_CUT_FREQUENCY_HZ: 0.030
HIGH_CUT_FREQUENCY_HZ: 40.000
LATE/NORMAL_TRIGGERED: NT
DATABASE_VERSION: 0.5
HEADER_FORMAT: DYNA 1.2
DATA_TYPE: DISPLACEMENT RESPONSE SPECTRUM
PROCESSING: manual (Paolucci et al., 2011)
DATA_TIMESTAMP_YYYYMMDD_HHMMSS: 20211011_160303.025
DATA_LICENSE: CC-BY3_0-IT (http://creativecommons.org/licenses/by/3.0/deed.en)
DATA_CITATION: Luzi L, Pacor F, Puglia R (2019). Italian Accelerometric Archive v 3.0 - Istituto Nazionale di Geofisica e Vulcanologia, Dipartimento della Protezione Civile Nazionale. doi: 10.13127/itaca.3.1
DATA_CREATOR: ITACA working group
ORIGINAL_DATA_MEDIATOR_CITATION: data obtained within the DPC-INGV data exchange agreements
ORIGINAL_DATA_MEDIATOR: Archive of Italian Department of Civil Protection
ORIGINAL_DATA_CREATOR_CITATION: Presidency Of Counsil Of Ministers-Civil Protection Department. (1972). Italian Strong Motion Network. Presidency of Counsil of Ministers - Civil Protection Department. https://doi.org/10.7914/SN/IT http://www.fdsn.org/networks/detail/IT/
ORIGINAL_DATA_CREATOR: network: IT (Italian Strong Motion Network (RAN)); owner: Presidency of Counsil of Ministers - Civil Protection Department (PCM - DPC)
USER1: 
USER2: 
USER3: 
USER4: 
USER5: 
    0.010000     0.000013
    0.020000     0.000053
    0.022000     0.000064
    0.025000     0.000083
    0.029000     0.000112
    0.030000     0.000121
    0.032000     0.000139
    0.035001     0.000167
    0.036000     0.000180
    0.040000     0.000242
    0.041999     0.000265
    0.044001     0.000299
    0.045000     0.000322
    0.046000     0.000346
    0.048001     0.000393
    0.050000     0.000422
    0.054999     0.000455
    0.059999     0.000613
    0.064998     0.000856
    0.067002     0.000972
    0.069999     0.001151
    0.075002     0.001192
    0.080000     0.001222
    0.084998     0.001409
    0.090001     0.001876
    0.095003     0.002128
    0.100000     0.002503
    0.109999     0.002618
    0.120005     0.003160
    0.130005     0.004619
    0.132996     0.005255
    0.139997     0.006350
    0.149993     0.008170
    0.160000     0.008783
    0.170010     0.008484
    0.179986     0.007832
    0.190006     0.009890
    0.200000     0.015316
    0.220022     0.016312
    0.239981     0.018894
    0.250000     0.022611
    0.260010     0.023036
    0.280034     0.025701
    0.290023     0.030144
    0.300030     0.031194
    0.320000     0.033730
    0.340020     0.043028
    0.350017     0.045254
    0.359971     0.042386
    0.379939     0.037536
    0.400000     0.040663
    0.419992     0.039642
    0.439947     0.040723
    0.450045     0.039901
    0.459982     0.038580
    0.480077     0.046174
    0.500000     0.053473
    0.550055     0.064141
    0.599880     0.061648
    0.650195     0.081103
    0.667111     0.085360
    0.699790     0.074737
    0.750188     0.078499
    0.800000     0.097868
    0.850340     0.088386
    0.900090     0.104331
    0.949668     0.104667
    1.000000     0.147486
    1.100110     0.152587
    1.200480     0.141900
    1.300390     0.175130
    1.400560     0.208336
    1.499250     0.216256
    1.600000     0.259273
    1.700680     0.329255
    1.798561     0.306240
    1.901141     0.332501
    2.000000     0.366635
    2.197802     0.399142
    2.398082     0.439148
    2.500000     0.538675
    2.597403     0.611721
    2.801121     0.699914
    3.003003     0.655670
    3.205128     0.547780
    3.401361     0.417958
    3.496503     0.365645
    3.597122     0.355899
    3.802281     0.375233
    4.000000     0.385196
    4.201681     0.449239
    4.405286     0.468725
    4.608295     0.505578
    4.807692     0.542739
    5.000000     0.529261
    5.494505     0.491167
    5.988024     0.409886
    6.493506     0.340472
    6.993007     0.345615
    7.518797     0.383422
    8.000000     0.395490
    8.474576     0.378754
    9.009009     0.437489
    9.523809     0.467168
   10.000000     0.466620
