EVENT_NAME: L_AQUILA
EVENT_ID: IT-2009-0009
EVENT_DATE_YYYYMMDD: 20090406
EVENT_TIME_HHMMSS: 013240
EVENT_LATITUDE_DEGREE: 42.3420
EVENT_LONGITUDE_DEGREE: 13.3800
EVENT_DEPTH_KM: 8.3
HYPOCENTER_REFERENCE: INGV-CNT_Seismic_Bulletin
MAGNITUDE_W: 6.1
MAGNITUDE_W_REFERENCE: INGV-CNT_Seismic_Bulletin
MAGNITUDE_L: 
MAGNITUDE_L_REFERENCE: 
FOCAL_MECHANISM: Normal faulting
NETWORK: IT
STATION_CODE: LSS
STATION_NAME: 
STATION_LATITUDE_DEGREE: 42.558243
STATION_LONGITUDE_DEGREE: 12.968894
STATION_ELEVATION_M: 1065
LOCATION: 
SENSOR_DEPTH_M: 0.0
VS30_M/S: 1091
SITE_CLASSIFICATION_EC8: A
MORPHOLOGIC_CLASSIFICATION: 
EPICENTRAL_DISTANCE_KM: 41.5
EARTHQUAKE_BACKAZIMUTH_DEGREE: 305.5
DATE_TIME_FIRST_SAMPLE_YYYYMMDD_HHMMSS: 
DATE_TIME_FIRST_SAMPLE_PRECISION: 
SAMPLING_INTERVAL_S: 
NDATA: 105
DURATION_S: 
STREAM: HNN
UNITS: cm/s^2
INSTRUMENT: sensor = FBA-3 [Kinemetrics] | digitizer = Etna [Kinemetrics]
INSTRUMENT_ANALOG/DIGITAL: D
INSTRUMENTAL_FREQUENCY_HZ: 210.000
INSTRUMENTAL_DAMPING: 0.700000
FULL_SCALE_G: 1.0
N_BIT_DIGITAL_CONVERTER: 18
PGA_CM/S^2: -7.628140
TIME_PGA_S: 
BASELINE_CORRECTION: BASELINE REMOVED
FILTER_TYPE: BUTTERWORTH
FILTER_ORDER: 2
LOW_CUT_FREQUENCY_HZ: 0.080
HIGH_CUT_FREQUENCY_HZ: 40.000
LATE/NORMAL_TRIGGERED: NT
DATABASE_VERSION: 0.5
HEADER_FORMAT: DYNA 1.2
DATA_TYPE: ACCELERATION RESPONSE SPECTRUM
PROCESSING: manual (Paolucci et al., 2011)
DATA_TIMESTAMP_YYYYMMDD_HHMMSS: 20211011_160133.334
DATA_LICENSE: CC-BY3_0-IT (http://creativecommons.org/licenses/by/3.0/deed.en)
DATA_CITATION: Luzi L, Pacor F, Puglia R (2019). Italian Accelerometric Archive v 3.0 - Istituto Nazionale di Geofisica e Vulcanologia, Dipartimento della Protezione Civile Nazionale. doi: 10.13127/itaca.3.1
DATA_CREATOR: ITACA working group
ORIGINAL_DATA_MEDIATOR_CITATION: data obtained within the DPC-INGV data exchange agreements
ORIGINAL_DATA_MEDIATOR: Archive of Italian Department of Civil Protection
ORIGINAL_DATA_CREATOR_CITATION: Presidency Of Counsil Of Ministers-Civil Protection Department. (1972). Italian Strong Motion Network. Presidency of Counsil of Ministers - Civil Protection Department. https://doi.org/10.7914/SN/IT http://www.fdsn.org/networks/detail/IT/
ORIGINAL_DATA_CREATOR: network: IT (Italian Strong Motion Network (RAN)); owner: Presidency of Counsil of Ministers - Civil Protection Department (PCM - DPC)
USER1: 
USER2: 
USER3: 
USER4: 
USER5: 
    0.010000     7.635783
    0.020000     7.741818
    0.022000     7.849616
    0.025000     7.919869
    0.029000     8.034963
    0.030000     8.289759
    0.032000     8.985907
    0.035001     9.126636
    0.036000     9.676554
    0.040000     9.232744
    0.041999    10.354384
    0.044001    10.489927
    0.045000    10.099976
    0.046000    10.602871
    0.048001    10.799403
    0.050000    10.151523
    0.054999    12.219682
    0.059999    11.307493
    0.064998    12.148952
    0.067002    14.004986
    0.069999    16.832020
    0.075002    17.601025
    0.080000    16.158287
    0.084998    16.079325
    0.090001    17.287712
    0.095003    17.853378
    0.100000    14.123591
    0.109999    14.678583
    0.120005    15.003460
    0.130005    14.077510
    0.132996    14.365504
    0.139997    16.094509
    0.149993    23.591160
    0.160000    20.867857
    0.170010    17.135216
    0.179986    20.291796
    0.190006    19.154112
    0.200000    16.602554
    0.220022    16.781008
    0.239981    15.732696
    0.250000    15.033059
    0.260010    14.131442
    0.280034    19.868275
    0.290023    19.078857
    0.300030    18.321171
    0.320000    20.178129
    0.340020    23.338554
    0.350017    24.624996
    0.359971    24.610447
    0.379939    22.128059
    0.400000    18.453930
    0.419992    20.433025
    0.439947    19.250326
    0.450045    18.314564
    0.459982    20.004534
    0.480077    22.483210
    0.500000    20.377174
    0.550055    17.460150
    0.599880    15.044563
    0.650195    15.149405
    0.667111    15.663551
    0.699790    17.989819
    0.750188    16.070805
    0.800000    17.871065
    0.850340    19.396830
    0.900090    18.732548
    0.949668    16.847961
    1.000000    14.378489
    1.100110    13.326329
    1.200480    12.049792
    1.300390     9.436380
    1.400560     8.331638
    1.499250     6.503986
    1.600000     5.244060
    1.700680     4.524591
    1.798561     4.655189
    1.901141     3.937412
    2.000000     3.906215
    2.197802     2.943954
    2.398082     3.249878
    2.500000     2.851145
    2.597403     2.696661
    2.801121     2.199662
    3.003003     2.718727
    3.205128     2.310701
    3.401361     1.897155
    3.496503     1.827180
    3.597122     1.780807
    3.802281     1.499258
    4.000000     1.383532
    4.201681     1.076396
    4.405286     0.787249
    4.608295     0.675830
    4.807692     0.650415
    5.000000     0.639097
    5.494505     0.564447
    5.988024     0.451965
    6.493506     0.361584
    6.993007     0.334195
    7.518797     0.342456
    8.000000     0.316688
    8.474576     0.268958
    9.009009     0.222902
    9.523809     0.198505
   10.000000     0.180620
