EVENT_NAME: L_AQUILA
EVENT_ID: IT-2009-0009
EVENT_DATE_YYYYMMDD: 20090406
EVENT_TIME_HHMMSS: 013240
EVENT_LATITUDE_DEGREE: 42.3420
EVENT_LONGITUDE_DEGREE: 13.3800
EVENT_DEPTH_KM: 8.3
HYPOCENTER_REFERENCE: INGV-CNT_Seismic_Bulletin
MAGNITUDE_W: 6.1
MAGNITUDE_W_REFERENCE: INGV-CNT_Seismic_Bulletin
MAGNITUDE_L: 
MAGNITUDE_L_REFERENCE: 
FOCAL_MECHANISM: Normal faulting
NETWORK: IT
STATION_CODE: LSS
STATION_NAME: 
STATION_LATITUDE_DEGREE: 42.558243
STATION_LONGITUDE_DEGREE: 12.968894
STATION_ELEVATION_M: 1065
LOCATION: 
SENSOR_DEPTH_M: 0.0
VS30_M/S: 1091
SITE_CLASSIFICATION_EC8: A
MORPHOLOGIC_CLASSIFICATION: 
EPICENTRAL_DISTANCE_KM: 41.5
EARTHQUAKE_BACKAZIMUTH_DEGREE: 305.5
DATE_TIME_FIRST_SAMPLE_YYYYMMDD_HHMMSS: 20090406_013220.000
DATE_TIME_FIRST_SAMPLE_PRECISION: seconds
SAMPLING_INTERVAL_S: 0.005000
NDATA: 21000
DURATION_S: 105.000
STREAM: HNE
UNITS: cm
INSTRUMENT: sensor = FBA-3 [Kinemetrics] | digitizer = Etna [Kinemetrics]
INSTRUMENT_ANALOG/DIGITAL: D
INSTRUMENTAL_FREQUENCY_HZ: 206.000
INSTRUMENTAL_DAMPING: 0.700000
FULL_SCALE_G: 1.0
N_BIT_DIGITAL_CONVERTER: 18
PGD_CM: 0.238375
TIME_PGD_S: 38.545000
BASELINE_CORRECTION: BASELINE REMOVED
FILTER_TYPE: BUTTERWORTH
FILTER_ORDER: 2
LOW_CUT_FREQUENCY_HZ: 0.080
HIGH_CUT_FREQUENCY_HZ: 40.000
LATE/NORMAL_TRIGGERED: NT
DATABASE_VERSION: 0.5
HEADER_FORMAT: DYNA 1.2
DATA_TYPE: DISPLACEMENT
PROCESSING: manual (Paolucci et al., 2011)
DATA_TIMESTAMP_YYYYMMDD_HHMMSS: 20211011_160131.591
DATA_LICENSE: CC-BY3_0-IT (http://creativecommons.org/licenses/by/3.0/deed.en)
DATA_CITATION: Luzi L, Pacor F, Puglia R (2019). Italian Accelerometric Archive v 3.0 - Istituto Nazionale di Geofisica e Vulcanologia, Dipartimento della Protezione Civile Nazionale. doi: 10.13127/itaca.3.1
DATA_CREATOR: ITACA working group
ORIGINAL_DATA_MEDIATOR_CITATION: data obtained within the DPC-INGV data exchange agreements
ORIGINAL_DATA_MEDIATOR: Archive of Italian Department of Civil Protection
ORIGINAL_DATA_CREATOR_CITATION: Presidency Of Counsil Of Ministers-Civil Protection Department. (1972). Italian Strong Motion Network. Presidency of Counsil of Ministers - Civil Protection Department. https://doi.org/10.7914/SN/IT http://www.fdsn.org/networks/detail/IT/
ORIGINAL_DATA_CREATOR: network: IT (Italian Strong Motion Network (RAN)); owner: Presidency of Counsil of Ministers - Civil Protection Department (PCM - DPC)
USER1: 
USER2: 
USER3: 
USER4: 
USER5: 
[...]
1.032803e-01
1.039445e-01
1.046097e-01
1.052764e-01
1.059438e-01
1.066088e-01
1.072669e-01
1.079156e-01
1.085569e-01
1.091965e-01
1.098422e-01
1.105004e-01
1.111745e-01
1.118650e-01
1.125701e-01
1.132861e-01
1.140078e-01
1.147284e-01
1.154410e-01
1.161394e-01
1.168183e-01
1.174758e-01
1.181146e-01
1.187421e-01
1.193681e-01
1.200017e-01
1.206496e-01
1.213159e-01
1.220027e-01
1.227128e-01
1.234515e-01
1.242263e-01
1.250428e-01
1.259025e-01
1.268030e-01
1.277414e-01
1.287155e-01
1.297235e-01
1.307611e-01
1.318197e-01
1.328881e-01
1.339579e-01
1.350273e-01
1.361010e-01
1.371869e-01
1.382917e-01
1.394179e-01
1.405621e-01
1.417162e-01
1.428708e-01
1.440168e-01
1.451471e-01
1.462559e-01
1.473381e-01
1.483891e-01
1.494051e-01
1.503868e-01
1.513408e-01
1.522802e-01
1.532207e-01
1.541786e-01
1.551691e-01
1.562039e-01
1.572889e-01
1.584221e-01
1.595943e-01
1.607909e-01
1.619966e-01
1.631978e-01
1.643855e-01
1.655547e-01
1.667032e-01
1.678279e-01
1.689251e-01
1.699919e-01
1.710281e-01
1.720359e-01
1.730170e-01
1.739689e-01
1.748836e-01
1.757508e-01
1.765631e-01
1.773183e-01
1.780177e-01
1.786630e-01
1.792549e-01
1.797950e-01
1.802889e-01
1.807468e-01
1.811827e-01
1.816111e-01
1.820444e-01
1.824911e-01
1.829559e-01
1.834396e-01
1.839390e-01
1.844467e-01
1.849522e-01
1.854450e-01
1.859176e-01
1.863676e-01
1.867986e-01
1.872190e-01
1.876402e-01
1.880729e-01
1.885245e-01
1.889973e-01
1.894883e-01
1.899910e-01
1.904988e-01
1.910077e-01
1.915158e-01
1.920198e-01
1.925129e-01
1.929850e-01
1.934260e-01
1.938300e-01
1.941971e-01
1.945320e-01
1.948407e-01
1.951272e-01
1.953938e-01
1.956419e-01
1.958742e-01
1.960937e-01
1.963021e-01
1.964986e-01
1.966806e-01
1.968461e-01
1.969938e-01
1.971227e-01
1.972330e-01
1.973265e-01
1.974065e-01
1.974758e-01
1.975359e-01
1.975874e-01
1.976305e-01
1.976663e-01
1.976968e-01
1.977253e-01
1.977549e-01
1.977898e-01
1.978365e-01
1.979038e-01
1.979997e-01
1.981295e-01
1.982939e-01
1.984890e-01
1.987057e-01
1.989299e-01
1.991433e-01
1.993263e-01
1.994615e-01
1.995371e-01
1.995468e-01
1.994880e-01
1.993585e-01
1.991546e-01
1.988723e-01
1.985119e-01
1.980833e-01
1.976057e-01
1.971020e-01
1.965915e-01
1.960864e-01
1.955923e-01
1.951112e-01
1.946434e-01
1.941871e-01
1.937361e-01
1.932792e-01
1.928022e-01
1.922920e-01
1.917401e-01
1.911427e-01
1.904978e-01
1.898001e-01
1.890397e-01
1.882038e-01
1.872821e-01
1.862712e-01
1.851755e-01
1.840057e-01
1.827767e-01
1.815059e-01
1.802125e-01
1.789162e-01
1.776345e-01
1.763798e-01
1.751576e-01
1.739677e-01
1.728074e-01
1.716735e-01
1.705616e-01
1.694645e-01
1.683712e-01
1.672686e-01
1.661455e-01
1.649984e-01
1.638327e-01
1.626582e-01
1.614849e-01
1.603206e-01
1.591701e-01
1.580335e-01
1.569039e-01
1.557660e-01
1.546004e-01
1.533909e-01
1.521306e-01
1.508208e-01
1.494667e-01
1.480721e-01
1.466396e-01
1.451735e-01
1.436825e-01
1.421809e-01
1.406861e-01
1.392149e-01
1.377803e-01
1.363914e-01
1.350533e-01
1.337689e-01
1.325392e-01
1.313621e-01
1.302317e-01
1.291378e-01
1.280697e-01
1.270194e-01
1.259832e-01
1.249580e-01
1.239359e-01
1.229009e-01
1.218293e-01
1.206932e-01
1.194690e-01
1.181452e-01
1.167239e-01
1.152158e-01
1.136313e-01
1.119761e-01
1.102524e-01
1.084630e-01
1.066144e-01
1.047141e-01
1.027667e-01
1.007729e-01
9.873079e-02
9.663818e-02
9.449219e-02
9.228761e-02
9.001748e-02
8.767602e-02
8.526069e-02
8.277231e-02
8.021454e-02
7.759363e-02
7.491774e-02
7.219570e-02
6.943644e-02
6.664925e-02
6.384325e-02
6.102575e-02
5.820049e-02
5.536642e-02
5.251719e-02
4.964257e-02
4.673242e-02
4.378117e-02
4.078924e-02
3.776106e-02
3.470117e-02
3.161155e-02
2.849182e-02
2.534270e-02
2.217005e-02
1.898661e-02
1.581021e-02
1.265974e-02
9.550445e-03
6.490140e-03
3.477923e-03
5.067868e-04
-2.430147e-03
-5.333036e-03
-8.192402e-03
-1.099119e-02
-1.370926e-02
-1.632662e-02
-1.882441e-02
-2.118457e-02
-2.339003e-02
-2.542686e-02
-2.728810e-02
-2.897717e-02
-3.050845e-02
-3.190509e-02
-3.319558e-02
-3.441038e-02
-3.557886e-02
-3.672722e-02
-3.787759e-02
-3.904819e-02
-4.025439e-02
-4.150994e-02
-4.282703e-02
-4.421574e-02
-4.568411e-02
-4.723931e-02
-4.888899e-02
-5.064152e-02
-5.250372e-02
-5.447687e-02
-5.655351e-02
-5.871780e-02
-6.094897e-02
-6.322414e-02
-6.551880e-02
-6.780711e-02
-7.006531e-02
-7.227733e-02
-7.443820e-02
-7.655226e-02
-7.862759e-02
-8.067180e-02
-8.269133e-02
-8.469247e-02
-8.668118e-02
-8.866125e-02
-9.063180e-02
-9.258640e-02
-9.451440e-02
-9.640327e-02
-9.824050e-02
-1.000145e-01
-1.017151e-01
-1.033342e-01
-1.048664e-01
-1.063078e-01
-1.076558e-01
-1.089102e-01
-1.100747e-01
-1.111583e-01
-1.121759e-01
-1.131472e-01
-1.140947e-01
-1.150410e-01
-1.160056e-01
-1.170040e-01
-1.180459e-01
-1.191347e-01
-1.202660e-01
-1.214296e-01
-1.226147e-01
-1.238144e-01
-1.250273e-01
-1.262563e-01
-1.275077e-01
-1.287901e-01
-1.301125e-01
-1.314824e-01
-1.329055e-01
-1.343864e-01
-1.359295e-01
-1.375380e-01
-1.392122e-01
-1.409473e-01
-1.427321e-01
-1.445507e-01
-1.463858e-01
-1.482206e-01
-1.500371e-01
-1.518168e-01
-1.535448e-01
-1.552124e-01
-1.568163e-01
-1.583538e-01
-1.598196e-01
-1.612042e-01
-1.624945e-01
-1.636761e-01
-1.647368e-01
-1.656712e-01
-1.664807e-01
-1.671712e-01
-1.677485e-01
-1.682186e-01
-1.685912e-01
-1.688815e-01
-1.691076e-01
-1.692870e-01
-1.694336e-01
-1.695565e-01
-1.696595e-01
-1.697422e-01
-1.697997e-01
-1.698249e-01
-1.698118e-01
-1.697605e-01
-1.696786e-01
-1.695798e-01
-1.694803e-01
-1.693972e-01
-1.693485e-01
-1.693516e-01
-1.694184e-01
-1.695510e-01
-1.697419e-01
-1.699790e-01
-1.702526e-01
-1.705582e-01
-1.708965e-01
-1.712711e-01
-1.716867e-01
-1.721480e-01
-1.726600e-01
-1.732263e-01
-1.738469e-01
-1.745144e-01
-1.752117e-01
-1.759133e-01
-1.765912e-01
-1.772195e-01
-1.777756e-01
-1.782373e-01
-1.785815e-01
-1.787857e-01
-1.788315e-01
-1.787071e-01
-1.784096e-01
-1.779460e-01
-1.773349e-01
-1.766061e-01
-1.757957e-01
-1.749384e-01
-1.740614e-01
-1.731821e-01
-1.723121e-01
-1.714622e-01
-1.706462e-01
-1.698790e-01
-1.691733e-01
-1.685381e-01
-1.679790e-01
-1.675001e-01
-1.671023e-01
-1.667812e-01
-1.665249e-01
-1.663173e-01
-1.661443e-01
-1.659977e-01
-1.658743e-01
-1.657726e-01
-1.656893e-01
-1.656206e-01
-1.655651e-01
-1.655263e-01
-1.655108e-01
-1.655248e-01
-1.655719e-01
-1.656508e-01
-1.657550e-01
-1.658720e-01
-1.659848e-01
-1.660747e-01
-1.661261e-01
-1.661279e-01
-1.660738e-01
-1.659627e-01
-1.657978e-01
-1.655886e-01
-1.653520e-01
-1.651117e-01
-1.648934e-01
-1.647151e-01
-1.645820e-01
-1.644875e-01
-1.644191e-01
-1.643608e-01
-1.642931e-01
-1.641918e-01
-1.640308e-01
-1.637852e-01
-1.634348e-01
-1.629674e-01
-1.623825e-01
-1.616938e-01
-1.609260e-01
-1.601097e-01
-1.592735e-01
-1.584380e-01
-1.576119e-01
-1.567925e-01
-1.559688e-01
-1.551252e-01
-1.542451e-01
-1.533125e-01
-1.523128e-01
-1.512327e-01
-1.500638e-01
-1.488062e-01
-1.474683e-01
-1.460627e-01
-1.445994e-01
-1.430849e-01
-1.415245e-01
-1.399244e-01
-1.382919e-01
-1.366359e-01
-1.349699e-01
-1.333112e-01
-1.316771e-01
-1.300802e-01
-1.285294e-01
-1.270346e-01
-1.256122e-01
-1.242855e-01
-1.230815e-01
-1.220261e-01
-1.211390e-01
-1.204306e-01
-1.198998e-01
-1.195324e-01
-1.193057e-01
-1.191949e-01
-1.191791e-01
-1.192429e-01
-1.193731e-01
-1.195556e-01
-1.197770e-01
-1.200286e-01
-1.203095e-01
-1.206233e-01
-1.209691e-01
-1.213358e-01
-1.217042e-01
-1.220530e-01
-1.223636e-01
-1.226212e-01
-1.228146e-01
-1.229353e-01
-1.229752e-01
-1.229262e-01
-1.227843e-01
-1.225532e-01
-1.222453e-01
-1.218777e-01
-1.214682e-01
-1.210336e-01
-1.205873e-01
-1.201371e-01
-1.196824e-01
-1.192134e-01
-1.187139e-01
-1.181677e-01
-1.175640e-01
-1.169017e-01
-1.161882e-01
-1.154356e-01
-1.146542e-01
-1.138497e-01
-1.130245e-01
-1.121801e-01
-1.113190e-01
-1.104460e-01
-1.095698e-01
-1.087020e-01
-1.078504e-01
-1.070123e-01
-1.061727e-01
-1.053102e-01
-1.044062e-01
-1.034508e-01
-1.024426e-01
-1.013827e-01
-1.002702e-01
-9.910051e-02
-9.786796e-02
-9.657010e-02
-9.521197e-02
-9.380662e-02
-9.237107e-02
-9.092140e-02
-8.947157e-02
-8.803573e-02
-8.662906e-02
-8.526441e-02
-8.394828e-02
-8.268078e-02
-8.145903e-02
-8.027861e-02
-7.913059e-02
-7.799816e-02
-7.685767e-02
-7.568267e-02
-7.444650e-02
-7.312272e-02
-7.168694e-02
-7.012185e-02
-6.842261e-02
-6.659922e-02
-6.467570e-02
-6.268736e-02
-6.067640e-02
-5.868723e-02
-5.676362e-02
-5.494761e-02
-5.327780e-02
-5.178580e-02
-5.049108e-02
-4.939559e-02
-4.848062e-02
-4.770866e-02
-4.702916e-02
-4.638546e-02
-4.572141e-02
-4.498873e-02
-4.415460e-02
-4.320671e-02
-4.215300e-02
-4.101657e-02
-3.982903e-02
-3.862524e-02
-3.743856e-02
-3.629609e-02
-3.521494e-02
-3.420092e-02
-3.325025e-02
-3.235476e-02
-3.150803e-02
-3.070739e-02
-2.995107e-02
-2.923549e-02
-2.855396e-02
-2.789462e-02
-2.723858e-02
-2.656180e-02
-2.584094e-02
-2.505954e-02
-2.421081e-02
-2.329576e-02
-2.231848e-02
-2.128077e-02
-2.017809e-02
-1.899749e-02
-1.771724e-02
-1.630915e-02
-1.474457e-02
-1.300276e-02
-1.107731e-02
-8.976533e-03
-6.717423e-03
-4.318554e-03
-1.798159e-03
8.229423e-04
3.518692e-03
6.258709e-03
9.012029e-03
1.175114e-02
1.445439e-02
1.710721e-02
1.970356e-02
2.224568e-02
2.473980e-02
2.718919e-02
2.959077e-02
3.193858e-02
3.423055e-02
3.647187e-02
3.867298e-02
4.084619e-02
4.300519e-02
4.516636e-02
4.734818e-02
4.956748e-02
5.183510e-02
5.415271e-02
5.651060e-02
5.888635e-02
6.124619e-02
6.354988e-02
6.575839e-02
6.784197e-02
6.978496e-02
7.158548e-02
7.325172e-02
7.479907e-02
7.624768e-02
7.761793e-02
7.892523e-02
8.017925e-02
8.138755e-02
8.255853e-02
8.370034e-02
8.481758e-02
8.590932e-02
8.696979e-02
8.799068e-02
8.896292e-02
8.987626e-02
9.071749e-02
9.147084e-02
9.212388e-02
9.267526e-02
9.313681e-02
9.352694e-02
9.386185e-02
9.415280e-02
9.441142e-02
9.465623e-02
9.491236e-02
9.520229e-02
9.553408e-02
9.589715e-02
9.626961e-02
9.663061e-02
9.696690e-02
9.727030e-02
9.753163e-02
9.773836e-02
9.787696e-02
9.793696e-02
9.791421e-02
9.781172e-02
9.763885e-02
9.740978e-02
9.714142e-02
9.684977e-02
9.654549e-02
9.623100e-02
9.590004e-02
9.554023e-02
9.513774e-02
9.468320e-02
9.417659e-02
9.362815e-02
9.305226e-02
9.245667e-02
9.183537e-02
9.117160e-02
9.044846e-02
8.965747e-02
8.879852e-02
8.787315e-02
8.687974e-02
8.581680e-02
8.469214e-02
8.352823e-02
8.235705e-02
8.120789e-02
8.009747e-02
7.902765e-02
7.798870e-02
7.696520e-02
7.594249e-02
7.491053e-02
7.386327e-02
7.279556e-02
7.170172e-02
7.057718e-02
6.942122e-02
6.823845e-02
6.703745e-02
6.582793e-02
6.462012e-02
6.342765e-02
6.226893e-02
6.116349e-02
6.012712e-02
5.917230e-02
5.831226e-02
5.756230e-02
5.693532e-02
5.643640e-02
5.606265e-02
5.580858e-02
5.567196e-02
5.565469e-02
5.575825e-02
5.597859e-02
5.630508e-02
5.672346e-02
5.721884e-02
5.777678e-02
5.838210e-02
5.901631e-02
5.965654e-02
6.027887e-02
6.086468e-02
6.140452e-02
6.189689e-02
6.234492e-02
6.275629e-02
6.314594e-02
6.353508e-02
6.394354e-02
6.438124e-02
6.484524e-02
6.532239e-02
6.579323e-02
6.623452e-02
6.662051e-02
6.692523e-02
6.712780e-02
6.721877e-02
6.720186e-02
6.708973e-02
6.689734e-02
6.663763e-02
6.632096e-02
6.595760e-02
6.556008e-02
6.514261e-02
6.471704e-02
6.428849e-02
6.385473e-02
6.340981e-02
6.294935e-02
6.247311e-02
6.198271e-02
6.147681e-02
6.094931e-02
6.039300e-02
5.980596e-02
5.919691e-02
5.858692e-02
5.800644e-02
5.748832e-02
5.705960e-02
5.673556e-02
5.651735e-02
5.639307e-02
5.634209e-02
5.634163e-02
5.637380e-02
5.643047e-02
5.651400e-02
5.663431e-02
5.680510e-02
5.704123e-02
5.735733e-02
5.776650e-02
5.827913e-02
5.890229e-02
5.964130e-02
6.050445e-02
6.150854e-02
6.267971e-02
6.404661e-02
6.562956e-02
6.743333e-02
6.944796e-02
7.165557e-02
7.403877e-02
7.658640e-02
7.929392e-02
8.215820e-02
8.517021e-02
8.830996e-02
9.154664e-02
9.484441e-02
9.817077e-02
1.015024e-01
1.048251e-01
1.081283e-01
1.114023e-01
1.146404e-01
1.178441e-01
1.210260e-01
1.242041e-01
1.273938e-01
1.306027e-01
1.338330e-01
1.370871e-01
1.403699e-01
1.436831e-01
1.470189e-01
1.503588e-01
1.536806e-01
1.569666e-01
1.602098e-01
1.634133e-01
1.665868e-01
1.697409e-01
1.728834e-01
1.760171e-01
1.791421e-01
1.822592e-01
1.853715e-01
1.884819e-01
1.915882e-01
1.946818e-01
1.977486e-01
2.007715e-01
2.037322e-01
2.066149e-01
2.094085e-01
2.121073e-01
2.147081e-01
2.172058e-01
2.195919e-01
2.218558e-01
2.239891e-01
2.259881e-01
2.278535e-01
2.295864e-01
2.311830e-01
2.326325e-01
2.339194e-01
2.350288e-01
2.359528e-01
2.366945e-01
2.372681e-01
2.376958e-01
2.380015e-01
2.382061e-01
2.383265e-01
2.383747e-01
2.383572e-01
2.382730e-01
2.381132e-01
2.378639e-01
2.375099e-01
2.370375e-01
2.364362e-01
2.357011e-01
2.348353e-01
2.338504e-01
2.327652e-01
2.316020e-01
2.303842e-01
2.291342e-01
2.278694e-01
2.265979e-01
2.253158e-01
2.240086e-01
2.226553e-01
2.212327e-01
2.197181e-01
2.180918e-01
2.163411e-01
2.144648e-01
2.124746e-01
2.103903e-01
2.082301e-01
2.060067e-01
2.037280e-01
2.014028e-01
1.990428e-01
1.966630e-01
1.942780e-01
1.918988e-01
1.895300e-01
1.871697e-01
1.848114e-01
1.824467e-01
1.800695e-01
1.776778e-01
1.752720e-01
1.728518e-01
1.704156e-01
1.679616e-01
1.654895e-01
1.630009e-01
1.604984e-01
1.579859e-01
1.554685e-01
1.529506e-01
1.504349e-01
1.479230e-01
1.454170e-01
1.429191e-01
1.404268e-01
1.379281e-01
1.354036e-01
1.328332e-01
1.302030e-01
1.275080e-01
1.247522e-01
1.219454e-01
1.191004e-01
1.162283e-01
1.133382e-01
1.104392e-01
1.075419e-01
1.046542e-01
1.017781e-01
9.890703e-02
9.602837e-02
9.313013e-02
9.020879e-02
8.727403e-02
8.434668e-02
8.145110e-02
7.860698e-02
7.582493e-02
7.310723e-02
7.045234e-02
6.785984e-02
6.533184e-02
6.286901e-02
6.046365e-02
5.809582e-02
5.573693e-02
5.335804e-02
5.093516e-02
4.844883e-02
4.588185e-02
4.322111e-02
4.046351e-02
3.762094e-02
3.471948e-02
3.179389e-02
2.888133e-02
2.601633e-02
2.322552e-02
2.052321e-02
1.791238e-02
1.539270e-02
1.296999e-02
1.065899e-02
8.477836e-03
6.440488e-03
4.553977e-03
2.821384e-03
1.246674e-03
-1.628754e-04
-1.398692e-03
-2.456536e-03
-3.341649e-03
-4.068669e-03
-4.655734e-03
-5.117466e-03
-5.461856e-03
-5.691974e-03
-5.809816e-03
-5.819131e-03
-5.726072e-03
-5.538285e-03
-5.263322e-03
-4.907109e-03
-4.473349e-03
-3.963965e-03
-3.379861e-03
-2.721687e-03
-1.990977e-03
-1.191226e-03
-3.274745e-04
5.956974e-04
1.575115e-03
2.607010e-03
3.684695e-03
4.800576e-03
5.952308e-03
7.146793e-03
8.397420e-03
9.717471e-03
1.111604e-02
1.259850e-02
1.416834e-02
1.582723e-02
1.757371e-02
1.940231e-02
2.130385e-02
2.326678e-02
2.527887e-02
2.732838e-02
2.940513e-02
3.150243e-02
3.361895e-02
3.575857e-02
3.792735e-02
4.012838e-02
4.235677e-02
4.459836e-02
4.683391e-02
4.904590e-02
5.122300e-02
5.336054e-02
5.545876e-02
5.752042e-02
5.954760e-02
6.153862e-02
6.348745e-02
6.538759e-02
6.723825e-02
6.904754e-02
7.082941e-02
7.259643e-02
7.435402e-02
7.609941e-02
7.782389e-02
7.951467e-02
8.115414e-02
8.271778e-02
8.417421e-02
8.548926e-02
8.663202e-02
8.757887e-02
8.831371e-02
8.882552e-02
8.910618e-02
8.914944e-02
8.895234e-02
8.851884e-02
8.786220e-02
8.700240e-02
8.596002e-02
8.475078e-02
8.338446e-02
8.186744e-02
8.020590e-02
7.840716e-02
7.647943e-02
7.443086e-02
7.226897e-02
7.000126e-02
6.763700e-02
6.518809e-02
6.266757e-02
6.008728e-02
5.745680e-02
5.478419e-02
5.207764e-02
4.934780e-02
4.661029e-02
4.388645e-02
4.120067e-02
3.857553e-02
3.602931e-02
3.357768e-02
3.123698e-02
2.902393e-02
2.695111e-02
2.502178e-02
2.322911e-02
2.156054e-02
2.000399e-02
1.855141e-02
1.719847e-02
1.594178e-02
1.477643e-02
1.369611e-02
1.269589e-02
1.177482e-02
1.093615e-02
1.018625e-02
9.534467e-03
8.993935e-03
8.580620e-03
8.309804e-03
8.191952e-03
8.229927e-03
8.418034e-03
8.743442e-03
9.190221e-03
9.744079e-03
1.039480e-02
1.113549e-02
1.196088e-02
1.286652e-02
1.384855e-02
1.490229e-02
1.601961e-02
1.718654e-02
1.838299e-02
1.958576e-02
2.077331e-02
2.192842e-02
2.303704e-02
2.408651e-02
2.506693e-02
2.597491e-02
2.681560e-02
2.759902e-02
2.833166e-02
2.900877e-02
2.961301e-02
3.012023e-02
3.050865e-02
3.076526e-02
3.088624e-02
3.087283e-02
3.072768e-02
3.045484e-02
3.006219e-02
2.956250e-02
2.897165e-02
2.830581e-02
2.757930e-02
2.680323e-02
2.598482e-02
2.512745e-02
2.423135e-02
2.329430e-02
2.231172e-02
2.127785e-02
2.018881e-02
1.904567e-02
1.785503e-02
1.662785e-02
1.537834e-02
1.412346e-02
1.288276e-02
1.167811e-02
1.053234e-02
9.466763e-03
8.498558e-03
7.639839e-03
6.899033e-03
6.282739e-03
5.795968e-03
5.441101e-03
5.217482e-03
5.121948e-03
5.149382e-03
5.293397e-03
5.547650e-03
5.906569e-03
6.363627e-03
6.907936e-03
7.522095e-03
8.182876e-03
8.863954e-03
9.538856e-03
1.018262e-02
1.077219e-02
1.128688e-02
1.170985e-02
1.203035e-02
1.224565e-02
1.236141e-02
1.239011e-02
1.234871e-02
1.225699e-02
1.213637e-02
1.200810e-02
1.188937e-02
1.178821e-02
1.169989e-02
1.160837e-02
1.149357e-02
1.134026e-02
1.114227e-02
1.090004e-02
1.061585e-02
1.029293e-02
9.939057e-03
9.569196e-03
9.201976e-03
8.852143e-03
8.525788e-03
8.222133e-03
7.938963e-03
7.676258e-03
7.435465e-03
7.215720e-03
7.010103e-03
6.804759e-03
6.581146e-03
6.318892e-03
5.997387e-03
5.596849e-03
5.099987e-03
4.493657e-03
3.769415e-03
2.922988e-03
1.953632e-03
8.641840e-04
-3.385406e-04
-1.644344e-03
-3.041441e-03
-4.517693e-03
-6.060419e-03
-7.656448e-03
-9.293758e-03
-1.096302e-02
-1.265681e-02
-1.436711e-02
-1.608334e-02
-1.779191e-02
-1.947660e-02
-2.111875e-02
-2.269718e-02
-2.418884e-02
-2.557106e-02
-2.682478e-02
-2.793679e-02
-2.890038e-02
-2.971533e-02
-3.038853e-02
-3.093444e-02
-3.137419e-02
-3.173234e-02
-3.203178e-02
-3.228934e-02
-3.251560e-02
-3.271905e-02
-3.291080e-02
-3.310532e-02
-3.331711e-02
-3.355677e-02
-3.382979e-02
-3.413834e-02
-3.448392e-02
-3.486917e-02
-3.529783e-02
-3.577292e-02
-3.629401e-02
-3.685558e-02
-3.744742e-02
-3.805790e-02
-3.867917e-02
-3.931033e-02
-3.995604e-02
-4.062240e-02
-4.131433e-02
-4.203555e-02
