EVENT_NAME: L_AQUILA
EVENT_ID: IT-2009-0009
EVENT_DATE_YYYYMMDD: 20090406
EVENT_TIME_HHMMSS: 013240
EVENT_LATITUDE_DEGREE: 42.3420
EVENT_LONGITUDE_DEGREE: 13.3800
EVENT_DEPTH_KM: 8.3
HYPOCENTER_REFERENCE: INGV-CNT_Seismic_Bulletin
MAGNITUDE_W: 6.1
MAGNITUDE_W_REFERENCE: INGV-CNT_Seismic_Bulletin
MAGNITUDE_L: 
MAGNITUDE_L_REFERENCE: 
FOCAL_MECHANISM: Normal faulting
NETWORK: IT
STATION_CODE: LSS
STATION_NAME: 
STATION_LATITUDE_DEGREE: 42.558243
STATION_LONGITUDE_DEGREE: 12.968894
STATION_ELEVATION_M: 1065
LOCATION: 
SENSOR_DEPTH_M: 0.0
VS30_M/S: 1091
SITE_CLASSIFICATION_EC8: A
MORPHOLOGIC_CLASSIFICATION: 
EPICENTRAL_DISTANCE_KM: 41.5
EARTHQUAKE_BACKAZIMUTH_DEGREE: 305.5
DATE_TIME_FIRST_SAMPLE_YYYYMMDD_HHMMSS: 20090406_013220.000
DATE_TIME_FIRST_SAMPLE_PRECISION: seconds
SAMPLING_INTERVAL_S: 0.005000
NDATA: 21000
DURATION_S: 105.000
STREAM: HNN
UNITS: cm/s
INSTRUMENT: sensor = FBA-3 [Kinemetrics] | digitizer = Etna [Kinemetrics]
INSTRUMENT_ANALOG/DIGITAL: D
INSTRUMENTAL_FREQUENCY_HZ: 210.000
INSTRUMENTAL_DAMPING: 0.700000
FULL_SCALE_G: 1.0
N_BIT_DIGITAL_CONVERTER: 18
PGV_CM/S: -0.831016
TIME_PGV_S: 43.920000
BASELINE_CORRECTION: BASELINE REMOVED
FILTER_TYPE: BUTTERWORTH
FILTER_ORDER: 2
LOW_CUT_FREQUENCY_HZ: 0.080
HIGH_CUT_FREQUENCY_HZ: 40.000
LATE/NORMAL_TRIGGERED: NT
DATABASE_VERSION: 0.5
HEADER_FORMAT: DYNA 1.2
DATA_TYPE: VELOCITY
PROCESSING: manual (Paolucci et al., 2011)
DATA_TIMESTAMP_YYYYMMDD_HHMMSS: 20211011_160132.297
DATA_LICENSE: CC-BY3_0-IT (http://creativecommons.org/licenses/by/3.0/deed.en)
DATA_CITATION: Luzi L, Pacor F, Puglia R (2019). Italian Accelerometric Archive v 3.0 - Istituto Nazionale di Geofisica e Vulcanologia, Dipartimento della Protezione Civile Nazionale. doi: 10.13127/itaca.3.1
DATA_CREATOR: ITACA working group
ORIGINAL_DATA_MEDIATOR_CITATION: data obtained within the DPC-INGV data exchange agreements
ORIGINAL_DATA_MEDIATOR: Archive of Italian Department of Civil Protection
ORIGINAL_DATA_CREATOR_CITATION: Presidency Of Counsil Of Ministers-Civil Protection Department. (1972). Italian Strong Motion Network. Presidency of Counsil of Ministers - Civil Protection Department. https://doi.org/10.7914/SN/IT http://www.fdsn.org/networks/detail/IT/
ORIGINAL_DATA_CREATOR: network: IT (Italian Strong Motion Network (RAN)); owner: Presidency of Counsil of Ministers - Civil Protection Department (PCM - DPC)
USER1: 
USER2: 
USER3: 
USER4: 
USER5: 
[...]
-0.133761
-0.127252
-0.123050
-0.121706
-0.123334
-0.127484
-0.132869
-0.137552
-0.139808
-0.138999
-0.135843
-0.131899
-0.128431
-0.125372
-0.121373
-0.115072
-0.106349
-0.096319
-0.086188
-0.076330
-0.066518
-0.056778
-0.047554
-0.038912
-0.029948
-0.019285
-0.005879
0.010849
0.031237
0.055217
0.081928
0.109869
0.137728
0.165018
0.191699
0.217277
0.240587
0.260416
0.276082
0.287517
0.295096
0.299474
0.301420
0.301719
0.301190
0.300722
0.300918
0.301302
0.300043
0.295038
0.285465
0.272350
0.257983
0.244916
0.235101
0.229401
0.227663
0.229214
0.233349
0.239466
0.246980
0.255380
0.264479
0.274520
0.285753
0.297730
0.309139
0.318527
0.325278
0.329983
0.333761
0.337038
0.338919
0.337797
0.332427
0.322403
0.308124
0.290850
0.272626
0.255466
0.240288
0.226594
0.213214
0.199541
0.186291
0.175025
0.166646
0.160345
0.154274
0.147236
0.139380
0.131305
0.122931
0.113335
0.101362
0.086309
0.068177
0.047438
0.024740
0.000944
-0.022896
-0.045905
-0.067560
-0.087289
-0.104246
-0.117825
-0.128384
-0.137189
-0.145403
-0.152971
-0.158568
-0.160824
-0.159725
-0.156837
-0.154338
-0.153812
-0.155494
-0.158222
-0.160233
-0.160512
-0.159746
-0.159978
-0.163019
-0.168872
-0.175492
-0.180001
-0.180215
-0.175551
-0.166953
-0.155936
-0.143421
-0.129432
-0.113937
-0.097827
-0.082860
-0.070599
-0.061381
-0.054261
-0.047951
-0.041893
-0.036545
-0.032605
-0.029763
-0.026173
-0.019525
-0.008955
0.004274
0.018090
0.031259
0.043463
0.054157
0.062088
0.066183
0.066516
0.063986
0.059288
0.052613
0.044160
0.034610
0.025253
0.017737
0.013411
0.012712
0.015158
0.019636
0.024449
0.027541
0.027492
0.024488
0.020095
0.016069
0.013432
0.012496
0.013423
0.016489
0.021676
0.028088
0.033981
0.037628
0.038352
0.036743
0.033894
0.030519
0.026860
0.023178
0.019953
0.017694
0.016909
0.018248
0.022490
0.030446
0.042789
0.059539
0.079546
0.100808
0.121604
0.141359
0.160558
0.179929
0.199581
0.218921
0.237553
0.256028
0.275363
0.295897
0.316820
0.336795
0.354956
0.371324
0.386377
0.400365
0.413060
0.423987
0.432711
0.439003
0.442986
0.445235
0.446646
0.447910
0.448795
0.447922
0.443610
0.435143
0.423155
0.408885
0.393314
0.377030
0.360428
0.343577
0.325989
0.307025
0.286852
0.266982
0.249697
0.236730
0.228205
0.222507
0.217190
0.210340
0.201310
0.190320
0.177320
0.161206
0.140239
0.113634
0.082995
0.052092
0.024864
0.003304
-0.013048
-0.025839
-0.036190
-0.043958
-0.048306
-0.048729
-0.045551
-0.039681
-0.031985
-0.022704
-0.011332
0.002914
0.020435
0.040929
0.063541
0.087167
0.110509
0.131879
0.149337
0.161510
0.168435
0.171467
0.172331
0.172237
0.171623
0.170296
0.167674
0.163102
0.156094
0.146451
0.134458
0.120963
0.107065
0.093755
0.081955
0.072524
0.065740
0.060807
0.056309
0.051489
0.047005
0.044271
0.044240
0.046961
0.051914
0.058349
0.065508
0.072891
0.080341
0.087803
0.095138
0.102183
0.108668
0.114007
0.117510
0.118979
0.118900
0.117836
0.115607
0.111204
0.103612
0.092818
0.080234
0.068383
0.060017
0.056993
0.059578
0.066650
0.076477
0.087289
0.097471
0.105829
0.112144
0.117456
0.123416
0.130870
0.138969
0.145910
0.150744
0.154271
0.157944
0.162133
0.165906
0.168430
0.170104
0.172165
0.175333
0.178962
0.181521
0.181935
0.180521
0.178794
0.178517
0.180796
0.185720
0.192633
0.200599
0.208729
0.216550
0.224478
0.233677
0.244830
0.256815
0.266944
0.272920
0.274715
0.274631
0.275571
0.279055
0.284453
0.289769
0.293085
0.293509
0.291142
0.286305
0.278882
0.268534
0.255538
0.241004
0.226072
0.211247
0.196726
0.182963
0.170505
0.159382
0.148951
0.138472
0.127855
0.117828
0.109218
0.102006
0.095232
0.087911
0.079893
0.071776
0.064117
0.056838
0.049258
0.040563
0.030336
0.018940
0.007460
-0.002965
-0.012024
-0.020655
-0.030706
-0.044174
-0.062583
-0.086730
-0.116528
-0.150809
-0.187401
-0.223735
-0.257680
-0.287981
-0.314117
-0.336048
-0.354194
-0.369294
-0.381875
-0.391865
-0.398982
-0.403432
-0.405942
-0.407143
-0.407381
-0.407226
-0.407773
-0.410120
-0.414700
-0.421203
-0.428917
-0.437003
-0.444668
-0.451423
-0.457519
-0.464199
-0.473214
-0.485600
-0.500741
-0.516637
-0.531135
-0.543085
-0.552684
-0.560827
-0.567933
-0.573278
-0.575357
-0.572760
-0.564746
-0.551390
-0.533492
-0.512258
-0.488853
-0.464110
-0.438472
-0.411971
-0.384220
-0.354647
-0.322893
-0.289059
-0.253819
-0.218511
-0.184902
-0.154404
-0.127129
-0.101668
-0.075992
-0.048782
-0.020000
0.009566
0.038974
0.067299
0.093485
0.116502
0.136012
0.152971
0.169369
0.187208
0.207772
0.231653
0.258816
0.288261
0.317917
0.345386
0.369185
0.389382
0.407039
0.423107
0.437956
0.451871
0.465611
0.480057
0.495098
0.508894
0.518554
0.522018
0.519576
0.513517
0.506073
0.497534
0.486225
0.470236
0.449168
0.424403
0.397942
0.371071
0.343882
0.315694
0.285805
0.254114
0.221243
0.188132
0.155589
0.124165
0.094165
0.065550
0.037960
0.011033
-0.015228
-0.040290
-0.063140
-0.082663
-0.098379
-0.111053
-0.122407
-0.134084
-0.146867
-0.160749
-0.175311
-0.189867
-0.203639
-0.216039
-0.226524
-0.234066
-0.237178
-0.234656
-0.226225
-0.212579
-0.195078
-0.175426
-0.155366
-0.136349
-0.119222
-0.104155
-0.090893
-0.079050
-0.068057
-0.056881
-0.044040
-0.028269
-0.009433
0.011186
0.031611
0.050267
0.066444
0.079865
0.090064
0.096336
0.098250
0.096136
0.091135
0.084913
0.079184
0.075164
0.073137
0.072349
0.071355
0.068762
0.064019
0.057691
0.051034
0.045187
0.040456
0.036035
0.030333
0.021755
0.009450
-0.006434
-0.024977
-0.044987
-0.065485
-0.085784
-0.105026
-0.121643
-0.133566
-0.139305
-0.139032
-0.134736
-0.129409
-0.125860
-0.125686
-0.128753
-0.133517
-0.138067
-0.141196
-0.142747
-0.143053
-0.142092
-0.139155
-0.133330
-0.124397
-0.113401
-0.102297
-0.092906
-0.086144
-0.082085
-0.080378
-0.080408
-0.081262
-0.081979
-0.082137
-0.082124
-0.082598
-0.083594
-0.084324
-0.083841
-0.081726
-0.078185
-0.073861
-0.069738
-0.066988
-0.066694
-0.069728
-0.076772
-0.088160
-0.103658
-0.122613
-0.144352
-0.168277
-0.193490
-0.218411
-0.240803
-0.258270
-0.269008
-0.272488
-0.269680
-0.262580
-0.253274
-0.243272
-0.233517
-0.224744
-0.217554
-0.212177
-0.208351
-0.205486
-0.202907
-0.199956
-0.195938
-0.190132
-0.182047
-0.171774
-0.160052
-0.147791
-0.135424
-0.122604
-0.108449
-0.092009
-0.072650
-0.050185
-0.024787
0.003202
0.033363
0.065090
0.097425
0.129063
0.158582
0.184818
0.207254
0.226245
0.242867
0.258326
0.273243
0.287279
0.299462
0.309057
0.316180
0.321507
0.325676
0.329231
0.332908
0.337526
0.343470
0.350409
0.357519
0.363964
0.369349
0.373928
0.378360
0.383196
0.388639
0.394772
0.401789
0.409745
0.418075
0.425584
0.431070
0.433913
0.434123
0.432034
0.428083
0.422825
0.416987
0.411215
0.405514
0.399022
0.390563
0.379438
0.365670
0.349708
0.332073
0.313219
0.293554
0.273469
0.253343
0.233527
0.214295
0.195695
0.177358
0.158578
0.138787
0.117942
0.096496
0.075239
0.055223
0.037531
0.022905
0.011530
0.003153
-0.002720
-0.006743
-0.009619
-0.011791
-0.013082
-0.012732
-0.009964
-0.004599
0.002853
0.011590
0.020919
0.030241
0.038626
0.044619
0.046786
0.044633
0.038930
0.031034
0.021958
0.012030
0.001272
-0.009983
-0.020699
-0.029250
-0.034010
-0.034057
-0.029482
-0.021213
-0.010847
-0.000690
0.006670
0.009520
0.007974
0.003717
-0.001243
-0.005741
-0.009840
-0.014551
-0.021145
-0.030317
-0.041675
-0.053993
-0.066025
-0.077122
-0.087229
-0.096513
-0.105054
-0.112792
-0.119575
-0.125244
-0.129741
-0.133147
-0.135621
-0.137265
-0.138061
-0.138015
-0.137322
-0.136228
-0.134651
-0.132206
-0.128688
-0.124320
-0.119414
-0.114005
-0.107992
-0.101619
-0.095775
-0.091655
-0.089903
-0.089999
-0.090513
-0.089951
-0.087436
-0.082871
-0.076771
-0.070016
-0.063557
-0.058194
-0.054518
-0.052965
-0.053759
-0.056694
-0.061096
-0.066098
-0.070954
-0.075199
-0.078724
-0.081818
-0.084931
-0.088195
-0.091147
-0.093040
-0.093479
-0.092736
-0.091446
-0.090113
-0.088952
-0.087897
-0.086438
-0.083735
-0.079355
-0.073874
-0.068513
-0.064133
-0.060556
-0.056639
-0.050835
-0.041837
-0.029038
-0.012500
0.007575
0.031239
0.058531
0.088888
0.120965
0.153074
0.183875
0.212847
0.240264
0.266724
0.292514
0.317278
0.340155
0.360129
0.376366
0.388553
0.397223
0.403785
0.410028
0.417358
0.426283
0.436507
0.447458
0.458805
0.470629
0.483288
0.497158
0.512395
0.528722
0.545259
0.560609
0.573337
0.582547
0.588103
0.590405
0.589956
0.587063
0.581948
0.575155
0.567710
0.560758
0.555085
0.550871
0.547676
0.544572
0.540554
0.535168
0.528707
0.521564
0.513407
0.503069
0.489272
0.471525
0.450516
0.427744
0.404661
0.381908
0.359154
0.335593
0.310619
0.284110
0.256200
0.226945
0.196324
0.164621
0.132721
0.101807
0.072572
0.044825
0.018041
-0.007760
-0.031847
-0.053451
-0.072447
-0.089257
-0.104144
-0.116863
-0.127143
-0.135363
-0.142620
-0.150287
-0.159479
-0.170643
-0.183458
-0.197184
-0.211086
-0.224507
-0.236751
-0.247098
-0.254998
-0.260283
-0.263182
-0.264065
-0.263183
-0.260664
-0.256650
-0.251308
-0.244760
-0.236976
-0.227715
-0.216644
-0.203620
-0.188817
-0.172572
-0.155202
-0.136965
-0.118017
-0.098363
-0.078055
-0.057611
-0.038133
-0.020834
-0.006220
0.006421
0.018678
0.031955
0.046480
0.061169
0.074396
0.085062
0.093159
0.099300
0.103645
0.105416
0.103548
0.097625
0.088124
0.076074
0.062706
0.049224
0.036604
0.025481
0.016069
0.008114
0.001078
-0.005366
-0.010942
-0.014850
-0.016199
-0.014331
-0.008892
0.000103
0.012082
0.025899
0.040123
0.053371
0.064501
0.072728
0.077721
0.079611
0.078927
0.076490
0.073296
0.070469
0.069264
0.070844
0.075682
0.083135
0.091846
0.100730
0.109516
0.118404
0.127492
0.136674
0.145927
0.155442
0.165368
0.175488
0.185259
0.194230
0.202428
0.210329
0.218489
0.227213
0.236482
0.246120
0.255959
0.265884
0.275823
0.285778
0.295817
0.305954
0.315975
0.325429
0.333747
0.340292
0.344323
0.345007
0.341586
0.333681
0.321581
0.306229
0.288780
0.270017
0.250089
0.228641
0.205049
0.178627
0.148935
0.116162
0.081351
0.046241
0.012733
-0.017752
-0.044680
-0.068389
-0.089726
-0.109578
-0.128602
-0.147231
-0.165740
-0.184207
-0.202446
-0.220022
-0.236388
-0.251091
-0.263962
-0.275168
-0.285077
-0.294058
-0.302344
-0.310045
-0.317263
-0.324179
-0.330920
-0.337308
-0.342842
-0.347109
-0.350247
-0.352950
-0.355941
-0.359515
-0.363633
-0.368363
-0.374004
-0.380785
-0.388681
-0.397662
-0.407930
-0.419649
-0.432411
-0.445133
-0.456606
-0.466224
-0.474212
-0.481116
-0.486929
-0.490654
-0.490758
-0.486206
-0.477205
-0.465112
-0.451733
-0.438570
-0.426415
-0.415384
-0.405168
-0.395305
-0.385340
-0.374927
-0.363998
-0.352940
-0.342516
-0.333543
-0.326642
-0.322277
-0.320860
-0.322669
-0.327652
-0.335390
-0.345338
-0.357094
-0.370420
-0.385057
-0.400542
-0.416205
-0.431405
-0.445931
-0.460070
-0.474108
-0.487694
-0.499772
-0.509016
-0.514248
-0.514616
-0.509774
-0.500064
-0.486445
-0.470164
-0.452418
-0.434158
-0.415990
-0.398125
-0.380477
-0.362894
-0.345393
-0.328275
-0.312003
-0.296868
-0.282592
-0.268273
-0.252871
-0.235941
-0.217900
-0.199540
-0.181306
-0.163033
-0.144231
-0.124460
-0.103553
-0.081773
-0.059900
-0.039046
-0.020135
-0.003371
0.011862
0.026533
0.041328
0.056356
0.071352
0.086075
0.100508
0.114749
0.128778
0.142324
0.154915
0.166073
0.175527
0.183337
0.189869
0.195700
0.201552
0.208251
0.216539
0.226759
0.238614
0.251194
0.263228
0.273424
0.280737
0.284569
0.284890
0.282226
0.277433
0.271450
0.265204
0.259594
0.255353
0.252809
0.251726
0.251423
0.251180
0.250637
0.249855
0.249061
0.248461
0.248298
0.248985
0.251054
0.254895
0.260510
0.267505
0.275270
0.283202
0.290765
0.297438
0.302726
0.306355
0.308525
0.309979
0.311757
0.314735
0.319270
0.325167
0.331976
0.339360
0.347255
0.355747
0.364855
0.374424
0.384209
0.394099
0.404328
0.415454
0.428094
0.442595
0.458914
0.476748
0.495673
0.515117
0.534361
0.552778
0.570100
0.586354
0.601463
0.614935
0.625924
0.633566
0.637253
0.636720
0.631985
0.623293
0.611206
0.596720
0.581118
0.565461
0.550090
0.534664
0.518768
0.502446
0.486033
0.469541
0.452366
0.433636
0.412707
0.389296
0.363384
0.335185
0.305096
0.273487
0.240437
0.205713
0.169191
0.131365
0.093224
0.055490
0.018144
-0.019137
-0.056244
-0.092496
-0.127052
-0.159270
-0.188776
-0.215462
-0.239507
-0.261307
-0.281283
-0.299672
-0.316440
-0.331413
-0.344543
-0.356166
-0.367130
-0.378735
-0.392457
-0.409497
-0.430281
-0.454256
-0.480181
-0.506735
-0.532923
-0.558078
-0.581687
-0.603299
-0.622597
-0.639522
-0.654339
-0.667602
-0.679982
-0.691965
-0.703586
-0.714549
-0.724760
-0.734693
-0.745068
-0.756123
-0.767342
-0.777879
-0.787176
-0.795252
-0.802636
-0.809986
-0.817498
-0.824479
-0.829480
-0.831016
-0.828376
-0.821943
-0.812826
-0.802179
-0.790720
-0.778669
-0.765948
-0.752391
-0.737876
-0.722373
-0.705987
-0.688995
-0.671682
-0.653953
-0.635095
-0.614082
-0.590231
-0.563653
-0.535210
-0.506196
-0.478027
-0.451998
-0.429034
-0.409546
-0.393545
-0.380892
-0.371466
-0.365190
-0.361951
-0.361453
-0.363113
-0.366043
-0.369128
-0.371232
-0.371479
-0.369419
-0.364907
-0.357864
-0.348203
-0.335998
-0.321638
-0.305762
-0.288986
-0.271679
-0.253950
-0.235768
-0.217065
-0.197850
-0.178366
-0.159131
-0.140684
-0.123123
-0.105908
-0.088233
-0.069699
-0.050720
-0.032334
-0.015591
-0.001001
0.011594
0.022791
0.033318
0.043878
0.055052
0.067201
0.080405
0.094424
0.108630
0.121953
0.133093
0.141075
0.145740
0.147663
0.147570
0.145882
0.142827
0.138830
0.134604
0.130771
0.127419
0.124090
0.120205
0.115593
0.110753
0.106691
0.104462
0.104797
0.108036
0.114215
0.123143
0.134463
0.147779
0.162808
0.179434
0.197568
0.216888
0.236716
0.256281
0.275173
0.293576
0.312002
0.330762
0.349646
0.368170
0.386086
0.403540
0.420647
0.436973
0.451542
0.463378
0.472139
0.478370
0.483321
0.488514
0.495219
0.503941
0.514247
0.525165
0.535889
0.546188
0.556249
0.566239
0.576024
0.585192
0.593243
0.599686
0.603999
0.605618
0.604019
0.598861
0.590170
0.578472
0.564689
0.549723
0.533975
0.517209
0.498923
0.478909
0.457508
0.435444
0.413493
0.392168
0.371427
0.350602
0.328834
0.305823
0.282280
0.259585
0.238947
0.220836
0.205013
0.190909
0.178005
0.166052
0.155111
0.145477
0.137505
0.131341
0.126604
0.122309
0.117209
0.110291
0.100984
0.089113
0.074863
0.058781
0.041648
0.024241
0.007165
-0.009189
-0.024594
-0.038891
-0.051912
-0.063566
-0.074032
-0.083796
-0.093391
-0.103047
-0.112544
-0.121357
-0.128924
-0.134818
-0.138760
-0.140578
-0.140213
-0.137822
-0.133930
-0.129447
-0.125365
-0.122259
-0.120025
-0.118128
-0.116098
-0.113838
-0.111558
-0.109451
-0.107443
-0.105265
-0.102809
-0.100398
-0.098657
-0.098071
-0.098729
-0.100550
-0.103709
-0.108621
-0.115351
-0.123090
-0.130365
-0.135897
-0.139335
-0.141295
-0.142737
-0.144210
-0.145567
-0.146196
-0.145407
-0.142677
-0.137814
-0.131080
-0.123170
-0.115032
-0.107633
-0.101750
-0.097775
-0.095561
-0.094324
-0.092739
-0.089350
-0.083191
-0.074230
-0.063397
-0.052203
-0.042080
-0.033768
-0.027211
-0.021984
-0.017738
-0.014227
-0.011046
-0.007625
-0.003632
0.000608
0.004197
0.006251
0.006531
0.005620
0.004568
0.004342
0.005455
0.007882
0.011269
0.015322
0.020115
0.026028
0.033414
0.042335
0.052556
0.063590
0.074702
0.084999
0.093741
0.100713
0.106343
0.111471
0.116869
0.122829
0.129121
0.135426
0.141834
0.148929
0.157414
0.167696
0.179765
0.193284
0.207607
0.221725
0.234371
0.244348
0.250933
0.254167
0.254898
0.254508
0.254476
0.256011
0.259809
0.265841
0.273295
0.280929
0.287727
0.293421
0.298433
0.303330
0.308261
0.312804
0.316210
0.317756
0.317016
0.314002
0.309083
0.302698
0.295136
0.286590
0.277312
0.267626
0.257762
0.247696
0.237093
0.225469
0.212492
0.198246
0.183277
0.168421
0.154458
0.141703
0.129882
0.118473
0.107230
0.096322
0.085984
0.076104
0.066247
0.056049
0.045477
0.034688
0.023694
0.012210
-0.000155
-0.013540
-0.027592
-0.041603
-0.054920
-0.067294
-0.078853
-0.089701
-0.099547
-0.107740
-0.113686
-0.117274
-0.119024
-0.119917
-0.120987
-0.122891
-0.125702
-0.129096
-0.132747
-0.136567
-0.140665
-0.145207
-0.150349
-0.156232
-0.162989
-0.170736
-0.179527
-0.189332
-0.200079
-0.211685
-0.224010
-0.236813
-0.249767
-0.262446
-0.274295
-0.284759
-0.293594
-0.300998
-0.307348
-0.312822
-0.317346
-0.320822
-0.323330
-0.325142
-0.326581
-0.327852
-0.328943
-0.329705
-0.330005
-0.329809
-0.329209
-0.328466
-0.327931
-0.327786
-0.327827
-0.327543
-0.326395
-0.323971
-0.319975
-0.314234
-0.306782
-0.297875
-0.287905
-0.277258
-0.266259
-0.255167
-0.244117
-0.232985
-0.221448
-0.209270
-0.196517
-0.183437
-0.170136
-0.156356
-0.141527
-0.125117
-0.107105
-0.088177
-0.069428
-0.051745
-0.035348
-0.019836
-0.004654
0.010424
0.025129
0.038907
0.051240
0.061806
0.070401
0.076799
0.080779
0.082310
0.081688
0.079487
0.076401
0.073032
0.069754
0.066719
0.064007
0.061702
0.059802
0.058077
0.056048
0.053130
0.048875
0.043205
0.036547
0.029728
0.023617
0.018714
0.014974
0.012011
0.009522
0.007651
0.006975
0.008110
0.011223
0.015843
0.021070
0.026007
0.030197
0.033752
0.037099
0.040574
0.044247
0.048012
0.051760
0.055490
0.059365
0.063655
0.068502
0.073682
0.078620
0.082739
0.085810
0.087975
0.089496
0.090536
0.091080
0.090966
0.089943
0.087798
0.084544
0.080555
0.076469
0.072848
0.069812
0.066959
0.063657
0.059439
0.054210
0.048167
0.041555
0.034422
0.026564
0.017699
0.007717
-0.003237
-0.014889
-0.026988
-0.039379
-0.052015
-0.064969
-0.078406
-0.092462
-0.107078
-0.121879
-0.136231
-0.149473
-0.161137
-0.170960
-0.178741
-0.184311
-0.187637
-0.188846
-0.188099
-0.185530
-0.181390
-0.176195
-0.170576
-0.164931
-0.159195
-0.152962
-0.145812
-0.137682
-0.129051
-0.120783
-0.113672
-0.108067
-0.103851
-0.100671
-0.098129
-0.095884
-0.093740
-0.091686
-0.089772
-0.087891
-0.085676
-0.082695
-0.078809
-0.074369
-0.069991
-0.066063
-0.062477
-0.058765
-0.054477
-0.049493
-0.044072
-0.038657
-0.033593
-0.029005
-0.024872
-0.021136
-0.017688
-0.014320
-0.010791
-0.007023
-0.003268
-0.000037
0.002103
0.002652
0.001200
-0.002432
-0.008023
-0.014990
-0.022726
-0.030949
-0.039784
