EVENT_NAME: L_AQUILA
EVENT_ID: IT-2009-0009
EVENT_DATE_YYYYMMDD: 20090406
EVENT_TIME_HHMMSS: 013240
EVENT_LATITUDE_DEGREE: 42.3420
EVENT_LONGITUDE_DEGREE: 13.3800
EVENT_DEPTH_KM: 8.3
HYPOCENTER_REFERENCE: INGV-CNT_Seismic_Bulletin
MAGNITUDE_W: 6.1
MAGNITUDE_W_REFERENCE: INGV-CNT_Seismic_Bulletin
MAGNITUDE_L: 
MAGNITUDE_L_REFERENCE: 
FOCAL_MECHANISM: Normal faulting
NETWORK: IT
STATION_CODE: LSS
STATION_NAME: 
STATION_LATITUDE_DEGREE: 42.558243
STATION_LONGITUDE_DEGREE: 12.968894
STATION_ELEVATION_M: 1065
LOCATION: 
SENSOR_DEPTH_M: 0.0
VS30_M/S: 1091
SITE_CLASSIFICATION_EC8: A
MORPHOLOGIC_CLASSIFICATION: 
EPICENTRAL_DISTANCE_KM: 41.5
EARTHQUAKE_BACKAZIMUTH_DEGREE: 305.5
DATE_TIME_FIRST_SAMPLE_YYYYMMDD_HHMMSS: 
DATE_TIME_FIRST_SAMPLE_PRECISION: 
SAMPLING_INTERVAL_S: 
NDATA: 105
DURATION_S: 
STREAM: HNE
UNITS: cm
INSTRUMENT: sensor = FBA-3 [Kinemetrics] | digitizer = Etna [Kinemetrics]
INSTRUMENT_ANALOG/DIGITAL: D
INSTRUMENTAL_FREQUENCY_HZ: 206.000
INSTRUMENTAL_DAMPING: 0.700000
FULL_SCALE_G: 1.0
N_BIT_DIGITAL_CONVERTER: 18
PGD_CM: 0.238375
TIME_PGD_S: 
BASELINE_CORRECTION: BASELINE REMOVED
FILTER_TYPE: BUTTERWORTH
FILTER_ORDER: 2
LOW_CUT_FREQUENCY_HZ: 0.080
HIGH_CUT_FREQUENCY_HZ: 40.000
LATE/NORMAL_TRIGGERED: NT
DATABASE_VERSION: 0.5
HEADER_FORMAT: DYNA 1.2
DATA_TYPE: DISPLACEMENT RESPONSE SPECTRUM
PROCESSING: manual (Paolucci et al., 2011)
DATA_TIMESTAMP_YYYYMMDD_HHMMSS: 20211011_160133.190
DATA_LICENSE: CC-BY3_0-IT (http://creativecommons.org/licenses/by/3.0/deed.en)
DATA_CITATION: Luzi L, Pacor F, Puglia R (2019). Italian Accelerometric Archive v 3.0 - Istituto Nazionale di Geofisica e Vulcanologia, Dipartimento della Protezione Civile Nazionale. doi: 10.13127/itaca.3.1
DATA_CREATOR: ITACA working group
ORIGINAL_DATA_MEDIATOR_CITATION: data obtained within the DPC-INGV data exchange agreements
ORIGINAL_DATA_MEDIATOR: Archive of Italian Department of Civil Protection
ORIGINAL_DATA_CREATOR_CITATION: Presidency Of Counsil Of Ministers-Civil Protection Department. (1972). Italian Strong Motion Network. Presidency of Counsil of Ministers - Civil Protection Department. https://doi.org/10.7914/SN/IT http://www.fdsn.org/networks/detail/IT/
ORIGINAL_DATA_CREATOR: network: IT (Italian Strong Motion Network (RAN)); owner: Presidency of Counsil of Ministers - Civil Protection Department (PCM - DPC)
USER1: 
USER2: 
USER3: 
USER4: 
USER5: 
    0.010000     0.000024
    0.020000     0.000098
    0.022000     0.000120
    0.025000     0.000155
    0.029000     0.000219
    0.030000     0.000233
    0.032000     0.000265
    0.035001     0.000339
    0.036000     0.000353
    0.040000     0.000442
    0.041999     0.000500
    0.044001     0.000578
    0.045000     0.000627
    0.046000     0.000670
    0.048001     0.000767
    0.050000     0.000896
    0.054999     0.001046
    0.059999     0.001266
    0.064998     0.001429
    0.067002     0.001596
    0.069999     0.001968
    0.075002     0.002632
    0.080000     0.002812
    0.084998     0.003666
    0.090001     0.004578
    0.095003     0.006057
    0.100000     0.006304
    0.109999     0.007736
    0.120005     0.008488
    0.130005     0.009297
    0.132996     0.009870
    0.139997     0.009960
    0.149993     0.011273
    0.160000     0.012796
    0.170010     0.014606
    0.179986     0.015688
    0.190006     0.017912
    0.200000     0.020929
    0.220022     0.037023
    0.239981     0.044415
    0.250000     0.041105
    0.260010     0.036836
    0.280034     0.038466
    0.290023     0.041341
    0.300030     0.050767
    0.320000     0.054834
    0.340020     0.056750
    0.350017     0.073271
    0.359971     0.095191
    0.379939     0.107824
    0.400000     0.097405
    0.419992     0.080435
    0.439947     0.096253
    0.450045     0.114020
    0.459982     0.134820
    0.480077     0.155246
    0.500000     0.154478
    0.550055     0.118732
    0.599880     0.131526
    0.650195     0.175774
    0.667111     0.176823
    0.699790     0.163133
    0.750188     0.184345
    0.800000     0.219595
    0.850340     0.277248
    0.900090     0.304494
    0.949668     0.342507
    1.000000     0.344924
    1.100110     0.397699
    1.200480     0.410679
    1.300390     0.325228
    1.400560     0.296184
    1.499250     0.382911
    1.600000     0.323694
    1.700680     0.340349
    1.798561     0.292819
    1.901141     0.284389
    2.000000     0.265586
    2.197802     0.418624
    2.398082     0.416683
    2.500000     0.403714
    2.597403     0.462952
    2.801121     0.579220
    3.003003     0.675295
    3.205128     0.583408
    3.401361     0.608425
    3.496503     0.639676
    3.597122     0.699174
    3.802281     0.741099
    4.000000     0.754701
    4.201681     0.650057
    4.405286     0.655668
    4.608295     0.626414
    4.807692     0.594565
    5.000000     0.539659
    5.494505     0.578303
    5.988024     0.543799
    6.493506     0.459170
    6.993007     0.421303
    7.518797     0.379597
    8.000000     0.338149
    8.474576     0.335107
    9.009009     0.327220
    9.523809     0.308195
   10.000000     0.305943
