EVENT_NAME: L_AQUILA
EVENT_ID: IT-2009-0009
EVENT_DATE_YYYYMMDD: 20090406
EVENT_TIME_HHMMSS: 013240
EVENT_LATITUDE_DEGREE: 42.3420
EVENT_LONGITUDE_DEGREE: 13.3800
EVENT_DEPTH_KM: 8.3
HYPOCENTER_REFERENCE: INGV-CNT_Seismic_Bulletin
MAGNITUDE_W: 6.1
MAGNITUDE_W_REFERENCE: INGV-CNT_Seismic_Bulletin
MAGNITUDE_L: 
MAGNITUDE_L_REFERENCE: 
FOCAL_MECHANISM: Normal faulting
NETWORK: IT
STATION_CODE: LSS
STATION_NAME: 
STATION_LATITUDE_DEGREE: 42.558243
STATION_LONGITUDE_DEGREE: 12.968894
STATION_ELEVATION_M: 1065
LOCATION: 
SENSOR_DEPTH_M: 0.0
VS30_M/S: 1091
SITE_CLASSIFICATION_EC8: A
MORPHOLOGIC_CLASSIFICATION: 
EPICENTRAL_DISTANCE_KM: 41.5
EARTHQUAKE_BACKAZIMUTH_DEGREE: 305.5
DATE_TIME_FIRST_SAMPLE_YYYYMMDD_HHMMSS: 
DATE_TIME_FIRST_SAMPLE_PRECISION: 
SAMPLING_INTERVAL_S: 
NDATA: 105
DURATION_S: 
STREAM: HNZ
UNITS: cm/s^2
INSTRUMENT: sensor = FBA-3 [Kinemetrics] | digitizer = Etna [Kinemetrics]
INSTRUMENT_ANALOG/DIGITAL: D
INSTRUMENTAL_FREQUENCY_HZ: 216.000
INSTRUMENTAL_DAMPING: 0.700000
FULL_SCALE_G: 1.0
N_BIT_DIGITAL_CONVERTER: 18
PGA_CM/S^2: 6.294032
TIME_PGA_S: 
BASELINE_CORRECTION: BASELINE REMOVED
FILTER_TYPE: BUTTERWORTH
FILTER_ORDER: 2
LOW_CUT_FREQUENCY_HZ: 0.080
HIGH_CUT_FREQUENCY_HZ: 40.000
LATE/NORMAL_TRIGGERED: NT
DATABASE_VERSION: 0.5
HEADER_FORMAT: DYNA 1.2
DATA_TYPE: ACCELERATION RESPONSE SPECTRUM
PROCESSING: manual (Paolucci et al., 2011)
DATA_TIMESTAMP_YYYYMMDD_HHMMSS: 20211011_160133.621
DATA_LICENSE: CC-BY3_0-IT (http://creativecommons.org/licenses/by/3.0/deed.en)
DATA_CITATION: Luzi L, Pacor F, Puglia R (2019). Italian Accelerometric Archive v 3.0 - Istituto Nazionale di Geofisica e Vulcanologia, Dipartimento della Protezione Civile Nazionale. doi: 10.13127/itaca.3.1
DATA_CREATOR: ITACA working group
ORIGINAL_DATA_MEDIATOR_CITATION: data obtained within the DPC-INGV data exchange agreements
ORIGINAL_DATA_MEDIATOR: Archive of Italian Department of Civil Protection
ORIGINAL_DATA_CREATOR_CITATION: Presidency Of Counsil Of Ministers-Civil Protection Department. (1972). Italian Strong Motion Network. Presidency of Counsil of Ministers - Civil Protection Department. https://doi.org/10.7914/SN/IT http://www.fdsn.org/networks/detail/IT/
ORIGINAL_DATA_CREATOR: network: IT (Italian Strong Motion Network (RAN)); owner: Presidency of Counsil of Ministers - Civil Protection Department (PCM - DPC)
USER1: 
USER2: 
USER3: 
USER4: 
USER5: 
    0.010000     6.295905
    0.020000     6.487508
    0.022000     6.625337
    0.025000     6.657963
    0.029000     6.996347
    0.030000     7.070026
    0.032000     7.279756
    0.035001     7.126992
    0.036000     6.994114
    0.040000     7.773461
    0.041999     8.210471
    0.044001     8.171792
    0.045000     8.087192
    0.046000     8.091282
    0.048001     8.872836
    0.050000     9.100012
    0.054999     8.805479
    0.059999     7.694544
    0.064998     8.443931
    0.067002     9.319657
    0.069999     9.800929
    0.075002     8.361318
    0.080000     9.320120
    0.084998    11.515532
    0.090001    13.266834
    0.095003    14.092930
    0.100000    14.418197
    0.109999    12.305995
    0.120005    14.529914
    0.130005    12.987917
    0.132996    12.775613
    0.139997    13.069745
    0.149993    12.826962
    0.160000    15.729237
    0.170010    14.637880
    0.179986    14.108351
    0.190006    15.539773
    0.200000    15.742229
    0.220022    16.002323
    0.239981    16.967525
    0.250000    16.241814
    0.260010    16.065546
    0.280034    17.688946
    0.290023    17.688629
    0.300030    17.713980
    0.320000    15.649057
    0.340020    11.296398
    0.350017     9.685704
    0.359971     9.493929
    0.379939     8.362168
    0.400000     8.216433
    0.419992     9.700889
    0.439947     8.266508
    0.450045     8.281840
    0.459982     8.120401
    0.480077     7.307068
    0.500000     7.455542
    0.550055     7.963731
    0.599880     6.457648
    0.650195     6.598360
    0.667111     7.140019
    0.699790     7.298489
    0.750188     5.863696
    0.800000     6.351797
    0.850340     7.629525
    0.900090     8.825721
    0.949668     7.466111
    1.000000     8.517237
    1.100110     6.745964
    1.200480     4.230804
    1.300390     4.697856
    1.400560     6.135398
    1.499250     5.966692
    1.600000     5.279799
    1.700680     4.499574
    1.798561     4.107716
    1.901141     3.856105
    2.000000     3.118111
    2.197802     3.533017
    2.398082     3.944567
    2.500000     3.475054
    2.597403     2.976366
    2.801121     2.188464
    3.003003     2.248140
    3.205128     2.309473
    3.401361     2.018225
    3.496503     1.876189
    3.597122     1.777959
    3.802281     1.692286
    4.000000     1.568119
    4.201681     1.473141
    4.405286     1.318173
    4.608295     1.318547
    4.807692     1.235353
    5.000000     1.192403
    5.494505     1.014915
    5.988024     0.794784
    6.493506     0.681677
    6.993007     0.482215
    7.518797     0.390034
    8.000000     0.313158
    8.474576     0.250582
    9.009009     0.202236
    9.523809     0.168625
   10.000000     0.148896
