EVENT_NAME: L_AQUILA
EVENT_ID: IT-2009-0009
EVENT_DATE_YYYYMMDD: 20090406
EVENT_TIME_HHMMSS: 013240
EVENT_LATITUDE_DEGREE: 42.3420
EVENT_LONGITUDE_DEGREE: 13.3800
EVENT_DEPTH_KM: 8.3
HYPOCENTER_REFERENCE: INGV-CNT_Seismic_Bulletin
MAGNITUDE_W: 6.1
MAGNITUDE_W_REFERENCE: INGV-CNT_Seismic_Bulletin
MAGNITUDE_L: 
MAGNITUDE_L_REFERENCE: 
FOCAL_MECHANISM: Normal faulting
NETWORK: IT
STATION_CODE: LSS
STATION_NAME: 
STATION_LATITUDE_DEGREE: 42.558243
STATION_LONGITUDE_DEGREE: 12.968894
STATION_ELEVATION_M: 1065
LOCATION: 
SENSOR_DEPTH_M: 0.0
VS30_M/S: 1091
SITE_CLASSIFICATION_EC8: A
MORPHOLOGIC_CLASSIFICATION: 
EPICENTRAL_DISTANCE_KM: 41.5
EARTHQUAKE_BACKAZIMUTH_DEGREE: 305.5
DATE_TIME_FIRST_SAMPLE_YYYYMMDD_HHMMSS: 20090406_013220.000
DATE_TIME_FIRST_SAMPLE_PRECISION: seconds
SAMPLING_INTERVAL_S: 0.005000
NDATA: 21000
DURATION_S: 105.000
STREAM: HNN
UNITS: cm/s^2
INSTRUMENT: sensor = FBA-3 [Kinemetrics] | digitizer = Etna [Kinemetrics]
INSTRUMENT_ANALOG/DIGITAL: D
INSTRUMENTAL_FREQUENCY_HZ: 210.000
INSTRUMENTAL_DAMPING: 0.700000
FULL_SCALE_G: 1.0
N_BIT_DIGITAL_CONVERTER: 18
PGA_CM/S^2: -7.628140
TIME_PGA_S: 43.665000
BASELINE_CORRECTION: BASELINE REMOVED
FILTER_TYPE: BUTTERWORTH
FILTER_ORDER: 2
LOW_CUT_FREQUENCY_HZ: 0.080
HIGH_CUT_FREQUENCY_HZ: 40.000
LATE/NORMAL_TRIGGERED: NT
DATABASE_VERSION: 0.5
HEADER_FORMAT: DYNA 1.2
DATA_TYPE: ACCELERATION
PROCESSING: manual (Paolucci et al., 2011)
DATA_TIMESTAMP_YYYYMMDD_HHMMSS: 20211011_160132.012
DATA_LICENSE: CC-BY3_0-IT (http://creativecommons.org/licenses/by/3.0/deed.en)
DATA_CITATION: Luzi L, Pacor F, Puglia R (2019). Italian Accelerometric Archive v 3.0 - Istituto Nazionale di Geofisica e Vulcanologia, Dipartimento della Protezione Civile Nazionale. doi: 10.13127/itaca.3.1
DATA_CREATOR: ITACA working group
ORIGINAL_DATA_MEDIATOR_CITATION: data obtained within the DPC-INGV data exchange agreements
ORIGINAL_DATA_MEDIATOR: Archive of Italian Department of Civil Protection
ORIGINAL_DATA_CREATOR_CITATION: Presidency Of Counsil Of Ministers-Civil Protection Department. (1972). Italian Strong Motion Network. Presidency of Counsil of Ministers - Civil Protection Department. https://doi.org/10.7914/SN/IT http://www.fdsn.org/networks/detail/IT/
ORIGINAL_DATA_CREATOR: network: IT (Italian Strong Motion Network (RAN)); owner: Presidency of Counsil of Ministers - Civil Protection Department (PCM - DPC)
USER1: 
USER2: 
USER3: 
USER4: 
USER5: 
[...]
2.095724
2.105796
1.394778
0.211132
-0.960055
-1.736656
-2.060907
-2.110920
-2.048729
-1.902583
-1.649133
-1.292026
-0.823462
-0.199100
0.581608
1.413381
2.151583
2.726894
3.177948
3.577832
3.934519
4.176474
4.249374
4.188422
4.048275
3.818284
3.483735
3.121522
2.854318
2.712339
2.576848
2.286933
1.806709
1.275391
0.902844
0.824176
1.013447
1.289193
1.424338
1.313448
1.053415
0.852584
0.864502
1.088153
1.386120
1.584748
1.566537
1.301965
0.840262
0.268886
-0.325610
-0.830126
-1.076907
-0.936581
-0.451144
0.161817
0.631145
0.788802
0.693553
0.611900
0.799628
1.260181
1.744632
2.006070
2.026112
1.971627
1.962420
1.948034
1.844714
1.728581
1.792760
2.132508
2.681262
3.345551
4.077555
4.796069
5.342262
5.588136
5.571770
5.458075
5.336149
5.115585
4.662093
3.965717
3.133276
2.286932
1.515833
0.875489
0.389320
0.059803
-0.105778
-0.093602
0.039217
0.076660
-0.251766
-1.001028
-1.914622
-2.622823
-2.873557
-2.613301
-1.963030
-1.140054
-0.347532
0.310243
0.826966
1.223434
1.502822
1.679823
1.819847
2.008240
2.246538
2.395391
2.281917
1.877472
1.350342
0.940935
0.755679
0.655363
0.376154
-0.224414
-1.074067
-2.004720
-2.855872
-3.454666
-3.644945
-3.431928
-3.035593
-2.738872
-2.675935
-2.734601
-2.649893
-2.253207
-1.675836
-1.260144
-1.214215
-1.407758
-1.571092
-1.614971
-1.674846
-1.919290
-2.394528
-3.010673
-3.626328
-4.147870
-4.539563
-4.759180
-4.767911
-4.601948
-4.330831
-3.945919
-3.391459
-2.715787
-2.111733
-1.761085
-1.642631
-1.513700
-1.119448
-0.451222
0.219925
0.577595
0.499756
0.105221
-0.336442
-0.545618
-0.402197
-0.055731
0.153151
-0.046315
-0.608325
-1.170465
-1.324098
-0.901685
-0.042923
0.932768
1.719652
2.203482
2.502972
2.797777
3.098912
3.222055
2.993494
2.452212
1.843531
1.423895
1.262002
1.211629
1.069733
0.787955
0.568295
0.718102
1.329591
2.114019
2.645677
2.763195
2.633968
2.440646
2.138937
1.586249
0.818819
0.066626
-0.505902
-0.939637
-1.334970
-1.690649
-1.909972
-1.871434
-1.503162
-0.865174
-0.139834
0.489134
0.895729
0.962475
0.618388
-0.009728
-0.600868
-0.878631
-0.805206
-0.527343
-0.187230
0.185530
0.613212
1.037307
1.282411
1.178513
0.729513
0.144833
-0.321854
-0.569846
-0.675027
-0.731812
-0.736375
-0.644862
-0.451797
-0.157133
0.267813
0.848457
1.591186
2.468557
3.350101
4.001354
4.252429
4.159170
3.950974
3.839775
3.874328
3.930377
3.867954
3.726462
3.694896
3.866942
4.106929
4.184612
3.994944
3.632226
3.273643
3.010557
2.797483
2.539070
2.185410
1.744767
1.258500
0.796592
0.449824
0.282057
0.252822
0.176964
-0.174599
-0.862354
-1.693441
-2.397442
-2.854068
-3.114157
-3.256816
-3.320423
-3.370230
-3.517578
-3.792833
-4.034677
-3.973868
-3.457065
-2.593372
-1.704940
-1.139724
-1.063234
-1.370197
-1.805857
-2.198105
-2.599844
-3.222860
-4.193413
-5.321035
-6.127700
-6.180687
-5.445603
-4.311948
-3.270375
-2.558256
-2.070187
-1.553560
-0.869622
-0.084591
0.635622
1.173908
1.539212
1.856211
2.274292
2.849294
3.504189
4.098721
4.522443
4.725277
4.668451
4.274003
3.491422
2.434646
1.384977
0.606501
0.172860
-0.018965
-0.122781
-0.265410
-0.524411
-0.914235
-1.401649
-1.928558
-2.398732
-2.698909
-2.779610
-2.662073
-2.359879
-1.886203
-1.356828
-0.986579
-0.899624
-0.964006
-0.896766
-0.546822
-0.006230
0.544251
0.990447
1.287092
1.431836
1.476466
1.490029
1.492392
1.467090
1.409036
1.297012
1.067781
0.700500
0.293755
-0.015647
-0.212800
-0.445782
-0.880740
-1.518413
-2.158777
-2.516823
-2.370069
-1.673297
-0.604742
0.516976
1.414333
1.965383
2.162562
2.036297
1.671651
1.262958
1.062458
1.192008
1.490797
1.619684
1.388279
0.966858
0.705356
0.734567
0.837816
0.754687
0.504746
0.334844
0.412033
0.633609
0.725937
0.511804
0.082734
-0.282764
-0.345448
-0.055308
0.455674
0.984923
1.382627
1.593160
1.625992
1.564246
1.585517
1.839770
2.230643
2.397038
2.025769
1.195092
0.359149
-0.016923
0.187958
0.696833
1.079627
1.063268
0.663082
0.084950
-0.473516
-0.967327
-1.484607
-2.069618
-2.599233
-2.906861
-2.986366
-2.964896
-2.904272
-2.752631
-2.491482
-2.224675
-2.086152
-2.095786
-2.123385
-2.005511
-1.722017
-1.442318
-1.354767
-1.464339
-1.603413
-1.623461
-1.531884
-1.455829
-1.515908
-1.739059
-2.045333
-2.279210
-2.296068
-2.084884
-1.811837
-1.726211
-2.010280
-2.693585
-3.681813
-4.829404
-5.959509
-6.856178
-7.318418
-7.266774
-6.788968
-6.060248
-5.227183
-4.386228
-3.629254
-3.020049
-2.516089
-1.998130
-1.423341
-0.890013
-0.501893
-0.240332
-0.047495
0.030880
-0.109367
-0.469262
-0.915992
-1.300685
-1.542721
-1.617312
-1.532876
-1.351142
-1.219231
-1.335930
-1.802894
-2.477331
-3.028158
-3.179284
-2.899516
-2.389942
-1.919955
-1.628433
-1.421350
-1.068949
-0.415709
0.519316
1.602728
2.671257
3.579694
4.246768
4.680969
4.948679
5.127517
5.300201
5.550269
5.914482
6.350760
6.766939
7.047927
7.061696
6.721689
6.099630
5.455086
5.092213
5.135043
5.442055
5.756439
5.913167
5.881644
5.664968
5.237125
4.603480
3.902032
3.391799
3.279595
3.567674
4.112836
4.776319
5.432469
5.889036
5.931144
5.493871
4.759867
4.039434
3.531404
3.213443
2.969780
2.783135
2.747963
2.889182
3.008215
2.759173
1.931961
0.692783
-0.488233
-1.211958
-1.488794
-1.707736
-2.261753
-3.197843
-4.213560
-4.953100
-5.292089
-5.374233
-5.437815
-5.637700
-5.977719
-6.338204
-6.574286
-6.622043
-6.508619
-6.284826
-5.999959
-5.722973
-5.518063
-5.385460
-5.252226
-5.012292
-4.570113
-3.904462
-3.143253
-2.534770
-2.270874
-2.335296
-2.556628
-2.776497
-2.912262
-2.911205
-2.754395
-2.480112
-2.096890
-1.508499
-0.622341
0.504455
1.686184
2.729210
3.500153
3.930400
4.011975
3.803437
3.425290
3.013405
2.652383
2.368700
2.198579
2.235175
2.568138
3.154233
3.767325
4.123749
4.084902
3.731229
3.235384
2.684235
2.039861
1.254259
0.382861
-0.422794
-1.000131
-1.244517
-1.145777
-0.803880
-0.405455
-0.157555
-0.198846
-0.518575
-0.948618
-1.265574
-1.331384
-1.169465
-0.946292
-0.884146
-1.140397
-1.715470
-2.461093
-3.176790
-3.708552
-4.002067
-4.099498
-4.059966
-3.848421
-3.323336
-2.384516
-1.147790
0.054461
0.859186
1.065564
0.709691
0.034823
-0.613406
-0.952858
-0.909900
-0.625915
-0.310203
-0.061149
0.192321
0.587341
1.165009
1.786490
2.199229
2.220871
1.878248
1.352299
0.811892
0.341429
-0.006049
-0.170785
-0.143534
-0.031506
0.002529
-0.094738
-0.199227
-0.145995
0.096645
0.423018
0.708158
0.864737
0.824632
0.550041
0.058751
-0.606782
-1.408718
-2.277588
-3.099617
-3.790973
-4.347980
-4.784847
-5.042575
-4.984289
-4.478455
-3.493418
-2.147562
-0.695862
0.561437
1.420102
1.861110
2.000481
1.951035
1.754507
1.437987
1.075438
0.765193
0.573088
0.515754
0.590167
0.803600
1.161112
1.617184
2.054464
2.344527
2.452119
2.473502
2.563882
2.831117
3.287881
3.871787
4.493040
5.079593
5.597837
6.032208
6.345348
6.467063
6.327520
5.903747
5.247364
4.487140
3.798134
3.324414
3.091844
2.983320
2.807320
2.436485
1.919106
1.424516
1.065337
0.833853
0.710988
0.735472
0.923663
1.188784
1.387682
1.422110
1.289040
1.076865
0.915788
0.886493
0.967161
1.088501
1.226610
1.403473
1.591298
1.665931
1.501845
1.097135
0.568568
0.041986
-0.417835
-0.790080
-1.051581
-1.167709
-1.154351
-1.140191
-1.298490
-1.691632
-2.225032
-2.753732
-3.192281
-3.527003
-3.770827
-3.932992
-4.016984
-4.025284
-3.963182
-3.846342
-3.719939
-3.667456
-3.755973
-3.958168
-4.169000
-4.289359
-4.251277
-4.003278
-3.538284
-2.925299
-2.275003
-1.675358
-1.174658
-0.804499
-0.575180
-0.434416
-0.258332
0.070061
0.553634
1.073001
1.490451
1.747287
1.865884
1.864261
1.677001
1.198731
0.433288
-0.430569
-1.140669
-1.579085
-1.815271
-1.985483
-2.151635
-2.251100
-2.143150
-1.710167
-0.952074
-0.009366
0.914941
1.653870
2.073123
2.031404
1.472046
0.569959
-0.309180
-0.851318
-0.992062
-0.899478
-0.819915
-0.942170
-1.318711
-1.834495
-2.271491
-2.463653
-2.406535
-2.219242
-2.021458
-1.856708
-1.708295
-1.547602
-1.356553
-1.133916
-0.899252
-0.681220
-0.494865
-0.328735
-0.159326
0.009363
0.138457
0.218914
0.315326
0.488970
0.703595
0.873633
0.981287
1.081700
1.202623
1.274604
1.168822
0.824028
0.350344
-0.019297
-0.102686
0.112480
0.502878
0.913073
1.219858
1.351172
1.291805
1.072497
0.735296
0.310504
-0.158737
-0.586998
-0.880505
-1.000286
-0.971333
-0.848973
-0.705048
-0.618677
-0.622664
-0.652760
-0.590402
-0.378618
-0.087746
0.148538
0.257937
0.266767
0.232145
0.210890
0.291800
0.540687
0.876092
1.096165
1.072226
0.875918
0.715333
0.783404
1.160830
1.799558
2.559797
3.307665
4.014993
4.732827
5.458359
6.071385
6.415419
6.421763
6.160335
5.794382
5.483448
5.291854
5.157979
4.952923
4.575247
3.994870
3.247525
2.437227
1.734078
1.312455
1.248603
1.465898
1.785132
2.044658
2.190156
2.269418
2.364820
2.531787
2.774081
3.047482
3.265408
3.307384
3.069949
2.545628
1.841979
1.111122
0.460358
-0.089672
-0.578586
-1.023130
-1.358478
-1.489144
-1.390270
-1.134551
-0.842852
-0.638967
-0.620871
-0.803651
-1.077106
-1.292292
-1.428458
-1.631448
-2.067663
-2.759403
-3.549430
-4.201828
-4.554340
-4.616518
-4.550629
-4.550817
-4.712188
-4.994799
-5.301824
-5.581926
-5.851102
-6.124192
-6.340563
-6.379970
-6.182859
-5.846997
-5.549407
-5.356738
-5.160254
-4.817417
-4.320775
-3.799240
-3.361928
-2.977442
-2.543837
-2.056054
-1.643852
-1.451503
-1.533326
-1.838461
-2.232853
-2.562855
-2.745226
-2.780456
-2.684201
-2.448715
-2.069388
-1.580097
-1.057060
-0.579743
-0.176594
0.176507
0.503643
0.802947
1.068386
1.309580
1.556687
1.852251
2.214224
2.604843
2.960607
3.248932
3.473954
3.647432
3.789560
3.930931
4.061467
4.088831
3.895564
3.459791
2.922926
2.528072
2.451398
2.655471
2.905042
2.937863
2.645254
2.133192
1.619464
1.228133
0.868996
0.354367
-0.373613
-1.184650
-1.900181
-2.410083
-2.673561
-2.696427
-2.523903
-2.224647
-1.882347
-1.591025
-1.407186
-1.288953
-1.115179
-0.781593
-0.269654
0.373570
1.087707
1.798951
2.395926
2.763446
2.844653
2.649599
2.225975
1.645554
0.998630
0.377934
-0.136827
-0.487371
-0.638780
-0.565505
-0.240984
0.315953
0.967654
1.490560
1.742207
1.776946
1.757176
1.777511
1.817608
1.836516
1.850580
1.902832
1.985204
2.024184
1.954136
1.794168
1.639689
1.580030
1.632014
1.744792
1.853900
1.927617
1.967850
1.984949
1.987857
1.990874
2.007922
2.027381
2.004134
1.890759
1.663569
1.309115
0.806222
0.136807
-0.684186
-1.580993
-2.420129
-3.070406
-3.489733
-3.752633
-3.985657
-4.289468
-4.718441
-5.284420
-5.938344
-6.554635
-6.962314
-7.022016
-6.701528
-6.096957
-5.385534
-4.741927
-4.267425
-3.970279
-3.804840
-3.725886
-3.701660
-3.693369
-3.647872
-3.515311
-3.273116
-2.940542
-2.574319
-2.241146
-1.981811
-1.796117
-1.657286
-1.540145
-1.443632
-1.383194
-1.348251
-1.277475
-1.106944
-0.853394
-0.627629
-0.540429
-0.598318
-0.714793
-0.823657
-0.945975
-1.128195
-1.356158
-1.579117
-1.796191
-2.053731
-2.343801
-2.552396
-2.544305
-2.294581
-1.923567
-1.597741
-1.380715
-1.162738
-0.744937
-0.020674
0.910294
1.800283
2.418618
2.675619
2.632785
2.430938
2.206179
2.043124
1.972580
1.992996
2.082685
2.185798
2.211680
2.084714
1.794688
1.380201
0.872909
0.283354
-0.361788
-0.996456
-1.547647
-1.989642
-2.351145
-2.665302
-2.927281
-3.097145
-3.132539
-3.040091
-2.905015
-2.827903
-2.807493
-2.717327
-2.415500
-1.848791
-1.046387
-0.073646
0.968334
1.942069
2.723813
3.256174
3.549232
3.651846
3.633754
3.573036
3.529407
3.516686
3.500193
3.423666
3.254249
3.027185
2.855068
2.863779
3.080453
3.385977
3.608254
3.672029
3.646772
3.654521
3.760468
3.954149
4.181394
4.356121
4.374510
4.170775
3.782245
3.352844
3.046488
2.934230
2.959060
3.005623
2.999185
2.944538
2.886544
2.848195
2.805877
2.709151
2.518188
2.231619
1.890857
1.561911
1.306470
1.166123
1.170480
1.339829
1.657677
2.043910
2.371082
2.515983
2.406818
2.039060
1.462740
0.766304
0.064271
-0.532823
-0.958630
-1.196665
-1.249087
-1.121985
-0.848215
-0.508842
-0.216627
-0.060614
-0.048661
-0.108450
-0.156473
-0.158823
-0.119962
-0.032642
0.137424
0.413902
0.768077
1.123117
1.398850
1.553102
1.586341
1.512564
1.334574
1.057628
0.725853
0.434022
0.290867
0.355435
0.595700
0.907044
1.179410
1.361770
1.476841
1.578991
1.698338
1.821571
1.913888
1.956923
1.978060
2.045743
2.225230
2.528004
2.900218
3.263739
3.566743
3.785042
3.888822
3.848791
3.683419
3.464493
3.250633
3.021861
2.694373
2.197876
1.528332
0.737415
-0.106541
-0.947101
-1.738392
-2.417427
-2.897156
-3.120317
-3.131382
-3.074251
-3.085276
-3.179073
-3.264473
-3.282557
-3.298346
-3.435083
-3.746003
-4.185792
-4.682287
-5.182323
-5.639824
-6.017856
-6.321667
-6.610024
-6.944920
-7.304310
-7.565268
-7.628140
-7.546755
-7.469292
-7.456101
-7.421354
-7.250462
-6.911264
-6.443502
-5.901248
-5.337307
-4.808889
-4.359995
-3.995323
-3.677677
-3.353688
-2.994623
-2.625900
-2.324591
-2.192850
-2.320916
-2.744534
-3.407862
-4.156894
-4.794939
-5.185030
-5.310778
-5.237535
-5.031176
-4.721726
-4.322311
-3.859640
-3.384999
-2.963480
-2.652595
-2.476010
-2.396585
-2.324151
-2.192610
-2.042173
-1.986707
-2.074830
-2.211082
-2.243726
-2.107512
-1.859396
-1.615220
-1.476846
-1.469881
-1.502374
-1.396161
-1.000277
-0.307192
0.527932
1.286642
1.823334
2.129408
2.291942
2.410077
2.544199
2.711375
2.902968
3.100699
3.277152
3.398385
3.462561
3.545873
3.771671
4.202588
4.770105
5.315720
5.688552
5.802793
5.633834
5.205725
4.592791
3.897649
3.200239
2.530612
1.885206
1.255115
0.647910
0.099580
-0.332078
-0.585966
-0.617017
-0.420730
-0.049466
0.412037
0.902347
1.408668
1.932071
2.441123
2.872035
3.175079
3.355152
3.461541
3.545688
3.636410
3.740720
3.842825
3.896834
3.847099
3.689452
3.512125
3.442917
3.535012
3.706858
3.795862
3.677203
3.348600
2.917876
2.519146
2.239227
2.105521
2.112064
2.234606
2.429861
2.640866
2.803851
2.841191
2.664596
2.227974
1.596299
0.932966
0.384722
-0.018698
-0.337604
-0.610933
-0.799417
-0.845150
-0.766659
-0.670340
-0.665780
-0.776952
-0.922538
-0.968012
-0.812317
-0.445866
0.067104
0.647832
1.235796
1.785536
2.264034
2.663166
3.005700
3.325191
3.626977
3.863824
3.965660
3.913013
3.778502
3.680440
3.685320
3.751922
3.776871
3.704716
3.583184
3.490926
3.421259
3.265236
2.913785
2.367283
1.752097
1.246221
0.990230
1.038703
1.340888
1.744424
2.061293
2.183589
2.144714
2.059740
2.012175
1.998171
1.956935
1.833548
1.610227
1.288525
0.862701
0.323814
-0.319902
-1.031510
-1.738197
-2.339644
-2.756567
-2.993203
-3.149589
-3.353174
-3.657232
-4.002824
-4.280149
-4.412906
-4.390162
-4.264887
-4.148341
-4.164859
-4.353689
-4.602273
-4.708491
-4.539082
-4.127605
-3.622127
-3.164667
-2.820840
-2.580665
-2.390655
-2.188129
-1.926854
-1.594457
-1.232832
-0.947239
-0.859044
-1.020006
-1.383713
-1.861344
-2.374122
-2.849995
-3.216390
-3.426631
-3.481393
-3.415260
-3.270801
-3.081047
-2.859259
-2.604240
-2.330874
-2.093110
-1.952775
-1.919096
-1.931109
-1.899418
-1.762725
-1.513336
-1.178702
-0.788554
-0.363632
0.073098
0.478253
0.778437
0.896552
0.816281
0.621343
0.446800
0.379271
0.406051
0.451970
0.456085
0.421440
0.401574
0.435496
0.491262
0.482146
0.348248
0.117150
-0.131465
-0.364219
-0.631931
-0.982414
-1.345999
-1.547671
-1.455136
-1.106377
-0.687490
-0.392101
-0.288314
-0.294738
-0.271332
-0.125809
0.157807
0.546052
0.972650
1.346789
1.581931
1.627693
1.479718
1.176620
0.794994
0.442860
0.247289
0.317084
0.677805
1.231760
1.792244
2.166613
2.238682
2.024689
1.662366
1.311314
1.045542
0.849076
0.702221
0.636195
0.684339
0.798514
0.847967
0.717769
0.410806
0.056031
-0.182173
-0.210505
-0.045170
0.222604
0.485555
0.677396
0.810600
0.958441
1.182653
1.477144
1.784299
2.044072
2.206861
2.222471
2.059281
1.748415
1.394374
1.126153
1.025476
1.079736
1.191973
1.258414
1.260963
1.281627
1.418995
1.696996
2.056354
2.413873
2.703793
2.864481
2.823615
2.529171
1.995395
1.317025
0.646911
0.146147
-0.078024
-0.006406
0.307030
0.759645
1.206340
1.490896
1.526640
1.359721
1.138756
1.002440
0.979447
0.986139
0.908596
0.681245
0.309069
-0.147975
-0.602661
-0.983877
-1.277091
-1.512283
-1.709295
-1.855533
-1.937278
-1.972649
-2.013341
-2.120556
-2.324881
-2.595311
-2.849122
-2.993898
-2.971141
-2.792689
-2.550952
-2.364223
-2.281695
-2.248780
-2.181495
-2.067530
-1.976138
-1.971374
-2.039596
-2.114366
-2.157715
-2.198887
-2.296740
-2.473139
-2.676880
-2.810381
-2.802276
-2.663376
-2.474755
-2.311765
-2.169672
-1.969130
-1.638667
-1.189275
-0.717504
-0.350100
-0.178470
-0.213988
-0.380873
-0.562285
-0.678812
-0.730195
-0.763957
-0.819537
-0.908482
-1.028413
-1.176503
-1.351472
-1.549401
-1.758103
-1.961007
-2.149477
-2.321200
-2.464942
-2.560576
-2.590803
-2.535933
-2.369772
-2.092776
-1.766911
-1.480905
-1.269910
-1.094862
-0.904850
-0.695087
-0.501638
-0.362322
-0.287928
-0.254217
-0.218196
-0.152319
-0.060045
0.039210
0.119924
0.148725
0.107060
0.028848
-0.008205
0.056774
0.229630
0.484868
0.799277
1.148033
1.490542
1.781378
1.994053
2.129271
2.199923
2.218254
2.210117
2.226347
2.307385
2.435654
2.550537
2.615963
2.660181
2.755981
2.965952
3.281948
3.602386
3.785558
3.749789
3.536669
3.279441
3.102340
3.036504
3.015516
2.941001
2.755633
2.466581
2.113132
1.718967
1.279699
0.796051
0.306209
-0.124577
-0.440024
-0.617324
-0.673673
-0.655656
-0.607014
-0.542444
-0.460973
-0.379943
-0.345032
-0.405907
-0.583455
-0.851011
-1.133983
-1.331653
-1.363886
-1.222122
-0.980642
-0.747923
-0.592656
-0.497696
-0.374387
-0.135097
0.227083
0.622457
0.924043
1.045315
0.987529
0.837918
0.711081
0.669287
0.695018
0.734608
0.753098
0.749581
0.745980
0.775051
0.857860
0.969567
1.035963
0.987494
0.823828
0.614290
0.432879
0.304324
0.207903
0.108807
-0.022822
-0.204550
-0.429048
-0.650822
-0.797787
-0.817057
-0.724196
-0.607366
-0.570503
-0.660425
-0.843649
-1.045814
-1.208470
-1.322505
-1.426583
-1.571569
-1.773037
-1.996415
-2.190834
-2.330287
-2.419908
-2.478201
-2.527037
-2.590805
-2.687446
-2.811314
-2.923095
-2.960202
-2.870513
-2.648276
-2.332744
-1.964622
-1.556346
-1.114001
-0.665082
-0.241798
0.149291
