EVENT_NAME: L_AQUILA
EVENT_ID: IT-2009-0009
EVENT_DATE_YYYYMMDD: 20090406
EVENT_TIME_HHMMSS: 013240
EVENT_LATITUDE_DEGREE: 42.3420
EVENT_LONGITUDE_DEGREE: 13.3800
EVENT_DEPTH_KM: 8.3
HYPOCENTER_REFERENCE: INGV-CNT_Seismic_Bulletin
MAGNITUDE_W: 6.1
MAGNITUDE_W_REFERENCE: INGV-CNT_Seismic_Bulletin
MAGNITUDE_L: 
MAGNITUDE_L_REFERENCE: 
FOCAL_MECHANISM: Normal faulting
NETWORK: IT
STATION_CODE: LSS
STATION_NAME: 
STATION_LATITUDE_DEGREE: 42.558243
STATION_LONGITUDE_DEGREE: 12.968894
STATION_ELEVATION_M: 1065
LOCATION: 
SENSOR_DEPTH_M: 0.0
VS30_M/S: 1091
SITE_CLASSIFICATION_EC8: A
MORPHOLOGIC_CLASSIFICATION: 
EPICENTRAL_DISTANCE_KM: 41.5
EARTHQUAKE_BACKAZIMUTH_DEGREE: 305.5
DATE_TIME_FIRST_SAMPLE_YYYYMMDD_HHMMSS: 20090406_013220.000
DATE_TIME_FIRST_SAMPLE_PRECISION: seconds
SAMPLING_INTERVAL_S: 0.005000
NDATA: 21000
DURATION_S: 105.000
STREAM: HNZ
UNITS: cm
INSTRUMENT: sensor = FBA-3 [Kinemetrics] | digitizer = Etna [Kinemetrics]
INSTRUMENT_ANALOG/DIGITAL: D
INSTRUMENTAL_FREQUENCY_HZ: 216.000
INSTRUMENTAL_DAMPING: 0.700000
FULL_SCALE_G: 1.0
N_BIT_DIGITAL_CONVERTER: 18
PGD_CM: -0.252630
TIME_PGD_S: 39.635000
BASELINE_CORRECTION: BASELINE REMOVED
FILTER_TYPE: BUTTERWORTH
FILTER_ORDER: 2
LOW_CUT_FREQUENCY_HZ: 0.080
HIGH_CUT_FREQUENCY_HZ: 40.000
LATE/NORMAL_TRIGGERED: NT
DATABASE_VERSION: 0.5
HEADER_FORMAT: DYNA 1.2
DATA_TYPE: DISPLACEMENT
PROCESSING: manual (Paolucci et al., 2011)
DATA_TIMESTAMP_YYYYMMDD_HHMMSS: 20211011_160132.748
DATA_LICENSE: CC-BY3_0-IT (http://creativecommons.org/licenses/by/3.0/deed.en)
DATA_CITATION: Luzi L, Pacor F, Puglia R (2019). Italian Accelerometric Archive v 3.0 - Istituto Nazionale di Geofisica e Vulcanologia, Dipartimento della Protezione Civile Nazionale. doi: 10.13127/itaca.3.1
DATA_CREATOR: ITACA working group
ORIGINAL_DATA_MEDIATOR_CITATION: data obtained within the DPC-INGV data exchange agreements
ORIGINAL_DATA_MEDIATOR: Archive of Italian Department of Civil Protection
ORIGINAL_DATA_CREATOR_CITATION: Presidency Of Counsil Of Ministers-Civil Protection Department. (1972). Italian Strong Motion Network. Presidency of Counsil of Ministers - Civil Protection Department. https://doi.org/10.7914/SN/IT http://www.fdsn.org/networks/detail/IT/
ORIGINAL_DATA_CREATOR: network: IT (Italian Strong Motion Network (RAN)); owner: Presidency of Counsil of Ministers - Civil Protection Department (PCM - DPC)
USER1: 
USER2: 
USER3: 
USER4: 
USER5: 
[...]
-8.368664e-02
-8.195991e-02
-8.019455e-02
-7.839206e-02
-7.655598e-02
-7.468931e-02
-7.279241e-02
-7.086317e-02
-6.889946e-02
-6.690178e-02
-6.487395e-02
-6.282133e-02
-6.074799e-02
-5.865449e-02
-5.653768e-02
-5.439277e-02
-5.221626e-02
-5.000755e-02
-4.776910e-02
-4.550630e-02
-4.322821e-02
-4.094813e-02
-3.868260e-02
-3.644869e-02
-3.426084e-02
-3.212953e-02
-3.006197e-02
-2.806340e-02
-2.613766e-02
-2.428686e-02
-2.251090e-02
-2.080737e-02
-1.917205e-02
-1.759990e-02
-1.608584e-02
-1.462488e-02
-1.321210e-02
-1.184310e-02
-1.051431e-02
-9.222991e-03
-7.966755e-03
-6.742637e-03
-5.546196e-03
-4.371166e-03
-3.209616e-03
-2.052230e-03
-8.890668e-04
2.885610e-04
1.485720e-03
2.702697e-03
3.935507e-03
5.176754e-03
6.416181e-03
7.642083e-03
8.844225e-03
1.001653e-02
1.115734e-02
1.226769e-02
1.334958e-02
1.440548e-02
1.543802e-02
1.644941e-02
1.744097e-02
1.841362e-02
1.936916e-02
2.031195e-02
2.124984e-02
2.219356e-02
2.315476e-02
2.414402e-02
2.516963e-02
2.623730e-02
2.735020e-02
2.850928e-02
2.971363e-02
3.096004e-02
3.224220e-02
3.355053e-02
3.487317e-02
3.619739e-02
3.751057e-02
3.880024e-02
4.005359e-02
4.125690e-02
4.239571e-02
4.345556e-02
4.442306e-02
4.528679e-02
4.603863e-02
4.667515e-02
4.719870e-02
4.761720e-02
4.794283e-02
4.819026e-02
4.837502e-02
4.851191e-02
4.861388e-02
4.869180e-02
4.875495e-02
4.881100e-02
4.886488e-02
4.891770e-02
4.896720e-02
4.900949e-02
4.904063e-02
4.905707e-02
4.905564e-02
4.903467e-02
4.899655e-02
4.894952e-02
4.890663e-02
4.888314e-02
4.889420e-02
4.895350e-02
4.907174e-02
4.925524e-02
4.950576e-02
4.982185e-02
5.020011e-02
5.063514e-02
5.111858e-02
5.163893e-02
5.218330e-02
5.273988e-02
5.329923e-02
5.385342e-02
5.439461e-02
5.491499e-02
5.540870e-02
5.587358e-02
5.631099e-02
5.672333e-02
5.711084e-02
5.746954e-02
5.779203e-02
5.807119e-02
5.830442e-02
5.849572e-02
5.865483e-02
5.879426e-02
5.892579e-02
5.905759e-02
5.919285e-02
5.933014e-02
5.946457e-02
5.958841e-02
5.969114e-02
5.976038e-02
5.978433e-02
5.975479e-02
5.966886e-02
5.952848e-02
5.933881e-02
5.910687e-02
5.884126e-02
5.855193e-02
5.824953e-02
5.794389e-02
5.764289e-02
5.735222e-02
5.707560e-02
5.681542e-02
5.657370e-02
5.635315e-02
5.615771e-02
5.599247e-02
5.586349e-02
5.577719e-02
5.573869e-02
5.574967e-02
5.580654e-02
5.589999e-02
5.601584e-02
5.613721e-02
5.624786e-02
5.633545e-02
5.639346e-02
5.642075e-02
5.641923e-02
5.639054e-02
5.633392e-02
5.624687e-02
5.612779e-02
5.597741e-02
5.579809e-02
5.559296e-02
5.536639e-02
5.512487e-02
5.487658e-02
5.462993e-02
5.439200e-02
5.416806e-02
5.396156e-02
5.377459e-02
5.360829e-02
5.346290e-02
5.333791e-02
5.323286e-02
5.314778e-02
5.308154e-02
5.302922e-02
5.298104e-02
5.292404e-02
5.284531e-02
5.273412e-02
5.258291e-02
5.238856e-02
5.215419e-02
5.188955e-02
5.160907e-02
5.132823e-02
5.105998e-02
5.081311e-02
5.059286e-02
5.040212e-02
5.024195e-02
5.011246e-02
5.001491e-02
4.995428e-02
4.993950e-02
4.998059e-02
5.008444e-02
5.025159e-02
5.047525e-02
5.074236e-02
5.103633e-02
5.134009e-02
5.163803e-02
5.191634e-02
5.216344e-02
5.237134e-02
5.253724e-02
5.266391e-02
5.275911e-02
5.283463e-02
5.290514e-02
5.298679e-02
5.309595e-02
5.324856e-02
5.345997e-02
5.374458e-02
5.411445e-02
5.457721e-02
5.513442e-02
5.578150e-02
5.650960e-02
5.730784e-02
5.816504e-02
5.907076e-02
6.001672e-02
6.099817e-02
6.201366e-02
6.306309e-02
6.414616e-02
6.526361e-02
6.642073e-02
6.762900e-02
6.890349e-02
7.025731e-02
7.169666e-02
7.321816e-02
7.480868e-02
7.644723e-02
7.810849e-02
7.976729e-02
8.140316e-02
8.300350e-02
8.456379e-02
8.608467e-02
8.756869e-02
8.901909e-02
9.044114e-02
9.184389e-02
9.324050e-02
9.464724e-02
9.608151e-02
9.755890e-02
9.908926e-02
1.006737e-01
1.023052e-01
1.039725e-01
1.056646e-01
1.073705e-01
1.090779e-01
1.107715e-01
1.124343e-01
1.140498e-01
1.156045e-01
1.170882e-01
1.184952e-01
1.198250e-01
1.210826e-01
1.222784e-01
1.234268e-01
1.245443e-01
1.256454e-01
1.267388e-01
1.278259e-01
1.289012e-01
1.299547e-01
1.309752e-01
1.319526e-01
1.328796e-01
1.337513e-01
1.345651e-01
1.353192e-01
1.360118e-01
1.366404e-01
1.372026e-01
1.376999e-01
1.381408e-01
1.385410e-01
1.389204e-01
1.392982e-01
1.396901e-01
1.401072e-01
1.405580e-01
1.410504e-01
1.415911e-01
1.421846e-01
1.428324e-01
1.435344e-01
1.442906e-01
1.451006e-01
1.459625e-01
1.468721e-01
1.478222e-01
1.488053e-01
1.498163e-01
1.508540e-01
1.519201e-01
1.530163e-01
1.541420e-01
1.552949e-01
1.564723e-01
1.576715e-01
1.588886e-01
1.601155e-01
1.613385e-01
1.625409e-01
1.637062e-01
1.648207e-01
1.658730e-01
1.668551e-01
1.677636e-01
1.686029e-01
1.693833e-01
1.701172e-01
1.708140e-01
1.714794e-01
1.721188e-01
1.727384e-01
1.733426e-01
1.739297e-01
1.744896e-01
1.750059e-01
1.754601e-01
1.758358e-01
1.761219e-01
1.763145e-01
1.764182e-01
1.764454e-01
1.764143e-01
1.763435e-01
1.762475e-01
1.761334e-01
1.760023e-01
1.758538e-01
1.756873e-01
1.755030e-01
1.752994e-01
1.750732e-01
1.748198e-01
1.745343e-01
1.742123e-01
1.738479e-01
1.734324e-01
1.729553e-01
1.724053e-01
1.717722e-01
1.710477e-01
1.702261e-01
1.693066e-01
1.682936e-01
1.671945e-01
1.660177e-01
1.647730e-01
1.634742e-01
1.621396e-01
1.607879e-01
1.594339e-01
1.580868e-01
1.567508e-01
1.554259e-01
1.541074e-01
1.527870e-01
1.514554e-01
1.501056e-01
1.487359e-01
1.473492e-01
1.459517e-01
1.445512e-01
1.431567e-01
1.417794e-01
1.404331e-01
1.391333e-01
1.378949e-01
1.367295e-01
1.356437e-01
1.346379e-01
1.337076e-01
1.328446e-01
1.320370e-01
1.312681e-01
1.305192e-01
1.297725e-01
1.290136e-01
1.282312e-01
1.274169e-01
1.265661e-01
1.256771e-01
1.247499e-01
1.237845e-01
1.227810e-01
1.217410e-01
1.206681e-01
1.195680e-01
1.184489e-01
1.173213e-01
1.161966e-01
1.150859e-01
1.139988e-01
1.129424e-01
1.119206e-01
1.109346e-01
1.099844e-01
1.090711e-01
1.081983e-01
1.073723e-01
1.065997e-01
1.058856e-01
1.052319e-01
1.046374e-01
1.040963e-01
1.035992e-01
1.031354e-01
1.026946e-01
1.022683e-01
1.018495e-01
1.014330e-01
1.010161e-01
1.005976e-01
1.001761e-01
9.974803e-02
9.930721e-02
9.884721e-02
9.836426e-02
9.785874e-02
9.733404e-02
9.679421e-02
9.624225e-02
9.567957e-02
9.510551e-02
9.451683e-02
9.390773e-02
9.327085e-02
9.259829e-02
9.188260e-02
9.111776e-02
9.030051e-02
8.943124e-02
8.851377e-02
8.755397e-02
8.655834e-02
8.553374e-02
8.448723e-02
8.342483e-02
8.234992e-02
8.126402e-02
8.016976e-02
7.907330e-02
7.798368e-02
7.691017e-02
7.586002e-02
7.483708e-02
7.384044e-02
7.286337e-02
7.189458e-02
7.092203e-02
6.993712e-02
6.893775e-02
6.792953e-02
6.692500e-02
6.594030e-02
6.499037e-02
6.408546e-02
6.323065e-02
6.242824e-02
6.168087e-02
6.099348e-02
6.037367e-02
5.983072e-02
5.937344e-02
5.900731e-02
5.873138e-02
5.853585e-02
5.840215e-02
5.830679e-02
5.822706e-02
5.814455e-02
5.804471e-02
5.791483e-02
5.774318e-02
5.751956e-02
5.723603e-02
5.688735e-02
5.647125e-02
5.598932e-02
5.544840e-02
5.486040e-02
5.423937e-02
5.359697e-02
5.293959e-02
5.226841e-02
5.158108e-02
5.087316e-02
5.013926e-02
4.937453e-02
4.857677e-02
4.774788e-02
4.689335e-02
4.601978e-02
4.513296e-02
4.423791e-02
4.333932e-02
4.244050e-02
4.154276e-02
4.064693e-02
3.975565e-02
3.887395e-02
3.800785e-02
3.716225e-02
3.633917e-02
3.553703e-02
3.475153e-02
3.397797e-02
3.321352e-02
3.245880e-02
3.171810e-02
3.099795e-02
3.030439e-02
2.964059e-02
2.900588e-02
2.839623e-02
2.780572e-02
2.722826e-02
2.665862e-02
2.609179e-02
2.552137e-02
2.493949e-02
2.433942e-02
2.371895e-02
2.308139e-02
2.243305e-02
2.177895e-02
2.111958e-02
2.045060e-02
1.976520e-02
1.905740e-02
1.832422e-02
1.756631e-02
1.678693e-02
1.599012e-02
1.517864e-02
1.435262e-02
1.350965e-02
1.264704e-02
1.176490e-02
1.086817e-02
9.966748e-03
9.074401e-03
8.207321e-03
7.382889e-03
6.618773e-03
5.931203e-03
5.332273e-03
4.828312e-03
4.420932e-03
4.109408e-03
3.891781e-03
3.764178e-03
3.719871e-03
3.749347e-03
3.841578e-03
3.986072e-03
4.174781e-03
4.403138e-03
4.669893e-03
4.975816e-03
5.321980e-03
5.708918e-03
6.137216e-03
6.608385e-03
7.124545e-03
7.686810e-03
8.293442e-03
8.938954e-03
9.614950e-03
1.031244e-02
1.102429e-02
1.174656e-02
1.247817e-02
1.321867e-02
1.396497e-02
1.470957e-02
1.544278e-02
1.615797e-02
1.685486e-02
1.753759e-02
1.820900e-02
1.886634e-02
1.950153e-02
2.010444e-02
2.066590e-02
2.117923e-02
2.164165e-02
2.205582e-02
2.243021e-02
2.277706e-02
2.310902e-02
2.343654e-02
2.376724e-02
2.410580e-02
2.445321e-02
2.480594e-02
2.515687e-02
2.549840e-02
2.582603e-02
2.614020e-02
2.644505e-02
2.674532e-02
2.704316e-02
2.733666e-02
2.762026e-02
2.788700e-02
2.813163e-02
2.835351e-02
2.855758e-02
2.875261e-02
2.894759e-02
2.914905e-02
2.936120e-02
2.958799e-02
2.983434e-02
3.010532e-02
3.040430e-02
3.073263e-02
3.109170e-02
3.148507e-02
3.191773e-02
3.239205e-02
3.290349e-02
3.343977e-02
3.398466e-02
3.452363e-02
3.504771e-02
3.555367e-02
3.604231e-02
3.651625e-02
3.697758e-02
3.742580e-02
3.785739e-02
3.826731e-02
3.865047e-02
3.900163e-02
3.931455e-02
3.958181e-02
3.979543e-02
3.994779e-02
4.003299e-02
4.004871e-02
3.999803e-02
3.988968e-02
3.973561e-02
3.954700e-02
3.933156e-02
3.909388e-02
3.883760e-02
3.856677e-02
3.828562e-02
3.799716e-02
3.770198e-02
3.739819e-02
3.708323e-02
3.675628e-02
3.641913e-02
3.607385e-02
3.571923e-02
3.534922e-02
3.495385e-02
3.452085e-02
3.403688e-02
3.348892e-02
3.286547e-02
3.215664e-02
3.135365e-02
3.044939e-02
2.944022e-02
2.832766e-02
2.711908e-02
2.582781e-02
2.447174e-02
2.306968e-02
2.163685e-02
2.018165e-02
1.870451e-02
1.719791e-02
1.564774e-02
1.403663e-02
1.234852e-02
1.057181e-02
8.699951e-03
6.730669e-03
4.666068e-03
2.513591e-03
2.857660e-04
-2.002533e-03
-4.337746e-03
-6.709145e-03
-9.107097e-03
-1.152013e-02
-1.393377e-02
-1.633228e-02
-1.870221e-02
-2.103545e-02
-2.332985e-02
-2.558729e-02
-2.781127e-02
-3.000594e-02
-3.217629e-02
-3.432831e-02
-3.646895e-02
-3.860653e-02
-4.075147e-02
-4.291700e-02
-4.511935e-02
-4.737668e-02
-4.970666e-02
-5.212423e-02
-5.464068e-02
-5.726352e-02
-5.999572e-02
-6.283460e-02
-6.577175e-02
-6.879560e-02
-7.189582e-02
-7.506662e-02
-7.830619e-02
-8.161348e-02
-8.498558e-02
-8.841769e-02
-9.190477e-02
-9.544283e-02
-9.902878e-02
-1.026597e-01
-1.063328e-01
-1.100444e-01
-1.137886e-01
-1.175552e-01
-1.213298e-01
-1.250969e-01
-1.288417e-01
-1.325524e-01
-1.362203e-01
-1.398398e-01
-1.434057e-01
-1.469104e-01
-1.503439e-01
-1.536964e-01
-1.569609e-01
-1.601351e-01
-1.632208e-01
-1.662226e-01
-1.691477e-01
-1.720042e-01
-1.748002e-01
-1.775431e-01
-1.802399e-01
-1.828976e-01
-1.855223e-01
-1.881171e-01
-1.906807e-01
-1.932083e-01
-1.956943e-01
-1.981355e-01
-2.005331e-01
-2.028917e-01
-2.052163e-01
-2.075084e-01
-2.097651e-01
-2.119813e-01
-2.141518e-01
-2.162720e-01
-2.183379e-01
-2.203470e-01
-2.222982e-01
-2.241908e-01
-2.260222e-01
-2.277871e-01
-2.294753e-01
-2.310712e-01
-2.325540e-01
-2.339021e-01
-2.350992e-01
-2.361389e-01
-2.370264e-01
-2.377754e-01
-2.384041e-01
-2.389324e-01
-2.393816e-01
-2.397737e-01
-2.401298e-01
-2.404683e-01
-2.408039e-01
-2.411462e-01
-2.415006e-01
-2.418677e-01
-2.422453e-01
-2.426296e-01
-2.430173e-01
-2.434060e-01
-2.437929e-01
-2.441724e-01
-2.445342e-01
-2.448648e-01
-2.451514e-01
-2.453863e-01
-2.455693e-01
-2.457070e-01
-2.458096e-01
-2.458874e-01
-2.459469e-01
-2.459901e-01
-2.460146e-01
-2.460153e-01
-2.459884e-01
-2.459343e-01
-2.458591e-01
-2.457735e-01
-2.456880e-01
-2.456104e-01
-2.455452e-01
-2.454962e-01
-2.454675e-01
-2.454633e-01
-2.454858e-01
-2.455349e-01
-2.456103e-01
-2.457135e-01
-2.458472e-01
-2.460127e-01
-2.462061e-01
-2.464166e-01
-2.466291e-01
-2.468270e-01
-2.469965e-01
-2.471285e-01
-2.472191e-01
-2.472682e-01
-2.472771e-01
-2.472471e-01
-2.471793e-01
-2.470742e-01
-2.469308e-01
-2.467467e-01
-2.465180e-01
-2.462417e-01
-2.459185e-01
-2.455557e-01
-2.451669e-01
-2.447691e-01
-2.443794e-01
-2.440132e-01
-2.436834e-01
-2.433995e-01
-2.431678e-01
-2.429931e-01
-2.428816e-01
-2.428412e-01
-2.428796e-01
-2.430015e-01
-2.432066e-01
-2.434897e-01
-2.438420e-01
-2.442521e-01
-2.447065e-01
-2.451916e-01
-2.456952e-01
-2.462069e-01
-2.467179e-01
-2.472199e-01
-2.477069e-01
-2.481760e-01
-2.486268e-01
-2.490594e-01
-2.494710e-01
-2.498551e-01
-2.502031e-01
-2.505077e-01
-2.507647e-01
-2.509729e-01
-2.511339e-01
-2.512528e-01
-2.513388e-01
-2.514035e-01
-2.514587e-01
-2.515144e-01
-2.515776e-01
-2.516539e-01
-2.517483e-01
-2.518646e-01
-2.520026e-01
-2.521562e-01
-2.523128e-01
-2.524559e-01
-2.525674e-01
-2.526299e-01
-2.526286e-01
-2.525546e-01
-2.524062e-01
-2.521887e-01
-2.519120e-01
-2.515886e-01
-2.512309e-01
-2.508498e-01
-2.504526e-01
-2.500427e-01
-2.496209e-01
-2.491877e-01
-2.487441e-01
-2.482918e-01
-2.478319e-01
-2.473650e-01
-2.468898e-01
-2.464030e-01
-2.458995e-01
-2.453736e-01
-2.448218e-01
-2.442441e-01
-2.436450e-01
-2.430322e-01
-2.424176e-01
-2.418182e-01
-2.412539e-01
-2.407423e-01
-2.402943e-01
-2.399116e-01
-2.395889e-01
-2.393180e-01
-2.390920e-01
-2.389075e-01
-2.387634e-01
-2.386583e-01
-2.385876e-01
-2.385418e-01
-2.385063e-01
-2.384646e-01
-2.384026e-01
-2.383110e-01
-2.381865e-01
-2.380289e-01
-2.378375e-01
-2.376091e-01
-2.373384e-01
-2.370208e-01
-2.366543e-01
-2.362393e-01
-2.357763e-01
-2.352651e-01
-2.347043e-01
-2.340924e-01
-2.334284e-01
-2.327120e-01
-2.319447e-01
-2.311297e-01
-2.302716e-01
-2.293745e-01
-2.284414e-01
-2.274727e-01
-2.264657e-01
-2.254144e-01
-2.243097e-01
-2.231408e-01
-2.218966e-01
-2.205661e-01
-2.191402e-01
-2.176132e-01
-2.159856e-01
-2.142639e-01
-2.124572e-01
-2.105736e-01
-2.086172e-01
-2.065884e-01
-2.044879e-01
-2.023199e-01
-2.000945e-01
-1.978258e-01
-1.955284e-01
-1.932148e-01
-1.908954e-01
-1.885786e-01
-1.862709e-01
-1.839768e-01
-1.816998e-01
-1.794438e-01
-1.772129e-01
-1.750125e-01
-1.728489e-01
-1.707296e-01
-1.686626e-01
-1.666553e-01
-1.647132e-01
-1.628395e-01
-1.610341e-01
-1.592934e-01
-1.576094e-01
-1.559698e-01
-1.543585e-01
-1.527579e-01
-1.511508e-01
-1.495224e-01
-1.478621e-01
-1.461651e-01
-1.444305e-01
-1.426593e-01
-1.408529e-01
-1.390117e-01
-1.371348e-01
-1.352207e-01
-1.332687e-01
-1.312814e-01
-1.292661e-01
-1.272338e-01
-1.251949e-01
-1.231563e-01
-1.211207e-01
-1.190882e-01
-1.170593e-01
-1.150361e-01
-1.130207e-01
-1.110120e-01
-1.090045e-01
-1.069894e-01
-1.049570e-01
-1.028980e-01
-1.008048e-01
-9.867246e-02
-9.649960e-02
-9.428788e-02
-9.204080e-02
-8.976152e-02
-8.745020e-02
-8.510248e-02
-8.271045e-02
-8.026594e-02
-7.776394e-02
-7.520461e-02
-7.259362e-02
-6.994202e-02
-6.726577e-02
-6.458395e-02
-6.191560e-02
-5.927686e-02
-5.667980e-02
-5.413292e-02
-5.164186e-02
-4.921002e-02
-4.683975e-02
-4.453448e-02
-4.230010e-02
-4.014414e-02
-3.807331e-02
-3.609170e-02
-3.420038e-02
-3.239742e-02
-3.067820e-02
-2.903690e-02
-2.746944e-02
-2.597601e-02
-2.456106e-02
-2.323088e-02
-2.198976e-02
-2.083658e-02
-1.976311e-02
-1.875468e-02
-1.779260e-02
-1.685666e-02
-1.592666e-02
-1.498247e-02
-1.400363e-02
-1.296972e-02
-1.186199e-02
-1.066584e-02
-9.373051e-03
-7.982169e-03
-6.496759e-03
-4.922572e-03
-3.265388e-03
-1.530651e-03
2.755447e-04
2.145604e-03
4.070956e-03
6.043837e-03
8.058896e-03
1.011330e-02
1.220541e-02
1.433331e-02
1.649387e-02
1.868237e-02
2.089214e-02
2.311440e-02
2.533794e-02
2.754853e-02
2.972884e-02
3.186009e-02
3.392449e-02
3.590666e-02
3.779326e-02
3.957223e-02
4.123307e-02
4.276830e-02
4.417529e-02
4.545716e-02
4.662189e-02
4.767992e-02
4.864156e-02
4.951591e-02
5.031091e-02
5.103357e-02
5.168921e-02
5.228076e-02
5.280909e-02
5.327492e-02
5.368097e-02
5.403261e-02
5.433670e-02
5.459935e-02
5.482454e-02
5.501451e-02
5.517116e-02
5.529759e-02
5.539879e-02
5.548160e-02
5.555443e-02
5.562712e-02
5.571061e-02
5.581590e-02
5.595247e-02
5.612719e-02
5.634420e-02
5.660514e-02
5.690910e-02
5.725255e-02
5.762920e-02
5.803040e-02
5.844631e-02
5.886777e-02
5.928750e-02
5.969939e-02
6.009689e-02
6.047178e-02
6.081404e-02
6.111233e-02
6.135485e-02
6.153039e-02
6.162966e-02
6.164590e-02
6.157454e-02
6.141260e-02
6.115908e-02
6.081622e-02
6.039001e-02
5.988913e-02
5.932334e-02
5.870254e-02
5.803664e-02
5.733526e-02
5.660697e-02
5.585827e-02
5.509271e-02
5.431075e-02
5.351089e-02
5.269131e-02
5.185154e-02
5.099354e-02
5.012234e-02
4.924559e-02
4.837209e-02
4.751043e-02
4.666872e-02
4.585545e-02
4.507976e-02
4.435043e-02
4.367465e-02
4.305783e-02
4.250416e-02
4.201715e-02
4.159913e-02
4.124978e-02
4.096434e-02
4.073315e-02
4.054325e-02
4.038151e-02
4.023755e-02
4.010495e-02
3.998065e-02
3.986318e-02
3.975078e-02
3.964058e-02
3.952989e-02
3.941910e-02
3.931441e-02
3.922812e-02
3.917594e-02
3.917272e-02
3.922908e-02
3.935107e-02
3.954289e-02
3.981051e-02
4.016318e-02
4.061165e-02
4.116463e-02
4.182617e-02
4.259533e-02
4.346751e-02
4.443622e-02
4.549471e-02
4.663701e-02
4.785878e-02
4.915774e-02
5.053363e-02
5.198722e-02
5.351924e-02
5.513010e-02
5.682057e-02
5.859190e-02
6.044444e-02
6.237539e-02
6.437768e-02
6.644025e-02
6.854912e-02
7.068815e-02
7.284005e-02
7.498818e-02
7.711909e-02
7.922399e-02
8.129865e-02
8.334208e-02
8.535509e-02
8.733835e-02
8.929017e-02
9.120490e-02
9.307357e-02
9.488640e-02
9.663554e-02
9.831608e-02
9.992554e-02
1.014628e-01
1.029276e-01
1.043206e-01
1.056436e-01
1.068987e-01
1.080883e-01
1.092142e-01
1.102792e-01
1.112882e-01
1.122502e-01
1.131775e-01
1.140850e-01
1.149890e-01
1.159042e-01
1.168408e-01
1.178020e-01
1.187837e-01
1.197778e-01
1.207760e-01
1.217729e-01
1.227665e-01
1.237576e-01
1.247485e-01
1.257407e-01
1.267342e-01
1.277272e-01
1.287170e-01
1.297010e-01
1.306764e-01
1.316411e-01
1.325938e-01
1.335333e-01
1.344586e-01
1.353688e-01
1.362623e-01
1.371364e-01
1.379881e-01
1.388138e-01
1.396101e-01
1.403745e-01
1.411071e-01
1.418112e-01
1.424919e-01
1.431545e-01
1.438025e-01
1.444382e-01
1.450638e-01
1.456816e-01
1.462937e-01
1.468998e-01
1.474968e-01
1.480794e-01
