EVENT_NAME: L_AQUILA
EVENT_ID: IT-2009-0009
EVENT_DATE_YYYYMMDD: 20090406
EVENT_TIME_HHMMSS: 013240
EVENT_LATITUDE_DEGREE: 42.3420
EVENT_LONGITUDE_DEGREE: 13.3800
EVENT_DEPTH_KM: 8.3
HYPOCENTER_REFERENCE: INGV-CNT_Seismic_Bulletin
MAGNITUDE_W: 6.1
MAGNITUDE_W_REFERENCE: INGV-CNT_Seismic_Bulletin
MAGNITUDE_L: 
MAGNITUDE_L_REFERENCE: 
FOCAL_MECHANISM: Normal faulting
NETWORK: IT
STATION_CODE: LSS
STATION_NAME: 
STATION_LATITUDE_DEGREE: 42.558243
STATION_LONGITUDE_DEGREE: 12.968894
STATION_ELEVATION_M: 1065
LOCATION: 
SENSOR_DEPTH_M: 0.0
VS30_M/S: 1091
SITE_CLASSIFICATION_EC8: A
MORPHOLOGIC_CLASSIFICATION: 
EPICENTRAL_DISTANCE_KM: 41.5
EARTHQUAKE_BACKAZIMUTH_DEGREE: 305.5
DATE_TIME_FIRST_SAMPLE_YYYYMMDD_HHMMSS: 20090406_013220.000
DATE_TIME_FIRST_SAMPLE_PRECISION: seconds
SAMPLING_INTERVAL_S: 0.005000
NDATA: 21000
DURATION_S: 105.000
STREAM: HNE
UNITS: cm/s^2
INSTRUMENT: sensor = FBA-3 [Kinemetrics] | digitizer = Etna [Kinemetrics]
INSTRUMENT_ANALOG/DIGITAL: D
INSTRUMENTAL_FREQUENCY_HZ: 206.000
INSTRUMENTAL_DAMPING: 0.700000
FULL_SCALE_G: 1.0
N_BIT_DIGITAL_CONVERTER: 18
PGA_CM/S^2: -9.624975
TIME_PGA_S: 39.475000
BASELINE_CORRECTION: BASELINE NOT REMOVED
FILTER_TYPE: 
FILTER_ORDER: 
LOW_CUT_FREQUENCY_HZ: 
HIGH_CUT_FREQUENCY_HZ: 
LATE/NORMAL_TRIGGERED: NT
DATABASE_VERSION: 0.5
HEADER_FORMAT: DYNA 1.2
DATA_TYPE: ACCELERATION
PROCESSING: converted to cm/s^2
DATA_TIMESTAMP_YYYYMMDD_HHMMSS: 20211011_160131.331
DATA_LICENSE: CC-BY3_0-IT (http://creativecommons.org/licenses/by/3.0/deed.en)
DATA_CITATION: Luzi L, Pacor F, Puglia R (2019). Italian Accelerometric Archive v 3.0 - Istituto Nazionale di Geofisica e Vulcanologia, Dipartimento della Protezione Civile Nazionale. doi: 10.13127/itaca.3.1
DATA_CREATOR: ITACA working group
ORIGINAL_DATA_MEDIATOR_CITATION: data obtained within the DPC-INGV data exchange agreements
ORIGINAL_DATA_MEDIATOR: Archive of Italian Department of Civil Protection
ORIGINAL_DATA_CREATOR_CITATION: Presidency Of Counsil Of Ministers-Civil Protection Department. (1972). Italian Strong Motion Network. Presidency of Counsil of Ministers - Civil Protection Department. https://doi.org/10.7914/SN/IT http://www.fdsn.org/networks/detail/IT/
ORIGINAL_DATA_CREATOR: network: IT (Italian Strong Motion Network (RAN)); owner: Presidency of Counsil of Ministers - Civil Protection Department (PCM - DPC)
USER1: 
USER2: 
USER3: 
USER4: 
USER5: 
[...]
0.644972
0.834966
0.969271
1.053973
1.066374
0.907032
0.630465
0.339391
0.100729
-0.009008
-0.034980
-0.025621
0.045978
0.165075
0.261475
0.292829
0.310611
0.400929
0.565184
0.731546
0.975823
1.385760
1.736031
1.873145
1.910816
1.859574
1.691340
1.506026
1.279064
0.961082
0.680771
0.523067
0.498499
0.519558
0.643802
0.997583
1.342941
1.524277
1.641970
1.789379
1.875485
1.803418
1.649692
1.386696
1.032212
0.733651
0.562376
0.443748
0.302188
0.169754
0.159693
0.246734
0.199704
0.085520
0.031237
-0.033810
-0.022111
0.148462
0.394845
0.606599
0.772258
0.998051
1.227588
1.297081
1.292167
1.253092
1.176112
1.194830
1.149672
0.877784
0.552549
0.290957
0.052295
-0.257497
-0.644738
-0.989160
-1.134463
-0.914051
-0.502711
-0.208127
0.012050
0.203448
0.367001
0.547401
0.624850
0.445619
0.063058
-0.322311
-0.506688
-0.492883
-0.609875
-0.925283
-1.200914
-1.393247
-1.535274
-1.571541
-1.408690
-1.026597
-0.492415
0.053933
0.515346
0.818587
0.808292
0.498265
0.111727
-0.221464
-0.430176
-0.462232
-0.515346
-0.699724
-0.896269
-1.050229
-1.077137
-0.921773
-0.695044
-0.551145
-0.435558
-0.159225
0.252116
0.640760
0.925985
1.110831
1.200212
1.162541
1.002965
0.776236
0.545296
0.323948
0.066802
-0.262177
-0.602153
-0.751668
-0.699724
-0.611746
-0.464806
-0.321140
-0.232461
-0.089498
0.032875
0.118746
0.290255
0.488438
0.608003
0.710253
0.728504
0.525407
0.219124
-0.105643
-0.423391
-0.763601
-1.189683
-1.560076
-1.783530
-1.829156
-1.590260
-1.130017
-0.714464
-0.480015
-0.312951
-0.199002
-0.158757
-0.072651
-0.003861
-0.059782
-0.186835
-0.331436
-0.486332
-0.593730
-0.586242
-0.643568
-0.872169
-1.098196
-1.207699
-1.159967
-1.016302
-0.865617
-0.720548
-0.635613
-0.556995
-0.422689
-0.254924
-0.034044
0.163671
0.335882
0.449363
0.411926
0.341263
0.278790
0.193386
0.106111
0.031003
0.011582
0.058847
0.066568
-0.074991
-0.288149
-0.412627
-0.338923
-0.066100
0.258200
0.512304
0.645440
0.638888
0.567290
0.447257
0.231525
-0.056507
-0.329096
-0.561206
-0.767579
-0.873572
-0.805249
-0.475101
-0.004094
0.309442
0.530789
0.780214
0.852748
0.844559
1.095388
1.469291
1.707251
1.751708
1.622550
1.461570
1.391375
1.365404
1.219164
0.892759
0.398823
-0.047615
-0.064462
0.205787
0.470187
0.759155
0.903756
0.732715
0.373787
-0.017198
-0.344305
-0.633039
-0.887845
-1.044380
-1.210507
-1.407286
-1.429748
-1.147098
-0.580393
0.082011
0.670944
1.264791
1.795229
2.016342
1.943105
1.585112
0.954998
0.326756
-0.172328
-0.586008
-0.782787
-0.780213
-0.902119
-1.135399
-1.247242
-1.248880
-1.172602
-1.056780
-1.088368
-1.454550
-1.969779
-2.268107
-2.297588
-2.200251
-2.127483
-2.130993
-2.103617
-1.892565
-1.454082
-0.886910
-0.291659
0.214445
0.535001
0.697852
0.739267
0.645206
0.356238
-0.093944
-0.538276
-0.828180
-0.903756
-0.794018
-0.454978
0.045744
0.475101
0.743245
0.857194
0.771089
0.449363
0.133253
0.017900
-0.033810
-0.134891
-0.395079
-0.839879
-1.284211
-1.525447
-1.505324
-1.291465
-1.015132
-0.863043
-0.816247
-0.761495
-0.675390
-0.518153
-0.392973
-0.461764
-0.635847
-0.695512
-0.672582
-0.735523
-0.801038
-0.699958
-0.518856
-0.416137
-0.378466
-0.349452
-0.334712
-0.324650
-0.232227
-0.056273
0.071482
0.164139
0.420349
0.835199
1.161839
1.347621
1.384824
1.205360
0.870999
0.321842
-0.429942
-1.224312
-1.955974
-2.423003
-2.637331
-2.756193
-2.805330
-2.906644
-3.125417
-3.211289
-2.821007
-1.978202
-0.998987
-0.207191
0.222634
0.414734
0.481185
0.491012
0.474165
0.252350
-0.218188
-0.816247
-1.379442
-1.718482
-1.840855
-1.890459
-2.047461
-2.470735
-3.051011
-3.485282
-3.605081
-3.397071
-2.951334
-2.368251
-1.680811
-0.927155
-0.143080
0.588348
1.125338
1.327264
1.250518
1.135399
1.050463
0.879188
0.591390
0.208127
-0.342433
-0.896035
-1.059354
-0.748392
-0.282768
0.053699
0.316461
0.528917
0.558399
0.329798
-0.260071
-1.130485
-1.869869
-2.112742
-1.943339
-1.721290
-1.591196
-1.513280
-1.390673
-1.045783
-0.438600
0.282534
0.958976
1.477715
1.824476
2.019617
2.118358
2.174280
2.109467
1.897947
1.504623
0.968804
0.621574
0.558399
0.471123
0.136529
-0.481184
-1.411264
-2.567370
-3.605783
-4.107675
-3.930784
-3.418831
-2.981050
-2.782399
-2.786143
-2.707291
-2.406390
-2.029678
-1.813713
-1.871273
-2.000899
-2.047695
-2.091918
-2.298056
-2.655581
-2.906176
-2.952271
-2.901028
-2.796204
-2.558010
-2.181533
-1.822838
-1.515854
-1.153649
-0.742776
-0.449129
-0.333308
-0.341029
-0.557930
-1.007411
-1.476545
-1.700232
-1.638460
-1.448467
-1.239989
-1.141248
-1.202317
-1.217526
-0.985650
-0.463168
0.279492
1.043678
1.649692
2.001601
1.977267
1.641034
1.321415
1.282807
1.702103
2.465588
3.250364
4.030227
4.783649
5.470153
6.152211
6.741145
7.062870
6.922949
6.301024
5.375625
4.249702
3.008193
1.829624
0.807122
-0.102835
-0.830286
-1.390439
-1.965802
-2.490858
-2.874120
-3.197952
-3.471945
-3.746874
-4.087786
-4.394069
-4.490469
-4.201268
-3.497917
-2.606445
-1.761067
-0.852748
0.220528
1.214953
1.922281
2.119060
1.816521
1.477481
1.244669
0.995711
0.760559
0.513240
0.308974
0.348049
0.628827
1.065672
1.585346
2.063372
2.509810
2.941273
3.273294
3.476157
3.602741
3.715989
3.757169
3.599465
3.238899
2.659793
1.848342
0.954297
0.039192
-0.775300
-1.324222
-1.719652
-1.927662
-1.762705
-1.291465
-0.791211
-0.548805
-0.573139
-0.662755
-0.845027
-1.244200
-1.648756
-1.914793
-2.116252
-2.294079
-2.491326
-2.605509
-2.616506
-2.500217
-2.035996
-1.300590
-0.600749
-0.017198
0.637485
1.474439
2.171238
2.440084
2.515192
2.621186
2.851190
3.253639
3.733303
4.320833
4.874669
5.128071
5.012952
4.673912
4.457712
4.332532
3.970093
3.298096
2.528763
1.864488
1.298718
0.925049
0.813439
0.821395
0.945639
1.265727
1.578561
1.585346
1.238351
0.637251
-0.027727
-0.624850
-1.302696
-2.077645
-2.620016
-2.702845
-2.350936
-1.797100
-1.398629
-1.281871
-1.323988
-1.465781
-1.652967
-1.815585
-2.010258
-2.166792
-2.161645
-1.927662
-1.270172
-0.176071
1.039934
2.033890
2.841831
3.729794
4.683739
5.602821
6.362795
6.805724
6.905400
6.639830
5.959176
4.772652
3.232815
1.803184
0.742777
0.049721
-0.351324
-0.717272
-1.317437
-2.017512
-2.506534
-2.797842
-3.032527
-3.173852
-3.233751
-3.147646
-2.669152
-1.902158
-1.296846
-1.037828
-0.947043
-0.905160
-0.808525
-0.560738
-0.445385
-0.663924
-0.962018
-1.193426
-1.326328
-1.271342
-1.022853
-0.552081
0.143548
0.952425
1.584879
1.952932
2.230201
2.289633
2.110403
1.780254
1.162775
0.221932
-0.906798
-1.744220
-1.868231
-1.476779
-0.959678
-0.430410
0.306634
1.333348
2.420429
3.381628
4.152365
4.680463
4.776864
4.198226
3.136181
1.951763
0.775768
-0.103537
-0.398589
-0.250478
0.153376
0.802910
1.513748
2.090046
2.626333
3.184849
3.599231
3.637136
3.227434
2.627971
2.219204
2.079751
1.913857
1.547675
1.220568
0.982609
0.499435
-0.297743
-1.078541
-1.558438
-1.829156
-2.190190
-2.837385
-3.810985
-4.950946
-5.958708
-6.709089
-7.172842
-7.155059
-6.596543
-5.630197
-4.552241
-3.746874
-3.188827
-2.711269
-2.180363
-1.541124
-1.100301
-1.089304
-1.360022
-1.414773
-0.902353
-0.014156
0.856258
1.499709
2.100341
2.634523
2.881374
3.131735
3.541204
3.790161
3.633159
3.048671
2.325666
1.689937
1.032446
0.446789
0.151738
0.144016
0.500137
1.223610
1.918771
2.310224
2.386735
2.093088
1.524277
1.043210
0.918497
0.895567
0.743245
0.619702
0.508092
0.221230
-0.312717
-0.748158
-0.627891
0.005031
0.943066
1.783998
2.092620
2.078581
2.031785
2.052375
2.257578
2.510746
2.640841
2.487816
1.907774
1.127911
0.488672
0.032407
-0.470187
-1.155989
-1.762705
-2.017512
-1.918303
-1.719886
-1.654605
-1.401437
-0.674453
0.364427
1.440980
2.405688
3.426787
4.474793
5.221664
5.405574
4.944863
4.020166
2.628439
0.842219
-0.912414
-2.593342
-4.291351
-5.840313
-7.099839
-7.906844
-8.040915
-7.289131
-5.707645
-3.674574
-1.466016
0.785829
2.766489
4.110483
4.616352
4.235195
3.252236
2.031317
0.681941
-0.706041
-1.824476
-2.450613
-2.729753
-2.620250
-2.121634
-1.833367
-1.918069
-1.842259
-1.561246
-1.348322
-0.972079
-0.190812
0.822565
1.803184
2.477287
2.708227
2.647392
2.473309
2.373633
2.592172
3.107635
3.911364
5.076361
6.270372
7.141488
7.448941
7.031984
6.217493
5.498231
4.895259
4.077725
2.998599
1.777914
0.489842
-0.608704
-1.399564
-2.015172
-2.350234
-2.229499
-1.881334
-1.681747
-1.858403
-2.233477
-2.336195
-2.039506
-1.547675
-1.079009
-0.624381
0.018602
0.827946
1.528021
1.921111
1.980309
1.634717
0.754242
-0.619936
-2.243538
-3.832512
-5.087358
-5.691032
-5.651255
-5.333039
-4.835827
-4.008700
-3.050075
-2.428853
-2.183873
-1.913857
-1.516790
-1.151309
-0.949383
-1.013026
-1.267599
-1.612723
-1.998325
-2.354446
-2.789185
-3.462586
-4.109547
-4.219284
-3.642986
-2.751982
-2.086536
-1.757089
-1.397693
-0.687323
0.381976
1.445893
1.854660
1.310418
0.263113
-0.623445
-1.030341
-1.226886
-1.633079
-2.199550
-2.736539
-3.179935
-3.356358
-3.179233
-2.817029
-2.295482
-1.593536
-0.918263
-0.485162
-0.393441
-0.643568
-1.152713
-1.717078
-2.113678
-2.179661
-1.784231
-1.069884
-0.629529
-0.929026
-1.746092
-2.523849
-2.824048
-2.692784
-2.543036
-2.620952
-2.832472
-2.660027
-1.686895
-0.228250
0.993372
1.574349
1.613659
1.254028
0.593028
-0.064930
-0.416839
-0.572437
-0.784191
-1.047187
-1.255665
-1.294506
-1.125571
-0.723824
-0.238779
0.046680
0.460828
1.323754
2.234881
2.831770
3.190699
3.663109
4.382136
5.002657
5.196160
4.997275
4.705031
4.599271
4.752062
4.909298
4.721878
4.204777
3.633159
3.070432
2.452484
1.877122
1.234139
0.285341
-0.770620
-1.553993
-1.895841
-1.839685
-1.686661
-1.542294
-1.024725
-0.039894
0.883868
1.228758
1.015132
0.498733
-0.279258
-1.210039
-2.154391
-3.210119
-4.179273
-4.573533
-4.333467
-3.778462
-3.179701
-2.668216
-2.279806
-1.923450
-1.436534
-0.815779
-0.279960
-0.068206
-0.203681
-0.485162
-0.702531
-0.703935
-0.522131
-0.532894
-0.860937
-1.188747
-1.269236
-0.936982
-0.104941
1.152479
2.526189
3.602040
4.196120
4.256254
3.771910
2.924895
1.995752
1.242095
0.913116
1.064502
1.496433
2.014470
2.592406
3.197484
3.701716
4.136455
4.474091
4.645834
4.907660
5.515312
6.586014
7.889997
8.755965
8.861959
8.430964
7.695090
6.936754
6.497101
6.364667
6.282539
5.958942
5.162701
3.904345
2.407326
1.043210
0.126468
-0.357642
-0.679601
-1.108022
-1.524979
-1.488946
-0.928558
-0.129509
0.571970
0.835901
0.758219
0.815077
1.115744
1.295209
1.000859
0.185431
-0.808291
-1.513982
-1.754984
-1.597748
-1.205593
-0.774832
-0.432048
-0.304294
-0.397887
-0.426666
-0.211403
-0.021175
-0.149397
-0.531257
-1.074563
-1.772298
-2.481264
-3.141328
-3.651643
-3.825024
-3.883520
-4.088956
-4.446481
-4.917721
-5.290455
-5.406276
-5.376560
-5.312683
-5.367201
-5.843822
-6.567997
-7.108263
-7.437943
-7.384830
-6.766181
-5.817383
-4.840039
-4.036544
-3.415789
-2.921618
-2.622122
-2.623993
-3.016616
-3.635499
-4.215775
-4.729131
-5.149598
-5.375858
-5.293730
-4.795582
-3.986004
-3.117228
-2.236753
-1.325860
-0.573373
-0.224740
-0.405374
-1.024491
-1.886248
-2.796672
-3.661237
-4.445077
-5.005698
-5.147258
-4.647471
-3.695398
-2.922087
-2.538824
-2.261555
-1.900287
-1.436066
-0.823500
-0.182857
0.242289
0.408650
0.347347
0.088328
-0.284171
-0.573373
-0.616192
-0.535936
-0.532660
-0.665562
-0.768748
-0.728270
-0.651524
-0.565652
-0.442811
-0.224506
0.018836
0.110323
0.104707
0.145420
0.289319
0.314121
-0.159225
-1.077605
-1.933746
-2.419025
-2.587492
-2.478457
-2.082091
-1.488010
-1.007176
-0.772024
-0.457786
0.051593
0.430176
0.473229
0.238077
-0.268261
-0.837071
-1.025193
-0.622042
0.287681
1.321649
2.094960
2.516128
2.577665
2.452484
2.421365
2.510045
2.616974
2.419727
1.569202
0.280662
-0.921539
-1.789379
-2.470267
-3.161216
-3.771442
-3.976645
-3.486920
-2.335961
-0.930898
0.480015
1.863551
3.014276
3.658195
3.684635
3.520379
3.739621
4.438057
5.277586
5.823232
6.026563
6.112434
6.259375
6.541558
6.926225
7.185009
6.994781
6.320445
5.516482
4.945097
4.663850
4.582191
4.519484
4.334638
4.088020
3.790161
3.458842
3.222052
3.095702
3.023401
2.971691
2.936594
2.911558
2.796439
2.540228
2.301800
2.212653
2.161645
1.921111
1.486840
1.292167
1.649224
2.298290
2.847447
3.138755
3.291311
3.469839
3.576770
3.499087
3.285228
2.925363
2.423705
1.943573
1.522639
1.085795
0.779980
0.731312
0.891121
1.144290
1.313225
1.175878
0.562844
-0.307570
-1.015366
-1.407286
-1.579263
-1.600555
-1.485670
-1.365403
-1.390673
-1.644544
-1.995751
-2.087238
-1.720120
-1.074563
-0.527981
-0.341965
-0.515112
-0.891823
-1.383186
-2.033422
-2.978710
-4.264677
-5.692670
-6.966937
-7.871045
-8.459510
-8.928644
-9.245222
-9.438959
-9.624975
-9.556652
-8.986438
-8.108302
-7.256841
-6.626961
-6.290963
-6.083420
-5.799132
-5.488872
-5.181887
-4.823192
-4.505678
-4.254615
-3.917447
-3.408068
-2.836215
-2.378078
-2.017512
-1.685959
-1.354406
-0.940959
-0.368873
0.486332
1.554695
2.500451
3.170576
3.719732
4.354526
5.088996
5.665061
5.811299
5.481151
4.900640
4.427996
4.134583
3.968221
3.884924
3.695632
3.387712
3.149284
3.133139
3.322898
3.578173
3.886328
4.387517
5.088295
5.725428
6.113605
6.242763
6.042006
5.504314
4.811493
4.220922
3.863163
3.627075
3.393093
3.176192
3.028549
2.869675
2.549353
2.020085
1.222908
0.212339
-0.698554
-1.306908
-1.797568
-2.334090
-2.782867
-2.977775
-2.781931
-2.284719
-1.948955
-2.139884
-2.875992
-3.923998
-4.848696
-5.334911
-5.418911
-5.313853
-5.228683
-5.152171
-4.851270
-4.282928
-3.633393
-3.000471
-2.428385
-1.984754
-1.686427
-1.554461
-1.584878
-1.645480
-1.760833
-2.057288
-2.274424
-2.180363
-1.888353
-1.461336
-0.895333
-0.215614
0.552315
1.414305
2.345555
3.223456
3.925871
4.392431
4.669700
4.944161
5.211369
5.287647
5.228683
5.114032
4.935504
4.672040
4.354058
4.143942
3.956054
3.525059
2.803692
1.869167
0.785361
-0.280194
-1.233671
-2.158369
-2.992983
-3.663108
-4.126627
-4.240577
-3.988344
-3.474987
-2.790355
-2.019617
-1.196000
-0.331670
0.388528
0.744648
0.601217
-0.091604
-1.011154
-1.652031
-1.818627
-1.703040
-1.590728
-1.557269
-1.358851
-0.715869
0.159459
0.796827
0.985650
0.856960
0.752604
0.792615
0.864447
0.877317
0.622042
0.002223
-0.773194
-1.551419
-2.346490
-3.162386
-3.879542
-4.391729
-4.719070
-4.880050
-4.901577
-4.819448
-4.571193
-4.113056
-3.609293
-3.175256
-2.706121
-2.141990
-1.599385
-1.252624
-1.011154
-0.678899
-0.247904
0.308038
0.970909
1.690405
2.520573
3.453227
4.385880
5.174634
5.672080
5.904892
5.946307
5.690565
5.102333
4.278950
3.275868
2.283082
1.601023
1.247476
0.972781
0.534533
-0.114300
-0.742542
-1.151075
-1.339665
-1.405414
-1.468823
-1.561948
-1.722226
-1.879228
-1.856532
-1.643374
-1.260579
-0.735055
-0.338923
-0.356472
-0.634911
-0.868425
-1.017472
-1.146864
-1.274384
-1.362127
-1.312523
-1.103343
-0.828414
-0.636783
-0.623679
-0.724994
-0.778576
-0.604493
-0.287915
-0.135358
-0.255859
-0.492181
-0.702531
-0.943299
-1.180089
-1.350428
-1.557269
-1.756621
-1.781657
-1.699764
-1.798504
-2.239327
-2.802054
-3.044225
-2.778422
-2.164920
-1.385760
-0.543189
0.219592
0.686387
0.681239
0.296806
-0.152439
-0.505051
-0.681239
-0.482354
0.155247
1.011388
1.779786
2.200486
2.189021
1.921813
1.605703
1.342239
1.129549
0.957104
0.870765
0.925049
1.197638
1.598684
1.892331
2.017746
2.076943
2.193466
2.397967
2.553097
2.575793
2.550757
2.507003
2.423003
2.341109
2.336195
2.420429
2.518234
2.586088
2.588896
2.621420
2.832472
3.122375
3.279144
3.103189
2.532039
1.695786
0.856492
0.232930
-0.241118
-0.686153
-1.086730
-1.312991
-1.293570
-1.206061
-1.137036
-0.991733
-0.730843
-0.358110
0.052763
0.364194
0.557463
0.765005
1.086964
1.495263
1.828688
1.916665
1.696956
1.179622
0.541786
0.030769
-0.323246
-0.523301
-0.445385
-0.049721
0.545764
1.081115
1.458996
1.919941
2.502089
2.980817
3.295289
3.458140
3.496981
3.547521
3.668022
3.794841
3.841403
3.638307
3.270954
3.090086
3.088682
3.004683
2.771871
2.623993
2.755257
3.029953
3.211757
3.258787
3.324770
3.557349
4.002383
4.499127
4.815471
4.801666
4.470581
4.095507
3.840467
3.643688
3.445973
3.189061
2.856338
2.491794
2.031785
1.262685
0.113130
-1.238585
-2.609487
-3.850996
-4.884262
-5.783689
-6.487274
-6.805255
-6.825144
-6.813445
-6.898380
-6.974893
-6.871472
-6.651997
-6.580399
-6.819294
-7.331716
-7.983122
-8.630785
-9.174560
-9.512664
-9.609299
-9.535594
-9.392397
-9.216208
-8.926538
-8.531811
-8.058230
-7.424840
-6.579931
-5.589016
-4.602781
-3.680189
-2.795034
-1.872209
-1.018174
-0.533830
-0.396717
-0.268962
0.140272
0.875678
1.771596
2.533676
2.876460
2.737475
2.335494
1.984754
1.783295
1.637993
1.480756
1.353002
1.293103
1.383186
1.791719
2.488986
3.182977
3.662173
3.907386
3.855676
3.474285
2.822644
2.004642
1.175644
0.509730
0.127637
0.016496
0.156417
0.501307
0.956636
1.452679
2.008152
2.671960
3.295991
3.742195
4.030694
4.256721
4.477835
4.637177
4.684675
4.545455
4.227708
3.851932
3.484346
3.210353
3.065986
2.959056
2.877397
2.792929
2.600595
2.333856
2.006515
1.562417
0.956870
0.239247
-0.359280
-0.746286
-1.122763
-1.696722
-2.332452
-2.698166
-2.679681
-2.413877
-2.216865
-2.337131
-2.737241
-3.185785
-3.438953
-3.479900
-3.356592
-2.999067
-2.429086
-1.742582
-1.106385
-0.743478
-0.741373
-0.961550
-1.189215
-1.351598
-1.364701
-1.045315
-0.302656
0.763601
1.860744
2.626333
2.886054
2.667982
2.148308
1.649458
1.447531
1.599385
1.907306
2.190892
2.457164
2.768595
3.069028
3.197016
3.131267
2.857976
2.274658
1.414305
0.426901
-0.555591
-1.440980
-2.237923
-2.996259
-3.659599
-4.105569
-4.167574
-3.777760
-3.062944
-2.233243
-1.477247
-0.781384
-0.101899
0.440238
0.787233
0.946107
0.887378
0.633273
0.321842
0.180751
0.353898
0.786765
1.350663
1.902158
2.296886
2.593342
2.942444
3.369227
3.850294
4.262571
4.420041
4.303518
4.120544
3.964010
3.697036
3.276336
2.753620
2.149712
1.440277
0.635379
-0.125531
-0.644270
-0.858364
-0.905628
-1.020045
-1.334049
-1.798270
-2.308819
-2.779592
-3.267678
-3.778696
-4.175997
-4.384476
-4.443907
-4.540308
-4.751126
-5.002423
-5.184461
-5.214879
