EVENT_NAME: L_AQUILA
EVENT_ID: IT-2009-0009
EVENT_DATE_YYYYMMDD: 20090406
EVENT_TIME_HHMMSS: 013240
EVENT_LATITUDE_DEGREE: 42.3420
EVENT_LONGITUDE_DEGREE: 13.3800
EVENT_DEPTH_KM: 8.3
HYPOCENTER_REFERENCE: INGV-CNT_Seismic_Bulletin
MAGNITUDE_W: 6.1
MAGNITUDE_W_REFERENCE: INGV-CNT_Seismic_Bulletin
MAGNITUDE_L: 
MAGNITUDE_L_REFERENCE: 
FOCAL_MECHANISM: Normal faulting
NETWORK: IT
STATION_CODE: LSS
STATION_NAME: 
STATION_LATITUDE_DEGREE: 42.558243
STATION_LONGITUDE_DEGREE: 12.968894
STATION_ELEVATION_M: 1065
LOCATION: 
SENSOR_DEPTH_M: 0.0
VS30_M/S: 1091
SITE_CLASSIFICATION_EC8: A
MORPHOLOGIC_CLASSIFICATION: 
EPICENTRAL_DISTANCE_KM: 41.5
EARTHQUAKE_BACKAZIMUTH_DEGREE: 305.5
DATE_TIME_FIRST_SAMPLE_YYYYMMDD_HHMMSS: 20090406_013220.000
DATE_TIME_FIRST_SAMPLE_PRECISION: seconds
SAMPLING_INTERVAL_S: 0.005000
NDATA: 21000
DURATION_S: 105.000
STREAM: HNN
UNITS: cm/s^2
INSTRUMENT: sensor = FBA-3 [Kinemetrics] | digitizer = Etna [Kinemetrics]
INSTRUMENT_ANALOG/DIGITAL: D
INSTRUMENTAL_FREQUENCY_HZ: 210.000
INSTRUMENTAL_DAMPING: 0.700000
FULL_SCALE_G: 1.0
N_BIT_DIGITAL_CONVERTER: 18
PGA_CM/S^2: -7.672539
TIME_PGA_S: 43.665000
BASELINE_CORRECTION: BASELINE NOT REMOVED
FILTER_TYPE: 
FILTER_ORDER: 
LOW_CUT_FREQUENCY_HZ: 
HIGH_CUT_FREQUENCY_HZ: 
LATE/NORMAL_TRIGGERED: NT
DATABASE_VERSION: 0.5
HEADER_FORMAT: DYNA 1.2
DATA_TYPE: ACCELERATION
PROCESSING: converted to cm/s^2
DATA_TIMESTAMP_YYYYMMDD_HHMMSS: 20211011_160131.876
DATA_LICENSE: CC-BY3_0-IT (http://creativecommons.org/licenses/by/3.0/deed.en)
DATA_CITATION: Luzi L, Pacor F, Puglia R (2019). Italian Accelerometric Archive v 3.0 - Istituto Nazionale di Geofisica e Vulcanologia, Dipartimento della Protezione Civile Nazionale. doi: 10.13127/itaca.3.1
DATA_CREATOR: ITACA working group
ORIGINAL_DATA_MEDIATOR_CITATION: data obtained within the DPC-INGV data exchange agreements
ORIGINAL_DATA_MEDIATOR: Archive of Italian Department of Civil Protection
ORIGINAL_DATA_CREATOR_CITATION: Presidency Of Counsil Of Ministers-Civil Protection Department. (1972). Italian Strong Motion Network. Presidency of Counsil of Ministers - Civil Protection Department. https://doi.org/10.7914/SN/IT http://www.fdsn.org/networks/detail/IT/
ORIGINAL_DATA_CREATOR: network: IT (Italian Strong Motion Network (RAN)); owner: Presidency of Counsil of Ministers - Civil Protection Department (PCM - DPC)
USER1: 
USER2: 
USER3: 
USER4: 
USER5: 
[...]
-0.425124
0.533903
1.419519
2.147791
2.264455
1.487086
0.178301
-1.076711
-1.813400
-2.009320
-2.026621
-2.035505
-1.934973
-1.630104
-1.235926
-0.830057
-0.244634
0.580662
1.457862
2.202265
2.750515
3.162462
3.547756
3.943571
4.249609
4.277197
4.131776
4.054858
3.892604
3.513622
3.101675
2.804755
2.696274
2.646242
2.364285
1.834272
1.259837
0.870802
0.792714
0.996116
1.340730
1.520051
1.358031
1.036095
0.820770
0.831525
1.092907
1.433781
1.610764
1.599074
1.339327
0.828953
0.275560
-0.261000
-0.810185
-1.140303
-0.975946
-0.440321
0.189289
0.710419
0.891376
0.716264
0.525487
0.706678
1.282515
1.862561
2.095888
2.009852
1.893889
1.951169
2.052636
1.934102
1.676460
1.717608
2.175379
2.745605
3.336405
4.043869
4.809548
5.423261
5.673889
5.554186
5.368786
5.341900
5.209572
4.711121
3.960638
3.139316
2.303265
1.517479
0.886934
0.406719
0.085484
-0.079108
-0.146674
-0.019256
0.184847
-0.091499
-0.981790
-1.959054
-2.646178
-2.904288
-2.624669
-1.937311
-1.092376
-0.289991
0.326527
0.816562
1.249550
1.538053
1.714335
1.827024
1.948831
2.240374
2.479780
2.361246
1.923815
1.333950
0.860047
0.712055
0.734967
0.492288
-0.199278
-1.102429
-1.969341
-2.792534
-3.499296
-3.722571
-3.421209
-2.969517
-2.644541
-2.593340
-2.736657
-2.743904
-2.341777
-1.612570
-1.068295
-1.142174
-1.510635
-1.635715
-1.577500
-1.610933
-1.863432
-2.356038
-3.014171
-3.653367
-4.103423
-4.485678
-4.799899
-4.782364
-4.520046
-4.273158
-3.978343
-3.441315
-2.699483
-2.019139
-1.656056
-1.604854
-1.584047
-1.225405
-0.432372
0.332606
0.653139
0.550736
0.139959
-0.354518
-0.615200
-0.459025
-0.019724
0.277898
0.096005
-0.571714
-1.261176
-1.391400
-0.913522
-0.032582
1.011079
1.833103
2.253934
2.445646
2.724096
3.131601
3.325885
3.085543
2.479780
1.788214
1.368318
1.267085
1.277138
1.179645
0.872205
0.531331
0.567102
1.274566
2.273807
2.818082
2.760100
2.527708
2.407070
2.254635
1.721583
0.790377
-0.037960
-0.479131
-0.843851
-1.308168
-1.671720
-1.875122
-1.896865
-1.545704
-0.827486
-0.063209
0.487144
0.875946
1.065086
0.745722
-0.020425
-0.685572
-0.909314
-0.769271
-0.449673
-0.139660
0.167313
0.583935
1.046148
1.364811
1.282749
0.766296
0.103253
-0.379768
-0.545996
-0.579429
-0.700535
-0.770206
-0.611693
-0.392159
-0.160468
0.278599
0.893948
1.583176
2.419929
3.380125
4.129906
4.330502
4.150012
3.934921
3.797683
3.860106
4.042934
3.981446
3.690605
3.610179
3.865250
4.181808
4.281873
4.045272
3.610413
3.238679
3.024055
2.851514
2.578208
2.201096
1.776758
1.294673
0.813055
0.453712
0.253349
0.227398
0.255687
-0.033284
-0.817900
-1.752613
-2.442776
-2.819654
-3.040123
-3.255915
-3.351304
-3.320443
-3.419806
-3.715557
-4.054092
-4.051287
-3.485736
-2.584924
-1.635014
-1.012885
-0.992779
-1.386724
-1.859457
-2.241245
-2.565285
-3.089453
-4.051053
-5.296947
-6.253169
-6.315125
-5.440264
-4.186186
-3.129199
-2.491405
-2.107514
-1.613739
-0.864659
-0.034920
0.689845
1.234120
1.578500
1.843624
2.242946
2.861100
3.544950
4.140427
4.563128
4.710653
4.668102
4.366507
3.586800
2.453829
1.322494
0.568739
0.213604
0.016047
-0.102019
-0.217982
-0.479598
-0.910015
-1.368488
-1.864835
-2.414721
-2.726136
-2.721927
-2.610875
-2.384327
-1.924452
-1.319157
-0.853671
-0.795456
-1.012418
-0.993480
-0.526124
0.078237
0.570375
0.999857
1.343536
1.473526
1.460901
1.489658
1.549509
1.494567
1.378839
1.330209
1.159539
0.740812
0.270884
-0.064145
-0.206058
-0.350310
-0.788208
-1.485151
-2.152870
-2.532320
-2.415890
-1.705153
-0.562596
0.614095
1.463706
1.966834
2.192680
2.097993
1.736545
1.261474
0.976244
1.128912
1.560030
1.796163
1.502517
0.892779
0.549100
0.750631
1.014586
0.861918
0.479195
0.252414
0.370480
0.690312
0.857710
0.602405
0.069352
-0.323423
-0.369481
-0.056429
0.505147
1.052461
1.402920
1.611231
1.705217
1.614738
1.520051
1.734675
2.248323
2.582182
2.193849
1.204661
0.260129
-0.129373
0.168482
0.789441
1.202090
1.137562
0.671842
0.059299
-0.515837
-0.939473
-1.361240
-2.011190
-2.672597
-2.958762
-2.900079
-2.869218
-2.915744
-2.793936
-2.476910
-2.157079
-2.010255
-2.049065
-2.148194
-2.072211
-1.715206
-1.329678
-1.257435
-1.469019
-1.644366
-1.638287
-1.498711
-1.393504
-1.475098
-1.695567
-2.001605
-2.305071
-2.339673
-2.081095
-1.770615
-1.646002
-1.951105
-2.680078
-3.659212
-4.782598
-5.925388
-6.869920
-7.355513
-7.272983
-6.735956
-6.003943
-5.227276
-4.378132
-3.557979
-2.947773
-2.522734
-2.060989
-1.404024
-0.779791
-0.457622
-0.291861
-0.066716
0.115410
-0.023230
-0.465103
-0.929654
-1.281750
-1.519052
-1.605790
-1.530508
-1.364279
-1.191271
-1.216053
-1.696970
-2.487197
-3.096233
-3.221080
-2.894468
-2.334061
-1.811296
-1.542665
-1.446809
-1.121600
-0.402914
0.545593
1.619882
2.708899
3.636131
4.287016
4.689845
4.969464
5.169125
5.310571
5.533144
5.931297
6.386497
6.766647
7.063567
7.135810
6.810834
6.154572
5.417649
5.004767
5.124470
5.524260
5.836143
5.926154
5.874485
5.688852
5.299349
4.691248
3.920893
3.313493
3.248031
3.640339
4.160066
4.746190
5.424897
5.957249
6.045156
5.571721
4.732396
3.965782
3.522039
3.293855
3.057254
2.782545
2.680844
2.845903
3.056786
2.917211
2.080692
0.691715
-0.618005
-1.335756
-1.462941
-1.540327
-2.115697
-3.171983
-4.284848
-5.029017
-5.278944
-5.307467
-5.382750
-5.576332
-5.938013
-6.356740
-6.593808
-6.585392
-6.469663
-6.287069
-5.986409
-5.670318
-5.469254
-5.366618
-5.229380
-4.990909
-4.596029
-3.944910
-3.110261
-2.420098
-2.190044
-2.348323
-2.582819
-2.734319
-2.874596
-2.948942
-2.735254
-2.370533
-2.071042
-1.570954
-0.636007
0.544892
1.728129
2.761503
3.533962
3.965314
4.051818
3.841403
3.421507
3.004183
2.683182
2.420162
2.238036
2.216761
2.516018
3.146797
3.843039
4.234179
4.132244
3.706269
3.200103
2.704925
2.113657
1.307064
0.396198
-0.418110
-0.994182
-1.254863
-1.151760
-0.782597
-0.375794
-0.095941
-0.117684
-0.481703
-0.958878
-1.293439
-1.346978
-1.164852
-0.913288
-0.809951
-1.068528
-1.689956
-2.459609
-3.175490
-3.722337
-3.997280
-4.039597
-3.985590
-3.822167
-3.384269
-2.449790
-1.123003
0.133880
0.940941
1.134757
0.766763
0.045505
-0.664063
-1.002598
-0.909080
-0.561193
-0.221021
-0.019022
0.176664
0.551906
1.138264
1.819543
2.310512
2.299056
1.865834
1.329508
0.834798
0.385210
0.008799
-0.197408
-0.164677
0.030075
0.110033
-0.058066
-0.247908
-0.183614
0.141127
0.471480
0.711588
0.884596
0.879219
0.579727
0.048311
-0.574286
-1.346745
-2.272807
-3.125458
-3.775876
-4.291862
-4.733267
-5.022939
-4.995117
-4.493627
-3.512389
-2.151935
-0.645593
0.642852
1.491060
1.866535
1.968470
1.977121
1.804814
1.464642
1.080516
0.765361
0.591183
0.543956
0.619239
0.809782
1.149953
1.623622
2.105474
2.417824
2.486794
2.469961
2.552724
2.834213
3.302973
3.895409
4.530397
5.107403
5.606322
6.035804
6.363351
6.501290
6.365689
5.940649
5.285321
4.507953
3.776642
3.300401
3.089985
3.005352
2.895234
2.523500
1.893889
1.370188
1.102259
0.904936
0.720939
0.698495
0.924107
1.239029
1.427702
1.460901
1.334418
1.080049
0.887635
0.886934
1.015054
1.140602
1.226872
1.367617
1.600477
1.744027
1.567979
1.099921
0.557283
0.054156
-0.398004
-0.757113
-1.028316
-1.204831
-1.175373
-1.064788
-1.213949
-1.671954
-2.239141
-2.758633
-3.172451
-3.501868
-3.754367
-3.913114
-3.998215
-4.011074
-3.943507
-3.848352
-3.719297
-3.599360
-3.698724
-3.972264
-4.164677
-4.253052
-4.243934
-4.018087
-3.536002
-2.889559
-2.237270
-1.665174
-1.160644
-0.768102
-0.528462
-0.402212
-0.288354
0.033816
0.580195
1.119326
1.538287
1.770913
1.839415
1.848533
1.727895
1.297011
0.484339
-0.477962
-1.198519
-1.567213
-1.765705
-1.931700
-2.105176
-2.242881
-2.158247
-1.737650
-0.966594
0.046207
0.960579
1.625726
2.085134
2.143816
1.571486
0.561491
-0.389354
-0.906275
-0.975478
-0.860451
-0.779324
-0.874712
-1.254162
-1.838416
-2.321670
-2.484392
-2.380119
-2.166898
-1.988045
-1.849638
-1.693697
-1.530040
-1.352122
-1.120898
-0.875881
-0.660322
-0.466974
-0.318514
-0.173093
0.029373
0.203551
0.246803
0.268312
0.474519
0.773076
0.921302
0.976945
1.065320
1.188296
1.301920
1.250485
0.895351
0.341022
-0.073964
-0.122827
0.135984
0.531098
0.936265
1.250485
1.381411
1.310804
1.073269
0.745955
0.354349
-0.132647
-0.601873
-0.886870
-0.981790
-0.953501
-0.850631
-0.686040
-0.558388
-0.583170
-0.659153
-0.626422
-0.393562
-0.040765
0.213604
0.269247
0.246569
0.281171
0.258726
0.228333
0.489015
0.932758
1.187828
1.128912
0.871270
0.689143
0.776816
1.142940
1.800605
2.627305
3.367734
3.996175
4.691482
5.463473
6.117866
6.474170
6.461311
6.171405
5.783071
5.453187
5.280645
5.193674
4.993779
4.593054
4.020490
3.290348
2.461544
1.717842
1.276904
1.227573
1.488255
1.842455
2.088875
2.205538
2.273339
2.362181
2.533319
2.785818
3.044162
3.268605
3.355577
3.126925
2.566986
1.834739
1.101324
0.449269
-0.077003
-0.518175
-0.989739
-1.385788
-1.508063
-1.381112
-1.115054
-0.831226
-0.621278
-0.552309
-0.752437
-1.125574
-1.356096
-1.412441
-1.565343
-1.998332
-2.719589
-3.564291
-4.242064
-4.590886
-4.615434
-4.497835
-4.490821
-4.681365
-5.009847
-5.320794
-5.567214
-5.811997
-6.076186
-6.337101
-6.437867
-6.218567
-5.781838
-5.453356
-5.338796
-5.209040
-4.863257
-4.301915
-3.716492
-3.308753
-3.019315
-2.600821
-2.030128
-1.586852
-1.431612
-1.497075
-1.800307
-2.260650
-2.590768
-2.719823
-2.750217
-2.678675
-2.447920
-2.070340
-1.580072
-1.022938
-0.538749
-0.177535
0.168482
0.524084
0.819835
1.077477
1.335587
1.565407
1.834973
2.212552
2.636657
2.992493
3.244992
3.482293
3.682188
3.791371
3.900553
4.055559
4.131776
3.959937
3.510817
2.922822
2.461544
2.390003
2.666816
2.966308
3.015638
2.702119
2.117631
1.535248
1.185724
0.950760
0.453945
-0.374858
-1.220028
-1.890552
-2.404668
-2.681948
-2.686157
-2.508239
-2.227918
-1.876524
-1.535885
-1.365214
-1.290166
-1.138433
-0.796859
-0.243232
0.390353
1.069996
1.798501
2.438632
2.794001
2.849410
2.668453
2.242712
1.654483
1.004065
0.384508
-0.132179
-0.486846
-0.615667
-0.549269
-0.275729
0.272988
1.000792
1.591359
1.793358
1.736545
1.714802
1.793825
1.860457
1.861392
1.835441
1.880329
1.997461
2.066898
1.997694
1.794994
1.619882
1.571252
1.636481
1.773485
1.875887
1.931530
1.975484
1.997227
2.002838
1.995123
1.996292
2.037440
2.033231
1.898332
1.663835
1.319455
0.821004
0.161935
-0.652841
-1.563239
-2.438802
-3.108157
-3.492750
-3.718830
-3.964782
-4.282043
-4.693288
-5.251357
-5.910893
-6.550790
-6.986351
-7.049007
-6.716317
-6.082966
-5.354227
-4.704276
-4.238790
-3.975771
-3.804867
-3.708075
-3.687501
-3.683527
-3.647289
-3.516363
-3.275788
-2.937253
-2.554764
-2.217631
-1.967471
-1.787448
-1.655354
-1.545470
-1.428105
-1.347446
-1.329444
-1.298349
-1.140771
-0.848527
-0.573818
-0.487781
-0.604445
-0.754542
-0.827252
-0.895754
-1.093778
-1.383217
-1.603452
-1.764303
-1.992019
-2.322605
-2.587729
-2.587963
-2.303434
-1.880966
-1.526767
-1.331314
-1.185660
-0.813926
-0.060871
0.933693
1.859989
2.467623
2.703990
2.631279
2.421799
2.202499
2.040946
1.987875
1.994421
2.067365
2.197122
2.249492
2.113423
1.789617
1.371357
0.891376
0.309460
-0.345868
-1.005638
-1.567681
-1.975654
-2.322372
-2.651789
-2.914809
-3.092493
-3.160761
-3.054852
-2.851918
-2.763075
-2.797911
-2.757464
-2.431554
-1.823920
-1.050059
-0.089161
0.981855
1.976185
2.751918
3.264864
3.561316
3.666758
3.638235
3.566226
3.522740
3.519233
3.511752
3.450264
3.289646
3.052110
2.835149
2.809197
3.066839
3.435301
3.675408
3.695281
3.615557
3.639638
3.774304
3.951988
4.175262
4.370481
4.412798
4.218982
3.801658
3.326118
3.006754
2.927732
2.986882
3.044629
3.020314
2.936616
2.880037
2.848241
2.816679
2.731344
2.535657
2.248791
1.896695
1.558393
1.312675
1.181048
1.172398
1.322962
1.650743
2.054974
2.393510
2.544307
2.426007
2.049597
1.481241
0.779388
0.054623
-0.545529
-0.949293
-1.178178
-1.250655
-1.130250
-0.851333
-0.500874
-0.181510
-0.019490
-0.040298
-0.128906
-0.162806
-0.139894
-0.096408
-0.025568
0.123359
0.404615
0.777518
1.143875
1.422325
1.563771
1.582474
1.515843
1.355927
1.084257
0.741046
0.428696
0.268780
0.338684
0.604509
0.934394
1.212610
1.380709
1.468616
1.571486
1.702178
1.830531
1.937375
1.981095
1.985771
2.036271
2.209045
2.526773
2.923289
3.289880
3.561082
3.778044
3.919490
3.881616
3.688501
3.439275
3.229327
3.041122
2.729239
2.217462
1.536651
0.740812
-0.109501
-0.935031
-1.709828
-2.412149
-2.923225
-3.153280
-3.130134
-3.013937
-3.027264
-3.189284
-3.317170
-3.301739
-3.251006
-3.381931
-3.748288
-4.200214
-4.663128
-5.171399
-5.647640
-6.028726
-6.326581
-6.578846
-6.883714
-7.287479
-7.639340
-7.672539
-7.484100
-7.393388
-7.450434
-7.463760
-7.260592
-6.891664
-6.434126
-5.903645
-5.328743
-4.785636
-4.343063
-3.980914
-3.675812
-3.367202
-3.000144
-2.623967
-2.318631
-2.172041
-2.292680
-2.709069
-3.376788
-4.169587
-4.835903
-5.201324
-5.290401
-5.213481
-5.021302
-4.720174
-4.324125
-3.856301
-3.375852
-2.950345
-2.633319
-2.441373
-2.385496
-2.365858
-2.224411
-2.012827
-1.910425
-2.042285
-2.256441
-2.277483
-2.102137
-1.851041
-1.595503
-1.430443
-1.429041
-1.499413
-1.435353
-1.050059
-0.318280
0.562660
1.342834
1.856950
2.127685
2.285029
2.406135
2.544307
2.720121
2.910898
3.098636
3.282165
3.437639
3.501465
3.528819
3.728480
4.182042
4.787806
5.350784
5.705919
5.811594
5.656822
5.229912
4.586040
3.883252
3.203376
2.537294
1.894357
1.272696
0.663660
0.102084
-0.324125
-0.585742
-0.630864
-0.427228
-0.034453
0.446931
0.910781
1.398945
1.925919
2.447516
2.904819
3.195894
3.356278
3.458213
3.549159
3.642911
3.736195
3.838130
3.912710
3.894007
3.719595
3.489074
3.401400
3.515025
3.725674
3.847715
3.718660
3.357447
2.903183
2.504328
2.246920
2.111085
2.110851
2.237568
2.438632
2.647645
2.795637
2.848475
2.709367
2.278716
1.598372
0.885765
0.356219
0.005760
-0.292329
-0.591586
-0.827953
-0.877050
-0.756880
-0.632267
-0.628292
-0.754074
-0.922640
-0.999325
-0.829356
-0.431437
0.082211
0.657113
1.238796
1.799670
2.281989
2.673362
3.006988
3.310454
3.617193
3.885590
4.009735
3.937259
3.766355
3.647353
3.663718
3.775940
3.832519
3.728714
3.547288
3.452601
3.429222
3.311857
2.962099
2.385561
1.739117
1.229678
0.979984
1.010612
1.324365
1.777693
2.122073
2.216994
2.127918
2.033465
2.002137
2.010086
1.981563
1.844559
1.605620
1.289529
0.879920
0.332840
-0.309162
-1.007040
-1.734844
-2.359779
-2.783883
-3.002949
-3.116574
-3.301973
-3.637002
-4.021595
-4.292329
-4.412266
-4.405252
-4.275730
-4.122360
-4.103657
-4.306357
-4.622682
-4.772544
-4.566103
-4.104592
-3.591412
-3.140187
-2.807263
-2.573467
-2.391341
-2.190979
-1.927258
-1.614674
-1.245511
-0.914224
-0.811588
-1.010547
-1.398647
-1.854314
-2.356973
-2.853788
-3.230899
-3.427521
-3.474514
-3.409051
-3.260358
-3.067243
-2.854255
-2.620694
-2.337335
-2.063327
-1.923283
-1.908554
-1.934973
-1.915568
-1.767810
-1.501985
-1.168827
-0.785870
-0.361064
0.066781
0.471012
0.798559
0.939772
0.845085
0.601938
0.414434
0.367441
0.416772
0.482001
0.478260
0.425422
0.376559
0.414434
0.506082
0.520577
0.381235
0.099278
-0.170755
-0.367611
-0.577559
-0.924744
-1.357967
-1.608595
-1.501517
-1.097987
-0.641852
-0.333477
-0.266611
-0.323891
-0.290225
-0.124698
0.158662
0.535774
0.976477
1.368318
1.592294
1.642092
1.492931
1.185724
0.806275
0.450672
0.233944
0.275560
0.657347
1.240198
1.811360
2.204837
2.288302
2.039076
1.623155
1.278774
1.055734
0.885531
0.715796
0.602873
0.652437
0.805807
0.893480
0.766296
0.423318
0.032179
-0.217047
-0.220086
-0.043103
0.230671
0.518473
0.703872
0.811418
0.930420
1.166085
1.495736
1.793124
2.038842
2.207643
2.244582
2.092615
1.757119
1.382813
1.105065
0.997519
1.075373
1.228041
1.304024
1.268020
1.251420
1.391698
1.700307
2.077419
2.417591
2.690429
2.869984
2.850579
2.551088
2.014060
1.326235
0.635604
0.118449
-0.093135
-0.000786
0.294965
0.745722
1.227340
1.539222
1.565407
1.359668
1.099220
0.964554
0.980686
1.010612
0.931121
0.692884
0.320682
-0.142934
-0.623382
-1.004235
-1.261409
-1.489126
-1.711699
-1.865536
-1.942688
-1.975186
-2.006514
-2.094889
-2.304837
-2.595678
-2.853320
-3.005053
-2.997806
-2.809133
-2.521565
-2.317228
-2.267430
-2.279821
-2.218333
-2.058417
-1.937545
-1.947130
-2.053507
-2.143285
-2.161287
-2.185601
-2.270235
-2.448855
-2.686391
-2.835552
-2.824797
-2.664648
-2.438100
-2.278184
-2.173444
-1.997864
-1.664238
-1.192206
-0.704743
-0.328099
-0.150415
-0.193901
-0.392861
-0.595093
-0.688845
-0.717602
-0.749632
-0.818368
-0.908846
-1.024809
-1.177711
-1.345342
-1.543133
-1.760796
-1.967003
-2.140479
-2.310682
-2.473170
-2.559440
-2.577442
-2.534657
-2.396485
-2.112424
-1.737416
-1.443770
-1.271930
-1.116924
-0.915860
-0.688845
-0.492223
-0.353583
-0.273391
-0.260533
-0.234347
-0.148545
-0.054559
0.032647
0.115878
0.172222
0.132010
0.020022
-0.033284
0.049947
0.245400
0.485508
0.788506
1.149486
1.496672
1.793591
2.000032
2.121138
2.202031
2.236867
2.216059
2.199460
2.285730
2.453361
2.576571
2.626136
2.663309
2.739293
2.931005
3.266501
3.621869
3.829012
3.783655
3.530689
3.246862
3.071282
3.029199
3.035511
2.963970
2.765712
2.459206
2.096356
1.721816
1.298881
0.806976
0.300108
-0.134049
-0.444763
-0.630630
-0.673415
-0.636475
-0.601172
-0.549971
-0.473754
-0.380469
-0.333710
-0.395432
-0.568441
-0.841981
-1.134225
-1.351654
-1.394205
-1.230548
-0.967061
-0.720407
-0.567739
-0.492691
-0.403147
-0.171457
0.221319
0.637475
0.946785
1.072801
1.002896
0.814925
0.679324
0.663192
0.707847
0.748293
0.751800
0.755307
0.750164
0.759749
0.836434
0.965489
1.064618
1.016924
0.820770
0.589546
0.421682
0.306187
0.210331
0.110500
-0.020425
-0.191095
-0.417175
-0.652841
-0.819537
-0.843851
-0.731396
-0.585975
-0.539918
-0.652841
-0.851800
-1.059878
-1.224002
-1.329210
-1.414545
-1.548977
-1.769680
-2.010489
-2.201967
-2.329152
-2.418228
-2.482755
-2.526942
-2.584690
-2.677974
-2.802821
-2.922991
-2.976063
-2.890961
-2.647815
-2.311149
-1.963029
-1.575162
-1.116924
-0.651438
-0.229204
0.131776
0.491820
