EVENT_NAME: L_AQUILA
EVENT_ID: IT-2009-0009
EVENT_DATE_YYYYMMDD: 20090406
EVENT_TIME_HHMMSS: 013240
EVENT_LATITUDE_DEGREE: 42.3420
EVENT_LONGITUDE_DEGREE: 13.3800
EVENT_DEPTH_KM: 8.3
HYPOCENTER_REFERENCE: INGV-CNT_Seismic_Bulletin
MAGNITUDE_W: 6.1
MAGNITUDE_W_REFERENCE: INGV-CNT_Seismic_Bulletin
MAGNITUDE_L: 
MAGNITUDE_L_REFERENCE: 
FOCAL_MECHANISM: Normal faulting
NETWORK: IT
STATION_CODE: LSS
STATION_NAME: 
STATION_LATITUDE_DEGREE: 42.558243
STATION_LONGITUDE_DEGREE: 12.968894
STATION_ELEVATION_M: 1065
LOCATION: 
SENSOR_DEPTH_M: 0.0
VS30_M/S: 1091
SITE_CLASSIFICATION_EC8: A
MORPHOLOGIC_CLASSIFICATION: 
EPICENTRAL_DISTANCE_KM: 41.5
EARTHQUAKE_BACKAZIMUTH_DEGREE: 305.5
DATE_TIME_FIRST_SAMPLE_YYYYMMDD_HHMMSS: 
DATE_TIME_FIRST_SAMPLE_PRECISION: 
SAMPLING_INTERVAL_S: 
NDATA: 105
DURATION_S: 
STREAM: HNE
UNITS: cm/s^2
INSTRUMENT: sensor = FBA-3 [Kinemetrics] | digitizer = Etna [Kinemetrics]
INSTRUMENT_ANALOG/DIGITAL: D
INSTRUMENTAL_FREQUENCY_HZ: 206.000
INSTRUMENTAL_DAMPING: 0.700000
FULL_SCALE_G: 1.0
N_BIT_DIGITAL_CONVERTER: 18
PGA_CM/S^2: -9.614135
TIME_PGA_S: 
BASELINE_CORRECTION: BASELINE REMOVED
FILTER_TYPE: BUTTERWORTH
FILTER_ORDER: 2
LOW_CUT_FREQUENCY_HZ: 0.080
HIGH_CUT_FREQUENCY_HZ: 40.000
LATE/NORMAL_TRIGGERED: NT
DATABASE_VERSION: 0.5
HEADER_FORMAT: DYNA 1.2
DATA_TYPE: ACCELERATION RESPONSE SPECTRUM
PROCESSING: manual (Paolucci et al., 2011)
DATA_TIMESTAMP_YYYYMMDD_HHMMSS: 20211011_160133.040
DATA_LICENSE: CC-BY3_0-IT (http://creativecommons.org/licenses/by/3.0/deed.en)
DATA_CITATION: Luzi L, Pacor F, Puglia R (2019). Italian Accelerometric Archive v 3.0 - Istituto Nazionale di Geofisica e Vulcanologia, Dipartimento della Protezione Civile Nazionale. doi: 10.13127/itaca.3.1
DATA_CREATOR: ITACA working group
ORIGINAL_DATA_MEDIATOR_CITATION: data obtained within the DPC-INGV data exchange agreements
ORIGINAL_DATA_MEDIATOR: Archive of Italian Department of Civil Protection
ORIGINAL_DATA_CREATOR_CITATION: Presidency Of Counsil Of Ministers-Civil Protection Department. (1972). Italian Strong Motion Network. Presidency of Counsil of Ministers - Civil Protection Department. https://doi.org/10.7914/SN/IT http://www.fdsn.org/networks/detail/IT/
ORIGINAL_DATA_CREATOR: network: IT (Italian Strong Motion Network (RAN)); owner: Presidency of Counsil of Ministers - Civil Protection Department (PCM - DPC)
USER1: 
USER2: 
USER3: 
USER4: 
USER5: 
    0.010000     9.617340
    0.020000     9.686587
    0.022000     9.755938
    0.025000     9.821578
    0.029000    10.331627
    0.030000    10.219348
    0.032000    10.226643
    0.035001    10.956093
    0.036000    10.772193
    0.040000    10.933987
    0.041999    11.193638
    0.044001    11.850428
    0.045000    12.201222
    0.046000    12.539835
    0.048001    13.121267
    0.050000    14.125978
    0.054999    13.824582
    0.059999    13.952911
    0.064998    13.392358
    0.067002    13.955890
    0.069999    15.881292
    0.075002    18.760090
    0.080000    17.376324
    0.084998    19.992838
    0.090001    22.301466
    0.095003    26.629934
    0.100000    24.807367
    0.109999    25.502333
    0.120005    23.407930
    0.130005    21.787523
    0.132996    22.051729
    0.139997    20.124159
    0.149993    19.792067
    0.160000    19.860119
    0.170010    19.968536
    0.179986    19.173231
    0.190006    19.673626
    0.200000    20.768528
    0.220022    30.290844
    0.239981    30.610722
    0.250000    26.082251
    0.260010    21.647949
    0.280034    19.470913
    0.290023    19.469355
    0.300030    22.348291
    0.320000    21.257893
    0.340020    19.476513
    0.350017    23.703238
    0.359971    29.117104
    0.379939    29.636311
    0.400000    24.151348
    0.419992    18.105055
    0.439947    19.727369
    0.450045    22.346565
    0.459982    25.284431
    0.480077    26.739874
    0.500000    24.535589
    0.550055    15.549220
    0.599880    14.510166
    0.650195    16.520752
    0.667111    15.779729
    0.699790    13.227707
    0.750188    13.027038
    0.800000    13.639713
    0.850340    15.246556
    0.900090    14.932477
    0.949668    15.088355
    1.000000    13.689939
    1.100110    13.042510
    1.200480    11.360683
    1.300390     7.640354
    1.400560     5.998031
    1.499250     6.758889
    1.600000     5.009604
    1.700680     4.680511
    1.798561     3.590276
    1.901141     3.159560
    2.000000     2.658003
    2.197802     3.444510
    2.398082     2.888254
    2.500000     2.581335
    2.597403     2.735583
    2.801121     2.930740
    3.003003     2.982651
    3.205128     2.257677
    3.401361     2.086743
    3.496503     2.088505
    3.597122     2.145163
    3.802281     2.044673
    4.000000     1.882467
    4.201681     1.464285
    4.405286     1.353258
    4.608295     1.187913
    4.807692     1.046569
    5.000000     0.867506
    5.494505     0.768871
    5.988024     0.609170
    6.493506     0.445180
    6.993007     0.352206
    7.518797     0.280010
    8.000000     0.222187
    8.474576     0.197359
    9.009009     0.173862
    9.523809     0.142877
   10.000000     0.126296
