EVENT_NAME: L_AQUILA
EVENT_ID: IT-2009-0009
EVENT_DATE_YYYYMMDD: 20090406
EVENT_TIME_HHMMSS: 013240
EVENT_LATITUDE_DEGREE: 42.3420
EVENT_LONGITUDE_DEGREE: 13.3800
EVENT_DEPTH_KM: 8.3
HYPOCENTER_REFERENCE: INGV-CNT_Seismic_Bulletin
MAGNITUDE_W: 6.1
MAGNITUDE_W_REFERENCE: INGV-CNT_Seismic_Bulletin
MAGNITUDE_L: 
MAGNITUDE_L_REFERENCE: 
FOCAL_MECHANISM: Normal faulting
NETWORK: IT
STATION_CODE: LSS
STATION_NAME: 
STATION_LATITUDE_DEGREE: 42.558243
STATION_LONGITUDE_DEGREE: 12.968894
STATION_ELEVATION_M: 1065
LOCATION: 
SENSOR_DEPTH_M: 0.0
VS30_M/S: 1091
SITE_CLASSIFICATION_EC8: A
MORPHOLOGIC_CLASSIFICATION: 
EPICENTRAL_DISTANCE_KM: 41.5
EARTHQUAKE_BACKAZIMUTH_DEGREE: 305.5
DATE_TIME_FIRST_SAMPLE_YYYYMMDD_HHMMSS: 20090406_013220.000
DATE_TIME_FIRST_SAMPLE_PRECISION: seconds
SAMPLING_INTERVAL_S: 0.005000
NDATA: 21000
DURATION_S: 105.000
STREAM: HNZ
UNITS: cm/s
INSTRUMENT: sensor = FBA-3 [Kinemetrics] | digitizer = Etna [Kinemetrics]
INSTRUMENT_ANALOG/DIGITAL: D
INSTRUMENTAL_FREQUENCY_HZ: 216.000
INSTRUMENTAL_DAMPING: 0.700000
FULL_SCALE_G: 1.0
N_BIT_DIGITAL_CONVERTER: 18
PGV_CM/S: -0.754929
TIME_PGV_S: 38.850000
BASELINE_CORRECTION: BASELINE REMOVED
FILTER_TYPE: BUTTERWORTH
FILTER_ORDER: 2
LOW_CUT_FREQUENCY_HZ: 0.080
HIGH_CUT_FREQUENCY_HZ: 40.000
LATE/NORMAL_TRIGGERED: NT
DATABASE_VERSION: 0.5
HEADER_FORMAT: DYNA 1.2
DATA_TYPE: VELOCITY
PROCESSING: manual (Paolucci et al., 2011)
DATA_TIMESTAMP_YYYYMMDD_HHMMSS: 20211011_160132.904
DATA_LICENSE: CC-BY3_0-IT (http://creativecommons.org/licenses/by/3.0/deed.en)
DATA_CITATION: Luzi L, Pacor F, Puglia R (2019). Italian Accelerometric Archive v 3.0 - Istituto Nazionale di Geofisica e Vulcanologia, Dipartimento della Protezione Civile Nazionale. doi: 10.13127/itaca.3.1
DATA_CREATOR: ITACA working group
ORIGINAL_DATA_MEDIATOR_CITATION: data obtained within the DPC-INGV data exchange agreements
ORIGINAL_DATA_MEDIATOR: Archive of Italian Department of Civil Protection
ORIGINAL_DATA_CREATOR_CITATION: Presidency Of Counsil Of Ministers-Civil Protection Department. (1972). Italian Strong Motion Network. Presidency of Counsil of Ministers - Civil Protection Department. https://doi.org/10.7914/SN/IT http://www.fdsn.org/networks/detail/IT/
ORIGINAL_DATA_CREATOR: network: IT (Italian Strong Motion Network (RAN)); owner: Presidency of Counsil of Ministers - Civil Protection Department (PCM - DPC)
USER1: 
USER2: 
USER3: 
USER4: 
USER5: 
[...]
-0.073707
-0.074192
-0.074231
-0.073605
-0.072299
-0.070529
-0.068611
-0.066725
-0.064839
-0.062865
-0.060856
-0.059074
-0.057900
-0.057691
-0.058705
-0.061010
-0.064350
-0.068132
-0.071620
-0.074143
-0.075217
-0.074692
-0.072880
-0.070447
-0.068011
-0.065777
-0.063547
-0.061106
-0.058624
-0.056683
-0.055992
-0.057145
-0.060534
-0.066272
-0.074062
-0.083165
-0.092555
-0.101281
-0.108846
-0.115360
-0.121314
-0.127160
-0.133083
-0.139005
-0.144605
-0.149293
-0.152362
-0.153338
-0.152252
-0.149578
-0.145941
-0.141903
-0.137950
-0.134540
-0.132148
-0.131251
-0.132178
-0.134895
-0.138974
-0.143802
-0.148841
-0.153736
-0.158254
-0.162085
-0.164648
-0.165109
-0.162732
-0.157283
-0.149148
-0.139094
-0.127957
-0.116506
-0.105444
-0.095379
-0.086706
-0.079517
-0.073678
-0.068970
-0.065179
-0.062171
-0.059925
-0.058390
-0.057273
-0.056015
-0.053944
-0.050463
-0.045154
-0.037853
-0.028738
-0.018410
-0.007777
0.002343
0.011583
0.019997
0.027691
0.034561
0.040360
0.044864
0.047895
0.049221
0.048567
0.045785
0.041006
0.034578
0.026899
0.018356
0.009332
0.000205
-0.008629
-0.016675
-0.023378
-0.028324
-0.031420
-0.032867
-0.033049
-0.032550
-0.032193
-0.032832
-0.034973
-0.038610
-0.043433
-0.049139
-0.055581
-0.062703
-0.070323
-0.077978
-0.085084
-0.091315
-0.096812
-0.102060
-0.107566
-0.113628
-0.120349
-0.127827
-0.136159
-0.145174
-0.154289
-0.162787
-0.170213
-0.176453
-0.181527
-0.185472
-0.188376
-0.190422
-0.191880
-0.193055
-0.194209
-0.195471
-0.196852
-0.198310
-0.199836
-0.201494
-0.203373
-0.205462
-0.207561
-0.209327
-0.210406
-0.210547
-0.209683
-0.208049
-0.206173
-0.204563
-0.203305
-0.202022
-0.200266
-0.197824
-0.194691
-0.190967
-0.186856
-0.182642
-0.178643
-0.175255
-0.172975
-0.172193
-0.172990
-0.175279
-0.179085
-0.184469
-0.191051
-0.197731
-0.203065
-0.206053
-0.206582
-0.205233
-0.202790
-0.199855
-0.196793
-0.193926
-0.191602
-0.190015
-0.189157
-0.189126
-0.190237
-0.192649
-0.196018
-0.199689
-0.203183
-0.206427
-0.209566
-0.212654
-0.215560
-0.218175
-0.220676
-0.223548
-0.227298
-0.232150
-0.237976
-0.244488
-0.251405
-0.258461
-0.265352
-0.271744
-0.277318
-0.281929
-0.285836
-0.289637
-0.293790
-0.298160
-0.302151
-0.305289
-0.307553
-0.309155
-0.310133
-0.310230
-0.309042
-0.306276
-0.301939
-0.296324
-0.289776
-0.282443
-0.274272
-0.265226
-0.255448
-0.245209
-0.234805
-0.224529
-0.214681
-0.205557
-0.197382
-0.190196
-0.183805
-0.177904
-0.172308
-0.167045
-0.162236
-0.157992
-0.154491
-0.151962
-0.150461
-0.149730
-0.149371
-0.149104
-0.148741
-0.147973
-0.146233
-0.142855
-0.137379
-0.129779
-0.120437
-0.109988
-0.099161
-0.088701
-0.079367
-0.071773
-0.066094
-0.062006
-0.059050
-0.057047
-0.056153
-0.056545
-0.058076
-0.060275
-0.062593
-0.064572
-0.065873
-0.066328
-0.066035
-0.065314
-0.064484
-0.063627
-0.062554
-0.060962
-0.058517
-0.054848
-0.049713
-0.043306
-0.036301
-0.029416
-0.022948
-0.016783
-0.010868
-0.005571
-0.001583
0.000405
-0.000142
-0.003579
-0.009934
-0.018737
-0.029085
-0.040040
-0.050974
-0.061561
-0.071570
-0.080695
-0.088427
-0.094117
-0.097315
-0.098069
-0.096887
-0.094468
-0.091491
-0.088520
-0.085971
-0.084176
-0.083498
-0.084412
-0.087385
-0.092474
-0.098970
-0.105562
-0.110951
-0.114387
-0.115797
-0.115618
-0.114425
-0.112623
-0.110454
-0.108207
-0.106243
-0.104805
-0.103794
-0.102690
-0.100760
-0.097479
-0.092895
-0.087660
-0.082732
-0.078971
-0.076862
-0.076457
-0.077490
-0.079487
-0.081855
-0.084016
-0.085569
-0.086360
-0.086498
-0.086389
-0.086609
-0.087556
-0.089161
-0.090964
-0.092479
-0.093544
-0.094340
-0.095064
-0.095568
-0.095327
-0.093818
-0.090928
-0.086971
-0.082379
-0.077429
-0.072237
-0.066922
-0.061707
-0.056826
-0.052397
-0.048494
-0.045348
-0.043296
-0.042485
-0.042787
-0.044140
-0.046778
-0.050923
-0.056350
-0.062408
-0.068440
-0.074046
-0.078956
-0.082758
-0.084904
-0.085031
-0.083232
-0.079973
-0.075809
-0.071257
-0.066852
-0.063098
-0.060186
-0.057717
-0.054744
-0.050238
-0.043639
-0.035040
-0.024952
-0.013978
-0.002716
0.008197
0.018165
0.026820
0.034126
0.040302
0.045649
0.050424
0.054803
0.058826
0.062369
0.065290
0.067665
0.069828
0.072131
0.074617
0.076925
0.078486
0.078840
0.077863
0.075795
0.073034
0.069846
0.066339
0.062629
0.058865
0.055134
0.051549
0.048441
0.046308
0.045543
0.046264
0.048383
0.051726
0.056106
0.061336
0.067150
0.073054
0.078332
0.082239
0.084248
0.084261
0.082745
0.080653
0.079071
0.078854
0.080540
0.084464
0.090751
0.099129
0.108770
0.118483
0.127289
0.134917
0.141738
0.148227
0.154535
0.160515
0.165980
0.170830
0.175026
0.178581
0.181585
0.184216
0.186780
0.189833
0.194093
0.199927
0.206917
0.214145
0.220956
0.227371
0.233829
0.240648
0.247720
0.254558
0.260628
0.265752
0.270279
0.274835
0.279840
0.285214
0.290512
0.295304
0.299427
0.303009
0.306368
0.309880
0.313784
0.317957
0.321832
0.324605
0.325560
0.324252
0.320593
0.315036
0.308586
0.302382
0.297197
0.293320
0.290753
0.289362
0.288993
0.289661
0.291563
0.294765
0.298893
0.303243
0.307228
0.310724
0.314006
0.317451
0.321351
0.325941
0.331442
0.337966
0.345346
0.353072
0.360498
0.367216
0.373333
0.379379
0.385848
0.392743
0.399535
0.405567
0.410525
0.414668
0.418700
0.423363
0.428981
0.435303
0.441741
0.447691
0.452560
0.455617
0.456017
0.453105
0.446783
0.437569
0.426261
0.413513
0.399714
0.385147
0.370160
0.355192
0.340706
0.327065
0.314430
0.302811
0.292193
0.282555
0.273800
0.265759
0.258263
0.251247
0.244824
0.239288
0.235006
0.232310
0.231477
0.232633
0.235526
0.239432
0.243395
0.246562
0.248249
0.247885
0.245180
0.240428
0.234460
0.228163
0.222069
0.216378
0.211180
0.206508
0.202278
0.198314
0.194529
0.191107
0.188558
0.187579
0.188743
0.192241
0.197851
0.205122
0.213535
0.222579
0.231817
0.240870
0.249282
0.256432
0.261666
0.264527
0.264844
0.262636
0.257935
0.250669
0.240663
0.227762
0.211971
0.193498
0.172747
0.150367
0.127304
0.104710
0.083700
0.065125
0.049487
0.036952
0.027378
0.020394
0.015584
0.012630
0.011210
0.010776
0.010564
0.009900
0.008458
0.006228
0.003288
-0.000286
-0.004194
-0.007623
-0.009408
-0.008577
-0.004699
0.002213
0.011860
0.023649
0.036700
0.050104
0.063217
0.075652
0.087007
0.096687
0.104070
0.108874
0.111317
0.111870
0.110839
0.108237
0.104077
0.098742
0.092977
0.087481
0.082468
0.077502
0.071739
0.064499
0.055832
0.046645
0.038260
0.031822
0.027886
0.026307
0.026360
0.027051
0.027458
0.026886
0.024768
0.020547
0.013848
0.004789
-0.005908
-0.017186
-0.028075
-0.037935
-0.046387
-0.053124
-0.057864
-0.060480
-0.061129
-0.060199
-0.058134
-0.055324
-0.052037
-0.048344
-0.044109
-0.039089
-0.033048
-0.025794
-0.017261
-0.007698
0.002195
0.011373
0.018691
0.023170
0.024275
0.022129
0.017519
0.011602
0.005458
-0.000305
-0.005737
-0.011325
-0.017410
-0.023816
-0.030075
-0.035863
-0.041027
-0.045314
-0.048305
-0.049656
-0.049332
-0.047585
-0.044788
-0.041300
-0.037394
-0.033260
-0.029077
-0.024999
-0.021010
-0.017017
-0.013248
-0.010463
-0.009637
-0.011399
-0.015746
-0.022238
-0.030243
-0.038869
-0.046873
-0.052929
-0.056096
-0.056168
-0.053649
-0.049374
-0.044050
-0.038149
-0.032032
-0.025899
-0.019510
-0.012126
-0.002956
0.008218
0.020769
0.033431
0.044733
0.053422
0.058793
0.060753
0.059588
0.055663
0.049419
0.041580
0.033180
0.025334
0.019039
0.015103
0.014102
0.016330
0.021832
0.030522
0.042283
0.056921
0.073974
0.092553
0.111440
0.129417
0.145619
0.159649
0.171440
0.181144
0.189193
0.196289
0.203098
0.209888
0.216612
0.223491
0.231423
0.241654
0.254898
0.270765
0.287869
0.304300
0.318104
0.327709
0.332252
0.331760
0.327173
0.320069
0.312057
0.304177
0.296803
0.290080
0.284411
0.280550
0.279322
0.281348
0.286855
0.295478
0.306071
0.316888
0.326294
0.333475
0.338410
0.341184
0.341482
0.338724
0.332549
0.323108
0.310934
0.296742
0.281401
0.265958
0.251523
0.239147
0.229682
0.223502
0.220216
0.218691
0.217427
0.215054
0.210699
0.204096
0.195485
0.185388
0.174348
0.162759
0.150821
0.138524
0.125711
0.112441
0.099459
0.088179
0.080052
0.075877
0.075562
0.078368
0.083419
0.090175
0.098476
0.108142
0.118695
0.129555
0.140409
0.151234
0.161994
0.172396
0.181909
0.190023
0.196622
0.202191
0.207541
0.213231
0.219236
0.225144
0.230583
0.235470
0.239841
0.243424
0.245375
0.244608
0.240477
0.233068
0.222885
0.210466
0.196410
0.181717
0.167843
0.156085
0.146793
0.139356
0.133080
0.127871
0.123916
0.120850
0.117420
0.111982
0.103266
0.090840
0.075134
0.057211
0.038527
0.020736
0.005444
-0.006232
-0.014143
-0.019198
-0.022836
-0.026206
-0.029718
-0.033286
-0.036865
-0.040715
-0.045240
-0.050694
-0.057084
-0.064400
-0.072893
-0.083083
-0.095427
-0.110008
-0.126612
-0.144906
-0.164321
-0.183901
-0.202600
-0.219811
-0.235363
-0.248949
-0.259755
-0.266925
-0.270342
-0.270794
-0.269415
-0.267194
-0.264994
-0.263702
-0.264073
-0.266327
-0.269949
-0.273946
-0.277342
-0.279497
-0.280100
-0.278897
-0.275457
-0.269254
-0.259963
-0.247695
-0.233070
-0.217154
-0.201160
-0.186068
-0.172595
-0.161531
-0.153768
-0.149784
-0.149335
-0.151780
-0.156491
-0.162853
-0.170163
-0.177792
-0.185443
-0.193093
-0.200693
-0.207988
-0.214584
-0.220024
-0.223817
-0.225526
-0.224941
-0.222134
-0.217416
-0.211284
-0.204363
-0.197203
-0.190038
-0.182663
-0.174552
-0.165206
-0.154516
-0.142830
-0.130728
-0.118912
-0.108220
-0.099406
-0.092768
-0.088154
-0.085258
-0.083770
-0.083298
-0.083381
-0.083696
-0.084294
-0.085620
-0.088165
-0.091998
-0.096590
-0.101106
-0.104939
-0.107966
-0.110392
-0.112537
-0.114811
-0.117737
-0.121819
-0.127377
-0.134511
-0.143138
-0.152968
-0.163451
-0.173854
-0.183492
-0.191960
-0.199126
-0.204921
-0.209300
-0.212480
-0.214982
-0.217181
-0.218852
-0.219292
-0.217924
-0.214701
-0.210030
-0.204588
-0.199329
-0.195414
-0.193756
-0.194511
-0.196981
-0.199874
-0.201644
-0.200906
-0.196942
-0.189985
-0.180982
-0.170963
-0.160482
-0.149473
-0.137478
-0.123963
-0.108590
-0.091455
-0.073226
-0.055187
-0.039106
-0.026740
-0.019072
-0.015945
-0.016502
-0.019968
-0.025977
-0.034330
-0.044725
-0.056706
-0.069736
-0.083220
-0.096385
-0.108186
-0.117600
-0.124205
-0.128479
-0.131476
-0.134236
-0.137467
-0.141584
-0.146780
-0.152945
-0.159552
-0.165778
-0.170907
-0.174713
-0.177365
-0.179009
-0.179718
-0.179764
-0.179548
-0.179166
-0.178257
-0.176340
-0.173220
-0.169120
-0.164615
-0.160429
-0.157099
-0.154712
-0.152890
-0.150945
-0.148139
-0.144031
-0.138712
-0.132759
-0.126943
-0.121929
-0.118101
-0.115493
-0.113928
-0.113366
-0.114084
-0.116376
-0.120015
-0.124095
-0.127512
-0.129667
-0.130820
-0.131874
-0.133797
-0.137079
-0.141561
-0.146634
-0.151582
-0.155876
-0.159363
-0.162295
-0.165206
-0.168594
-0.172522
-0.176427
-0.179346
-0.180285
-0.178469
-0.173416
-0.164886
-0.152823
-0.137514
-0.119786
-0.100792
-0.081476
-0.062305
-0.043525
-0.025521
-0.008861
0.005895
0.018446
0.028899
0.037742
0.045671
0.053351
0.061185
0.069233
0.077388
0.085660
0.094234
0.103232
0.112453
0.121326
0.129102
0.135199
0.139498
0.142371
0.144455
0.146321
0.148099
0.149261
0.148919
0.146644
0.143037
0.139378
0.136545
0.134281
0.131469
0.127039
0.120583
0.112291
0.102666
0.092484
0.082835
0.074878
0.069370
0.066391
0.065505
0.066139
0.067712
0.069482
0.070546
0.070186
0.068304
0.065526
0.062834
0.060971
0.060053
0.059569
0.058699
0.056721
0.053349
0.048926
0.044375
0.040815
0.039007
0.038995
0.040291
0.042431
0.045357
0.049270
0.054196
0.059795
0.065666
0.071814
0.078674
0.086531
0.094864
0.102288
0.107257
0.108977
0.107795
0.104815
0.101193
0.097728
0.094787
0.092267
0.089644
0.086317
0.081984
0.076632
0.070233
0.062584
0.053452
0.042723
0.030473
0.017040
0.003144
-0.010136
-0.021671
-0.030814
-0.037722
-0.043089
-0.047535
-0.051257
-0.054165
-0.056230
-0.057692
-0.059038
-0.060756
-0.062992
-0.065390
-0.067430
-0.069056
-0.070923
-0.074003
-0.079074
-0.086601
-0.096794
-0.109591
-0.124690
-0.141766
-0.160597
-0.180853
-0.201834
-0.222512
-0.241714
-0.258254
-0.271216
-0.280411
-0.286566
-0.291040
-0.295428
-0.301320
-0.310034
-0.322221
-0.337623
-0.355342
-0.374371
-0.393856
-0.412920
-0.430496
-0.445565
-0.457660
-0.467043
-0.474280
-0.479590
-0.482607
-0.482728
-0.479702
-0.473985
-0.466648
-0.458881
-0.451488
-0.444796
-0.438934
-0.434071
-0.430403
-0.428128
-0.427516
-0.428987
-0.433106
-0.440472
-0.451466
-0.465995
-0.483514
-0.503291
-0.524567
-0.546440
-0.567776
-0.587431
-0.604769
-0.620044
-0.634160
-0.647915
-0.661459
-0.674420
-0.686420
-0.697416
-0.707614
-0.717190
-0.726190
-0.734612
-0.742328
-0.748842
-0.753304
-0.754929
-0.753410
-0.748965
-0.742135
-0.733593
-0.723903
-0.713167
-0.700943
-0.686714
-0.670488
-0.652901
-0.634848
-0.617130
-0.600366
-0.585010
-0.571299
-0.559205
-0.548580
-0.539359
-0.531545
-0.524945
-0.518955
-0.512713
-0.505520
-0.497207
-0.488245
-0.479510
-0.471726
-0.464921
-0.458412
-0.451344
-0.443249
-0.434101
-0.424030
-0.413184
-0.401820
-0.390242
-0.378508
-0.366296
-0.352976
-0.337643
-0.319166
-0.296558
-0.269631
-0.239414
-0.207944
-0.177499
-0.149800
-0.125733
-0.105668
-0.089848
-0.078414
-0.071212
-0.067711
-0.067108
-0.068475
-0.070866
-0.073426
-0.075522
-0.076868
-0.077539
-0.077736
-0.077385
-0.075894
-0.072355
-0.066118
-0.057320
-0.046980
-0.036599
-0.027538
-0.020535
-0.015549
-0.011907
-0.008646
-0.004887
-0.000152
0.005381
0.010836
0.015027
0.017126
0.017096
0.015526
0.013031
0.009807
0.005735
0.000838
-0.004495
-0.009820
-0.015081
-0.020629
-0.026749
-0.033110
-0.038667
-0.042110
-0.042491
-0.039588
-0.033894
-0.026391
-0.018126
-0.009824
-0.001771
0.006002
0.013553
0.021024
0.028670
0.036824
0.045734
0.055265
0.064641
0.072558
0.077759
0.079564
0.077942
0.073234
0.065957
0.056780
0.046350
0.034930
0.022295
0.008083
-0.007683
-0.024378
-0.041011
-0.056617
-0.070466
-0.082010
-0.090881
-0.097022
-0.100718
-0.102356
-0.102187
-0.100405
-0.097406
-0.093813
-0.090164
-0.086513
-0.082322
-0.076816
-0.069597
-0.060921
-0.051405
-0.041643
-0.032200
-0.023787
-0.017188
-0.012935
-0.011056
-0.011136
-0.012644
-0.015258
-0.018878
-0.023254
-0.027613
-0.030712
-0.031319
-0.028621
-0.022308
-0.012493
0.000252
0.014804
0.029686
0.043509
0.055327
0.064686
0.071539
0.076226
0.079439
0.081975
0.084349
0.086646
0.088720
0.090473
0.091967
0.093388
0.095043
0.097349
0.100697
0.105178
0.110377
0.115522
0.119824
0.122573
0.122917
0.119875
0.112870
0.102314
0.089604
0.076531
0.064533
0.054186
0.045199
0.036898
0.028816
0.021021
0.014139
0.009175
0.007099
0.008325
0.012420
0.018314
0.024889
0.031522
0.038284
0.045688
0.054137
0.063516
0.073297
0.083013
0.092590
0.102242
0.112158
0.122372
0.132807
0.143278
0.153463
0.162995
0.171637
0.179416
0.186621
0.193738
0.201390
0.210266
0.220946
0.233768
0.248842
0.266095
0.285198
0.305395
0.325510
0.344353
0.361330
0.376714
0.391298
0.405752
0.420101
0.433595
0.445085
0.453742
0.459479
0.462709
0.463884
0.463365
0.461548
0.458821
0.455384
0.451214
0.446174
0.440086
0.432722
0.423856
0.413393
0.401463
0.388414
0.374748
0.361078
0.348138
0.336794
0.327936
0.322261
0.320109
0.321418
0.325694
0.332044
0.339404
0.346929
0.354227
0.361282
0.368254
0.375372
0.382811
0.390405
0.397470
0.403045
0.406469
0.407790
0.407714
0.407118
0.406503
0.405783
0.404633
0.403077
0.401736
0.401501
0.403016
0.406486
0.411804
0.418645
0.426462
0.434571
0.442345
0.449416
0.455857
0.462264
0.469544
0.478405
0.488903
0.500399
0.511866
0.522199
0.530320
0.535249
0.536364
0.533670
0.527749
0.519412
0.509376
0.498211
0.486368
0.474054
0.461055
0.446875
0.431192
0.414166
0.396321
0.378265
0.360592
0.343844
0.328261
0.313491
0.298687
0.282988
0.266036
0.248224
0.230636
0.214695
0.201685
0.192417
0.187187
0.185999
0.188839
0.195768
0.206781
0.221547
0.239230
0.258558
0.278176
0.297082
0.314837
0.331437
0.346947
0.361239
0.374012
0.385070
0.394576
0.403012
0.410880
0.418423
0.425580
0.432112
0.437699
0.441954
0.444452
0.444709
0.442118
0.436062
0.426249
0.412881
0.396434
0.377320
0.355795
0.332168
0.307045
0.281398
0.256374
0.232946
0.211605
0.192329
0.174869
0.159002
0.144531
0.131129
0.118310
0.105666
0.093167
0.081209
0.070329
0.060817
0.052529
0.045040
0.037993
0.031330
0.025286
0.020240
0.016562
0.014566
0.014537
0.016698
0.021058
0.027313
0.034944
0.043404
0.052187
0.060793
0.068689
0.075331
0.080240
0.083181
0.084294
0.083946
0.082378
0.079499
0.074978
0.068452
0.059659
0.048503
0.035109
0.019853
0.003248
-0.014271
-0.032388
-0.050705
-0.068572
-0.085242
-0.100176
-0.113159
-0.124159
-0.133179
-0.140277
-0.145658
-0.149740
-0.153113
-0.156390
-0.159972
-0.163916
-0.167955
-0.171599
-0.174240
-0.175352
-0.174699
-0.172333
-0.168342
-0.162653
-0.155138
-0.145867
-0.135155
-0.123364
-0.110734
-0.097403
-0.083603
-0.069870
-0.057087
-0.046238
-0.037981
-0.032348
-0.028791
-0.026519
-0.024860
-0.023494
-0.022481
-0.022040
-0.022138
-0.022157
-0.020937
-0.017259
-0.010436
-0.000643
0.011272
0.024398
0.038364
0.053523
0.070533
0.089694
0.110596
0.132308
0.153833
0.174436
0.193743
0.211697
0.228461
0.244353
0.259793
0.275178
0.290718
0.306404
0.322173
0.338094
0.354266
0.370506
0.386191
0.400457
0.412515
0.421774
0.427807
0.430379
0.429627
0.426181
0.420982
0.414932
0.408686
0.402600
0.396653
0.390363
0.382946
0.373734
0.362567
0.349826
0.336110
0.321892
0.307447
0.292958
0.278613
0.264595
0.251025
0.237905
0.225187
0.212994
0.201813
0.192391
0.185454
0.181518
0.180796
0.183035
0.187328
0.192237
0.196339
0.198816
0.199649
0.199374
0.198708
0.198230
0.198182
0.198445
0.198690
0.198596
0.197975
0.196785
0.195077
0.192957
0.190536
0.187894
0.185071
0.182041
0.178684
0.174830
0.170341
0.165144
0.159251
0.152879
0.146527
0.140815
0.136146
0.132509
0.129601
0.127150
0.125115
0.123567
0.122410
0.121219
0.119399
0.116530
0.112622
0.108048
0.103282
0.098676
0.094388
0.090382
0.086451
0.082216
0.077172
0.070911
0.063465
0.055544
0.048420
0.043468
0.041660
0.043264
0.047794
