EVENT_NAME: L_AQUILA
EVENT_ID: IT-2009-0009
EVENT_DATE_YYYYMMDD: 20090406
EVENT_TIME_HHMMSS: 013240
EVENT_LATITUDE_DEGREE: 42.3420
EVENT_LONGITUDE_DEGREE: 13.3800
EVENT_DEPTH_KM: 8.3
HYPOCENTER_REFERENCE: INGV-CNT_Seismic_Bulletin
MAGNITUDE_W: 6.1
MAGNITUDE_W_REFERENCE: INGV-CNT_Seismic_Bulletin
MAGNITUDE_L: 
MAGNITUDE_L_REFERENCE: 
FOCAL_MECHANISM: Normal faulting
NETWORK: IT
STATION_CODE: LSS
STATION_NAME: 
STATION_LATITUDE_DEGREE: 42.558243
STATION_LONGITUDE_DEGREE: 12.968894
STATION_ELEVATION_M: 1065
LOCATION: 
SENSOR_DEPTH_M: 0.0
VS30_M/S: 1091
SITE_CLASSIFICATION_EC8: A
MORPHOLOGIC_CLASSIFICATION: 
EPICENTRAL_DISTANCE_KM: 41.5
EARTHQUAKE_BACKAZIMUTH_DEGREE: 305.5
DATE_TIME_FIRST_SAMPLE_YYYYMMDD_HHMMSS: 20090406_013220.000
DATE_TIME_FIRST_SAMPLE_PRECISION: seconds
SAMPLING_INTERVAL_S: 0.005000
NDATA: 21000
DURATION_S: 105.000
STREAM: HNZ
UNITS: cm/s^2
INSTRUMENT: sensor = FBA-3 [Kinemetrics] | digitizer = Etna [Kinemetrics]
INSTRUMENT_ANALOG/DIGITAL: D
INSTRUMENTAL_FREQUENCY_HZ: 216.000
INSTRUMENTAL_DAMPING: 0.700000
FULL_SCALE_G: 1.0
N_BIT_DIGITAL_CONVERTER: 18
PGA_CM/S^2: 6.355950
TIME_PGA_S: 39.075000
BASELINE_CORRECTION: BASELINE NOT REMOVED
FILTER_TYPE: 
FILTER_ORDER: 
LOW_CUT_FREQUENCY_HZ: 
HIGH_CUT_FREQUENCY_HZ: 
LATE/NORMAL_TRIGGERED: NT
DATABASE_VERSION: 0.5
HEADER_FORMAT: DYNA 1.2
DATA_TYPE: ACCELERATION
PROCESSING: converted to cm/s^2
DATA_TIMESTAMP_YYYYMMDD_HHMMSS: 20211011_160132.471
DATA_LICENSE: CC-BY3_0-IT (http://creativecommons.org/licenses/by/3.0/deed.en)
DATA_CITATION: Luzi L, Pacor F, Puglia R (2019). Italian Accelerometric Archive v 3.0 - Istituto Nazionale di Geofisica e Vulcanologia, Dipartimento della Protezione Civile Nazionale. doi: 10.13127/itaca.3.1
DATA_CREATOR: ITACA working group
ORIGINAL_DATA_MEDIATOR_CITATION: data obtained within the DPC-INGV data exchange agreements
ORIGINAL_DATA_MEDIATOR: Archive of Italian Department of Civil Protection
ORIGINAL_DATA_CREATOR_CITATION: Presidency Of Counsil Of Ministers-Civil Protection Department. (1972). Italian Strong Motion Network. Presidency of Counsil of Ministers - Civil Protection Department. https://doi.org/10.7914/SN/IT http://www.fdsn.org/networks/detail/IT/
ORIGINAL_DATA_CREATOR: network: IT (Italian Strong Motion Network (RAN)); owner: Presidency of Counsil of Ministers - Civil Protection Department (PCM - DPC)
USER1: 
USER2: 
USER3: 
USER4: 
USER5: 
[...]
-0.219070
-0.665618
-1.142327
-1.558014
-1.841842
-1.896783
-1.756506
-1.496760
-1.264368
-1.173655
-1.184410
-1.186046
-1.160796
-1.128065
-0.958797
-0.631718
-0.189611
0.252729
0.544505
0.725229
0.805888
0.794432
0.681977
0.481614
0.210880
-0.179792
-0.562281
-0.824599
-0.967915
-0.999010
-0.966279
-0.883983
-0.753525
-0.535161
-0.122279
0.476471
1.112861
1.653395
2.019051
2.221050
2.294461
2.225726
2.027234
1.732886
1.423809
1.176220
0.947802
0.743699
0.618384
0.480212
0.305333
0.214387
0.249456
0.412645
0.700680
1.066102
1.451864
1.824300
2.100178
2.163069
2.024662
1.818221
1.665319
1.560579
1.397390
1.158685
0.896133
0.605993
0.284759
-0.106380
-0.562047
-0.969084
-1.277694
-1.521776
-1.711384
-1.800927
-1.805603
-1.761182
-1.619269
-1.352041
-0.978904
-0.593376
-0.290845
-0.048633
0.117361
0.111049
-0.107316
-0.447955
-0.743940
-0.958330
-1.136482
-1.269044
-1.395293
-1.528089
-1.560586
-1.428258
-1.224389
-1.075695
-1.026832
-1.092294
-1.232571
-1.347832
-1.454443
-1.640544
-1.822670
-1.853999
-1.693148
-1.448131
-1.237014
-1.022857
-0.780879
-0.569061
-0.407509
-0.277752
-0.218602
-0.228422
-0.250398
-0.272375
-0.288039
-0.298794
-0.312588
-0.361451
-0.414289
-0.422939
-0.353969
-0.201067
-0.032267
0.165523
0.356768
0.420594
0.336194
0.218127
0.235428
0.382719
0.508968
0.616514
0.756791
0.844230
0.841191
0.792328
0.702551
0.495408
0.149625
-0.191716
-0.444682
-0.709572
-1.038522
-1.328194
-1.398332
-1.087618
-0.554332
-0.072714
0.297851
0.507799
0.567651
0.601551
0.616982
0.491901
0.279849
0.156873
0.059380
-0.172311
-0.499624
-0.711208
-0.732016
-0.672866
-0.616054
-0.609975
-0.627510
-0.595246
-0.517158
-0.468295
-0.541707
-0.738796
-0.978904
-1.174123
-1.280967
-1.367471
-1.412594
-1.361159
-1.273252
-1.130637
-0.922559
-0.733653
-0.702558
-0.835354
-0.917416
-0.818053
-0.587063
-0.404235
-0.318199
-0.196392
-0.018707
0.228180
0.564845
0.894263
1.150736
1.325147
1.450695
1.629081
1.835288
1.972058
2.054588
2.090125
2.063940
1.983280
1.841367
1.651993
1.444850
1.265296
1.179726
1.149099
1.077090
0.954348
0.846335
0.740425
0.535153
0.287798
0.131155
0.088605
0.087670
0.090007
0.158509
0.333388
0.669118
1.118706
1.536264
1.886957
2.111400
2.162133
2.101815
1.913609
1.541408
1.110523
0.798407
0.600382
0.434855
0.222102
-0.069908
-0.326148
-0.435564
-0.438837
-0.390442
-0.262556
-0.076688
0.082058
0.175109
0.183292
0.157808
0.219764
0.348585
0.494707
0.710734
1.024954
1.331927
1.451864
1.386869
1.263893
1.208016
1.216199
1.103743
0.806356
0.398383
-0.088144
-0.656033
-1.255717
-1.779886
-2.093639
-2.162608
-2.152088
-2.113979
-1.975806
-1.800694
-1.569237
-1.153782
-0.614183
-0.117135
0.254365
0.496577
0.611604
0.601317
0.514813
0.363080
0.144716
-0.145892
-0.544045
-1.008830
-1.347599
-1.334974
-1.054653
-0.676607
-0.248528
0.081357
0.241507
0.342506
0.449584
0.479042
0.413580
0.310009
0.206905
0.202463
0.372198
0.670053
0.948503
1.082000
1.014667
0.762168
0.423633
0.086968
-0.194054
-0.389273
-0.479985
-0.421302
-0.285701
-0.161790
-0.018006
0.066394
-0.010758
-0.183533
-0.334331
-0.375245
-0.291312
-0.176987
-0.118772
-0.125552
-0.118538
0.023142
0.317490
0.623060
0.816643
0.928163
0.988482
1.037579
1.086208
1.072181
0.984741
0.871117
0.787886
0.678704
0.443038
0.131389
-0.084871
-0.219070
-0.468763
-0.828340
-1.112401
-1.217842
-1.178799
-1.079669
-0.967682
-0.778775
-0.439772
-0.004913
0.402591
0.670755
0.823657
0.923253
0.914369
0.783210
0.600850
0.474367
0.563209
0.905251
1.356008
1.758603
2.028870
2.189488
2.271316
2.213101
2.009465
1.738964
1.458878
1.238409
1.089715
0.963700
0.874858
0.826228
0.744634
0.600616
0.467587
0.421997
0.462443
0.528139
0.494707
0.328479
0.092579
-0.193820
-0.435564
-0.540304
-0.594077
-0.691570
-0.756331
-0.732250
-0.704662
-0.708870
-0.642005
-0.423640
-0.126487
0.163653
0.432050
0.685484
0.888885
1.036410
1.171544
1.214094
1.075454
0.798173
0.427841
0.015427
-0.314692
-0.439772
-0.301833
-0.009823
0.343675
0.785548
1.250800
1.684724
1.985384
1.994970
1.764682
1.491375
1.340811
1.324913
1.300365
1.206847
1.095794
0.980533
0.856855
0.722423
0.602720
0.551987
0.544271
0.577237
0.807525
1.204275
1.479218
1.483193
1.338941
1.255944
1.289610
1.380790
1.440408
1.405105
1.244722
1.014200
0.882105
0.899640
1.022382
1.122213
1.078259
0.962765
0.832073
0.719618
0.676833
0.698810
0.775495
0.858960
0.819214
0.565079
0.187266
-0.228655
-0.701155
-1.136014
-1.328194
-1.225324
-0.996438
-0.766618
-0.512482
-0.243852
-0.049101
0.108945
0.361210
0.661403
0.867376
0.908992
0.797004
0.676833
0.659299
0.709097
0.796536
0.919980
1.096028
1.307846
1.492544
1.583023
1.515222
1.347358
1.206145
1.178324
1.300131
1.425445
1.393649
1.225317
0.996197
0.813837
0.784613
0.926293
1.155879
1.306677
1.288441
1.175051
0.984741
0.637556
0.117829
-0.563684
-1.285877
-1.864987
-2.259166
-2.517743
-2.739615
-2.914260
-2.985333
-2.991880
-2.903271
-2.714599
-2.500910
-2.316913
-2.131747
-1.911980
-1.736868
-1.601500
-1.481096
-1.392955
-1.286812
-1.110297
-0.840731
-0.527445
-0.181896
0.222335
0.606227
0.824592
0.795367
0.615579
0.357235
-0.028760
-0.528147
-0.989658
-1.220648
-1.232805
-1.187683
-1.133910
-1.046003
-0.925365
-0.823430
-0.777139
-0.744641
-0.681049
-0.523471
-0.209718
0.241273
0.725463
1.136474
1.457475
1.694310
1.823131
1.839730
1.801622
1.703428
1.456306
1.056049
0.568820
0.061017
-0.442812
-0.936119
-1.435272
-1.985392
-2.573620
-3.156939
-3.686953
-4.130929
-4.472972
-4.626809
-4.523238
-4.198496
-3.703318
-3.119999
-2.506989
-1.893276
-1.374485
-0.963707
-0.610910
-0.285935
-0.046061
-0.018707
-0.138410
-0.295521
-0.458242
-0.568126
-0.665852
-0.783685
-0.737861
-0.370803
0.195215
0.799576
1.375647
1.918051
2.388915
2.642582
2.680223
2.604474
2.473081
2.288149
1.972058
1.497922
0.945230
0.457767
0.105204
-0.176285
-0.480686
-0.826703
-1.097438
-1.175292
-1.099776
-0.989892
-0.957862
-1.102581
-1.432700
-1.767729
-1.869196
-1.686602
-1.288682
-0.774567
-0.297625
0.036235
0.158743
0.068031
-0.130695
-0.403534
-0.812208
-1.328194
-1.823138
-2.168687
-2.266881
-2.158868
-1.953128
-1.682861
-1.353911
-0.959733
-0.515989
-0.103575
0.188903
0.410307
0.580977
0.660234
0.734113
0.841191
1.008121
1.221108
1.432459
1.694310
1.931144
1.995438
1.847212
1.478984
0.914603
0.230051
-0.445383
-0.946640
-1.194697
-1.240754
-1.149340
-1.035015
-1.072188
-1.245430
-1.330064
-1.236780
-1.117778
-1.029404
-0.876735
-0.616288
-0.260919
0.088605
0.349754
0.562507
0.712604
0.768247
0.817812
0.870883
0.823890
0.750946
0.782976
0.783444
0.597109
0.195683
-0.378752
-0.902687
-1.270213
-1.574380
-1.749493
-1.630958
-1.221116
-0.639200
0.011686
0.551519
0.853115
1.038982
1.185571
1.253138
1.248228
1.247293
1.424744
1.826404
2.259392
2.533400
2.551636
2.280200
1.750420
1.056283
0.363548
-0.229824
-0.751889
-1.240988
-1.598928
-1.684264
-1.560118
-1.263199
-0.788828
-0.200600
0.459170
1.108653
1.738029
2.341922
2.909577
3.418782
3.737913
3.800803
3.606754
3.221226
2.792679
2.376290
1.952419
1.591206
1.382193
1.359749
1.413288
1.386635
1.357411
1.513586
2.004322
2.683497
3.201119
3.433979
3.312639
2.776080
1.924598
0.916707
-0.101705
-0.953420
-1.467302
-1.607579
-1.534635
-1.437610
-1.341052
-1.162901
-0.788127
-0.237773
0.393240
1.082234
1.720261
2.161432
2.236247
1.875735
1.363022
0.956920
0.575132
0.096788
-0.526043
-1.256652
-1.914318
-2.418614
-2.826353
-3.088203
-3.093347
-2.876619
-2.494364
-1.922735
-1.230935
-0.631952
-0.280558
-0.229357
-0.474374
-0.880476
-1.327025
-1.738504
-2.033554
-2.199548
-2.313874
-2.405522
-2.439656
-2.511665
-2.646564
-2.652175
-2.304288
-1.623009
-0.822963
-0.038814
0.601785
1.016771
1.307846
1.630016
1.958732
2.148573
2.170083
2.136884
2.150678
2.160497
2.088254
1.923663
1.651057
1.304106
1.060257
1.049736
1.159620
1.231863
1.198196
1.076389
0.948036
0.841659
0.732243
0.458469
-0.133968
-0.868319
-1.514528
-2.028878
-2.451813
-2.788478
-2.973644
-2.860019
-2.358529
-1.770534
-1.426855
-1.290787
-1.124324
-0.811740
-0.565788
-0.635225
-1.070785
-1.748090
-2.501378
-3.157407
-3.585252
-3.742128
-3.578706
-3.095685
-2.350814
-1.548896
-0.952953
-0.692739
-0.704896
-0.748148
-0.725470
-0.700220
-0.745109
-0.898245
-1.110063
-1.302242
-1.468471
-1.674444
-2.000588
-2.485246
-2.955875
-3.296749
-3.624062
-3.907421
-3.972884
-3.747038
-3.380447
-3.067629
-2.756214
-2.240228
-1.445793
-0.616288
-0.054946
0.248521
0.422698
0.451922
0.287798
-0.049334
-0.475075
-0.765449
-0.806363
-0.683387
-0.411951
-0.092119
0.228648
0.661403
1.229992
1.864045
2.444558
2.934359
3.225434
3.206029
2.970363
2.669235
2.280200
1.591907
0.740893
0.053302
-0.467360
-0.919052
-1.291020
-1.493721
-1.518970
-1.496059
-1.520607
-1.537440
-1.464262
-1.309023
-1.092061
-0.777139
-0.344384
0.129519
0.561105
0.936112
1.240513
1.403936
1.435031
1.429887
1.459813
1.589569
1.859369
2.175927
2.347767
2.385174
2.378160
2.191124
1.752758
1.286571
0.923721
0.596642
0.299254
0.079487
-0.033670
-0.069908
-0.098665
-0.226551
-0.496351
-0.785088
-0.958797
-0.926066
-0.736458
-0.584024
-0.498922
-0.435564
-0.443513
-0.566957
-0.819923
-1.121986
-1.418205
-1.719567
-1.965987
-2.108134
-2.101822
-1.929281
-1.665794
-1.417270
-1.195398
-0.895673
-0.590102
-0.454268
-0.450994
-0.386935
-0.117836
0.297150
0.674495
0.915304
1.070077
1.093924
0.828099
0.326141
-0.175350
-0.501260
-0.587765
-0.387636
0.121804
0.811265
1.435732
1.837626
2.009232
2.072356
2.188319
2.395461
2.685367
3.071129
3.432810
3.636446
3.627795
3.275934
2.513762
1.497454
0.552454
-0.120408
-0.651123
-1.186514
-1.676548
-2.077507
-2.404119
-2.597701
-2.667840
-2.645395
-2.409496
-1.907304
-1.289618
-0.804960
-0.583790
-0.567424
-0.656968
-0.805428
-1.027767
-1.234909
-1.334039
-1.291722
-1.020052
-0.692739
-0.530719
-0.382493
-0.133267
0.048860
0.056575
0.039742
0.155002
0.392772
0.632178
0.816877
0.935644
0.857791
0.656259
0.478575
0.353728
0.374770
0.542869
0.825527
1.095326
1.205210
1.168504
1.012797
0.770819
0.493304
0.290604
0.139572
-0.096327
-0.433226
-0.765683
-0.867150
-0.692037
-0.416860
-0.191716
-0.167869
-0.378752
-0.672632
-0.909467
-1.025663
-0.996438
-0.855694
-0.688764
-0.572568
-0.551292
-0.649019
-0.808000
-0.811507
-0.573503
-0.194755
0.364249
1.041554
1.693608
2.380966
3.078844
3.599038
3.826287
3.832600
3.802908
3.772047
3.617976
3.343033
2.971766
2.508852
2.081474
1.765617
1.576243
1.528549
1.581153
1.644044
1.640069
1.632354
1.703194
1.803492
1.857499
1.797179
1.583257
1.225784
0.839321
0.571392
0.406566
0.344844
0.370795
0.297150
-0.007251
-0.471101
-0.807766
-0.782750
-0.532355
-0.375011
-0.515522
-0.907596
-1.323284
-1.639375
-1.899355
-2.049919
-1.957570
-1.610384
-1.082241
-0.551059
-0.166466
0.103568
0.310944
0.388798
0.247819
-0.056816
-0.393948
-0.594077
-0.552929
-0.363088
-0.158750
-0.066635
-0.157582
-0.378985
-0.662579
-0.902687
-0.938223
-0.733887
-0.350930
0.057276
0.291071
0.414749
0.558299
0.765442
1.016771
1.170842
1.186974
1.190715
1.325615
1.567593
1.722365
1.557539
1.021447
0.321231
-0.289442
-0.609040
-0.691102
-0.700688
-0.597818
-0.465957
-0.485596
-0.660241
-0.898478
-1.076396
-1.245430
-1.517802
-1.826411
-2.133852
-2.432876
-2.674854
-2.785906
-2.681867
-2.337487
-1.801863
-1.315803
-1.051848
-0.901050
-0.761942
-0.586596
-0.400261
-0.277051
-0.240579
-0.313757
-0.455437
-0.531186
-0.427849
-0.270271
-0.323342
-0.620262
-1.026832
-1.483667
-2.020227
-2.578530
-3.032794
-3.384188
-3.724126
-4.060090
-4.214395
-4.111291
-3.837517
-3.347716
-2.603079
-1.794615
-1.198671
-0.889360
-0.866215
-1.144898
-1.701798
-2.452281
-3.121870
-3.548312
-3.775093
-3.861130
-3.822320
-3.550650
-3.025079
-2.380506
-1.810045
-1.427557
-1.086216
-0.629848
-0.039515
0.618618
1.183233
1.515456
1.566190
1.452565
1.327953
1.198664
0.987547
0.724060
0.465249
0.131857
-0.287805
-0.800986
-1.440182
-2.185520
-2.932729
-3.505527
-3.924722
-4.235904
-4.373375
-4.290845
-3.961428
-3.449884
-2.978554
-2.774450
-2.764865
-2.739381
-2.605884
-2.380038
-2.160504
-2.022098
-1.933489
-1.789939
-1.637037
-1.532063
-1.328194
-0.916481
-0.311185
0.341103
0.897302
1.373075
1.751356
1.972526
2.116310
2.395929
2.860713
3.292065
3.546668
3.617274
3.540590
3.371322
3.093573
2.740309
2.406450
2.133143
1.879241
1.593544
1.320004
1.174817
1.239344
1.446954
1.674905
1.834119
1.805362
1.570398
1.323511
1.269971
1.425679
1.667423
1.851186
1.992632
2.178733
2.322751
2.333272
2.329531
2.458820
2.691913
3.056166
3.661228
4.497046
5.409080
6.102517
6.355950
6.119116
5.510781
4.788354
4.034599
3.195742
2.301943
1.437135
0.703018
0.131857
-0.267933
-0.475075
-0.506404
-0.414756
-0.252502
-0.089781
-0.007953
0.067563
0.272602
0.680808
1.252437
1.797647
2.117712
2.109062
1.828976
1.403468
0.984975
0.721956
0.652051
0.749310
0.943360
1.134136
1.153775
0.878832
0.417788
-0.040684
-0.339474
-0.476478
-0.590804
-0.779944
-1.001114
-1.095568
-1.056524
-1.005323
-1.056991
-1.206153
-1.291488
-1.148873
-0.691803
-0.051672
0.592433
1.170375
1.547486
1.663215
1.651291
1.607805
1.572502
1.530419
1.493479
1.541875
1.628146
1.760006
1.919454
1.927871
1.637030
1.045528
0.340168
-0.326382
-0.913675
-1.443221
-1.867793
-2.088495
-2.239761
-2.482206
-2.816066
-3.161849
-3.361276
-3.326908
-3.092412
-2.751772
-2.321121
-1.770300
-1.197970
-0.703026
-0.322407
0.007010
0.366353
0.638491
0.748842
0.755622
0.723826
0.797004
1.083169
1.491843
1.788061
1.893737
1.936521
1.908466
1.716286
1.349228
0.855920
0.363080
-0.028293
-0.298560
-0.485129
-0.674736
-0.869955
-0.903388
-0.636628
-0.105212
0.566716
1.267633
1.951952
2.564495
2.959609
3.006835
2.765091
2.363665
1.879943
1.394117
0.935177
0.613475
0.511306
0.503357
0.491200
0.426205
0.348117
0.313282
0.296449
0.337363
0.454260
0.654155
0.913434
1.088079
1.048100
0.831839
0.543336
0.123206
-0.546617
-1.397631
-2.147645
-2.569178
-2.634407
-2.398040
-2.021864
-1.746921
-1.645220
-1.609683
-1.554507
-1.385006
-1.017714
-0.435564
0.272134
0.869013
1.213159
1.336369
1.324913
1.318835
1.456072
1.710441
1.920389
1.993100
1.937223
1.886489
1.940730
2.006894
2.044535
2.085449
2.109997
2.057627
1.919922
1.738497
1.551461
1.448825
1.438070
1.519898
1.771228
2.152080
2.578523
3.018525
3.443798
3.814597
4.066863
4.081592
3.797063
3.371556
3.040034
2.902329
2.886431
2.885963
2.765793
2.342623
1.704363
1.107484
0.655090
0.273069
-0.106848
-0.381557
-0.536797
-0.665385
-0.824833
-1.011869
-1.207789
-1.457015
-1.759078
-2.091067
-2.386818
-2.601676
-2.731198
-2.720677
-2.582271
-2.285117
-1.774041
-1.123623
-0.426680
0.258808
0.869013
1.305274
1.496753
1.494882
1.442980
1.421237
1.404637
1.403702
1.467996
1.539771
1.460047
1.147930
0.682211
0.238467
-0.046529
-0.133033
-0.096327
-0.090716
-0.202938
-0.340409
-0.306509
-0.048633
0.330349
0.705824
1.049269
1.378920
1.584893
1.627444
1.567826
1.429420
1.287506
1.248462
1.423809
1.779177
2.127766
2.325323
2.292124
2.057160
1.647083
1.017005
0.221166
-0.566489
-1.202412
-1.661819
-1.988197
-2.238592
-2.395702
-2.454618
-2.556787
-2.809052
-3.150860
-3.436324
-3.562574
-3.589694
-3.556261
-3.379746
-3.110414
-2.913325
-2.929690
-3.134261
-3.385123
-3.581043
-3.549481
-3.200893
-2.603546
-1.838101
-1.020753
-0.234734
0.557364
1.374712
2.184578
2.955868
3.560462
3.890347
3.940847
3.770176
3.523756
3.303054
3.104094
2.878482
2.576418
2.209360
1.875968
1.667891
1.573671
1.523639
1.438070
1.294286
1.123148
0.859193
0.478107
0.048392
-0.482323
-1.194930
-1.989366
-2.701272
-3.294411
-3.806188
-4.285468
-4.725938
-5.036418
-5.147237
-5.030807
-4.693207
-4.241515
-3.835646
-3.502722
-3.190606
-2.903038
-2.667606
-2.537616
-2.528030
-2.524056
-2.417913
-2.193937
-1.892575
-1.632361
-1.488343
-1.417737
-1.344793
-1.220882
-1.016077
-0.730380
-0.398858
-0.022682
0.413814
0.880936
1.266698
1.519665
1.682152
1.752291
1.719092
1.574606
1.332628
0.999237
0.576769
0.182824
-0.084871
-0.302301
-0.568360
-0.902219
-1.309724
-1.764455
-2.224564
-2.686777
-3.079787
-3.331818
-3.486824
-3.607462
-3.681575
-3.608164
-3.345612
-2.972007
-2.588349
-2.215914
-1.815189
-1.425219
-1.085982
-0.813143
-0.664216
-0.651357
-0.728743
-0.803791
-0.810104
-0.742771
-0.555735
-0.232162
0.149625
0.487693
0.778534
1.105847
1.493246
1.869890
2.148340
2.345896
2.507683
2.646323
2.745686
2.749427
2.583199
2.182006
1.637731
1.098600
0.681041
0.440700
0.320296
0.274238
0.221166
0.107776
-0.025721
-0.045827
0.201762
0.706291
1.365126
1.992164
2.414398
2.629958
2.759714
2.972467
3.367815
3.849199
4.204334
4.345546
4.299021
4.108010
3.844056
3.581270
3.346306
3.163010
3.067856
3.060141
3.112043
3.152022
3.138930
3.142904
3.211406
3.258867
3.152957
2.847153
2.389616
1.838094
1.215030
0.521827
-0.173480
-0.729444
-1.058628
-1.206620
-1.265069
-1.244261
-1.193294
-1.238650
-1.465665
-1.850258
-2.269687
-2.587180
-2.749434
-2.838744
-2.897894
-2.909817
-2.881528
-2.819807
-2.728393
-2.616872
-2.532940
-2.458359
-2.274129
-1.903096
-1.388980
-0.806363
-0.180727
0.436258
0.884677
1.013732
0.817110
0.456832
0.136065
-0.076922
-0.157815
-0.109887
-0.009589
0.055640
0.042079
-0.032034
-0.140982
-0.251567
-0.352333
-0.443513
-0.494013
-0.535862
-0.588700
-0.615119
-0.669593
-0.787426
-0.916948
-1.040626
-1.176695
-1.296398
-1.311127
-1.169447
-0.935652
-0.716820
-0.576542
-0.514821
-0.443981
-0.333162
-0.236604
-0.224681
-0.358879
-0.592908
-0.818988
-0.938925
-0.963006
-0.937055
-0.865981
-0.816416
-0.805428
-0.848212
-1.001816
-1.245430
-1.505644
-1.632127
-1.467068
-1.014674
-0.376648
0.315152
0.902679
1.273946
1.346189
1.118706
0.650181
0.024311
-0.623535
-1.246599
-1.847219
-2.425160
-2.953537
-3.279681
-3.319427
-3.171434
-2.938341
-2.689349
-2.476829
-2.259634
-1.982352
-1.707176
-1.513126
-1.410957
-1.363029
-1.284708
-1.133442
-0.908298
-0.612079
-0.309782
-0.081832
0.021973
0.015661
-0.017071
-0.038346
-0.067570
-0.096795
