EVENT_NAME: L_AQUILA
EVENT_ID: IT-2009-0009
EVENT_DATE_YYYYMMDD: 20090406
EVENT_TIME_HHMMSS: 013240
EVENT_LATITUDE_DEGREE: 42.3420
EVENT_LONGITUDE_DEGREE: 13.3800
EVENT_DEPTH_KM: 8.3
HYPOCENTER_REFERENCE: INGV-CNT_Seismic_Bulletin
MAGNITUDE_W: 6.1
MAGNITUDE_W_REFERENCE: INGV-CNT_Seismic_Bulletin
MAGNITUDE_L: 
MAGNITUDE_L_REFERENCE: 
FOCAL_MECHANISM: Normal faulting
NETWORK: IT
STATION_CODE: LSS
STATION_NAME: 
STATION_LATITUDE_DEGREE: 42.558243
STATION_LONGITUDE_DEGREE: 12.968894
STATION_ELEVATION_M: 1065
LOCATION: 
SENSOR_DEPTH_M: 0.0
VS30_M/S: 1091
SITE_CLASSIFICATION_EC8: A
MORPHOLOGIC_CLASSIFICATION: 
EPICENTRAL_DISTANCE_KM: 41.5
EARTHQUAKE_BACKAZIMUTH_DEGREE: 305.5
DATE_TIME_FIRST_SAMPLE_YYYYMMDD_HHMMSS: 20090406_013220.000
DATE_TIME_FIRST_SAMPLE_PRECISION: seconds
SAMPLING_INTERVAL_S: 0.005000
NDATA: 21000
DURATION_S: 105.000
STREAM: HNZ
UNITS: cm/s^2
INSTRUMENT: sensor = FBA-3 [Kinemetrics] | digitizer = Etna [Kinemetrics]
INSTRUMENT_ANALOG/DIGITAL: D
INSTRUMENTAL_FREQUENCY_HZ: 216.000
INSTRUMENTAL_DAMPING: 0.700000
FULL_SCALE_G: 1.0
N_BIT_DIGITAL_CONVERTER: 18
PGA_CM/S^2: 6.294032
TIME_PGA_S: 39.075000
BASELINE_CORRECTION: BASELINE REMOVED
FILTER_TYPE: BUTTERWORTH
FILTER_ORDER: 2
LOW_CUT_FREQUENCY_HZ: 0.080
HIGH_CUT_FREQUENCY_HZ: 40.000
LATE/NORMAL_TRIGGERED: NT
DATABASE_VERSION: 0.5
HEADER_FORMAT: DYNA 1.2
DATA_TYPE: ACCELERATION
PROCESSING: manual (Paolucci et al., 2011)
DATA_TIMESTAMP_YYYYMMDD_HHMMSS: 20211011_160132.607
DATA_LICENSE: CC-BY3_0-IT (http://creativecommons.org/licenses/by/3.0/deed.en)
DATA_CITATION: Luzi L, Pacor F, Puglia R (2019). Italian Accelerometric Archive v 3.0 - Istituto Nazionale di Geofisica e Vulcanologia, Dipartimento della Protezione Civile Nazionale. doi: 10.13127/itaca.3.1
DATA_CREATOR: ITACA working group
ORIGINAL_DATA_MEDIATOR_CITATION: data obtained within the DPC-INGV data exchange agreements
ORIGINAL_DATA_MEDIATOR: Archive of Italian Department of Civil Protection
ORIGINAL_DATA_CREATOR_CITATION: Presidency Of Counsil Of Ministers-Civil Protection Department. (1972). Italian Strong Motion Network. Presidency of Counsil of Ministers - Civil Protection Department. https://doi.org/10.7914/SN/IT http://www.fdsn.org/networks/detail/IT/
ORIGINAL_DATA_CREATOR: network: IT (Italian Strong Motion Network (RAN)); owner: Presidency of Counsil of Ministers - Civil Protection Department (PCM - DPC)
USER1: 
USER2: 
USER3: 
USER4: 
USER5: 
[...]
-1.558149
-1.820590
-1.878003
-1.745066
-1.513039
-1.302928
-1.190652
-1.169302
-1.184534
-1.184372
-1.120035
-0.937653
-0.613695
-0.195180
0.217101
0.534729
0.727517
0.807518
0.790691
0.682024
0.478323
0.179386
-0.185362
-0.543472
-0.815686
-0.965637
-1.007820
-0.979050
-0.903481
-0.766267
-0.512584
-0.092281
0.475525
1.089687
1.626962
2.010980
2.227358
2.290133
2.212430
2.012932
1.734709
1.437781
1.167778
0.941620
0.758165
0.601552
0.449226
0.307068
0.223314
0.251705
0.414054
0.696345
1.061841
1.460149
1.822999
2.065541
2.126640
2.023956
1.848054
1.682736
1.538740
1.374120
1.159764
0.900877
0.606094
0.265219
-0.130847
-0.556394
-0.955686
-1.285574
-1.535790
-1.708728
-1.804703
-1.825514
-1.766793
-1.609160
-1.340509
-0.989242
-0.619276
-0.289412
-0.036355
0.099850
0.071373
-0.127922
-0.428192
-0.727336
-0.964559
-1.141205
-1.288393
-1.424362
-1.523968
-1.531038
-1.421316
-1.246144
-1.099480
-1.049419
-1.101232
-1.212381
-1.344208
-1.495612
-1.666508
-1.803001
-1.822974
-1.699563
-1.485260
-1.247876
-1.014919
-0.788961
-0.580730
-0.409371
-0.291479
-0.235054
-0.230673
-0.252595
-0.276143
-0.291572
-0.305214
-0.331581
-0.375782
-0.417825
-0.419854
-0.353088
-0.215821
-0.028195
0.172752
0.326893
0.375229
0.321810
0.251776
0.256501
0.351136
0.488507
0.626663
0.744791
0.822163
0.842685
0.799930
0.677551
0.455975
0.156409
-0.159467
-0.457692
-0.761216
-1.076750
-1.316553
-1.335949
-1.066740
-0.597556
-0.105871
0.269719
0.488754
0.586972
0.612307
0.573538
0.464655
0.317549
0.171479
0.006159
-0.222119
-0.482456
-0.673847
-0.734055
-0.698826
-0.648821
-0.627762
-0.617609
-0.581305
-0.522938
-0.500228
-0.574287
-0.750128
-0.970314
-1.165218
-1.302372
-1.383489
-1.411057
-1.378239
-1.278483
-1.114714
-0.922354
-0.781348
-0.760192
-0.830584
-0.873893
-0.798280
-0.627559
-0.452921
-0.320351
-0.195658
-0.019280
0.237561
0.553244
0.867429
1.122934
1.309673
1.466589
1.634187
1.809108
1.955681
2.047834
2.080716
2.055253
1.969642
1.824644
1.635036
1.437308
1.278159
1.180158
1.119280
1.052516
0.961869
0.848651
0.700256
0.505854
0.300143
0.146331
0.071672
0.053517
0.072451
0.153746
0.347850
0.675758
1.095061
1.520000
1.868463
2.089721
2.165523
2.091940
1.866772
1.518751
1.135961
0.817574
0.591059
0.400643
0.178777
-0.078242
-0.306298
-0.439863
-0.463502
-0.395828
-0.260178
-0.091094
0.058590
0.144308
0.166019
0.171418
0.214496
0.318365
0.489020
0.733756
1.027171
1.281272
1.401008
1.376960
1.293666
1.232936
1.183157
1.059398
0.797533
0.397655
-0.109543
-0.687218
-1.271060
-1.760549
-2.069690
-2.191085
-2.186802
-2.117246
-2.001889
-1.825057
-1.546382
-1.137963
-0.639482
-0.150948
0.236434
0.483892
0.595240
0.594354
0.509780
0.358932
0.135631
-0.182898
-0.594563
-1.017663
-1.299323
-1.318355
-1.077884
-0.687036
-0.282081
0.035793
0.238504
0.360521
0.433683
0.449459
0.392860
0.287558
0.202273
0.220654
0.386042
0.656275
0.916774
1.047033
0.985623
0.752054
0.421976
0.080975
-0.206601
-0.399393
-0.473587
-0.432287
-0.310663
-0.158087
-0.027646
0.021752
-0.044024
-0.189275
-0.321124
-0.360604
-0.302981
-0.212978
-0.159109
-0.144853
-0.100777
0.048245
0.301767
0.578038
0.791278
0.918393
0.990019
1.038394
1.062979
1.043031
0.976203
0.885921
0.780489
0.629317
0.410382
0.162137
-0.060453
-0.270546
-0.527555
-0.829133
-1.085286
-1.211626
-1.206329
-1.121246
-0.981983
-0.760394
-0.429202
-0.025471
0.359757
0.651850
0.832859
0.910422
0.880909
0.750805
0.582333
0.493862
0.594584
0.901142
1.319956
1.719723
2.017548
2.194860
2.252333
2.182684
1.993670
1.730930
1.461118
1.235315
1.069400
0.955010
0.875791
0.804543
0.708583
0.584279
0.474947
0.432688
0.460514
0.497195
0.461498
0.312240
0.070949
-0.195513
-0.413542
-0.552283
-0.637553
-0.701345
-0.742039
-0.752897
-0.746121
-0.716904
-0.621764
-0.426608
-0.152977
0.144294
0.423729
0.668604
0.875955
1.046104
1.162732
1.180892
1.055549
0.781326
0.401835
0.002611
-0.303165
-0.418341
-0.316386
-0.043577
0.337290
0.784847
1.257371
1.675496
1.928219
1.942665
1.761141
1.525601
1.364212
1.297857
1.261621
1.196035
1.092992
0.969904
0.839267
0.710993
0.600876
0.526168
0.512729
0.610579
0.851934
1.166800
1.398126
1.445647
1.362088
1.283109
1.291566
1.363846
1.414251
1.367609
1.214122
1.024799
0.905284
0.911160
1.001037
1.074773
1.059642
0.958415
0.824706
0.716331
0.671871
0.702386
0.780639
0.834615
0.775123
0.554461
0.191104
-0.261663
-0.731772
-1.111352
-1.290102
-1.240721
-1.037054
-0.775412
-0.513323
-0.278193
-0.073799
0.133541
0.380497
0.640356
0.825513
0.870023
0.797105
0.699055
0.656472
0.689113
0.779999
0.917917
1.100177
1.304885
1.475836
1.545338
1.485215
1.343510
1.223472
1.209173
1.293788
1.378994
1.358447
1.206264
0.991630
0.828584
0.806409
0.932611
1.123695
1.264299
1.287625
1.189966
0.973803
0.611548
0.079961
-0.582414
-1.264430
-1.842719
-2.261653
-2.549529
-2.759857
-2.913413
-2.997408
-2.993641
-2.897196
-2.728197
-2.526995
-2.323877
-2.123551
-1.927535
-1.750933
-1.608387
-1.499033
-1.403251
-1.284691
-1.107077
-0.856481
-0.539179
-0.166562
0.231106
0.578573
0.781229
0.792747
0.633332
0.337441
-0.072764
-0.541017
-0.950430
-1.193559
-1.259421
-1.218928
-1.138148
-1.039656
-0.934270
-0.846132
-0.792806
-0.756851
-0.684383
-0.509840
-0.195956
0.232977
0.699448
1.122008
1.454337
1.682473
1.808835
1.847642
1.810610
1.682401
1.429984
1.046775
0.572191
0.063484
-0.441763
-0.940166
-1.453107
-2.001303
-2.580179
-3.158107
-3.694604
-4.150143
-4.476023
-4.612661
-4.518768
-4.201998
-3.715032
-3.127625
-2.507019
-1.914802
-1.396780
-0.961927
-0.590841
-0.284086
-0.086810
-0.042348
-0.132841
-0.288304
-0.446093
-0.587931
-0.714759
-0.781563
-0.685860
-0.357009
0.166109
0.775774
1.382241
1.929403
2.357862
2.610190
2.680805
2.622642
2.486951
2.270931
1.936033
1.476685
0.960700
0.488612
0.110612
-0.206197
-0.520459
-0.831939
-1.066994
-1.153075
-1.099015
-1.002625
-0.993256
-1.152518
-1.448128
-1.733262
-1.837569
-1.676892
-1.287629
-0.787124
-0.315964
0.010662
0.138287
0.081250
-0.114286
-0.423652
-0.844155
-1.339864
-1.811712
-2.139541
-2.255595
-2.177705
-1.972009
-1.690309
-1.347413
-0.948145
-0.523236
-0.129733
0.186074
0.412877
0.562063
0.657471
0.738535
0.847022
1.003979
1.208257
1.450658
1.706604
1.912614
1.978763
1.835616
1.463416
0.895839
0.220982
-0.429148
-0.922002
-1.183480
-1.228732
-1.152523
-1.086475
-1.117507
-1.217102
-1.281193
-1.251859
-1.157583
-1.032676
-0.857410
-0.598268
-0.270209
0.064925
0.349272
0.559345
0.697699
0.781119
0.826893
0.836571
0.815619
0.797847
0.798631
0.753761
0.557032
0.165037
-0.352366
-0.869367
-1.298430
-1.600959
-1.725126
-1.600967
-1.211084
-0.633516
-0.014225
0.503657
0.855042
1.064785
1.180225
1.223346
1.226716
1.277852
1.476615
1.834034
2.234923
2.510069
2.532415
2.260362
1.737946
1.074044
0.392018
-0.232978
-0.784905
-1.248764
-1.567877
-1.680074
-1.569056
-1.258993
-0.787213
-0.200231
0.445631
1.100325
1.737948
2.352268
2.927685
3.410467
3.715899
3.777369
3.595339
3.240474
2.806006
2.358135
1.940784
1.609746
1.419202
1.361878
1.357951
1.344944
1.375617
1.586554
2.046168
2.648799
3.173388
3.420883
3.286201
2.760711
1.921019
0.908597
-0.098326
-0.917420
-1.420857
-1.602518
-1.575953
-1.474690
-1.344632
-1.133733
-0.772396
-0.245438
0.405058
1.101383
1.724635
2.118625
2.163467
1.881192
1.436229
0.986938
0.554827
0.059648
-0.551719
-1.234847
-1.888333
-2.434699
-2.838525
-3.068151
-3.088587
-2.886928
-2.475280
-1.892974
-1.235931
-0.657240
-0.305103
-0.252817
-0.474545
-0.870992
-1.320521
-1.722202
-2.019503
-2.207932
-2.317768
-2.387608
-2.459450
-2.562664
-2.653999
-2.596416
-2.255927
-1.625336
-0.835157
-0.062936
0.561270
1.010125
1.351260
1.660111
1.933223
2.110583
2.172122
2.170764
2.164888
2.152078
2.080398
1.902573
1.622758
1.319858
1.113803
1.070065
1.137882
1.201055
1.181572
1.087926
0.977240
0.874309
0.716603
0.390069
-0.153289
-0.826150
-1.481944
-2.036539
-2.483794
-2.811139
-2.938618
-2.774934
-2.351448
-1.858484
-1.487395
-1.255112
-1.041928
-0.790977
-0.613234
-0.685888
-1.087609
-1.743161
-2.485175
-3.141341
-3.584456
-3.736830
-3.558217
-3.058353
-2.335268
-1.582240
-1.011011
-0.727630
-0.673856
-0.702387
-0.713680
-0.715832
-0.769919
-0.905160
-1.090669
-1.278121
-1.463184
-1.698486
-2.038087
-2.468743
-2.916215
-3.320725
-3.658807
-3.883167
-3.915855
-3.739947
-3.442090
-3.110448
-2.717072
-2.161275
-1.433946
-0.683397
-0.090415
0.275764
0.444093
0.440009
0.258382
-0.074137
-0.450827
-0.724333
-0.799405
-0.679140
-0.431129
-0.120598
0.240726
0.687984
1.240634
1.858101
2.453637
2.925027
3.183213
3.198642
3.018495
2.694698
2.212607
1.552679
0.796859
0.089745
-0.489047
-0.942072
-1.272539
-1.462002
-1.525782
-1.530083
-1.530115
-1.519963
-1.459023
-1.319107
-1.088141
-0.758508
-0.341893
0.117149
0.561296
0.943655
1.226304
1.384316
1.431886
1.433054
1.475109
1.622030
1.869219
2.138076
2.337254
2.420294
2.363291
2.138283
1.762930
1.327571
0.922838
0.579064
0.297709
0.094380
-0.016705
-0.062822
-0.119728
-0.265210
-0.508920
-0.766729
-0.918235
-0.903260
-0.766632
-0.605284
-0.485286
-0.428943
-0.454831
-0.585243
-0.816471
-1.111574
-1.426763
-1.725475
-1.965846
-2.096584
-2.080705
-1.927612
-1.693561
-1.433246
-1.159041
-0.875782
-0.635971
-0.500289
-0.439886
-0.334096
-0.088146
0.273586
0.644764
0.934074
1.088389
1.051835
0.782930
0.331594
-0.150892
-0.494047
-0.578656
-0.353864
0.147629
0.792777
1.391405
1.800597
2.003700
2.096235
2.201789
2.398935
2.703157
3.074576
3.426987
3.645734
3.607854
3.216143
2.473326
1.533499
0.625316
-0.111284
-0.693314
-1.201654
-1.670567
-2.079069
-2.396224
-2.605932
-2.696878
-2.632957
-2.360212
-1.882769
-1.321122
-0.854798
-0.599304
-0.552014
-0.646261
-0.823313
-1.039331
-1.232875
-1.321433
-1.245294
-1.025694
-0.761236
-0.530329
-0.328782
-0.141891
-0.009249
0.043249
0.076397
0.181911
0.383319
0.623921
0.820112
0.901042
0.837096
0.666056
0.477384
0.364331
0.389145
0.561043
0.821632
1.063866
1.190523
1.163271
1.002735
0.765550
0.521766
0.312997
0.112327
-0.143614
-0.458336
-0.727799
-0.816045
-0.683321
-0.431141
-0.230615
-0.210719
-0.384612
-0.656427
-0.896317
-1.014691
-0.989570
-0.858845
-0.697287
-0.586482
-0.582103
-0.677604
-0.785582
-0.781165
-0.583680
-0.187931
0.363226
1.010633
1.705961
2.412627
3.061820
3.545628
3.798744
3.863244
3.834234
3.755904
3.600933
3.331863
2.951277
2.510253
2.090474
1.768647
1.585902
1.535877
1.566770
1.609623
1.630969
1.654406
1.714825
1.799609
1.844259
1.774651
1.555200
1.219350
0.859696
0.574582
0.416877
0.373166
0.355709
0.232277
-0.068240
-0.455153
-0.721261
-0.731822
-0.566562
-0.452894
-0.562488
-0.885973
-1.291222
-1.658357
-1.924924
-2.036413
-1.929864
-1.591458
-1.101435
-0.595893
-0.177259
0.126946
0.314571
0.354061
0.212768
-0.072016
-0.376384
-0.555563
-0.538585
-0.372506
-0.183562
-0.096831
-0.174066
-0.395597
-0.674421
-0.884550
-0.910261
-0.711916
-0.361675
-0.002261
0.259170
0.427951
0.585251
0.782627
0.985221
1.119792
1.174186
1.229609
1.371907
1.571407
1.666660
1.484834
0.993699
0.343948
-0.236347
-0.595995
-0.724361
-0.693017
-0.588137
-0.504033
-0.524689
-0.665416
-0.866594
-1.070274
-1.279961
-1.529702
-1.826494
-2.145621
-2.450054
-2.686593
-2.779252
-2.655912
-2.306988
-1.828651
-1.381551
-1.073434
-0.889276
-0.744357
-0.581714
-0.412875
-0.292397
-0.269199
-0.343694
-0.447201
-0.479578
-0.407948
-0.325206
-0.373504
-0.615838
-1.014322
-1.505304
-2.038556
-2.559532
-3.019820
-3.415171
-3.766242
-4.051136
-4.196172
-4.135643
-3.840454
-3.307952
-2.592277
-1.839087
-1.231089
-0.894722
-0.877660
-1.178328
-1.742828
-2.437289
-3.080486
-3.543754
-3.805932
-3.896985
-3.812781
-3.515045
-3.013882
-2.418978
-1.876557
-1.447461
-1.062091
-0.603303
-0.024324
0.605346
1.143442
1.467318
1.553397
1.478586
1.338507
1.172319
0.972609
0.733475
0.455115
0.122389
-0.294294
-0.823719
-1.473098
-2.198829
-2.905954
-3.503679
-3.955437
-4.255135
-4.374647
-4.267221
-3.931001
-3.467584
-3.055060
-2.823147
-2.750916
-2.708791
-2.592320
-2.400068
-2.199065
-2.039579
-1.915223
-1.799968
-1.684423
-1.543291
-1.302714
-0.892387
-0.325030
0.303802
0.888999
1.365983
1.708403
1.938068
2.147123
2.444783
2.845838
3.245231
3.517391
3.610532
3.543533
3.352922
3.071176
2.742264
2.418709
2.125011
1.844301
1.562615
1.320058
1.198114
1.248389
1.438569
1.662518
1.792374
1.747023
1.556908
1.360926
1.301906
1.413546
1.619006
1.829486
2.014172
2.169385
2.272801
2.315604
2.346647
2.442425
2.664045
3.066538
3.695535
4.521459
5.385399
6.043502
6.294032
6.088876
5.539889
4.813410
4.012864
3.164097
2.286864
1.440343
0.700200
0.120650
-0.273426
-0.478303
-0.511909
-0.419138
-0.269356
-0.134098
-0.039342
0.070075
0.298191
0.707748
1.247410
1.759727
2.067922
2.076130
1.812362
1.400559
0.997171
0.728467
0.652131
0.751804
0.947047
1.106473
1.091009
0.838337
0.419812
-0.005974
-0.314169
-0.499010
-0.644708
-0.814469
-0.979253
-1.066603
-1.065172
-1.052155
-1.109623
-1.223873
-1.272245
-1.111497
-0.688536
-0.076280
0.580775
1.138619
1.500787
1.652847
1.660454
1.610544
1.554601
1.510352
1.494068
1.529312
1.630828
1.781828
1.906357
1.875034
1.583443
1.040186
0.361063
-0.324315
-0.941678
-1.455390
-1.835364
-2.086157
-2.283807
-2.527056
-2.842437
-3.153108
-3.339191
-3.326447
-3.121256
-2.769769
-2.308850
-1.774119
-1.228303
-0.739205
-0.327541
0.033721
0.356392
0.599951
0.718442
0.729882
0.730222
0.838189
1.101126
1.443886
1.735228
1.903087
1.952453
1.888658
1.682520
1.319789
0.850699
0.375796
-0.016037
-0.301601
-0.522846
-0.723885
-0.875330
-0.871718
-0.619913
-0.121238
0.539610
1.262475
1.963120
2.548843
2.910526
2.976352
2.764551
2.363594
1.871895
1.370648
0.937207
0.642687
0.507296
0.474767
0.459296
0.414750
0.350780
0.298625
0.284238
0.331139
0.461162
0.669607
0.896073
1.039885
1.028931
0.860486
0.549822
0.068774
-0.608508
-1.400894
-2.111220
-2.542094
-2.614532
-2.399549
-2.069389
-1.797407
-1.660215
-1.616318
-1.559103
-1.376294
-0.992908
-0.415262
0.245357
0.818851
1.178778
1.315150
1.326578
1.352283
1.480866
1.689822
1.875729
1.956203
1.943161
1.915438
1.930479
1.983197
2.042701
2.087032
2.094174
2.037036
1.906368
1.728509
1.555765
1.441084
1.423237
1.530465
1.775179
2.135940
2.564451
3.014831
3.450676
3.820476
4.039362
4.023036
3.768582
3.395549
3.076775
2.916792
2.890682
2.869878
2.698709
2.297998
1.731516
1.147345
0.646025
0.234956
-0.103653
-0.363427
-0.545526
-0.687354
-0.834084
-1.007994
-1.217613
-1.472702
-1.773152
-2.092727
-2.385980
-2.609664
-2.733252
-2.734100
-2.587897
-2.268732
-1.771638
-1.135068
-0.430296
0.261677
0.855151
1.269996
1.472099
1.504913
1.459644
1.411081
1.394261
1.423615
1.487778
1.518906
1.412885
1.115182
0.684686
0.264243
-0.015252
-0.119100
-0.123149
-0.143970
-0.229932
-0.311213
-0.268096
-0.047058
0.302895
0.694162
1.063598
1.368030
1.563452
1.621894
1.554746
1.414100
1.288185
1.281455
1.456019
1.772210
2.099705
2.299189
2.293311
2.066565
1.624157
0.985891
0.223031
-0.538921
-1.184105
-1.667459
-2.007091
-2.233057
-2.368604
-2.462765
-2.599817
-2.835935
-3.136592
-3.405273
-3.569006
-3.611205
-3.534696
-3.349588
-3.116587
-2.953848
-2.960898
-3.139742
-3.390447
-3.562420
-3.517555
-3.188184
-2.601957
-1.853653
-1.046021
-0.237584
0.568054
1.385812
2.202415
2.953248
3.536632
3.865519
3.923782
3.781126
3.551078
3.319860
3.102116
2.858361
2.554535
2.211710
1.901193
1.687098
1.573615
1.508669
1.431364
1.306440
1.117339
0.851024
0.499555
0.051454
-0.518218
-1.211206
-1.962622
-2.673649
-3.289413
-3.822815
-4.304801
-4.725538
-5.024571
-5.129354
-5.004824
-4.685530
-4.268348
-3.855074
-3.492083
-3.173469
-2.894137
-2.680464
-2.563790
-2.528723
-2.499759
-2.391646
-2.175975
-1.902333
-1.657739
-1.497781
-1.409318
-1.332603
-1.208801
-1.009284
-0.735531
-0.399151
-0.005877
0.432121
0.872153
1.251009
1.526108
1.691951
1.756733
1.721054
1.579259
1.328399
0.981788
0.588165
0.222600
-0.069519
-0.313641
-0.575832
-0.904048
-1.305287
-1.758687
-2.231199
-2.678763
-3.051140
-3.321048
-3.503758
-3.623463
-3.663254
-3.573477
-3.334010
-2.986729
-2.596671
-2.200046
-1.804013
-1.419458
-1.076343
-0.816286
-0.674712
-0.655369
-0.716445
-0.788719
-0.807891
-0.728670
-0.528227
-0.222384
0.130646
0.473136
0.798107
1.137903
1.502973
1.854129
2.142519
2.358040
2.526049
2.666311
2.759939
2.746506
2.556656
2.169795
1.651360
1.126761
0.711251
0.454385
0.331877
0.273152
0.202597
0.088317
-0.019683
-0.003747
0.243878
0.735714
1.364562
1.958525
2.383161
2.625054
2.793362
3.031800
3.401951
3.832241
4.180265
4.342415
4.305075
4.120479
3.861462
3.590882
3.352704
3.178397
3.088072
3.076919
3.108054
3.137126
3.153848
3.184162
3.234520
3.247982
3.136963
2.853293
2.411413
1.851805
1.206770
0.514295
-0.150470
-0.689178
-1.039800
-1.209915
-1.249197
-1.217164
-1.189430
-1.257944
-1.483493
-1.842412
-2.233316
-2.548185
-2.743372
-2.843533
-2.889062
-2.897640
-2.868994
-2.803615
-2.714055
-2.623924
-2.543740
-2.438448
-2.236215
-1.884528
-1.387345
-0.787268
-0.144351
0.447875
0.858511
0.981756
0.820397
0.495471
0.166520
-0.054890
-0.133140
-0.095638
-0.009580
0.052500
0.049036
-0.018807
-0.124129
-0.238138
-0.341527
-0.424059
-0.484233
-0.528262
-0.564678
-0.606067
-0.671276
-0.770842
-0.897740
-1.039424
-1.178588
-1.274476
-1.270427
-1.142424
-0.933702
-0.727436
-0.581605
-0.490077
-0.407114
-0.309521
-0.231521
-0.238169
-0.364056
-0.573656
-0.781687
-0.914842
-0.953204
-0.921047
-0.857742
-0.801204
-0.786027
-0.847045
-1.008755
-1.252220
-1.489306
-1.584228
-1.424762
-0.990311
-0.361595
0.320727
0.906051
1.271189
1.345244
1.122647
0.660620
0.056892
-0.592207
-1.232043
-1.850859
-2.434920
-2.923704
-3.225977
-3.293336
-3.166021
-2.939170
-2.694966
-2.461128
-2.219952
-1.958697
-1.707246
-1.516301
-1.405205
-1.340296
-1.259453
-1.111711
-0.880875
-0.591589
-0.303480
-0.085559
0.023968
0.040079
0.010724
-0.024275
-0.051064
-0.073536
