EVENT_NAME: L_AQUILA
EVENT_ID: IT-2009-0009
EVENT_DATE_YYYYMMDD: 20090406
EVENT_TIME_HHMMSS: 013240
EVENT_LATITUDE_DEGREE: 42.3420
EVENT_LONGITUDE_DEGREE: 13.3800
EVENT_DEPTH_KM: 8.3
HYPOCENTER_REFERENCE: INGV-CNT_Seismic_Bulletin
MAGNITUDE_W: 6.1
MAGNITUDE_W_REFERENCE: INGV-CNT_Seismic_Bulletin
MAGNITUDE_L: 
MAGNITUDE_L_REFERENCE: 
FOCAL_MECHANISM: Normal faulting
NETWORK: IT
STATION_CODE: LSS
STATION_NAME: 
STATION_LATITUDE_DEGREE: 42.558243
STATION_LONGITUDE_DEGREE: 12.968894
STATION_ELEVATION_M: 1065
LOCATION: 
SENSOR_DEPTH_M: 0.0
VS30_M/S: 1091
SITE_CLASSIFICATION_EC8: A
MORPHOLOGIC_CLASSIFICATION: 
EPICENTRAL_DISTANCE_KM: 41.5
EARTHQUAKE_BACKAZIMUTH_DEGREE: 305.5
DATE_TIME_FIRST_SAMPLE_YYYYMMDD_HHMMSS: 20090406_013220.000
DATE_TIME_FIRST_SAMPLE_PRECISION: seconds
SAMPLING_INTERVAL_S: 0.005000
NDATA: 21000
DURATION_S: 105.000
STREAM: HNE
UNITS: cm/s^2
INSTRUMENT: sensor = FBA-3 [Kinemetrics] | digitizer = Etna [Kinemetrics]
INSTRUMENT_ANALOG/DIGITAL: D
INSTRUMENTAL_FREQUENCY_HZ: 206.000
INSTRUMENTAL_DAMPING: 0.700000
FULL_SCALE_G: 1.0
N_BIT_DIGITAL_CONVERTER: 18
PGA_CM/S^2: -9.614135
TIME_PGA_S: 39.475000
BASELINE_CORRECTION: BASELINE REMOVED
FILTER_TYPE: BUTTERWORTH
FILTER_ORDER: 2
LOW_CUT_FREQUENCY_HZ: 0.080
HIGH_CUT_FREQUENCY_HZ: 40.000
LATE/NORMAL_TRIGGERED: NT
DATABASE_VERSION: 0.5
HEADER_FORMAT: DYNA 1.2
DATA_TYPE: ACCELERATION
PROCESSING: manual (Paolucci et al., 2011)
DATA_TIMESTAMP_YYYYMMDD_HHMMSS: 20211011_160131.459
DATA_LICENSE: CC-BY3_0-IT (http://creativecommons.org/licenses/by/3.0/deed.en)
DATA_CITATION: Luzi L, Pacor F, Puglia R (2019). Italian Accelerometric Archive v 3.0 - Istituto Nazionale di Geofisica e Vulcanologia, Dipartimento della Protezione Civile Nazionale. doi: 10.13127/itaca.3.1
DATA_CREATOR: ITACA working group
ORIGINAL_DATA_MEDIATOR_CITATION: data obtained within the DPC-INGV data exchange agreements
ORIGINAL_DATA_MEDIATOR: Archive of Italian Department of Civil Protection
ORIGINAL_DATA_CREATOR_CITATION: Presidency Of Counsil Of Ministers-Civil Protection Department. (1972). Italian Strong Motion Network. Presidency of Counsil of Ministers - Civil Protection Department. https://doi.org/10.7914/SN/IT http://www.fdsn.org/networks/detail/IT/
ORIGINAL_DATA_CREATOR: network: IT (Italian Strong Motion Network (RAN)); owner: Presidency of Counsil of Ministers - Civil Protection Department (PCM - DPC)
USER1: 
USER2: 
USER3: 
USER4: 
USER5: 
[...]
0.975389
1.058078
1.036428
0.884797
0.628931
0.346042
0.118448
-0.012331
-0.052029
-0.023237
0.054777
0.153780
0.235200
0.283516
0.326246
0.403747
0.535940
0.737001
1.025236
1.373113
1.684764
1.871170
1.915603
1.848986
1.704997
1.502230
1.246330
0.959748
0.701378
0.530204
0.467165
0.518547
0.699466
0.985880
1.285449
1.516434
1.676925
1.793325
1.849632
1.803871
1.635587
1.362953
1.046213
0.765282
0.560728
0.410642
0.286310
0.203919
0.186685
0.199869
0.177941
0.103409
0.014878
-0.033142
0.008213
0.154351
0.365470
0.586636
0.801835
1.013659
1.190713
1.285136
1.291460
1.254418
1.222265
1.188640
1.086736
0.873478
0.592685
0.311154
0.029277
-0.298362
-0.666473
-0.968903
-1.060994
-0.891704
-0.564249
-0.236687
0.015767
0.216025
0.402301
0.551837
0.574349
0.397115
0.067964
-0.255413
-0.448825
-0.544913
-0.675626
-0.904227
-1.174882
-1.406177
-1.549060
-1.558705
-1.384445
-1.012466
-0.497388
0.054926
0.520866
0.781711
0.765199
0.503724
0.132181
-0.194019
-0.389097
-0.478615
-0.561659
-0.708454
-0.894379
-1.030166
-1.038820
-0.919007
-0.744447
-0.577736
-0.392996
-0.121424
0.241357
0.617682
0.923557
1.119471
1.195450
1.150486
1.002000
0.792578
0.563380
0.319261
0.036157
-0.281794
-0.562907
-0.716036
-0.715823
-0.612126
-0.471386
-0.334675
-0.211560
-0.096152
0.018048
0.145347
0.300949
0.473575
0.627419
0.716951
0.690083
0.520041
0.241152
-0.083198
-0.424564
-0.795214
-1.191369
-1.552347
-1.779916
-1.786044
-1.548892
-1.155887
-0.761755
-0.474727
-0.303790
-0.203671
-0.128262
-0.060679
-0.027165
-0.066521
-0.181788
-0.334249
-0.468784
-0.549001
-0.599759
-0.696709
-0.874544
-1.068777
-1.176313
-1.150536
-1.024934
-0.868667
-0.734886
-0.634789
-0.540765
-0.415349
-0.242336
-0.035297
0.172217
0.337879
0.423786
0.421681
0.361509
0.278901
0.189432
0.104419
0.049037
0.042975
0.059935
0.028041
-0.099238
-0.273456
-0.373096
-0.301286
-0.063315
0.242211
0.498065
0.636786
0.655967
0.584123
0.438538
0.223614
-0.040943
-0.317994
-0.574395
-0.774879
-0.856877
-0.750063
-0.450688
-0.057783
0.303279
0.570262
0.734297
0.823376
0.929991
1.146891
1.440726
1.668683
1.726296
1.637631
1.511999
1.428464
1.355692
1.183290
0.839570
0.396405
0.054051
-0.018676
0.173144
0.487199
0.758822
0.855573
0.718292
0.398615
0.014794
-0.339307
-0.629664
-0.861154
-1.060712
-1.251812
-1.395252
-1.377251
-1.102311
-0.589907
0.046398
0.699061
1.300892
1.771977
2.006398
1.931450
1.556570
0.981325
0.358292
-0.176570
-0.543631
-0.735156
-0.832607
-0.947270
-1.101493
-1.217437
-1.223538
-1.136031
-1.067776
-1.167748
-1.488378
-1.900796
-2.197303
-2.282417
-2.229508
-2.166322
-2.137135
-2.069114
-1.851268
-1.437363
-0.881416
-0.298988
0.195646
0.538159
0.721489
0.755355
0.628586
0.331503
-0.086883
-0.509086
-0.807462
-0.901086
-0.763720
-0.422181
0.030988
0.461428
0.755020
0.847420
0.727843
0.466745
0.205106
0.046774
-0.035020
-0.162459
-0.436316
-0.841615
-1.243165
-1.479100
-1.475130
-1.287390
-1.052318
-0.884040
-0.799444
-0.736052
-0.635442
-0.511365
-0.441617
-0.478157
-0.578075
-0.662284
-0.712404
-0.748045
-0.747375
-0.671337
-0.541808
-0.426857
-0.365166
-0.345755
-0.335346
-0.296085
-0.206396
-0.084299
0.045271
0.212359
0.474876
0.819793
1.147213
1.353498
1.385645
1.226510
0.865524
0.299234
-0.432292
-1.218498
-1.907849
-2.384980
-2.635738
-2.742667
-2.827407
-2.973954
-3.137116
-3.121638
-2.729607
-1.961268
-1.045459
-0.268905
0.216019
0.439652
0.519275
0.533031
0.458548
0.213496
-0.236023
-0.805210
-1.328022
-1.668312
-1.817479
-1.905014
-2.107653
-2.509706
-3.019862
-3.430648
-3.569049
-3.392011
-2.962834
-2.369570
-1.671340
-0.903421
-0.117569
0.586043
1.080847
1.298059
1.291390
1.185326
1.054714
0.878803
0.592467
0.155781
-0.376316
-0.818017
-0.957408
-0.748563
-0.349407
0.048557
0.358174
0.551228
0.559104
0.276030
-0.330546
-1.107562
-1.753653
-2.036489
-1.975064
-1.776453
-1.617894
-1.513979
-1.348489
-0.994041
-0.422275
0.271861
0.939733
1.468761
1.823968
2.034643
2.149324
2.185112
2.107292
1.864236
1.464068
1.026891
0.714322
0.565519
0.437878
0.124046
-0.511473
-1.469329
-2.579666
-3.521783
-3.985672
-3.896427
-3.475364
-3.055261
-2.827592
-2.742674
-2.622990
-2.371178
-2.069942
-1.879076
-1.859194
-1.933359
-2.018518
-2.134854
-2.344216
-2.621552
-2.853500
-2.954701
-2.921723
-2.775879
-2.525714
-2.198997
-1.845998
-1.488675
-1.117479
-0.752233
-0.460063
-0.310537
-0.352279
-0.606196
-1.015906
-1.420762
-1.644685
-1.626512
-1.450500
-1.267971
-1.189684
-1.204240
-1.175474
-0.940993
-0.432164
0.282031
1.037299
1.646620
1.959762
1.923556
1.643183
1.368120
1.361762
1.740949
2.422960
3.229056
4.028216
4.782891
5.505163
6.187614
6.745512
7.023684
6.886843
6.311392
5.385921
4.245620
3.027648
1.853087
0.804791
-0.080756
-0.808964
-1.424137
-1.973841
-2.461706
-2.864612
-3.186594
-3.473066
-3.779461
-4.113641
-4.387061
-4.437929
-4.139527
-3.506373
-2.674733
-1.760390
-0.779374
0.254135
1.204123
1.847716
2.045567
1.872314
1.549174
1.245220
0.986743
0.736072
0.496766
0.345750
0.380937
0.637912
1.064016
1.564982
2.065654
2.530307
2.936136
3.255316
3.479605
3.633634
3.733609
3.744470
3.596762
3.234280
2.641302
1.852346
0.951102
0.051464
-0.737366
-1.347712
-1.743993
-1.874635
-1.699061
-1.292390
-0.857788
-0.585646
-0.529123
-0.644528
-0.893634
-1.239901
-1.602326
-1.900887
-2.125203
-2.313817
-2.486502
-2.615124
-2.629655
-2.436724
-1.986672
-1.350331
-0.664968
0.015282
0.733132
1.468938
2.071299
2.413948
2.549720
2.653378
2.869645
3.249111
3.769984
4.349016
4.832384
5.058115
4.990385
4.762805
4.529701
4.286099
3.897537
3.295352
2.567663
1.867901
1.310672
0.950480
0.792390
0.816739
1.003689
1.293167
1.531092
1.532582
1.221032
0.674787
0.028247
-0.655047
-1.376935
-2.071184
-2.548562
-2.632205
-2.329979
-1.851429
-1.455803
-1.281510
-1.309958
-1.452123
-1.635738
-1.831486
-2.026175
-2.174274
-2.171627
-1.876020
-1.190211
-0.174520
0.951222
1.981735
2.889359
3.775597
4.699418
5.598020
6.339577
6.806381
6.926009
6.641905
5.897843
4.710880
3.265443
1.872310
0.791387
0.088881
-0.369655
-0.806244
-1.352884
-1.953250
-2.462616
-2.815119
-3.048591
-3.204988
-3.246985
-3.064384
-2.593395
-1.950344
-1.382048
-1.053811
-0.931962
-0.865031
-0.739164
-0.581846
-0.529029
-0.666119
-0.930632
-1.184694
-1.319605
-1.274468
-1.011210
-0.513947
0.171392
0.910823
1.544283
1.985563
2.229686
2.287016
2.148114
1.771956
1.097715
0.144057
-0.873921
-1.603192
-1.808204
-1.546606
-1.038480
-0.407050
0.377691
1.340302
2.391122
3.384055
4.191174
4.680334
4.696864
4.158391
3.159435
1.942021
0.794248
-0.026972
-0.376309
-0.269009
0.172105
0.795856
1.463594
2.096079
2.687061
3.213575
3.551971
3.551300
3.206196
2.712932
2.305728
2.048026
1.836995
1.587373
1.298377
0.935717
0.403954
-0.293734
-0.983037
-1.490783
-1.842085
-2.242424
-2.891808
-3.828061
-4.913249
-5.939410
-6.730970
-7.153397
-7.097725
-6.541159
-5.627540
-4.633787
-3.801482
-3.181995
-2.654425
-2.097712
-1.552742
-1.206455
-1.176371
-1.313460
-1.277835
-0.839020
-0.067898
0.783892
1.529869
2.121187
2.565620
2.907709
3.232967
3.552822
3.721349
3.565309
3.071848
2.389123
1.672662
1.007203
0.466141
0.156562
0.181985
0.572112
1.215871
1.872780
2.295351
2.347087
2.046487
1.567106
1.149332
0.922061
0.831350
0.767025
0.668310
0.476906
0.124588
-0.333918
-0.648636
-0.538724
0.059660
0.916268
1.661623
2.051197
2.115586
2.067852
2.104490
2.284632
2.515864
2.612982
2.410353
1.888709
1.208242
0.565082
0.006113
-0.559993
-1.166317
-1.680727
-1.941026
-1.945378
-1.829769
-1.653295
-1.295848
-0.623692
0.322427
1.380418
2.446860
3.504438
4.479795
5.172333
5.366264
4.966048
4.004682
2.593138
0.904965
-0.871554
-2.622627
-4.304023
-5.847994
-7.112275
-7.891542
-7.968675
-7.221314
-5.719984
-3.698511
-1.431991
0.813770
2.745355
4.058067
4.550496
4.232466
3.309189
2.043886
0.650581
-0.684667
-1.768700
-2.452433
-2.685058
-2.534420
-2.206951
-1.950471
-1.843349
-1.773220
-1.629457
-1.361767
-0.887714
-0.132225
0.829693
1.763481
2.421261
2.693489
2.652486
2.489266
2.417411
2.598533
3.117033
3.985916
5.113689
6.259352
7.089482
7.345589
7.012778
6.333495
5.590355
4.861071
4.028228
2.985941
1.770688
0.532133
-0.568304
-1.434706
-2.016750
-2.259348
-2.168639
-1.920267
-1.789267
-1.912358
-2.150768
-2.233733
-2.025827
-1.608499
-1.115810
-0.568657
0.087008
0.825905
1.499299
1.932625
1.999862
1.610872
0.714718
-0.636605
-2.246194
-3.806722
-4.997698
-5.623130
-5.699131
-5.370862
-4.755910
-3.949531
-3.134601
-2.517550
-2.131449
-1.828934
-1.492585
-1.166841
-0.982794
-1.019994
-1.250753
-1.583223
-1.946361
-2.355451
-2.884874
-3.514999
-4.012399
-4.066040
-3.593834
-2.856273
-2.209146
-1.758360
-1.293088
-0.552151
0.452476
1.351833
1.674670
1.251027
0.375837
-0.458727
-0.987892
-1.315927
-1.682809
-2.183909
-2.725558
-3.143391
-3.310542
-3.189315
-2.815418
-2.247736
-1.571434
-0.932215
-0.504535
-0.408885
-0.658586
-1.154244
-1.706737
-2.082514
-2.082592
-1.673117
-1.098079
-0.787807
-1.028556
-1.698599
-2.375205
-2.713750
-2.718463
-2.656655
-2.721873
-2.780973
-2.469026
-1.569866
-0.290507
0.880189
1.550035
1.624055
1.234494
0.618274
0.031430
-0.369903
-0.612017
-0.818225
-1.045007
-1.228121
-1.256442
-1.072599
-0.729358
-0.340865
0.068786
0.613237
1.350420
2.130648
2.763395
3.261499
3.791409
4.403271
4.918881
5.122693
5.006696
4.787312
4.697919
4.773913
4.833605
4.670689
4.246303
3.675465
3.080138
2.502219
1.895166
1.155844
0.240472
-0.715686
-1.461000
-1.838520
-1.898889
-1.773765
-1.466370
-0.868742
-0.020626
0.773198
1.169450
1.051905
0.525867
-0.252343
-1.181829
-2.211776
-3.251331
-4.085571
-4.464260
-4.314927
-3.809168
-3.210119
-2.693152
-2.277884
-1.868024
-1.366351
-0.797647
-0.324441
-0.118787
-0.208638
-0.446279
-0.621770
-0.631067
-0.566595
-0.619898
-0.863795
-1.152784
-1.228992
-0.880358
-0.037724
1.180749
2.494133
3.575939
4.187339
4.232966
3.757343
2.931974
2.020903
1.305183
0.979896
1.074391
1.471402
2.018812
2.614202
3.198468
3.722547
4.138523
4.421440
4.633754
4.966030
5.637368
6.682775
7.829647
8.641970
8.832688
8.434415
7.719463
7.023039
6.577689
6.395499
6.270166
5.909461
5.109438
3.877201
2.443681
1.143849
0.212344
-0.362177
-0.775767
-1.167260
-1.441022
-1.370752
-0.875005
-0.151092
0.464131
0.769107
0.853828
0.955118
1.144685
1.216401
0.903324
0.168551
-0.729176
-1.429555
-1.712717
-1.584695
-1.204394
-0.774572
-0.465195
-0.348426
-0.350991
-0.317525
-0.187287
-0.079004
-0.163823
-0.508712
-1.069422
-1.760245
-2.482988
-3.121522
-3.565489
-3.792558
-3.920151
-4.119485
-4.467262
-4.888234
-5.225339
-5.369131
-5.344240
-5.304038
-5.448495
-5.881820
-6.509157
-7.097415
-7.412789
-7.296634
-6.722461
-5.836735
-4.881134
-4.039597
-3.372634
-2.886755
-2.626792
-2.668458
-3.022280
-3.581094
-4.189488
-4.736848
-5.153043
-5.351190
-5.231957
-4.760432
-4.013574
-3.121132
-2.182957
-1.289190
-0.589783
-0.268224
-0.424908
-1.004875
-1.843355
-2.772403
-3.679372
-4.466498
-4.977950
-5.025023
-4.551789
-3.769481
-3.030605
-2.533291
-2.206446
-1.864188
-1.388981
-0.795072
-0.204775
0.230061
0.415157
0.342270
0.076175
-0.254277
-0.497742
-0.580578
-0.565841
-0.573089
-0.642642
-0.713211
-0.720713
-0.662225
-0.555710
-0.398062
-0.199062
-0.018133
0.088868
0.149847
0.237973
0.324104
0.220181
-0.251641
-1.032487
-1.837936
-2.392651
-2.586726
-2.438768
-2.035538
-1.530732
-1.082594
-0.721116
-0.351609
0.061178
0.390748
0.461113
0.198957
-0.301674
-0.783117
-0.924367
-0.536621
0.296527
1.270810
2.058239
2.482693
2.574064
2.512668
2.495464
2.579664
2.607080
2.299048
1.500809
0.358032
-0.800519
-1.759145
-2.538473
-3.225766
-3.750380
-3.874161
-3.399206
-2.355182
-0.965749
0.521463
1.902636
2.967342
3.540005
3.659163
3.646199
3.878900
4.468212
5.193629
5.752447
6.033482
6.156695
6.315311
6.606443
6.949298
7.118942
6.909211
6.323716
5.598195
5.013333
4.693698
4.570837
4.491071
4.341054
4.094996
3.789095
3.487065
3.249979
3.101873
3.024963
2.988825
2.962762
2.901482
2.761593
2.560063
2.376801
2.249827
2.099088
1.831594
1.527883
1.433991
1.710157
2.245632
2.776991
3.140787
3.355659
3.495013
3.561922
3.503783
3.284984
2.917465
2.455559
1.966455
1.496555
1.089587
0.822242
0.768881
0.923776
1.166467
1.290117
1.094441
0.527833
-0.241696
-0.942291
-1.395387
-1.582676
-1.572754
-1.462563
-1.378764
-1.446541
-1.687655
-1.947650
-1.979447
-1.654504
-1.096917
-0.593943
-0.376877
-0.488327
-0.836641
-1.347579
-2.052441
-3.033537
-4.288117
-5.655048
-6.892161
-7.835684
-8.480991
-8.920752
-9.246327
-9.496177
-9.614135
-9.455620
-8.926286
-8.125831
-7.303599
-6.674080
-6.283367
-6.027958
-5.780980
-5.487771
-5.159921
-4.833278
-4.532923
-4.232833
-3.861835
-3.386151
-2.864378
-2.390891
-2.007243
-1.685380
-1.357746
-0.931330
-0.307058
0.546920
1.522094
2.426145
3.156162
3.784234
4.436867
5.106161
5.608805
5.740059
5.466036
4.964198
4.480778
4.158914
3.985393
3.850200
3.653470
3.401250
3.204011
3.165914
3.296240
3.550481
3.924878
4.449977
5.088691
5.699924
6.118617
6.233063
6.005236
5.492094
4.854818
4.283169
3.874333
3.599168
3.387706
3.210119
3.055506
2.868302
2.543412
1.984519
1.180602
0.252527
-0.608469
-1.297347
-1.859924
-2.365965
-2.762334
-2.897159
-2.691606
-2.290879
-2.031567
-2.220748
-2.914971
-3.880483
-4.752410
-5.272239
-5.425371
-5.375365
-5.269740
-5.107580
-4.792213
-4.281835
-3.646483
-2.999207
-2.427071
-1.982516
-1.693304
-1.558554
-1.548981
-1.638439
-1.820854
-2.051720
-2.206637
-2.164223
-1.900139
-1.461315
-0.893079
-0.215143
0.567409
1.441698
2.355456
3.207890
3.894669
4.379476
4.716497
4.980513
5.180905
5.276151
5.249900
5.123418
4.918760
4.663202
4.409511
4.186645
3.925560
3.490053
2.794017
1.864862
0.811843
-0.247004
-1.245487
-2.167851
-2.995123
-3.668703
-4.098986
-4.207861
-3.981609
-3.482717
-2.803483
-2.013145
-1.155919
-0.306123
0.381864
0.702507
0.513607
-0.127663
-0.931321
-1.540750
-1.786807
-1.769674
-1.678358
-1.549427
-1.237905
-0.639603
0.105688
0.695431
0.939134
0.908006
0.819398
0.818572
0.876517
0.841906
0.565105
0.010952
-0.730778
-1.545645
-2.370034
-3.161287
-3.852993
-4.378720
-4.716480
-4.887402
-4.917167
-4.803673
-4.531059
-4.123173
-3.651698
-3.166245
-2.658936
-2.132113
-1.651275
-1.278051
-0.981160
-0.660374
-0.237197
0.306402
0.955301
1.701503
2.548766
3.470990
4.377274
5.140245
5.668143
5.937026
5.945542
5.670291
5.091239
4.246304
3.264105
2.348569
1.675026
1.252351
0.912022
0.468071
-0.110850
-0.690704
-1.114550
-1.334880
-1.421099
-1.480992
-1.586641
-1.736949
-1.856613
-1.840404
-1.619220
-1.210451
-0.746103
-0.431215
-0.395737
-0.581999
-0.825791
-1.022876
-1.171608
-1.289134
-1.343655
-1.278043
-1.084747
-0.844773
-0.680980
-0.657649
-0.714312
-0.708881
-0.556446
-0.331270
-0.200607
-0.257119
-0.455670
-0.702290
-0.942769
-1.166726
-1.380861
-1.575566
-1.700802
-1.724398
-1.733160
-1.900361
-2.293145
-2.742956
-2.958849
-2.762550
-2.185673
-1.381142
-0.523330
0.204657
0.622286
0.636641
0.319152
-0.136179
-0.519285
-0.654109
-0.418353
0.189139
0.996628
1.724411
2.138770
2.177498
1.952383
1.636207
1.344685
1.111204
0.942898
0.875902
0.967034
1.225331
1.561890
1.843216
2.008028
2.108598
2.229270
2.385381
2.518882
2.577162
2.560214
2.495656
2.413884
2.354529
2.356137
2.419931
2.500663
2.551172
2.583053
2.671919
2.872642
3.120833
3.237613
3.045505
2.497366
1.718193
0.919771
0.249888
-0.280238
-0.719981
-1.066744
-1.266790
-1.307764
-1.248690
-1.142068
-0.974420
-0.707182
-0.350538
0.019970
0.324331
0.558414
0.800121
1.121905
1.498858
1.802955
1.882184
1.656946
1.173363
0.579937
0.037654
-0.348299
-0.511591
-0.400419
-0.026110
0.494418
1.015380
1.491336
1.975508
2.487031
2.950123
3.273915
3.439866
3.510923
3.579027
3.688165
3.788128
3.772468
3.593924
3.341843
3.151663
3.042288
2.925396
2.776806
2.700255
2.786334
2.981128
3.151151
3.247050
3.357999
3.609641
4.024437
4.473211
4.755743
4.746922
4.489765
4.146632
3.853573
3.631459
3.423625
3.179339
2.885094
2.519775
1.997999
1.202158
0.094463
-1.225014
-2.581936
-3.834673
-4.919873
-5.805604
-6.433386
-6.762011
-6.860854
-6.882435
-6.916217
-6.919044
-6.821614
-6.672648
-6.636255
-6.853764
-7.335997
-7.976558
-8.628124
-9.160562
-9.491226
-9.606651
-9.558698
-9.415657
-9.208430
-8.927996
-8.553831
-8.056946
-7.397605
-6.564646
-5.614335
-4.637551
-3.683608
-2.745208
-1.842176
-1.091119
-0.620979
-0.400948
-0.207921
0.204277
0.910509
1.758732
2.466648
2.798673
2.715892
2.385510
2.033573
1.779903
1.608603
1.461969
1.331319
1.282704
1.428396
1.843639
2.473139
3.138804
3.653164
3.901980
3.837212
3.455274
2.805163
1.997503
1.187865
0.531805
0.132607
0.018863
0.158958
0.486531
0.930827
1.452059
2.041943
2.670720
3.255336
3.713730
4.037204
4.280184
4.484783
4.631767
4.658981
4.518813
4.225026
3.852533
3.496489
3.225681
3.055733
2.956139
2.877406
2.770025
2.598743
2.348054
2.000034
1.523007
0.918678
0.273609
-0.291323
-0.751766
-1.212075
-1.755368
-2.292827
-2.621582
-2.633366
-2.440565
-2.297119
-2.397360
-2.735049
-3.138656
-3.424884
-3.503268
-3.355139
-2.980121
-2.406997
-1.737981
-1.146909
-0.801544
-0.759735
-0.939851
-1.193042
-1.376642
-1.355267
-0.998834
-0.252854
0.774355
1.815753
2.565835
2.834100
2.631852
2.159765
1.708122
1.502910
1.589279
1.854988
2.169083
2.480605
2.785356
3.047088
3.189445
3.136548
2.829862
2.240957
1.407724
0.440811
-0.532556
-1.437355
-2.266653
-3.028585
-3.674593
-4.082673
-4.122740
-3.756905
-3.084703
-2.282173
-1.488806
-0.757906
-0.106809
0.425600
0.784782
0.929485
0.851609
0.607379
0.337981
0.222721
0.377771
0.788677
1.330667
1.852053
2.268939
2.609748
2.966370
3.394589
3.850978
4.211958
4.369317
4.323936
4.164392
3.951838
3.668278
3.274827
2.762208
2.134889
1.401328
0.615355
-0.096126
-0.593571
-0.837924
-0.938147
-1.072717
-1.357701
-1.786693
-2.284455
-2.795678
-3.303664
-3.776131
-4.142651
-4.358298
-4.469933
-4.585404
-4.771875
-4.997639
-5.168627
