EVENT_NAME: L_AQUILA
EVENT_ID: IT-2009-0009
EVENT_DATE_YYYYMMDD: 20090406
EVENT_TIME_HHMMSS: 013240
EVENT_LATITUDE_DEGREE: 42.3420
EVENT_LONGITUDE_DEGREE: 13.3800
EVENT_DEPTH_KM: 8.3
HYPOCENTER_REFERENCE: INGV-CNT_Seismic_Bulletin
MAGNITUDE_W: 6.1
MAGNITUDE_W_REFERENCE: INGV-CNT_Seismic_Bulletin
MAGNITUDE_L: 
MAGNITUDE_L_REFERENCE: 
FOCAL_MECHANISM: Normal faulting
NETWORK: IT
STATION_CODE: LSS
STATION_NAME: 
STATION_LATITUDE_DEGREE: 42.558243
STATION_LONGITUDE_DEGREE: 12.968894
STATION_ELEVATION_M: 1065
LOCATION: 
SENSOR_DEPTH_M: 0.0
VS30_M/S: 1091
SITE_CLASSIFICATION_EC8: A
MORPHOLOGIC_CLASSIFICATION: 
EPICENTRAL_DISTANCE_KM: 41.5
EARTHQUAKE_BACKAZIMUTH_DEGREE: 305.5
DATE_TIME_FIRST_SAMPLE_YYYYMMDD_HHMMSS: 20090406_013220.000
DATE_TIME_FIRST_SAMPLE_PRECISION: seconds
SAMPLING_INTERVAL_S: 0.005000
NDATA: 21000
DURATION_S: 105.000
STREAM: HNE
UNITS: cm/s
INSTRUMENT: sensor = FBA-3 [Kinemetrics] | digitizer = Etna [Kinemetrics]
INSTRUMENT_ANALOG/DIGITAL: D
INSTRUMENTAL_FREQUENCY_HZ: 206.000
INSTRUMENTAL_DAMPING: 0.700000
FULL_SCALE_G: 1.0
N_BIT_DIGITAL_CONVERTER: 18
PGV_CM/S: 0.684367
TIME_PGV_S: 41.265000
BASELINE_CORRECTION: BASELINE REMOVED
FILTER_TYPE: BUTTERWORTH
FILTER_ORDER: 2
LOW_CUT_FREQUENCY_HZ: 0.080
HIGH_CUT_FREQUENCY_HZ: 40.000
LATE/NORMAL_TRIGGERED: NT
DATABASE_VERSION: 0.5
HEADER_FORMAT: DYNA 1.2
DATA_TYPE: VELOCITY
PROCESSING: manual (Paolucci et al., 2011)
DATA_TIMESTAMP_YYYYMMDD_HHMMSS: 20211011_160131.746
DATA_LICENSE: CC-BY3_0-IT (http://creativecommons.org/licenses/by/3.0/deed.en)
DATA_CITATION: Luzi L, Pacor F, Puglia R (2019). Italian Accelerometric Archive v 3.0 - Istituto Nazionale di Geofisica e Vulcanologia, Dipartimento della Protezione Civile Nazionale. doi: 10.13127/itaca.3.1
DATA_CREATOR: ITACA working group
ORIGINAL_DATA_MEDIATOR_CITATION: data obtained within the DPC-INGV data exchange agreements
ORIGINAL_DATA_MEDIATOR: Archive of Italian Department of Civil Protection
ORIGINAL_DATA_CREATOR_CITATION: Presidency Of Counsil Of Ministers-Civil Protection Department. (1972). Italian Strong Motion Network. Presidency of Counsil of Ministers - Civil Protection Department. https://doi.org/10.7914/SN/IT http://www.fdsn.org/networks/detail/IT/
ORIGINAL_DATA_CREATOR: network: IT (Italian Strong Motion Network (RAN)); owner: Presidency of Counsil of Ministers - Civil Protection Department (PCM - DPC)
USER1: 
USER2: 
USER3: 
USER4: 
USER5: 
[...]
-0.119471
-0.128996
-0.139535
-0.152083
-0.167183
-0.184336
-0.202181
-0.219141
-0.233955
-0.245803
-0.254160
-0.258677
-0.259265
-0.256335
-0.250930
-0.244440
-0.237983
-0.232056
-0.226783
-0.222389
-0.219427
-0.218648
-0.220529
-0.224619
-0.229406
-0.233149
-0.234896
-0.234653
-0.232863
-0.230106
-0.227311
-0.225931
-0.227583
-0.233121
-0.241890
-0.252072
-0.261947
-0.270830
-0.278919
-0.286489
-0.293231
-0.298202
-0.300313
-0.298954
-0.294255
-0.286911
-0.277791
-0.267618
-0.256871
-0.245946
-0.235409
-0.226088
-0.218768
-0.213633
-0.210062
-0.207234
-0.205045
-0.204425
-0.206982
-0.214329
-0.227227
-0.244836
-0.264764
-0.284246
-0.301623
-0.316900
-0.331037
-0.344751
-0.357866
-0.369722
-0.380071
-0.389467
-0.398763
-0.408430
-0.418522
-0.429196
-0.440917
-0.454025
-0.468293
-0.483066
-0.497675
-0.511554
-0.524183
-0.535178
-0.544408
-0.551851
-0.557439
-0.561200
-0.563500
-0.565053
-0.566814
-0.569845
-0.574925
-0.582028
-0.590252
-0.598384
-0.605637
-0.611977
-0.617925
-0.623946
-0.629824
-0.634529
-0.636690
-0.635279
-0.630093
-0.621860
-0.612061
-0.602443
-0.594227
-0.587387
-0.580578
-0.571873
-0.559758
-0.543613
-0.523472
-0.499558
-0.472032
-0.441094
-0.407366
-0.372248
-0.337813
-0.306257
-0.279327
-0.258099
-0.242961
-0.233695
-0.229671
-0.230075
-0.234120
-0.241240
-0.251110
-0.263418
-0.277741
-0.293674
-0.311040
-0.329937
-0.350505
-0.372440
-0.394630
-0.415328
-0.432860
-0.446233
-0.455035
-0.458932
-0.457661
-0.451641
-0.442402
-0.432174
-0.422813
-0.415067
-0.408841
-0.403907
-0.400227
-0.397743
-0.396014
-0.394109
-0.390920
-0.385600
-0.377775
-0.367447
-0.354795
-0.340114
-0.323838
-0.306440
-0.288272
-0.269604
-0.250881
-0.232897
-0.216726
-0.203519
-0.194258
-0.189502
-0.189245
-0.192932
-0.199670
-0.208390
-0.217763
-0.226259
-0.232721
-0.237010
-0.239938
-0.242583
-0.245806
-0.250274
-0.256474
-0.264485
-0.273990
-0.284616
-0.296185
-0.308617
-0.321693
-0.334841
-0.347025
-0.356958
-0.363710
-0.367035
-0.366958
-0.363293
-0.355948
-0.345592
-0.333522
-0.320773
-0.307506
-0.293158
-0.276913
-0.258063
-0.236318
-0.212156
-0.186865
-0.161913
-0.138099
-0.115451
-0.094020
-0.074532
-0.058056
-0.045217
-0.035878
-0.029325
-0.024572
-0.020610
-0.016526
-0.011508
-0.005042
0.002613
0.010276
0.016381
0.019755
0.019897
0.016621
0.009737
-0.000619
-0.013362
-0.026523
-0.038173
-0.047430
-0.054709
-0.061117
-0.067667
-0.074927
-0.083106
-0.092263
-0.102394
-0.113266
-0.124124
-0.133504
-0.139455
-0.140327
-0.135571
-0.125663
-0.111216
-0.092338
-0.068841
-0.040851
-0.009153
0.024879
0.059509
0.092719
0.122208
0.145762
0.162090
0.171451
0.175408
0.175852
0.174004
0.169973
0.163208
0.153442
0.141129
0.127054
0.111811
0.095786
0.079551
0.064229
0.051262
0.041510
0.034600
0.029331
0.024671
0.020346
0.016650
0.013741
0.011096
0.007765
0.003112
-0.002812
-0.009410
-0.015782
-0.020838
-0.023408
-0.022551
-0.017997
-0.010275
-0.000347
0.010801
0.022236
0.032977
0.041836
0.047325
0.048045
0.043676
0.035660
0.026619
0.018886
0.013693
0.011658
0.013547
0.020248
0.032204
0.049124
0.070080
0.093481
0.116966
0.137758
0.153555
0.163265
0.167236
0.167101
0.165220
0.163875
0.164735
0.168715
0.176033
0.186513
0.199948
0.216016
0.233776
0.251533
0.267563
0.281128
0.292657
0.302897
0.312082
0.320019
0.326511
0.331189
0.333209
0.331740
0.326825
0.319371
0.310161
0.298949
0.284490
0.265349
0.240783
0.211086
0.177431
0.141664
0.106176
0.073470
0.045332
0.022163
0.003156
-0.012754
-0.026026
-0.036515
-0.044279
-0.050311
-0.056193
-0.062760
-0.069149
-0.073344
-0.073684
-0.069764
-0.062115
-0.051509
-0.038681
-0.024142
-0.007978
0.009787
0.028393
0.046220
0.061579
0.073525
0.081888
0.086924
0.089255
0.090037
0.090947
0.093808
0.099887
0.109251
0.120728
0.132463
0.142696
0.150531
0.156278
0.160888
0.165045
0.168880
0.172222
0.174606
0.175229
0.173560
0.170316
0.167623
0.167921
0.172503
0.180811
0.191067
0.201645
0.211984
0.222506
0.233929
0.246509
0.259574
0.271625
0.281069
0.287110
0.289936
0.289966
0.287166
0.281335
0.272931
0.263226
0.253499
0.244350
0.236084
0.229604
0.226486
0.228098
0.235000
0.247234
0.264757
0.287156
0.313017
0.339849
0.364679
0.384702
0.397668
0.402193
0.397835
0.384722
0.363202
0.333962
0.298400
0.258943
0.219099
0.182993
0.154393
0.135900
0.128740
0.132809
0.146536
0.166826
0.189579
0.210741
0.227287
0.237506
0.240759
0.237336
0.228493
0.216230
0.202805
0.190133
0.179098
0.169346
0.160129
0.151263
0.143116
0.136307
0.131868
0.131207
0.135356
0.144173
0.156279
0.169747
0.183009
0.195456
0.207543
0.220535
0.236120
0.256050
0.281618
0.312915
0.348363
0.385091
0.420154
0.451822
0.479774
0.504079
0.524220
0.539150
0.548003
0.550664
0.547823
0.540649
0.530565
0.519269
0.508425
0.498824
0.489878
0.480316
0.469562
0.458393
0.448264
0.440222
0.434643
0.431799
0.432234
0.436364
0.443860
0.453524
0.463523
0.471577
0.475151
0.471968
0.460737
0.441703
0.416715
0.388599
0.360103
0.333249
0.309470
0.289722
0.274049
0.261461
0.250804
0.241659
0.234196
0.228362
0.223448
0.218348
0.212094
0.204178
0.194446
0.182669
0.168245
0.150670
0.130608
0.110278
0.092308
0.078027
0.066981
0.058190
0.051724
0.048963
0.051226
0.057985
0.066358
0.072613
0.074493
0.072199
0.067260
0.060680
0.052266
0.041346
0.027719
0.012002
-0.004551
-0.020498
-0.034575
-0.045813
-0.053671
-0.058332
-0.060854
-0.062899
-0.066192
-0.071963
-0.080497
-0.090909
-0.101322
-0.109688
-0.115178
-0.119117
-0.124260
-0.132753
-0.144629
-0.158198
-0.171790
-0.185073
-0.198683
-0.212588
-0.224933
-0.232782
-0.234235
-0.229834
-0.222083
-0.213963
-0.207791
-0.204699
-0.204542
-0.206392
-0.209452
-0.213543
-0.218768
-0.224909
-0.231191
-0.236554
-0.240201
-0.241905
-0.241561
-0.238495
-0.231743
-0.221089
-0.207272
-0.190965
-0.172008
-0.149992
-0.125397
-0.099784
-0.074750
-0.050814
-0.027324
-0.003454
0.020714
0.044067
0.065298
0.083676
0.099077
0.111588
0.121063
0.126843
0.128045
0.124467
0.117162
0.107969
0.098475
0.089606
0.082274
0.077930
0.077827
0.081693
0.087540
0.092800
0.095429
0.094167
0.088258
0.077199
0.060943
0.040515
0.018194
-0.003381
-0.022427
-0.038478
-0.051943
-0.063333
-0.072673
-0.079505
-0.083493
-0.085115
-0.085709
-0.086752
-0.088984
-0.092092
-0.095248
-0.098081
-0.101180
-0.105499
-0.111263
-0.117408
-0.121810
-0.121998
-0.116095
-0.103624
-0.085744
-0.064808
-0.043643
-0.024856
-0.010196
-0.000092
0.006434
0.011334
0.016706
0.024063
0.034157
0.047228
0.063220
0.081833
0.102525
0.124633
0.147801
0.172632
0.200818
0.234232
0.273380
0.316590
0.360754
0.402926
0.441523
0.476638
0.509527
0.541504
0.572855
0.602402
0.627950
0.647336
0.659554
0.665273
0.666335
0.664524
0.660645
0.654809
0.647604
0.640750
0.636375
0.635620
0.637940
0.641786
0.646055
0.650831
0.656554
0.662636
0.667153
0.667995
0.664349
0.657202
0.648638
0.640715
0.634693
0.630820
0.628494
0.626752
0.624997
0.623409
0.622473
0.622078
0.621259
0.618715
0.613368
0.604567
0.592152
0.576544
0.558717
0.539754
0.520153
0.499556
0.477219
0.452778
0.426652
0.399806
0.373085
0.346564
0.319322
0.289913
0.257367
0.221880
0.184816
0.148333
0.114721
0.085537
0.061131
0.040933
0.024070
0.009636
-0.003498
-0.016840
-0.031951
-0.049857
-0.070804
-0.094488
-0.120254
-0.147010
-0.173169
-0.196972
-0.217039
-0.232645
-0.243560
-0.250006
-0.252955
-0.254296
-0.256420
-0.261445
-0.270662
-0.284524
-0.302920
-0.325253
-0.350143
-0.375268
-0.398027
-0.416874
-0.432027
-0.444694
-0.455726
-0.465047
-0.471992
-0.475967
-0.476991
-0.475841
-0.473765
-0.472054
-0.471673
-0.472944
-0.475433
-0.478336
-0.481165
-0.484030
-0.487243
-0.490810
-0.494413
-0.497724
-0.500503
-0.502493
-0.503488
-0.503579
-0.503135
-0.502385
-0.501196
-0.499575
-0.498474
-0.499732
-0.504895
-0.514085
-0.526048
-0.538981
-0.551175
-0.561353
-0.569007
-0.574420
-0.578025
-0.579783
-0.579477
-0.577524
-0.575218
-0.574223
-0.575732
-0.579647
-0.584269
-0.586952
-0.585469
-0.579115
-0.568824
-0.556411
-0.543540
-0.530977
-0.518500
-0.505601
-0.492566
-0.481071
-0.473567
-0.471777
-0.475779
-0.484575
-0.497267
-0.513396
-0.532148
-0.551519
-0.568515
-0.580291
-0.585119
-0.582512
-0.572999
-0.558162
-0.540462
-0.522166
-0.503935
-0.484541
-0.462200
-0.436232
-0.407470
-0.377302
-0.346519
-0.314942
-0.281910
-0.247163
-0.211569
-0.177023
-0.145404
-0.117413
-0.092346
-0.068878
-0.046024
-0.023568
-0.001863
0.018612
0.037557
0.054993
0.071243
0.086752
0.101877
0.116821
0.131635
0.146142
0.159950
0.172750
0.184634
0.195884
0.206379
0.215537
0.223176
0.230346
0.238897
0.250125
0.264010
0.279714
0.296492
0.313967
0.331777
0.349296
0.365721
0.380308
0.392586
0.402418
0.409901
0.415349
0.419460
0.423305
0.427924
0.433756
0.440206
0.445679
0.448318
0.447109
0.442398
0.435421
0.427508
0.419644
0.412331
0.405437
0.398204
0.389766
0.380028
0.370131
0.361858
0.356374
0.353404
0.351520
0.349078
0.344895
0.338157
0.327895
0.312727
0.291286
0.263011
0.228550
0.189372
0.146967
0.102363
0.056131
0.008651
-0.039420
-0.086698
-0.131330
-0.171959
-0.208477
-0.241847
-0.273264
-0.303404
-0.332309
-0.359748
-0.385547
-0.409714
-0.432378
-0.453542
-0.472851
-0.489782
-0.504104
-0.516059
-0.526095
-0.534522
-0.541310
-0.545967
-0.547502
-0.544768
-0.537157
-0.525027
-0.509246
-0.490325
-0.468140
-0.442609
-0.414565
-0.385865
-0.358535
-0.333714
-0.311310
-0.290515
-0.270589
-0.251338
-0.233070
-0.216064
-0.200044
-0.184214
-0.167733
-0.149981
-0.130356
-0.108106
-0.082663
-0.054163
-0.023570
0.007595
0.037621
0.065082
0.089356
0.110772
0.130143
0.148139
0.165078
0.181128
0.196406
0.210747
0.223464
0.233387
0.239290
0.240553
0.237510
0.231024
0.221724
0.209894
0.196082
0.181597
0.168139
0.156684
0.146526
0.135423
0.120848
0.101445
0.077683
0.051322
0.024195
-0.002682
-0.029030
-0.054568
-0.078529
-0.099938
-0.118171
-0.133167
-0.145302
-0.155215
-0.163681
-0.171474
-0.179219
-0.187411
-0.196515
-0.206774
-0.217807
-0.228628
-0.238129
-0.245436
-0.249901
-0.250977
-0.248140
-0.240931
-0.229154
-0.213114
-0.193641
-0.171744
-0.148161
-0.123259
-0.097354
-0.070973
-0.044724
-0.019107
0.005487
0.028803
0.050851
0.071784
0.091412
0.108862
0.122832
0.132156
0.136215
0.134980
0.128753
0.117914
0.102938
0.084595
0.064100
0.043060
0.023152
0.005739
-0.008279
-0.018344
-0.024124
-0.025655
-0.023745
-0.020233
-0.017665
-0.018303
-0.022960
-0.030663
-0.039597
-0.048446
-0.056838
-0.064585
-0.070774
-0.073972
-0.073444
-0.069967
-0.065271
-0.060731
-0.056634
-0.052541
-0.048159
-0.043949
-0.041123
-0.041069
-0.044723
-0.052451
-0.064301
-0.080107
-0.099372
-0.121266
-0.144848
-0.169285
-0.193871
-0.217890
-0.240545
-0.261161
-0.279419
-0.295250
-0.308545
-0.319206
-0.327462
-0.333852
-0.338758
-0.342060
-0.343246
-0.341714
-0.336938
-0.328430
-0.315686
-0.298331
-0.276445
-0.250744
-0.222403
-0.192718
-0.162990
-0.134639
-0.109182
-0.087951
-0.071630
-0.059888
-0.051512
-0.045251
-0.040691
-0.038350
-0.038904
-0.042358
-0.047931
-0.054605
-0.061711
-0.069116
-0.077049
-0.085734
-0.095017
-0.104219
-0.112315
-0.118367
-0.122097
-0.124254
-0.126232
-0.129142
-0.133271
-0.138386
-0.144244
-0.150689
-0.157408
-0.163798
-0.169221
-0.173445
-0.176850
-0.180139
-0.183710
-0.187254
-0.190037
-0.191693
-0.192696
-0.193982
-0.196260
-0.199771
-0.204485
-0.210319
-0.217223
-0.225101
-0.233605
-0.242227
-0.250893
-0.260395
-0.271860
-0.285575
-0.300369
-0.314182
-0.325111
-0.332016
-0.334633
-0.333610
-0.330498
-0.327315
-0.325719
-0.326400
-0.328997
-0.332267
-0.334359
-0.333413
-0.328430
-0.319808
-0.309114
-0.298227
-0.288465
-0.280284
-0.273560
-0.268004
-0.263290
-0.258910
-0.254075
-0.247948
-0.240139
-0.230923
-0.220883
-0.210340
-0.199193
-0.187267
-0.174672
-0.161786
-0.148985
-0.136507
-0.124438
-0.112665
-0.100884
-0.088785
-0.076281
-0.063525
-0.050610
-0.037250
-0.022887
-0.007283
0.008905
0.024132
0.036619
0.045210
0.049809
0.051059
0.049657
0.046057
0.040724
0.034390
0.027851
0.021608
0.015897
0.011025
0.007489
0.005736
0.005836
0.007458
0.010250
0.014251
0.019860
0.027354
0.036369
0.045780
0.054065
0.059932
0.062831
0.063020
0.061278
0.058720
0.056718
0.056588
0.059060
0.064137
0.071593
0.081471
0.093906
0.108657
0.125026
0.142225
0.159780
0.177675
0.196116
0.215057
0.233919
0.251889
0.268598
0.284356
0.299568
0.314195
0.328079
0.341580
0.355512
0.370417
0.386173
0.402408
0.419198
0.437246
0.457369
0.479735
0.503513
0.527248
0.549697
0.570430
0.589698
0.607855
0.624973
0.640870
0.655295
0.667894
0.677884
0.683895
0.684367
0.678242
0.665333
0.646159
0.621560
0.592532
0.560365
0.526555
0.492251
0.457838
0.423257
0.388662
0.354554
0.321191
0.288010
0.253741
0.217061
0.177178
0.134037
0.088235
0.040778
-0.007255
-0.055048
-0.102127
-0.148169
-0.192809
-0.235578
-0.275863
-0.312851
-0.345674
-0.373746
-0.396933
-0.415351
-0.429077
-0.438288
-0.443744
-0.446849
-0.448853
-0.449893
-0.448872
-0.444319
-0.435526
-0.423192
-0.409199
-0.395619
-0.383692
-0.373524
-0.364625
-0.356582
-0.349272
-0.342615
-0.336202
-0.329060
-0.319841
-0.307476
-0.291782
-0.273516
-0.254006
-0.234820
-0.217544
-0.203518
-0.193530
-0.187591
-0.184932
-0.184269
-0.184174
-0.183380
-0.180947
-0.176293
-0.169033
-0.158823
-0.145469
-0.129193
-0.110624
-0.090438
-0.069037
-0.046613
-0.023454
-0.000159
0.022435
0.043560
0.062823
0.080305
0.096433
0.111712
0.126493
0.140880
0.154730
0.167724
0.179464
0.189464
0.197079
0.201672
0.203040
0.201584
0.197825
0.191765
0.182988
0.171524
0.158416
0.145249
0.133046
0.121561
0.109574
0.095898
0.080205
0.063081
0.045564
0.028789
0.013888
0.001853
-0.006837
-0.012571
-0.016579
-0.020378
-0.025077
-0.031042
-0.037925
-0.044702
-0.049696
-0.050960
-0.047088
-0.038010
-0.025180
-0.011010
0.002149
0.012948
0.021489
0.029003
0.036950
0.046225
0.057070
0.069473
0.083400
0.098635
0.114583
0.130265
0.144415
0.155619
0.162658
0.164862
0.162199
0.155013
0.143679
0.128536
0.110163
0.089750
0.069136
0.050352
0.034928
0.023517
0.016073
0.012284
0.011750
0.013878
0.017802
0.022449
0.026707
0.029744
0.031434
0.032548
0.034436
0.038380
0.045033
0.054293
0.065638
0.078687
0.093519
0.110492
0.129747
0.150806
0.172653
0.194273
0.215095
0.234854
0.253195
0.269569
0.283380
0.294055
0.301061
0.304138
0.303658
0.300690
0.296500
0.291809
0.286446
0.279657
0.270724
0.259301
0.245323
0.228805
0.209924
0.189211
0.167419
0.145070
0.122143
0.098283
0.073295
0.047452
0.021430
-0.004000
-0.028298
-0.051268
-0.072873
-0.092907
-0.110905
-0.126370
-0.139051
-0.148997
-0.156427
-0.161570
-0.164599
-0.165603
-0.164545
-0.161214
-0.155329
-0.146788
-0.135774
-0.122528
-0.107050
-0.089176
-0.068963
-0.047037
-0.024572
-0.003014
0.016190
0.031811
0.043089
0.049936
0.052904
0.052877
0.050778
0.047387
0.043113
0.037765
0.030682
0.021213
0.009042
-0.005985
-0.024135
-0.045730
-0.070781
-0.098726
-0.128507
-0.158919
-0.188869
-0.217452
-0.243955
-0.267878
-0.288938
-0.307081
-0.322524
-0.335720
-0.347210
-0.357564
-0.367457
-0.377624
-0.388433
-0.399327
-0.408751
-0.414849
-0.416321
-0.412671
-0.403856
-0.389975
-0.371434
-0.349254
-0.324970
-0.299964
-0.274742
-0.248895
-0.221891
-0.193927
-0.165968
-0.139097
-0.114022
-0.091152
-0.070855
-0.053557
-0.039754
-0.030054
-0.025091
-0.025153
-0.029824
-0.038059
-0.048672
-0.060741
-0.073630
-0.086779
-0.099580
-0.111338
-0.121200
-0.128053
-0.130621
-0.127879
-0.119494
-0.105908
-0.088019
-0.066783
-0.043125
-0.018071
0.007267
0.032060
0.056228
0.080525
0.105951
0.132937
0.161010
0.189165
0.216478
0.242402
0.266528
0.288068
0.305650
0.317820
0.323951
0.324740
0.321876
0.317275
0.312463
0.308248
0.304604
0.300793
0.295792
0.288896
0.280087
0.269927
0.259079
0.247833
0.235950
0.222975
0.208748
0.193692
0.178637
0.164382
0.151415
0.139998
0.130399
0.122904
0.117586
0.114237
0.112566
0.112414
0.113771
0.116752
0.121603
0.128553
0.137434
0.147376
0.156884
0.164343
0.168701
0.169840
0.168311
0.164732
0.159475
0.152834
0.145317
0.137737
0.131096
0.126416
0.124531
0.125850
0.130155
0.136601
0.144005
0.151380
0.158503
0.166131
0.175587
0.187924
0.203230
0.220541
0.238313
0.255022
0.269581
0.281550
0.291202
0.299353
0.306993
0.314834
0.322962
0.330724
0.336885
0.340018
0.339107
0.334098
0.325894
0.315788
0.304878
0.293865
0.283174
0.273140
0.264072
0.256213
0.249676
0.244404
0.240174
0.236655
0.233612
0.231140
0.229633
0.229287
0.229565
0.229264
0.227166
0.222715
0.216331
0.209282
0.203082
0.198686
0.196141
0.195048
0.195305
0.197282
0.201265
0.206864
0.213067
0.218829
0.223585
0.227251
0.229927
0.231709
0.232672
0.232847
0.232177
0.230578
0.228084
0.224886
0.221167
0.216937
0.212073
0.206547
0.200728
0.195572
0.192445
0.192525
0.196096
0.202273
0.209369
0.215583
0.219607
0.220869
0.219391
0.215348
0.208625
0.198676
0.184802
0.166638
0.144501
0.119401
0.092761
0.066078
0.040617
0.017119
-0.004348
-0.024193
-0.042872
-0.060581
-0.077319
-0.093215
-0.108788
-0.124817
-0.141840
-0.159704
-0.177606
-0.194617
-0.210257
-0.224690
-0.238505
-0.252285
-0.266282
-0.280371
-0.294215
-0.307402
-0.319443
-0.329814
-0.338206
-0.344807
-0.350317
-0.355601
-0.361347
-0.367994
-0.375803
-0.384823
-0.394764
-0.405074
-0.415326
-0.425528
-0.435932
-0.446624
-0.457447
-0.468245
-0.478929
-0.489237
-0.498521
-0.505843
-0.510300
-0.511346
-0.508954
-0.503593
-0.496059
-0.487301
-0.478316
-0.469961
-0.462712
-0.456619
-0.451473
-0.447015
-0.443072
-0.439571
-0.436478
-0.433823
-0.431851
-0.431106
-0.432260
-0.435701
-0.441160
-0.447660
-0.453853
-0.458535
-0.460973
-0.460860
-0.458061
-0.452452
-0.443936
-0.432549
-0.418616
-0.402891
-0.386487
-0.370597
-0.356199
-0.343969
-0.334288
-0.327099
-0.321677
-0.316766
-0.311171
-0.304318
-0.296347
-0.287822
-0.279393
-0.271632
-0.264989
-0.259729
-0.255805
-0.252764
-0.249823
-0.246162
-0.241279
-0.235169
-0.228268
-0.221271
-0.214896
-0.209617
-0.205535
-0.202498
-0.200342
