EVENT_NAME: L_AQUILA
EVENT_ID: IT-2009-0009
EVENT_DATE_YYYYMMDD: 20090406
EVENT_TIME_HHMMSS: 013240
EVENT_LATITUDE_DEGREE: 42.3420
EVENT_LONGITUDE_DEGREE: 13.3800
EVENT_DEPTH_KM: 8.3
HYPOCENTER_REFERENCE: INGV-CNT_Seismic_Bulletin
MAGNITUDE_W: 6.1
MAGNITUDE_W_REFERENCE: INGV-CNT_Seismic_Bulletin
MAGNITUDE_L: 
MAGNITUDE_L_REFERENCE: 
FOCAL_MECHANISM: Normal faulting
NETWORK: IT
STATION_CODE: LSS
STATION_NAME: 
STATION_LATITUDE_DEGREE: 42.558243
STATION_LONGITUDE_DEGREE: 12.968894
STATION_ELEVATION_M: 1065
LOCATION: 
SENSOR_DEPTH_M: 0.0
VS30_M/S: 1091
SITE_CLASSIFICATION_EC8: A
MORPHOLOGIC_CLASSIFICATION: 
EPICENTRAL_DISTANCE_KM: 41.5
EARTHQUAKE_BACKAZIMUTH_DEGREE: 305.5
DATE_TIME_FIRST_SAMPLE_YYYYMMDD_HHMMSS: 20090406_013220.000
DATE_TIME_FIRST_SAMPLE_PRECISION: seconds
SAMPLING_INTERVAL_S: 0.005000
NDATA: 21000
DURATION_S: 105.000
STREAM: HNN
UNITS: cm
INSTRUMENT: sensor = FBA-3 [Kinemetrics] | digitizer = Etna [Kinemetrics]
INSTRUMENT_ANALOG/DIGITAL: D
INSTRUMENTAL_FREQUENCY_HZ: 210.000
INSTRUMENTAL_DAMPING: 0.700000
FULL_SCALE_G: 1.0
N_BIT_DIGITAL_CONVERTER: 18
PGD_CM: -0.219321
TIME_PGD_S: 37.535000
BASELINE_CORRECTION: BASELINE REMOVED
FILTER_TYPE: BUTTERWORTH
FILTER_ORDER: 2
LOW_CUT_FREQUENCY_HZ: 0.080
HIGH_CUT_FREQUENCY_HZ: 40.000
LATE/NORMAL_TRIGGERED: NT
DATABASE_VERSION: 0.5
HEADER_FORMAT: DYNA 1.2
DATA_TYPE: DISPLACEMENT
PROCESSING: manual (Paolucci et al., 2011)
DATA_TIMESTAMP_YYYYMMDD_HHMMSS: 20211011_160132.146
DATA_LICENSE: CC-BY3_0-IT (http://creativecommons.org/licenses/by/3.0/deed.en)
DATA_CITATION: Luzi L, Pacor F, Puglia R (2019). Italian Accelerometric Archive v 3.0 - Istituto Nazionale di Geofisica e Vulcanologia, Dipartimento della Protezione Civile Nazionale. doi: 10.13127/itaca.3.1
DATA_CREATOR: ITACA working group
ORIGINAL_DATA_MEDIATOR_CITATION: data obtained within the DPC-INGV data exchange agreements
ORIGINAL_DATA_MEDIATOR: Archive of Italian Department of Civil Protection
ORIGINAL_DATA_CREATOR_CITATION: Presidency Of Counsil Of Ministers-Civil Protection Department. (1972). Italian Strong Motion Network. Presidency of Counsil of Ministers - Civil Protection Department. https://doi.org/10.7914/SN/IT http://www.fdsn.org/networks/detail/IT/
ORIGINAL_DATA_CREATOR: network: IT (Italian Strong Motion Network (RAN)); owner: Presidency of Counsil of Ministers - Civil Protection Department (PCM - DPC)
USER1: 
USER2: 
USER3: 
USER4: 
USER5: 
[...]
6.462517e-02
6.475265e-02
6.486386e-02
6.495846e-02
6.503670e-02
6.510042e-02
6.515302e-02
6.519784e-02
6.523584e-02
6.526518e-02
6.528286e-02
6.528678e-02
6.527658e-02
6.525378e-02
6.522155e-02
6.518395e-02
6.514535e-02
6.510966e-02
6.507856e-02
6.504933e-02
6.501521e-02
6.496861e-02
6.490391e-02
6.481807e-02
6.470985e-02
6.457953e-02
6.442912e-02
6.426252e-02
6.408488e-02
6.390137e-02
6.371630e-02
6.353324e-02
6.335627e-02
6.319088e-02
6.304321e-02
6.291825e-02
6.281889e-02
6.274621e-02
6.269999e-02
6.267843e-02
6.267658e-02
6.268493e-02
6.269060e-02
6.268232e-02
6.265538e-02
6.261270e-02
6.256194e-02
6.251215e-02
6.247160e-02
6.244594e-02
6.243624e-02
6.243914e-02
6.245036e-02
6.246838e-02
6.249470e-02
6.253153e-02
6.258029e-02
6.264214e-02
6.271813e-02
6.280786e-02
6.290825e-02
6.301438e-02
6.312150e-02
6.322598e-02
6.332423e-02
6.341063e-02
6.347703e-02
6.351451e-02
6.351657e-02
6.348082e-02
6.340853e-02
6.330383e-02
6.317445e-02
6.303207e-02
6.288993e-02
6.275849e-02
6.264270e-02
6.254275e-02
6.245659e-02
6.238128e-02
6.231278e-02
6.224548e-02
6.217199e-02
6.208467e-02
6.197878e-02
6.185475e-02
6.171725e-02
6.157149e-02
6.142012e-02
6.126315e-02
6.110086e-02
6.093612e-02
6.077322e-02
6.061471e-02
6.046092e-02
6.031272e-02
6.017400e-02
6.005101e-02
5.994928e-02
5.987112e-02
5.981531e-02
5.977928e-02
5.976192e-02
5.976470e-02
5.979029e-02
5.984095e-02
5.991857e-02
6.002529e-02
6.016307e-02
6.033337e-02
6.053837e-02
6.078241e-02
6.107046e-02
6.140391e-02
6.177787e-02
6.218320e-02
6.261221e-02
6.306348e-02
6.354157e-02
6.405267e-02
6.459982e-02
6.518103e-02
6.579048e-02
6.642134e-02
6.706754e-02
6.772384e-02
6.838527e-02
6.904798e-02
6.971037e-02
7.037236e-02
7.103283e-02
7.168827e-02
7.233453e-02
7.297013e-02
7.359839e-02
7.422649e-02
7.486187e-02
7.550848e-02
7.616543e-02
7.682803e-02
7.748940e-02
7.814162e-02
7.877645e-02
7.938644e-02
7.996630e-02
8.051394e-02
8.103073e-02
8.152051e-02
8.198704e-02
8.243211e-02
8.285640e-02
8.326150e-02
8.365018e-02
8.402468e-02
8.438532e-02
8.473042e-02
8.505697e-02
8.536190e-02
8.564389e-02
8.590482e-02
8.614938e-02
8.638315e-02
8.661091e-02
8.683632e-02
8.706158e-02
8.728656e-02
8.750729e-02
8.771506e-02
8.789814e-02
8.804664e-02
8.815753e-02
8.823558e-02
8.829010e-02
8.833072e-02
8.836565e-02
8.840273e-02
8.845092e-02
8.851965e-02
8.861593e-02
8.874206e-02
8.889688e-02
8.908020e-02
8.929565e-02
8.954863e-02
8.984113e-02
9.016823e-02
9.051876e-02
9.087891e-02
9.123618e-02
9.158235e-02
9.191515e-02
9.223815e-02
9.255738e-02
9.287713e-02
9.319819e-02
9.351881e-02
9.383575e-02
9.414524e-02
9.444549e-02
9.473900e-02
9.503186e-02
9.533018e-02
9.563628e-02
9.594737e-02
9.625730e-02
9.656010e-02
9.685315e-02
9.713833e-02
9.742146e-02
9.771046e-02
9.801278e-02
9.833194e-02
9.866494e-02
9.900262e-02
9.933269e-02
9.964249e-02
9.991911e-02
1.001485e-01
1.003172e-01
1.004166e-01
1.004474e-01
1.004193e-01
1.003477e-01
1.002459e-01
1.001203e-01
9.997095e-02
9.979757e-02
9.960436e-02
9.939999e-02
9.919447e-02
9.899690e-02
9.881440e-02
9.865146e-02
9.850974e-02
9.838910e-02
9.828929e-02
9.821119e-02
9.815722e-02
9.813118e-02
9.813707e-02
9.817662e-02
9.824727e-02
9.834285e-02
9.845629e-02
9.858157e-02
9.871347e-02
9.884608e-02
9.897181e-02
9.908251e-02
9.917256e-02
9.924148e-02
9.929365e-02
9.933530e-02
9.937187e-02
9.940790e-02
9.944804e-02
9.949657e-02
9.955531e-02
9.962255e-02
9.969497e-02
9.977115e-02
9.985349e-02
9.994680e-02
1.000550e-01
1.001787e-01
1.003152e-01
1.004609e-01
1.006136e-01
1.007737e-01
1.009419e-01
1.011167e-01
1.012920e-01
1.014601e-01
1.016145e-01
1.017522e-01
1.018724e-01
1.019740e-01
1.020558e-01
1.021175e-01
1.021596e-01
1.021820e-01
1.021820e-01
1.021557e-01
1.020993e-01
1.020111e-01
1.018919e-01
1.017457e-01
1.015791e-01
1.013990e-01
1.012098e-01
1.010123e-01
1.008051e-01
1.005879e-01
1.003617e-01
1.001278e-01
9.988621e-02
9.963526e-02
9.937304e-02
9.909899e-02
9.881459e-02
9.852247e-02
9.822488e-02
9.792283e-02
9.761573e-02
9.730140e-02
9.697711e-02
9.664135e-02
9.629385e-02
9.593273e-02
9.555163e-02
9.514027e-02
9.468824e-02
9.418936e-02
9.364389e-02
9.305766e-02
9.243910e-02
9.179672e-02
9.113861e-02
9.047257e-02
8.980569e-02
8.914355e-02
8.848984e-02
8.784561e-02
8.720867e-02
8.657426e-02
8.593704e-02
8.529290e-02
8.463928e-02
8.397481e-02
8.329955e-02
8.261628e-02
8.193077e-02
8.124971e-02
8.057787e-02
7.991630e-02
7.926210e-02
7.860911e-02
7.794934e-02
7.727421e-02
7.657538e-02
7.584519e-02
7.507778e-02
7.427114e-02
7.342813e-02
7.255480e-02
7.165646e-02
7.073495e-02
6.978970e-02
6.882168e-02
6.783645e-02
6.684396e-02
6.585665e-02
6.488769e-02
6.394971e-02
6.305399e-02
6.220958e-02
6.142175e-02
6.068950e-02
6.000367e-02
5.934744e-02
5.870035e-02
5.804518e-02
5.737325e-02
5.668380e-02
5.597818e-02
5.525504e-02
5.451059e-02
5.374249e-02
5.295340e-02
5.215137e-02
5.134732e-02
5.055238e-02
4.977678e-02
4.902961e-02
4.831739e-02
4.764200e-02
4.699994e-02
4.638452e-02
4.578972e-02
4.521285e-02
4.465440e-02
4.411556e-02
4.359547e-02
4.309067e-02
4.259769e-02
4.211663e-02
4.165261e-02
4.121411e-02
4.081017e-02
4.044839e-02
4.013400e-02
3.987004e-02
3.965828e-02
3.950048e-02
3.939883e-02
3.935485e-02
3.936736e-02
3.943078e-02
3.953478e-02
3.966532e-02
3.980770e-02
3.995093e-02
4.009176e-02
4.023606e-02
4.039622e-02
4.058574e-02
4.081399e-02
4.108351e-02
4.138996e-02
4.172402e-02
4.207453e-02
4.243148e-02
4.278717e-02
4.313564e-02
4.347163e-02
4.379036e-02
4.408834e-02
4.436428e-02
4.461902e-02
4.485492e-02
4.507575e-02
4.528656e-02
4.549331e-02
4.570242e-02
4.592110e-02
4.615778e-02
4.642212e-02
4.672434e-02
4.707347e-02
4.747510e-02
4.793090e-02
4.844084e-02
4.900501e-02
4.962194e-02
5.028552e-02
5.098485e-02
5.170712e-02
5.244033e-02
5.317343e-02
5.389508e-02
5.459363e-02
5.525989e-02
5.589082e-02
5.649133e-02
5.707321e-02
5.765142e-02
5.823886e-02
5.884156e-02
5.945741e-02
6.007856e-02
6.069456e-02
6.129455e-02
6.186905e-02
6.241252e-02
6.292594e-02
6.341791e-02
6.390306e-02
6.439818e-02
6.491827e-02
6.547472e-02
6.607555e-02
6.672620e-02
6.742913e-02
6.818281e-02
6.898193e-02
6.982050e-02
7.069563e-02
7.160833e-02
7.256061e-02
7.355178e-02
7.457675e-02
7.562753e-02
7.669746e-02
7.778547e-02
7.889669e-02
8.003843e-02
8.121391e-02
8.241806e-02
8.363809e-02
8.485828e-02
8.606495e-02
8.724824e-02
8.840111e-02
8.951792e-02
9.059459e-02
9.163000e-02
9.262719e-02
9.359398e-02
9.454309e-02
9.549222e-02
9.646277e-02
9.747490e-02
9.853952e-02
9.965272e-02
1.007975e-01
1.019522e-01
1.031007e-01
1.042372e-01
1.053643e-01
1.064877e-01
1.076112e-01
1.087379e-01
1.098735e-01
1.110279e-01
1.122134e-01
1.134409e-01
1.147155e-01
1.160335e-01
1.173831e-01
1.187472e-01
1.201097e-01
1.214590e-01
1.227888e-01
1.240970e-01
1.253836e-01
1.266494e-01
1.278940e-01
1.291183e-01
1.303289e-01
1.315393e-01
1.327676e-01
1.340305e-01
1.353392e-01
1.366983e-01
1.381071e-01
1.395605e-01
1.410518e-01
1.425764e-01
1.441319e-01
1.457158e-01
1.473236e-01
1.489475e-01
1.505761e-01
1.521927e-01
1.537755e-01
1.553015e-01
1.567529e-01
1.581195e-01
1.593960e-01
1.605789e-01
1.616641e-01
1.626476e-01
1.635280e-01
1.643093e-01
1.650015e-01
1.656180e-01
1.661708e-01
1.666683e-01
1.671148e-01
1.675140e-01
1.678720e-01
1.681996e-01
1.685116e-01
1.688237e-01
1.691493e-01
1.694959e-01
1.698655e-01
1.702567e-01
1.706691e-01
1.711066e-01
1.715780e-01
1.720960e-01
1.726735e-01
1.733192e-01
1.740338e-01
1.748090e-01
1.756294e-01
1.764766e-01
1.773321e-01
1.781777e-01
1.789928e-01
1.797522e-01
1.804283e-01
1.809972e-01
1.814461e-01
1.817771e-01
1.820077e-01
1.821634e-01
1.822688e-01
1.823401e-01
1.823864e-01
1.824169e-01
1.824473e-01
1.824989e-01
1.825930e-01
1.827420e-01
1.829441e-01
1.831845e-01
1.834434e-01
1.837056e-01
1.839644e-01
1.842192e-01
1.844677e-01
1.847013e-01
1.849062e-01
1.850687e-01
1.851819e-01
1.852483e-01
1.852772e-01
1.852778e-01
1.852532e-01
1.851982e-01
1.851030e-01
1.849590e-01
1.847624e-01
1.845125e-01
1.842090e-01
1.838512e-01
1.834403e-01
1.829826e-01
1.824878e-01
1.819664e-01
1.814261e-01
1.808686e-01
1.802881e-01
1.796725e-01
1.790076e-01
1.782830e-01
1.774944e-01
1.766442e-01
1.757386e-01
1.747861e-01
1.737978e-01
1.727869e-01
1.717676e-01
1.707518e-01
1.697473e-01
1.687562e-01
1.677751e-01
1.667953e-01
1.658076e-01
1.648069e-01
1.637929e-01
1.627667e-01
1.617266e-01
1.606665e-01
1.595791e-01
1.584583e-01
1.572983e-01
1.560918e-01
1.548308e-01
1.535122e-01
1.521425e-01
1.507373e-01
1.493161e-01
1.478958e-01
1.464861e-01
1.450894e-01
1.437026e-01
1.423196e-01
1.409364e-01
1.395556e-01
1.381888e-01
1.368539e-01
1.355680e-01
1.343435e-01
1.331864e-01
1.320981e-01
1.310762e-01
1.301167e-01
1.292143e-01
1.283602e-01
1.275408e-01
1.267407e-01
1.259461e-01
1.251443e-01
1.243204e-01
1.234569e-01
1.225422e-01
1.215797e-01
1.205898e-01
1.196027e-01
1.186483e-01
1.177471e-01
1.169077e-01
1.161271e-01
1.153954e-01
1.146993e-01
1.140257e-01
1.133650e-01
1.127143e-01
1.120773e-01
1.114617e-01
1.108746e-01
1.103186e-01
1.097886e-01
1.092744e-01
1.087668e-01
1.082651e-01
1.077810e-01
1.073349e-01
1.069485e-01
1.066373e-01
1.064086e-01
1.062628e-01
1.061967e-01
1.062081e-01
1.062969e-01
1.064603e-01
1.066859e-01
1.069510e-01
1.072288e-01
1.074934e-01
1.077215e-01
1.078930e-01
1.079960e-01
1.080307e-01
1.080058e-01
1.079286e-01
1.077971e-01
1.076006e-01
1.073271e-01
1.069695e-01
1.065252e-01
1.059925e-01
1.053665e-01
1.046391e-01
1.038018e-01
1.028484e-01
1.017770e-01
1.005886e-01
9.928519e-02
9.786823e-02
9.634033e-02
9.470863e-02
9.298646e-02
9.119197e-02
8.934608e-02
8.747151e-02
8.559253e-02
8.373260e-02
8.190909e-02
8.012866e-02
7.838733e-02
7.667469e-02
7.497884e-02
7.328939e-02
7.159775e-02
6.989460e-02
6.816767e-02
6.640374e-02
6.459332e-02
6.273260e-02
6.082135e-02
5.886046e-02
5.685197e-02
5.479991e-02
5.270912e-02
5.058220e-02
4.841794e-02
4.621403e-02
4.397209e-02
4.170061e-02
3.941230e-02
3.711762e-02
3.482034e-02
3.251936e-02
3.021378e-02
2.790594e-02
2.560092e-02
2.330537e-02
2.102733e-02
1.877663e-02
1.656411e-02
1.439967e-02
1.229135e-02
1.024647e-02
8.273244e-03
6.379174e-03
4.566535e-03
2.828648e-03
1.149558e-03
-4.930314e-04
-2.122551e-03
-3.757100e-03
-5.404365e-03
-7.062030e-03
-8.724426e-03
-1.038960e-02
-1.205961e-02
-1.373421e-02
-1.540583e-02
-1.706212e-02
-1.869264e-02
-2.029209e-02
-2.185829e-02
-2.339083e-02
-2.489381e-02
-2.637942e-02
-2.786670e-02
-2.937494e-02
-3.091695e-02
-3.249712e-02
-3.411413e-02
-3.576353e-02
-3.743669e-02
-3.911902e-02
-4.079172e-02
-4.243674e-02
-4.404056e-02
-4.559441e-02
-4.709286e-02
-4.853366e-02
-4.991890e-02
-5.125524e-02
-5.255175e-02
-5.381692e-02
-5.505644e-02
-5.627115e-02
-5.745626e-02
-5.860415e-02
-5.970985e-02
-6.077584e-02
-6.181417e-02
-6.284485e-02
-6.389058e-02
-6.497038e-02
-6.609657e-02
-6.727678e-02
-6.851784e-02
-6.982607e-02
-7.120124e-02
-7.262899e-02
-7.408048e-02
-7.552060e-02
-7.691822e-02
-7.825146e-02
-7.950719e-02
-8.067750e-02
-8.175774e-02
-8.275019e-02
-8.367016e-02
-8.454671e-02
-8.541400e-02
-8.629914e-02
-8.721608e-02
-8.816900e-02
-8.916014e-02
-9.019404e-02
-9.127424e-02
-9.239640e-02
-9.354518e-02
-9.469867e-02
-9.583867e-02
-9.696149e-02
-9.808362e-02
-9.923917e-02
-1.004692e-01
-1.018077e-01
-1.032729e-01
-1.048691e-01
-1.065931e-01
-1.084399e-01
-1.104024e-01
-1.124691e-01
-1.146251e-01
-1.168537e-01
-1.191368e-01
-1.214541e-01
-1.237824e-01
-1.260970e-01
-1.283745e-01
-1.305997e-01
-1.327722e-01
-1.349098e-01
-1.370422e-01
-1.391986e-01
-1.413983e-01
-1.436496e-01
-1.459537e-01
-1.483090e-01
-1.507119e-01
-1.531560e-01
-1.556324e-01
-1.581293e-01
-1.606313e-01
-1.631187e-01
-1.655708e-01
-1.679691e-01
-1.702992e-01
-1.725499e-01
-1.747111e-01
-1.767739e-01
-1.787324e-01
-1.805846e-01
-1.823321e-01
-1.839784e-01
-1.855292e-01
-1.869930e-01
-1.883787e-01
-1.896931e-01
-1.909396e-01
-1.921217e-01
-1.932467e-01
-1.943264e-01
-1.953743e-01
-1.963997e-01
-1.974044e-01
-1.983838e-01
-1.993309e-01
-2.002425e-01
-2.011212e-01
-2.019735e-01
-2.028046e-01
-2.036140e-01
-2.043963e-01
-2.051439e-01
-2.058518e-01
-2.065206e-01
-2.071569e-01
-2.077722e-01
-2.083807e-01
-2.089974e-01
-2.096348e-01
-2.102991e-01
-2.109869e-01
-2.116859e-01
-2.123809e-01
-2.130601e-01
-2.137196e-01
-2.143618e-01
-2.149886e-01
-2.155955e-01
-2.161709e-01
-2.167026e-01
-2.171842e-01
-2.176151e-01
-2.179968e-01
-2.183294e-01
-2.186133e-01
-2.188510e-01
-2.190456e-01
-2.191953e-01
-2.192918e-01
-2.193212e-01
-2.192669e-01
-2.191107e-01
-2.188347e-01
-2.184250e-01
-2.178757e-01
-2.171870e-01
-2.163619e-01
-2.154034e-01
-2.143171e-01
-2.131141e-01
-2.118120e-01
-2.104316e-01
-2.089940e-01
-2.075186e-01
-2.060212e-01
-2.045141e-01
-2.030055e-01
-2.014996e-01
-1.999959e-01
-1.984913e-01
-1.969848e-01
-1.954846e-01
-1.940094e-01
-1.925821e-01
-1.912204e-01
-1.899304e-01
-1.887059e-01
-1.875304e-01
-1.863834e-01
-1.852450e-01
-1.840990e-01
-1.829322e-01
-1.817349e-01
-1.805000e-01
-1.792231e-01
-1.779007e-01
-1.765281e-01
-1.750993e-01
-1.736107e-01
-1.720650e-01
-1.704724e-01
-1.688460e-01
-1.671961e-01
-1.655272e-01
-1.638421e-01
-1.621475e-01
-1.604585e-01
-1.587963e-01
-1.571843e-01
-1.556437e-01
-1.541895e-01
-1.528263e-01
-1.515490e-01
-1.503476e-01
-1.492146e-01
-1.481485e-01
-1.471508e-01
-1.462194e-01
-1.453442e-01
-1.445110e-01
-1.437093e-01
-1.429379e-01
-1.422017e-01
-1.415048e-01
-1.408483e-01
-1.402336e-01
-1.396670e-01
-1.391602e-01
-1.387286e-01
-1.383877e-01
-1.381505e-01
-1.380268e-01
-1.380221e-01
-1.381366e-01
-1.383661e-01
-1.387039e-01
-1.391404e-01
-1.396616e-01
-1.402507e-01
-1.408927e-01
-1.415786e-01
-1.423056e-01
-1.430705e-01
-1.438633e-01
-1.446674e-01
-1.454661e-01
-1.462502e-01
-1.470219e-01
-1.477910e-01
-1.485685e-01
-1.493596e-01
-1.501607e-01
-1.509633e-01
-1.517620e-01
-1.525619e-01
-1.533770e-01
-1.542214e-01
-1.550988e-01
-1.559988e-01
-1.568999e-01
-1.577777e-01
-1.586124e-01
-1.593921e-01
-1.601092e-01
-1.607564e-01
-1.613261e-01
-1.618152e-01
-1.622295e-01
-1.625825e-01
-1.628894e-01
-1.631607e-01
-1.634005e-01
-1.636099e-01
-1.637927e-01
-1.639557e-01
-1.641045e-01
-1.642354e-01
-1.643330e-01
-1.643778e-01
-1.643564e-01
-1.642660e-01
-1.641097e-01
-1.638923e-01
-1.636216e-01
-1.633111e-01
-1.629802e-01
-1.626476e-01
-1.623277e-01
-1.620312e-01
-1.617682e-01
-1.615474e-01
-1.613743e-01
-1.612481e-01
-1.611594e-01
-1.610923e-01
-1.610288e-01
-1.609530e-01
-1.608548e-01
-1.607326e-01
-1.605948e-01
-1.604574e-01
-1.603350e-01
-1.602345e-01
-1.601541e-01
-1.600870e-01
-1.600245e-01
-1.599574e-01
-1.598749e-01
-1.597666e-01
-1.596261e-01
-1.594562e-01
-1.592681e-01
-1.590763e-01
-1.588926e-01
-1.587231e-01
-1.585705e-01
-1.584362e-01
-1.583203e-01
-1.582206e-01
-1.581321e-01
-1.580476e-01
-1.579563e-01
-1.578439e-01
-1.576916e-01
-1.574777e-01
-1.571800e-01
-1.567823e-01
-1.562782e-01
-1.556702e-01
-1.549634e-01
-1.541606e-01
-1.532610e-01
-1.522631e-01
-1.511685e-01
-1.499807e-01
-1.487006e-01
-1.473238e-01
-1.458443e-01
-1.442602e-01
-1.425762e-01
-1.408014e-01
-1.389448e-01
-1.370129e-01
-1.350111e-01
-1.329458e-01
-1.308258e-01
-1.286623e-01
-1.264673e-01
-1.242523e-01
-1.220262e-01
-1.197929e-01
-1.175534e-01
-1.153094e-01
-1.130698e-01
-1.108518e-01
-1.086760e-01
-1.065603e-01
-1.045158e-01
-1.025493e-01
-1.006641e-01
-9.886198e-02
-9.714409e-02
-9.551415e-02
-9.397902e-02
-9.254477e-02
-9.120986e-02
-8.996137e-02
-8.877772e-02
-8.763670e-02
-8.652416e-02
-8.543821e-02
-8.438651e-02
-8.337996e-02
-8.242836e-02
-8.154176e-02
-8.073573e-02
-8.003453e-02
-7.946636e-02
-7.905139e-02
-7.879093e-02
-7.866661e-02
-7.865009e-02
-7.871532e-02
-7.884452e-02
-7.902547e-02
-7.924526e-02
-7.948678e-02
-7.973043e-02
-7.995818e-02
-8.015659e-02
-8.031651e-02
-8.043003e-02
-8.048669e-02
-8.047212e-02
-8.036995e-02
-8.016531e-02
-7.984760e-02
-7.941177e-02
-7.885922e-02
-7.819982e-02
-7.745314e-02
-7.664559e-02
-7.580342e-02
-7.494608e-02
-7.408443e-02
-7.322324e-02
-7.236513e-02
-7.151365e-02
-7.067528e-02
-6.985977e-02
-6.907930e-02
-6.834704e-02
-6.767475e-02
-6.706994e-02
-6.653461e-02
-6.606584e-02
-6.565606e-02
-6.529344e-02
-6.496474e-02
-6.466070e-02
-6.437916e-02
-6.412171e-02
-6.388668e-02
-6.366533e-02
-6.344413e-02
-6.320932e-02
-6.294975e-02
-6.265801e-02
-6.233047e-02
-6.196601e-02
-6.156431e-02
-6.112530e-02
-6.064961e-02
-6.013869e-02
-5.959535e-02
-5.902531e-02
-5.843776e-02
-5.784287e-02
-5.724837e-02
-5.665919e-02
-5.608115e-02
-5.552513e-02
-5.500707e-02
-5.454298e-02
-5.414182e-02
-5.379990e-02
-5.349982e-02
-5.321485e-02
-5.291696e-02
-5.258371e-02
-5.220133e-02
-5.176488e-02
-5.127753e-02
-5.074838e-02
-5.018766e-02
-4.960038e-02
-4.898330e-02
-4.832895e-02
-4.763411e-02
-4.690456e-02
-4.615084e-02
-4.537948e-02
-4.458976e-02
-4.377910e-02
-4.294956e-02
-4.210741e-02
-4.125689e-02
-4.039607e-02
-3.951941e-02
-3.862460e-02
-3.771699e-02
-3.680731e-02
-3.590471e-02
-3.501074e-02
-3.411815e-02
-3.321417e-02
-3.228557e-02
-3.132240e-02
-3.031941e-02
-2.927576e-02
-2.819301e-02
-2.707062e-02
-2.590223e-02
-2.467808e-02
-2.339401e-02
-2.205929e-02
-2.069469e-02
-1.932111e-02
-1.794796e-02
-1.657010e-02
-1.517483e-02
-1.375257e-02
-1.230372e-02
-1.083830e-02
-9.370751e-03
-7.915043e-03
-6.483517e-03
-5.089107e-03
-3.746437e-03
-2.468748e-03
-1.263730e-03
-1.333716e-04
9.228645e-04
1.906494e-03
2.821307e-03
3.673834e-03
4.470743e-03
5.215499e-03
5.907860e-03
6.547136e-03
7.136275e-03
7.682363e-03
8.192394e-03
8.668555e-03
9.108107e-03
9.507575e-03
9.866456e-03
1.018704e-02
1.047123e-02
1.071752e-02
1.092033e-02
1.107201e-02
1.116671e-02
1.120401e-02
1.118919e-02
1.112907e-02
1.102579e-02
1.087226e-02
1.065139e-02
1.033847e-02
9.904821e-03
9.322182e-03
8.568138e-03
7.631133e-03
6.512459e-03
5.224062e-03
3.784157e-03
2.213574e-03
5.333342e-04
