EVENT_NAME: L_AQUILA
EVENT_ID: IT-2009-0009
EVENT_DATE_YYYYMMDD: 20090406
EVENT_TIME_HHMMSS: 013240
EVENT_LATITUDE_DEGREE: 42.3420
EVENT_LONGITUDE_DEGREE: 13.3800
EVENT_DEPTH_KM: 8.3
HYPOCENTER_REFERENCE: INGV-CNT_Seismic_Bulletin
MAGNITUDE_W: 6.1
MAGNITUDE_W_REFERENCE: INGV-CNT_Seismic_Bulletin
MAGNITUDE_L: 
MAGNITUDE_L_REFERENCE: 
FOCAL_MECHANISM: Normal faulting
NETWORK: IT
STATION_CODE: ASS
STATION_NAME: 
STATION_LATITUDE_DEGREE: 43.074982
STATION_LONGITUDE_DEGREE: 12.604141
STATION_ELEVATION_M: 390
LOCATION: 
SENSOR_DEPTH_M: 0.0
VS30_M/S: 
SITE_CLASSIFICATION_EC8: A (inferred from geology)
MORPHOLOGIC_CLASSIFICATION: 
EPICENTRAL_DISTANCE_KM: 103.3
EARTHQUAKE_BACKAZIMUTH_DEGREE: 322.3
DATE_TIME_FIRST_SAMPLE_YYYYMMDD_HHMMSS: 20090406_013234.000
DATE_TIME_FIRST_SAMPLE_PRECISION: seconds
SAMPLING_INTERVAL_S: 0.005000
NDATA: 20000
DURATION_S: 100.000
STREAM: HNE
UNITS: cm/s
INSTRUMENT: sensor = FBA-3 [Kinemetrics] | digitizer = Everest [Kinemetrics]
INSTRUMENT_ANALOG/DIGITAL: D
INSTRUMENTAL_FREQUENCY_HZ: 214.000
INSTRUMENTAL_DAMPING: 0.000000
FULL_SCALE_G: 1.0
N_BIT_DIGITAL_CONVERTER: 24
PGV_CM/S: 0.435867
TIME_PGV_S: 46.635000
BASELINE_CORRECTION: BASELINE REMOVED
FILTER_TYPE: BUTTERWORTH
FILTER_ORDER: 2
LOW_CUT_FREQUENCY_HZ: 0.060
HIGH_CUT_FREQUENCY_HZ: 40.000
LATE/NORMAL_TRIGGERED: NT
DATABASE_VERSION: 0.5
HEADER_FORMAT: DYNA 1.2
DATA_TYPE: VELOCITY
PROCESSING: manual (Paolucci et al., 2011)
DATA_TIMESTAMP_YYYYMMDD_HHMMSS: 20211011_160706.226
DATA_LICENSE: CC-BY3_0-IT (http://creativecommons.org/licenses/by/3.0/deed.en)
DATA_CITATION: Luzi L, Pacor F, Puglia R (2019). Italian Accelerometric Archive v 3.0 - Istituto Nazionale di Geofisica e Vulcanologia, Dipartimento della Protezione Civile Nazionale. doi: 10.13127/itaca.3.1
DATA_CREATOR: ITACA working group
ORIGINAL_DATA_MEDIATOR_CITATION: data obtained within the DPC-INGV data exchange agreements
ORIGINAL_DATA_MEDIATOR: Archive of Italian Department of Civil Protection
ORIGINAL_DATA_CREATOR_CITATION: Presidency Of Counsil Of Ministers-Civil Protection Department. (1972). Italian Strong Motion Network. Presidency of Counsil of Ministers - Civil Protection Department. https://doi.org/10.7914/SN/IT http://www.fdsn.org/networks/detail/IT/
ORIGINAL_DATA_CREATOR: network: IT (Italian Strong Motion Network (RAN)); owner: Presidency of Counsil of Ministers - Civil Protection Department (PCM - DPC)
USER1: 
USER2: 
USER3: 
USER4: 
USER5: 
[...]
0.079102
0.084456
0.089419
0.093725
0.097105
0.099277
0.099983
0.099025
0.096278
0.091689
0.085309
0.077312
0.067967
0.057602
0.046588
0.035340
0.024282
0.013796
0.004205
-0.004242
-0.011384
-0.017148
-0.021548
-0.024686
-0.026730
-0.027897
-0.028415
-0.028486
-0.028286
-0.027968
-0.027663
-0.027451
-0.027360
-0.027381
-0.027481
-0.027598
-0.027650
-0.027551
-0.027203
-0.026481
-0.025238
-0.023330
-0.020621
-0.016985
-0.012339
-0.006687
-0.000105
0.007278
0.015284
0.023669
0.032129
0.040317
0.047861
0.054386
0.059550
0.063070
0.064734
0.064407
0.062032
0.057648
0.051387
0.043426
0.033970
0.023292
0.011747
-0.000284
-0.012427
-0.024316
-0.035595
-0.045959
-0.055171
-0.063056
-0.069500
-0.074459
-0.077974
-0.080155
-0.081162
-0.081178
-0.080397
-0.079019
-0.077222
-0.075154
-0.072935
-0.070678
-0.068509
-0.066579
-0.065067
-0.064150
-0.063987
-0.064697
-0.066349
-0.068944
-0.072405
-0.076588
-0.081289
-0.086283
-0.091355
-0.096335
-0.101114
-0.105645
-0.109934
-0.114020
-0.117989
-0.121975
-0.126112
-0.130489
-0.135165
-0.140183
-0.145544
-0.151167
-0.156905
-0.162576
-0.167984
-0.172940
-0.177290
-0.180939
-0.183844
-0.186003
-0.187431
-0.188136
-0.188115
-0.187338
-0.185766
-0.183366
-0.180138
-0.176101
-0.171312
-0.165874
-0.159941
-0.153689
-0.147283
-0.140857
-0.134525
-0.128402
-0.122597
-0.117193
-0.112247
-0.107821
-0.103994
-0.100856
-0.098485
-0.096934
-0.096223
-0.096312
-0.097085
-0.098361
-0.099910
-0.101462
-0.102722
-0.103382
-0.103148
-0.101793
-0.099197
-0.095334
-0.090255
-0.084121
-0.077195
-0.069793
-0.062244
-0.054907
-0.048172
-0.042413
-0.037931
-0.034972
-0.033738
-0.034353
-0.036820
-0.041021
-0.046766
-0.053802
-0.061832
-0.070537
-0.079596
-0.088708
-0.097601
-0.106035
-0.113810
-0.120763
-0.126779
-0.131785
-0.135738
-0.138608
-0.140383
-0.141071
-0.140684
-0.139238
-0.136765
-0.133324
-0.128994
-0.123884
-0.118133
-0.111893
-0.105313
-0.098531
-0.091687
-0.084928
-0.078405
-0.072270
-0.066657
-0.061667
-0.057339
-0.053649
-0.050536
-0.047915
-0.045677
-0.043677
-0.041736
-0.039654
-0.037246
-0.034386
-0.031022
-0.027152
-0.022822
-0.018132
-0.013240
-0.008330
-0.003593
0.000792
0.004657
0.007852
0.010248
0.011732
0.012226
0.011705
0.010207
0.007829
0.004731
0.001129
-0.002713
-0.006496
-0.009899
-0.012628
-0.014445
-0.015134
-0.014488
-0.012357
-0.008682
-0.003487
0.003098
0.010807
0.019241
0.027927
0.036348
0.043974
0.050292
0.054843
0.057266
0.057329
0.054961
0.050236
0.043364
0.034688
0.024655
0.013763
0.002534
-0.008517
-0.018925
-0.028295
-0.036285
-0.042625
-0.047147
-0.049779
-0.050512
-0.049393
-0.046526
-0.042068
-0.036238
-0.029303
-0.021543
-0.013207
-0.004522
0.004283
0.012996
0.021444
0.029510
0.037113
0.044195
0.050728
0.056715
0.062196
0.067264
0.072079
0.076865
0.081866
0.087309
0.093387
0.100251
0.107996
0.116653
0.126184
0.136459
0.147228
0.158122
0.168689
0.178444
0.186884
0.193524
0.197944
0.199813
0.198899
0.195077
0.188348
0.178844
0.166815
0.152602
0.136594
0.119181
0.100750
0.081706
0.062447
0.043306
0.024548
0.006413
-0.010883
-0.027186
-0.042413
-0.056535
-0.069545
-0.081443
-0.092239
-0.101974
-0.110703
-0.118490
-0.125414
-0.131575
-0.137074
-0.141971
-0.146284
-0.150002
-0.153099
-0.155532
-0.157261
-0.158263
-0.158549
-0.158159
-0.157153
-0.155597
-0.153556
-0.151095
-0.148268
-0.145087
-0.141522
-0.137531
-0.133108
-0.128296
-0.123163
-0.117786
-0.112248
-0.106649
-0.101095
-0.095680
-0.090491
-0.085613
-0.081133
-0.077132
-0.073692
-0.070872
-0.068694
-0.067138
-0.066144
-0.065606
-0.065367
-0.065238
-0.065015
-0.064497
-0.063487
-0.061776
-0.059152
-0.055445
-0.050540
-0.044351
-0.036822
-0.027964
-0.017873
-0.006695
0.005381
0.018121
0.031256
0.044508
0.057588
0.070198
0.082020
0.092743
0.102109
0.109894
0.115877
0.119869
0.121754
0.121479
0.119040
0.114500
0.107997
0.099740
0.089989
0.079040
0.067191
0.054721
0.041908
0.029039
0.016392
0.004224
-0.007230
-0.017758
-0.027173
-0.035316
-0.042059
-0.047306
-0.050987
-0.053078
-0.053613
-0.052682
-0.050428
-0.047054
-0.042825
-0.038031
-0.032973
-0.027963
-0.023333
-0.019387
-0.016379
-0.014520
-0.013988
-0.014897
-0.017274
-0.021086
-0.026264
-0.032697
-0.040222
-0.048623
-0.057638
-0.066977
-0.076335
-0.085376
-0.093731
-0.101044
-0.107033
-0.111514
-0.114383
-0.115635
-0.115370
-0.113743
-0.110910
-0.107026
-0.102264
-0.096801
-0.090798
-0.084401
-0.077742
-0.070924
-0.064015
-0.057061
-0.050094
-0.043133
-0.036194
-0.029301
-0.022477
-0.015736
-0.009066
-0.002427
0.004234
0.010975
0.017859
0.024961
0.032343
0.040056
0.048143
0.056640
0.065548
0.074828
0.084406
0.094158
0.103905
0.113426
0.122487
0.130867
0.138380
0.144884
0.150281
0.154527
0.157638
0.159706
0.160903
0.161459
0.161619
0.161598
0.161575
0.161690
0.162027
0.162578
0.163247
0.163870
0.164235
0.164111
0.163288
0.161596
0.158917
0.155166
0.150284
0.144231
0.136998
0.128609
0.119142
0.108721
0.097506
0.085677
0.073436
0.061000
0.048611
0.036544
0.025101
0.014585
0.005282
-0.002547
-0.008676
-0.012948
-0.015300
-0.015780
-0.014532
-0.011761
-0.007689
-0.002531
0.003494
0.010175
0.017314
0.024721
0.032201
0.039566
0.046670
0.053410
0.059715
0.065558
0.070967
0.076020
0.080828
0.085538
0.090331
0.095391
0.100884
0.106940
0.113628
0.120948
0.128816
0.137080
0.145519
0.153860
0.161792
0.169004
0.175219
0.180209
0.183796
0.185854
0.186282
0.185005
0.181973
0.177175
0.170619
0.162318
0.152301
0.140639
0.127443
0.112862
0.097078
0.080302
0.062786
0.044837
0.026789
0.008974
-0.008247
-0.024440
-0.039137
-0.051926
-0.062500
-0.070640
-0.076197
-0.079098
-0.079360
-0.077078
-0.072451
-0.065801
-0.057585
-0.048373
-0.038776
-0.029351
-0.020532
-0.012616
-0.005775
-0.000056
0.004601
0.008310
0.011205
0.013465
0.015346
0.017179
0.019310
0.022051
0.025656
0.030309
0.036105
0.043003
0.050832
0.059383
0.068482
0.077972
0.087705
0.097580
0.107548
0.117545
0.127433
0.137007
0.146041
0.154301
0.161506
0.167326
0.171428
0.173516
0.173330
0.170645
0.165312
0.157288
0.146621
0.133453
0.118013
0.100582
0.081486
0.061113
0.039893
0.018231
-0.003542
-0.025127
-0.046231
-0.066580
-0.085927
-0.104081
-0.120919
-0.136343
-0.150232
-0.162452
-0.172867
-0.181325
-0.187653
-0.191683
-0.193285
-0.192400
-0.189057
-0.183376
-0.175523
-0.165720
-0.154281
-0.141589
-0.128045
-0.114066
-0.100134
-0.086781
-0.074540
-0.063893
-0.055248
-0.048913
-0.045070
-0.043764
-0.044944
-0.048494
-0.054201
-0.061728
-0.070654
-0.080538
-0.090961
-0.101540
-0.111937
-0.121860
-0.131078
-0.139437
-0.146848
-0.153287
-0.158779
-0.163386
-0.167173
-0.170176
-0.172391
-0.173807
-0.174422
-0.174246
-0.173294
-0.171629
-0.169372
-0.166684
-0.163729
-0.160697
-0.157809
-0.155283
-0.153300
-0.151995
-0.151485
-0.151889
-0.153327
-0.155865
-0.159483
-0.164093
-0.169583
-0.175826
-0.182678
-0.189963
-0.197466
-0.204961
-0.212257
-0.219224
-0.225775
-0.231875
-0.237548
-0.242829
-0.247679
-0.251959
-0.255491
-0.258125
-0.259780
-0.260412
-0.259943
-0.258281
-0.255392
-0.251288
-0.245991
-0.239547
-0.232091
-0.223836
-0.215015
-0.205809
-0.196326
-0.186636
-0.176815
-0.166947
-0.157090
-0.147247
-0.137402
-0.127586
-0.117876
-0.108342
-0.099008
-0.089845
-0.080795
-0.071786
-0.062734
-0.053549
-0.044169
-0.034589
-0.024831
-0.014894
-0.004755
0.005585
0.016064
0.026582
0.037021
0.047197
0.056836
0.065630
0.073296
0.079585
0.084301
0.087334
0.088675
0.088398
0.086649
0.083633
0.079564
0.074653
0.069146
0.063335
0.057499
0.051841
0.046464
0.041403
0.036687
0.032368
0.028509
0.025174
0.022471
0.020555
0.019587
0.019695
0.020988
0.023571
0.027503
0.032771
0.039301
0.046965
0.055595
0.064991
0.074920
0.085086
0.095150
0.104787
0.113697
0.121588
0.128188
0.133296
0.136796
0.138624
0.138744
0.137158
0.133927
0.129153
0.122959
0.115493
0.106938
0.097531
0.087528
0.077190
0.066774
0.056531
0.046665
0.037320
0.028588
0.020531
0.013188
0.006567
0.000646
-0.004582
-0.009095
-0.012852
-0.015828
-0.018017
-0.019413
-0.020027
-0.019916
-0.019188
-0.017955
-0.016329
-0.014417
-0.012324
-0.010147
-0.007953
-0.005766
-0.003560
-0.001266
0.001213
0.003996
0.007233
0.011079
0.015647
0.021008
0.027216
0.034311
0.042274
0.051029
0.060480
0.070524
0.081023
0.091780
0.102565
0.113146
0.123319
0.132903
0.141741
0.149708
0.156741
0.162848
0.168084
0.172521
0.176241
0.179322
0.181806
0.183692
0.184955
0.185545
0.185381
0.184361
0.182389
0.179374
0.175223
0.169851
0.163212
0.155313
0.146223
0.136086
0.125134
0.113674
0.102066
0.090687
0.079921
0.070144
0.061722
0.054974
0.050126
0.047284
0.046462
0.047624
0.050691
0.055515
0.061859
0.069429
0.077902
0.086939
0.096179
0.105276
0.113935
0.121917
0.129015
0.135045
0.139862
0.143364
0.145498
0.146260
0.145697
0.143909
0.141032
0.137194
0.132521
0.127158
0.121266
0.115005
0.108501
0.101828
0.095024
0.088111
0.081080
0.073885
0.066461
0.058748
0.050685
0.042208
0.033265
0.023821
0.013855
0.003350
-0.007686
-0.019214
-0.031154
-0.043403
-0.055852
-0.068389
-0.080907
-0.093295
-0.105445
-0.117260
-0.128663
-0.139579
-0.149930
-0.159649
-0.168673
-0.176920
-0.184260
-0.190537
-0.195568
-0.199147
-0.201053
-0.201067
-0.198978
-0.194590
-0.187754
-0.178367
-0.166385
-0.151845
-0.134877
-0.115676
-0.094482
-0.071575
-0.047274
-0.021913
0.004178
0.030680
0.057276
0.083636
0.109436
0.134378
0.158180
0.180555
0.201237
0.220013
0.236733
0.251272
0.263521
0.273412
0.280943
0.286183
0.289260
0.290352
0.289679
0.287499
0.284068
0.279624
0.274364
0.268434
0.261918
0.254861
0.247275
0.239113
0.230280
0.220701
0.210361
0.199237
0.187218
0.174117
0.159786
0.144181
0.127297
0.109104
0.089592
0.068849
0.047038
0.024371
0.001127
-0.022393
-0.045916
-0.069148
-0.091712
-0.113208
-0.133293
-0.151661
-0.168012
-0.182085
-0.193680
-0.202621
-0.208738
-0.211929
-0.212191
-0.209571
-0.204104
-0.195865
-0.185056
-0.171966
-0.156856
-0.139961
-0.121575
-0.102074
-0.081872
-0.061343
-0.040780
-0.020439
-0.000620
0.018328
0.036107
0.052536
0.067515
0.080947
0.092706
0.102622
0.110511
0.116254
0.119862
0.121418
0.120996
0.118665
0.114524
0.108669
0.101214
0.092377
0.082516
0.072054
0.061407
0.050961
0.041038
0.031853
0.023494
0.015932
0.009036
0.002598
-0.003592
-0.009673
-0.015756
-0.022008
-0.028629
-0.035775
-0.043537
-0.051992
-0.061208
-0.071226
-0.082023
-0.093481
-0.105408
-0.117555
-0.129644
-0.141411
-0.152667
-0.163289
-0.173192
-0.182311
-0.190611
-0.198096
-0.204772
-0.210644
-0.215742
-0.220122
-0.223817
-0.226797
-0.228958
-0.230155
-0.230259
-0.229199
-0.226952
-0.223524
-0.218933
-0.213200
-0.206335
-0.198334
-0.189172
-0.178833
-0.167343
-0.154786
-0.141293
-0.127033
-0.112160
-0.096810
-0.081140
-0.065367
-0.049747
-0.034530
-0.019923
-0.006076
0.006920
0.019031
0.030275
0.040695
0.050317
0.059144
0.067170
0.074380
0.080719
0.086061
0.090226
0.093011
0.094242
0.093771
0.091473
0.087259
0.081102
0.073035
0.063132
0.051512
0.038370
0.023985
0.008654
-0.007364
-0.023830
-0.040505
-0.057182
-0.073723
-0.090074
-0.106249
-0.122287
-0.138208
-0.153990
-0.169575
-0.184860
-0.199668
-0.213757
-0.226858
-0.238676
-0.248886
-0.257145
-0.263123
-0.266504
-0.266993
-0.264333
-0.258335
-0.248890
-0.235966
-0.219616
-0.200013
-0.177470
-0.152409
-0.125308
-0.096666
-0.066992
-0.036790
-0.006553
0.023249
0.052214
0.080030
0.106451
0.131253
0.154240
0.175267
0.194215
0.210955
0.225348
0.237266
0.246615
0.253336
0.257409
0.258864
0.257785
0.254297
0.248573
0.240851
0.231422
0.220594
0.208681
0.196005
0.182865
0.169528
0.156210
0.143078
0.130232
0.117708
0.105482
0.093488
0.081639
0.069851
0.058082
0.046356
0.034763
0.023420
0.012446
0.001962
-0.007911
-0.017066
-0.025407
-0.032856
-0.039368
-0.044923
-0.049476
-0.052958
-0.055338
-0.056661
-0.057026
-0.056550
-0.055384
-0.053757
-0.051975
-0.050372
-0.049244
-0.048827
-0.049311
-0.050859
-0.053579
-0.057491
-0.062556
-0.068681
-0.075689
-0.083327
-0.091325
-0.099434
-0.107431
-0.115106
-0.122284
-0.128843
-0.134679
-0.139679
-0.143754
-0.146891
-0.149138
-0.150572
-0.151285
-0.151409
-0.151091
-0.150442
-0.149554
-0.148549
-0.147522
-0.146472
-0.145311
-0.143903
-0.142042
-0.139485
-0.136039
-0.131542
-0.125810
-0.118669
-0.109987
-0.099637
-0.087482
-0.073404
-0.057339
-0.039306
-0.019401
0.002238
0.025439
0.050001
0.075703
0.102325
0.129626
0.157320
0.185079
0.212575
0.239505
0.265566
0.290460
0.313905
0.335638
0.355412
0.373043
0.388430
0.401528
0.412319
0.420842
0.427222
0.431656
0.434378
0.435669
0.435867
0.435334
0.434401
0.433337
0.432339
0.431524
0.430923
0.430514
0.430281
0.430212
0.430250
0.430268
0.430096
0.429541
0.428408
0.426496
0.423608
0.419568
0.414235
0.407493
0.399257
0.389477
0.378142
0.365271
0.350895
0.335016
0.317611
0.298671
0.278214
0.256267
0.232889
0.208233
0.182541
0.156101
0.129194
0.102089
0.075059
0.048364
0.022219
-0.003187
-0.027623
-0.050804
-0.072462
-0.092401
-0.110488
-0.126620
-0.140719
-0.152718
-0.162556
-0.170186
-0.175571
-0.178664
-0.179391
-0.177706
-0.173637
-0.167276
-0.158760
-0.148292
-0.136182
-0.122848
-0.108791
-0.094564
-0.080737
-0.067864
-0.056413
-0.046704
-0.038914
-0.033129
-0.029375
-0.027618
-0.027751
-0.029598
-0.032927
-0.037461
-0.042907
-0.049004
-0.055562
-0.062445
-0.069512
-0.076599
-0.083555
-0.090233
-0.096479
-0.102158
-0.107205
-0.111639
-0.115527
-0.118978
-0.122154
-0.125291
-0.128687
-0.132658
-0.137502
-0.143460
-0.150684
-0.159217
-0.169010
-0.179918
-0.191663
-0.203837
-0.216002
-0.227752
-0.238677
-0.248373
-0.256519
-0.262912
-0.267421
-0.269913
-0.270261
-0.268410
-0.264391
-0.258277
-0.250177
-0.240267
-0.228804
-0.216108
-0.202529
-0.188445
-0.174218
-0.160119
-0.146318
-0.132958
-0.120197
-0.108169
-0.096984
-0.086776
-0.077669
-0.069730
-0.062974
-0.057422
-0.053139
-0.050182
-0.048520
-0.048006
-0.048440
-0.049624
-0.051365
-0.053489
-0.055873
-0.058434
-0.061094
-0.063783
-0.066445
-0.069051
-0.071635
-0.074291
-0.077106
-0.080125
-0.083343
-0.086701
-0.090104
-0.093437
-0.096577
-0.099389
-0.101724
-0.103448
-0.104468
-0.104729
-0.104236
-0.103066
-0.101357
-0.099295
-0.097115
-0.095087
-0.093494
-0.092619
-0.092719
-0.093978
-0.096510
-0.100375
-0.105554
-0.111921
-0.119289
-0.127458
-0.136230
-0.145427
-0.154900
-0.164535
-0.174235
-0.183917
-0.193489
-0.202854
-0.211921
-0.220579
-0.228660
-0.235965
-0.242313
-0.247569
-0.251644
-0.254493
-0.256113
-0.256521
-0.255739
-0.253802
-0.250755
-0.246636
-0.241470
-0.235283
-0.228103
-0.219960
-0.210864
-0.200834
-0.189941
-0.178317
-0.166119
-0.153510
-0.140658
-0.127750
-0.114970
-0.102489
-0.090451
-0.078980
-0.068195
-0.058223
-0.049157
-0.041028
-0.033822
-0.027492
-0.021929
-0.016956
-0.012372
-0.007989
-0.003625
0.000894
0.005735
0.011050
0.016966
0.023591
0.031050
0.039485
0.049012
0.059691
0.071542
0.084533
0.098577
0.113572
0.129417
0.145973
0.163019
0.180251
0.197308
0.213801
0.229347
0.243606
0.256301
0.267233
0.276301
0.283510
0.288973
0.292889
0.295527
0.297193
0.298189
0.298752
0.299068
0.299304
0.299579
0.299936
0.300374
0.300885
0.301439
0.301968
0.302394
0.302656
0.302698
0.302465
0.301892
0.300900
0.299403
0.297347
0.294723
0.291544
0.287856
0.283744
0.279290
0.274547
0.269549
0.264348
0.259032
0.253684
0.248347
0.243050
0.237840
0.232775
0.227896
0.223205
0.218672
0.214270
0.209979
0.205774
0.201599
0.197389
0.193095
0.188698
0.184206
0.179661
0.175145
0.170766
0.166625
0.162823
0.159472
0.156676
0.154480
0.152855
0.151727
0.151012
0.150621
0.150444
0.150363
0.150262
0.150035
0.149577
0.148781
0.147541
0.145748
0.143270
0.139946
0.135625
0.130211
0.123660
0.115951
0.107072
0.097025
0.085870
0.073742
0.060841
0.047394
0.033633
0.019799
0.006129
-0.007168
-0.019919
-0.031985
-0.043262
-0.053684
-0.063236
-0.071954
-0.079899
-0.087117
-0.093620
-0.099410
-0.104492
-0.108881
-0.112600
-0.115680
-0.118153
-0.120053
-0.121443
-0.122418
-0.123080
-0.123516
-0.123802
-0.123998
-0.124156
-0.124316
-0.124516
-0.124798
-0.125197
-0.125718
-0.126329
-0.126975
-0.127587
-0.128069
-0.128311
-0.128205
-0.127634
-0.126467
-0.124591
-0.121931
-0.118439
-0.114092
-0.108912
-0.102953
-0.096294
-0.089025
-0.081263
-0.073126
-0.064734
-0.056213
-0.047703
-0.039340
-0.031250
-0.023554
-0.016367
-0.009799
-0.003964
0.001035
0.005118
0.008220
0.010281
0.011274
0.011249
0.010325
0.008674
0.006507
0.004080
0.001679
-0.000409
-0.001916
-0.002596
-0.002245
-0.000726
0.002002
0.005875
0.010750
0.016425
0.022652
0.029143
0.035595
0.041721
0.047245
0.051891
0.055396
0.057549
0.058186
0.057177
0.054448
0.050030
0.044060
0.036719
0.028200
0.018705
0.008435
-0.002419
-0.013670
-0.025104
-0.036492
-0.047615
-0.058274
-0.068276
-0.077437
-0.085612
-0.092706
-0.098670
-0.103490
-0.107213
-0.109953
-0.111858
-0.113077
-0.113772
-0.114137
-0.114349
-0.114528
-0.114720
-0.114914
-0.115068
-0.115126
-0.115035
-0.114738
-0.114181
-0.113325
-0.112162
-0.110719
-0.109045
-0.107203
-0.105256
-0.103257
-0.101271
-0.099372
-0.097639
-0.096133
-0.094882
-0.093897
-0.093191
-0.092801
-0.092762
-0.093109
-0.093865
-0.095033
-0.096589
-0.098488
-0.100664
-0.103015
-0.105407
-0.107712
-0.109810
-0.111590
-0.112959
-0.113866
-0.114312
-0.114344
-0.114034
-0.113486
-0.112839
-0.112268
-0.111944
-0.112017
-0.112624
-0.113889
-0.115899
-0.118685
-0.122223
-0.126439
-0.131199
-0.136309
-0.141543
-0.146631
-0.151253
-0.155062
-0.157732
-0.158985
-0.158609
-0.156470
-0.152527
-0.146818
-0.139443
-0.130567
-0.120421
-0.109278
-0.097429
-0.085155
-0.072726
-0.060387
-0.048342
-0.036764
-0.025787
-0.015501
-0.005975
0.002731
0.010573
0.017542
0.023673
0.029029
0.033696
0.037791
0.041455
0.044842
0.048105
0.051394
0.054837
0.058524
0.062499
0.066751
0.071224
0.075840
0.080504
0.085102
0.089505
0.093584
0.097216
0.100280
0.102672
0.104299
0.105084
0.104972
0.103944
0.102013
0.099217
0.095617
