EVENT_NAME: L_AQUILA
EVENT_ID: IT-2009-0009
EVENT_DATE_YYYYMMDD: 20090406
EVENT_TIME_HHMMSS: 013240
EVENT_LATITUDE_DEGREE: 42.3420
EVENT_LONGITUDE_DEGREE: 13.3800
EVENT_DEPTH_KM: 8.3
HYPOCENTER_REFERENCE: INGV-CNT_Seismic_Bulletin
MAGNITUDE_W: 6.1
MAGNITUDE_W_REFERENCE: INGV-CNT_Seismic_Bulletin
MAGNITUDE_L: 
MAGNITUDE_L_REFERENCE: 
FOCAL_MECHANISM: Normal faulting
NETWORK: IT
STATION_CODE: ASS
STATION_NAME: 
STATION_LATITUDE_DEGREE: 43.074982
STATION_LONGITUDE_DEGREE: 12.604141
STATION_ELEVATION_M: 390
LOCATION: 
SENSOR_DEPTH_M: 0.0
VS30_M/S: 
SITE_CLASSIFICATION_EC8: A (inferred from geology)
MORPHOLOGIC_CLASSIFICATION: 
EPICENTRAL_DISTANCE_KM: 103.3
EARTHQUAKE_BACKAZIMUTH_DEGREE: 322.3
DATE_TIME_FIRST_SAMPLE_YYYYMMDD_HHMMSS: 
DATE_TIME_FIRST_SAMPLE_PRECISION: 
SAMPLING_INTERVAL_S: 
NDATA: 105
DURATION_S: 
STREAM: HNE
UNITS: cm/s^2
INSTRUMENT: sensor = FBA-3 [Kinemetrics] | digitizer = Everest [Kinemetrics]
INSTRUMENT_ANALOG/DIGITAL: D
INSTRUMENTAL_FREQUENCY_HZ: 214.000
INSTRUMENTAL_DAMPING: 0.000000
FULL_SCALE_G: 1.0
N_BIT_DIGITAL_CONVERTER: 24
PGA_CM/S^2: 6.047272
TIME_PGA_S: 
BASELINE_CORRECTION: BASELINE REMOVED
FILTER_TYPE: BUTTERWORTH
FILTER_ORDER: 2
LOW_CUT_FREQUENCY_HZ: 0.060
HIGH_CUT_FREQUENCY_HZ: 40.000
LATE/NORMAL_TRIGGERED: NT
DATABASE_VERSION: 0.5
HEADER_FORMAT: DYNA 1.2
DATA_TYPE: ACCELERATION RESPONSE SPECTRUM
PROCESSING: manual (Paolucci et al., 2011)
DATA_TIMESTAMP_YYYYMMDD_HHMMSS: 20211011_160707.484
DATA_LICENSE: CC-BY3_0-IT (http://creativecommons.org/licenses/by/3.0/deed.en)
DATA_CITATION: Luzi L, Pacor F, Puglia R (2019). Italian Accelerometric Archive v 3.0 - Istituto Nazionale di Geofisica e Vulcanologia, Dipartimento della Protezione Civile Nazionale. doi: 10.13127/itaca.3.1
DATA_CREATOR: ITACA working group
ORIGINAL_DATA_MEDIATOR_CITATION: data obtained within the DPC-INGV data exchange agreements
ORIGINAL_DATA_MEDIATOR: Archive of Italian Department of Civil Protection
ORIGINAL_DATA_CREATOR_CITATION: Presidency Of Counsil Of Ministers-Civil Protection Department. (1972). Italian Strong Motion Network. Presidency of Counsil of Ministers - Civil Protection Department. https://doi.org/10.7914/SN/IT http://www.fdsn.org/networks/detail/IT/
ORIGINAL_DATA_CREATOR: network: IT (Italian Strong Motion Network (RAN)); owner: Presidency of Counsil of Ministers - Civil Protection Department (PCM - DPC)
USER1: 
USER2: 
USER3: 
USER4: 
USER5: 
    0.010000     6.059043
    0.020000     6.086460
    0.022000     6.102201
    0.025000     6.114544
    0.029000     6.118764
    0.030000     6.125264
    0.032000     6.139895
    0.035001     6.142602
    0.036000     6.159643
    0.040000     6.205760
    0.041999     6.212022
    0.044001     6.233952
    0.045000     6.253467
    0.046000     6.249334
    0.048001     6.260649
    0.050000     6.306835
    0.054999     6.493083
    0.059999     6.625304
    0.064998     6.634201
    0.067002     6.746794
    0.069999     6.777279
    0.075002     6.603190
    0.080000     6.800544
    0.084998     7.667222
    0.090001     8.042397
    0.095003     8.913850
    0.100000     9.759351
    0.109999     9.083909
    0.120005    10.670632
    0.130005    13.323906
    0.132996    14.022367
    0.139997    13.741172
    0.149993    12.485163
    0.160000    13.347136
    0.170010    14.345265
    0.179986    12.585320
    0.190006    13.141055
    0.200000    12.170810
    0.220022    14.064928
    0.239981    16.828850
    0.250000    18.013844
    0.260010    19.450935
    0.280034    16.846388
    0.290023    19.417015
    0.300030    22.117933
    0.320000    25.257492
    0.340020    25.017992
    0.350017    25.046556
    0.359971    23.322742
    0.379939    16.146694
    0.400000    14.806982
    0.419992    15.189332
    0.439947    13.612259
    0.450045    13.098891
    0.459982    12.525108
    0.480077    13.234022
    0.500000    16.090181
    0.550055    14.159883
    0.599880     9.754539
    0.650195    10.316913
    0.667111    10.215719
    0.699790     8.911468
    0.750188     6.775653
    0.800000     5.792515
    0.850340     5.471161
    0.900090     4.545941
    0.949668     3.941630
    1.000000     3.604361
    1.100110     3.784312
    1.200480     4.471810
    1.300390     4.520835
    1.400560     3.047221
    1.499250     2.697709
    1.600000     3.149719
    1.700680     3.072369
    1.798561     2.802764
    1.901141     2.443875
    2.000000     1.942811
    2.197802     1.514967
    2.398082     1.299441
    2.500000     1.339939
    2.597403     1.339707
    2.801121     1.105734
    3.003003     0.996159
    3.205128     1.062337
    3.401361     1.041910
    3.496503     0.946223
    3.597122     0.842282
    3.802281     0.636424
    4.000000     0.609881
    4.201681     0.643885
    4.405286     0.647414
    4.608295     0.555817
    4.807692     0.474982
    5.000000     0.481940
    5.494505     0.364615
    5.988024     0.241021
    6.493506     0.226227
    6.993007     0.214468
    7.518797     0.159466
    8.000000     0.136704
    8.474576     0.118040
    9.009009     0.093353
    9.523809     0.078370
   10.000000     0.071179
