EVENT_NAME: L_AQUILA
EVENT_ID: IT-2009-0009
EVENT_DATE_YYYYMMDD: 20090406
EVENT_TIME_HHMMSS: 013240
EVENT_LATITUDE_DEGREE: 42.3420
EVENT_LONGITUDE_DEGREE: 13.3800
EVENT_DEPTH_KM: 8.3
HYPOCENTER_REFERENCE: INGV-CNT_Seismic_Bulletin
MAGNITUDE_W: 6.1
MAGNITUDE_W_REFERENCE: INGV-CNT_Seismic_Bulletin
MAGNITUDE_L: 
MAGNITUDE_L_REFERENCE: 
FOCAL_MECHANISM: Normal faulting
NETWORK: IT
STATION_CODE: ASS
STATION_NAME: 
STATION_LATITUDE_DEGREE: 43.074982
STATION_LONGITUDE_DEGREE: 12.604141
STATION_ELEVATION_M: 390
LOCATION: 
SENSOR_DEPTH_M: 0.0
VS30_M/S: 
SITE_CLASSIFICATION_EC8: A (inferred from geology)
MORPHOLOGIC_CLASSIFICATION: 
EPICENTRAL_DISTANCE_KM: 103.3
EARTHQUAKE_BACKAZIMUTH_DEGREE: 322.3
DATE_TIME_FIRST_SAMPLE_YYYYMMDD_HHMMSS: 
DATE_TIME_FIRST_SAMPLE_PRECISION: 
SAMPLING_INTERVAL_S: 
NDATA: 105
DURATION_S: 
STREAM: HNZ
UNITS: cm
INSTRUMENT: sensor = FBA-3 [Kinemetrics] | digitizer = Everest [Kinemetrics]
INSTRUMENT_ANALOG/DIGITAL: D
INSTRUMENTAL_FREQUENCY_HZ: 216.000
INSTRUMENTAL_DAMPING: 0.000000
FULL_SCALE_G: 1.0
N_BIT_DIGITAL_CONVERTER: 24
PGD_CM: -0.171407
TIME_PGD_S: 
BASELINE_CORRECTION: BASELINE REMOVED
FILTER_TYPE: BUTTERWORTH
FILTER_ORDER: 2
LOW_CUT_FREQUENCY_HZ: 0.060
HIGH_CUT_FREQUENCY_HZ: 40.000
LATE/NORMAL_TRIGGERED: NT
DATABASE_VERSION: 0.5
HEADER_FORMAT: DYNA 1.2
DATA_TYPE: DISPLACEMENT RESPONSE SPECTRUM
PROCESSING: manual (Paolucci et al., 2011)
DATA_TIMESTAMP_YYYYMMDD_HHMMSS: 20211011_160708.220
DATA_LICENSE: CC-BY3_0-IT (http://creativecommons.org/licenses/by/3.0/deed.en)
DATA_CITATION: Luzi L, Pacor F, Puglia R (2019). Italian Accelerometric Archive v 3.0 - Istituto Nazionale di Geofisica e Vulcanologia, Dipartimento della Protezione Civile Nazionale. doi: 10.13127/itaca.3.1
DATA_CREATOR: ITACA working group
ORIGINAL_DATA_MEDIATOR_CITATION: data obtained within the DPC-INGV data exchange agreements
ORIGINAL_DATA_MEDIATOR: Archive of Italian Department of Civil Protection
ORIGINAL_DATA_CREATOR_CITATION: Presidency Of Counsil Of Ministers-Civil Protection Department. (1972). Italian Strong Motion Network. Presidency of Counsil of Ministers - Civil Protection Department. https://doi.org/10.7914/SN/IT http://www.fdsn.org/networks/detail/IT/
ORIGINAL_DATA_CREATOR: network: IT (Italian Strong Motion Network (RAN)); owner: Presidency of Counsil of Ministers - Civil Protection Department (PCM - DPC)
USER1: 
USER2: 
USER3: 
USER4: 
USER5: 
    0.010000     0.000005
    0.020000     0.000022
    0.022000     0.000027
    0.025000     0.000034
    0.029000     0.000046
    0.030000     0.000050
    0.032000     0.000057
    0.035001     0.000068
    0.036000     0.000072
    0.040000     0.000091
    0.041999     0.000101
    0.044001     0.000110
    0.045000     0.000115
    0.046000     0.000120
    0.048001     0.000131
    0.050000     0.000142
    0.054999     0.000174
    0.059999     0.000206
    0.064998     0.000241
    0.067002     0.000260
    0.069999     0.000296
    0.075002     0.000369
    0.080000     0.000452
    0.084998     0.000514
    0.090001     0.000641
    0.095003     0.000831
    0.100000     0.000948
    0.109999     0.001255
    0.120005     0.002729
    0.130005     0.003719
    0.132996     0.003509
    0.139997     0.002633
    0.149993     0.002676
    0.160000     0.003102
    0.170010     0.004130
    0.179986     0.004090
    0.190006     0.004273
    0.200000     0.005396
    0.220022     0.006768
    0.239981     0.010208
    0.250000     0.010639
    0.260010     0.009711
    0.280034     0.009234
    0.290023     0.008592
    0.300030     0.008057
    0.320000     0.008688
    0.340020     0.013096
    0.350017     0.015492
    0.359971     0.016260
    0.379939     0.016733
    0.400000     0.015077
    0.419992     0.014512
    0.439947     0.017940
    0.450045     0.018241
    0.459982     0.020257
    0.480077     0.023734
    0.500000     0.027292
    0.550055     0.044507
    0.599880     0.038608
    0.650195     0.057946
    0.667111     0.060162
    0.699790     0.068392
    0.750188     0.070949
    0.800000     0.071358
    0.850340     0.077645
    0.900090     0.084587
    0.949668     0.083423
    1.000000     0.095209
    1.100110     0.120092
    1.200480     0.162074
    1.300390     0.160998
    1.400560     0.146671
    1.499250     0.121091
    1.600000     0.114878
    1.700680     0.129097
    1.798561     0.141043
    1.901141     0.132544
    2.000000     0.116063
    2.197802     0.142064
    2.398082     0.156747
    2.500000     0.196071
    2.597403     0.222674
    2.801121     0.195673
    3.003003     0.261715
    3.205128     0.233486
    3.401361     0.224563
    3.496503     0.242589
    3.597122     0.256057
    3.802281     0.262741
    4.000000     0.252678
    4.201681     0.236441
    4.405286     0.302632
    4.608295     0.341008
    4.807692     0.372667
    5.000000     0.408225
    5.494505     0.399775
    5.988024     0.372776
    6.493506     0.421882
    6.993007     0.532358
    7.518797     0.539493
    8.000000     0.467165
    8.474576     0.391681
    9.009009     0.359722
    9.523809     0.336918
   10.000000     0.318100
