EVENT_NAME: L_AQUILA
EVENT_ID: IT-2009-0009
EVENT_DATE_YYYYMMDD: 20090406
EVENT_TIME_HHMMSS: 013240
EVENT_LATITUDE_DEGREE: 42.3420
EVENT_LONGITUDE_DEGREE: 13.3800
EVENT_DEPTH_KM: 8.3
HYPOCENTER_REFERENCE: INGV-CNT_Seismic_Bulletin
MAGNITUDE_W: 6.1
MAGNITUDE_W_REFERENCE: INGV-CNT_Seismic_Bulletin
MAGNITUDE_L: 
MAGNITUDE_L_REFERENCE: 
FOCAL_MECHANISM: Normal faulting
NETWORK: IT
STATION_CODE: ASS
STATION_NAME: 
STATION_LATITUDE_DEGREE: 43.074982
STATION_LONGITUDE_DEGREE: 12.604141
STATION_ELEVATION_M: 390
LOCATION: 
SENSOR_DEPTH_M: 0.0
VS30_M/S: 
SITE_CLASSIFICATION_EC8: A (inferred from geology)
MORPHOLOGIC_CLASSIFICATION: 
EPICENTRAL_DISTANCE_KM: 103.3
EARTHQUAKE_BACKAZIMUTH_DEGREE: 322.3
DATE_TIME_FIRST_SAMPLE_YYYYMMDD_HHMMSS: 20090406_013234.000
DATE_TIME_FIRST_SAMPLE_PRECISION: seconds
SAMPLING_INTERVAL_S: 0.005000
NDATA: 23200
DURATION_S: 116.000
STREAM: HNN
UNITS: cm/s^2
INSTRUMENT: sensor = FBA-3 [Kinemetrics] | digitizer = Everest [Kinemetrics]
INSTRUMENT_ANALOG/DIGITAL: D
INSTRUMENTAL_FREQUENCY_HZ: 210.000
INSTRUMENTAL_DAMPING: 0.000000
FULL_SCALE_G: 1.0
N_BIT_DIGITAL_CONVERTER: 24
PGA_CM/S^2: -3.149872
TIME_PGA_S: 45.895000
BASELINE_CORRECTION: BASELINE NOT REMOVED
FILTER_TYPE: 
FILTER_ORDER: 
LOW_CUT_FREQUENCY_HZ: 
HIGH_CUT_FREQUENCY_HZ: 
LATE/NORMAL_TRIGGERED: NT
DATABASE_VERSION: 0.5
HEADER_FORMAT: DYNA 1.2
DATA_TYPE: ACCELERATION
PROCESSING: converted to cm/s^2
DATA_TIMESTAMP_YYYYMMDD_HHMMSS: 20211011_160706.360
DATA_LICENSE: CC-BY3_0-IT (http://creativecommons.org/licenses/by/3.0/deed.en)
DATA_CITATION: Luzi L, Pacor F, Puglia R (2019). Italian Accelerometric Archive v 3.0 - Istituto Nazionale di Geofisica e Vulcanologia, Dipartimento della Protezione Civile Nazionale. doi: 10.13127/itaca.3.1
DATA_CREATOR: ITACA working group
ORIGINAL_DATA_MEDIATOR_CITATION: data obtained within the DPC-INGV data exchange agreements
ORIGINAL_DATA_MEDIATOR: Archive of Italian Department of Civil Protection
ORIGINAL_DATA_CREATOR_CITATION: Presidency Of Counsil Of Ministers-Civil Protection Department. (1972). Italian Strong Motion Network. Presidency of Counsil of Ministers - Civil Protection Department. https://doi.org/10.7914/SN/IT http://www.fdsn.org/networks/detail/IT/
ORIGINAL_DATA_CREATOR: network: IT (Italian Strong Motion Network (RAN)); owner: Presidency of Counsil of Ministers - Civil Protection Department (PCM - DPC)
USER1: 
USER2: 
USER3: 
USER4: 
USER5: 
[...]
0.498908
0.356470
0.199647
0.035341
-0.111191
-0.237023
-0.345079
-0.424835
-0.464947
-0.459334
-0.427759
-0.370456
-0.296080
-0.232228
-0.175627
-0.137971
-0.135749
-0.153641
-0.185684
-0.232696
-0.283683
-0.325784
-0.351394
-0.366012
-0.356306
-0.332332
-0.316311
-0.290115
-0.262984
-0.237257
-0.197145
-0.147911
-0.087685
-0.020793
0.045047
0.105507
0.155559
0.195087
0.227012
0.255079
0.278117
0.301506
0.329689
0.358224
0.390383
0.429911
0.471075
0.506509
0.523349
0.512356
0.484290
0.438798
0.372725
0.292501
0.196724
0.099075
0.007976
-0.075406
-0.145455
-0.199717
-0.223925
-0.222989
-0.200419
-0.161126
-0.112009
-0.046637
0.019319
0.100946
0.186082
0.270516
0.375882
0.464526
0.553638
0.637604
0.697479
0.748467
0.767529
0.773259
0.770452
0.746713
0.707419
0.653040
0.597258
0.545569
0.498557
0.462070
0.426402
0.381262
0.332964
0.274258
0.205728
0.122230
0.022009
-0.077394
-0.185567
-0.300173
-0.415363
-0.526928
-0.639896
-0.760933
-0.876708
-0.987805
-1.075280
-1.134336
-1.178308
-1.194329
-1.171759
-1.109427
-1.014585
-0.879281
-0.695327
-0.473835
-0.221469
0.042357
0.299752
0.548609
0.773376
0.966802
1.123975
1.241738
1.338334
1.400432
1.431188
1.460073
1.472235
1.468493
1.454460
1.420078
1.371078
1.296468
1.195779
1.067725
0.918153
0.763553
0.586265
0.419970
0.271100
0.114863
-0.014712
-0.128265
-0.217844
-0.292805
-0.377590
-0.448926
-0.543768
-0.647030
-0.726903
-0.795666
-0.835193
-0.844198
-0.824785
-0.788766
-0.740234
-0.681528
-0.625863
-0.574524
-0.519794
-0.453838
-0.398289
-0.343325
-0.284034
-0.216674
-0.114699
0.000491
0.120827
0.236017
0.344424
0.449908
0.540540
0.609888
0.633861
0.617255
0.545452
0.418099
0.264435
0.076973
-0.128732
-0.338180
-0.549849
-0.752279
-0.926877
-1.056218
-1.134220
-1.157608
-1.114807
-1.006633
-0.860219
-0.656736
-0.401096
-0.133410
0.146438
0.409796
0.640177
0.833602
0.983642
1.098481
1.154498
1.151691
1.102224
0.999546
0.853951
0.676429
0.473414
0.255313
0.033236
-0.185216
-0.392676
-0.582242
-0.740702
-0.858231
-0.935765
-0.975760
-0.966872
-0.901500
-0.789936
-0.624576
-0.421444
-0.201238
0.017097
0.189356
0.338109
0.457159
0.524986
0.560538
0.547440
0.510018
0.449674
0.357522
0.249583
0.121295
-0.023015
-0.191999
-0.360048
-0.523185
-0.684569
-0.832620
-0.972252
-1.083933
-1.185792
-1.262157
-1.299696
-1.309987
-1.276658
-1.228126
-1.162754
-1.088728
-1.023473
-0.954125
-0.907815
-0.885245
-0.880450
-0.885830
-0.892496
-0.902904
-0.894834
-0.863727
-0.800928
-0.703280
-0.590662
-0.462725
-0.311984
-0.137854
0.043410
0.213798
0.372257
0.515631
0.643217
0.755718
0.852080
0.925638
0.956745
0.953237
0.916984
0.842373
0.733264
0.586382
0.427689
0.264435
0.109132
-0.032955
-0.165219
-0.256669
-0.314440
-0.331748
-0.309645
-0.267077
-0.190830
-0.077978
0.053584
0.179416
0.296945
0.415994
0.547907
0.676546
0.788228
0.894998
0.997208
1.102808
1.200574
1.280914
1.327692
1.325119
1.284774
1.192855
1.047611
0.872779
0.660993
0.405118
0.114161
-0.202524
-0.516637
-0.831801
-1.156205
-1.461664
-1.730869
-1.965577
-2.175258
-2.320736
-2.385056
-2.383068
-2.294307
-2.127311
-1.889680
-1.579894
-1.230699
-0.870744
-0.514532
-0.182176
0.117669
0.372608
0.577027
0.738995
0.856290
0.941425
0.996272
1.024572
1.047611
1.069362
1.097429
1.122806
1.132512
1.147715
1.157187
1.141049
1.113567
1.079419
1.037436
0.987969
0.947506
0.920726
0.895934
0.887981
0.905406
0.944700
0.994050
1.042348
1.081290
1.098481
1.087956
1.050768
0.993115
0.903067
0.785538
0.649766
0.488968
0.315890
0.145268
-0.004420
-0.131656
-0.216791
-0.246729
-0.234216
-0.181591
-0.103706
0.016746
0.168306
0.330625
0.494932
0.641346
0.784369
0.899910
0.977912
1.022117
1.021766
0.983993
0.920375
0.844595
0.746830
0.626611
0.490020
0.352026
0.219294
0.065980
-0.097040
-0.250939
-0.412556
-0.570197
-0.704215
-0.817651
-0.876942
-0.871095
-0.829229
-0.748186
-0.629488
-0.471028
-0.279707
-0.090608
0.097555
0.273673
0.409562
0.496101
0.522063
0.479378
0.363720
0.199180
0.002479
-0.226849
-0.456176
-0.649953
-0.798940
-0.897758
-0.936350
-0.912610
-0.837181
-0.717079
-0.555111
-0.364843
-0.159956
0.044111
0.253442
0.463591
0.655964
0.842958
1.011475
1.141049
1.224196
1.263958
1.256239
1.190283
1.072403
0.896285
0.684148
0.445114
0.172984
-0.118441
-0.415480
-0.685387
-0.924538
-1.133284
-1.300280
-1.415938
-1.476866
-1.478621
-1.414769
-1.306362
-1.155270
-0.974006
-0.785842
-0.608321
-0.470678
-0.377941
-0.338881
-0.373731
-0.475004
-0.625629
-0.821861
-1.052826
-1.308467
-1.568200
-1.820449
-2.058313
-2.248699
-2.396516
-2.512174
-2.579651
-2.598947
-2.570763
-2.485160
-2.333951
-2.119826
-1.855064
-1.552763
-1.215028
-0.849577
-0.484009
-0.146157
0.152753
0.395997
0.566385
0.666723
0.699233
0.669763
0.582406
0.456691
0.309692
0.153337
-0.002549
-0.161477
-0.284151
-0.363089
-0.411621
-0.428694
-0.428461
-0.407995
-0.378642
-0.335607
-0.278772
-0.208839
-0.123119
-0.039738
0.043059
0.128896
0.234263
0.358341
0.488149
0.610005
0.715489
0.815242
0.885292
0.926924
0.965516
0.983174
0.983759
0.977093
0.943881
0.881316
0.794192
0.695725
0.551650
0.347816
0.110419
-0.176446
-0.481086
-0.786427
-1.082413
-1.334545
-1.544460
-1.712509
-1.834482
-1.893656
-1.870384
-1.782091
-1.648658
-1.443888
-1.182401
-0.882789
-0.545288
-0.187205
0.191812
0.563461
0.904120
1.192037
1.425458
1.591752
1.669286
1.672327
1.571053
1.388503
1.157187
0.869154
0.550948
0.205495
-0.147560
-0.480267
-0.783387
-1.049552
-1.292328
-1.486807
-1.624450
-1.732857
-1.798814
-1.816707
-1.786184
-1.710521
-1.587730
-1.416991
-1.225904
-1.008972
-0.773914
-0.529267
-0.285672
-0.076224
0.100011
0.237771
0.332730
0.378689
0.370620
0.307002
0.198595
0.087030
-0.022313
-0.117623
-0.189660
-0.239479
-0.253629
-0.249302
-0.230708
-0.199717
-0.177264
-0.174224
-0.161828
-0.121833
-0.067687
0.009145
0.108314
0.229585
0.363252
0.501364
0.650234
0.812085
0.984695
1.138359
1.272728
1.372131
1.432942
1.478901
1.481708
1.445806
1.391778
1.331668
1.265244
1.188879
1.113099
1.029718
0.956277
0.896285
0.851027
0.845765
0.870323
0.909031
0.962007
1.023520
1.080823
1.130641
1.174495
1.206772
1.209812
1.179991
1.110527
0.990892
0.835941
0.650818
0.464175
0.285017
0.086211
-0.103122
-0.256202
-0.385425
-0.480150
-0.521665
-0.527396
-0.490090
-0.384723
-0.245677
-0.084410
0.127142
0.369451
0.617372
0.845414
1.021883
1.148767
1.211333
1.187476
1.068777
0.860967
0.588019
0.254260
-0.130954
-0.556398
-1.001488
-1.449618
-1.884066
-2.266240
-2.582575
-2.821258
-2.979484
-3.041347
-3.005796
-2.887800
-2.664085
-2.363421
-2.001128
-1.577205
-1.096797
-0.554994
-0.007110
0.539137
1.081758
1.584619
2.029358
2.371537
2.611039
2.759325
2.803997
2.754062
2.617705
2.401124
2.115078
1.778746
1.396572
0.977327
0.546153
0.118371
-0.286139
-0.638259
-0.920095
-1.137143
-1.271395
-1.319927
-1.302152
-1.211637
-1.070251
-0.892729
-0.699654
-0.514532
-0.337946
-0.189193
-0.064530
0.032885
0.093345
0.111705
0.106209
0.090889
0.038966
-0.021494
-0.099379
-0.204512
-0.316896
-0.460269
-0.602240
-0.739883
-0.886765
-1.014352
-1.110714
-1.186143
-1.240171
-1.237364
-1.191405
-1.073759
-0.861505
-0.630189
-0.392793
-0.134813
0.144450
0.427689
0.680172
0.903535
1.103861
1.258110
1.346169
1.387802
1.389556
1.368389
1.348157
1.312022
1.255421
1.182213
1.095324
0.996389
0.884941
0.764138
0.640060
0.485693
0.301272
0.138486
-0.020325
-0.175744
-0.333619
-0.528916
-0.728774
-0.934596
-1.135389
-1.285195
-1.380738
-1.433948
-1.463535
-1.470551
-1.453127
-1.393368
-1.306712
-1.212806
-1.077735
-0.948746
-0.843496
-0.729475
-0.613583
-0.504591
-0.426823
-0.344728
-0.251875
-0.183111
-0.130253
-0.106279
-0.124055
-0.173171
-0.246027
-0.352213
-0.506229
-0.678254
-0.808062
-0.910739
-1.000903
-1.069900
-1.122642
-1.129542
-1.112117
-1.061948
-0.956581
-0.818587
-0.622354
-0.367299
-0.087451
0.202922
0.502767
0.817464
1.144440
1.451068
1.724367
1.971704
2.171913
2.314351
2.390131
2.391418
2.324175
2.182321
1.943170
1.607072
1.215075
0.799805
0.383952
-0.007461
-0.375602
-0.737895
-1.064521
-1.327762
-1.558493
-1.788055
-2.008027
-2.189642
-2.357925
-2.495919
-2.584446
-2.652390
-2.683732
-2.705249
-2.682328
-2.590059
-2.445399
-2.226947
-1.993059
-1.729232
-1.438976
-1.164157
-0.879632
-0.599199
-0.327187
-0.088387
0.131703
0.352494
0.540774
0.710460
0.848571
0.935695
0.998494
1.038957
1.042465
1.022584
0.985981
0.922831
0.830445
0.723090
0.603924
0.463591
0.328871
0.203623
0.081534
-0.020208
-0.106630
-0.186269
-0.229889
-0.242168
-0.234918
-0.178083
-0.096690
0.014057
0.145853
0.271685
0.405937
0.524402
0.630821
0.745076
0.834070
0.867282
0.904471
0.943296
0.947155
0.950313
0.950430
0.933473
0.890320
0.859330
0.836877
0.806471
0.772324
0.728236
0.697947
0.663215
0.625559
0.607432
0.635850
0.680288
0.739813
0.835591
0.934525
1.064567
1.208643
1.392012
1.584385
1.749978
1.909724
2.020470
2.149226
2.253073
2.344640
2.449305
2.491639
2.522512
2.470238
2.368497
2.261843
2.101396
1.924108
1.681098
1.424756
1.179991
0.899910
0.628599
0.336238
0.054286
-0.191064
-0.419924
-0.570665
-0.692170
-0.762454
-0.747953
-0.709829
-0.604462
-0.470794
-0.309528
-0.110255
0.083171
0.300102
0.517151
0.729054
0.907277
1.045389
1.159175
1.232266
1.282201
1.274366
1.228173
1.158474
1.055680
0.945752
0.801677
0.646141
0.488149
0.322205
0.173218
0.024465
-0.114582
-0.228018
-0.316896
-0.388816
-0.437933
-0.450680
-0.447172
-0.422496
-0.381449
-0.345313
-0.309177
-0.291051
-0.287543
-0.286724
-0.299822
-0.316545
-0.333736
-0.334671
-0.321924
-0.309996
-0.280175
-0.266493
-0.280058
-0.316428
-0.383320
-0.461088
-0.582359
-0.746315
-0.941612
-1.159012
-1.362495
-1.582584
-1.791330
-1.959612
-2.110003
-2.223673
-2.318515
-2.408211
-2.489253
-2.550064
-2.595322
-2.653677
-2.686304
-2.688526
-2.678937
-2.642567
-2.578599
-2.465280
-2.311030
-2.127544
-1.897632
-1.638951
-1.355127
-1.049669
-0.743976
-0.444716
-0.158553
0.098841
0.316825
0.505340
0.661811
0.784720
0.876404
0.935110
0.969609
0.981537
0.989489
0.998026
0.995687
0.987267
0.969141
0.938268
0.893595
0.830445
0.756419
0.678534
0.584277
0.485459
0.393775
0.308406
0.250635
0.213798
0.198712
0.217189
0.248881
0.278819
0.302558
0.323608
0.335069
0.334952
0.315305
0.254143
0.156846
0.028324
-0.121599
-0.290349
-0.469976
-0.631008
-0.780697
-0.917288
-1.028151
-1.115976
-1.168016
-1.183687
-1.171876
-1.135857
-1.086740
-1.017977
-0.923135
-0.812389
-0.682931
-0.540142
-0.386127
-0.224276
-0.067453
0.086679
0.238824
0.394944
0.552351
0.711746
0.880848
1.047143
1.206538
1.368506
1.522054
1.651745
1.759918
1.833009
1.866221
1.856514
1.802486
1.710100
1.570702
1.412828
1.240218
1.053809
0.879211
0.705198
0.542294
0.397985
0.285484
0.230638
0.211108
0.218008
0.259757
0.307119
0.367229
0.459965
0.560420
0.672921
0.783784
0.884824
0.987735
1.088424
1.189113
1.280213
1.366401
1.436333
1.498665
1.558891
1.600289
1.635256
1.665544
1.686594
1.683788
1.670105
1.632917
1.562516
1.486269
1.385463
1.271325
1.154615
1.010890
0.858044
0.732796
0.610941
0.501130
0.444412
0.410381
0.374011
0.340448
0.345828
0.358107
0.340331
0.355066
0.387928
0.416111
0.442190
0.430963
0.406990
0.395412
0.363486
0.293554
0.181638
0.049374
-0.108618
-0.321690
-0.544937
-0.789585
-1.062182
-1.302152
-1.512417
-1.728881
-1.945345
-2.104273
-2.202740
-2.239577
-2.194554
-2.088251
-1.938563
-1.746774
-1.497215
-1.233856
-0.966521
-0.667495
-0.376771
-0.119260
0.124101
0.362902
0.572934
0.759343
0.907862
1.023871
1.130992
1.193674
1.218700
1.209812
1.170870
1.080823
0.931953
0.791619
0.647076
0.473063
0.273088
0.079312
-0.093883
-0.289998
-0.492312
-0.713688
-0.945822
-1.165794
-1.378048
-1.536040
-1.660352
-1.755428
-1.813315
-1.851439
-1.841148
-1.798346
-1.747476
-1.698593
-1.646903
-1.557090
-1.429387
-1.294784
-1.140301
-0.970380
-0.816599
-0.652058
-0.512310
-0.400394
-0.265791
-0.148847
-0.051783
0.023646
0.063875
0.091123
0.093345
0.042708
-0.036229
-0.091193
-0.122300
-0.163699
-0.223925
-0.256202
-0.254798
-0.230357
-0.165921
-0.069792
0.068787
0.237888
0.426987
0.641346
0.860734
1.098364
1.362191
1.623093
1.859438
2.059764
2.225825
2.365456
2.474799
2.549176
2.574786
2.563092
2.533154
2.463104
2.372473
2.295757
2.226877
2.142794
2.033919
1.885984
1.689167
1.479369
1.256707
1.023754
0.783083
0.535161
0.302909
0.059431
-0.202875
-0.461673
-0.683516
-0.890157
-1.114924
-1.355361
-1.618369
-1.859625
-2.094098
-2.327753
-2.531470
-2.712734
-2.869088
-2.992114
-3.072572
-3.136540
-3.149872
-3.106134
-3.053977
-2.970128
-2.857277
-2.734719
-2.596257
-2.453001
-2.339097
-2.265422
-2.216305
-2.177363
-2.138186
-2.112926
-2.111289
-2.104506
-2.088017
-2.055507
-1.971190
-1.843487
-1.655323
-1.411962
-1.143341
-0.821160
-0.460971
-0.066401
0.349687
0.762383
1.195077
1.611867
1.995561
2.324058
2.599345
2.848787
3.006311
3.094136
3.131441
3.101504
3.027946
2.881999
2.689976
2.469186
2.216937
1.950888
1.670339
1.393649
1.112632
0.842022
0.580418
0.316358
0.076154
-0.133059
-0.292454
-0.408463
-0.471496
-0.496054
-0.498744
-0.474420
-0.461790
-0.435009
-0.403318
-0.370222
-0.327538
-0.310347
-0.294559
-0.303213
-0.318299
-0.319001
-0.346716
-0.367065
-0.378058
-0.384723
-0.367650
-0.339232
-0.281111
-0.211178
-0.126744
0.001661
0.138018
0.293320
0.453884
0.608719
0.786942
0.942595
1.064567
1.149586
1.187008
1.174729
1.092517
0.971831
0.835473
0.676546
0.505925
0.332379
0.153805
-0.020442
-0.190479
-0.339583
-0.437933
-0.475940
-0.457931
-0.389635
-0.234216
-0.019389
0.217306
0.482536
0.761214
1.047611
1.313308
1.569416
1.794885
1.965974
2.103501
2.179047
2.205827
2.158699
2.038714
1.904812
1.717117
1.493402
1.266530
1.025859
0.818166
0.611642
0.426753
0.306184
0.178714
0.109951
0.109600
0.137199
0.243735
0.384068
0.564981
0.761565
0.978263
1.256005
1.512464
1.795002
2.062103
2.262428
2.440067
2.518770
2.549643
2.531517
2.435272
2.308621
2.106190
1.856514
1.554681
1.214958
0.894998
0.565098
0.238473
-0.090608
-0.389752
-0.631593
-0.872030
-1.063117
-1.179711
-1.265899
-1.317354
-1.351502
-1.368459
-1.325774
-1.242276
-1.122993
-0.949915
-0.759998
-0.544002
-0.319118
-0.114582
0.094982
0.288174
0.473648
0.644386
0.742620
0.778756
0.767178
0.723207
0.653742
0.531068
0.388279
0.248296
0.101648
-0.060554
-0.232345
-0.398523
-0.545288
-0.657087
-0.773329
-0.886414
-1.003710
-1.132933
-1.258999
-1.391731
-1.516861
-1.672280
-1.837873
-2.002648
-2.166955
-2.315474
-2.462590
-2.581873
-2.689579
-2.774831
-2.823246
-2.805354
-2.717178
-2.587019
-2.385407
-2.159704
-1.903245
-1.615211
-1.348578
-1.067678
-0.801279
-0.564467
-0.356189
-0.207319
-0.090725
-0.025821
-0.004771
-0.009566
-0.052602
-0.118909
-0.218195
-0.340168
-0.485179
-0.621769
-0.733919
-0.820809
-0.841040
-0.822680
-0.727487
-0.535582
-0.289882
0.027505
0.395763
0.801209
1.214607
1.608709
1.988544
2.328385
2.615366
2.822591
2.983507
3.087587
3.071917
3.015783
2.909598
2.699566
2.436207
2.118937
1.747405
1.364062
0.941074
0.466514
0.012770
-0.425654
-0.837649
-1.203801
-1.523410
-1.769344
-2.001245
-2.203558
-2.340851
-2.438032
-2.502117
-2.530418
-2.521296
-2.492528
-2.435927
-2.378741
-2.314538
-2.213499
-2.085094
-1.934353
-1.768292
-1.591121
-1.418394
-1.252333
-1.118198
-0.976462
-0.792976
-0.619314
-0.450329
-0.292337
-0.158904
-0.044532
0.057911
0.144567
0.206664
0.276948
0.340916
0.379742
0.398920
0.387811
0.360680
0.307002
0.237069
0.162810
0.051011
-0.073652
-0.195975
-0.343325
-0.497808
-0.636972
-0.747602
-0.816482
-0.866300
-0.877644
-0.854489
-0.821043
-0.739416
-0.625746
-0.492429
-0.364141
-0.247665
-0.132825
-0.054356
0.021073
0.060951
0.058846
0.036276
-0.031318
-0.108384
-0.238075
-0.392559
-0.533827
-0.693222
-0.814728
-0.922784
-1.014118
-1.048616
-1.079957
-1.098668
-1.097382
-1.090365
-1.044523
-0.996225
-0.951786
-0.908868
-0.905243
-0.888052
-0.872615
-0.876942
-0.869808
-0.870042
-0.867119
-0.868522
-0.861739
-0.839520
-0.820107
-0.779995
-0.732048
-0.675213
-0.594405
-0.499680
-0.357358
-0.190362
-0.019740
0.199296
0.417631
0.640644
0.884122
1.100119
1.313893
1.489543
1.622743
1.723198
1.760386
1.774186
1.739921
1.643910
1.505564
1.323599
1.101873
0.855237
0.630704
0.402780
0.162810
-0.048275
-0.237023
-0.398757
-0.516286
-0.599316
-0.629839
-0.571016
-0.453019
-0.277486
-0.043246
0.226895
0.524869
0.814307
1.089243
1.344766
1.570235
1.748224
1.877798
1.930072
1.911010
1.878149
1.771379
1.611750
1.433527
1.223261
1.006446
0.770452
0.548960
0.353546
0.189356
0.076622
0.006572
-0.018103
0.007274
0.080949
0.185965
0.296945
0.386407
0.479027
0.566034
0.612461
0.628248
0.605444
0.551650
0.473999
0.363720
0.214032
0.046801
-0.129317
-0.320170
-0.520145
-0.730294
-0.927111
-1.095511
-1.235961
-1.373721
-1.482831
-1.528322
-1.546331
-1.565042
-1.584221
-1.573579
-1.543525
-1.522709
-1.518148
-1.500372
-1.444941
-1.364600
-1.263911
-1.162637
-1.047447
-0.910388
-0.767716
-0.636037
-0.524121
-0.423432
-0.342156
-0.291519
-0.261932
-0.227199
-0.203811
-0.194806
-0.198782
-0.202641
-0.184632
-0.173171
-0.150835
-0.123470
-0.114816
-0.110021
-0.116219
-0.142532
-0.195508
-0.278772
-0.403902
-0.550434
-0.706203
-0.882672
-1.048616
-1.202281
-1.344018
-1.470084
-1.574281
-1.641875
-1.683507
-1.687366
-1.665848
-1.619889
-1.549372
-1.474995
-1.386585
-1.295018
-1.195966
-1.089079
-0.992015
-0.892729
-0.795198
-0.698719
-0.601538
-0.512894
-0.417351
-0.328239
-0.247898
-0.152472
-0.052017
0.040369
0.128662
0.225492
0.320100
0.416813
0.507328
0.578547
0.657367
0.713968
0.758758
0.821440
0.871960
0.928327
0.993699
1.051704
1.111696
1.181863
1.280096
1.394467
1.523691
1.676654
1.838271
2.003513
2.146419
2.265235
2.357504
2.406387
2.430009
2.420186
2.368029
2.275994
2.149226
1.994392
1.805059
1.591285
1.360554
1.125262
0.885643
0.626845
0.360914
0.088667
-0.190011
-0.458281
-0.721055
-0.978800
-1.223565
-1.455115
