EVENT_NAME: L_AQUILA
EVENT_ID: IT-2009-0009
EVENT_DATE_YYYYMMDD: 20090406
EVENT_TIME_HHMMSS: 013240
EVENT_LATITUDE_DEGREE: 42.3420
EVENT_LONGITUDE_DEGREE: 13.3800
EVENT_DEPTH_KM: 8.3
HYPOCENTER_REFERENCE: INGV-CNT_Seismic_Bulletin
MAGNITUDE_W: 6.1
MAGNITUDE_W_REFERENCE: INGV-CNT_Seismic_Bulletin
MAGNITUDE_L: 
MAGNITUDE_L_REFERENCE: 
FOCAL_MECHANISM: Normal faulting
NETWORK: IT
STATION_CODE: ASS
STATION_NAME: 
STATION_LATITUDE_DEGREE: 43.074982
STATION_LONGITUDE_DEGREE: 12.604141
STATION_ELEVATION_M: 390
LOCATION: 
SENSOR_DEPTH_M: 0.0
VS30_M/S: 
SITE_CLASSIFICATION_EC8: A (inferred from geology)
MORPHOLOGIC_CLASSIFICATION: 
EPICENTRAL_DISTANCE_KM: 103.3
EARTHQUAKE_BACKAZIMUTH_DEGREE: 322.3
DATE_TIME_FIRST_SAMPLE_YYYYMMDD_HHMMSS: 20090406_013234.000
DATE_TIME_FIRST_SAMPLE_PRECISION: seconds
SAMPLING_INTERVAL_S: 0.005000
NDATA: 23200
DURATION_S: 116.000
STREAM: HNZ
UNITS: cm/s^2
INSTRUMENT: sensor = FBA-3 [Kinemetrics] | digitizer = Everest [Kinemetrics]
INSTRUMENT_ANALOG/DIGITAL: D
INSTRUMENTAL_FREQUENCY_HZ: 216.000
INSTRUMENTAL_DAMPING: 0.000000
FULL_SCALE_G: 1.0
N_BIT_DIGITAL_CONVERTER: 24
PGA_CM/S^2: -2.144261
TIME_PGA_S: 49.085000
BASELINE_CORRECTION: BASELINE NOT REMOVED
FILTER_TYPE: 
FILTER_ORDER: 
LOW_CUT_FREQUENCY_HZ: 
HIGH_CUT_FREQUENCY_HZ: 
LATE/NORMAL_TRIGGERED: NT
DATABASE_VERSION: 0.5
HEADER_FORMAT: DYNA 1.2
DATA_TYPE: ACCELERATION
PROCESSING: converted to cm/s^2
DATA_TIMESTAMP_YYYYMMDD_HHMMSS: 20211011_160706.931
DATA_LICENSE: CC-BY3_0-IT (http://creativecommons.org/licenses/by/3.0/deed.en)
DATA_CITATION: Luzi L, Pacor F, Puglia R (2019). Italian Accelerometric Archive v 3.0 - Istituto Nazionale di Geofisica e Vulcanologia, Dipartimento della Protezione Civile Nazionale. doi: 10.13127/itaca.3.1
DATA_CREATOR: ITACA working group
ORIGINAL_DATA_MEDIATOR_CITATION: data obtained within the DPC-INGV data exchange agreements
ORIGINAL_DATA_MEDIATOR: Archive of Italian Department of Civil Protection
ORIGINAL_DATA_CREATOR_CITATION: Presidency Of Counsil Of Ministers-Civil Protection Department. (1972). Italian Strong Motion Network. Presidency of Counsil of Ministers - Civil Protection Department. https://doi.org/10.7914/SN/IT http://www.fdsn.org/networks/detail/IT/
ORIGINAL_DATA_CREATOR: network: IT (Italian Strong Motion Network (RAN)); owner: Presidency of Counsil of Ministers - Civil Protection Department (PCM - DPC)
USER1: 
USER2: 
USER3: 
USER4: 
USER5: 
[...]
1.475049
1.499022
1.505454
1.470839
1.425932
1.369682
1.295539
1.231687
1.180817
1.135793
1.124099
1.139769
1.162223
1.204790
1.241511
1.266654
1.281623
1.264549
1.223384
1.141640
1.008675
0.846707
0.653047
0.430151
0.212518
0.011140
-0.173165
-0.325309
-0.433950
-0.494762
-0.514876
-0.493943
-0.449621
-0.388342
-0.314316
-0.252570
-0.203804
-0.178895
-0.172697
-0.179480
-0.192460
-0.201114
-0.208950
-0.198775
-0.190472
-0.180649
-0.151998
-0.120306
-0.079492
-0.040199
-0.014471
-0.004999
-0.019032
-0.062301
-0.133053
-0.233391
-0.361796
-0.507158
-0.665734
-0.825948
-0.978209
-1.103223
-1.196544
-1.250573
-1.249754
-1.202158
-1.095855
-0.948739
-0.774141
-0.579078
-0.392669
-0.222632
-0.087211
0.009736
0.068676
0.086452
0.066103
0.018390
-0.045578
-0.130948
-0.216902
-0.300400
-0.375595
-0.441084
-0.499907
-0.539434
-0.580599
-0.601532
-0.597205
-0.570424
-0.515578
-0.450674
-0.350920
-0.221813
-0.075165
0.072068
0.223861
0.374018
0.489091
0.592470
0.664624
0.709882
0.730113
0.715612
0.680880
0.615625
0.552475
0.490260
0.439273
0.418106
0.428865
0.479151
0.540196
0.618899
0.715378
0.828113
0.946928
1.065977
1.165848
1.226074
1.268759
1.267589
1.234260
1.162807
1.042939
0.889274
0.697603
0.511895
0.331801
0.168898
0.058151
-0.010963
-0.055636
-0.047683
0.022600
0.110192
0.241169
0.390039
0.519146
0.640651
0.738182
0.807764
0.827177
0.820745
0.788585
0.699591
0.589195
0.456464
0.294145
0.128669
-0.027803
-0.175153
-0.310691
-0.430091
-0.519203
-0.575804
-0.610302
-0.622465
-0.627961
-0.627961
-0.610770
-0.593345
-0.592293
-0.586797
-0.565045
-0.534055
-0.499205
-0.444709
-0.368696
-0.302037
-0.218773
-0.133404
-0.070721
-0.005934
0.040259
0.061543
0.059555
0.033008
-0.021488
-0.096800
-0.181234
-0.288940
-0.398049
-0.500258
-0.598959
-0.677078
-0.738356
-0.774726
-0.798349
-0.821621
-0.827585
-0.829339
-0.814019
-0.792385
-0.766774
-0.709237
-0.658600
-0.581534
-0.492072
-0.433833
-0.351037
-0.290811
-0.260756
-0.220293
-0.188017
-0.156558
-0.120774
-0.059144
-0.008624
0.022951
0.063998
0.060490
0.038037
0.017338
-0.041719
-0.121943
-0.201465
-0.284612
-0.379221
-0.469735
-0.551246
-0.618255
-0.676259
-0.740228
-0.783263
-0.817294
-0.851909
-0.868282
-0.876935
-0.886174
-0.887343
-0.857757
-0.823843
-0.786070
-0.720230
-0.648660
-0.547269
-0.436523
-0.341681
-0.228479
-0.114576
-0.028504
0.053006
0.135335
0.179306
0.215441
0.249706
0.256489
0.247835
0.218014
0.190766
0.152876
0.126330
0.108320
0.056631
0.014531
-0.053414
-0.138198
-0.201582
-0.282391
-0.352206
-0.388459
-0.416292
-0.424829
-0.406469
-0.390915
-0.362848
-0.335483
-0.321450
-0.293266
-0.270579
-0.230818
-0.165563
-0.093058
-0.020435
0.053941
0.136036
0.198718
0.259062
0.317417
0.359984
0.399746
0.436817
0.462545
0.464767
0.460674
0.431905
0.384543
0.340806
0.272276
0.215324
0.162466
0.093936
0.048094
0.001784
-0.036340
-0.062418
-0.092122
-0.110132
-0.143578
-0.185327
-0.235028
-0.303324
-0.368111
-0.439096
-0.511017
-0.558379
-0.577441
-0.574400
-0.532535
-0.463537
-0.371970
-0.247541
-0.128960
-0.004765
0.107385
0.184919
0.248771
0.271692
0.261400
0.227136
0.178604
0.122354
0.065987
0.033710
0.015467
0.034412
0.079669
0.146561
0.257307
0.383023
0.525695
0.676670
0.818523
0.952541
1.070772
1.161521
1.212626
1.223267
1.186898
1.120123
1.025281
0.895590
0.766600
0.640300
0.520900
0.425123
0.358464
0.328643
0.328410
0.366416
0.428982
0.508270
0.594224
0.670939
0.755490
0.818172
0.868926
0.919212
0.944355
0.963300
0.966224
0.957336
0.941081
0.904945
0.867289
0.815132
0.745667
0.677488
0.600422
0.514234
0.435063
0.361037
0.288648
0.230644
0.181177
0.139544
0.109607
0.071600
0.037686
0.007865
-0.033650
-0.077153
-0.130597
-0.196437
-0.264966
-0.339576
-0.420619
-0.487394
-0.542124
-0.591357
-0.612174
-0.610536
-0.580014
-0.523179
-0.457105
-0.374426
-0.293734
-0.219475
-0.160535
-0.125451
-0.110249
-0.129895
-0.170358
-0.229883
-0.315720
-0.419449
-0.528441
-0.634744
-0.734380
-0.811447
-0.872258
-0.910265
-0.925000
-0.931081
-0.912136
-0.872959
-0.829573
-0.776012
-0.718944
-0.670763
-0.624219
-0.590773
-0.573114
-0.565864
-0.595217
-0.650414
-0.725259
-0.828988
-0.958680
-1.113631
-1.271272
-1.439204
-1.592635
-1.710281
-1.809099
-1.857747
-1.869208
-1.843480
-1.759982
-1.638243
-1.479199
-1.286241
-1.064514
-0.836005
-0.605157
-0.376297
-0.180415
-0.010729
0.127733
0.221406
0.269821
0.276954
0.250174
0.185971
0.096509
-0.005934
-0.109547
-0.210236
-0.305195
-0.369163
-0.409743
-0.439915
-0.432313
-0.396645
-0.358404
-0.283326
-0.190706
-0.099724
0.010672
0.111010
0.210647
0.312856
0.404657
0.490962
0.564169
0.618198
0.642756
0.645796
0.619133
0.572355
0.506867
0.419158
0.332386
0.233568
0.131943
0.025641
-0.073060
-0.152699
-0.229064
-0.282274
-0.338875
-0.391850
-0.422958
-0.443306
-0.456287
-0.469735
-0.471256
-0.492890
-0.516630
-0.518267
-0.504936
-0.478272
-0.435237
-0.362497
-0.320281
-0.251049
-0.151530
-0.096683
-0.019032
0.053941
0.116156
0.192052
0.258828
0.336479
0.417755
0.493886
0.558673
0.608842
0.646147
0.686727
0.708946
0.706023
0.713273
0.693860
0.647784
0.569549
0.461024
0.346302
0.207138
0.091013
-0.013536
-0.119253
-0.159716
-0.143344
-0.094461
-0.013419
0.098380
0.220704
0.343145
0.484881
0.617847
0.738416
0.855244
0.932544
0.976749
0.994290
1.005283
1.030543
1.047617
1.075918
1.129712
1.209702
1.288756
1.339393
1.398567
1.436340
1.436223
1.444058
1.439731
1.414004
1.373775
1.295773
1.190406
1.065276
0.899332
0.696784
0.473421
0.231229
-0.017980
-0.231169
-0.420151
-0.588902
-0.676844
-0.722920
-0.733913
-0.700584
-0.675674
-0.633691
-0.590188
-0.570541
-0.548205
-0.517683
-0.492773
-0.485640
-0.486809
-0.507625
-0.545048
-0.580131
-0.629014
-0.687018
-0.728533
-0.771335
-0.816008
-0.832964
-0.824544
-0.794256
-0.719411
-0.580014
-0.412199
-0.219825
0.008801
0.234269
0.459972
0.671407
0.846590
0.985987
1.065159
1.089717
1.071825
1.015457
0.918043
0.769640
0.591651
0.396237
0.199186
0.016870
-0.156208
-0.282040
-0.355715
-0.408457
-0.420736
-0.407989
-0.381209
-0.332326
-0.292565
-0.245436
-0.195618
-0.164277
-0.122995
-0.089549
-0.054232
-0.002426
0.054643
0.141182
0.244210
0.369808
0.523005
0.676319
0.820277
0.940847
1.030426
1.086092
1.101061
1.055218
0.965756
0.847175
0.686142
0.498213
0.284906
0.069261
-0.133754
-0.321567
-0.466110
-0.557678
-0.591124
-0.578377
-0.523179
-0.425180
-0.307300
-0.181351
-0.051192
0.070547
0.164220
0.236608
0.283152
0.281632
0.248887
0.180475
0.072068
-0.038328
-0.163926
-0.311042
-0.444008
-0.570541
-0.688421
-0.778351
-0.853664
-0.925350
-0.972947
-0.995985
-0.995283
-0.962305
-0.918100
-0.842203
-0.730872
-0.611121
-0.469735
-0.326829
-0.199477
-0.083702
0.001784
0.053123
0.076979
0.072769
0.031254
-0.037509
-0.128492
-0.240408
-0.355481
-0.477688
-0.590188
-0.694035
-0.790397
-0.869568
-0.943477
-1.006861
-1.056211
-1.086617
-1.127547
-1.148012
-1.153275
-1.195258
-1.214671
-1.237826
-1.270570
-1.287995
-1.325300
-1.360032
-1.394414
-1.434175
-1.482590
-1.527848
-1.556265
-1.580823
-1.591114
-1.601172
-1.607604
-1.596026
-1.571351
-1.529368
-1.468791
-1.393245
-1.302262
-1.186487
-1.063929
-0.941138
-0.808055
-0.679183
-0.565045
-0.463654
-0.368228
-0.286484
-0.215498
-0.137964
-0.060547
0.014999
0.094053
0.170301
0.246432
0.315897
0.385361
0.468041
0.550487
0.641937
0.736077
0.829984
0.909155
0.975813
1.054751
1.102464
1.149359
1.188067
1.210637
1.244200
1.245955
1.266654
1.278699
1.282207
1.315653
1.327348
1.351906
1.371787
1.391199
1.420552
1.425932
1.447099
1.452829
1.438211
1.420552
1.369565
1.338458
1.303959
1.248761
1.228881
1.185027
1.144447
1.126438
1.090419
1.094746
1.109831
1.134624
1.191692
1.245253
1.326763
1.412600
1.495514
1.586263
1.661224
1.750920
1.836874
1.918034
1.992761
2.016501
2.027026
1.998491
1.912186
1.810445
1.646957
1.454232
1.260807
1.042822
0.855127
0.681230
0.526279
0.416586
0.325018
0.273212
0.251694
0.260582
0.308295
0.369925
0.452955
0.543353
0.637610
0.752450
0.865067
0.967627
1.058610
1.116263
1.148657
1.154972
1.125736
1.082116
1.025748
0.944121
0.842731
0.746719
0.659479
0.581828
0.524642
0.467807
0.417053
0.383256
0.341040
0.292040
0.240350
0.171938
0.101421
0.030903
-0.054583
-0.134807
-0.212224
-0.286951
-0.341798
-0.389161
-0.421204
-0.435354
-0.442604
-0.442838
-0.435588
-0.416877
-0.400504
-0.378870
-0.359457
-0.362147
-0.359808
-0.347412
-0.322269
-0.294085
-0.253038
-0.173399
-0.083117
0.026810
0.152058
0.291104
0.447693
0.611181
0.797005
0.953711
1.088080
1.196604
1.241160
1.249463
1.188184
1.067848
0.902021
0.682634
0.449213
0.225616
0.023536
-0.164511
-0.289407
-0.371034
-0.432196
-0.398516
-0.350920
-0.284145
-0.147320
-0.044994
0.057683
0.184217
0.262453
0.324199
0.395886
0.428397
0.440442
0.450499
0.418808
0.374369
0.315195
0.258828
0.227370
0.187609
0.162349
0.147731
0.136738
0.133112
0.141766
0.145041
0.123055
0.109724
0.084230
0.054994
0.024237
-0.038328
-0.106156
-0.188367
-0.278648
-0.346476
-0.420268
-0.483184
-0.508210
-0.552298
-0.597322
-0.601181
-0.598140
-0.604689
-0.601765
-0.589019
-0.593463
-0.607262
-0.627493
-0.639656
-0.638837
-0.632405
-0.594047
-0.553818
-0.508678
-0.436055
-0.366824
-0.301569
-0.245319
-0.204623
-0.169305
-0.147788
-0.127556
-0.116096
-0.122528
-0.117265
-0.132234
-0.151413
-0.153401
-0.175387
-0.197840
-0.225205
-0.237250
-0.248243
-0.282391
-0.298880
-0.348698
-0.411497
-0.457690
-0.533353
-0.577207
-0.613694
-0.668073
-0.676025
-0.700817
-0.724908
-0.715552
-0.729703
-0.709120
-0.670529
-0.638720
-0.568787
-0.512537
-0.446697
-0.365187
-0.296541
-0.199828
-0.120423
-0.048151
0.025173
0.074290
0.108905
0.109490
0.120015
0.101772
0.070313
0.061192
0.009385
-0.028972
-0.072943
-0.129310
-0.166499
-0.210236
-0.217720
-0.219475
-0.214797
-0.174217
-0.138783
-0.086392
-0.015991
0.057917
0.148783
0.231346
0.311336
0.403137
0.478332
0.546745
0.623460
0.678307
0.708596
0.735142
0.745433
0.721459
0.683920
0.638546
0.566859
0.489910
0.421263
0.351565
0.279293
0.209594
0.138141
0.055111
-0.028388
-0.115160
-0.206260
-0.307885
-0.422373
-0.527155
-0.623634
-0.693918
-0.741163
-0.794022
-0.813786
-0.810277
-0.823843
-0.815657
-0.786771
-0.757185
-0.706781
-0.627961
-0.538732
-0.446464
-0.327882
-0.213978
-0.109079
-0.001490
0.072652
0.131943
0.165506
0.148432
0.113232
0.071015
0.012660
-0.046982
-0.091771
-0.122528
-0.134690
-0.126504
-0.106506
-0.087094
-0.053998
-0.024762
-0.013419
0.005994
0.003187
0.003538
0.024120
0.022132
0.033710
0.058385
0.074523
0.090779
0.091597
0.080137
0.060490
0.029266
-0.010378
-0.062068
-0.133871
-0.223451
-0.313732
-0.401674
-0.497685
-0.587498
-0.650999
-0.704443
-0.735433
-0.725843
-0.703741
-0.658367
-0.595918
-0.539902
-0.466812
-0.381676
-0.303207
-0.229883
-0.161236
-0.108728
-0.053414
0.013362
0.076395
0.163167
0.259412
0.350980
0.442313
0.523473
0.598668
0.648135
0.670004
0.657959
0.606152
0.524993
0.408166
0.262687
0.098029
-0.073411
-0.247190
-0.410562
-0.543644
-0.648192
-0.711459
-0.730989
-0.717891
-0.675791
-0.622815
-0.566799
-0.507041
-0.449153
-0.403311
-0.374075
-0.366941
-0.393254
-0.433015
-0.483652
-0.554403
-0.627844
-0.703390
-0.782444
-0.857172
-0.917632
-0.966164
-0.998207
-0.998558
-0.977625
-0.932835
-0.862084
-0.780223
-0.675207
-0.562940
-0.454650
-0.342383
-0.250114
-0.174334
-0.115511
-0.073528
-0.047683
-0.038913
-0.034469
-0.050490
-0.072008
-0.094227
-0.122177
-0.146852
-0.170475
-0.178544
-0.178778
-0.165797
-0.131766
-0.083585
-0.016576
0.069495
0.183399
0.313324
0.454826
0.619367
0.783908
0.942952
1.102113
1.241628
1.358338
1.448151
1.501127
1.519955
1.503583
1.450841
1.363250
1.250749
1.122578
0.981894
0.834661
0.692106
0.555048
0.429449
0.336596
0.270522
0.228890
0.218014
0.230878
0.256957
0.290403
0.333555
0.380450
0.434712
0.488623
0.538909
0.601825
0.671875
0.743562
0.818991
0.897227
0.982713
1.074631
1.163977
1.260573
1.351088
1.419851
1.477504
1.503934
1.502764
1.472827
1.402543
1.310157
1.188769
1.045161
0.882842
0.707543
0.533998
0.353670
0.176967
0.009385
-0.148022
-0.292799
-0.428805
-0.549374
-0.656378
-0.761278
-0.857289
-0.936811
-1.020426
-1.100299
-1.175845
-1.258642
-1.334656
-1.416166
-1.500833
-1.583513
-1.660696
-1.716128
-1.749223
-1.759631
-1.736710
-1.681980
-1.605382
-1.499430
-1.376288
-1.241451
-1.101352
-0.973298
-0.863487
-0.788292
-0.746075
-0.745607
-0.789344
-0.870153
-0.979846
-1.113163
-1.269284
-1.422715
-1.581993
-1.740569
-1.879265
-2.000887
-2.090701
-2.143209
-2.144261
-2.090350
-1.989661
-1.836581
-1.640114
-1.415932
-1.176313
-0.934589
-0.708302
-0.514291
-0.353493
-0.233859
-0.170358
-0.155740
-0.191759
-0.273035
-0.380039
-0.512654
-0.657665
-0.789695
-0.911902
-1.009901
-1.060772
-1.083810
-1.064865
-1.009316
-0.934355
-0.829339
-0.718710
-0.599310
-0.480260
-0.367643
-0.262393
-0.177609
-0.094344
-0.029089
0.016168
0.049263
0.069612
0.082593
0.096977
0.123640
0.152993
0.198718
0.252045
0.315312
0.396237
0.474356
0.558205
0.637142
0.706841
0.771512
0.818874
0.848227
0.864132
0.856881
0.829048
0.789170
0.736779
0.686376
0.635973
0.591534
0.562415
0.542535
0.540313
0.555866
0.578086
0.605334
0.640768
0.668601
0.691873
0.714092
0.720524
0.720524
0.716431
0.711636
0.708712
0.691873
0.672928
0.658660
0.637610
0.618548
0.596212
0.579021
0.577852
0.586389
0.614455
0.649188
0.688832
0.724617
0.740989
0.745433
0.719471
0.675383
0.611883
0.525578
0.427695
0.311102
0.204449
0.095573
-0.008741
-0.091771
-0.166382
-0.209300
-0.231754
-0.233157
-0.216317
-0.191642
-0.149776
-0.102413
-0.043707
0.016519
0.080254
0.149251
0.202694
0.251811
0.287947
0.309582
0.327708
0.331450
0.335660
0.333321
0.324199
0.326421
0.313792
0.308646
0.312154
0.294262
0.287011
0.280228
0.274966
0.282567
0.289818
0.294729
0.289584
0.291221
0.278007
0.255553
0.232515
0.183165
0.132294
0.072652
0.005877
-0.062301
-0.133871
-0.204155
-0.276777
-0.333963
-0.391500
-0.440733
-0.465058
-0.491604
-0.509146
-0.522945
-0.552181
-0.573933
-0.606911
-0.652402
-0.705495
-0.783731
-0.856353
-0.939501
-1.029314
-1.116087
-1.212566
-1.302262
-1.398390
-1.468674
-1.519778
-1.558253
-1.559072
-1.545389
-1.492296
-1.416633
-1.331147
-1.226950
-1.130588
-1.026741
-0.931315
-0.848401
-0.764552
-0.688538
-0.611355
-0.536394
-0.453012
-0.364369
-0.276309
-0.183222
-0.102998
-0.019617
0.070430
0.149017
0.227019
0.297653
0.354605
0.414481
0.464884
0.496692
0.528735
0.552007
0.573993
0.598200
0.601825
0.612935
0.624279
0.613052
0.616443
0.624746
0.625799
0.634687
0.633283
0.641236
0.656789
0.664391
0.693393
0.719822
0.746135
0.774084
0.779581
0.775020
0.734089
0.674331
0.612000
0.534231
0.464767
0.398108
0.337882
0.279878
0.219534
0.170886
0.128786
0.100719
0.083294
0.082710
0.102005
0.124342
0.150888
0.168079
0.175096
0.170769
0.134048
0.078383
0.022132
-0.046280
-0.129661
-0.201465
-0.264498
-0.322269
-0.359106
-0.375478
-0.361913
-0.338290
-0.291044
-0.214446
-0.154337
-0.084872
-0.006285
0.054643
0.093819
0.121769
0.142117
0.133814
0.129604
0.117325
0.086335
0.054526
0.009385
-0.035521
-0.097736
-0.150711
-0.183923
-0.240758
-0.270696
-0.277011
-0.289758
-0.276894
-0.247424
-0.204623
-0.160067
-0.101829
-0.028154
0.026576
0.086335
0.130306
0.161179
0.182697
0.184334
0.186205
0.165155
0.134750
0.101654
0.078032
0.052421
0.025407
0.024471
0.019209
0.018273
0.027512
0.041545
0.041545
0.058619
0.083879
0.082359
0.119196
0.141533
0.164571
0.212167
0.221873
0.246432
0.264558
0.272510
0.288415
0.291689
0.299290
0.285842
0.270054
0.252981
0.214506
0.182931
0.147847
0.087153
0.021548
-0.051075
-0.156909
-0.259002
-0.354194
-0.432547
-0.486458
-0.529260
-0.534289
-0.535692
-0.517916
-0.472542
-0.431611
-0.399569
-0.364018
-0.321801
-0.308235
-0.276660
-0.248594
-0.238537
-0.204623
-0.183456
-0.161353
-0.130012
-0.104986
-0.095280
-0.080077
-0.076101
-0.101010
-0.115628
-0.159014
-0.218656
-0.276193
-0.353610
-0.434067
-0.518267
-0.597906
-0.677428
-0.742449
-0.771686
-0.783380
-0.770984
-0.719645
-0.641760
-0.539434
-0.410094
-0.276426
-0.144513
-0.019383
0.082242
0.165740
0.230527
0.260699
0.270990
0.273095
0.245379
0.204332
0.160945
0.109256
0.064349
0.023185
-0.001841
-0.001607
0.019560
0.062127
0.124342
0.205501
0.296133
0.407932
0.522654
0.631178
0.748591
0.832323
0.906348
0.980842
1.017679
1.058259
1.081999
1.076035
1.054400
1.005985
0.939327
0.821213
0.706958
0.595159
0.450967
0.358347
0.274147
0.199069
0.180943
0.175914
0.207840
0.260231
0.311570
0.391560
0.468392
0.536570
0.594809
0.627904
0.642288
0.619952
0.586272
0.521952
0.405944
0.293209
0.160828
0.013245
-0.115511
-0.237133
-0.328350
-0.379337
-0.416292
-0.417812
-0.364135
-0.311042
-0.241460
-0.138666
-0.064523
0.000030
0.063648
0.097445
0.115220
0.123406
0.116623
0.118611
0.111127
0.082359
0.082359
0.075342
0.058502
0.077213
0.107736
0.140129
0.168196
0.197549
0.234269
0.257775
0.269002
0.269587
0.261985
0.263271
0.258126
0.249589
0.255436
0.244911
0.228071
0.224329
0.217897
0.215792
0.223628
0.233334
0.245964
0.276369
0.312037
0.341741
0.370042
0.378345
0.376474
0.360920
0.315312
0.262336
0.203864
0.130657
0.035230
-0.064640
-0.146150
-0.236431
-0.308703
-0.331507
-0.344488
-0.337354
-0.306364
-0.278882
-0.252219
-0.233859
-0.219358
-0.216551
-0.234794
-0.258417
-0.279350
-0.313615
-0.367292
-0.416643
-0.482365
-0.559899
-0.634393
-0.720347
-0.796946
-0.870270
-0.936811
-0.983472
-1.026624
-1.055042
-1.078080
-1.099948
-1.101586
-1.101352
-1.086149
-1.046154
-0.993178
-0.906639
-0.792969
-0.656496
-0.503298
-0.355832
-0.208950
-0.056337
0.072886
0.169131
0.267131
0.327474
0.342911
0.358815
0.338935
0.301980
0.259178
0.191819
0.128084
0.048211
-0.049321
-0.143695
-0.230584
-0.306832
-0.384249
-0.445528
-0.493826
-0.542709
-0.564694
-0.574634
-0.576389
-0.564109
-0.541422
-0.505403
-0.481898
-0.436991
-0.399101
-0.378753
-0.331273
-0.308235
