EVENT_NAME: L_AQUILA
EVENT_ID: IT-2009-0009
EVENT_DATE_YYYYMMDD: 20090406
EVENT_TIME_HHMMSS: 013240
EVENT_LATITUDE_DEGREE: 42.3420
EVENT_LONGITUDE_DEGREE: 13.3800
EVENT_DEPTH_KM: 8.3
HYPOCENTER_REFERENCE: INGV-CNT_Seismic_Bulletin
MAGNITUDE_W: 6.1
MAGNITUDE_W_REFERENCE: INGV-CNT_Seismic_Bulletin
MAGNITUDE_L: 
MAGNITUDE_L_REFERENCE: 
FOCAL_MECHANISM: Normal faulting
NETWORK: IT
STATION_CODE: ASS
STATION_NAME: 
STATION_LATITUDE_DEGREE: 43.074982
STATION_LONGITUDE_DEGREE: 12.604141
STATION_ELEVATION_M: 390
LOCATION: 
SENSOR_DEPTH_M: 0.0
VS30_M/S: 
SITE_CLASSIFICATION_EC8: A (inferred from geology)
MORPHOLOGIC_CLASSIFICATION: 
EPICENTRAL_DISTANCE_KM: 103.3
EARTHQUAKE_BACKAZIMUTH_DEGREE: 322.3
DATE_TIME_FIRST_SAMPLE_YYYYMMDD_HHMMSS: 20090406_013234.000
DATE_TIME_FIRST_SAMPLE_PRECISION: seconds
SAMPLING_INTERVAL_S: 0.005000
NDATA: 20000
DURATION_S: 100.000
STREAM: HNE
UNITS: cm/s^2
INSTRUMENT: sensor = FBA-3 [Kinemetrics] | digitizer = Everest [Kinemetrics]
INSTRUMENT_ANALOG/DIGITAL: D
INSTRUMENTAL_FREQUENCY_HZ: 214.000
INSTRUMENTAL_DAMPING: 0.000000
FULL_SCALE_G: 1.0
N_BIT_DIGITAL_CONVERTER: 24
PGA_CM/S^2: 6.047272
TIME_PGA_S: 46.010000
BASELINE_CORRECTION: BASELINE REMOVED
FILTER_TYPE: BUTTERWORTH
FILTER_ORDER: 2
LOW_CUT_FREQUENCY_HZ: 0.060
HIGH_CUT_FREQUENCY_HZ: 40.000
LATE/NORMAL_TRIGGERED: NT
DATABASE_VERSION: 0.5
HEADER_FORMAT: DYNA 1.2
DATA_TYPE: ACCELERATION
PROCESSING: manual (Paolucci et al., 2011)
DATA_TIMESTAMP_YYYYMMDD_HHMMSS: 20211011_160705.939
DATA_LICENSE: CC-BY3_0-IT (http://creativecommons.org/licenses/by/3.0/deed.en)
DATA_CITATION: Luzi L, Pacor F, Puglia R (2019). Italian Accelerometric Archive v 3.0 - Istituto Nazionale di Geofisica e Vulcanologia, Dipartimento della Protezione Civile Nazionale. doi: 10.13127/itaca.3.1
DATA_CREATOR: ITACA working group
ORIGINAL_DATA_MEDIATOR_CITATION: data obtained within the DPC-INGV data exchange agreements
ORIGINAL_DATA_MEDIATOR: Archive of Italian Department of Civil Protection
ORIGINAL_DATA_CREATOR_CITATION: Presidency Of Counsil Of Ministers-Civil Protection Department. (1972). Italian Strong Motion Network. Presidency of Counsil of Ministers - Civil Protection Department. https://doi.org/10.7914/SN/IT http://www.fdsn.org/networks/detail/IT/
ORIGINAL_DATA_CREATOR: network: IT (Italian Strong Motion Network (RAN)); owner: Presidency of Counsil of Ministers - Civil Protection Department (PCM - DPC)
USER1: 
USER2: 
USER3: 
USER4: 
USER5: 
[...]
-1.670981
-1.706749
-1.713072
-1.693348
-1.652267
-1.594027
-1.521734
-1.437178
-1.341477
-1.236321
-1.122631
-0.998613
-0.861626
-0.710506
-0.545665
-0.369519
-0.187240
-0.006018
0.167345
0.329079
0.478619
0.616126
0.740860
0.852090
0.950794
1.040035
1.123864
1.207122
1.297223
1.402803
1.527398
1.667120
1.815597
1.967264
2.114371
2.243852
2.340339
2.391419
2.389197
2.329706
2.211973
2.037006
1.809317
1.539209
1.239763
0.921755
0.593430
0.262843
-0.060584
-0.367496
-0.653113
-0.915831
-1.150286
-1.347597
-1.502031
-1.612442
-1.679075
-1.705656
-1.703103
-1.685027
-1.662207
-1.643778
-1.637497
-1.646366
-1.668169
-1.698011
-1.729178
-1.751648
-1.752049
-1.717695
-1.640508
-1.516589
-1.343868
-1.122461
-0.857889
-0.560002
-0.237452
0.102002
0.446728
0.781977
1.094929
1.376305
1.618133
1.814330
1.964073
2.070653
2.136749
2.163043
2.149646
2.097425
2.010250
1.895633
1.760960
1.610512
1.446271
1.269119
1.079545
0.878745
0.670205
0.460430
0.255791
0.058080
-0.134511
-0.322650
-0.504034
-0.673842
-0.824799
-0.947880
-1.032420
-1.066901
-1.043228
-0.959552
-0.820084
-0.635160
-0.419718
-0.190687
0.034477
0.238897
0.407060
0.526928
0.593718
0.611465
0.591229
0.548450
0.501142
0.466393
0.454445
0.467615
0.506499
0.573120
0.666349
0.778209
0.894436
0.996746
1.067802
1.095074
1.070835
0.992570
0.861269
0.675989
0.434501
0.141146
-0.191569
-0.549437
-0.917733
-1.275998
-1.599524
-1.868899
-2.073071
-2.202814
-2.249500
-2.211748
-2.097149
-1.918088
-1.689508
-1.428411
-1.152687
-0.880176
-0.627538
-0.408810
-0.233437
-0.103447
-0.014255
0.040020
0.063487
0.061141
0.042387
0.018145
-0.004283
-0.019922
-0.023339
-0.010461
0.019878
0.069558
0.144292
0.248647
0.381689
0.541718
0.727240
0.929163
1.130505
1.316218
1.476590
1.601238
1.677009
1.692041
1.637653
1.508661
1.305065
1.032907
0.703876
0.332895
-0.065349
-0.475156
-0.876820
-1.252135
-1.592206
-1.891247
-2.135510
-2.309045
-2.406129
-2.428694
-2.377748
-2.255808
-2.072732
-1.842424
-1.577113
-1.288686
-0.991884
-0.702950
-0.436241
-0.201402
-0.003128
0.156066
0.275656
0.359374
0.413722
0.443819
0.451256
0.433818
0.385984
0.302539
0.183266
0.032738
-0.142000
-0.330573
-0.518944
-0.692210
-0.836478
-0.940325
-0.998670
-1.014441
-0.996119
-0.955690
-0.906255
-0.857745
-0.817193
-0.793891
-0.797216
-0.827274
-0.875424
-0.935152
-1.003665
-1.072214
-1.124670
-1.147495
-1.134169
-1.081729
-0.991164
-0.869996
-0.729686
-0.581079
-0.431880
-0.285450
-0.141110
0.004292
0.155240
0.314590
0.479880
0.645690
0.807239
0.957876
1.087542
1.186666
1.250476
1.281131
1.285144
1.266419
1.224595
1.160967
1.080926
0.989169
0.885278
0.765357
0.627509
0.474237
0.310222
0.142186
-0.017857
-0.154592
-0.255199
-0.309743
-0.310316
-0.252047
-0.132130
0.046931
0.271050
0.519031
0.772711
1.015751
1.226881
1.385159
1.480393
1.509775
1.467430
1.346873
1.151984
0.896318
0.591777
0.246845
-0.123078
-0.493269
-0.840368
-1.148813
-1.407197
-1.606144
-1.740887
-1.811830
-1.822489
-1.778456
-1.686818
-1.554978
-1.390693
-1.203141
-1.001302
-0.790594
-0.573885
-0.355048
-0.137687
0.077397
0.289343
0.494492
0.688243
0.865976
1.021903
1.150230
1.248015
1.316067
1.356336
1.368824
1.351900
1.304469
1.227059
1.122510
0.998025
0.865729
0.737993
0.622600
0.524080
0.447619
0.400027
0.388216
0.416426
0.481626
0.571919
0.672901
0.773939
0.866007
0.937885
0.978530
0.981913
0.947494
0.877006
0.772970
0.639066
0.479126
0.296858
0.098757
-0.104245
-0.299606
-0.475518
-0.619686
-0.720317
-0.768521
-0.756613
-0.680443
-0.545868
-0.363471
-0.137697
0.129188
0.426095
0.735129
1.038931
1.317030
1.541700
1.686936
1.737103
1.684281
1.525246
1.263488
0.910302
0.484483
0.012691
-0.473683
-0.945051
-1.374362
-1.735116
-2.006685
-2.178440
-2.245801
-2.210072
-2.081654
-1.873973
-1.597957
-1.267965
-0.904470
-0.526370
-0.146644
0.223727
0.573469
0.891585
1.166090
1.386842
1.552078
1.667285
1.736885
1.761130
1.742422
1.689636
1.613298
1.520541
1.416449
1.306628
1.197349
1.096190
1.013625
0.963060
0.957010
1.000233
1.088716
1.215607
1.372814
1.549012
1.731363
1.906136
2.055011
2.153850
2.178664
2.113548
1.950996
1.687935
1.327962
0.883992
0.373934
-0.182822
-0.764403
-1.345772
-1.900828
-2.405877
-2.842572
-3.201557
-3.482623
-3.686209
-3.808754
-3.851848
-3.828264
-3.751538
-3.626981
-3.459255
-3.260504
-3.045465
-2.824416
-2.602021
-2.379482
-2.159291
-1.946906
-1.745930
-1.557432
-1.384724
-1.232298
-1.099688
-0.979480
-0.862579
-0.743592
-0.619279
-0.486704
-0.345796
-0.200465
-0.057078
0.078001
0.201064
0.311256
0.408315
0.492044
0.565405
0.636222
0.713055
0.798153
0.884630
0.962511
1.026494
1.075446
1.107573
1.119786
1.110899
1.082910
1.037837
0.975537
0.896059
0.800094
0.688110
0.563948
0.435652
0.311236
0.198628
0.107658
0.047817
0.025780
0.044638
0.103621
0.201945
0.342268
0.524812
0.741341
0.980992
1.237815
1.505875
1.771462
2.018280
2.235595
2.415215
2.547942
2.627121
2.650246
2.616134
2.522031
2.364212
2.144627
1.873176
1.557017
1.196711
0.798436
0.376900
-0.055054
-0.487726
-0.908063
-1.300448
-1.651449
-1.950265
-2.189781
-2.369821
-2.493968
-2.562564
-2.573785
-2.529389
-2.433738
-2.290814
-2.105451
-1.883008
-1.628616
-1.348657
-1.049349
-0.736266
-0.418143
-0.106968
0.186127
0.450874
0.674763
0.845856
0.958636
1.011749
1.001906
0.926099
0.789049
0.601649
0.371942
0.106337
-0.181851
-0.475374
-0.762341
-1.035578
-1.286630
-1.505079
-1.680247
-1.802883
-1.867758
-1.871637
-1.808316
-1.671031
-1.462419
-1.197919
-0.896226
-0.573795
-0.250370
0.052970
0.325359
0.566754
0.776829
0.952252
1.092625
1.200727
1.279316
1.331752
1.363720
1.381800
1.390689
1.393426
1.392291
1.387719
1.378651
1.364738
1.348162
1.334023
1.327795
1.332233
1.348109
1.376955
1.420277
1.476500
1.542524
1.617429
1.699371
1.781552
1.856007
1.915583
1.950454
1.949408
1.904314
1.812160
1.675896
1.502641
1.300729
1.079456
0.849251
0.622204
0.413548
0.239396
0.111240
0.031886
-0.004093
-0.004594
0.023030
0.067270
0.110290
0.133872
0.124478
0.072970
-0.024636
-0.164742
-0.338314
-0.535854
-0.750177
-0.976494
-1.210470
-1.446688
-1.677697
-1.893453
-2.084168
-2.243123
-2.365703
-2.448204
-2.487193
-2.477856
-2.413442
-2.288582
-2.103077
-1.860640
-1.565848
-1.225857
-0.854287
-0.470519
-0.095963
0.249709
0.554156
0.814488
1.031493
1.205062
1.336129
1.427732
1.481401
1.496006
1.473181
1.420774
1.347875
1.261049
1.168563
1.081903
1.010597
0.961488
0.942079
0.958555
1.011976
1.098672
1.211125
1.337739
1.463824
1.573684
1.652714
1.687952
1.668152
1.586324
1.442501
1.243049
0.997818
0.717562
0.411518
0.085701
-0.255557
-0.606306
-0.959558
-1.311237
-1.660283
-2.003364
-2.332456
-2.639084
-2.916220
-3.156901
-3.355157
-3.503203
-3.589860
-3.609455
-3.562965
-3.444297
-3.238619
-2.939354
-2.557856
-2.114799
-1.627996
-1.111288
-0.580339
-0.052246
0.456368
0.925435
1.329965
1.643192
1.842439
1.919256
1.884961
1.763971
1.583197
1.368120
1.143809
0.931366
0.741771
0.579142
0.451899
0.376241
0.366554
0.426215
0.548300
0.720867
0.930560
1.159273
1.379604
1.565720
1.710258
1.819828
1.898086
1.946598
1.974913
1.993513
1.999427
1.977624
1.914781
1.806848
1.651952
1.441145
1.163982
0.820243
0.417749
-0.037168
-0.537187
-1.066494
-1.604803
-2.133410
-2.633589
-3.088077
-3.486071
-3.819176
-4.074753
-4.243858
-4.332531
-4.354513
-4.316934
-4.220957
-4.069688
-3.869447
-3.630891
-3.367534
-3.084740
-2.777937
-2.443975
-2.082902
-1.691618
-1.265644
-0.805921
-0.320477
0.177118
0.668474
1.136331
1.570570
1.960483
2.287903
2.538382
2.708850
2.795653
2.786512
2.670586
2.448215
2.129300
1.728980
1.267009
0.768738
0.261210
-0.235997
-0.709993
-1.141562
-1.505397
-1.785078
-1.976945
-2.084515
-2.115713
-2.079427
-1.984621
-1.843700
-1.671665
-1.482310
-1.287683
-1.098424
-0.921476
-0.757431
-0.600492
-0.443116
-0.283036
-0.123059
0.035251
0.190241
0.333164
0.451229
0.537641
0.590952
0.606481
0.577673
0.505053
0.396733
0.261033
0.101946
-0.080929
-0.287418
-0.507724
-0.723648
-0.921901
-1.097919
-1.248731
-1.370402
-1.456997
-1.500642
-1.498918
-1.459275
-1.393253
-1.310231
-1.219994
-1.134600
-1.056313
-0.969908
-0.856096
-0.706395
-0.526655
-0.331126
-0.126440
0.093928
0.332315
0.577871
0.820736
1.059511
1.288681
1.491321
1.650912
1.764189
1.841302
1.896603
1.937928
1.964205
1.973495
1.971420
1.968713
1.968900
1.963233
1.942067
1.906698
1.866889
1.832532
1.809952
1.801928
1.810422
1.836905
1.875981
1.916082
1.951614
1.987253
2.027839
2.068064
2.095753
2.103650
2.087818
2.035185
1.927780
1.758851
1.533166
1.257808
0.943131
0.606658
0.268210
-0.055515
-0.349659
-0.603207
-0.813906
-0.982188
-1.101321
-1.162241
-1.167126
-1.131609
-1.075442
-1.012206
-0.943288
-0.863675
-0.771886
-0.666924
-0.540704
-0.383142
-0.193493
0.021526
0.258680
0.516537
0.786328
1.053669
1.305889
1.532879
1.725991
1.879297
1.985690
2.033146
2.012925
1.927265
1.782002
1.578275
1.319951
1.021595
0.700161
0.365596
0.023811
-0.317040
-0.646204
-0.954931
-1.238677
-1.493329
-1.710828
-1.881500
-2.000521
-2.067731
-2.083100
-2.048716
-1.973165
-1.868977
-1.746461
-1.611403
-1.468432
-1.324341
-1.184093
-1.045607
-0.902562
-0.751514
-0.595267
-0.437745
-0.279225
-0.122641
0.022013
0.145726
0.246473
0.325266
0.382511
0.418560
0.435449
0.438792
0.437334
0.441113
0.458884
0.495796
0.556542
0.647367
0.769189
0.913731
1.072096
1.241672
1.418947
1.592677
1.751040
1.890103
2.008815
2.099761
2.151482
2.156902
2.116270
2.034556
1.916933
1.767571
1.593339
1.406549
1.221403
1.047183
0.887446
0.744100
0.616184
0.496717
0.377203
0.252587
0.118089
-0.032836
-0.203970
-0.394425
-0.602964
-0.830242
-1.074390
-1.327848
-1.579837
-1.817984
-2.027283
-2.190492
-2.291908
-2.321691
-2.275757
-2.153314
-1.955320
-1.684450
-1.349557
-0.969637
-0.568424
-0.164395
0.232366
0.613474
0.964777
1.268899
1.513869
1.694680
1.807381
1.848053
1.819289
1.731791
1.596487
1.419547
1.206054
0.963357
0.700427
0.426866
0.152364
-0.112710
-0.357437
-0.575473
-0.767609
-0.934553
-1.072666
-1.178367
-1.252182
-1.300838
-1.334665
-1.360697
-1.382606
-1.406213
-1.439043
-1.484693
-1.542601
-1.612676
-1.695376
-1.788670
-1.888758
-1.993262
-2.100830
-2.207380
-2.305524
-2.387933
-2.449935
-2.489771
-2.507447
-2.503423
-2.477645
-2.430056
-2.363071
-2.280558
-2.183224
-2.070199
-1.943636
-1.804984
-1.649248
-1.468087
-1.255358
-1.006256
-0.715763
-0.381215
-0.002878
0.417977
0.877453
1.367291
1.877452
2.396409
2.907934
3.393649
3.840110
4.238867
4.581423
4.860198
5.072154
5.218175
5.300479
5.319178
5.271994
5.159939
4.988436
4.760365
4.475047
4.136302
3.755343
3.343883
2.907753
2.449880
1.978176
1.506242
1.048019
0.615380
0.218292
-0.134434
-0.436143
-0.686059
-0.888908
-1.052001
-1.186040
-1.303173
-1.411391
-1.517228
-1.632385
-1.766644
-1.915654
-2.067949
-2.224799
-2.403984
-2.620175
-2.866085
-3.121027
-3.376746
-3.638756
-3.902292
-4.148560
-4.362314
-4.533281
-4.648880
-4.704081
-4.704614
-4.646389
-4.512787
-4.299192
-4.016931
-3.673563
-3.270195
-2.814641
-2.319092
-1.788060
-1.223415
-0.638174
-0.052491
0.523987
1.093438
1.647875
2.161716
2.618015
3.022063
3.378854
3.677196
3.900241
4.040474
4.105764
4.112548
4.068335
3.963796
3.789550
3.555735
3.285837
2.995737
2.686477
2.351719
1.983277
1.577726
1.148590
0.721635
0.311301
-0.084468
-0.466100
-0.828342
-1.170988
-1.490970
-1.767301
-1.972252
-2.092447
-2.129356
-2.089315
-1.984531
-1.836904
-1.671846
-1.512380
-1.379271
-1.287689
-1.237888
-1.216229
-1.216643
-1.250291
-1.324289
-1.429070
-1.552577
-1.690918
-1.843162
-2.003695
-2.159257
-2.291718
-2.385284
-2.429399
-2.417783
-2.353597
-2.251032
-2.124375
-1.980669
-1.823764
-1.660081
-1.496897
-1.335381
-1.174379
-1.019438
-0.876034
-0.739121
-0.595864
-0.432238
-0.239515
-0.020800
0.212177
0.449323
0.685537
0.918175
1.146759
1.372945
1.600169
1.832360
2.067933
2.297912
2.511493
2.698457
2.852134
2.974503
3.070019
3.134031
3.154635
3.123965
3.043373
2.921315
2.769433
2.599300
2.422190
2.248755
2.083904
1.924419
1.765381
1.605262
1.442081
1.267671
1.068558
0.832896
0.557098
0.246033
-0.094151
-0.459555
-0.842840
-1.231417
-1.613363
-1.980517
-2.324036
-2.628428
-2.877098
-3.066188
-3.203448
-3.293215
-3.335074
-3.335321
-3.308302
-3.270228
-3.234850
-3.207728
-3.184251
-3.156268
-3.117030
-3.057048
-2.961528
-2.817874
-2.620195
-2.363607
-2.041877
-1.651958
-1.195531
-0.676129
-0.097805
0.531926
1.199644
1.889060
2.584812
3.269964
3.920608
4.508580
5.012107
5.420251
5.728386
5.934843
6.040411
6.047272
5.960478
5.792947
5.563265
5.284227
4.960321
4.597427
4.205359
3.789586
3.348150
2.878587
2.383552
1.869694
1.344289
0.814690
0.290925
-0.215876
-0.697519
-1.144800
-1.544366
-1.885843
-2.165687
-2.382424
-2.535366
-2.627894
-2.667508
-2.663493
-2.626480
-2.569111
-2.504822
-2.445212
-2.398763
-2.369941
-2.357519
-2.353729
-2.345161
-2.318617
-2.268595
-2.194927
-2.096806
-1.974596
-1.831011
-1.668243
-1.489669
-1.302414
-1.110944
-0.910629
-0.696521
-0.475985
-0.264604
-0.072931
0.095282
0.233173
0.325437
0.356286
0.320651
0.225575
0.083417
-0.096766
-0.309682
-0.543885
-0.782423
-1.013117
-1.225001
-1.401468
-1.527658
-1.599584
-1.621892
-1.599339
-1.534932
-1.435692
-1.311767
-1.167216
-1.000052
-0.815046
-0.627247
-0.449549
-0.286632
-0.142595
-0.024948
0.063603
0.129877
0.177503
0.201132
0.205277
0.210144
0.232163
0.281499
0.372342
0.511346
0.689169
0.899426
1.146360
1.428143
1.736489
2.070079
2.430948
2.815502
3.212964
3.606597
3.981042
4.327788
4.640367
4.912251
5.140480
5.324398
5.460219
5.538802
5.551752
5.499289
5.385907
5.212246
4.978692
4.689092
4.346485
3.954873
3.526266
3.077422
2.619505
2.158260
1.704567
1.276043
0.886798
0.544405
0.258117
0.039647
-0.106569
-0.186668
-0.212817
-0.199530
-0.162940
-0.120208
-0.081829
-0.046692
-0.013782
0.007535
0.003727
-0.034470
-0.110939
-0.226682
-0.382371
-0.577580
-0.807976
-1.066697
-1.348253
-1.647251
-1.956045
-2.267022
-2.574149
-2.875286
-3.175659
-3.481007
-3.788102
-4.091321
-4.389458
-4.675488
-4.931297
-5.138419
-5.288033
-5.381295
-5.420963
-5.406104
-5.338951
-5.228929
-5.081252
-4.887282
-4.636238
-4.331602
-3.987818
-3.617264
-3.226497
-2.819761
-2.399804
-1.967667
-1.525853
-1.077083
-0.618500
-0.145494
0.336918
0.813871
1.272209
1.703259
2.093551
2.422022
2.666882
2.811347
2.845434
2.765303
2.574614
2.290302
1.941792
1.557913
1.156999
0.750726
0.351461
-0.026533
-0.369459
-0.665752
-0.906790
-1.089231
-1.219418
-1.311668
-1.376582
-1.413257
-1.417530
-1.391098
-1.335657
-1.249194
-1.135723
-1.009580
-0.886740
-0.777634
-0.690072
-0.635213
-0.627504
-0.679090
-0.794285
-0.968789
-1.191558
-1.444765
-1.706723
-1.958530
-2.181622
-2.349042
-2.434752
-2.432929
-2.349966
-2.185091
-1.939169
-1.629152
-1.278780
-0.901787
-0.498304
-0.069559
0.370112
0.803835
1.222869
1.620010
1.981994
2.292449
2.539309
2.715742
2.816854
2.845448
2.819708
2.760311
2.671923
2.552087
2.405790
2.236809
2.041673
1.821480
1.587748
1.351234
1.110304
0.856578
0.591392
0.332502
0.102712
-0.086785
-0.236652
-0.348256
-0.424914
-0.476815
-0.512112
-0.532035
-0.537814
-0.532305
-0.521152
-0.516956
-0.531084
-0.563015
-0.603932
-0.643464
-0.671628
-0.680610
-0.666505
-0.628063
-0.562469
-0.466892
-0.344838
-0.203982
-0.052283
0.098616
0.234029
0.341824
0.412349
0.435989
0.405621
0.318650
0.174999
-0.019965
-0.251898
-0.506351
-0.773058
-1.035720
-1.273394
-1.473675
-1.633797
-1.754472
-1.839238
-1.894684
-1.926962
-1.940084
-1.936271
-1.914404
-1.873069
-1.813416
-1.731562
-1.616318
-1.460897
-1.269542
-1.051361
-0.814996
-0.569731
-0.324037
-0.081605
0.156470
0.387488
0.609370
0.823768
1.033128
1.237516
1.435838
1.628769
1.819199
2.005905
2.178564
2.324896
2.439520
2.521931
2.570305
2.581663
2.555886
2.496236
2.407551
2.294269
2.156955
1.994494
1.813212
1.625787
1.441129
1.265978
1.112693
0.994630
0.916656
0.876741
0.872802
0.903754
0.968141
1.063082
1.183210
1.324968
1.491726
1.687078
1.905342
2.135912
2.370148
2.598057
2.808841
2.998980
3.169048
3.311307
3.409145
3.446390
3.411483
3.298448
3.109171
2.851977
2.538910
2.186300
1.813671
1.441883
1.092444
0.783384
0.527447
0.333263
0.199214
0.112564
0.063186
0.047157
0.055022
0.071480
0.087662
0.102179
0.110706
0.105741
0.085324
0.052360
0.008420
-0.046687
-0.114472
-0.198460
-0.299479
-0.411069
-0.524914
-0.635831
-0.737407
-0.822510
-0.890801
-0.948509
-0.999699
-1.040180
-1.063160
-1.069704
-1.067328
-1.059352
-1.042126
-1.012957
-0.975772
-0.938294
-0.906432
-0.880560
-0.858104
-0.840954
-0.834954
-0.842090
-0.858739
-0.879433
-0.898496
-0.909019
-0.903053
-0.875846
-0.828136
-0.760515
-0.670225
-0.559110
-0.439149
-0.325125
-0.225646
-0.142900
-0.078304
-0.035321
-0.016258
-0.020163
-0.045364
-0.091581
-0.159240
-0.248055
-0.358533
-0.495554
-0.664914
-0.864216
-1.082712
-1.310155
-1.541755
-1.775987
-2.009238
-2.231032
-2.425600
-2.580140
-2.689481
-2.752191
-2.766779
-2.734061
-2.659428
-2.550177
-2.413185
-2.255376
-2.084497
-1.910367
-1.743536
-1.589096
-1.443541
-1.300594
-1.157909
-1.016509
-0.877831
-0.743725
-0.615978
-0.494537
-0.380081
-0.278055
-0.195024
-0.132349
-0.087262
-0.057041
-0.039353
-0.031593
-0.031915
-0.040001
-0.056436
-0.079800
-0.104157
-0.122139
-0.129303
-0.122322
-0.096382
-0.048519
0.021177
0.114351
0.233380
0.375070
0.532033
0.698499
0.869236
1.036148
1.191657
1.331967
1.453632
1.552529
1.627343
1.678471
1.704152
1.702032
1.672655
1.617960
1.539137
1.437436
1.313521
1.166999
0.999764
0.816633
0.620429
0.412132
0.198713
-0.005074
-0.184675
-0.330281
-0.433447
-0.485334
-0.480193
-0.417714
-0.301267
-0.135987
0.070170
0.303783
0.545557
0.774709
0.974885
1.135007
1.245524
1.298160
1.290357
1.225186
1.104904
0.929099
0.701054
0.430580
0.127444
-0.201856
-0.545880
-0.883437
-1.194008
-1.468215
-1.703841
-1.899075
-2.053892
-2.170909
-2.250170
-2.286882
