EVENT_NAME: L_AQUILA
EVENT_ID: IT-2009-0009
EVENT_DATE_YYYYMMDD: 20090406
EVENT_TIME_HHMMSS: 013240
EVENT_LATITUDE_DEGREE: 42.3420
EVENT_LONGITUDE_DEGREE: 13.3800
EVENT_DEPTH_KM: 8.3
HYPOCENTER_REFERENCE: INGV-CNT_Seismic_Bulletin
MAGNITUDE_W: 6.1
MAGNITUDE_W_REFERENCE: INGV-CNT_Seismic_Bulletin
MAGNITUDE_L: 
MAGNITUDE_L_REFERENCE: 
FOCAL_MECHANISM: Normal faulting
NETWORK: IT
STATION_CODE: ASS
STATION_NAME: 
STATION_LATITUDE_DEGREE: 43.074982
STATION_LONGITUDE_DEGREE: 12.604141
STATION_ELEVATION_M: 390
LOCATION: 
SENSOR_DEPTH_M: 0.0
VS30_M/S: 
SITE_CLASSIFICATION_EC8: A (inferred from geology)
MORPHOLOGIC_CLASSIFICATION: 
EPICENTRAL_DISTANCE_KM: 103.3
EARTHQUAKE_BACKAZIMUTH_DEGREE: 322.3
DATE_TIME_FIRST_SAMPLE_YYYYMMDD_HHMMSS: 
DATE_TIME_FIRST_SAMPLE_PRECISION: 
SAMPLING_INTERVAL_S: 
NDATA: 105
DURATION_S: 
STREAM: HNN
UNITS: cm/s^2
INSTRUMENT: sensor = FBA-3 [Kinemetrics] | digitizer = Everest [Kinemetrics]
INSTRUMENT_ANALOG/DIGITAL: D
INSTRUMENTAL_FREQUENCY_HZ: 210.000
INSTRUMENTAL_DAMPING: 0.000000
FULL_SCALE_G: 1.0
N_BIT_DIGITAL_CONVERTER: 24
PGA_CM/S^2: -3.138201
TIME_PGA_S: 
BASELINE_CORRECTION: BASELINE REMOVED
FILTER_TYPE: BUTTERWORTH
FILTER_ORDER: 2
LOW_CUT_FREQUENCY_HZ: 0.060
HIGH_CUT_FREQUENCY_HZ: 40.000
LATE/NORMAL_TRIGGERED: NT
DATABASE_VERSION: 0.5
HEADER_FORMAT: DYNA 1.2
DATA_TYPE: ACCELERATION RESPONSE SPECTRUM
PROCESSING: manual (Paolucci et al., 2011)
DATA_TIMESTAMP_YYYYMMDD_HHMMSS: 20211011_160707.781
DATA_LICENSE: CC-BY3_0-IT (http://creativecommons.org/licenses/by/3.0/deed.en)
DATA_CITATION: Luzi L, Pacor F, Puglia R (2019). Italian Accelerometric Archive v 3.0 - Istituto Nazionale di Geofisica e Vulcanologia, Dipartimento della Protezione Civile Nazionale. doi: 10.13127/itaca.3.1
DATA_CREATOR: ITACA working group
ORIGINAL_DATA_MEDIATOR_CITATION: data obtained within the DPC-INGV data exchange agreements
ORIGINAL_DATA_MEDIATOR: Archive of Italian Department of Civil Protection
ORIGINAL_DATA_CREATOR_CITATION: Presidency Of Counsil Of Ministers-Civil Protection Department. (1972). Italian Strong Motion Network. Presidency of Counsil of Ministers - Civil Protection Department. https://doi.org/10.7914/SN/IT http://www.fdsn.org/networks/detail/IT/
ORIGINAL_DATA_CREATOR: network: IT (Italian Strong Motion Network (RAN)); owner: Presidency of Counsil of Ministers - Civil Protection Department (PCM - DPC)
USER1: 
USER2: 
USER3: 
USER4: 
USER5: 
    0.010000     3.140327
    0.020000     3.153950
    0.022000     3.167586
    0.025000     3.175563
    0.029000     3.179111
    0.030000     3.185268
    0.032000     3.219327
    0.035001     3.254169
    0.036000     3.244140
    0.040000     3.230184
    0.041999     3.251837
    0.044001     3.287345
    0.045000     3.301818
    0.046000     3.330993
    0.048001     3.341651
    0.050000     3.362794
    0.054999     3.396469
    0.059999     3.433514
    0.064998     3.604334
    0.067002     3.707627
    0.069999     3.855623
    0.075002     3.937455
    0.080000     4.354252
    0.084998     4.327492
    0.090001     4.528240
    0.095003     5.007936
    0.100000     5.560916
    0.109999     7.219034
    0.120005     7.671360
    0.130005    10.664493
    0.132996    10.710725
    0.139997    11.916183
    0.149993     9.547008
    0.160000    11.965239
    0.170010    12.302441
    0.179986    11.319156
    0.190006     8.544278
    0.200000     8.230427
    0.220022     7.195114
    0.239981     8.742870
    0.250000     8.815843
    0.260010     9.496667
    0.280034    11.013507
    0.290023    11.157415
    0.300030    10.452964
    0.320000    11.695098
    0.340020    13.746361
    0.350017    12.668784
    0.359971    12.631765
    0.379939    12.774152
    0.400000    12.475010
    0.419992     9.651767
    0.439947     8.086027
    0.450045     8.023184
    0.459982     7.644325
    0.480077     7.356822
    0.500000     7.944761
    0.550055     7.564301
    0.599880     6.060308
    0.650195     6.710962
    0.667111     6.713800
    0.699790     6.476402
    0.750188     6.104890
    0.800000     5.799781
    0.850340     5.073408
    0.900090     4.778787
    0.949668     4.736841
    1.000000     4.184107
    1.100110     3.726478
    1.200480     3.902415
    1.300390     4.384162
    1.400560     3.948292
    1.499250     2.831836
    1.600000     2.697920
    1.700680     2.370599
    1.798561     1.874029
    1.901141     1.724080
    2.000000     1.480086
    2.197802     1.918681
    2.398082     1.898130
    2.500000     1.764343
    2.597403     1.779015
    2.801121     1.539538
    3.003003     1.666154
    3.205128     1.776638
    3.401361     1.411380
    3.496503     1.168051
    3.597122     0.996227
    3.802281     0.895416
    4.000000     0.789563
    4.201681     0.652840
    4.405286     0.575116
    4.608295     0.596622
    4.807692     0.574683
    5.000000     0.560038
    5.494505     0.580674
    5.988024     0.677445
    6.493506     0.568136
    6.993007     0.476843
    7.518797     0.369982
    8.000000     0.273113
    8.474576     0.204307
    9.009009     0.162990
    9.523809     0.133005
   10.000000     0.109904
