EVENT_NAME: L_AQUILA
EVENT_ID: IT-2009-0009
EVENT_DATE_YYYYMMDD: 20090406
EVENT_TIME_HHMMSS: 013240
EVENT_LATITUDE_DEGREE: 42.3420
EVENT_LONGITUDE_DEGREE: 13.3800
EVENT_DEPTH_KM: 8.3
HYPOCENTER_REFERENCE: INGV-CNT_Seismic_Bulletin
MAGNITUDE_W: 6.1
MAGNITUDE_W_REFERENCE: INGV-CNT_Seismic_Bulletin
MAGNITUDE_L: 
MAGNITUDE_L_REFERENCE: 
FOCAL_MECHANISM: Normal faulting
NETWORK: IT
STATION_CODE: ASS
STATION_NAME: 
STATION_LATITUDE_DEGREE: 43.074982
STATION_LONGITUDE_DEGREE: 12.604141
STATION_ELEVATION_M: 390
LOCATION: 
SENSOR_DEPTH_M: 0.0
VS30_M/S: 
SITE_CLASSIFICATION_EC8: A (inferred from geology)
MORPHOLOGIC_CLASSIFICATION: 
EPICENTRAL_DISTANCE_KM: 103.3
EARTHQUAKE_BACKAZIMUTH_DEGREE: 322.3
DATE_TIME_FIRST_SAMPLE_YYYYMMDD_HHMMSS: 20090406_013234.000
DATE_TIME_FIRST_SAMPLE_PRECISION: seconds
SAMPLING_INTERVAL_S: 0.005000
NDATA: 20000
DURATION_S: 100.000
STREAM: HNN
UNITS: cm/s
INSTRUMENT: sensor = FBA-3 [Kinemetrics] | digitizer = Everest [Kinemetrics]
INSTRUMENT_ANALOG/DIGITAL: D
INSTRUMENTAL_FREQUENCY_HZ: 210.000
INSTRUMENTAL_DAMPING: 0.000000
FULL_SCALE_G: 1.0
N_BIT_DIGITAL_CONVERTER: 24
PGV_CM/S: 0.393317
TIME_PGV_S: 46.655000
BASELINE_CORRECTION: BASELINE REMOVED
FILTER_TYPE: BUTTERWORTH
FILTER_ORDER: 2
LOW_CUT_FREQUENCY_HZ: 0.060
HIGH_CUT_FREQUENCY_HZ: 40.000
LATE/NORMAL_TRIGGERED: NT
DATABASE_VERSION: 0.5
HEADER_FORMAT: DYNA 1.2
DATA_TYPE: VELOCITY
PROCESSING: manual (Paolucci et al., 2011)
DATA_TIMESTAMP_YYYYMMDD_HHMMSS: 20211011_160706.797
DATA_LICENSE: CC-BY3_0-IT (http://creativecommons.org/licenses/by/3.0/deed.en)
DATA_CITATION: Luzi L, Pacor F, Puglia R (2019). Italian Accelerometric Archive v 3.0 - Istituto Nazionale di Geofisica e Vulcanologia, Dipartimento della Protezione Civile Nazionale. doi: 10.13127/itaca.3.1
DATA_CREATOR: ITACA working group
ORIGINAL_DATA_MEDIATOR_CITATION: data obtained within the DPC-INGV data exchange agreements
ORIGINAL_DATA_MEDIATOR: Archive of Italian Department of Civil Protection
ORIGINAL_DATA_CREATOR_CITATION: Presidency Of Counsil Of Ministers-Civil Protection Department. (1972). Italian Strong Motion Network. Presidency of Counsil of Ministers - Civil Protection Department. https://doi.org/10.7914/SN/IT http://www.fdsn.org/networks/detail/IT/
ORIGINAL_DATA_CREATOR: network: IT (Italian Strong Motion Network (RAN)); owner: Presidency of Counsil of Ministers - Civil Protection Department (PCM - DPC)
USER1: 
USER2: 
USER3: 
USER4: 
USER5: 
[...]
0.106043
0.102334
0.098902
0.095747
0.092869
0.090275
0.087976
0.085964
0.084227
0.082790
0.081726
0.081144
0.081127
0.081706
0.082869
0.084591
0.086834
0.089531
0.092554
0.095715
0.098774
0.101472
0.103567
0.104870
0.105243
0.104595
0.102885
0.100113
0.096342
0.091706
0.086414
0.080728
0.074943
0.069367
0.064294
0.059997
0.056728
0.054696
0.054026
0.054740
0.056764
0.059948
0.064106
0.069031
0.074499
0.080249
0.086004
0.091497
0.096481
0.100743
0.104112
0.106468
0.107738
0.107895
0.106955
0.104976
0.102059
0.098356
0.094054
0.089352
0.084466
0.079631
0.075108
0.071163
0.068043
0.065933
0.064917
0.064949
0.065897
0.067592
0.069851
0.072471
0.075246
0.077987
0.080536
0.082763
0.084550
0.085791
0.086387
0.086242
0.085284
0.083485
0.080854
0.077424
0.073247
0.068392
0.062945
0.057005
0.050699
0.044189
0.037652
0.031249
0.025100
0.019279
0.013817
0.008712
0.003920
-0.000641
-0.005079
-0.009485
-0.013919
-0.018404
-0.022921
-0.027400
-0.031714
-0.035711
-0.039252
-0.042226
-0.044538
-0.046085
-0.046780
-0.046585
-0.045529
-0.043677
-0.041107
-0.037893
-0.034111
-0.029853
-0.025251
-0.020475
-0.015707
-0.011131
-0.006931
-0.003290
-0.000358
0.001779
0.003103
0.003640
0.003450
0.002635
0.001348
-0.000222
-0.001882
-0.003460
-0.004796
-0.005729
-0.006118
-0.005881
-0.005011
-0.003527
-0.001425
0.001308
0.004662
0.008595
0.013067
0.018064
0.023580
0.029581
0.035973
0.042591
0.049223
0.055631
0.061575
0.066830
0.071196
0.074480
0.076488
0.077049
0.076058
0.073472
0.069279
0.063498
0.056209
0.047548
0.037679
0.026810
0.015227
0.003284
-0.008626
-0.020101
-0.030740
-0.040167
-0.048069
-0.054240
-0.058601
-0.061183
-0.062098
-0.061521
-0.059671
-0.056788
-0.053101
-0.048817
-0.044118
-0.039153
-0.034025
-0.028781
-0.023424
-0.017944
-0.012353
-0.006672
-0.000929
0.004829
0.010531
0.016104
0.021494
0.026667
0.031615
0.036359
0.040942
0.045418
0.049869
0.054405
0.059126
0.064092
0.069302
0.074699
0.080180
0.085617
0.090879
0.095833
0.100343
0.104276
0.107510
0.109945
0.111523
0.112255
0.112221
0.111568
0.110504
0.109270
0.108091
0.107162
0.106661
0.106758
0.107593
0.109238
0.111695
0.114921
0.118839
0.123327
0.128218
0.133314
0.138412
0.143337
0.147958
0.152176
0.155894
0.159018
0.161484
0.163264
0.164334
0.164655
0.164190
0.162921
0.160848
0.157998
0.154458
0.150391
0.146039
0.141666
0.137507
0.133764
0.130634
0.128294
0.126874
0.126424
0.126925
0.128285
0.130330
0.132808
0.135407
0.137783
0.139608
0.140613
0.140600
0.139460
0.137202
0.133962
0.129965
0.125482
0.120811
0.116246
0.112057
0.108481
0.105709
0.103880
0.103065
0.103293
0.104566
0.106870
0.110167
0.114393
0.119439
0.125133
0.131261
0.137588
0.143862
0.149811
0.155157
0.159650
0.163086
0.165300
0.166151
0.165552
0.163499
0.160082
0.155450
0.149782
0.143285
0.136207
0.128828
0.121452
0.114372
0.107846
0.102082
0.097216
0.093288
0.090233
0.087883
0.086000
0.084285
0.082406
0.080042
0.076916
0.072805
0.067537
0.061001
0.053160
0.044049
0.033787
0.022553
0.010555
-0.002000
-0.014895
-0.027898
-0.040750
-0.053160
-0.064817
-0.075417
-0.084701
-0.092456
-0.098509
-0.102753
-0.105183
-0.105912
-0.105147
-0.103180
-0.100350
-0.097014
-0.093517
-0.090179
-0.087264
-0.084970
-0.083410
-0.082645
-0.082682
-0.083466
-0.084860
-0.086675
-0.088729
-0.090877
-0.093014
-0.095061
-0.096952
-0.098626
-0.100012
-0.101041
-0.101667
-0.101877
-0.101667
-0.101003
-0.099810
-0.098015
-0.095583
-0.092537
-0.088939
-0.084878
-0.080464
-0.075803
-0.070979
-0.066062
-0.061122
-0.056244
-0.051537
-0.047121
-0.043110
-0.039642
-0.036910
-0.035157
-0.034624
-0.035501
-0.037901
-0.041838
-0.047221
-0.053883
-0.061614
-0.070191
-0.079354
-0.088786
-0.098137
-0.107075
-0.115294
-0.122498
-0.128418
-0.132828
-0.135554
-0.136466
-0.135499
-0.132688
-0.128179
-0.122209
-0.115073
-0.107122
-0.098759
-0.090430
-0.082581
-0.075610
-0.069827
-0.065473
-0.062728
-0.061704
-0.062422
-0.064806
-0.068715
-0.073984
-0.080428
-0.087834
-0.095976
-0.104643
-0.113627
-0.122703
-0.131634
-0.140175
-0.148096
-0.155196
-0.161322
-0.166357
-0.170212
-0.172844
-0.174291
-0.174674
-0.174167
-0.172969
-0.171299
-0.169409
-0.167574
-0.166055
-0.165036
-0.164589
-0.164694
-0.165276
-0.166223
-0.167399
-0.168667
-0.169907
-0.171043
-0.172055
-0.172973
-0.173833
-0.174611
-0.175223
-0.175559
-0.175504
-0.174950
-0.173803
-0.171997
-0.169486
-0.166217
-0.162133
-0.157218
-0.151525
-0.145171
-0.138315
-0.131116
-0.123735
-0.116345
-0.109107
-0.102127
-0.095460
-0.089137
-0.083185
-0.077627
-0.072470
-0.067688
-0.063212
-0.058927
-0.054684
-0.050340
-0.045790
-0.040971
-0.035857
-0.030454
-0.024788
-0.018902
-0.012871
-0.006817
-0.000914
0.004624
0.009575
0.013750
0.017033
0.019379
0.020768
0.021198
0.020714
0.019429
0.017502
0.015123
0.012502
0.009865
0.007458
0.005521
0.004266
0.003877
0.004540
0.006396
0.009479
0.013686
0.018810
0.024570
0.030620
0.036539
0.041873
0.046197
0.049145
0.050417
0.049759
0.046982
0.041973
0.034716
0.025316
0.014000
0.001094
-0.013015
-0.027898
-0.043096
-0.058135
-0.072540
-0.085859
-0.097692
-0.107699
-0.115568
-0.121012
-0.123811
-0.123855
-0.121131
-0.115710
-0.107777
-0.097662
-0.085815
-0.072741
-0.058947
-0.044925
-0.031150
-0.018062
-0.006055
0.004536
0.013431
0.020406
0.025298
0.028028
0.028619
0.027205
0.024033
0.019426
0.013753
0.007414
0.000809
-0.005684
-0.011735
-0.017078
-0.021541
-0.025049
-0.027614
-0.029311
-0.030248
-0.030559
-0.030400
-0.029950
-0.029378
-0.028820
-0.028385
-0.028171
-0.028271
-0.028775
-0.029782
-0.031389
-0.033670
-0.036668
-0.040390
-0.044810
-0.049856
-0.055417
-0.061366
-0.067550
-0.073754
-0.079681
-0.084974
-0.089315
-0.092509
-0.094461
-0.095099
-0.094361
-0.092250
-0.088851
-0.084302
-0.078780
-0.072518
-0.065789
-0.058853
-0.051894
-0.045016
-0.038273
-0.031721
-0.025443
-0.019526
-0.014045
-0.009061
-0.004622
-0.000777
0.002395
0.004792
0.006342
0.007052
0.006965
0.006095
0.004391
0.001756
-0.001897
-0.006587
-0.012228
-0.018619
-0.025513
-0.032699
-0.040029
-0.047381
-0.054617
-0.061582
-0.068131
-0.074145
-0.079548
-0.084331
-0.088522
-0.092144
-0.095212
-0.097774
-0.099884
-0.101569
-0.102840
-0.103748
-0.104399
-0.104945
-0.105556
-0.106395
-0.107626
-0.109435
-0.111980
-0.115306
-0.119322
-0.123892
-0.128903
-0.134260
-0.139842
-0.145499
-0.151065
-0.156354
-0.161155
-0.165225
-0.168300
-0.170144
-0.170602
-0.169593
-0.167057
-0.162941
-0.157230
-0.149988
-0.141346
-0.131481
-0.120622
-0.109054
-0.097106
-0.085127
-0.073486
-0.062597
-0.052920
-0.044883
-0.038790
-0.034773
-0.032821
-0.032853
-0.034769
-0.038450
-0.043711
-0.050339
-0.058171
-0.067125
-0.077132
-0.088095
-0.099881
-0.112327
-0.125255
-0.138510
-0.151967
-0.165488
-0.178866
-0.191807
-0.203996
-0.215163
-0.225120
-0.233745
-0.240970
-0.246774
-0.251157
-0.254145
-0.255808
-0.256247
-0.255552
-0.253799
-0.251080
-0.247526
-0.243309
-0.238613
-0.233601
-0.228419
-0.223200
-0.218068
-0.213140
-0.208534
-0.204370
-0.200746
-0.197743
-0.195409
-0.193751
-0.192738
-0.192314
-0.192414
-0.192964
-0.193872
-0.195013
-0.196239
-0.197385
-0.198276
-0.198747
-0.198665
-0.197950
-0.196577
-0.194562
-0.191936
-0.188735
-0.185021
-0.180908
-0.176530
-0.171973
-0.167292
-0.162537
-0.157762
-0.153021
-0.148382
-0.143898
-0.139576
-0.135399
-0.131371
-0.127514
-0.123843
-0.120362
-0.117069
-0.113929
-0.110846
-0.107676
-0.104284
-0.100559
-0.096403
-0.091719
-0.086398
-0.080310
-0.073338
-0.065443
-0.056684
-0.047175
-0.037021
-0.026288
-0.015016
-0.003239
0.008971
0.021470
0.034025
0.046369
0.058275
0.069573
0.080101
0.089667
0.098094
0.105271
0.111144
0.115664
0.118781
0.120466
0.120762
0.119789
0.117742
0.114860
0.111399
0.107639
0.103866
0.100349
0.097319
0.094966
0.093444
0.092864
0.093306
0.094820
0.097422
0.101051
0.105574
0.110821
0.116622
0.122810
0.129194
0.135565
0.141726
0.147519
0.152824
0.157534
0.161548
0.164792
0.167231
0.168867
0.169725
0.169844
0.169292
0.168164
0.166573
0.164632
0.162467
0.160211
0.157986
0.155889
0.153978
0.152262
0.150708
0.149253
0.147835
0.146398
0.144899
0.143318
0.141671
0.140010
0.138397
0.136883
0.135480
0.134134
0.132737
0.131160
0.129282
0.126967
0.124040
0.120306
0.115606
0.109851
0.103013
0.095100
0.086181
0.076383
0.065858
0.054745
0.043139
0.031099
0.018681
0.005943
-0.007070
-0.020315
-0.033716
-0.047170
-0.060565
-0.073776
-0.086640
-0.098956
-0.110520
-0.121135
-0.130618
-0.138804
-0.145563
-0.150811
-0.154524
-0.156734
-0.157526
-0.157040
-0.155443
-0.152905
-0.149589
-0.145658
-0.141274
-0.136594
-0.131746
-0.126818
-0.121849
-0.116858
-0.111871
-0.106925
-0.102071
-0.097374
-0.092907
-0.088743
-0.084941
-0.081555
-0.078630
-0.076191
-0.074220
-0.072655
-0.071397
-0.070322
-0.069297
-0.068200
-0.066962
-0.065569
-0.064042
-0.062413
-0.060718
-0.059028
-0.057463
-0.056193
-0.055399
-0.055244
-0.055852
-0.057304
-0.059622
-0.062767
-0.066670
-0.071245
-0.076382
-0.081944
-0.087764
-0.093672
-0.099525
-0.105209
-0.110633
-0.115702
-0.120312
-0.124363
-0.127769
-0.130456
-0.132372
-0.133494
-0.133826
-0.133384
-0.132175
-0.130192
-0.127421
-0.123840
-0.119432
-0.114195
-0.108137
-0.101279
-0.093668
-0.085393
-0.076586
-0.067413
-0.058074
-0.048782
-0.039759
-0.031218
-0.023342
-0.016264
-0.010060
-0.004761
-0.000361
0.003167
0.005879
0.007882
0.009355
0.010518
0.011576
0.012691
0.013975
0.015513
0.017388
0.019696
0.022514
0.025883
0.029799
0.034241
0.039195
0.044655
0.050608
0.057023
0.063856
0.071054
0.078571
0.086361
0.094378
0.102578
0.110921
0.119354
0.127798
0.136155
0.144313
0.152158
0.159592
0.166537
0.172922
0.178676
0.183734
0.188073
0.191728
0.194780
0.197352
0.199593
0.201617
0.203485
0.205255
0.206992
0.208730
0.210482
0.212300
0.214250
0.216345
0.218524
0.220694
0.222794
0.224787
0.226590
0.228053
0.229000
0.229272
0.228705
0.227134
0.224413
0.220440
0.215194
0.208736
0.201144
0.192467
0.182786
0.172294
0.161293
0.150137
0.139179
0.128731
0.119051
0.110368
0.102873
0.096697
0.091925
0.088597
0.086688
0.086110
0.086774
0.088598
0.091478
0.095272
0.099825
0.104996
0.110647
0.116622
0.122744
0.128828
0.134668
0.140042
0.144775
0.148780
0.151998
0.154346
0.155753
0.156210
0.155732
0.154298
0.151839
0.148277
0.143568
0.137741
0.130908
0.123248
0.114953
0.106192
0.097122
0.087914
0.078746
0.069756
0.061004
0.052508
0.044326
0.036585
0.029431
0.022981
0.017310
0.012456
0.008416
0.005146
0.002574
0.000645
-0.000668
-0.001404
-0.001650
-0.001526
-0.001157
-0.000675
-0.000244
-0.000038
-0.000145
-0.000538
-0.001163
-0.002013
-0.003089
-0.004328
-0.005594
-0.006722
-0.007536
-0.007851
-0.007485
-0.006283
-0.004124
-0.000920
0.003410
0.008957
0.015792
0.023910
0.033208
0.043522
0.054685
0.066543
0.078937
0.091682
0.104577
0.117435
0.130091
0.142412
0.154332
0.165859
0.177011
0.187742
0.197914
0.207335
0.215822
0.223252
0.229556
0.234689
0.238624
0.241357
0.242879
0.243157
0.242161
0.239930
0.236556
0.232098
0.226522
0.219745
0.211714
0.202439
0.191968
0.180368
0.167734
0.154187
0.139871
0.124943
0.109569
0.093932
0.078241
0.062695
0.047451
0.032636
0.018363
0.004730
-0.008207
-0.020470
-0.032176
-0.043485
-0.054525
-0.065363
-0.076038
-0.086608
-0.097132
-0.107632
-0.118061
-0.128294
-0.138127
-0.147301
-0.155545
-0.162614
-0.168290
-0.172364
-0.174636
-0.174948
-0.173197
-0.169325
-0.163319
-0.155246
-0.145271
-0.133623
-0.120549
-0.106327
-0.091286
-0.075768
-0.060088
-0.044536
-0.029402
-0.014968
-0.001477
0.010890
0.022005
0.031781
0.040169
0.047158
0.052759
0.056998
0.059900
0.061510
0.061919
0.061295
0.059859
0.057859
0.055531
0.053072
0.050617
0.048238
0.045966
0.043821
0.041835
0.040030
0.038394
0.036879
0.035413
0.033931
0.032399
0.030795
0.029095
0.027296
0.025425
0.023541
0.021725
0.020072
0.018678
0.017640
0.017071
0.017096
0.017818
0.019303
0.021589
0.024707
0.028660
0.033386
0.038741
0.044522
0.050485
0.056350
0.061845
0.066759
0.070962
0.074373
0.076939
0.078629
0.079427
0.079336
0.078403
0.076756
0.074613
0.072252
0.069972
0.068101
0.066976
0.066877
0.067995
0.070443
0.074287
0.079538
0.086153
0.094030
0.103012
0.112892
0.123435
0.134375
0.145405
0.156203
0.166483
0.176016
0.184614
0.192127
0.198481
0.203676
0.207770
0.210859
0.213074
0.214569
0.215514
0.216127
0.216673
0.217432
0.218675
0.220629
0.223456
0.227291
0.232274
0.238539
0.246174
0.255189
0.265490
0.276872
0.289047
0.301692
0.314492
0.327155
0.339403
0.350955
0.361519
0.370813
0.378604
0.384768
0.389272
0.392119
0.393317
0.392918
0.391046
0.387859
0.383540
0.378313
0.372439
0.366139
0.359559
0.352813
0.346042
0.339449
0.333263
0.327706
0.322976
0.319224
0.316540
0.314948
0.314422
0.314927
0.316429
0.318862
0.322071
0.325791
0.329724
0.333620
0.337287
0.340547
0.343237
0.345249
0.346534
0.347060
0.346774
0.345646
0.343707
0.341052
0.337782
0.333947
0.329547
0.324552
0.318934
0.312679
0.305779
0.298197
0.289865
0.280720
0.270744
0.259955
0.248401
0.236143
0.223256
0.209827
0.195982
0.181930
0.167959
0.154390
0.141522
0.129609
0.118852
0.109394
0.101313
0.094633
0.089336
0.085360
0.082580
0.080811
0.079828
0.079400
0.079301
0.079331
0.079315
0.079099
0.078535
0.077476
0.075792
0.073413
0.070350
0.066708
0.062667
0.058465
0.054404
0.050845
0.048180
0.046779
0.046963
0.048992
0.053027
0.059118
0.067216
0.077200
0.088870
0.101953
0.116143
0.131115
0.146511
0.161958
0.177114
0.191641
0.205185
0.217407
0.228032
0.236853
0.243692
0.248379
0.250788
0.250899
0.248801
0.244655
0.238686
0.231152
0.222294
0.212303
0.201366
0.189703
0.177537
0.165065
0.152463
0.139893
0.127482
0.115313
0.103439
0.091932
0.080914
0.070526
0.060893
0.052100
0.044184
0.037124
0.030851
0.025311
0.020532
0.016589
0.013524
0.011312
0.009877
0.009121
0.008948
0.009271
0.010012
0.011116
0.012554
0.014282
0.016218
0.018243
0.020230
0.022064
0.023646
0.024891
0.025711
0.026011
0.025711
0.024743
0.023047
0.020605
0.017475
0.013796
0.009734
0.005453
0.001108
-0.003159
-0.007196
-0.010835
-0.013919
-0.016361
-0.018151
-0.019335
-0.019983
-0.020184
-0.020050
-0.019725
-0.019376
-0.019166
-0.019252
-0.019796
-0.020957
-0.022848
-0.025506
-0.028899
-0.032947
-0.037532
-0.042511
-0.047740
-0.053114
-0.058566
-0.064026
-0.069398
-0.074587
-0.079534
-0.084251
-0.088802
-0.093253
-0.097644
-0.101994
-0.106320
-0.110634
-0.114944
-0.119251
-0.123547
-0.127805
-0.131980
-0.136026
-0.139891
-0.143523
-0.146856
-0.149801
-0.152224
-0.153977
-0.154920
-0.154936
-0.153922
-0.151801
-0.148529
-0.144094
-0.138532
-0.131936
-0.124458
-0.116296
-0.107669
-0.098793
-0.089882
-0.081167
-0.072901
-0.065337
-0.058700
-0.053160
-0.048793
-0.045608
-0.043592
-0.042719
-0.042917
-0.044067
-0.046015
-0.048582
-0.051545
-0.054611
-0.057434
-0.059668
-0.061004
-0.061177
-0.059993
-0.057350
-0.053249
-0.047758
-0.040988
-0.033098
-0.024313
-0.014923
-0.005251
0.004409
0.013800
0.022672
0.030795
0.037997
0.044160
0.049205
0.053102
0.055893
0.057697
0.058698
0.059113
0.059177
0.059133
0.059228
0.059683
0.060635
0.062120
0.064114
0.066570
0.069413
0.072508
0.075678
0.078748
0.081559
0.083960
0.085793
0.086908
0.087196
0.086585
0.085013
0.082429
0.078823
0.074251
0.068818
0.062629
0.055795
0.048480
0.040882
0.033144
0.025328
0.017482
0.009679
0.001971
-0.005650
-0.013201
-0.020629
-0.027806
-0.034596
-0.040907
-0.046683
-0.051858
-0.056367
-0.060184
-0.063341
-0.065913
-0.067993
-0.069691
-0.071121
-0.072364
-0.073462
-0.074460
-0.075415
-0.076370
-0.077319
-0.078224
-0.079044
-0.079754
-0.080359
-0.080890
-0.081397
-0.081943
-0.082622
-0.083569
-0.084950
-0.086929
-0.089636
-0.093154
-0.097519
-0.102718
-0.108699
-0.115393
-0.122711
-0.130536
-0.138716
-0.147090
-0.155497
-0.163791
-0.171849
-0.179577
-0.186915
-0.193820
-0.200256
-0.206194
-0.211623
-0.216546
-0.220976
-0.224918
-0.228376
-0.231360
-0.233878
-0.235942
-0.237567
-0.238750
-0.239471
-0.239717
-0.239491
-0.238802
-0.237642
-0.236003
-0.233891
-0.231338
-0.228389
-0.225094
-0.221503
-0.217647
-0.213526
-0.209129
-0.204443
-0.199461
-0.194182
-0.188592
-0.182631
-0.176204
-0.169208
-0.161545
-0.153126
-0.143896
-0.133863
-0.123103
-0.111745
-0.099944
-0.087867
-0.075681
-0.063561
-0.051697
-0.040284
-0.029501
-0.019510
-0.010461
-0.002474
0.004373
0.010038
0.014479
0.017643
0.019475
0.019940
0.019032
0.016770
0.013187
0.008321
0.002227
-0.005019
-0.013308
-0.022502
-0.032445
-0.042963
-0.053884
-0.065040
-0.076266
-0.087405
-0.098340
-0.109019
-0.119437
-0.129598
-0.139509
-0.149166
-0.158569
-0.167731
-0.176696
-0.185530
-0.194299
-0.203051
-0.211802
-0.220538
-0.229214
-0.237748
-0.246038
-0.253979
-0.261477
-0.268460
-0.274899
-0.280790
-0.286127
-0.290890
-0.295060
-0.298648
-0.301691
-0.304230
-0.306305
-0.307960
-0.309234
-0.310167
-0.310799
-0.311177
-0.311356
-0.311405
-0.311399
-0.311393
-0.311432
-0.311557
-0.311799
-0.312171
-0.312672
-0.313302
-0.314068
-0.314972
-0.315997
-0.317097
-0.318208
-0.319279
-0.320269
-0.321143
-0.321878
-0.322477
-0.322950
-0.323297
-0.323492
-0.323503
-0.323304
-0.322884
-0.322241
-0.321370
-0.320267
-0.318931
-0.317366
-0.315592
-0.313645
-0.311580
-0.309450
-0.307312
-0.305211
-0.303170
-0.301169
-0.299150
-0.297012
-0.294628
-0.291854
-0.288571
-0.284696
-0.280178
-0.275005
-0.269212
-0.262876
-0.256106
-0.249041
-0.241828
-0.234624
-0.227603
-0.220957
-0.214879
-0.209539
-0.205071
-0.201566
-0.199055
-0.197495
-0.196765
-0.196671
-0.196967
-0.197379
-0.197632
-0.197474
-0.196697
-0.195169
-0.192827
-0.189657
-0.185682
-0.180975
-0.175659
-0.169869
-0.163744
-0.157443
-0.151126
-0.144927
-0.138940
-0.133227
-0.127845
-0.122846
-0.118285
-0.114191
-0.110556
-0.107340
-0.104500
-0.102001
-0.099796
-0.097808
-0.095915
-0.093953
-0.091747
-0.089148
-0.086056
-0.082408
-0.078180
-0.073402
-0.068157
-0.062560
-0.056737
-0.050815
-0.044919
-0.039165
-0.033645
