EVENT_NAME: L_AQUILA
EVENT_ID: IT-2009-0009
EVENT_DATE_YYYYMMDD: 20090406
EVENT_TIME_HHMMSS: 013240
EVENT_LATITUDE_DEGREE: 42.3420
EVENT_LONGITUDE_DEGREE: 13.3800
EVENT_DEPTH_KM: 8.3
HYPOCENTER_REFERENCE: INGV-CNT_Seismic_Bulletin
MAGNITUDE_W: 6.1
MAGNITUDE_W_REFERENCE: INGV-CNT_Seismic_Bulletin
MAGNITUDE_L: 
MAGNITUDE_L_REFERENCE: 
FOCAL_MECHANISM: Normal faulting
NETWORK: IT
STATION_CODE: ASS
STATION_NAME: 
STATION_LATITUDE_DEGREE: 43.074982
STATION_LONGITUDE_DEGREE: 12.604141
STATION_ELEVATION_M: 390
LOCATION: 
SENSOR_DEPTH_M: 0.0
VS30_M/S: 
SITE_CLASSIFICATION_EC8: A (inferred from geology)
MORPHOLOGIC_CLASSIFICATION: 
EPICENTRAL_DISTANCE_KM: 103.3
EARTHQUAKE_BACKAZIMUTH_DEGREE: 322.3
DATE_TIME_FIRST_SAMPLE_YYYYMMDD_HHMMSS: 20090406_013234.000
DATE_TIME_FIRST_SAMPLE_PRECISION: seconds
SAMPLING_INTERVAL_S: 0.005000
NDATA: 20000
DURATION_S: 100.000
STREAM: HNN
UNITS: cm
INSTRUMENT: sensor = FBA-3 [Kinemetrics] | digitizer = Everest [Kinemetrics]
INSTRUMENT_ANALOG/DIGITAL: D
INSTRUMENTAL_FREQUENCY_HZ: 210.000
INSTRUMENTAL_DAMPING: 0.000000
FULL_SCALE_G: 1.0
N_BIT_DIGITAL_CONVERTER: 24
PGD_CM: 0.199891
TIME_PGD_S: 47.445000
BASELINE_CORRECTION: BASELINE REMOVED
FILTER_TYPE: BUTTERWORTH
FILTER_ORDER: 2
LOW_CUT_FREQUENCY_HZ: 0.060
HIGH_CUT_FREQUENCY_HZ: 40.000
LATE/NORMAL_TRIGGERED: NT
DATABASE_VERSION: 0.5
HEADER_FORMAT: DYNA 1.2
DATA_TYPE: DISPLACEMENT
PROCESSING: manual (Paolucci et al., 2011)
DATA_TIMESTAMP_YYYYMMDD_HHMMSS: 20211011_160706.645
DATA_LICENSE: CC-BY3_0-IT (http://creativecommons.org/licenses/by/3.0/deed.en)
DATA_CITATION: Luzi L, Pacor F, Puglia R (2019). Italian Accelerometric Archive v 3.0 - Istituto Nazionale di Geofisica e Vulcanologia, Dipartimento della Protezione Civile Nazionale. doi: 10.13127/itaca.3.1
DATA_CREATOR: ITACA working group
ORIGINAL_DATA_MEDIATOR_CITATION: data obtained within the DPC-INGV data exchange agreements
ORIGINAL_DATA_MEDIATOR: Archive of Italian Department of Civil Protection
ORIGINAL_DATA_CREATOR_CITATION: Presidency Of Counsil Of Ministers-Civil Protection Department. (1972). Italian Strong Motion Network. Presidency of Counsil of Ministers - Civil Protection Department. https://doi.org/10.7914/SN/IT http://www.fdsn.org/networks/detail/IT/
ORIGINAL_DATA_CREATOR: network: IT (Italian Strong Motion Network (RAN)); owner: Presidency of Counsil of Ministers - Civil Protection Department (PCM - DPC)
USER1: 
USER2: 
USER3: 
USER4: 
USER5: 
[...]
1.459100e-02
1.472703e-02
1.484719e-02
1.494432e-02
1.501309e-02
1.505016e-02
1.505421e-02
1.502578e-02
1.496711e-02
1.488172e-02
1.477401e-02
1.464877e-02
1.451070e-02
1.436414e-02
1.421290e-02
1.406010e-02
1.390810e-02
1.375836e-02
1.361147e-02
1.346737e-02
1.332544e-02
1.318458e-02
1.304323e-02
1.289935e-02
1.275044e-02
1.259350e-02
1.242515e-02
1.224181e-02
1.203986e-02
1.181580e-02
1.156652e-02
1.128944e-02
1.098261e-02
1.064486e-02
1.027609e-02
9.877691e-03
9.452818e-03
9.006241e-03
8.543699e-03
8.071395e-03
7.595902e-03
7.124096e-03
6.662846e-03
6.218591e-03
5.797079e-03
5.403178e-03
5.040590e-03
4.711644e-03
4.417381e-03
4.157910e-03
3.932828e-03
3.741464e-03
3.582857e-03
3.455640e-03
3.358012e-03
3.287789e-03
3.242486e-03
3.219378e-03
3.215492e-03
3.227467e-03
3.251426e-03
3.283138e-03
3.318398e-03
3.353221e-03
3.383694e-03
3.405649e-03
3.414428e-03
3.404943e-03
3.372006e-03
3.310866e-03
3.217771e-03
3.090206e-03
2.926710e-03
2.726566e-03
2.489662e-03
2.216577e-03
1.908667e-03
1.568009e-03
1.197283e-03
7.995406e-04
3.778867e-04
-6.472539e-05
-5.254437e-04
-1.001504e-03
-1.490372e-03
-1.989793e-03
-2.497639e-03
-3.011841e-03
-3.530582e-03
-4.052577e-03
-4.577303e-03
-5.105085e-03
-5.637059e-03
-6.175188e-03
-6.722362e-03
-7.282263e-03
-7.858793e-03
-8.455403e-03
-9.074864e-03
-9.719381e-03
-1.039068e-02
-1.108989e-02
-1.181738e-02
-1.257271e-02
-1.335448e-02
-1.416026e-02
-1.498638e-02
-1.582788e-02
-1.667860e-02
-1.753161e-02
-1.837957e-02
-1.921486e-02
-2.002957e-02
-2.081572e-02
-2.156566e-02
-2.227239e-02
-2.292979e-02
-2.353290e-02
-2.407817e-02
-2.456371e-02
-2.498934e-02
-2.535678e-02
-2.566976e-02
-2.593436e-02
-2.615878e-02
-2.635273e-02
-2.652659e-02
-2.669070e-02
-2.685497e-02
-2.702881e-02
-2.722106e-02
-2.743962e-02
-2.769131e-02
-2.798217e-02
-2.831779e-02
-2.870345e-02
-2.914393e-02
-2.964333e-02
-3.020497e-02
-3.083124e-02
-3.152379e-02
-3.228362e-02
-3.311107e-02
-3.400539e-02
-3.496443e-02
-3.598441e-02
-3.706022e-02
-3.818582e-02
-3.935455e-02
-4.055940e-02
-4.179327e-02
-4.304905e-02
-4.431977e-02
-4.559882e-02
-4.688005e-02
-4.815781e-02
-4.942681e-02
-5.068221e-02
-5.191984e-02
-5.313638e-02
-5.432944e-02
-5.549745e-02
-5.663955e-02
-5.775555e-02
-5.884589e-02
-5.991158e-02
-6.095426e-02
-6.197610e-02
-6.297983e-02
-6.396855e-02
-6.494559e-02
-6.591435e-02
-6.687804e-02
-6.783961e-02
-6.880168e-02
-6.976650e-02
-7.073586e-02
-7.171092e-02
-7.269212e-02
-7.367904e-02
-7.467042e-02
-7.566415e-02
-7.665748e-02
-7.764723e-02
-7.863011e-02
-7.960292e-02
-8.056260e-02
-8.150628e-02
-8.243138e-02
-8.333593e-02
-8.421858e-02
-8.507844e-02
-8.591490e-02
-8.672759e-02
-8.751640e-02
-8.828150e-02
-8.902341e-02
-8.974290e-02
-9.044078e-02
-9.111777e-02
-9.177463e-02
-9.241219e-02
-9.303141e-02
-9.363322e-02
-9.421856e-02
-9.478821e-02
-9.534244e-02
-9.588082e-02
-9.640224e-02
-9.690504e-02
-9.738705e-02
-9.784564e-02
-9.827763e-02
-9.867918e-02
-9.904587e-02
-9.937309e-02
-9.965651e-02
-9.989238e-02
-1.000775e-01
-1.002089e-01
-1.002840e-01
-1.003002e-01
-1.002553e-01
-1.001480e-01
-9.997787e-02
-9.974603e-02
-9.945465e-02
-9.910678e-02
-9.870628e-02
-9.825794e-02
-9.776747e-02
-9.724112e-02
-9.668540e-02
-9.610708e-02
-9.551317e-02
-9.491084e-02
-9.430703e-02
-9.370809e-02
-9.311938e-02
-9.254508e-02
-9.198808e-02
-9.144989e-02
-9.093056e-02
-9.042881e-02
-8.994222e-02
-8.946739e-02
-8.900017e-02
-8.853585e-02
-8.806932e-02
-8.759522e-02
-8.710811e-02
-8.660285e-02
-8.607498e-02
-8.552088e-02
-8.493777e-02
-8.432372e-02
-8.367775e-02
-8.299992e-02
-8.229130e-02
-8.155370e-02
-8.078958e-02
-8.000191e-02
-7.919417e-02
-7.837021e-02
-7.753405e-02
-7.668972e-02
-7.584109e-02
-7.499187e-02
-7.414541e-02
-7.330459e-02
-7.247173e-02
-7.164857e-02
-7.083623e-02
-7.003518e-02
-6.924525e-02
-6.846580e-02
-6.769591e-02
-6.693460e-02
-6.618106e-02
-6.543480e-02
-6.469563e-02
-6.396364e-02
-6.323914e-02
-6.252255e-02
-6.181419e-02
-6.111414e-02
-6.042216e-02
-5.973774e-02
-5.906034e-02
-5.838967e-02
-5.772598e-02
-5.707018e-02
-5.642377e-02
-5.578893e-02
-5.516873e-02
-5.456720e-02
-5.398917e-02
-5.343991e-02
-5.292485e-02
-5.244935e-02
-5.201844e-02
-5.163653e-02
-5.130724e-02
-5.103351e-02
-5.081782e-02
-5.066232e-02
-5.056892e-02
-5.053920e-02
-5.057455e-02
-5.067613e-02
-5.084471e-02
-5.108056e-02
-5.138338e-02
-5.175226e-02
-5.218546e-02
-5.268024e-02
-5.323284e-02
-5.383851e-02
-5.449160e-02
-5.518562e-02
-5.591344e-02
-5.666749e-02
-5.744012e-02
-5.822378e-02
-5.901141e-02
-5.979661e-02
-6.057383e-02
-6.133836e-02
-6.208630e-02
-6.281459e-02
-6.352096e-02
-6.420393e-02
-6.486266e-02
-6.549675e-02
-6.610600e-02
-6.669029e-02
-6.724965e-02
-6.778427e-02
-6.829463e-02
-6.878150e-02
-6.924603e-02
-6.968975e-02
-7.011445e-02
-7.052223e-02
-7.091538e-02
-7.129634e-02
-7.166743e-02
-7.203071e-02
-7.238770e-02
-7.273931e-02
-7.308579e-02
-7.342679e-02
-7.376161e-02
-7.408945e-02
-7.440966e-02
-7.472173e-02
-7.502532e-02
-7.532046e-02
-7.560778e-02
-7.588874e-02
-7.616574e-02
-7.644196e-02
-7.672122e-02
-7.700774e-02
-7.730585e-02
-7.761968e-02
-7.795303e-02
-7.830926e-02
-7.869117e-02
-7.910089e-02
-7.953971e-02
-8.000807e-02
-8.050569e-02
-8.103173e-02
-8.158490e-02
-8.216341e-02
-8.276497e-02
-8.338679e-02
-8.402563e-02
-8.467791e-02
-8.533977e-02
-8.600724e-02
-8.667637e-02
-8.734329e-02
-8.800416e-02
-8.865512e-02
-8.929223e-02
-8.991143e-02
-9.050859e-02
-9.107957e-02
-9.162025e-02
-9.212665e-02
-9.259498e-02
-9.302195e-02
-9.340488e-02
-9.374194e-02
-9.403231e-02
-9.427623e-02
-9.447502e-02
-9.463111e-02
-9.474782e-02
-9.482914e-02
-9.487944e-02
-9.490325e-02
-9.490506e-02
-9.488922e-02
-9.485982e-02
-9.482041e-02
-9.477364e-02
-9.472105e-02
-9.466317e-02
-9.459972e-02
-9.452984e-02
-9.445228e-02
-9.436534e-02
-9.426686e-02
-9.415429e-02
-9.402487e-02
-9.387588e-02
-9.370467e-02
-9.350870e-02
-9.328542e-02
-9.303238e-02
-9.274727e-02
-9.242799e-02
-9.207272e-02
-9.167986e-02
-9.124806e-02
-9.077617e-02
-9.026328e-02
-8.970868e-02
-8.911191e-02
-8.847292e-02
-8.779214e-02
-8.707058e-02
-8.630979e-02
-8.551183e-02
-8.467915e-02
-8.381454e-02
-8.292116e-02
-8.200249e-02
-8.106212e-02
-8.010348e-02
-7.912958e-02
-7.814283e-02
-7.714486e-02
-7.613678e-02
-7.511935e-02
-7.409308e-02
-7.305812e-02
-7.201447e-02
-7.096206e-02
-6.990055e-02
-6.882931e-02
-6.774758e-02
-6.665496e-02
-6.555149e-02
-6.443753e-02
-6.331359e-02
-6.218064e-02
-6.104038e-02
-5.989537e-02
-5.874901e-02
-5.760549e-02
-5.646982e-02
-5.534775e-02
-5.424555e-02
-5.316958e-02
-5.212590e-02
-5.112018e-02
-5.015784e-02
-4.924391e-02
-4.838244e-02
-4.757598e-02
-4.682529e-02
-4.612940e-02
-4.548575e-02
-4.489049e-02
-4.433865e-02
-4.382428e-02
-4.334080e-02
-4.288117e-02
-4.243818e-02
-4.200475e-02
-4.157420e-02
-4.114032e-02
-4.069733e-02
-4.023994e-02
-3.976358e-02
-3.926446e-02
-3.873948e-02
-3.818624e-02
-3.760313e-02
-3.698941e-02
-3.634527e-02
-3.567193e-02
-3.497172e-02
-3.424785e-02
-3.350395e-02
-3.274396e-02
-3.197223e-02
-3.119347e-02
-3.041242e-02
-2.963376e-02
-2.886227e-02
-2.810307e-02
-2.736169e-02
-2.664385e-02
-2.595515e-02
-2.530061e-02
-2.468437e-02
-2.410961e-02
-2.357865e-02
-2.309304e-02
-2.265347e-02
-2.225974e-02
-2.191095e-02
-2.160593e-02
-2.134339e-02
-2.112176e-02
-2.093884e-02
-2.079169e-02
-2.067678e-02
-2.059023e-02
-2.052796e-02
-2.048587e-02
-2.046014e-02
-2.044727e-02
-2.044405e-02
-2.044739e-02
-2.045441e-02
-2.046265e-02
-2.047028e-02
-2.047607e-02
-2.047944e-02
-2.048066e-02
-2.048086e-02
-2.048158e-02
-2.048427e-02
-2.049009e-02
-2.050015e-02
-2.051560e-02
-2.053724e-02
-2.056521e-02
-2.059881e-02
-2.063649e-02
-2.067575e-02
-2.071317e-02
-2.074459e-02
-2.076521e-02
-2.076981e-02
-2.075276e-02
-2.070797e-02
-2.062901e-02
-2.050946e-02
-2.034342e-02
-2.012581e-02
-1.985238e-02
-1.951967e-02
-1.912498e-02
-1.866657e-02
-1.814369e-02
-1.755651e-02
-1.690606e-02
-1.619400e-02
-1.542234e-02
-1.459304e-02
-1.370799e-02
-1.276928e-02
-1.177971e-02
-1.074304e-02
-9.663925e-03
-8.547663e-03
-7.399882e-03
-6.226437e-03
-5.033315e-03
-3.826532e-03
-2.612137e-03
-1.396350e-03
-1.855431e-04
1.014105e-03
2.196885e-03
3.357375e-03
4.489986e-03
5.588711e-03
6.647279e-03
7.659474e-03
8.619316e-03
9.521158e-03
1.035983e-02
1.113076e-02
1.183012e-02
1.245483e-02
1.300267e-02
1.347234e-02
1.386354e-02
1.417702e-02
1.441428e-02
1.457745e-02
1.466927e-02
1.469292e-02
1.465188e-02
1.454953e-02
1.438865e-02
1.417123e-02
1.389860e-02
1.357179e-02
1.319160e-02
1.275856e-02
1.227290e-02
1.173474e-02
1.114443e-02
1.050296e-02
9.812327e-03
9.075823e-03
8.298098e-03
7.485028e-03
6.643578e-03
5.781759e-03
4.908580e-03
4.033842e-03
3.167859e-03
2.321236e-03
1.504642e-03
7.284126e-04
2.057108e-06
-6.660580e-04
-1.268804e-03
-1.800441e-03
-2.256870e-03
-2.635707e-03
-2.936146e-03
-3.158826e-03
-3.305836e-03
-3.380678e-03
-3.388064e-03
-3.333613e-03
-3.223586e-03
-3.064682e-03
-2.863835e-03
-2.628045e-03
-2.364250e-03
-2.079262e-03
-1.779760e-03
-1.472212e-03
-1.162616e-03
-8.561399e-04
-5.568443e-04
-2.675513e-04
1.010316e-05
2.754632e-04
5.285487e-04
7.697398e-04
9.995674e-04
1.218675e-03
1.427852e-03
1.628001e-03
1.819973e-03
2.004370e-03
2.181433e-03
2.351088e-03
2.513084e-03
2.667057e-03
2.812533e-03
2.949013e-03
3.076138e-03
3.193844e-03
3.302470e-03
3.402830e-03
3.496220e-03
3.584419e-03
3.669774e-03
3.755252e-03
3.844340e-03
3.940854e-03
4.048799e-03
4.172332e-03
4.315633e-03
4.482565e-03
4.676269e-03
4.898881e-03
5.151308e-03
5.433061e-03
5.742283e-03
6.076077e-03
6.430886e-03
6.802750e-03
7.187445e-03
7.580588e-03
7.977722e-03
8.374402e-03
8.766417e-03
9.150195e-03
9.523261e-03
9.884520e-03
1.023438e-02
1.057489e-02
1.090977e-02
1.124415e-02
1.158413e-02
1.193634e-02
1.230777e-02
1.270547e-02
1.313623e-02
1.360638e-02
1.412144e-02
1.468590e-02
1.530307e-02
1.597494e-02
1.670197e-02
1.748299e-02
1.831540e-02
1.919548e-02
2.011855e-02
2.107919e-02
2.207159e-02
2.308997e-02
2.412882e-02
2.518311e-02
2.624849e-02
2.732133e-02
2.839890e-02
2.947954e-02
3.056290e-02
3.165006e-02
3.274344e-02
3.384658e-02
3.496387e-02
3.610032e-02
3.726169e-02
3.845439e-02
3.968525e-02
4.096120e-02
4.228865e-02
4.367301e-02
4.511825e-02
4.662671e-02
4.819917e-02
4.983494e-02
5.153196e-02
5.328673e-02
5.509433e-02
5.694839e-02
5.884142e-02
6.076526e-02
6.271162e-02
6.467221e-02
6.663879e-02
6.860339e-02
7.055861e-02
7.249791e-02
7.441561e-02
7.630717e-02
7.816937e-02
8.000006e-02
8.179786e-02
8.356192e-02
8.529213e-02
8.698938e-02
8.865569e-02
9.029422e-02
9.190910e-02
9.350523e-02
9.508793e-02
9.666267e-02
9.823478e-02
9.980941e-02
1.013916e-01
1.029859e-01
1.045962e-01
1.062252e-01
1.078738e-01
1.095419e-01
1.112283e-01
1.129311e-01
1.146473e-01
1.163735e-01
1.181062e-01
1.198415e-01
1.215753e-01
1.233036e-01
1.250221e-01
1.267274e-01
1.284163e-01
1.300860e-01
1.317337e-01
1.333565e-01
1.349512e-01
1.365146e-01
1.380435e-01
1.395345e-01
1.409838e-01
1.423874e-01
1.437411e-01
1.450409e-01
1.462829e-01
1.474636e-01
1.485799e-01
1.496290e-01
1.506089e-01
1.515186e-01
1.523584e-01
1.531303e-01
1.538379e-01
1.544860e-01
1.550802e-01
1.556272e-01
1.561338e-01
1.566069e-01
1.570536e-01
1.574804e-01
1.578933e-01
1.582974e-01
1.586965e-01
1.590935e-01
1.594900e-01
1.598867e-01
1.602832e-01
1.606787e-01
1.610714e-01
1.614588e-01
1.618377e-01
1.622048e-01
1.625566e-01
1.628901e-01
1.632034e-01
1.634958e-01
1.637678e-01
1.640220e-01
1.642629e-01
1.644968e-01
1.647316e-01
1.649766e-01
1.652417e-01
1.655373e-01
1.658734e-01
1.662594e-01
1.667037e-01
1.672135e-01
1.677942e-01
1.684498e-01
1.691823e-01
1.699921e-01
1.708777e-01
1.718359e-01
1.728618e-01
1.739489e-01
1.750890e-01
1.762733e-01
1.774917e-01
1.787336e-01
1.799876e-01
1.812421e-01
1.824861e-01
1.837094e-01
1.849028e-01
1.860585e-01
1.871700e-01
1.882315e-01
1.892384e-01
1.901869e-01
1.910746e-01
1.918999e-01
1.926622e-01
1.933617e-01
1.939991e-01
1.945756e-01
1.950928e-01
1.955525e-01
1.959571e-01
1.963097e-01
1.966142e-01
1.968747e-01
1.970956e-01
1.972812e-01
1.974354e-01
1.975620e-01
1.976647e-01
1.977476e-01
1.978152e-01
1.978718e-01
1.979212e-01
1.979668e-01
1.980115e-01
1.980579e-01
1.981079e-01
1.981635e-01
1.982263e-01
1.982977e-01
1.983788e-01
1.984700e-01
1.985711e-01
1.986815e-01
1.987997e-01
1.989241e-01
1.990527e-01
1.991828e-01
1.993113e-01
1.994350e-01
1.995503e-01
1.996533e-01
1.997407e-01
1.998096e-01
1.998583e-01
1.998856e-01
1.998911e-01
1.998753e-01
1.998393e-01
1.997852e-01
1.997156e-01
1.996338e-01
1.995430e-01
1.994463e-01
1.993464e-01
1.992455e-01
1.991453e-01
1.990466e-01
1.989497e-01
1.988539e-01
1.987577e-01
1.986587e-01
1.985539e-01
1.984397e-01
1.983121e-01
1.981676e-01
1.980029e-01
1.978152e-01
1.976027e-01
1.973640e-01
1.970984e-01
1.968056e-01
1.964854e-01
1.961384e-01
1.957655e-01
1.953678e-01
1.949466e-01
1.945026e-01
1.940363e-01
1.935481e-01
1.930381e-01
1.925065e-01
1.919534e-01
1.913786e-01
1.907824e-01
1.901646e-01
1.895256e-01
1.888657e-01
1.881856e-01
1.874861e-01
1.867685e-01
1.860342e-01
1.852852e-01
1.845241e-01
1.837542e-01
1.829796e-01
1.822049e-01
1.814353e-01
1.806763e-01
1.799337e-01
1.792132e-01
1.785206e-01
1.778609e-01
1.772386e-01
1.766571e-01
1.761188e-01
1.756248e-01
1.751754e-01
1.747696e-01
1.744050e-01
1.740784e-01
1.737849e-01
1.735191e-01
1.732751e-01
1.730471e-01
1.728291e-01
1.726155e-01
1.724009e-01
1.721806e-01
1.719505e-01
1.717076e-01
1.714499e-01
1.711768e-01
1.708896e-01
1.705913e-01
1.702863e-01
1.699804e-01
1.696804e-01
1.693937e-01
1.691274e-01
1.688886e-01
1.686837e-01
1.685182e-01
1.683967e-01
1.683220e-01
1.682958e-01
1.683178e-01
1.683868e-01
1.685002e-01
1.686542e-01
1.688442e-01
1.690650e-01
1.693110e-01
1.695765e-01
1.698560e-01
1.701444e-01
1.704379e-01
1.707335e-01
1.710294e-01
1.713251e-01
1.716212e-01
1.719196e-01
1.722228e-01
1.725334e-01
1.728539e-01
1.731868e-01
1.735339e-01
1.738964e-01
1.742748e-01
1.746685e-01
1.750763e-01
1.754961e-01
1.759251e-01
1.763596e-01
1.767956e-01
1.772285e-01
1.776536e-01
1.780657e-01
1.784599e-01
1.788311e-01
1.791752e-01
1.794883e-01
1.797673e-01
1.800097e-01
1.802141e-01
1.803799e-01
1.805065e-01
1.805939e-01
1.806423e-01
1.806521e-01
1.806239e-01
1.805579e-01
1.804547e-01
1.803157e-01
1.801427e-01
1.799382e-01
1.797048e-01
1.794455e-01
1.791637e-01
1.788627e-01
1.785460e-01
1.782165e-01
1.778765e-01
1.775281e-01
1.771724e-01
1.768106e-01
1.764433e-01
1.760710e-01
1.756939e-01
1.753121e-01
1.749255e-01
1.745344e-01
1.741392e-01
1.737404e-01
1.733386e-01
1.729341e-01
1.725271e-01
1.721174e-01
1.717043e-01
1.712865e-01
1.708617e-01
1.704271e-01
1.699789e-01
1.695131e-01
1.690255e-01
1.685120e-01
1.679685e-01
1.673915e-01
1.667779e-01
1.661253e-01
1.654317e-01
1.646962e-01
1.639187e-01
1.630998e-01
1.622405e-01
1.613427e-01
1.604081e-01
1.594390e-01
1.584377e-01
1.574067e-01
1.563486e-01
1.552659e-01
1.541610e-01
1.530364e-01
1.518945e-01
1.507377e-01
1.495683e-01
1.483886e-01
1.472008e-01
1.460071e-01
1.448097e-01
1.436111e-01
1.424137e-01
1.412197e-01
1.400314e-01
1.388514e-01
1.376820e-01
1.365253e-01
1.353833e-01
1.342579e-01
1.331504e-01
1.320621e-01
1.309945e-01
1.299489e-01
1.289266e-01
1.279293e-01
1.269584e-01
1.260155e-01
1.251023e-01
1.242213e-01
1.233752e-01
1.225675e-01
1.218019e-01
1.210824e-01
1.204131e-01
1.197976e-01
1.192389e-01
1.187391e-01
1.182998e-01
1.179214e-01
1.176036e-01
1.173451e-01
1.171437e-01
1.169962e-01
1.168986e-01
1.168463e-01
1.168340e-01
1.168558e-01
1.169060e-01
1.169784e-01
1.170666e-01
1.171640e-01
1.172637e-01
1.173589e-01
1.174427e-01
1.175086e-01
1.175502e-01
1.175614e-01
1.175363e-01
1.174697e-01
1.173572e-01
1.171950e-01
1.169802e-01
1.167108e-01
1.163856e-01
1.160042e-01
1.155672e-01
1.150755e-01
1.145304e-01
1.139332e-01
1.132852e-01
1.125877e-01
1.118419e-01
1.110490e-01
1.102104e-01
1.093269e-01
1.083992e-01
1.074277e-01
1.064125e-01
1.053535e-01
1.042508e-01
1.031047e-01
1.019160e-01
1.006858e-01
9.941589e-02
9.810851e-02
9.676621e-02
9.539171e-02
9.398776e-02
9.255713e-02
9.110268e-02
8.962738e-02
8.813414e-02
8.662568e-02
8.510453e-02
8.357300e-02
8.203321e-02
8.048703e-02
7.893620e-02
7.738220e-02
7.582632e-02
7.426954e-02
7.271251e-02
7.115552e-02
6.959855e-02
6.804139e-02
6.648361e-02
6.492461e-02
6.336375e-02
6.180039e-02
6.023388e-02
5.866355e-02
5.708869e-02
5.550870e-02
5.392322e-02
5.233218e-02
5.073578e-02
4.913444e-02
4.752872e-02
4.591933e-02
4.430695e-02
4.269220e-02
4.107571e-02
3.945825e-02
3.784074e-02
3.622422e-02
3.460980e-02
3.299859e-02
3.139175e-02
2.979041e-02
2.819576e-02
2.660893e-02
2.503097e-02
2.346274e-02
2.190484e-02
2.035759e-02
1.882103e-02
1.729497e-02
1.577913e-02
1.427328e-02
1.277753e-02
1.129247e-02
9.819330e-03
8.360059e-03
6.917204e-03
5.493726e-03
4.092838e-03
2.717814e-03
1.371754e-03
5.737654e-05
-1.223155e-03
-2.468357e-03
-3.677495e-03
-4.850615e-03
-5.988631e-03
-7.093417e-03
-8.167814e-03
-9.215509e-03
-1.024086e-02
-1.124869e-02
-1.224397e-02
-1.323145e-02
-1.421527e-02
-1.519863e-02
-1.618346e-02
-1.717036e-02
-1.815852e-02
-1.914588e-02
-2.012937e-02
-2.110522e-02
-2.206935e-02
-2.301764e-02
-2.394605e-02
-2.485092e-02
-2.572922e-02
-2.657857e-02
-2.739729e-02
-2.818450e-02
-2.894013e-02
-2.966477e-02
-3.035947e-02
-3.102560e-02
-3.166483e-02
-3.227906e-02
-3.287049e-02
-3.344144e-02
-3.399422e-02
-3.453092e-02
-3.505342e-02
-3.556343e-02
-3.606241e-02
-3.655145e-02
-3.703102e-02
-3.750079e-02
-3.795952e-02
-3.840526e-02
-3.883554e-02
-3.924758e-02
-3.963848e-02
-4.000549e-02
-4.034628e-02
-4.065908e-02
-4.094276e-02
-4.119684e-02
-4.142143e-02
-4.161726e-02
-4.178549e-02
-4.192757e-02
-4.204508e-02
-4.213952e-02
-4.221214e-02
-4.226366e-02
-4.229419e-02
-4.230318e-02
-4.228950e-02
-4.225148e-02
-4.218698e-02
