EVENT_NAME: L_AQUILA
EVENT_ID: IT-2009-0009
EVENT_DATE_YYYYMMDD: 20090406
EVENT_TIME_HHMMSS: 013240
EVENT_LATITUDE_DEGREE: 42.3420
EVENT_LONGITUDE_DEGREE: 13.3800
EVENT_DEPTH_KM: 8.3
HYPOCENTER_REFERENCE: INGV-CNT_Seismic_Bulletin
MAGNITUDE_W: 6.1
MAGNITUDE_W_REFERENCE: INGV-CNT_Seismic_Bulletin
MAGNITUDE_L: 
MAGNITUDE_L_REFERENCE: 
FOCAL_MECHANISM: Normal faulting
NETWORK: IT
STATION_CODE: ASS
STATION_NAME: 
STATION_LATITUDE_DEGREE: 43.074982
STATION_LONGITUDE_DEGREE: 12.604141
STATION_ELEVATION_M: 390
LOCATION: 
SENSOR_DEPTH_M: 0.0
VS30_M/S: 
SITE_CLASSIFICATION_EC8: A (inferred from geology)
MORPHOLOGIC_CLASSIFICATION: 
EPICENTRAL_DISTANCE_KM: 103.3
EARTHQUAKE_BACKAZIMUTH_DEGREE: 322.3
DATE_TIME_FIRST_SAMPLE_YYYYMMDD_HHMMSS: 20090406_013234.000
DATE_TIME_FIRST_SAMPLE_PRECISION: seconds
SAMPLING_INTERVAL_S: 0.005000
NDATA: 20000
DURATION_S: 100.000
STREAM: HNZ
UNITS: cm
INSTRUMENT: sensor = FBA-3 [Kinemetrics] | digitizer = Everest [Kinemetrics]
INSTRUMENT_ANALOG/DIGITAL: D
INSTRUMENTAL_FREQUENCY_HZ: 216.000
INSTRUMENTAL_DAMPING: 0.000000
FULL_SCALE_G: 1.0
N_BIT_DIGITAL_CONVERTER: 24
PGD_CM: -0.171407
TIME_PGD_S: 53.900000
BASELINE_CORRECTION: BASELINE REMOVED
FILTER_TYPE: BUTTERWORTH
FILTER_ORDER: 2
LOW_CUT_FREQUENCY_HZ: 0.060
HIGH_CUT_FREQUENCY_HZ: 40.000
LATE/NORMAL_TRIGGERED: NT
DATABASE_VERSION: 0.5
HEADER_FORMAT: DYNA 1.2
DATA_TYPE: DISPLACEMENT
PROCESSING: manual (Paolucci et al., 2011)
DATA_TIMESTAMP_YYYYMMDD_HHMMSS: 20211011_160707.209
DATA_LICENSE: CC-BY3_0-IT (http://creativecommons.org/licenses/by/3.0/deed.en)
DATA_CITATION: Luzi L, Pacor F, Puglia R (2019). Italian Accelerometric Archive v 3.0 - Istituto Nazionale di Geofisica e Vulcanologia, Dipartimento della Protezione Civile Nazionale. doi: 10.13127/itaca.3.1
DATA_CREATOR: ITACA working group
ORIGINAL_DATA_MEDIATOR_CITATION: data obtained within the DPC-INGV data exchange agreements
ORIGINAL_DATA_MEDIATOR: Archive of Italian Department of Civil Protection
ORIGINAL_DATA_CREATOR_CITATION: Presidency Of Counsil Of Ministers-Civil Protection Department. (1972). Italian Strong Motion Network. Presidency of Counsil of Ministers - Civil Protection Department. https://doi.org/10.7914/SN/IT http://www.fdsn.org/networks/detail/IT/
ORIGINAL_DATA_CREATOR: network: IT (Italian Strong Motion Network (RAN)); owner: Presidency of Counsil of Ministers - Civil Protection Department (PCM - DPC)
USER1: 
USER2: 
USER3: 
USER4: 
USER5: 
[...]
1.328774e-01
1.320342e-01
1.312071e-01
1.303979e-01
1.296081e-01
1.288390e-01
1.280913e-01
1.273653e-01
1.266610e-01
1.259775e-01
1.253139e-01
1.246690e-01
1.240413e-01
1.234298e-01
1.228332e-01
1.222509e-01
1.216823e-01
1.211275e-01
1.205867e-01
1.200605e-01
1.195497e-01
1.190550e-01
1.185772e-01
1.181170e-01
1.176747e-01
1.172506e-01
1.168446e-01
1.164568e-01
1.160871e-01
1.157351e-01
1.154006e-01
1.150831e-01
1.147823e-01
1.144976e-01
1.142285e-01
1.139744e-01
1.137351e-01
1.135103e-01
1.133005e-01
1.131062e-01
1.129283e-01
1.127678e-01
1.126256e-01
1.125020e-01
1.123973e-01
1.123107e-01
1.122411e-01
1.121871e-01
1.121463e-01
1.121163e-01
1.120944e-01
1.120778e-01
1.120636e-01
1.120495e-01
1.120332e-01
1.120130e-01
1.119877e-01
1.119568e-01
1.119202e-01
1.118784e-01
1.118320e-01
1.117820e-01
1.117296e-01
1.116763e-01
1.116235e-01
1.115730e-01
1.115264e-01
1.114850e-01
1.114500e-01
1.114224e-01
1.114027e-01
1.113913e-01
1.113885e-01
1.113942e-01
1.114083e-01
1.114308e-01
1.114616e-01
1.115004e-01
1.115472e-01
1.116017e-01
1.116639e-01
1.117334e-01
1.118101e-01
1.118939e-01
1.119849e-01
1.120833e-01
1.121891e-01
1.123025e-01
1.124233e-01
1.125511e-01
1.126856e-01
1.128260e-01
1.129711e-01
1.131197e-01
1.132703e-01
1.134212e-01
1.135707e-01
1.137170e-01
1.138584e-01
1.139930e-01
1.141194e-01
1.142362e-01
1.143422e-01
1.144367e-01
1.145191e-01
1.145890e-01
1.146458e-01
1.146891e-01
1.147182e-01
1.147322e-01
1.147301e-01
1.147104e-01
1.146714e-01
1.146112e-01
1.145275e-01
1.144184e-01
1.142814e-01
1.141143e-01
1.139147e-01
1.136804e-01
1.134096e-01
1.131009e-01
1.127534e-01
1.123670e-01
1.119423e-01
1.114804e-01
1.109832e-01
1.104529e-01
1.098921e-01
1.093031e-01
1.086887e-01
1.080510e-01
1.073924e-01
1.067147e-01
1.060200e-01
1.053102e-01
1.045871e-01
1.038529e-01
1.031097e-01
1.023597e-01
1.016053e-01
1.008484e-01
1.000913e-01
9.933604e-02
9.858468e-02
9.783912e-02
9.710111e-02
9.637220e-02
9.565379e-02
9.494705e-02
9.425293e-02
9.357216e-02
9.290538e-02
9.225312e-02
9.161584e-02
9.099386e-02
9.038736e-02
8.979646e-02
8.922113e-02
8.866142e-02
8.811740e-02
8.758920e-02
8.707694e-02
8.658071e-02
8.610067e-02
8.563710e-02
8.519040e-02
8.476114e-02
8.435002e-02
8.395776e-02
8.358493e-02
8.323178e-02
8.289801e-02
8.258272e-02
8.228451e-02
8.200166e-02
8.173237e-02
8.147485e-02
8.122744e-02
8.098860e-02
8.075683e-02
8.053073e-02
8.030902e-02
8.009068e-02
7.987497e-02
7.966150e-02
7.945030e-02
7.924176e-02
7.903647e-02
7.883505e-02
7.863799e-02
7.844548e-02
7.825724e-02
7.807246e-02
7.788988e-02
7.770796e-02
7.752491e-02
7.733883e-02
7.714787e-02
7.695036e-02
7.674495e-02
7.653071e-02
7.630727e-02
7.607482e-02
7.583410e-02
7.558635e-02
7.533317e-02
7.507631e-02
7.481757e-02
7.455873e-02
7.430129e-02
7.404636e-02
7.379464e-02
7.354648e-02
7.330189e-02
7.306069e-02
7.282247e-02
7.258658e-02
7.235215e-02
7.211811e-02
7.188318e-02
7.164602e-02
7.140532e-02
7.115990e-02
7.090871e-02
7.065097e-02
7.038626e-02
7.011450e-02
6.983598e-02
6.955138e-02
6.926171e-02
6.896821e-02
6.867237e-02
6.837581e-02
6.808010e-02
6.778663e-02
6.749652e-02
6.721056e-02
6.692925e-02
6.665275e-02
6.638093e-02
6.611332e-02
6.584921e-02
6.558783e-02
6.532846e-02
6.507046e-02
6.481335e-02
6.455689e-02
6.430099e-02
6.404572e-02
6.379125e-02
6.353779e-02
6.328562e-02
6.303504e-02
6.278645e-02
6.254027e-02
6.229706e-02
6.205749e-02
6.182232e-02
6.159229e-02
6.136805e-02
6.115006e-02
6.093873e-02
6.073441e-02
6.053735e-02
6.034775e-02
6.016563e-02
5.999080e-02
5.982286e-02
5.966123e-02
5.950519e-02
5.935385e-02
5.920619e-02
5.906087e-02
5.891624e-02
5.877024e-02
5.862046e-02
5.846432e-02
5.829946e-02
5.812392e-02
5.793626e-02
5.773557e-02
5.752150e-02
5.729416e-02
5.705411e-02
5.680226e-02
5.653960e-02
5.626712e-02
5.598569e-02
5.569612e-02
5.539910e-02
5.509523e-02
5.478511e-02
5.446929e-02
5.414834e-02
5.382290e-02
5.349359e-02
5.316110e-02
5.282598e-02
5.248868e-02
5.214945e-02
5.180828e-02
5.146484e-02
5.111848e-02
5.076820e-02
5.041264e-02
5.005018e-02
4.967897e-02
4.929701e-02
4.890217e-02
4.849240e-02
4.806577e-02
4.762079e-02
4.715654e-02
4.667274e-02
4.616982e-02
4.564898e-02
4.511218e-02
4.456204e-02
4.400169e-02
4.343449e-02
4.286377e-02
4.229258e-02
4.172355e-02
4.115876e-02
4.059971e-02
4.004727e-02
3.950178e-02
3.896309e-02
3.843059e-02
3.790332e-02
3.738012e-02
3.685974e-02
3.634100e-02
3.582292e-02
3.530492e-02
3.478695e-02
3.426954e-02
3.375375e-02
3.324114e-02
3.273370e-02
3.223381e-02
3.174416e-02
3.126761e-02
3.080701e-02
3.036502e-02
2.994393e-02
2.954568e-02
2.917184e-02
2.882364e-02
2.850197e-02
2.820733e-02
2.793971e-02
2.769852e-02
2.748256e-02
2.728991e-02
2.711801e-02
2.696391e-02
2.682447e-02
2.669666e-02
2.657780e-02
2.646571e-02
2.635887e-02
2.625652e-02
2.615870e-02
2.606612e-02
2.597998e-02
2.590183e-02
2.583350e-02
2.577690e-02
2.573379e-02
2.570556e-02
2.569309e-02
2.569666e-02
2.571592e-02
2.574984e-02
2.579665e-02
2.585385e-02
2.591839e-02
2.598690e-02
2.605588e-02
2.612196e-02
2.618222e-02
2.623440e-02
2.627700e-02
2.630928e-02
2.633136e-02
2.634419e-02
2.634930e-02
2.634862e-02
2.634432e-02
2.633842e-02
2.633268e-02
2.632846e-02
2.632671e-02
2.632789e-02
2.633216e-02
2.633952e-02
2.634982e-02
2.636279e-02
2.637808e-02
2.639538e-02
2.641443e-02
2.643520e-02
2.645798e-02
2.648343e-02
2.651233e-02
2.654551e-02
2.658375e-02
2.662783e-02
2.667834e-02
2.673558e-02
2.679958e-02
2.687026e-02
2.694749e-02
2.703119e-02
2.712129e-02
2.721768e-02
2.732017e-02
2.742849e-02
2.754241e-02
2.766180e-02
2.778665e-02
2.791707e-02
2.805332e-02
2.819583e-02
2.834530e-02
2.850255e-02
2.866840e-02
2.884345e-02
2.902803e-02
2.922206e-02
2.942501e-02
2.963592e-02
2.985349e-02
3.007615e-02
3.030198e-02
3.052872e-02
3.075399e-02
3.097545e-02
3.119102e-02
3.139911e-02
3.159884e-02
3.178995e-02
3.197275e-02
3.214783e-02
3.231593e-02
3.247772e-02
3.263373e-02
3.278424e-02
3.292926e-02
3.306846e-02
3.320131e-02
3.332714e-02
3.344505e-02
3.355390e-02
3.365230e-02
3.373860e-02
3.381097e-02
3.386742e-02
3.390592e-02
3.392448e-02
3.392128e-02
3.389473e-02
3.384355e-02
3.376676e-02
3.366356e-02
3.353336e-02
3.337574e-02
3.319051e-02
3.297775e-02
3.273788e-02
3.247178e-02
3.218092e-02
3.186742e-02
3.153413e-02
3.118444e-02
3.082207e-02
3.045081e-02
3.007444e-02
2.969656e-02
2.932040e-02
2.894867e-02
2.858351e-02
2.822638e-02
2.787800e-02
2.753849e-02
2.720744e-02
2.688400e-02
2.656695e-02
2.625480e-02
2.594580e-02
2.563788e-02
2.532876e-02
2.501610e-02
2.469768e-02
2.437150e-02
2.403576e-02
2.368888e-02
2.332954e-02
2.295672e-02
2.256976e-02
2.216838e-02
2.175259e-02
2.132270e-02
2.087928e-02
2.042309e-02
1.995499e-02
1.947587e-02
1.898664e-02
1.848814e-02
1.798119e-02
1.746648e-02
1.694463e-02
1.641614e-02
1.588139e-02
1.534060e-02
1.479382e-02
1.424097e-02
1.368187e-02
1.311641e-02
1.254457e-02
1.196655e-02
1.138277e-02
1.079384e-02
1.020057e-02
9.603899e-03
9.004910e-03
8.404817e-03
7.804927e-03
7.206567e-03
6.610975e-03
6.019207e-03
5.432087e-03
4.850205e-03
4.273918e-03
3.703379e-03
3.138614e-03
2.579631e-03
2.026485e-03
1.479286e-03
9.381434e-04
4.030320e-04
-1.263047e-04
-6.504090e-04
-1.170120e-03
-1.686566e-03
-2.201143e-03
-2.715454e-03
-3.231201e-03
-3.750099e-03
-4.273832e-03
-4.804030e-03
-5.342248e-03
-5.889911e-03
-6.448238e-03
-7.018203e-03
-7.600508e-03
-8.195551e-03
-8.803400e-03
-9.423784e-03
-1.005610e-02
-1.069946e-02
-1.135269e-02
-1.201443e-02
-1.268321e-02
-1.335754e-02
-1.403604e-02
-1.471749e-02
-1.540079e-02
-1.608512e-02
-1.676977e-02
-1.745421e-02
-1.813797e-02
-1.882074e-02
-1.950229e-02
-2.018253e-02
-2.086149e-02
-2.153922e-02
-2.221576e-02
-2.289097e-02
-2.356446e-02
-2.423549e-02
-2.490292e-02
-2.556527e-02
-2.622069e-02
-2.686706e-02
-2.750209e-02
-2.812348e-02
-2.872905e-02
-2.931688e-02
-2.988528e-02
-3.043289e-02
-3.095866e-02
-3.146190e-02
-3.194228e-02
-3.239988e-02
-3.283519e-02
-3.324906e-02
-3.364258e-02
-3.401705e-02
-3.437386e-02
-3.471445e-02
-3.504027e-02
-3.535278e-02
-3.565339e-02
-3.594349e-02
-3.622449e-02
-3.649782e-02
-3.676488e-02
-3.702698e-02
-3.728538e-02
-3.754124e-02
-3.779570e-02
-3.804986e-02
-3.830484e-02
-3.856160e-02
-3.882099e-02
-3.908373e-02
-3.935041e-02
-3.962151e-02
-3.989736e-02
-4.017814e-02
-4.046378e-02
-4.075392e-02
-4.104782e-02
-4.134431e-02
-4.164189e-02
-4.193869e-02
-4.223259e-02
-4.252124e-02
-4.280221e-02
-4.307316e-02
-4.333197e-02
-4.357692e-02
-4.380675e-02
-4.402081e-02
-4.421908e-02
-4.440220e-02
-4.457134e-02
-4.472816e-02
-4.487461e-02
-4.501274e-02
-4.514453e-02
-4.527167e-02
-4.539551e-02
-4.551691e-02
-4.563627e-02
-4.575356e-02
-4.586842e-02
-4.598027e-02
-4.608850e-02
-4.619257e-02
-4.629220e-02
-4.638755e-02
-4.647928e-02
-4.656867e-02
-4.665756e-02
-4.674831e-02
-4.684368e-02
-4.694667e-02
-4.706044e-02
-4.718816e-02
-4.733282e-02
-4.749713e-02
-4.768330e-02
-4.789297e-02
-4.812717e-02
-4.838621e-02
-4.866975e-02
-4.897688e-02
-4.930619e-02
-4.965583e-02
-5.002361e-02
-5.040707e-02
-5.080353e-02
-5.121023e-02
-5.162432e-02
-5.204300e-02
-5.246360e-02
-5.288373e-02
-5.330140e-02
-5.371517e-02
-5.412431e-02
-5.452882e-02
-5.492929e-02
-5.532686e-02
-5.572305e-02
-5.611972e-02
-5.651895e-02
-5.692291e-02
-5.733377e-02
-5.775362e-02
-5.818439e-02
-5.862780e-02
-5.908538e-02
-5.955844e-02
-6.004806e-02
-6.055510e-02
-6.108018e-02
-6.162368e-02
-6.218586e-02
-6.276687e-02
-6.336685e-02
-6.398590e-02
-6.462415e-02
-6.528167e-02
-6.595861e-02
-6.665505e-02
-6.737097e-02
-6.810628e-02
-6.886080e-02
-6.963423e-02
-7.042620e-02
-7.123624e-02
-7.206380e-02
-7.290826e-02
-7.376890e-02
-7.464492e-02
-7.553553e-02
-7.643989e-02
-7.735722e-02
-7.828668e-02
-7.922739e-02
-8.017833e-02
-8.113828e-02
-8.210585e-02
-8.307942e-02
-8.405717e-02
-8.503718e-02
-8.601764e-02
-8.699694e-02
-8.797381e-02
-8.894737e-02
-8.991719e-02
-9.088322e-02
-9.184572e-02
-9.280517e-02
-9.376211e-02
-9.471713e-02
-9.567072e-02
-9.662322e-02
-9.757469e-02
-9.852485e-02
-9.947294e-02
-1.004176e-01
-1.013571e-01
-1.022892e-01
-1.032113e-01
-1.041207e-01
-1.050144e-01
-1.058898e-01
-1.067443e-01
-1.075761e-01
-1.083838e-01
-1.091666e-01
-1.099246e-01
-1.106583e-01
-1.113683e-01
-1.120559e-01
-1.127224e-01
-1.133691e-01
-1.139972e-01
-1.146082e-01
-1.152028e-01
-1.157820e-01
-1.163461e-01
-1.168952e-01
-1.174290e-01
-1.179469e-01
-1.184480e-01
-1.189312e-01
-1.193954e-01
-1.198395e-01
-1.202627e-01
-1.206642e-01
-1.210441e-01
-1.214026e-01
-1.217402e-01
-1.220580e-01
-1.223572e-01
-1.226393e-01
-1.229062e-01
-1.231597e-01
-1.234017e-01
-1.236342e-01
-1.238589e-01
-1.240777e-01
-1.242922e-01
-1.245037e-01
-1.247136e-01
-1.249229e-01
-1.251324e-01
-1.253432e-01
-1.255559e-01
-1.257711e-01
-1.259892e-01
-1.262102e-01
-1.264338e-01
-1.266594e-01
-1.268861e-01
-1.271130e-01
-1.273391e-01
-1.275637e-01
-1.277863e-01
-1.280066e-01
-1.282248e-01
-1.284414e-01
-1.286573e-01
-1.288739e-01
-1.290928e-01
-1.293159e-01
-1.295456e-01
-1.297840e-01
-1.300337e-01
-1.302968e-01
-1.305754e-01
-1.308711e-01
-1.311855e-01
-1.315197e-01
-1.318744e-01
-1.322504e-01
-1.326480e-01
-1.330676e-01
-1.335096e-01
-1.339742e-01
-1.344620e-01
-1.349733e-01
-1.355084e-01
-1.360677e-01
-1.366510e-01
-1.372580e-01
-1.378879e-01
-1.385395e-01
-1.392111e-01
-1.399006e-01
-1.406058e-01
-1.413243e-01
-1.420534e-01
-1.427907e-01
-1.435337e-01
-1.442799e-01
-1.450273e-01
-1.457736e-01
-1.465170e-01
-1.472556e-01
-1.479879e-01
-1.487122e-01
-1.494272e-01
-1.501317e-01
-1.508248e-01
-1.515055e-01
-1.521734e-01
-1.528278e-01
-1.534686e-01
-1.540954e-01
-1.547079e-01
-1.553061e-01
-1.558896e-01
-1.564584e-01
-1.570121e-01
-1.575504e-01
-1.580732e-01
-1.585801e-01
-1.590708e-01
-1.595453e-01
-1.600034e-01
-1.604454e-01
-1.608715e-01
-1.612822e-01
-1.616781e-01
-1.620596e-01
-1.624275e-01
-1.627824e-01
-1.631249e-01
-1.634559e-01
-1.637763e-01
-1.640871e-01
-1.643897e-01
-1.646852e-01
-1.649749e-01
-1.652600e-01
-1.655419e-01
-1.658216e-01
-1.661001e-01
-1.663779e-01
-1.666557e-01
-1.669337e-01
-1.672117e-01
-1.674896e-01
-1.677668e-01
-1.680424e-01
-1.683156e-01
-1.685852e-01
-1.688499e-01
-1.691081e-01
-1.693582e-01
-1.695985e-01
-1.698272e-01
-1.700424e-01
-1.702427e-01
-1.704266e-01
-1.705932e-01
-1.707417e-01
-1.708722e-01
-1.709848e-01
-1.710802e-01
-1.711595e-01
-1.712241e-01
-1.712757e-01
-1.713160e-01
-1.713467e-01
-1.713695e-01
-1.713859e-01
-1.713972e-01
-1.714040e-01
-1.714068e-01
-1.714056e-01
-1.714000e-01
-1.713894e-01
-1.713731e-01
-1.713503e-01
-1.713204e-01
-1.712829e-01
-1.712373e-01
-1.711837e-01
-1.711222e-01
-1.710531e-01
-1.709770e-01
-1.708948e-01
-1.708074e-01
-1.707158e-01
-1.706211e-01
-1.705243e-01
-1.704265e-01
-1.703284e-01
-1.702308e-01
-1.701342e-01
-1.700388e-01
-1.699445e-01
-1.698510e-01
-1.697578e-01
-1.696645e-01
-1.695703e-01
-1.694749e-01
-1.693775e-01
-1.692781e-01
-1.691764e-01
-1.690726e-01
-1.689671e-01
-1.688604e-01
-1.687531e-01
-1.686462e-01
-1.685402e-01
-1.684357e-01
-1.683333e-01
-1.682328e-01
-1.681341e-01
-1.680368e-01
-1.679402e-01
-1.678435e-01
-1.677458e-01
-1.676460e-01
-1.675430e-01
-1.674360e-01
-1.673243e-01
-1.672073e-01
-1.670847e-01
-1.669567e-01
-1.668233e-01
-1.666852e-01
-1.665429e-01
-1.663974e-01
-1.662497e-01
-1.661008e-01
-1.659518e-01
-1.658038e-01
-1.656577e-01
-1.655144e-01
-1.653745e-01
-1.652383e-01
-1.651059e-01
-1.649771e-01
-1.648516e-01
-1.647287e-01
-1.646076e-01
-1.644874e-01
-1.643669e-01
-1.642452e-01
-1.641207e-01
-1.639923e-01
-1.638585e-01
-1.637177e-01
-1.635685e-01
-1.634095e-01
-1.632395e-01
-1.630577e-01
-1.628634e-01
-1.626563e-01
-1.624367e-01
-1.622051e-01
-1.619623e-01
-1.617095e-01
-1.614480e-01
-1.611794e-01
-1.609054e-01
-1.606276e-01
-1.603474e-01
-1.600657e-01
-1.597834e-01
-1.595005e-01
-1.592173e-01
-1.589332e-01
-1.586480e-01
-1.583609e-01
-1.580715e-01
-1.577788e-01
-1.574822e-01
-1.571806e-01
-1.568733e-01
-1.565591e-01
-1.562372e-01
-1.559068e-01
-1.555671e-01
-1.552177e-01
-1.548581e-01
-1.544883e-01
-1.541082e-01
-1.537178e-01
-1.533172e-01
-1.529069e-01
-1.524873e-01
-1.520588e-01
-1.516218e-01
-1.511767e-01
-1.507235e-01
-1.502616e-01
-1.497904e-01
-1.493087e-01
-1.488148e-01
-1.483068e-01
-1.477826e-01
-1.472402e-01
-1.466775e-01
-1.460927e-01
-1.454848e-01
-1.448530e-01
-1.441971e-01
-1.435175e-01
-1.428150e-01
-1.420909e-01
-1.413465e-01
-1.405839e-01
-1.398047e-01
-1.390110e-01
-1.382045e-01
-1.373867e-01
-1.365589e-01
-1.357221e-01
-1.348770e-01
-1.340240e-01
-1.331636e-01
-1.322957e-01
-1.314200e-01
-1.305363e-01
-1.296442e-01
-1.287430e-01
-1.278324e-01
-1.269120e-01
-1.259816e-01
-1.250412e-01
-1.240913e-01
-1.231322e-01
-1.221648e-01
-1.211900e-01
-1.202086e-01
-1.192217e-01
-1.182305e-01
-1.172360e-01
-1.162396e-01
-1.152424e-01
-1.142457e-01
-1.132504e-01
-1.122575e-01
-1.112676e-01
-1.102813e-01
-1.092989e-01
-1.083205e-01
-1.073464e-01
-1.063767e-01
-1.054117e-01
-1.044515e-01
-1.034966e-01
-1.025475e-01
-1.016049e-01
-1.006696e-01
-9.974226e-02
-9.882394e-02
-9.791556e-02
-9.701809e-02
-9.613255e-02
-9.525994e-02
-9.440125e-02
-9.355735e-02
-9.272899e-02
-9.191687e-02
-9.112164e-02
-9.034388e-02
-8.958408e-02
-8.884256e-02
-8.811940e-02
-8.741443e-02
-8.672724e-02
-8.605728e-02
-8.540384e-02
-8.476613e-02
-8.414337e-02
-8.353484e-02
-8.293999e-02
-8.235843e-02
-8.178997e-02
-8.123452e-02
-8.069208e-02
-8.016272e-02
-7.964650e-02
-7.914342e-02
-7.865344e-02
-7.817641e-02
-7.771201e-02
-7.725973e-02
-7.681882e-02
-7.638842e-02
-7.596753e-02
-7.555509e-02
-7.515001e-02
-7.475111e-02
-7.435725e-02
-7.396744e-02
-7.358086e-02
-7.319694e-02
-7.281536e-02
-7.243612e-02
-7.205953e-02
-7.168610e-02
-7.131643e-02
-7.095115e-02
-7.059084e-02
-7.023608e-02
-6.988741e-02
-6.954530e-02
-6.921023e-02
-6.888260e-02
-6.856280e-02
-6.825124e-02
-6.794843e-02
-6.765504e-02
-6.737190e-02
-6.710003e-02
-6.684062e-02
-6.659495e-02
-6.636436e-02
-6.615013e-02
-6.595346e-02
-6.577535e-02
-6.561660e-02
-6.547776e-02
-6.535904e-02
-6.526036e-02
-6.518137e-02
-6.512142e-02
-6.507961e-02
-6.505485e-02
-6.504585e-02
-6.505123e-02
-6.506957e-02
-6.509939e-02
-6.513922e-02
-6.518762e-02
-6.524325e-02
-6.530497e-02
-6.537174e-02
-6.544267e-02
-6.551695e-02
-6.559386e-02
-6.567274e-02
-6.575298e-02
-6.583404e-02
-6.591538e-02
-6.599645e-02
-6.607661e-02
-6.615512e-02
-6.623113e-02
-6.630368e-02
-6.637164e-02
-6.643372e-02
-6.648852e-02
-6.653457e-02
-6.657037e-02
-6.659437e-02
-6.660497e-02
-6.660054e-02
-6.657950e-02
-6.654044e-02
-6.648217e-02
-6.640373e-02
-6.630428e-02
-6.618303e-02
-6.603920e-02
-6.587207e-02
-6.568090e-02
-6.546498e-02
-6.522354e-02
-6.495575e-02
-6.466070e-02
-6.433744e-02
-6.398502e-02
-6.360250e-02
-6.318898e-02
-6.274360e-02
-6.226570e-02
-6.175490e-02
-6.121117e-02
-6.063482e-02
-6.002654e-02
-5.938748e-02
-5.871935e-02
-5.802443e-02
-5.730546e-02
-5.656557e-02
-5.580799e-02
-5.503591e-02
-5.425230e-02
-5.345982e-02
-5.266085e-02
-5.185754e-02
-5.105187e-02
-5.024566e-02
-4.944055e-02
-4.863801e-02
-4.783931e-02
-4.704563e-02
-4.625808e-02
-4.547775e-02
-4.470564e-02
-4.394270e-02
-4.318979e-02
-4.244761e-02
-4.171670e-02
-4.099746e-02
-4.029013e-02
-3.959477e-02
-3.891136e-02
-3.823982e-02
-3.758011e-02
-3.693219e-02
-3.629600e-02
-3.567144e-02
-3.505837e-02
-3.445673e-02
-3.386669e-02
-3.328862e-02
-3.272308e-02
-3.217057e-02
-3.163143e-02
-3.110569e-02
-3.059318e-02
-3.009353e-02
-2.960633e-02
-2.913119e-02
-2.866777e-02
-2.821574e-02
-2.777491e-02
-2.734523e-02
-2.692684e-02
-2.652000e-02
-2.612506e-02
-2.574238e-02
-2.537232e-02
-2.501512e-02
-2.467091e-02
-2.433956e-02
-2.402069e-02
-2.371356e-02
-2.341713e-02
-2.313005e-02
-2.285077e-02
-2.257755e-02
-2.230860e-02
-2.204208e-02
-2.177616e-02
-2.150908e-02
-2.123925e-02
-2.096532e-02
