EVENT_NAME: L_AQUILA
EVENT_ID: IT-2009-0009
EVENT_DATE_YYYYMMDD: 20090406
EVENT_TIME_HHMMSS: 013240
EVENT_LATITUDE_DEGREE: 42.3420
EVENT_LONGITUDE_DEGREE: 13.3800
EVENT_DEPTH_KM: 8.3
HYPOCENTER_REFERENCE: INGV-CNT_Seismic_Bulletin
MAGNITUDE_W: 6.1
MAGNITUDE_W_REFERENCE: INGV-CNT_Seismic_Bulletin
MAGNITUDE_L: 
MAGNITUDE_L_REFERENCE: 
FOCAL_MECHANISM: Normal faulting
NETWORK: IT
STATION_CODE: ASS
STATION_NAME: 
STATION_LATITUDE_DEGREE: 43.074982
STATION_LONGITUDE_DEGREE: 12.604141
STATION_ELEVATION_M: 390
LOCATION: 
SENSOR_DEPTH_M: 0.0
VS30_M/S: 
SITE_CLASSIFICATION_EC8: A (inferred from geology)
MORPHOLOGIC_CLASSIFICATION: 
EPICENTRAL_DISTANCE_KM: 103.3
EARTHQUAKE_BACKAZIMUTH_DEGREE: 322.3
DATE_TIME_FIRST_SAMPLE_YYYYMMDD_HHMMSS: 20090406_013234.000
DATE_TIME_FIRST_SAMPLE_PRECISION: seconds
SAMPLING_INTERVAL_S: 0.005000
NDATA: 20000
DURATION_S: 100.000
STREAM: HNN
UNITS: cm/s^2
INSTRUMENT: sensor = FBA-3 [Kinemetrics] | digitizer = Everest [Kinemetrics]
INSTRUMENT_ANALOG/DIGITAL: D
INSTRUMENTAL_FREQUENCY_HZ: 210.000
INSTRUMENTAL_DAMPING: 0.000000
FULL_SCALE_G: 1.0
N_BIT_DIGITAL_CONVERTER: 24
PGA_CM/S^2: -3.138201
TIME_PGA_S: 45.895000
BASELINE_CORRECTION: BASELINE REMOVED
FILTER_TYPE: BUTTERWORTH
FILTER_ORDER: 2
LOW_CUT_FREQUENCY_HZ: 0.060
HIGH_CUT_FREQUENCY_HZ: 40.000
LATE/NORMAL_TRIGGERED: NT
DATABASE_VERSION: 0.5
HEADER_FORMAT: DYNA 1.2
DATA_TYPE: ACCELERATION
PROCESSING: manual (Paolucci et al., 2011)
DATA_TIMESTAMP_YYYYMMDD_HHMMSS: 20211011_160706.506
DATA_LICENSE: CC-BY3_0-IT (http://creativecommons.org/licenses/by/3.0/deed.en)
DATA_CITATION: Luzi L, Pacor F, Puglia R (2019). Italian Accelerometric Archive v 3.0 - Istituto Nazionale di Geofisica e Vulcanologia, Dipartimento della Protezione Civile Nazionale. doi: 10.13127/itaca.3.1
DATA_CREATOR: ITACA working group
ORIGINAL_DATA_MEDIATOR_CITATION: data obtained within the DPC-INGV data exchange agreements
ORIGINAL_DATA_MEDIATOR: Archive of Italian Department of Civil Protection
ORIGINAL_DATA_CREATOR_CITATION: Presidency Of Counsil Of Ministers-Civil Protection Department. (1972). Italian Strong Motion Network. Presidency of Counsil of Ministers - Civil Protection Department. https://doi.org/10.7914/SN/IT http://www.fdsn.org/networks/detail/IT/
ORIGINAL_DATA_CREATOR: network: IT (Italian Strong Motion Network (RAN)); owner: Presidency of Counsil of Ministers - Civil Protection Department (PCM - DPC)
USER1: 
USER2: 
USER3: 
USER4: 
USER5: 
[...]
0.194032
0.034572
-0.113991
-0.243922
-0.350485
-0.426836
-0.465576
-0.465066
-0.430919
-0.372930
-0.303359
-0.235210
-0.179931
-0.146600
-0.139567
-0.156497
-0.191451
-0.237634
-0.286500
-0.328571
-0.356520
-0.366521
-0.359379
-0.341143
-0.318642
-0.294812
-0.269256
-0.239298
-0.200767
-0.151024
-0.091054
-0.025135
0.040648
0.100492
0.150827
0.191205
0.223521
0.250387
0.274507
0.298617
0.324709
0.354070
0.388225
0.427549
0.468067
0.500883
0.516337
0.509625
0.481536
0.434183
0.368628
0.286738
0.193542
0.096822
0.003957
-0.079947
-0.150233
-0.200871
-0.226606
-0.226618
-0.204674
-0.165935
-0.114403
-0.052629
0.017857
0.096015
0.181015
0.272292
0.367611
0.462326
0.551795
0.631428
0.695799
0.740603
0.765269
0.772799
0.765370
0.741918
0.702138
0.650465
0.594811
0.542522
0.497412
0.458463
0.420660
0.378726
0.329636
0.271220
0.200795
0.116949
0.021668
-0.081475
-0.190275
-0.302896
-0.416617
-0.530399
-0.646086
-0.764543
-0.881544
-0.988283
-1.076177
-1.141347
-1.182426
-1.195216
-1.173846
-1.115288
-1.018173
-0.879512
-0.697202
-0.475336
-0.225448
0.037026
0.297705
0.545100
0.769296
0.962071
1.119371
1.242021
1.332667
1.394403
1.433350
1.456884
1.468215
1.466635
1.450736
1.418700
1.367357
1.292506
1.191245
1.064633
0.917361
0.755527
0.586956
0.420606
0.262148
0.114604
-0.017092
-0.128225
-0.219844
-0.299278
-0.375993
-0.458317
-0.549917
-0.645008
-0.731129
-0.797170
-0.836165
-0.845639
-0.828576
-0.791573
-0.741862
-0.686477
-0.630837
-0.575728
-0.518663
-0.459796
-0.402542
-0.347309
-0.287523
-0.212643
-0.116515
-0.003443
0.115803
0.232760
0.344348
0.448625
0.539260
0.604718
0.632210
0.611818
0.539459
0.419122
0.260597
0.074459
-0.129485
-0.342079
-0.554276
-0.754341
-0.927163
-1.058290
-1.137221
-1.157067
-1.115203
-1.014500
-0.859469
-0.653839
-0.406361
-0.133970
0.142855
0.404731
0.636851
0.831442
0.985168
1.093490
1.149956
1.151135
1.098589
0.996766
0.852321
0.673942
0.471190
0.253861
0.031387
-0.187876
-0.395901
-0.583389
-0.740536
-0.860464
-0.940279
-0.977371
-0.966951
-0.904553
-0.788973
-0.624104
-0.421859
-0.203352
0.006504
0.189616
0.338976
0.451697
0.524147
0.555036
0.548096
0.509867
0.445387
0.357412
0.248226
0.119132
-0.028970
-0.191555
-0.359927
-0.526223
-0.685914
-0.835432
-0.970909
-1.089429
-1.188074
-1.261195
-1.302017
-1.307426
-1.280584
-1.229689
-1.164210
-1.092353
-1.021161
-0.958333
-0.912287
-0.887496
-0.881243
-0.886763
-0.896948
-0.903528
-0.895697
-0.862820
-0.799475
-0.708069
-0.594836
-0.462387
-0.309491
-0.138892
0.038900
0.211277
0.370401
0.514034
0.642685
0.756415
0.851604
0.920374
0.955259
0.953556
0.915309
0.839928
0.728109
0.586425
0.427515
0.264704
0.107352
-0.037966
-0.162953
-0.257350
-0.313986
-0.332100
-0.315516
-0.267160
-0.186784
-0.077725
0.047428
0.174010
0.296869
0.420257
0.546658
0.670830
0.786589
0.894419
0.999301
1.103184
1.200346
1.278394
1.323584
1.326255
1.281688
1.188826
1.050969
0.873217
0.656900
0.401448
0.112208
-0.198102
-0.517208
-0.838680
-1.156131
-1.457754
-1.732333
-1.973799
-2.173717
-2.316716
-2.388510
-2.382025
-2.294966
-2.127842
-1.885449
-1.580335
-1.234185
-0.872282
-0.516364
-0.182914
0.115435
0.369841
0.576659
0.737430
0.856699
0.939853
0.993111
1.025546
1.048707
1.071541
1.095849
1.118222
1.136166
1.148658
1.151673
1.140312
1.114567
1.078059
1.034670
0.989561
0.948871
0.916474
0.895175
0.890355
0.907149
0.944232
0.993076
1.041975
1.079423
1.096215
1.087485
1.052384
0.990788
0.902017
0.786619
0.646826
0.486923
0.315703
0.146378
-0.006915
-0.130655
-0.212720
-0.246878
-0.235728
-0.185752
-0.100290
0.019421
0.166971
0.328979
0.491488
0.645261
0.783524
0.897611
0.978226
1.019220
1.019626
0.984869
0.924179
0.843649
0.743674
0.624853
0.493212
0.355951
0.213995
0.064186
-0.093006
-0.253798
-0.414674
-0.569853
-0.708087
-0.813341
-0.870498
-0.874661
-0.831802
-0.748419
-0.626173
-0.467910
-0.284069
-0.089908
0.100201
0.271939
0.408996
0.495656
0.519753
0.475146
0.365045
0.200960
-0.002577
-0.228013
-0.451531
-0.647981
-0.799497
-0.896443
-0.934224
-0.913060
-0.837771
-0.715330
-0.554243
-0.365926
-0.162955
0.045554
0.254763
0.460766
0.659339
0.845241
1.009118
1.138826
1.225619
1.265437
1.254808
1.189723
1.069234
0.898613
0.687220
0.442663
0.170328
-0.119917
-0.410613
-0.683301
-0.926313
-1.133695
-1.299376
-1.415698
-1.475626
-1.475225
-1.416053
-1.305132
-1.152850
-0.973273
-0.785461
-0.611172
-0.469914
-0.376636
-0.342981
-0.375734
-0.472832
-0.625155
-0.822235
-1.053652
-1.307098
-1.568327
-1.822104
-2.052529
-2.246750
-2.399661
-2.510943
-2.579061
-2.600515
-2.570372
-2.482115
-2.331223
-2.120019
-1.856889
-1.550929
-1.210569
-0.848817
-0.486154
-0.145617
0.152811
0.393458
0.566047
0.667243
0.699255
0.667786
0.582817
0.458986
0.311810
0.153160
-0.007451
-0.156865
-0.278720
-0.362958
-0.410813
-0.429747
-0.427371
-0.409256
-0.378363
-0.334794
-0.277143
-0.205737
-0.125187
-0.042034
0.041976
0.132876
0.238437
0.359147
0.486391
0.609126
0.719588
0.812174
0.882771
0.932193
0.964853
0.983480
0.988011
0.975626
0.941417
0.883209
0.802026
0.693712
0.546383
0.350530
0.106730
-0.175463
-0.480080
-0.787272
-1.076701
-1.332279
-1.546229
-1.715393
-1.832633
-1.886361
-1.870207
-1.787587
-1.643777
-1.440995
-1.183921
-0.882009
-0.545108
-0.182367
0.193306
0.562158
0.901749
1.194180
1.427192
1.590145
1.672485
1.665941
1.569674
1.394289
1.156551
0.870892
0.549014
0.204703
-0.143618
-0.476698
-0.781781
-1.053850
-1.288910
-1.481102
-1.628355
-1.733383
-1.796808
-1.815359
-1.786102
-1.708298
-1.584044
-1.419986
-1.225300
-1.007053
-0.770883
-0.526422
-0.289454
-0.076631
0.101373
0.239661
0.333939
0.378056
0.367002
0.303808
0.203887
0.089403
-0.021123
-0.116372
-0.189309
-0.235299
-0.253506
-0.248085
-0.227219
-0.202258
-0.183700
-0.171978
-0.155637
-0.122383
-0.067128
0.010835
0.110868
0.229521
0.361069
0.502166
0.653946
0.816669
0.982958
1.138782
1.270630
1.371268
1.439849
1.476144
1.477950
1.447748
1.395956
1.333361
1.264651
1.190390
1.111481
1.031425
0.956516
0.895149
0.856931
0.848621
0.868877
0.910007
0.963733
1.022731
1.080601
1.133211
1.177240
1.206338
1.210787
1.180488
1.107664
0.990181
0.834977
0.656668
0.469088
0.277897
0.086009
-0.096777
-0.257040
-0.385365
-0.475838
-0.524259
-0.527340
-0.481513
-0.387259
-0.251152
-0.077647
0.132600
0.371216
0.616464
0.841454
1.024786
1.152102
1.209828
1.183808
1.066981
0.864689
0.589706
0.254211
-0.131511
-0.555427
-1.001862
-1.451296
-1.880021
-2.263202
-2.581224
-2.821804
-2.976623
-3.039583
-3.007717
-2.880986
-2.663760
-2.366710
-2.001410
-1.573810
-1.088740
-0.559872
-0.008806
0.544865
1.084181
1.586524
2.023068
2.369444
2.614799
2.758852
2.804269
2.755012
2.617646
2.401492
2.118056
1.778999
1.395014
0.978485
0.546024
0.118031
-0.282688
-0.634427
-0.921482
-1.134433
-1.267816
-1.320991
-1.298761
-1.210126
-1.068627
-0.892478
-0.701591
-0.513178
-0.339341
-0.187437
-0.062140
0.031771
0.090138
0.114390
0.111468
0.086952
0.042810
-0.019840
-0.100897
-0.201456
-0.321272
-0.456315
-0.599530
-0.744398
-0.884096
-1.009148
-1.112096
-1.189807
-1.236795
-1.240810
-1.185378
-1.058771
-0.868180
-0.638641
-0.390406
-0.127619
0.147519
0.422218
0.679788
0.909762
1.104398
1.252520
1.345702
1.387323
1.391668
1.375561
1.348708
1.310290
1.255630
1.183511
1.096224
0.996804
0.887784
0.768894
0.634444
0.479337
0.310153
0.141906
-0.017494
-0.173968
-0.340762
-0.527021
-0.730544
-0.938105
-1.128100
-1.278200
-1.378831
-1.437197
-1.465942
-1.470399
-1.447232
-1.393036
-1.309856
-1.202790
-1.080601
-0.956482
-0.838326
-0.724247
-0.613663
-0.512340
-0.422123
-0.336965
-0.254269
-0.181525
-0.130187
-0.109252
-0.122205
-0.167699
-0.246226
-0.361754
-0.509124
-0.665112
-0.803243
-0.913996
-1.002269
-1.071244
-1.116385
-1.131509
-1.113167
-1.057878
-0.960223
-0.813913
-0.614938
-0.368850
-0.091670
0.201888
0.507139
0.823242
1.142128
1.448421
1.728472
1.972935
2.171810
2.313593
2.389584
2.395751
2.328205
2.177792
1.935566
1.607305
1.218547
0.803460
0.390340
-0.006305
-0.383297
-0.736047
-1.052302
-1.325554
-1.566511
-1.790657
-2.001435
-2.192626
-2.357242
-2.489123
-2.585591
-2.650950
-2.691383
-2.704378
-2.675426
-2.588237
-2.437808
-2.233535
-1.991349
-1.724902
-1.445112
-1.160720
-0.876533
-0.597612
-0.332719
-0.087806
0.138999
0.350622
0.543854
0.710761
0.843417
0.939274
1.002244
1.036495
1.043802
1.026351
0.985687
0.921077
0.832959
0.724718
0.600649
0.466725
0.331525
0.202702
0.084786
-0.019959
-0.110043
-0.181589
-0.228235
-0.245121
-0.229159
-0.178294
-0.094186
0.016399
0.142976
0.274564
0.403101
0.525142
0.640127
0.742900
0.822478
0.875657
0.911339
0.936380
0.950860
0.955065
0.948280
0.927762
0.896718
0.864488
0.835415
0.805615
0.771387
0.734125
0.696183
0.658683
0.627859
0.616691
0.633998
0.678336
0.745002
0.831344
0.936771
1.064119
1.217672
1.394385
1.578915
1.751768
1.901892
2.030880
2.146507
2.254427
2.355304
2.442160
2.499649
2.510992
2.468932
2.381211
2.259600
2.105439
1.913284
1.685463
1.435389
1.174480
0.904132
0.623262
0.337160
0.059032
-0.194564
-0.409285
-0.576496
-0.692140
-0.752123
-0.754483
-0.703359
-0.606101
-0.470512
-0.304457
-0.115911
0.088217
0.302916
0.520297
0.725899
0.904638
1.049300
1.160207
1.237541
1.276961
1.274222
1.232037
1.158657
1.061056
0.941941
0.802870
0.648830
0.487809
0.327150
0.171488
0.023940
-0.110453
-0.225525
-0.318339
-0.388179
-0.432976
-0.451211
-0.444975
-0.419429
-0.382266
-0.343093
-0.310856
-0.290903
-0.283746
-0.287398
-0.299649
-0.316189
-0.329396
-0.332273
-0.322557
-0.302778
-0.280678
-0.269115
-0.279480
-0.315342
-0.375611
-0.462981
-0.585382
-0.746838
-0.940072
-1.150892
-1.367763
-1.582469
-1.783805
-1.959699
-2.104876
-2.222586
-2.321281
-2.408011
-2.483666
-2.547578
-2.602532
-2.648929
-2.680294
-2.690705
-2.678996
-2.642291
-2.572732
-2.463287
-2.312723
-2.123076
-1.896605
-1.637216
-1.351721
-1.049713
-0.742616
-0.441837
-0.158495
0.097191
0.319375
0.507627
0.663208
0.786278
0.876701
0.936076
0.969472
0.985683
0.993812
0.998115
0.997476
0.989178
0.970737
0.939499
0.893416
0.832867
0.760250
0.677209
0.584974
0.487931
0.394184
0.312899
0.251605
0.214996
0.205126
0.219246
0.247665
0.278624
0.305316
0.325971
0.338837
0.337991
0.313011
0.254151
0.158693
0.031030
-0.121650
-0.290435
-0.463428
-0.629028
-0.780637
-0.914941
-1.027548
-1.112315
-1.163966
-1.181733
-1.170417
-1.136860
-1.084877
-1.013772
-0.921961
-0.810241
-0.681088
-0.537415
-0.383256
-0.224411
-0.066468
0.088430
0.241866
0.396475
0.554235
0.716231
0.881577
1.047443
1.211550
1.371675
1.522267
1.654951
1.761448
1.834407
1.867888
1.858360
1.804660
1.708245
1.575125
1.415625
1.240708
1.059803
0.880001
0.705724
0.542341
0.400639
0.294616
0.232499
0.211622
0.222951
0.256951
0.307561
0.375018
0.461462
0.563774
0.673715
0.783137
0.888456
0.990851
1.091957
1.190532
1.283135
1.366511
1.439627
1.503399
1.558079
1.603257
1.639975
1.668713
1.686503
1.688791
1.671530
1.631574
1.568899
1.486846
1.388987
1.277100
1.150776
1.011489
0.867831
0.731131
0.610279
0.514349
0.448260
0.404778
0.373591
0.354058
0.347501
0.347459
0.350524
0.363600
0.389889
0.419023
0.435739
0.433984
0.420068
0.398632
0.360660
0.292446
0.189559
0.054333
-0.113346
-0.314197
-0.544259
-0.794521
-1.049229
-1.291634
-1.518427
-1.735466
-1.936199
-2.098289
-2.200230
-2.231267
-2.191510
-2.089706
-1.935964
-1.736506
-1.498998
-1.235176
-0.954488
-0.665498
-0.381989
-0.115514
0.132853
0.364813
0.575920
0.758793
0.910642
1.034149
1.130323
1.194962
1.224330
1.216853
1.168024
1.074673
0.946605
0.801023
0.643638
0.469521
0.281406
0.091394
-0.095493
-0.286816
-0.491848
-0.712458
-0.941686
-1.165488
-1.366590
-1.531971
-1.659058
-1.752183
-1.813878
-1.841587
-1.833580
-1.798002
-1.750482
-1.699226
-1.636399
-1.548241
-1.430697
-1.290058
-1.134272
-0.970785
-0.807851
-0.653990
-0.514412
-0.385929
-0.262575
-0.147116
-0.049168
0.024726
0.073773
0.096481
0.086075
0.041203
-0.021355
-0.078632
-0.124942
-0.169943
-0.215336
-0.247729
-0.253128
-0.225574
-0.162817
-0.063036
0.073067
0.240480
0.431781
0.640836
0.866068
1.109334
1.366997
1.623657
1.859565
2.062844
2.232529
2.371548
2.478835
2.549022
2.579052
2.571601
2.531185
2.464160
2.383950
2.305358
2.230472
2.146160
2.034472
1.884191
1.697424
1.486034
1.260764
1.026586
0.787064
0.546448
0.304480
0.055639
-0.199149
-0.446357
-0.674776
-0.891553
-1.115146
-1.355495
-1.606245
-1.854901
-2.094144
-2.320019
-2.526925
-2.709343
-2.863229
-2.985606
-3.074774
-3.127286
-3.138201
-3.109224
-3.048841
-2.963131
-2.854519
-2.726585
-2.587413
-2.452629
-2.341097
-2.261811
-2.208097
-2.167514
-2.135050
-2.113917
-2.104877
-2.100016
-2.085855
-2.046585
-1.966531
-1.834774
-1.648838
-1.413778
-1.135236
-0.814727
-0.454411
-0.062363
0.350215
0.774384
1.201142
1.614605
1.994955
2.329613
2.614751
2.844377
3.008346
3.103622
3.135985
3.110313
3.026801
2.886737
2.698237
2.473493
2.223002
1.955123
1.677700
1.397696
1.120226
0.847725
0.580547
0.321844
0.081956
-0.124848
-0.287201
-0.400106
-0.465539
-0.491777
-0.490986
-0.475772
-0.454539
-0.428825
-0.397188
-0.361141
-0.327067
-0.303003
-0.293363
-0.296301
-0.306393
-0.320919
-0.339868
-0.359843
-0.374167
-0.376808
-0.363189
-0.330602
-0.278831
-0.207632
-0.113792
0.004934
0.144447
0.296980
0.457255
0.623527
0.790734
0.945223
1.070916
1.156285
1.192610
1.173001
1.098821
0.982832
0.840626
0.682202
0.513210
0.337958
0.159614
-0.018144
-0.186608
-0.329478
-0.428479
-0.472279
-0.455932
-0.374148
-0.225105
-0.019690
0.223430
0.489621
0.768811
1.050329
1.322886
1.575415
1.796328
1.976048
2.108612
2.187939
2.206107
2.159655
2.055921
1.906657
1.719486
1.502709
1.270667
1.039032
0.818909
0.617832
0.443005
0.298881
0.189073
0.122644
0.109100
0.151863
0.248637
0.390620
0.565558
0.767041
0.996476
1.252944
1.527016
1.803071
2.060220
2.276368
2.435054
2.528974
2.559952
2.532715
2.449586
2.310295
2.112915
1.858616
1.558362
1.232782
0.900793
0.569283
0.239604
-0.079653
-0.374545
-0.637267
-0.863956
-1.045333
-1.174811
-1.260052
-1.315844
-1.349287
-1.354092
-1.318664
-1.237295
-1.111281
-0.945959
-0.750391
-0.536799
-0.318548
-0.105186
0.100982
0.300367
0.486740
0.641745
0.744022
0.786613
0.779236
0.733290
0.652014
0.538009
0.402324
0.257190
0.105047
-0.057078
-0.225621
-0.387791
-0.531020
-0.654102
-0.766832
-0.880018
-0.999038
-1.123692
-1.250888
-1.380015
-1.516463
-1.666475
-1.828816
-1.995303
-2.157718
-2.310897
-2.451521
-2.577360
-2.685902
-2.769013
-2.810440
-2.794059
-2.713860
-2.573720
-2.382512
-2.151304
-1.891728
-1.616195
-1.336026
-1.059339
-0.795146
-0.555968
-0.353971
-0.196543
-0.085651
-0.019682
0.005883
-0.003183
-0.043106
-0.112817
-0.211898
-0.336633
-0.475952
-0.612520
-0.728334
-0.808303
-0.840297
-0.812318
-0.711829
-0.532963
-0.280248
0.036895
0.405710
0.807042
1.218154
1.619730
1.996787
2.333943
2.616708
2.837919
2.994342
3.079211
3.089542
3.031048
2.905452
2.708743
2.444418
2.125118
1.764110
1.367856
0.937395
0.481740
0.022271
-0.419678
-0.829148
-1.193902
-1.506663
-1.771607
-1.998306
-2.187413
-2.332560
-2.433164
-2.494419
-2.520297
-2.514096
-2.482211
-2.433834
-2.374849
-2.301315
-2.203634
-2.077493
-1.926663
-1.758686
-1.583155
-1.412007
-1.254644
-1.107815
-0.955869
-0.788700
-0.612948
-0.442393
-0.287051
-0.151197
-0.034535
0.064654
0.148214
0.220816
0.287421
0.345758
0.387202
0.404901
0.397400
0.366759
0.316427
0.249051
0.163961
0.060020
-0.060082
-0.193571
-0.339034
-0.488574
-0.625896
-0.735887
-0.812408
-0.856060
-0.869076
-0.853338
-0.807508
-0.727764
-0.616871
-0.488286
-0.358056
-0.236699
-0.129579
-0.040246
0.026777
0.064968
0.069874
0.041964
-0.017226
-0.108823
-0.232234
-0.378178
-0.531549
-0.678677
-0.809552
-0.917049
-0.995785
-1.045780
-1.074868
-1.090371
-1.091883
-1.074558
-1.037635
-0.989444
-0.943468
-0.910074
-0.890306
-0.878201
-0.869930
-0.865203
-0.862910
-0.861839
-0.861441
-0.859337
-0.851457
-0.835073
-0.809183
-0.773088
-0.726255
-0.666734
-0.588854
-0.484764
-0.350476
-0.188650
-0.003189
0.202840
0.424110
0.654410
0.887036
1.112492
1.319191
1.495497
1.632363
1.725496
1.775171
1.782184
1.743049
1.653174
1.512802
1.327295
1.108177
0.873282
0.636975
0.403231
0.174680
-0.039713
-0.229949
-0.389578
-0.513407
-0.592600
-0.613237
-0.564587
-0.446833
-0.267111
-0.034670
0.236909
0.528442
0.820227
1.098339
1.354014
1.577896
1.757104
1.877973
1.934352
1.932002
1.878270
1.774400
1.624579
1.440327
1.232604
1.009069
0.779387
0.558073
0.360866
0.200138
0.083121
0.012800
-0.008904
0.019044
0.090951
0.190425
0.297102
0.398673
0.491328
0.568611
0.618876
0.634043
0.613951
0.562226
0.480232
0.366516
0.223032
0.057642
-0.122278
-0.314374
-0.516775
-0.721268
-0.914286
-1.086572
-1.237895
-1.366834
-1.462903
-1.519573
-1.547629
-1.563175
-1.569218
-1.560676
-1.541628
-1.524143
-1.510171
-1.485586
-1.435359
-1.357986
-1.262365
-1.155035
-1.035046
-0.901886
-0.763335
-0.631460
-0.514360
-0.415940
-0.339694
-0.286030
-0.248451
-0.219705
-0.199597
-0.191047
-0.190892
-0.189863
-0.181048
-0.163962
-0.142015
-0.120896
-0.106324
-0.101392
-0.109123
-0.135753
-0.189426
-0.276228
-0.395855
-0.541326
-0.703530
-0.873050
-1.039803
-1.196243
-1.338778
-1.463711
-1.564830
-1.636137
-1.674816
-1.681398
-1.658754
-1.611468
-1.545679
-1.467577
-1.380961
-1.287206
-1.187693
-1.085697
-0.984769
-0.885919
-0.788339
-0.691756
-0.596702
-0.503574
-0.412909
-0.324870
-0.236603
-0.144304
-0.049047
0.045126
0.137860
0.231924
0.327888
0.422347
0.510589
0.589863
0.658994
0.718112
0.771277
0.824129
0.879328
0.937212
0.996509
1.055697
1.118079
1.192256
1.285349
1.399085
1.532636
1.683865
1.845999
2.006591
2.151918
2.271715
2.360162
2.415334
2.437240
2.424092
2.372661
2.282574
2.156763
1.998217
1.809784
1.597283
1.369489
1.132977
0.888218
0.632706
0.366435
0.093077
-0.181640
-0.452435
-0.716666
-0.973066
-1.218909
