EVENT_NAME: L_AQUILA
EVENT_ID: IT-2009-0009
EVENT_DATE_YYYYMMDD: 20090406
EVENT_TIME_HHMMSS: 013240
EVENT_LATITUDE_DEGREE: 42.3420
EVENT_LONGITUDE_DEGREE: 13.3800
EVENT_DEPTH_KM: 8.3
HYPOCENTER_REFERENCE: INGV-CNT_Seismic_Bulletin
MAGNITUDE_W: 6.1
MAGNITUDE_W_REFERENCE: INGV-CNT_Seismic_Bulletin
MAGNITUDE_L: 
MAGNITUDE_L_REFERENCE: 
FOCAL_MECHANISM: Normal faulting
NETWORK: IT
STATION_CODE: ASS
STATION_NAME: 
STATION_LATITUDE_DEGREE: 43.074982
STATION_LONGITUDE_DEGREE: 12.604141
STATION_ELEVATION_M: 390
LOCATION: 
SENSOR_DEPTH_M: 0.0
VS30_M/S: 
SITE_CLASSIFICATION_EC8: A (inferred from geology)
MORPHOLOGIC_CLASSIFICATION: 
EPICENTRAL_DISTANCE_KM: 103.3
EARTHQUAKE_BACKAZIMUTH_DEGREE: 322.3
DATE_TIME_FIRST_SAMPLE_YYYYMMDD_HHMMSS: 20090406_013234.000
DATE_TIME_FIRST_SAMPLE_PRECISION: seconds
SAMPLING_INTERVAL_S: 0.005000
NDATA: 23200
DURATION_S: 116.000
STREAM: HNE
UNITS: cm/s^2
INSTRUMENT: sensor = FBA-3 [Kinemetrics] | digitizer = Everest [Kinemetrics]
INSTRUMENT_ANALOG/DIGITAL: D
INSTRUMENTAL_FREQUENCY_HZ: 214.000
INSTRUMENTAL_DAMPING: 0.000000
FULL_SCALE_G: 1.0
N_BIT_DIGITAL_CONVERTER: 24
PGA_CM/S^2: 6.049715
TIME_PGA_S: 46.010000
BASELINE_CORRECTION: BASELINE NOT REMOVED
FILTER_TYPE: 
FILTER_ORDER: 
LOW_CUT_FREQUENCY_HZ: 
HIGH_CUT_FREQUENCY_HZ: 
LATE/NORMAL_TRIGGERED: NT
DATABASE_VERSION: 0.5
HEADER_FORMAT: DYNA 1.2
DATA_TYPE: ACCELERATION
PROCESSING: converted to cm/s^2
DATA_TIMESTAMP_YYYYMMDD_HHMMSS: 20211011_160705.794
DATA_LICENSE: CC-BY3_0-IT (http://creativecommons.org/licenses/by/3.0/deed.en)
DATA_CITATION: Luzi L, Pacor F, Puglia R (2019). Italian Accelerometric Archive v 3.0 - Istituto Nazionale di Geofisica e Vulcanologia, Dipartimento della Protezione Civile Nazionale. doi: 10.13127/itaca.3.1
DATA_CREATOR: ITACA working group
ORIGINAL_DATA_MEDIATOR_CITATION: data obtained within the DPC-INGV data exchange agreements
ORIGINAL_DATA_MEDIATOR: Archive of Italian Department of Civil Protection
ORIGINAL_DATA_CREATOR_CITATION: Presidency Of Counsil Of Ministers-Civil Protection Department. (1972). Italian Strong Motion Network. Presidency of Counsil of Ministers - Civil Protection Department. https://doi.org/10.7914/SN/IT http://www.fdsn.org/networks/detail/IT/
ORIGINAL_DATA_CREATOR: network: IT (Italian Strong Motion Network (RAN)); owner: Presidency of Counsil of Ministers - Civil Protection Department (PCM - DPC)
USER1: 
USER2: 
USER3: 
USER4: 
USER5: 
[...]
-1.513074
-1.604407
-1.673171
-1.711177
-1.714686
-1.695975
-1.653641
-1.597040
-1.522429
-1.440568
-1.345025
-1.235214
-1.125871
-1.002027
-0.863331
-0.713526
-0.548868
-0.372282
-0.189849
-0.007299
0.166714
0.326226
0.475798
0.613676
0.739157
0.850605
0.948604
1.037482
1.121565
1.208103
1.292420
1.396267
1.526660
1.665239
1.813992
1.961693
2.110797
2.244581
2.337903
2.390294
2.387838
2.327378
2.209381
2.037239
1.809548
1.532975
1.237924
0.920420
0.589234
0.264714
-0.066239
-0.373335
-0.650376
-0.917009
-1.153821
-1.352977
-1.502549
-1.612944
-1.687438
-1.707786
-1.701471
-1.688490
-1.665452
-1.643233
-1.638087
-1.648963
-1.669662
-1.700185
-1.728953
-1.753628
-1.757370
-1.719364
-1.643934
-1.517401
-1.347130
-1.129380
-0.855730
-0.561264
-0.242708
0.099237
0.445159
0.782426
1.091978
1.372995
1.619046
1.813992
1.960289
2.067527
2.135589
2.160264
2.147634
2.098401
2.007418
1.891175
1.759847
1.607585
1.443980
1.267862
1.076892
0.878788
0.668873
0.455801
0.252084
0.057488
-0.134885
-0.325855
-0.503961
-0.675402
-0.828365
-0.946128
-1.036643
-1.071843
-1.043659
-0.964956
-0.822985
-0.635875
-0.423621
-0.191018
0.032462
0.236179
0.408438
0.526435
0.593912
0.610050
0.589234
0.548538
0.496263
0.460946
0.452643
0.469015
0.503046
0.567366
0.666067
0.772720
0.892822
0.999007
1.064028
1.095252
1.071629
0.988716
0.856335
0.677293
0.437674
0.136777
-0.194878
-0.548283
-0.916190
-1.280004
-1.607097
-1.868468
-2.071717
-2.209243
-2.253916
-2.212868
-2.099432
-1.920859
-1.690829
-1.429926
-1.155341
-0.879586
-0.630261
-0.408301
-0.231130
-0.107754
-0.015368
0.036438
0.064505
0.062283
0.035152
0.017727
-0.004843
-0.022385
-0.025893
-0.013731
0.022405
0.068715
0.136543
0.248575
0.384582
0.534855
0.721381
0.930127
1.132908
1.312652
1.471813
1.602557
1.675764
1.689563
1.638809
1.507715
1.304232
1.034090
0.699980
0.330670
-0.063900
-0.474959
-0.883796
-1.258369
-1.584527
-1.890921
-2.144690
-2.312739
-2.403488
-2.429332
-2.384660
-2.257541
-2.071834
-1.843091
-1.581486
-1.289710
-0.992321
-0.704989
-0.433327
-0.204584
-0.005194
0.157827
0.274186
0.357801
0.410426
0.442469
0.448667
0.430658
0.388324
0.302253
0.180865
0.032462
-0.141200
-0.332287
-0.521737
-0.691540
-0.840293
-0.944841
-0.999688
-1.016528
-0.998753
-0.955834
-0.904028
-0.861577
-0.821699
-0.790124
-0.793048
-0.831990
-0.881224
-0.932094
-0.999805
-1.076287
-1.130549
-1.145986
-1.135811
-1.087046
-0.991853
-0.871166
-0.729664
-0.581612
-0.431222
-0.286328
-0.143071
0.006150
0.149407
0.312076
0.482932
0.642093
0.804178
0.957843
1.087534
1.186703
1.252893
1.278270
1.279790
1.268330
1.225411
1.159338
1.078061
0.986026
0.885805
0.766288
0.626890
0.471705
0.311491
0.145314
-0.023671
-0.155701
-0.252999
-0.315915
-0.309132
-0.251245
-0.139914
0.043221
0.274069
0.521173
0.766288
1.012923
1.232896
1.387730
1.474853
1.505961
1.472515
1.350659
1.148345
0.890600
0.594847
0.252435
-0.126816
-0.498465
-0.840293
-1.148558
-1.410280
-1.608383
-1.741349
-1.813036
-1.823912
-1.778771
-1.687087
-1.556343
-1.392504
-1.201885
-0.999688
-0.793983
-0.574947
-0.352752
-0.138510
0.073744
0.289740
0.494977
0.685245
0.866275
1.021343
1.151268
1.248332
1.313119
1.355921
1.368200
1.351945
1.304115
1.226581
1.125073
0.997721
0.861948
0.736935
0.623031
0.524213
0.447030
0.399200
0.387271
0.410894
0.480476
0.575669
0.671914
0.771784
0.864872
0.939716
0.980062
0.981115
0.946499
0.877502
0.773071
0.636480
0.480476
0.297926
0.099237
-0.106468
-0.300010
-0.472269
-0.625583
-0.719139
-0.765332
-0.764396
-0.683588
-0.539980
-0.360704
-0.145176
0.126252
0.430190
0.734947
1.031751
1.317096
1.549230
1.684885
1.737043
1.686523
1.526075
1.265055
0.910363
0.488896
0.009307
-0.476947
-0.940280
-1.377068
-1.740530
-2.006813
-2.175680
-2.253214
-2.211699
-2.073822
-1.879226
-1.601016
-1.266672
-0.900987
-0.526298
-0.150556
0.228578
0.570055
0.889781
1.171500
1.387964
1.552271
1.662432
1.737978
1.765811
1.741136
1.687809
1.612146
1.522450
1.415446
1.306337
1.199566
1.095369
1.016081
0.960532
0.951177
1.003217
1.089522
1.211846
1.374047
1.550166
1.729207
1.904156
2.053728
2.156990
2.183302
2.110563
1.951752
1.694475
1.325983
0.883817
0.375694
-0.183300
-0.761823
-1.348182
-1.901212
-2.405944
-2.848812
-3.200580
-3.476920
-3.687536
-3.816175
-3.851726
-3.820151
-3.751973
-3.633157
-3.458209
-3.257181
-3.045746
-2.822031
-2.601124
-2.384309
-2.156501
-1.942961
-1.750588
-1.556928
-1.382681
-1.230302
-1.096635
-0.984368
-0.862045
-0.740306
-0.622894
-0.486069
-0.346203
-0.201309
-0.054544
0.078304
0.202265
0.309854
0.409374
0.495679
0.564793
0.636246
0.708751
0.796693
0.889430
0.963573
1.025670
1.074787
1.108818
1.121448
1.112209
1.080049
1.038885
0.979244
0.891301
0.803476
0.692145
0.560817
0.436388
0.313830
0.198757
0.105786
0.049770
0.023925
0.043104
0.109529
0.201564
0.337453
0.524330
0.746173
0.983453
1.231960
1.504089
1.779142
2.017709
2.232185
2.419530
2.548870
2.627457
2.650846
2.614827
2.522090
2.371933
2.144827
1.862290
1.565368
1.203426
0.792366
0.376746
-0.051855
-0.484782
-0.911161
-1.299533
-1.649197
-1.954071
-2.190766
-2.366533
-2.490260
-2.566157
-2.574460
-2.524525
-2.436232
-2.290753
-2.101070
-1.886243
-1.627562
-1.344323
-1.052781
-0.736213
-0.416721
-0.104713
0.185192
0.448433
0.681269
0.847330
0.956556
1.011520
1.004737
0.932817
0.784882
0.598239
0.380021
0.108359
-0.185522
-0.476830
-0.758666
-1.034070
-1.288424
-1.500561
-1.683345
-1.803680
-1.862971
-1.871274
-1.807189
-1.679486
-1.460683
-1.190424
-0.901338
-0.574947
-0.245514
0.061114
0.322133
0.563156
0.783713
0.951878
1.092679
1.202022
1.280258
1.334637
1.362002
1.382117
1.393343
1.392057
1.392875
1.389484
1.379076
1.367615
1.349255
1.333234
1.327854
1.333935
1.350308
1.375802
1.419422
1.479999
1.545371
1.612263
1.701258
1.786978
1.851180
1.917254
1.953623
1.949413
1.908015
1.814694
1.675062
1.504323
1.303179
1.077827
0.853645
0.623733
0.411830
0.240272
0.107424
0.032930
0.000303
-0.005895
0.020300
0.068949
0.114089
0.135022
0.124965
0.077603
-0.021683
-0.165992
-0.336146
-0.537173
-0.749193
-0.973259
-1.212293
-1.441738
-1.677147
-1.895599
-2.081072
-2.243742
-2.363961
-2.447342
-2.484881
-2.475642
-2.416118
-2.287713
-2.101537
-1.858761
-1.567687
-1.227379
-0.851052
-0.471568
-0.093136
0.256294
0.554385
0.813650
1.033272
1.207986
1.336508
1.425971
1.483390
1.500815
1.474970
1.417434
1.350542
1.266459
1.166120
1.081336
1.014444
0.962871
0.939599
0.959948
1.013040
1.097240
1.213132
1.337327
1.465966
1.575893
1.652609
1.690382
1.671320
1.589342
1.443629
1.244707
0.998539
0.717639
0.411245
0.088128
-0.252531
-0.607691
-0.959225
-1.310409
-1.654927
-2.002369
-2.336011
-2.631880
-2.918394
-3.158246
-3.345123
-3.506506
-3.595969
-3.602401
-3.553635
-3.448853
-3.244785
-2.938859
-2.555749
-2.107970
-1.631421
-1.111721
-0.573075
-0.056532
0.456736
0.928022
1.328205
1.648983
1.850829
1.922984
1.885679
1.763121
1.585366
1.371241
1.138989
0.930244
0.745238
0.585141
0.453930
0.369847
0.368911
0.424810
0.549824
0.725591
0.923812
1.158753
1.390186
1.575542
1.703246
1.817617
1.908717
1.948478
1.968943
1.990227
2.003091
1.982509
1.919476
1.801362
1.650738
1.449944
1.167875
0.818796
0.414870
-0.026828
-0.535653
-1.070557
-1.599028
-2.132528
-2.634453
-3.091003
-3.477972
-3.815824
-4.084211
-4.243840
-4.326052
-4.348622
-4.321258
-4.218814
-4.064799
-3.877571
-3.623334
-3.357052
-3.091354
-2.777125
-2.438454
-2.081540
-1.691414
-1.268309
-0.802520
-0.321294
0.174784
0.678346
1.138171
1.562796
1.963798
2.299311
2.537176
2.702067
2.800066
2.792816
2.673065
2.450286
2.131379
1.731663
1.271019
0.768510
0.254423
-0.229142
-0.699141
-1.150546
-1.507110
-1.779707
-1.981553
-2.080605
-2.111712
-2.081891
-1.982956
-1.841103
-1.669194
-1.481733
-1.285149
-1.094413
-0.919464
-0.752819
-0.601961
-0.445840
-0.277674
-0.119916
0.032696
0.187881
0.339675
0.456853
0.534387
0.590287
0.612389
0.582919
0.504216
0.397212
0.262492
0.100524
-0.075945
-0.278025
-0.511095
-0.729196
-0.913617
-1.098506
-1.249364
-1.361397
-1.460683
-1.502315
-1.497403
-1.457291
-1.387008
-1.316373
-1.216854
-1.118855
-1.058160
-0.973961
-0.853391
-0.712707
-0.523374
-0.315681
-0.130441
0.085204
0.338506
0.585960
0.821018
1.051398
1.293005
1.499061
1.653895
1.770255
1.837965
1.895151
1.939590
1.968358
1.979936
1.969879
1.963681
1.969996
1.972218
1.945554
1.906261
1.868605
1.833522
1.809197
1.808145
1.810016
1.830130
1.885328
1.920996
1.953156
1.986134
2.022855
2.075362
2.102844
2.098167
2.082613
2.047647
1.933275
1.755286
1.537536
1.261898
0.947669
0.602917
0.271146
-0.049983
-0.356612
-0.600908
-0.808133
-0.976416
-1.105289
-1.167620
-1.160604
-1.133356
-1.066931
-1.004834
-0.950455
-0.859589
-0.766969
-0.662421
-0.542553
-0.389707
-0.182832
0.024276
0.254306
0.517781
0.789209
1.058649
1.303296
1.538471
1.729909
1.873283
1.989993
2.040513
2.016773
1.922984
1.782183
1.590628
1.319785
1.017718
0.703606
0.366572
0.029188
-0.317084
-0.646867
-0.951975
-1.236851
-1.486995
-1.713633
-1.882033
-1.995235
-2.066454
-2.084230
-2.048913
-1.968338
-1.867298
-1.741817
-1.612827
-1.468167
-1.315321
-1.184694
-1.042256
-0.904028
-0.753170
-0.585472
-0.438823
-0.282820
-0.119331
0.028837
0.146717
0.246003
0.330319
0.380956
0.423992
0.438259
0.438025
0.443872
0.437090
0.461297
0.502111
0.555203
0.645484
0.768744
0.923578
1.072682
1.236989
1.422228
1.597645
1.757274
1.884743
2.009289
2.106236
2.152195
2.162954
2.116059
2.035017
1.920528
1.770138
1.598347
1.404921
1.220266
1.051047
0.889898
0.741730
0.616716
0.503748
0.377565
0.251382
0.122626
-0.029284
-0.201894
-0.395203
-0.600908
-0.823570
-1.074416
-1.325729
-1.576107
-1.816895
-2.022951
-2.192754
-2.291338
-2.318235
-2.276954
-2.148900
-1.954188
-1.688022
-1.348650
-0.965541
-0.563018
-0.161314
0.230332
0.612857
0.969888
1.274060
1.514498
1.694007
1.811653
1.854572
1.820190
1.729090
1.599867
1.422813
1.206817
0.966380
0.701735
0.428319
0.155371
-0.109742
-0.362576
-0.572491
-0.758900
-0.938994
-1.067867
-1.178496
-1.255679
-1.292751
-1.333097
-1.359643
-1.383383
-1.402211
-1.433201
-1.486995
-1.539971
-1.609787
-1.692700
-1.787308
-1.889401
-1.988803
-2.097795
-2.206320
-2.304202
-2.387115
-2.448511
-2.487571
-2.506048
-2.500669
-2.475759
-2.432256
-2.357295
-2.276486
-2.186439
-2.067624
-1.938283
-1.801225
-1.650951
-1.466296
-1.250885
-1.006705
-0.715280
-0.378246
-0.000399
0.415689
0.880425
1.370890
1.875622
2.396959
2.911748
3.399874
3.837947
4.240119
4.587911
4.859573
5.076154
5.219644
5.298231
5.323257
5.277532
5.159535
4.985522
4.766017
4.480206
4.137091
3.755384
3.341986
2.913385
2.455315
1.976311
1.509352
1.049410
0.614962
0.223783
-0.136756
-0.437069
-0.680781
-0.890111
-1.051962
-1.181537
-1.297662
-1.415425
-1.518336
-1.620663
-1.761464
-1.919689
-2.075342
-2.221522
-2.393548
-2.609544
-2.870914
-3.135208
-3.361379
-3.628362
-3.909730
-4.149934
-4.353534
-4.529769
-4.664957
-4.692088
-4.687878
-4.659226
-4.518543
-4.290969
-4.007613
-3.680403
-3.272501
-2.804139
-2.315312
-1.793038
-1.227145
-0.630144
-0.043201
0.524564
1.077477
1.654129
2.184822
2.609213
3.016062
3.382215
3.679838
3.907997
4.045406
4.106452
4.103060
4.068562
3.977696
3.795730
3.552486
3.280240
2.998404
2.690022
2.347960
1.992449
1.590745
1.140860
0.712844
0.318625
-0.074308
-0.473556
-0.831171
-1.152768
-1.488515
-1.774444
-1.974887
-2.088791
-2.125043
-2.097795
-1.979331
-1.832916
-1.673054
-1.507110
-1.378939
-1.273221
-1.237904
-1.233577
-1.206446
-1.237202
-1.327717
-1.431213
-1.550847
-1.687321
-1.839933
-1.999328
-2.157671
-2.295782
-2.379631
-2.428631
-2.426526
-2.346653
-2.245847
-2.124342
-1.976758
-1.828005
-1.653641
-1.488632
-1.344908
-1.171947
-1.008693
-0.876663
-0.736564
-0.592722
-0.436718
-0.241304
-0.016420
0.217117
0.448550
0.688637
0.922292
1.144720
1.379544
1.599984
1.826622
2.075129
2.298375
2.510045
2.707213
2.855849
2.969753
3.068220
3.139439
3.158968
3.126341
3.046702
2.922039
2.769895
2.603249
2.422804
2.244698
2.086706
1.929182
1.766279
1.605246
1.440238
1.271253
1.071746
0.837858
0.560934
0.240389
-0.087640
-0.454611
-0.844854
-1.228548
-1.615166
-1.974302
-2.318118
-2.633751
-2.882609
-3.059779
-3.194148
-3.301035
-3.334598
-3.330271
-3.310859
-3.264081
-3.229465
-3.205492
-3.185143
-3.155206
-3.109247
-3.056973
-2.965990
-2.813378
-2.615976
-2.365364
-2.040610
-1.650951
-1.192880
-0.674232
-0.100036
0.533686
1.202490
1.891409
2.583953
3.267025
3.926006
4.515406
5.012185
5.422777
5.730808
5.936279
6.041529
6.049715
5.969023
5.789631
5.558315
5.290513
4.964121
4.597383
4.201644
3.792690
3.352862
2.879355
2.387019
1.868722
1.347033
0.820550
0.286699
-0.214290
-0.689084
-1.146921
-1.546871
-1.882033
-2.163050
-2.383607
-2.534465
-2.625916
-2.666262
-2.662169
-2.626267
-2.565923
-2.502540
-2.443834
-2.394951
-2.366884
-2.355658
-2.348290
-2.349226
-2.321276
-2.259529
-2.198017
-2.096158
-1.970794
-1.829642
-1.668610
-1.491088
-1.292049
-1.109148
-0.916190
-0.698907
-0.469930
-0.258846
-0.074659
0.094326
0.230800
0.334763
0.359906
0.321666
0.230683
0.074562
-0.088926
-0.300010
-0.553897
-0.779482
-1.004483
-1.226677
-1.403029
-1.529680
-1.597391
-1.615751
-1.601951
-1.536112
-1.431096
-1.304913
-1.168088
-1.008459
-0.808017
-0.621023
-0.450518
-0.286796
-0.142837
-0.014783
0.066025
0.117247
0.184256
0.220392
0.194079
0.204487
0.247991
0.279098
0.359789
0.516027
0.706880
0.888612
1.140159
1.445033
1.732949
2.067995
2.435551
2.810825
3.214166
3.615753
3.979450
4.326424
4.647202
4.912081
5.141876
5.323842
5.458210
5.546854
5.556210
5.493645
5.387693
5.219995
4.974997
4.689185
4.353438
3.957932
3.525589
3.072430
2.626053
2.164357
1.702544
1.273475
0.888962
0.553332
0.251850
0.038309
-0.103076
-0.189849
-0.206689
-0.202011
-0.162952
-0.107520
-0.082494
-0.053960
-0.010105
0.010594
0.005448
-0.030922
-0.111496
-0.225049
-0.380117
-0.573660
-0.808952
-1.067633
-1.341166
-1.649782
-1.954889
-2.263038
-2.578553
-2.876410
-3.167134
-3.475516
-3.799101
-4.083744
-4.379262
-4.681212
-4.927614
-5.144078
-5.287218
-5.372938
-5.423458
-5.408021
-5.339492
-5.217285
-5.077186
-4.897442
-4.636189
-4.327806
-3.983990
-3.616083
-3.227010
-2.814430
-2.400213
-1.970092
-1.518921
-1.073948
-0.621607
-0.149971
0.340260
0.821953
1.267394
1.701258
2.096997
2.423038
2.670609
2.814100
2.845909
2.769544
2.583369
2.289488
1.937134
1.558001
1.160156
0.752605
0.351837
-0.024723
-0.370411
-0.662889
-0.909056
-1.092425
-1.216503
-1.305030
-1.370986
-1.421623
-1.414607
-1.381979
-1.341049
-1.251586
-1.134291
-1.005302
-0.883446
-0.780418
-0.688850
-0.634354
-0.624180
-0.673764
-0.794802
-0.964839
-1.187501
-1.446065
-1.709189
-1.952317
-2.172289
-2.361973
-2.443600
-2.414480
-2.350161
-2.198718
-1.932319
-1.628615
-1.270531
-0.895140
-0.514252
-0.063198
0.378033
0.801371
1.223891
1.616707
1.987303
2.295919
2.538462
2.715983
2.825209
2.854563
2.804978
2.756914
2.688969
2.546297
2.399766
2.244464
2.045191
1.825803
1.580337
1.348787
1.117589
0.861598
0.598122
0.326343
0.096665
-0.079921
-0.232767
-0.357196
-0.421048
-0.466188
-0.519281
-0.529689
-0.531677
-0.539980
-0.520918
-0.505482
-0.531443
-0.563252
-0.599505
-0.646399
-0.668385
-0.682769
-0.665344
-0.620438
-0.569918
-0.466188
-0.338368
-0.207975
-0.052790
0.103097
0.235595
0.341312
0.413467
0.440481
0.406567
0.316169
0.184958
-0.017824
-0.262939
-0.495658
-0.766384
-1.045530
-1.271350
-1.472728
-1.633176
-1.754564
-1.839699
-1.887997
-1.931150
-1.935594
-1.930916
-1.922730
-1.866713
-1.806136
-1.734800
-1.619727
-1.460800
-1.265035
-1.052196
-0.815852
-0.563954
-0.322815
-0.082494
0.156774
0.392066
0.610635
0.821135
1.037131
1.235936
1.440121
1.630974
1.811887
2.008470
2.183068
2.327962
2.438241
2.521505
2.573896
2.583369
2.556355
2.497882
2.409005
2.289254
2.163071
2.002389
1.806157
1.626062
1.447371
1.268447
1.108467
0.992341
0.922058
0.876216
0.873409
0.906387
0.966847
1.062859
1.189041
1.329141
1.484209
1.686873
1.912342
2.134186
2.367022
2.604419
2.814918
2.992440
3.166453
3.315440
3.411100
3.446535
3.415544
3.302693
3.106577
2.856668
2.541269
2.183887
1.818670
1.441875
1.087651
0.788741
0.527605
0.322133
0.206709
0.120638
0.056670
0.044858
0.059827
0.078772
0.083918
0.098419
0.118416
0.108242
0.082164
0.054682
0.009775
-0.047995
-0.114069
-0.193123
-0.295683
-0.418358
-0.519515
-0.631197
-0.744048
-0.820763
-0.891515
-0.943087
-0.995010
-1.046115
-1.064592
-1.066230
-1.062253
-1.059330
-1.045764
-1.011500
-0.974545
-0.937006
-0.900753
-0.883796
-0.861460
-0.834680
-0.833510
-0.841696
-0.857367
-0.879470
-0.895491
-0.908706
-0.906016
-0.875376
-0.822167
-0.761005
-0.676805
-0.556703
-0.435900
-0.322347
-0.223997
-0.145761
-0.075828
-0.032442
-0.016420
-0.019929
-0.044604
-0.091148
-0.156754
-0.249257
-0.361991
-0.488758
-0.660667
-0.865904
-1.083537
-1.310526
-1.540439
-1.773626
-2.004474
-2.232047
-2.429099
-2.579021
-2.687662
-2.750929
-2.769757
-2.732686
-2.656789
-2.551773
-2.410504
-2.255787
-2.085633
-1.907761
-1.739010
-1.586749
-1.447117
-1.299767
-1.156394
-1.016177
-0.877949
-0.742177
-0.612719
-0.498816
-0.380000
-0.273347
-0.193591
-0.132897
-0.087055
-0.054544
-0.040511
-0.030454
-0.031623
-0.040511
-0.051972
-0.078869
-0.105766
-0.122489
-0.125763
-0.121553
-0.100854
-0.044136
0.024510
0.109763
0.233022
0.377916
0.534270
0.695654
0.869199
1.042042
1.189860
1.330661
1.457429
1.553908
1.625945
1.677752
1.707923
1.702895
1.670735
1.620566
1.539757
1.435794
1.315224
1.170564
0.998890
0.813533
0.624434
0.417560
0.197471
-0.007650
-0.183066
-0.328077
-0.434146
-0.486770
-0.480105
-0.416604
-0.301180
-0.136522
0.068598
0.303305
0.548421
0.777515
0.975150
1.133727
1.248566
1.302127
1.289146
1.222955
1.106596
0.934337
0.700799
0.426681
0.129526
-0.194761
-0.544775
-0.890930
-1.194167
-1.464308
-1.705096
-1.900393
-2.052538
-2.166442
-2.250057
-2.290519
-2.277071
