EVENT_NAME: L_AQUILA
EVENT_ID: IT-2009-0009
EVENT_DATE_YYYYMMDD: 20090406
EVENT_TIME_HHMMSS: 013240
EVENT_LATITUDE_DEGREE: 42.3420
EVENT_LONGITUDE_DEGREE: 13.3800
EVENT_DEPTH_KM: 8.3
HYPOCENTER_REFERENCE: INGV-CNT_Seismic_Bulletin
MAGNITUDE_W: 6.1
MAGNITUDE_W_REFERENCE: INGV-CNT_Seismic_Bulletin
MAGNITUDE_L: 
MAGNITUDE_L_REFERENCE: 
FOCAL_MECHANISM: Normal faulting
NETWORK: IT
STATION_CODE: ASS
STATION_NAME: 
STATION_LATITUDE_DEGREE: 43.074982
STATION_LONGITUDE_DEGREE: 12.604141
STATION_ELEVATION_M: 390
LOCATION: 
SENSOR_DEPTH_M: 0.0
VS30_M/S: 
SITE_CLASSIFICATION_EC8: A (inferred from geology)
MORPHOLOGIC_CLASSIFICATION: 
EPICENTRAL_DISTANCE_KM: 103.3
EARTHQUAKE_BACKAZIMUTH_DEGREE: 322.3
DATE_TIME_FIRST_SAMPLE_YYYYMMDD_HHMMSS: 20090406_013234.000
DATE_TIME_FIRST_SAMPLE_PRECISION: seconds
SAMPLING_INTERVAL_S: 0.005000
NDATA: 20000
DURATION_S: 100.000
STREAM: HNE
UNITS: cm
INSTRUMENT: sensor = FBA-3 [Kinemetrics] | digitizer = Everest [Kinemetrics]
INSTRUMENT_ANALOG/DIGITAL: D
INSTRUMENTAL_FREQUENCY_HZ: 214.000
INSTRUMENTAL_DAMPING: 0.000000
FULL_SCALE_G: 1.0
N_BIT_DIGITAL_CONVERTER: 24
PGD_CM: 0.123368
TIME_PGD_S: 53.450000
BASELINE_CORRECTION: BASELINE REMOVED
FILTER_TYPE: BUTTERWORTH
FILTER_ORDER: 2
LOW_CUT_FREQUENCY_HZ: 0.060
HIGH_CUT_FREQUENCY_HZ: 40.000
LATE/NORMAL_TRIGGERED: NT
DATABASE_VERSION: 0.5
HEADER_FORMAT: DYNA 1.2
DATA_TYPE: DISPLACEMENT
PROCESSING: manual (Paolucci et al., 2011)
DATA_TIMESTAMP_YYYYMMDD_HHMMSS: 20211011_160706.068
DATA_LICENSE: CC-BY3_0-IT (http://creativecommons.org/licenses/by/3.0/deed.en)
DATA_CITATION: Luzi L, Pacor F, Puglia R (2019). Italian Accelerometric Archive v 3.0 - Istituto Nazionale di Geofisica e Vulcanologia, Dipartimento della Protezione Civile Nazionale. doi: 10.13127/itaca.3.1
DATA_CREATOR: ITACA working group
ORIGINAL_DATA_MEDIATOR_CITATION: data obtained within the DPC-INGV data exchange agreements
ORIGINAL_DATA_MEDIATOR: Archive of Italian Department of Civil Protection
ORIGINAL_DATA_CREATOR_CITATION: Presidency Of Counsil Of Ministers-Civil Protection Department. (1972). Italian Strong Motion Network. Presidency of Counsil of Ministers - Civil Protection Department. https://doi.org/10.7914/SN/IT http://www.fdsn.org/networks/detail/IT/
ORIGINAL_DATA_CREATOR: network: IT (Italian Strong Motion Network (RAN)); owner: Presidency of Counsil of Ministers - Civil Protection Department (PCM - DPC)
USER1: 
USER2: 
USER3: 
USER4: 
USER5: 
[...]
2.767393e-03
2.279198e-03
1.798535e-03
1.324124e-03
8.546414e-04
3.886841e-04
-7.531948e-05
-5.391319e-04
-1.004678e-03
-1.474002e-03
-1.949166e-03
-2.432109e-03
-2.924549e-03
-3.427870e-03
-3.942945e-03
-4.469982e-03
-5.008540e-03
-5.557588e-03
-6.115539e-03
-6.680336e-03
-7.249664e-03
-7.821225e-03
-8.392945e-03
-8.963116e-03
-9.530543e-03
-1.009474e-02
-1.065608e-02
-1.121580e-02
-1.177588e-02
-1.233900e-02
-1.290845e-02
-1.348794e-02
-1.408137e-02
-1.469248e-02
-1.532468e-02
-1.598067e-02
-1.666222e-02
-1.736994e-02
-1.810309e-02
-1.885936e-02
-1.963467e-02
-2.042333e-02
-2.121826e-02
-2.201130e-02
-2.279365e-02
-2.355629e-02
-2.429037e-02
-2.498759e-02
-2.564042e-02
-2.624253e-02
-2.678892e-02
-2.727606e-02
-2.770184e-02
-2.806547e-02
-2.836740e-02
-2.860912e-02
-2.879294e-02
-2.892187e-02
-2.899937e-02
-2.902925e-02
-2.901559e-02
-2.896272e-02
-2.887501e-02
-2.875665e-02
-2.861150e-02
-2.844302e-02
-2.825407e-02
-2.804679e-02
-2.782258e-02
-2.758205e-02
-2.732508e-02
-2.705090e-02
-2.675828e-02
-2.644579e-02
-2.611203e-02
-2.575591e-02
-2.537671e-02
-2.497419e-02
-2.454868e-02
-2.410116e-02
-2.363323e-02
-2.314716e-02
-2.264576e-02
-2.213240e-02
-2.161090e-02
-2.108549e-02
-2.056063e-02
-2.004091e-02
-1.953084e-02
-1.903476e-02
-1.855667e-02
-1.810017e-02
-1.766830e-02
-1.726355e-02
-1.688769e-02
-1.654168e-02
-1.622557e-02
-1.593841e-02
-1.567815e-02
-1.544166e-02
-1.522488e-02
-1.502299e-02
-1.483065e-02
-1.464228e-02
-1.445233e-02
-1.425549e-02
-1.404696e-02
-1.382255e-02
-1.357889e-02
-1.331355e-02
-1.302504e-02
-1.271292e-02
-1.237768e-02
-1.202079e-02
-1.164460e-02
-1.125226e-02
-1.084754e-02
-1.043473e-02
-1.001851e-02
-9.603838e-03
-9.195793e-03
-8.799444e-03
-8.419637e-03
-8.060735e-03
-7.726426e-03
-7.419585e-03
-7.142135e-03
-6.895011e-03
-6.678351e-03
-6.491742e-03
-6.334340e-03
-6.204926e-03
-6.102073e-03
-6.024321e-03
-5.970225e-03
-5.938278e-03
-5.926841e-03
-5.934130e-03
-5.958245e-03
-5.997268e-03
-6.049320e-03
-6.112569e-03
-6.185329e-03
-6.266340e-03
-6.355017e-03
-6.451514e-03
-6.556715e-03
-6.672306e-03
-6.800833e-03
-6.945626e-03
-7.110536e-03
-7.299534e-03
-7.516352e-03
-7.764258e-03
-8.045860e-03
-8.362829e-03
-8.715630e-03
-9.103394e-03
-9.524003e-03
-9.974233e-03
-1.044994e-02
-1.094635e-02
-1.145839e-02
-1.198087e-02
-1.250852e-02
-1.303587e-02
-1.355728e-02
-1.406702e-02
-1.455938e-02
-1.502856e-02
-1.546850e-02
-1.587288e-02
-1.623519e-02
-1.654882e-02
-1.680719e-02
-1.700382e-02
-1.713259e-02
-1.718786e-02
-1.716454e-02
-1.705824e-02
-1.686541e-02
-1.658347e-02
-1.621096e-02
-1.574752e-02
-1.519395e-02
-1.455214e-02
-1.382519e-02
-1.301744e-02
-1.213434e-02
-1.118224e-02
-1.016830e-02
-9.100523e-03
-7.987756e-03
-6.839436e-03
-5.665435e-03
-4.475976e-03
-3.281519e-03
-2.092490e-03
-9.189566e-04
2.295875e-04
1.344314e-03
2.417238e-03
3.441426e-03
4.411045e-03
5.321290e-03
6.168406e-03
6.949754e-03
7.663689e-03
8.309290e-03
8.886269e-03
9.395023e-03
9.836483e-03
1.021187e-02
1.052270e-02
1.077091e-02
1.095887e-02
1.108914e-02
1.116438e-02
1.118733e-02
1.116103e-02
1.108885e-02
1.097456e-02
1.082228e-02
1.063624e-02
1.042060e-02
1.017924e-02
9.915635e-03
9.632684e-03
9.332733e-03
9.017759e-03
8.689545e-03
8.349731e-03
7.999864e-03
7.641633e-03
7.277211e-03
6.909536e-03
6.542413e-03
6.180473e-03
5.828969e-03
5.493497e-03
5.179767e-03
4.893495e-03
4.640332e-03
4.425781e-03
4.255155e-03
4.133493e-03
4.065306e-03
4.054179e-03
4.102508e-03
4.211496e-03
4.381235e-03
4.610772e-03
4.898162e-03
5.240563e-03
5.634314e-03
6.074959e-03
6.557260e-03
7.075279e-03
7.622571e-03
8.192412e-03
8.777964e-03
9.372432e-03
9.969297e-03
1.056264e-02
1.114740e-02
1.171937e-02
1.227498e-02
1.281085e-02
1.332366e-02
1.381011e-02
1.426697e-02
1.469104e-02
1.507917e-02
1.542831e-02
1.573557e-02
1.599812e-02
1.621307e-02
1.637755e-02
1.648886e-02
1.654464e-02
1.654290e-02
1.648217e-02
1.636144e-02
1.618011e-02
1.593796e-02
1.563523e-02
1.527257e-02
1.485092e-02
1.437163e-02
1.383640e-02
1.324724e-02
1.260651e-02
1.191701e-02
1.118191e-02
1.040475e-02
9.589413e-03
8.740169e-03
7.861725e-03
6.959350e-03
6.038953e-03
5.106972e-03
4.170241e-03
3.235920e-03
2.311469e-03
1.404508e-03
5.225857e-04
-3.270902e-04
-1.137839e-03
-1.903543e-03
-2.618708e-03
-3.278719e-03
-3.880015e-03
-4.420011e-03
-4.896980e-03
-5.310050e-03
-5.659246e-03
-5.945451e-03
-6.170172e-03
-6.335231e-03
-6.442664e-03
-6.494838e-03
-6.494471e-03
-6.444446e-03
-6.347720e-03
-6.207477e-03
-6.027184e-03
-5.810456e-03
-5.560904e-03
-5.282085e-03
-4.977515e-03
-4.650775e-03
-4.305712e-03
-3.946588e-03
-3.578072e-03
-3.205172e-03
-2.833243e-03
-2.468015e-03
-2.115486e-03
-1.781675e-03
-1.472414e-03
-1.193237e-03
-9.493588e-04
-7.456456e-04
-5.864605e-04
-4.754584e-04
-4.155457e-04
-4.089805e-04
-4.574408e-04
-5.621258e-04
-7.239326e-04
-9.435683e-04
-1.221591e-03
-1.558463e-03
-1.954584e-03
-2.410265e-03
-2.925633e-03
-3.500366e-03
-4.133404e-03
-4.822833e-03
-5.565967e-03
-6.359416e-03
-7.199142e-03
-8.080609e-03
-8.998972e-03
-9.949168e-03
-1.092588e-02
-1.192337e-02
-1.293541e-02
-1.395537e-02
-1.497651e-02
-1.599198e-02
-1.699499e-02
-1.797892e-02
-1.893757e-02
-1.986517e-02
-2.075649e-02
-2.160711e-02
-2.241362e-02
-2.317378e-02
-2.388632e-02
-2.455100e-02
-2.516867e-02
-2.574124e-02
-2.627148e-02
-2.676291e-02
-2.721969e-02
-2.764649e-02
-2.804855e-02
-2.843172e-02
-2.880246e-02
-2.916766e-02
-2.953455e-02
-2.991041e-02
-3.030252e-02
-3.071796e-02
-3.116343e-02
-3.164528e-02
-3.216955e-02
-3.274201e-02
-3.336789e-02
-3.405179e-02
-3.479777e-02
-3.560936e-02
-3.648944e-02
-3.744008e-02
-3.846246e-02
-3.955670e-02
-4.072162e-02
-4.195459e-02
-4.325147e-02
-4.460669e-02
-4.601344e-02
-4.746390e-02
-4.894936e-02
-5.046037e-02
-5.198696e-02
-5.351882e-02
-5.504545e-02
-5.655619e-02
-5.804038e-02
-5.948755e-02
-6.088745e-02
-6.223003e-02
-6.350559e-02
-6.470501e-02
-6.581977e-02
-6.684196e-02
-6.776436e-02
-6.858066e-02
-6.928555e-02
-6.987462e-02
-7.034426e-02
-7.069180e-02
-7.091557e-02
-7.101494e-02
-7.099019e-02
-7.084252e-02
-7.057411e-02
-7.018824e-02
-6.968933e-02
-6.908290e-02
-6.837552e-02
-6.757463e-02
-6.668840e-02
-6.572548e-02
-6.469467e-02
-6.360469e-02
-6.246405e-02
-6.128098e-02
-6.006325e-02
-5.881792e-02
-5.755129e-02
-5.626910e-02
-5.497673e-02
-5.367931e-02
-5.238163e-02
-5.108809e-02
-4.980281e-02
-4.852971e-02
-4.727261e-02
-4.603528e-02
-4.482156e-02
-4.363554e-02
-4.248185e-02
-4.136578e-02
-4.029316e-02
-3.927018e-02
-3.830333e-02
-3.739925e-02
-3.656447e-02
-3.580500e-02
-3.512616e-02
-3.453252e-02
-3.402771e-02
-3.361440e-02
-3.329440e-02
-3.306877e-02
-3.293790e-02
-3.290141e-02
-3.295806e-02
-3.310567e-02
-3.334095e-02
-3.365939e-02
-3.405517e-02
-3.452129e-02
-3.504996e-02
-3.563322e-02
-3.626327e-02
-3.693261e-02
-3.763394e-02
-3.836010e-02
-3.910413e-02
-3.985951e-02
-4.062021e-02
-4.138085e-02
-4.213684e-02
-4.288436e-02
-4.361999e-02
-4.434062e-02
-4.504353e-02
-4.572656e-02
-4.638785e-02
-4.702536e-02
-4.763651e-02
-4.821824e-02
-4.876704e-02
-4.927885e-02
-4.974900e-02
-5.017238e-02
-5.054386e-02
-5.085830e-02
-5.111072e-02
-5.129659e-02
-5.141231e-02
-5.145542e-02
-5.142457e-02
-5.131949e-02
-5.114082e-02
-5.089021e-02
-5.057029e-02
-5.018446e-02
-4.973640e-02
-4.922995e-02
-4.866924e-02
-4.805862e-02
-4.740244e-02
-4.670499e-02
-4.597074e-02
-4.520434e-02
-4.441067e-02
-4.359484e-02
-4.276215e-02
-4.191815e-02
-4.106850e-02
-4.021901e-02
-3.937547e-02
-3.854349e-02
-3.772838e-02
-3.693503e-02
-3.616790e-02
-3.543088e-02
-3.472727e-02
-3.405964e-02
-3.342992e-02
-3.283943e-02
-3.228904e-02
-3.177918e-02
-3.131004e-02
-3.088164e-02
-3.049385e-02
-3.014619e-02
-2.983789e-02
-2.956785e-02
-2.933469e-02
-2.913682e-02
-2.897248e-02
-2.883947e-02
-2.873494e-02
-2.865524e-02
-2.859605e-02
-2.855254e-02
-2.851941e-02
-2.849093e-02
-2.846108e-02
-2.842385e-02
-2.837334e-02
-2.830404e-02
-2.821105e-02
-2.809028e-02
-2.793835e-02
-2.775244e-02
-2.753027e-02
-2.726996e-02
-2.696990e-02
-2.662859e-02
-2.624478e-02
-2.581741e-02
-2.534554e-02
-2.482835e-02
-2.426528e-02
-2.365612e-02
-2.300117e-02
-2.230157e-02
-2.155936e-02
-2.077760e-02
-1.996034e-02
-1.911266e-02
-1.824044e-02
-1.735014e-02
-1.644852e-02
-1.554245e-02
-1.463874e-02
-1.374405e-02
-1.286473e-02
-1.200679e-02
-1.117582e-02
-1.037704e-02
-9.615250e-03
-8.894809e-03
-8.219536e-03
-7.592574e-03
-7.016253e-03
-6.491987e-03
-6.020159e-03
-5.599996e-03
-5.229622e-03
-4.906261e-03
-4.626347e-03
-4.385540e-03
-4.178755e-03
-4.000260e-03
-3.843833e-03
-3.702930e-03
-3.570818e-03
-3.440699e-03
-3.305881e-03
-3.159962e-03
-2.996960e-03
-2.811466e-03
-2.598760e-03
-2.354804e-03
-2.076144e-03
-1.759770e-03
-1.402979e-03
-1.003273e-03
-5.582356e-04
-6.542776e-05
4.776319e-04
1.073347e-03
1.723915e-03
2.431282e-03
3.197102e-03
4.022669e-03
4.908832e-03
5.855884e-03
6.863399e-03
7.930079e-03
9.053704e-03
1.023118e-02
1.145866e-02
1.273164e-02
1.404506e-02
1.539335e-02
1.677055e-02
1.817057e-02
1.958745e-02
2.101557e-02
2.244963e-02
2.388476e-02
2.531643e-02
2.674057e-02
2.815359e-02
2.955237e-02
3.093410e-02
3.229617e-02
3.363621e-02
3.495206e-02
3.624162e-02
3.750286e-02
3.873383e-02
3.993269e-02
4.109763e-02
4.222695e-02
4.331893e-02
4.437191e-02
4.538446e-02
4.635557e-02
4.728471e-02
4.817190e-02
4.901782e-02
4.982371e-02
5.059132e-02
5.132289e-02
5.202114e-02
5.268913e-02
5.333014e-02
5.394755e-02
5.454488e-02
5.512577e-02
5.569381e-02
5.625240e-02
5.680478e-02
5.735399e-02
5.790270e-02
5.845318e-02
5.900734e-02
5.956683e-02
6.013318e-02
6.070780e-02
6.129210e-02
6.188735e-02
6.249466e-02
6.311490e-02
6.374873e-02
6.439649e-02
6.505816e-02
6.573338e-02
6.642145e-02
6.712125e-02
6.783107e-02
6.854870e-02
6.927158e-02
6.999674e-02
7.072071e-02
7.143955e-02
7.214893e-02
7.284419e-02
7.352044e-02
7.417273e-02
7.479627e-02
7.538669e-02
7.594006e-02
7.645287e-02
7.692214e-02
7.734556e-02
7.772155e-02
7.804931e-02
7.832887e-02
7.856118e-02
7.874804e-02
7.889196e-02
7.899588e-02
7.906308e-02
7.909704e-02
7.910127e-02
7.907913e-02
7.903397e-02
7.896923e-02
7.888838e-02
7.879491e-02
7.869232e-02
7.858411e-02
7.847372e-02
7.836442e-02
7.825912e-02
7.816026e-02
7.806982e-02
7.798928e-02
7.791943e-02
7.786039e-02
7.781178e-02
7.777282e-02
7.774235e-02
7.771894e-02
7.770113e-02
7.768760e-02
7.767728e-02
7.766937e-02
7.766346e-02
7.765962e-02
7.765841e-02
7.766080e-02
7.766815e-02
7.768218e-02
7.770478e-02
7.773778e-02
7.778276e-02
7.784105e-02
7.791386e-02
7.800225e-02
7.810712e-02
7.822929e-02
7.836961e-02
7.852895e-02
7.870822e-02
7.890856e-02
7.913144e-02
7.937866e-02
7.965206e-02
7.995345e-02
8.028463e-02
8.064722e-02
8.104259e-02
8.147186e-02
8.193582e-02
8.243479e-02
8.296847e-02
8.353584e-02
8.413498e-02
8.476306e-02
8.541652e-02
8.609133e-02
8.678310e-02
8.748712e-02
8.819849e-02
8.891217e-02
8.962305e-02
9.032607e-02
9.101640e-02
9.168948e-02
9.234100e-02
9.296691e-02
9.356355e-02
9.412770e-02
9.465672e-02
9.514870e-02
9.560253e-02
9.601788e-02
9.639510e-02
9.673518e-02
9.703975e-02
9.731085e-02
9.755074e-02
9.776175e-02
9.794612e-02
9.810578e-02
9.824209e-02
9.835573e-02
9.844683e-02
9.851508e-02
9.855997e-02
9.858107e-02
9.857825e-02
9.855183e-02
9.850276e-02
9.843267e-02
9.834384e-02
9.823908e-02
9.812166e-02
9.799541e-02
9.786451e-02
9.773339e-02
9.760659e-02
9.748872e-02
9.738427e-02
9.729743e-02
9.723196e-02
9.719123e-02
9.717832e-02
9.719609e-02
9.724711e-02
9.733376e-02
9.745815e-02
9.762200e-02
9.782654e-02
9.807238e-02
9.835941e-02
9.868671e-02
9.905261e-02
9.945478e-02
9.989028e-02
1.003554e-01
1.008457e-01
1.013564e-01
1.018821e-01
1.024175e-01
1.029570e-01
1.034953e-01
1.040275e-01
1.045496e-01
1.050579e-01
1.055498e-01
1.060236e-01
1.064785e-01
1.069146e-01
1.073324e-01
1.077331e-01
1.081183e-01
1.084895e-01
1.088485e-01
1.091971e-01
1.095372e-01
1.098707e-01
1.101996e-01
1.105256e-01
1.108505e-01
1.111763e-01
1.115045e-01
1.118370e-01
1.121750e-01
1.125199e-01
1.128728e-01
1.132342e-01
1.136047e-01
1.139846e-01
1.143740e-01
1.147726e-01
1.151803e-01
1.155962e-01
1.160195e-01
1.164491e-01
1.168833e-01
1.173202e-01
1.177578e-01
1.181935e-01
1.186246e-01
1.190484e-01
1.194622e-01
1.198631e-01
1.202487e-01
1.206165e-01
1.209648e-01
1.212919e-01
1.215966e-01
1.218780e-01
1.221358e-01
1.223697e-01
1.225795e-01
1.227655e-01
1.229275e-01
1.230654e-01
1.231787e-01
1.232669e-01
1.233289e-01
1.233632e-01
1.233679e-01
1.233410e-01
1.232801e-01
1.231825e-01
1.230454e-01
1.228660e-01
1.226418e-01
1.223705e-01
1.220504e-01
1.216804e-01
1.212601e-01
1.207901e-01
1.202718e-01
1.197072e-01
1.190995e-01
1.184521e-01
1.177693e-01
1.170557e-01
1.163163e-01
1.155563e-01
1.147814e-01
1.139973e-01
1.132099e-01
1.124253e-01
1.116494e-01
1.108883e-01
1.101478e-01
1.094335e-01
1.087506e-01
1.081040e-01
1.074979e-01
1.069356e-01
1.064199e-01
1.059526e-01
1.055348e-01
1.051669e-01
1.048487e-01
1.045793e-01
1.043576e-01
1.041819e-01
1.040507e-01
1.039622e-01
1.039145e-01
1.039058e-01
1.039338e-01
1.039965e-01
1.040917e-01
1.042170e-01
1.043704e-01
1.045496e-01
1.047523e-01
1.049763e-01
1.052188e-01
1.054768e-01
1.057468e-01
1.060252e-01
1.063079e-01
1.065904e-01
1.068683e-01
1.071367e-01
1.073909e-01
1.076264e-01
1.078387e-01
1.080238e-01
1.081778e-01
1.082974e-01
1.083799e-01
1.084230e-01
1.084251e-01
1.083848e-01
1.083011e-01
1.081736e-01
1.080018e-01
1.077853e-01
1.075238e-01
1.072170e-01
1.068645e-01
1.064661e-01
1.060218e-01
1.055319e-01
1.049968e-01
1.044173e-01
1.037947e-01
1.031306e-01
1.024273e-01
1.016872e-01
1.009133e-01
1.001086e-01
9.927659e-02
9.842076e-02
9.754477e-02
9.665208e-02
9.574594e-02
9.482921e-02
9.390430e-02
9.297312e-02
9.203706e-02
9.109699e-02
9.015332e-02
8.920604e-02
8.825470e-02
8.729846e-02
8.633623e-02
8.536677e-02
8.438885e-02
8.340139e-02
8.240365e-02
8.139533e-02
8.037645e-02
7.934740e-02
7.830890e-02
7.726198e-02
7.620789e-02
7.514797e-02
7.408354e-02
7.301578e-02
7.194541e-02
7.087266e-02
6.979720e-02
6.871813e-02
6.763395e-02
6.654252e-02
6.544118e-02
6.432683e-02
6.319602e-02
6.204508e-02
6.087049e-02
5.966903e-02
5.843801e-02
5.717534e-02
5.587966e-02
5.455035e-02
5.318754e-02
5.179200e-02
5.036510e-02
4.890868e-02
4.742496e-02
4.591657e-02
4.438654e-02
4.283822e-02
4.127528e-02
3.970162e-02
3.812129e-02
3.653837e-02
3.495686e-02
3.338059e-02
3.181301e-02
3.025713e-02
2.871541e-02
2.718978e-02
2.568160e-02
2.419159e-02
2.271984e-02
2.126591e-02
1.982880e-02
1.840697e-02
1.699844e-02
1.560093e-02
1.421195e-02
1.282897e-02
1.144954e-02
1.007134e-02
8.692301e-03
7.310519e-03
5.924241e-03
4.531738e-03
3.131235e-03
1.720866e-03
2.986579e-04
-1.137431e-03
-2.589414e-03
-4.059150e-03
-5.548173e-03
-7.057499e-03
-8.587493e-03
-1.013783e-02
-1.170751e-02
-1.329492e-02
-1.489788e-02
-1.651370e-02
-1.813931e-02
-1.977135e-02
-2.140627e-02
-2.304053e-02
-2.467076e-02
-2.629387e-02
-2.790708e-02
-2.950802e-02
-3.109475e-02
-3.266570e-02
-3.421959e-02
-3.575527e-02
-3.727175e-02
-3.876813e-02
-4.024357e-02
-4.169714e-02
-4.312769e-02
-4.453384e-02
-4.591381e-02
-4.726536e-02
-4.858575e-02
-4.987179e-02
-5.112006e-02
-5.232692e-02
-5.348868e-02
-5.460181e-02
-5.566308e-02
-5.666970e-02
-5.761934e-02
-5.851009e-02
-5.934050e-02
-6.010946e-02
-6.081618e-02
-6.146017e-02
-6.204126e-02
-6.255954e-02
-6.301540e-02
-6.340944e-02
-6.374254e-02
-6.401586e-02
-6.423078e-02
-6.438891e-02
-6.449209e-02
-6.454240e-02
-6.454212e-02
-6.449374e-02
-6.439997e-02
-6.426375e-02
-6.408828e-02
-6.387693e-02
-6.363320e-02
-6.336068e-02
-6.306308e-02
-6.274417e-02
-6.240789e-02
-6.205824e-02
-6.169923e-02
-6.133470e-02
-6.096836e-02
-6.060377e-02
-6.024437e-02
-5.989336e-02
-5.955374e-02
-5.922827e-02
-5.891942e-02
-5.862931e-02
-5.835962e-02
-5.811158e-02
-5.788590e-02
-5.768277e-02
-5.750194e-02
-5.734265e-02
-5.720377e-02
-5.708392e-02
-5.698161e-02
-5.689533e-02
-5.682369e-02
-5.676547e-02
-5.671962e-02
-5.668530e-02
-5.666197e-02
-5.664931e-02
-5.664714e-02
-5.665540e-02
-5.667412e-02
-5.670332e-02
-5.674289e-02
-5.679252e-02
-5.685164e-02
-5.691939e-02
-5.699465e-02
-5.707598e-02
-5.716150e-02
-5.724887e-02
-5.733543e-02
-5.741820e-02
-5.749409e-02
-5.756003e-02
-5.761312e-02
-5.765069e-02
-5.767036e-02
-5.767014e-02
-5.764855e-02
-5.760473e-02
-5.753852e-02
-5.745057e-02
-5.734231e-02
-5.721594e-02
-5.707427e-02
-5.692066e-02
-5.675891e-02
-5.659321e-02
-5.642786e-02
-5.626702e-02
-5.611455e-02
-5.597390e-02
-5.584797e-02
-5.573902e-02
-5.564870e-02
-5.557799e-02
-5.552732e-02
-5.549658e-02
-5.548517e-02
-5.549193e-02
-5.551524e-02
-5.555293e-02
-5.560243e-02
-5.566094e-02
-5.572557e-02
-5.579348e-02
-5.586201e-02
-5.592878e-02
-5.599182e-02
-5.604947e-02
-5.610039e-02
-5.614355e-02
-5.617822e-02
-5.620380e-02
-5.621973e-02
-5.622542e-02
-5.622023e-02
-5.620343e-02
-5.617411e-02
-5.613115e-02
-5.607314e-02
-5.599846e-02
-5.590531e-02
-5.579178e-02
-5.565594e-02
-5.549602e-02
-5.531048e-02
-5.509820e-02
-5.485854e-02
-5.459145e-02
-5.429749e-02
-5.397784e-02
-5.363429e-02
-5.326906e-02
-5.288458e-02
-5.248331e-02
-5.206764e-02
-5.163971e-02
-5.120141e-02
-5.075436e-02
-5.029999e-02
-4.983969e-02
-4.937504e-02
-4.890780e-02
-4.844001e-02
-4.797412e-02
-4.751292e-02
-4.705949e-02
-4.661706e-02
-4.618888e-02
-4.577812e-02
-4.538777e-02
-4.502057e-02
-4.467898e-02
-4.436524e-02
-4.408129e-02
-4.382873e-02
-4.360880e-02
-4.342247e-02
-4.327039e-02
-4.315279e-02
-4.306948e-02
-4.301988e-02
-4.300295e-02
-4.301707e-02
-4.305994e-02
-4.312864e-02
-4.321964e-02
-4.332879e-02
-4.345133e-02
-4.358199e-02
-4.371517e-02
-4.384506e-02
-4.396578e-02
-4.407144e-02
-4.415620e-02
-4.421436e-02
-4.424038e-02
-4.422898e-02
-4.417523e-02
-4.407458e-02
-4.392306e-02
-4.371724e-02
-4.345422e-02
-4.313151e-02
