EVENT_NAME: L_AQUILA
EVENT_ID: IT-2009-0009
EVENT_DATE_YYYYMMDD: 20090406
EVENT_TIME_HHMMSS: 013240
EVENT_LATITUDE_DEGREE: 42.3420
EVENT_LONGITUDE_DEGREE: 13.3800
EVENT_DEPTH_KM: 8.3
HYPOCENTER_REFERENCE: INGV-CNT_Seismic_Bulletin
MAGNITUDE_W: 6.1
MAGNITUDE_W_REFERENCE: INGV-CNT_Seismic_Bulletin
MAGNITUDE_L: 
MAGNITUDE_L_REFERENCE: 
FOCAL_MECHANISM: Normal faulting
NETWORK: IT
STATION_CODE: ASS
STATION_NAME: 
STATION_LATITUDE_DEGREE: 43.074982
STATION_LONGITUDE_DEGREE: 12.604141
STATION_ELEVATION_M: 390
LOCATION: 
SENSOR_DEPTH_M: 0.0
VS30_M/S: 
SITE_CLASSIFICATION_EC8: A (inferred from geology)
MORPHOLOGIC_CLASSIFICATION: 
EPICENTRAL_DISTANCE_KM: 103.3
EARTHQUAKE_BACKAZIMUTH_DEGREE: 322.3
DATE_TIME_FIRST_SAMPLE_YYYYMMDD_HHMMSS: 20090406_013234.000
DATE_TIME_FIRST_SAMPLE_PRECISION: seconds
SAMPLING_INTERVAL_S: 0.005000
NDATA: 20000
DURATION_S: 100.000
STREAM: HNZ
UNITS: cm/s
INSTRUMENT: sensor = FBA-3 [Kinemetrics] | digitizer = Everest [Kinemetrics]
INSTRUMENT_ANALOG/DIGITAL: D
INSTRUMENTAL_FREQUENCY_HZ: 216.000
INSTRUMENTAL_DAMPING: 0.000000
FULL_SCALE_G: 1.0
N_BIT_DIGITAL_CONVERTER: 24
PGV_CM/S: -0.304632
TIME_PGV_S: 46.365000
BASELINE_CORRECTION: BASELINE REMOVED
FILTER_TYPE: BUTTERWORTH
FILTER_ORDER: 2
LOW_CUT_FREQUENCY_HZ: 0.060
HIGH_CUT_FREQUENCY_HZ: 40.000
LATE/NORMAL_TRIGGERED: NT
DATABASE_VERSION: 0.5
HEADER_FORMAT: DYNA 1.2
DATA_TYPE: VELOCITY
PROCESSING: manual (Paolucci et al., 2011)
DATA_TIMESTAMP_YYYYMMDD_HHMMSS: 20211011_160707.356
DATA_LICENSE: CC-BY3_0-IT (http://creativecommons.org/licenses/by/3.0/deed.en)
DATA_CITATION: Luzi L, Pacor F, Puglia R (2019). Italian Accelerometric Archive v 3.0 - Istituto Nazionale di Geofisica e Vulcanologia, Dipartimento della Protezione Civile Nazionale. doi: 10.13127/itaca.3.1
DATA_CREATOR: ITACA working group
ORIGINAL_DATA_MEDIATOR_CITATION: data obtained within the DPC-INGV data exchange agreements
ORIGINAL_DATA_MEDIATOR: Archive of Italian Department of Civil Protection
ORIGINAL_DATA_CREATOR_CITATION: Presidency Of Counsil Of Ministers-Civil Protection Department. (1972). Italian Strong Motion Network. Presidency of Counsil of Ministers - Civil Protection Department. https://doi.org/10.7914/SN/IT http://www.fdsn.org/networks/detail/IT/
ORIGINAL_DATA_CREATOR: network: IT (Italian Strong Motion Network (RAN)); owner: Presidency of Counsil of Ministers - Civil Protection Department (PCM - DPC)
USER1: 
USER2: 
USER3: 
USER4: 
USER5: 
[...]
-0.012760
-0.014137
-0.016192
-0.018816
-0.021876
-0.025220
-0.028680
-0.032074
-0.035218
-0.037943
-0.040106
-0.041608
-0.042397
-0.042457
-0.041807
-0.040493
-0.038590
-0.036191
-0.033408
-0.030356
-0.027139
-0.023841
-0.020532
-0.017274
-0.014118
-0.011118
-0.008331
-0.005809
-0.003591
-0.001696
-0.000124
0.001148
0.002174
0.003033
0.003803
0.004546
0.005299
0.006069
0.006837
0.007574
0.008257
0.008879
0.009458
0.010038
0.010671
0.011393
0.012201
0.013058
0.013909
0.014684
0.015275
0.015543
0.015337
0.014530
0.013053
0.010914
0.008203
0.005074
0.001723
-0.001632
-0.004779
-0.007545
-0.009809
-0.011518
-0.012699
-0.013442
-0.013889
-0.014207
-0.014564
-0.015100
-0.015906
-0.017028
-0.018463
-0.020152
-0.021988
-0.023854
-0.025615
-0.027123
-0.028228
-0.028811
-0.028803
-0.028194
-0.027031
-0.025418
-0.023494
-0.021428
-0.019398
-0.017562
-0.016051
-0.014964
-0.014366
-0.014287
-0.014720
-0.015623
-0.016942
-0.018615
-0.020574
-0.022745
-0.025065
-0.027491
-0.030002
-0.032594
-0.035284
-0.038109
-0.041110
-0.044312
-0.047715
-0.051277
-0.054912
-0.058492
-0.061861
-0.064848
-0.067288
-0.069044
-0.070025
-0.070189
-0.069533
-0.068098
-0.065975
-0.063285
-0.060172
-0.056782
-0.053254
-0.049708
-0.046256
-0.043009
-0.040064
-0.037499
-0.035374
-0.033747
-0.032676
-0.032218
-0.032416
-0.033283
-0.034787
-0.036848
-0.039353
-0.042166
-0.045127
-0.048073
-0.050843
-0.053289
-0.055277
-0.056704
-0.057512
-0.057688
-0.057248
-0.056241
-0.054746
-0.052870
-0.050733
-0.048461
-0.046175
-0.043985
-0.041992
-0.040299
-0.039012
-0.038230
-0.038026
-0.038449
-0.039526
-0.041249
-0.043567
-0.046371
-0.049490
-0.052690
-0.055700
-0.058234
-0.060012
-0.060806
-0.060459
-0.058901
-0.056139
-0.052256
-0.047409
-0.041828
-0.035784
-0.029570
-0.023478
-0.017798
-0.012808
-0.008746
-0.005793
-0.004053
-0.003555
-0.004251
-0.006027
-0.008712
-0.012087
-0.015906
-0.019915
-0.023865
-0.027520
-0.030670
-0.033130
-0.034745
-0.035397
-0.035025
-0.033638
-0.031304
-0.028159
-0.024393
-0.020235
-0.015941
-0.011776
-0.007991
-0.004814
-0.002440
-0.001025
-0.000684
-0.001476
-0.003400
-0.006386
-0.010292
-0.014907
-0.019969
-0.025184
-0.030258
-0.034911
-0.038894
-0.042010
-0.044127
-0.045189
-0.045214
-0.044284
-0.042520
-0.040062
-0.037067
-0.033709
-0.030170
-0.026641
-0.023305
-0.020327
-0.017846
-0.015972
-0.014781
-0.014321
-0.014606
-0.015606
-0.017218
-0.019270
-0.021520
-0.023675
-0.025408
-0.026401
-0.026381
-0.025147
-0.022589
-0.018709
-0.013605
-0.007464
-0.000551
0.006816
0.014282
0.021485
0.028077
0.033749
0.038254
0.041416
0.043134
0.043385
0.042226
0.039802
0.036345
0.032157
0.027575
0.022945
0.018588
0.014784
0.011752
0.009648
0.008567
0.008544
0.009558
0.011532
0.014342
0.017815
0.021734
0.025863
0.029971
0.033834
0.037241
0.040001
0.041943
0.042918
0.042826
0.041628
0.039359
0.036118
0.032082
0.027486
0.022615
0.017778
0.013298
0.009490
0.006633
0.004949
0.004586
0.005604
0.007971
0.011586
0.016289
0.021875
0.028109
0.034743
0.041536
0.048269
0.054746
0.060800
0.066317
0.071255
0.075630
0.079498
0.082941
0.086048
0.088900
0.091567
0.094107
0.096557
0.098933
0.101223
0.103390
0.105366
0.107067
0.108408
0.109323
0.109775
0.109776
0.109382
0.108689
0.107805
0.106851
0.105952
0.105217
0.104725
0.104523
0.104612
0.104954
0.105490
0.106159
0.106922
0.107772
0.108718
0.109767
0.110917
0.112164
0.113505
0.114929
0.116410
0.117889
0.119269
0.120428
0.121254
0.121674
0.121656
0.121208
0.120391
0.119315
0.118120
0.116946
0.115922
0.115164
0.114760
0.114764
0.115193
0.116023
0.117205
0.118677
0.120377
0.122255
0.124273
0.126399
0.128605
0.130869
0.133173
0.135495
0.137801
0.140036
0.142117
0.143955
0.145477
0.146654
0.147496
0.148036
0.148312
0.148366
0.148244
0.148004
0.147716
0.147451
0.147272
0.147226
0.147335
0.147593
0.147965
0.148383
0.148758
0.148989
0.148979
0.148657
0.147982
0.146946
0.145576
0.143948
0.142185
0.140437
0.138884
0.137724
0.137155
0.137346
0.138410
0.140398
0.143280
0.146936
0.151169
0.155728
0.160338
0.164722
0.168639
0.171899
0.174371
0.175977
0.176674
0.176435
0.175259
0.173185
0.170296
0.166700
0.162511
0.157843
0.152790
0.147438
0.141879
0.136218
0.130584
0.125131
0.120013
0.115364
0.111297
0.107917
0.105306
0.103511
0.102526
0.102306
0.102783
0.103872
0.105461
0.107417
0.109591
0.111847
0.114065
0.116144
0.117992
0.119522
0.120637
0.121241
0.121242
0.120555
0.119111
0.116888
0.113902
0.110208
0.105903
0.101123
0.096027
0.090776
0.085517
0.080367
0.075404
0.070680
0.066217
0.062018
0.058071
0.054361
0.050891
0.047700
0.044860
0.042446
0.040518
0.039121
0.038263
0.037905
0.037945
0.038223
0.038546
0.038722
0.038569
0.037918
0.036620
0.034560
0.031663
0.027887
0.023234
0.017754
0.011544
0.004759
-0.002400
-0.009700
-0.016908
-0.023812
-0.030239
-0.036066
-0.041221
-0.045693
-0.049522
-0.052790
-0.055602
-0.058069
-0.060311
-0.062443
-0.064573
-0.066795
-0.069190
-0.071804
-0.074640
-0.077666
-0.080822
-0.084033
-0.087220
-0.090290
-0.093125
-0.095605
-0.097622
-0.099085
-0.099930
-0.100119
-0.099633
-0.098458
-0.096572
-0.093943
-0.090545
-0.086369
-0.081435
-0.075798
-0.069547
-0.062789
-0.055648
-0.048256
-0.040746
-0.033243
-0.025872
-0.018735
-0.011901
-0.005406
0.000761
0.006651
0.012356
0.017993
0.023683
0.029514
0.035534
0.041740
0.048087
0.054491
0.060830
0.066944
0.072636
0.077696
0.081928
0.085176
0.087346
0.088426
0.088477
0.087615
0.086002
0.083847
0.081379
0.078818
0.076347
0.074105
0.072179
0.070602
0.069342
0.068317
0.067424
0.066564
0.065673
0.064721
0.063719
0.062699
0.061696
0.060738
0.059858
0.059101
0.058514
0.058124
0.057923
0.057857
0.057837
0.057743
0.057439
0.056776
0.055608
0.053808
0.051275
0.047949
0.043822
0.038946
0.033435
0.027455
0.021219
0.014974
0.008987
0.003515
-0.001223
-0.005076
-0.007974
-0.009931
-0.011048
-0.011482
-0.011425
-0.011080
-0.010649
-0.010308
-0.010202
-0.010436
-0.011077
-0.012151
-0.013642
-0.015512
-0.017712
-0.020194
-0.022907
-0.025799
-0.028789
-0.031765
-0.034607
-0.037201
-0.039431
-0.041162
-0.042264
-0.042647
-0.042269
-0.041131
-0.039282
-0.036816
-0.033852
-0.030520
-0.026958
-0.023310
-0.019722
-0.016329
-0.013229
-0.010462
-0.008010
-0.005796
-0.003686
-0.001514
0.000869
0.003571
0.006678
0.010271
0.014425
0.019178
0.024508
0.030322
0.036479
0.042820
0.049175
0.055358
0.061166
0.066384
0.070817
0.074334
0.076897
0.078556
0.079443
0.079745
0.079665
0.079411
0.079213
0.079306
0.079891
0.081116
0.083043
0.085655
0.088871
0.092570
0.096591
0.100754
0.104883
0.108799
0.112320
0.115281
0.117550
0.119035
0.119703
0.119575
0.118701
0.117149
0.115018
0.112444
0.109574
0.106536
0.103419
0.100283
0.097176
0.094129
0.091140
0.088190
0.085286
0.082468
0.079792
0.077320
0.075122
0.073261
0.071780
0.070702
0.070019
0.069695
0.069675
0.069877
0.070195
0.070503
0.070669
0.070573
0.070110
0.069195
0.067764
0.065792
0.063292
0.060314
0.056942
0.053275
0.049408
0.045408
0.041319
0.037187
0.033060
0.028991
0.025029
0.021231
0.017669
0.014414
0.011525
0.009030
0.006919
0.005156
0.003678
0.002413
0.001318
0.000378
-0.000391
-0.000948
-0.001250
-0.001299
-0.001139
-0.000850
-0.000536
-0.000298
-0.000233
-0.000445
-0.001021
-0.002011
-0.003442
-0.005327
-0.007657
-0.010390
-0.013473
-0.016866
-0.020537
-0.024441
-0.028532
-0.032764
-0.037094
-0.041488
-0.045910
-0.050304
-0.054596
-0.058723
-0.062625
-0.066226
-0.069431
-0.072160
-0.074366
-0.076033
-0.077155
-0.077751
-0.077870
-0.077571
-0.076922
-0.076005
-0.074891
-0.073648
-0.072360
-0.071121
-0.070007
-0.069052
-0.068254
-0.067594
-0.067080
-0.066759
-0.066698
-0.066966
-0.067609
-0.068639
-0.070041
-0.071760
-0.073706
-0.075774
-0.077869
-0.079908
-0.081840
-0.083646
-0.085333
-0.086914
-0.088388
-0.089720
-0.090838
-0.091660
-0.092127
-0.092215
-0.091919
-0.091250
-0.090240
-0.088924
-0.087341
-0.085523
-0.083500
-0.081307
-0.078996
-0.076647
-0.074346
-0.072181
-0.070228
-0.068538
-0.067143
-0.066049
-0.065254
-0.064747
-0.064503
-0.064482
-0.064644
-0.064953
-0.065384
-0.065938
-0.066645
-0.067558
-0.068735
-0.070226
-0.072066
-0.074265
-0.076793
-0.079565
-0.082449
-0.085297
-0.087951
-0.090258
-0.092084
-0.093330
-0.093952
-0.093964
-0.093435
-0.092479
-0.091239
-0.089880
-0.088560
-0.087409
-0.086509
-0.085891
-0.085535
-0.085363
-0.085257
-0.085079
-0.084680
-0.083909
-0.082619
-0.080690
-0.078047
-0.074663
-0.070554
-0.065772
-0.060406
-0.054595
-0.048526
-0.042409
-0.036453
-0.030840
-0.025726
-0.021220
-0.017371
-0.014166
-0.011546
-0.009404
-0.007593
-0.005943
-0.004277
-0.002430
-0.000273
0.002276
0.005246
0.008631
0.012400
0.016501
0.020876
0.025466
0.030207
0.035032
0.039876
0.044679
0.049385
0.053936
0.058278
0.062354
0.066109
0.069504
0.072506
0.075099
0.077289
0.079097
0.080560
0.081726
0.082645
0.083363
0.083905
0.084281
0.084491
0.084531
0.084380
0.084003
0.083355
0.082391
0.081073
0.079375
0.077299
0.074876
0.072159
0.069225
0.066177
0.063144
0.060262
0.057648
0.055384
0.053521
0.052064
0.050976
0.050180
0.049569
0.049014
0.048383
0.047551
0.046401
0.044827
0.042745
0.040117
0.036951
0.033302
0.029254
0.024910
0.020374
0.015743
0.011112
0.006572
0.002207
-0.001924
-0.005790
-0.009382
-0.012718
-0.015831
-0.018772
-0.021612
-0.024452
-0.027418
-0.030646
-0.034264
-0.038405
-0.043196
-0.048743
-0.055105
-0.062285
-0.070217
-0.078774
-0.087790
-0.097074
-0.106419
-0.115603
-0.124396
-0.132579
-0.139958
-0.146369
-0.151690
-0.155856
-0.158859
-0.160750
-0.161638
-0.161672
-0.161030
-0.159920
-0.158559
-0.157158
-0.155906
-0.154969
-0.154471
-0.154483
-0.155024
-0.156073
-0.157565
-0.159398
-0.161458
-0.163623
-0.165767
-0.167770
-0.169524
-0.170925
-0.171886
-0.172355
-0.172308
-0.171742
-0.170668
-0.169099
-0.167059
-0.164589
-0.161758
-0.158667
-0.155438
-0.152204
-0.149094
-0.146222
-0.143688
-0.141562
-0.139894
-0.138718
-0.138057
-0.137914
-0.138253
-0.139014
-0.140129
-0.141551
-0.143246
-0.145174
-0.147274
-0.149483
-0.151756
-0.154076
-0.156455
-0.158920
-0.161468
-0.164045
-0.166565
-0.168936
-0.171079
-0.172944
-0.174499
-0.175700
-0.176518
-0.176960
-0.177043
-0.176779
-0.176170
-0.175215
-0.173897
-0.172195
-0.170097
-0.167625
-0.164830
-0.161776
-0.158510
-0.155081
-0.151546
-0.147964
-0.144393
-0.140922
-0.137684
-0.134835
-0.132507
-0.130788
-0.129709
-0.129252
-0.129358
-0.129898
-0.130655
-0.131377
-0.131843
-0.131888
-0.131397
-0.130298
-0.128547
-0.126122
-0.123025
-0.119298
-0.115034
-0.110380
-0.105497
-0.100503
-0.095439
-0.090302
-0.085061
-0.079647
-0.073958
-0.067911
-0.061494
-0.054752
-0.047758
-0.040605
-0.033378
-0.026139
-0.018937
-0.011848
-0.004989
0.001504
0.007486
0.012808
0.017303
0.020801
0.023166
0.024322
0.024277
0.023120
0.020998
0.018119
0.014744
0.011134
0.007496
0.003968
0.000617
-0.002538
-0.005514
-0.008348
-0.011054
-0.013632
-0.016099
-0.018512
-0.020946
-0.023479
-0.026175
-0.029078
-0.032223
-0.035622
-0.039265
-0.043133
-0.047184
-0.051337
-0.055473
-0.059423
-0.062970
-0.065876
-0.067938
-0.069002
-0.068963
-0.067777
-0.065461
-0.062100
-0.057850
-0.052932
-0.047608
-0.042138
-0.036755
-0.031667
-0.027090
-0.023235
-0.020264
-0.018266
-0.017257
-0.017185
-0.017930
-0.019303
-0.021096
-0.023117
-0.025210
-0.027245
-0.029127
-0.030801
-0.032245
-0.033455
-0.034446
-0.035240
-0.035856
-0.036297
-0.036548
-0.036562
-0.036264
-0.035555
-0.034319
-0.032436
-0.029815
-0.026428
-0.022324
-0.017611
-0.012440
-0.006997
-0.001509
0.003778
0.008637
0.012873
0.016310
0.018800
0.020240
0.020602
0.019929
0.018340
0.016034
0.013268
0.010317
0.007435
0.004844
0.002723
0.001190
0.000301
0.000056
0.000403
0.001242
0.002445
0.003851
0.005276
0.006524
0.007418
0.007820
0.007636
0.006801
0.005276
0.003066
0.000218
-0.003191
-0.007075
-0.011356
-0.015966
-0.020814
-0.025781
-0.030738
-0.035563
-0.040133
-0.044313
-0.047972
-0.051002
-0.053340
-0.054974
-0.055952
-0.056369
-0.056360
-0.056076
-0.055675
-0.055312
-0.055145
-0.055321
-0.055959
-0.057143
-0.058916
-0.061284
-0.064222
-0.067684
-0.071616
-0.075962
-0.080671
-0.085686
-0.090946
-0.096398
-0.101998
-0.107708
-0.113521
-0.119453
-0.125515
-0.131706
-0.138024
-0.144478
-0.151086
-0.157865
-0.164831
-0.172007
-0.179408
-0.187018
-0.194792
-0.202676
-0.210633
-0.218637
-0.226653
-0.234622
-0.242466
-0.250099
-0.257437
-0.264392
-0.270875
-0.276803
-0.282122
-0.286801
-0.290829
-0.294226
-0.297043
-0.299341
-0.301180
-0.302609
-0.303660
-0.304336
-0.304632
-0.304540
-0.304059
-0.303195
-0.301962
-0.300373
-0.298419
-0.296075
-0.293304
-0.290077
-0.286382
-0.282238
-0.277684
-0.272761
-0.267507
-0.261973
-0.256212
-0.250268
-0.244180
-0.237984
-0.231711
-0.225378
-0.218986
-0.212521
-0.205963
-0.199302
-0.192536
-0.185662
-0.178680
-0.171594
-0.164419
-0.157177
-0.149914
-0.142703
-0.135621
-0.128721
-0.122019
-0.115517
-0.109209
-0.103089
-0.097152
-0.091394
-0.085790
-0.080286
-0.074805
-0.069255
-0.063547
-0.057600
-0.051337
-0.044693
-0.037627
-0.030129
-0.022208
-0.013867
-0.005097
0.004109
0.013724
0.023662
0.033786
0.043932
0.053913
0.063522
0.072549
0.080793
0.088101
0.094390
0.099649
0.103934
0.107345
0.110014
0.112093
0.113741
0.115118
0.116391
0.117725
0.119269
0.121137
0.123406
0.126129
0.129355
0.133131
0.137467
0.142325
0.147617
0.153215
0.158974
0.164747
0.170405
0.175845
0.180971
0.185688
0.189930
0.193687
0.197001
0.199939
0.202562
0.204914
0.207037
0.208957
0.210672
0.212153
0.213357
0.214240
0.214772
0.214924
0.214674
0.214016
0.212964
0.211559
0.209858
0.207932
0.205851
0.203684
0.201482
0.199286
0.197132
0.195058
0.193083
0.191206
0.189393
0.187605
0.185838
0.184124
0.182509
0.181050
0.179834
0.178973
0.178573
0.178722
0.179496
0.180973
0.183230
0.186337
0.190311
0.195098
0.200570
0.206545
0.212790
0.219037
0.224989
0.230350
0.234848
0.238284
0.240569
0.241719
0.241831
0.241066
0.239631
0.237757
0.235690
0.233675
0.231920
0.230594
0.229807
0.229599
0.229959
0.230842
0.232169
0.233855
0.235821
0.237979
0.240232
0.242472
0.244583
0.246465
0.248070
0.249414
0.250545
0.251509
0.252345
0.253095
0.253803
0.254509
0.255230
0.255943
0.256600
0.257165
0.257615
0.257923
0.258036
0.257872
0.257353
0.256426
0.255081
0.253346
0.251270
0.248921
0.246351
0.243589
0.240678
0.237692
0.234690
0.231700
0.228735
0.225792
0.222834
0.219814
0.216707
0.213535
0.210354
0.207241
0.204273
0.201515
0.199025
0.196860
0.195043
0.193554
0.192341
0.191346
0.190517
0.189812
0.189193
0.188621
0.188057
0.187469
0.186830
0.186130
0.185360
0.184500
0.183530
0.182454
0.181292
0.180048
0.178697
0.177191
0.175464
0.173460
0.171153
0.168551
0.165688
0.162605
0.159347
0.155956
0.152465
0.148901
0.145299
0.141707
0.138194
0.134838
0.131708
0.128857
0.126321
0.124126
0.122303
0.120882
0.119885
0.119304
0.119108
0.119248
0.119641
0.120189
0.120798
0.121397
0.121928
0.122350
0.122630
0.122728
0.122609
0.122250
0.121647
0.120820
0.119829
0.118752
0.117668
0.116652
0.115780
0.115116
0.114721
0.114662
0.114993
0.115745
0.116925
0.118530
0.120552
0.122969
0.125759
0.128886
0.132286
0.135880
0.139587
0.143315
0.146958
0.150420
0.153615
0.156478
0.158975
0.161108
0.162888
0.164319
0.165396
0.166102
0.166411
0.166304
0.165760
0.164747
0.163218
0.161142
0.158534
0.155465
0.152029
0.148316
0.144406
0.140383
0.136313
0.132238
0.128204
0.124275
0.120525
0.117042
0.113920
0.111241
0.109067
0.107447
0.106398
0.105901
0.105902
0.106310
0.107003
0.107821
0.108601
0.109216
0.109587
0.109675
0.109482
0.109055
0.108476
0.107842
0.107237
0.106723
0.106336
0.106093
0.105981
0.105962
0.105995
0.106052
0.106131
0.106242
0.106396
0.106617
0.106929
0.107338
0.107812
0.108297
0.108733
0.109067
0.109252
0.109234
0.108942
0.108292
0.107220
0.105692
0.103696
0.101237
0.098352
0.095113
0.091622
0.088002
0.084392
0.080912
0.077656
0.074681
0.072029
0.069743
0.067856
0.066369
0.065253
0.064461
0.063956
0.063732
0.063814
0.064252
0.065107
0.066424
0.068212
0.070456
0.073120
0.076139
0.079411
0.082791
0.086106
0.089177
0.091829
0.093897
0.095243
0.095771
0.095430
0.094224
0.092216
0.089527
0.086327
0.082815
0.079195
0.075646
0.072291
0.069202
0.066406
0.063910
0.061697
0.059715
0.057874
0.056054
0.054132
0.052010
0.049612
0.046881
0.043780
0.040289
0.036410
0.032166
0.027607
0.022806
0.017864
0.012902
0.008049
0.003425
-0.000861
-0.004714
-0.008056
-0.010844
-0.013069
-0.014759
-0.015979
-0.016815
-0.017357
-0.017692
-0.017898
-0.018045
-0.018198
-0.018413
-0.018730
-0.019172
-0.019747
-0.020451
-0.021258
-0.022121
-0.022981
-0.023767
-0.024396
-0.024781
-0.024829
-0.024433
-0.023486
-0.021890
-0.019562
-0.016438
-0.012490
-0.007726
-0.002185
0.004057
0.010885
0.018155
0.025697
0.033334
0.040884
0.048166
0.055019
0.061314
0.066961
0.071905
0.076119
0.079608
0.082413
0.084613
0.086334
0.087717
0.088907
0.090039
0.091223
0.092537
0.094027
0.095730
0.097675
0.099877
0.102344
0.105089
0.108140
0.111529
0.115280
0.119410
0.123937
0.128890
0.134292
0.140164
0.146504
0.153283
0.160430
0.167845
0.175403
0.182955
0.190341
0.197400
0.203985
0.209964
0.215222
0.219672
0.223259
0.225957
0.227761
0.228687
0.228772
0.228070
0.226638
0.224538
0.221832
0.218573
0.214805
0.210572
0.205911
0.200846
0.195386
0.189534
0.183289
0.176648
0.169597
0.162126
0.154240
0.145983
0.137440
0.128725
0.119973
0.111331
0.102950
0.094968
0.087508
0.080665
0.074501
0.069028
0.064199
0.059909
0.056008
0.052310
0.048610
0.044698
0.040388
0.035524
0.029986
0.023694
0.016611
0.008729
0.000073
-0.009293
-0.019262
-0.029681
-0.040351
-0.051028
-0.061449
-0.071352
-0.080490
-0.088655
-0.095697
-0.101538
-0.106179
-0.109695
-0.112225
-0.113951
-0.115097
-0.115912
-0.116661
-0.117589
-0.118909
-0.120780
-0.123313
-0.126550
-0.130471
-0.134995
-0.139985
-0.145264
-0.150638
-0.155919
-0.160940
-0.165562
-0.169682
-0.173237
