EVENT_NAME: L_AQUILA
EVENT_ID: IT-2009-0009
EVENT_DATE_YYYYMMDD: 20090406
EVENT_TIME_HHMMSS: 013240
EVENT_LATITUDE_DEGREE: 42.3420
EVENT_LONGITUDE_DEGREE: 13.3800
EVENT_DEPTH_KM: 8.3
HYPOCENTER_REFERENCE: INGV-CNT_Seismic_Bulletin
MAGNITUDE_W: 6.1
MAGNITUDE_W_REFERENCE: INGV-CNT_Seismic_Bulletin
MAGNITUDE_L: 
MAGNITUDE_L_REFERENCE: 
FOCAL_MECHANISM: Normal faulting
NETWORK: IT
STATION_CODE: ASS
STATION_NAME: 
STATION_LATITUDE_DEGREE: 43.074982
STATION_LONGITUDE_DEGREE: 12.604141
STATION_ELEVATION_M: 390
LOCATION: 
SENSOR_DEPTH_M: 0.0
VS30_M/S: 
SITE_CLASSIFICATION_EC8: A (inferred from geology)
MORPHOLOGIC_CLASSIFICATION: 
EPICENTRAL_DISTANCE_KM: 103.3
EARTHQUAKE_BACKAZIMUTH_DEGREE: 322.3
DATE_TIME_FIRST_SAMPLE_YYYYMMDD_HHMMSS: 20090406_013234.000
DATE_TIME_FIRST_SAMPLE_PRECISION: seconds
SAMPLING_INTERVAL_S: 0.005000
NDATA: 20000
DURATION_S: 100.000
STREAM: HNZ
UNITS: cm/s^2
INSTRUMENT: sensor = FBA-3 [Kinemetrics] | digitizer = Everest [Kinemetrics]
INSTRUMENT_ANALOG/DIGITAL: D
INSTRUMENTAL_FREQUENCY_HZ: 216.000
INSTRUMENTAL_DAMPING: 0.000000
FULL_SCALE_G: 1.0
N_BIT_DIGITAL_CONVERTER: 24
PGA_CM/S^2: -2.135383
TIME_PGA_S: 49.085000
BASELINE_CORRECTION: BASELINE REMOVED
FILTER_TYPE: BUTTERWORTH
FILTER_ORDER: 2
LOW_CUT_FREQUENCY_HZ: 0.060
HIGH_CUT_FREQUENCY_HZ: 40.000
LATE/NORMAL_TRIGGERED: NT
DATABASE_VERSION: 0.5
HEADER_FORMAT: DYNA 1.2
DATA_TYPE: ACCELERATION
PROCESSING: manual (Paolucci et al., 2011)
DATA_TIMESTAMP_YYYYMMDD_HHMMSS: 20211011_160707.069
DATA_LICENSE: CC-BY3_0-IT (http://creativecommons.org/licenses/by/3.0/deed.en)
DATA_CITATION: Luzi L, Pacor F, Puglia R (2019). Italian Accelerometric Archive v 3.0 - Istituto Nazionale di Geofisica e Vulcanologia, Dipartimento della Protezione Civile Nazionale. doi: 10.13127/itaca.3.1
DATA_CREATOR: ITACA working group
ORIGINAL_DATA_MEDIATOR_CITATION: data obtained within the DPC-INGV data exchange agreements
ORIGINAL_DATA_MEDIATOR: Archive of Italian Department of Civil Protection
ORIGINAL_DATA_CREATOR_CITATION: Presidency Of Counsil Of Ministers-Civil Protection Department. (1972). Italian Strong Motion Network. Presidency of Counsil of Ministers - Civil Protection Department. https://doi.org/10.7914/SN/IT http://www.fdsn.org/networks/detail/IT/
ORIGINAL_DATA_CREATOR: network: IT (Italian Strong Motion Network (RAN)); owner: Presidency of Counsil of Ministers - Civil Protection Department (PCM - DPC)
USER1: 
USER2: 
USER3: 
USER4: 
USER5: 
[...]
1.500496
1.474161
1.427491
1.366681
1.299019
1.233394
1.178185
1.140903
1.127441
1.137892
1.166292
1.203964
1.241293
1.269374
1.280667
1.267825
1.222858
1.138440
1.011856
0.846445
0.649687
0.433997
0.215957
0.010252
-0.172521
-0.322566
-0.430976
-0.493540
-0.512313
-0.494185
-0.448426
-0.385053
-0.315443
-0.252036
-0.204932
-0.178719
-0.171871
-0.178327
-0.190237
-0.200401
-0.204102
-0.200616
-0.191500
-0.176050
-0.151473
-0.117409
-0.077870
-0.040265
-0.013177
-0.004088
-0.018708
-0.060924
-0.132610
-0.233404
-0.360094
-0.506680
-0.665153
-0.825396
-0.975189
-1.102207
-1.195891
-1.247252
-1.249033
-1.197447
-1.094270
-0.947676
-0.770701
-0.579438
-0.391542
-0.223336
-0.086804
0.011420
0.068914
0.086368
0.068078
0.021199
-0.046775
-0.128265
-0.214676
-0.298175
-0.373998
-0.440151
-0.496246
-0.542762
-0.578417
-0.597883
-0.595162
-0.568418
-0.518933
-0.445936
-0.346161
-0.220429
-0.076603
0.075606
0.227616
0.369846
0.493228
0.592748
0.666319
0.712435
0.729702
0.717580
0.678548
0.620085
0.553401
0.490331
0.442768
0.422098
0.434375
0.476493
0.540456
0.621388
0.718690
0.830696
0.950587
1.065994
1.162816
1.231488
1.268207
1.270894
1.236638
1.161626
1.043571
0.886552
0.703510
0.512580
0.331796
0.177380
0.060464
-0.016019
-0.050863
-0.039645
0.018536
0.117161
0.244844
0.385553
0.522323
0.643268
0.739839
0.804166
0.832578
0.825757
0.783201
0.704153
0.592240
0.453820
0.297079
0.133612
-0.025660
-0.174893
-0.310400
-0.426063
-0.514803
-0.574029
-0.607715
-0.623360
-0.627073
-0.621415
-0.609481
-0.597829
-0.589926
-0.580837
-0.563529
-0.535208
-0.494500
-0.439663
-0.372153
-0.296089
-0.215692
-0.136603
-0.064706
-0.004090
0.040518
0.063553
0.061477
0.033367
-0.019209
-0.092631
-0.183095
-0.286096
-0.394472
-0.500011
-0.595479
-0.674568
-0.733421
-0.773387
-0.800020
-0.817668
-0.826530
-0.825267
-0.813840
-0.792464
-0.759437
-0.712509
-0.651078
-0.577649
-0.498997
-0.422226
-0.352562
-0.295637
-0.252964
-0.219154
-0.187948
-0.153834
-0.111253
-0.060536
-0.009785
0.031995
0.057759
0.062866
0.047627
0.012979
-0.042369
-0.115259
-0.198033
-0.286065
-0.377110
-0.466027
-0.546482
-0.616559
-0.678719
-0.734072
-0.780838
-0.818171
-0.846436
-0.866090
-0.878766
-0.884449
-0.878741
-0.858473
-0.825413
-0.780413
-0.720052
-0.641104
-0.545730
-0.441235
-0.333344
-0.224399
-0.119261
-0.023800
0.059850
0.129697
0.183498
0.222791
0.248631
0.257634
0.247692
0.222820
0.190947
0.159711
0.131933
0.102751
0.064340
0.012163
-0.053723
-0.128560
-0.205991
-0.280351
-0.343861
-0.389102
-0.413732
-0.418840
-0.407804
-0.386488
-0.361280
-0.337313
-0.316211
-0.294798
-0.266394
-0.223672
-0.164323
-0.093447
-0.017638
0.059284
0.133760
0.202102
0.263054
0.316752
0.363555
0.404509
0.438766
0.462013
0.469891
0.460228
0.432953
0.390713
0.337828
0.279065
0.218800
0.159051
0.101322
0.048870
0.004166
-0.032403
-0.061701
-0.086230
-0.110815
-0.141496
-0.182615
-0.235364
-0.298186
-0.367892
-0.439855
-0.505703
-0.554244
-0.576915
-0.569556
-0.530766
-0.461447
-0.365136
-0.249190
-0.124411
-0.002439
0.105731
0.191235
0.247950
0.271947
0.263863
0.230192
0.180113
0.123482
0.071301
0.034419
0.021070
0.035684
0.079772
0.154176
0.258031
0.385845
0.528647
0.676789
0.821700
0.956388
1.073191
1.162203
1.213917
1.223278
1.191259
1.122517
1.022874
0.901170
0.769900
0.640949
0.523996
0.428374
0.362183
0.330082
0.333213
0.369239
0.431460
0.509747
0.594041
0.677125
0.753793
0.820148
0.874954
0.918025
0.948203
0.964900
0.968812
0.960751
0.941108
0.910282
0.868408
0.815055
0.751095
0.678898
0.600481
0.518676
0.437870
0.361689
0.292659
0.233070
0.183888
0.143575
0.108436
0.075063
0.042080
0.008002
-0.030187
-0.075449
-0.129591
-0.192786
-0.263667
-0.339526
-0.415258
-0.484635
-0.543210
-0.586868
-0.609694
-0.606517
-0.576348
-0.522928
-0.452643
-0.372725
-0.291410
-0.217563
-0.159139
-0.122267
-0.110954
-0.126237
-0.166447
-0.229873
-0.314864
-0.416410
-0.525688
-0.633033
-0.729850
-0.809627
-0.868891
-0.907202
-0.926041
-0.926323
-0.907930
-0.872949
-0.826280
-0.773142
-0.718528
-0.667110
-0.622584
-0.588205
-0.568035
-0.567921
-0.593289
-0.645515
-0.723694
-0.828131
-0.958287
-1.109317
-1.272464
-1.436054
-1.586368
-1.711389
-1.803175
-1.856767
-1.868951
-1.836805
-1.758641
-1.636671
-1.475806
-1.282092
-1.064225
-0.833226
-0.600533
-0.378201
-0.177610
-0.006785
0.128265
0.222047
0.272144
0.280354
0.250385
0.187335
0.099533
-0.002255
-0.108179
-0.209832
-0.298399
-0.366661
-0.411928
-0.433070
-0.428828
-0.400655
-0.350761
-0.280107
-0.192293
-0.093772
0.009485
0.113077
0.214848
0.313844
0.408038
0.493892
0.566138
0.618375
0.645762
0.646679
0.622070
0.574313
0.506948
0.425040
0.333625
0.235351
0.132101
0.028618
-0.067897
-0.152060
-0.223125
-0.284338
-0.338986
-0.385616
-0.420019
-0.441729
-0.454640
-0.464020
-0.475820
-0.492944
-0.509629
-0.515406
-0.503974
-0.474206
-0.428554
-0.373058
-0.310968
-0.240252
-0.163575
-0.088330
-0.016703
0.052935
0.121647
0.191066
0.263533
0.340453
0.419593
0.494506
0.558842
0.610952
0.653097
0.685846
0.706970
0.716366
0.714179
0.694296
0.647471
0.569875
0.465624
0.343847
0.215743
0.091321
-0.021088
-0.107959
-0.151546
-0.144361
-0.093207
-0.009014
0.098289
0.219855
0.350044
0.485112
0.619461
0.745378
0.852751
0.930843
0.976508
0.998920
1.012636
1.027415
1.048319
1.082754
1.137749
1.209354
1.283474
1.348405
1.398719
1.430759
1.445237
1.447868
1.440483
1.417663
1.371895
1.298503
1.196490
1.064428
0.898893
0.699655
0.472993
0.231153
-0.008979
-0.231395
-0.424365
-0.575773
-0.674996
-0.722073
-0.727501
-0.705739
-0.670203
-0.630844
-0.595310
-0.566727
-0.541239
-0.515507
-0.493541
-0.482499
-0.486767
-0.506652
-0.539143
-0.580784
-0.629000
-0.679709
-0.728616
-0.773521
-0.810216
-0.830727
-0.827029
-0.790094
-0.709401
-0.581236
-0.412357
-0.212767
0.007700
0.237312
0.463185
0.672086
0.850001
0.983704
1.064860
1.093829
1.076789
1.017579
0.915304
0.771110
0.594192
0.399503
0.201865
0.014351
-0.148928
-0.274741
-0.358465
-0.404339
-0.418542
-0.406960
-0.376474
-0.334826
-0.288635
-0.242061
-0.198187
-0.158825
-0.123127
-0.088359
-0.050158
-0.002774
0.059586
0.141819
0.247275
0.376540
0.524178
0.677389
0.820881
0.942552
1.034239
1.088567
1.097565
1.057386
0.971807
0.847160
0.687532
0.497861
0.288136
0.072379
-0.134662
-0.317796
-0.461213
-0.553084
-0.590248
-0.576453
-0.518138
-0.424216
-0.306680
-0.177854
-0.048891
0.069366
0.167907
0.240511
0.281280
0.284897
0.249681
0.178828
0.080352
-0.036757
-0.167003
-0.304989
-0.442043
-0.569636
-0.681877
-0.776696
-0.856309
-0.921936
-0.969503
-0.993413
-0.991522
-0.964955
-0.913906
-0.836150
-0.731782
-0.606047
-0.467505
-0.326895
-0.195553
-0.083398
0.001936
0.056647
0.080300
0.072598
0.033297
-0.035213
-0.127577
-0.236670
-0.354599
-0.473695
-0.587629
-0.692406
-0.786313
-0.869309
-0.941817
-1.002976
-1.051972
-1.090387
-1.119900
-1.142121
-1.162590
-1.186404
-1.212413
-1.238063
-1.263595
-1.290871
-1.321628
-1.355790
-1.393208
-1.435144
-1.480179
-1.522066
-1.554705
-1.576902
-1.591457
-1.600782
-1.603157
-1.593766
-1.568768
-1.526744
-1.467591
-1.391029
-1.296472
-1.185706
-1.063797
-0.935693
-0.805584
-0.679490
-0.563408
-0.459621
-0.367669
-0.285872
-0.210128
-0.135348
-0.059111
0.018388
0.096225
0.172843
0.246543
0.317883
0.390662
0.468929
0.554166
0.645404
0.738979
0.828824
0.910703
0.984683
1.050762
1.106802
1.152244
1.188746
1.217633
1.239203
1.254603
1.266658
1.278399
1.292911
1.311545
1.332286
1.353264
1.374680
1.396489
1.417113
1.434993
1.448369
1.452615
1.442281
1.416358
1.380076
1.340376
1.300435
1.261471
1.224106
1.187257
1.151620
1.120961
1.100639
1.096223
1.110064
1.141484
1.189408
1.252646
1.328876
1.413185
1.499497
1.584258
1.668169
1.753979
1.841258
1.923006
1.987549
2.024851
2.029226
1.996112
1.921895
1.805358
1.648868
1.461591
1.257710
1.051847
0.856924
0.682229
0.533893
0.415833
0.329467
0.275406
0.254581
0.266869
0.308862
0.373623
0.453689
0.544538
0.645385
0.755041
0.867208
0.971726
1.058403
1.119623
1.151708
1.154590
1.131668
1.087912
1.025177
0.943478
0.848348
0.751369
0.662945
0.587609
0.524422
0.470576
0.424576
0.383966
0.343045
0.296174
0.240658
0.176737
0.106277
0.030414
-0.049927
-0.131696
-0.210299
-0.281042
-0.340113
-0.385359
-0.416043
-0.433373
-0.440404
-0.439367
-0.430630
-0.414929
-0.394925
-0.375517
-0.362600
-0.357422
-0.353448
-0.342919
-0.322997
-0.291717
-0.243175
-0.172266
-0.079999
0.029757
0.154872
0.295300
0.451551
0.621279
0.794903
0.957308
1.094426
1.194930
1.249117
1.249342
1.190529
1.072022
0.899619
0.687348
0.456890
0.230004
0.022520
-0.153037
-0.287032
-0.374829
-0.413421
-0.403068
-0.350826
-0.265294
-0.157371
-0.041632
0.071949
0.176661
0.265460
0.337116
0.393218
0.431710
0.450469
0.448000
0.422267
0.376308
0.320987
0.268888
0.226256
0.192704
0.167222
0.150076
0.141558
0.141147
0.144288
0.142599
0.131428
0.112884
0.089993
0.061660
0.022513
-0.032669
-0.103876
-0.185458
-0.268936
-0.347063
-0.415083
-0.469949
-0.514000
-0.552316
-0.582131
-0.597265
-0.600324
-0.598025
-0.593034
-0.588665
-0.591489
-0.604146
-0.621351
-0.634369
-0.636124
-0.622576
-0.593602
-0.551737
-0.497888
-0.433054
-0.363409
-0.297879
-0.242520
-0.198966
-0.165841
-0.141031
-0.123751
-0.114459
-0.112771
-0.117636
-0.127698
-0.140122
-0.153946
-0.171887
-0.194012
-0.215222
-0.232384
-0.248827
-0.270169
-0.301306
-0.345464
-0.400782
-0.461313
-0.520375
-0.572645
-0.616547
-0.651744
-0.678165
-0.698145
-0.712788
-0.720493
-0.718410
-0.702542
-0.671184
-0.625997
-0.570115
-0.507236
-0.438998
-0.364716
-0.284076
-0.199488
-0.116221
-0.039067
0.027838
0.078707
0.109523
0.121917
0.119790
0.106172
0.084427
0.055945
0.019594
-0.023805
-0.071685
-0.120766
-0.165271
-0.198199
-0.215434
-0.216887
-0.203048
-0.174454
-0.132892
-0.078876
-0.011884
0.066165
0.150400
0.236045
0.321085
0.404227
0.483477
0.557971
0.625355
0.680047
0.718817
0.741465
0.745586
0.728656
0.692224
0.639089
0.572567
0.499445
0.426605
0.355988
0.286242
0.215422
0.141088
0.061853
-0.021471
-0.108690
-0.202590
-0.305812
-0.415290
-0.521500
-0.613837
-0.687149
-0.742744
-0.782011
-0.804552
-0.813963
-0.815021
-0.806707
-0.785784
-0.750129
-0.696650
-0.624203
-0.535868
-0.434810
-0.324071
-0.209754
-0.099351
0.000112
0.081700
0.138451
0.163713
0.156067
0.122922
0.074242
0.017624
-0.038724
-0.085430
-0.115637
-0.126837
-0.120971
-0.102927
-0.077345
-0.048598
-0.022457
-0.003680
0.006625
0.011344
0.015692
0.022210
0.030939
0.044030
0.062485
0.081742
0.094869
0.097056
0.087219
0.066800
0.036943
-0.003625
-0.058489
-0.129840
-0.214382
-0.305611
-0.399204
-0.491826
-0.577091
-0.647742
-0.698305
-0.723878
-0.722105
-0.695845
-0.651294
-0.595002
-0.530400
-0.457253
-0.377424
-0.297287
-0.223287
-0.158434
-0.100921
-0.044776
0.016438
0.087625
0.170995
0.263316
0.357715
0.448757
0.532680
0.603950
0.654384
0.675853
0.663045
0.614247
0.530296
0.413619
0.269289
0.105500
-0.068122
-0.241136
-0.401648
-0.537800
-0.640078
-0.702417
-0.723876
-0.709914
-0.670862
-0.617937
-0.559160
-0.499140
-0.442592
-0.396347
-0.368221
-0.364088
-0.384366
-0.424465
-0.479575
-0.546166
-0.620278
-0.698035
-0.775807
-0.848838
-0.911909
-0.960169
-0.988400
-0.992304
-0.970682
-0.924855
-0.857182
-0.770446
-0.668552
-0.557603
-0.444926
-0.338035
-0.244018
-0.167215
-0.108433
-0.066880
-0.041183
-0.029527
-0.030583
-0.042932
-0.063416
-0.088351
-0.115107
-0.140804
-0.161308
-0.172656
-0.172051
-0.157071
-0.125754
-0.077067
-0.009538
0.079088
0.189354
0.319201
0.465766
0.624802
0.789488
0.952750
1.108174
1.248398
1.365743
1.453873
1.508487
1.527432
1.509911
1.456444
1.370543
1.259004
1.129489
0.988713
0.842827
0.697916
0.560812
0.440173
0.344125
0.276607
0.237948
0.226360
0.236942
0.262668
0.298079
0.340653
0.388885
0.440460
0.493416
0.548924
0.610168
0.677938
0.750251
0.825836
0.905531
0.990493
1.080534
1.174217
1.268127
1.355718
1.429439
1.483073
1.511470
1.510398
1.477210
1.411876
1.316966
1.195735
1.051673
0.889971
0.717342
0.539602
0.360845
0.185212
0.017121
-0.140498
-0.286441
-0.419994
-0.541166
-0.651744
-0.753550
-0.846706
-0.932154
-1.013015
-1.092015
-1.170424
-1.248912
-1.328334
-1.410102
-1.494313
-1.577195
-1.651290
-1.708546
-1.743020
-1.750546
-1.728316
-1.676184
-1.596345
-1.492134
-1.368517
-1.232783
-1.094674
-0.965833
-0.857865
-0.780210
-0.739585
-0.740136
-0.782273
-0.861978
-0.972831
-1.107689
-1.258313
-1.416648
-1.576436
-1.731266
-1.873157
-1.993692
-2.083910
-2.133937
-2.135383
-2.084207
-1.980547
-1.827668
-1.633004
-1.408409
-1.168255
-0.928083
-0.703194
-0.505973
-0.345374
-0.229052
-0.163133
-0.149683
-0.185701
-0.263843
-0.374380
-0.506433
-0.647432
-0.784263
-0.904846
-0.998033
-1.055671
-1.074761
-1.056282
-1.004129
-0.924375
-0.824140
-0.711000
-0.592014
-0.473315
-0.360493
-0.257746
-0.166658
-0.087907
-0.023727
0.023851
0.055792
0.075944
0.090430
0.106418
0.129328
0.161782
0.204884
0.259344
0.325389
0.401237
0.482662
0.564853
0.643676
0.715681
0.777472
0.825487
0.856963
0.869886
0.862797
0.836580
0.795438
0.745508
0.692921
0.642894
0.600050
0.568391
0.550922
0.549151
0.561740
0.584822
0.614223
0.645869
0.675728
0.700762
0.718469
0.727138
0.728081
0.725047
0.720205
0.712150
0.699149
0.682516
0.664400
0.644900
0.623682
0.602944
0.587923
0.584370
0.595589
0.621192
0.657072
0.696094
0.729554
0.749314
0.749515
0.727367
0.682953
0.617521
0.532670
0.431980
0.322031
0.210012
0.101213
0.000252
-0.087452
-0.156340
-0.202281
-0.224594
-0.226208
-0.211356
-0.183278
-0.143827
-0.094692
-0.038024
0.024075
0.089174
0.153063
0.210528
0.257852
0.293533
0.317931
0.332722
0.339966
0.341517
0.339051
0.334379
0.328803
0.323226
0.318298
0.312412
0.303569
0.293514
0.286233
0.284644
0.288833
0.295243
0.299519
0.299848
0.295473
0.284529
0.264840
0.234290
0.191779
0.138953
0.078671
0.013074
-0.056162
-0.127486
-0.198871
-0.267371
-0.330313
-0.385375
-0.429511
-0.461443
-0.484006
-0.502119
-0.520483
-0.542017
-0.568092
-0.601291
-0.645596
-0.703390
-0.773151
-0.850913
-0.933909
-1.021088
-1.111883
-1.205676
-1.299865
-1.387931
-1.461867
-1.516459
-1.548837
-1.555957
-1.534981
-1.485699
-1.412497
-1.322810
-1.223978
-1.122023
-1.021876
-0.927501
-0.840451
-0.759418
-0.682197
-0.606346
-0.528598
-0.446129
-0.358768
-0.269242
-0.181093
-0.095489
-0.010685
0.073950
0.155960
0.232349
0.301627
0.364120
0.419980
0.467199
0.504484
0.534040
0.559245
0.581340
0.599059
0.611647
0.619818
0.623370
0.623390
0.624172
0.628000
0.632976
0.637146
0.641305
0.647879
0.658608
0.674847
0.697645
0.725522
0.754235
0.777473
0.787079
0.775285
0.739141
0.682959
0.614788
0.542098
0.470903
0.404523
0.342532
0.283098
0.226564
0.175963
0.134615
0.105043
0.089797
0.090738
0.106178
0.130123
0.155050
0.174315
0.181727
0.170838
0.138484
0.088295
0.026082
-0.045047
-0.121162
-0.195393
-0.261844
-0.316154
-0.353069
-0.368133
-0.360390
-0.330735
-0.281075
-0.217407
-0.147339
-0.074827
-0.004245
0.056108
0.100406
0.128530
0.142054
0.143272
0.135319
0.119022
0.093360
0.058521
0.015294
-0.035307
-0.089375
-0.141343
-0.188982
-0.230796
-0.261849
-0.278919
-0.282126
-0.270331
-0.243059
-0.203145
-0.152953
-0.093484
-0.028852
0.033976
0.089480
0.134275
0.166415
0.185664
0.192626
0.186986
0.168394
0.140245
0.109252
0.080113
0.054755
0.035907
0.025639
0.022664
0.025167
0.031909
0.040717
0.051055
0.064118
0.079279
0.096643
0.118537
0.145589
0.176063
0.205961
0.230920
0.250514
0.266490
0.279813
0.290837
0.298300
0.299224
0.291606
0.275729
0.252453
0.223028
0.188573
0.146870
0.093962
0.027431
-0.054783
-0.151567
-0.253893
-0.348925
-0.427358
-0.484991
-0.520678
-0.535390
-0.530876
-0.508357
-0.472328
-0.431857
-0.393259
-0.357599
-0.325790
-0.298307
-0.273463
-0.250309
-0.228024
-0.204827
-0.180173
-0.154168
-0.127884
-0.104688
-0.087292
-0.077307
-0.077680
-0.090588
-0.116728
-0.157129
-0.211056
-0.275922
-0.349850
-0.430555
-0.514501
-0.597732
-0.674023
-0.734198
-0.771024
-0.781842
-0.764638
-0.716878
-0.638612
-0.533397
-0.408358
-0.273885
-0.140950
-0.018766
0.086166
0.169864
0.229510
0.264559
0.277827
0.271862
0.247824
0.209352
0.162546
0.112917
0.065476
0.026455
0.003176
0.001236
0.022241
0.064932
0.127161
0.206807
0.302007
0.409642
0.524066
0.638143
0.744097
0.836146
0.913354
0.976502
1.025787
1.061358
1.080928
1.080482
1.057515
1.009243
0.932460
0.830043
0.711641
0.586794
0.465239
0.357702
0.270932
0.209836
0.179701
0.181278
0.209556
0.257463
0.319828
0.392753
0.469172
0.539473
0.595283
0.630465
0.641507
0.627498
0.586714
0.515588
0.415338
0.293730
0.158788
0.018583
-0.115830
-0.232642
-0.323100
-0.383644
-0.412670
-0.407558
-0.370356
-0.309034
-0.231096
-0.145374
-0.063650
0.006308
0.061171
0.098161
0.117483
0.123897
0.123186
0.117694
0.106869
0.092951
0.080118
0.070413
0.068315
0.080620
0.106660
0.138422
0.170559
0.202826
0.233596
0.257187
0.269073
0.270513
0.266862
0.262455
0.258698
0.255730
0.251774
0.243963
0.233290
0.224016
0.218792
0.218349
0.222882
0.232946
0.250819
0.278061
0.311376
0.343758
0.368466
0.380870
0.377845
0.356905
0.318479
0.266638
0.203385
0.126512
0.036713
-0.058863
-0.152215
-0.235767
-0.299110
-0.334780
-0.344167
-0.333065
-0.308506
-0.279182
-0.252262
-0.231423
-0.219590
-0.220054
-0.232813
-0.253778
-0.280884
-0.316562
-0.362571
-0.418348
-0.483579
-0.557320
-0.636755
-0.718168
-0.797479
-0.870563
-0.933741
-0.985010
-1.025025
-1.056068
-1.080003
-1.096644
-1.104410
-1.101386
-1.084385
-1.049072
-0.990769
-0.905221
-0.791740
-0.655886
-0.507542
-0.355341
-0.204275
-0.060297
0.068482
0.177204
0.262944
0.321007
0.350248
0.354762
0.338383
0.304174
0.255784
0.196091
0.125708
0.043563
-0.048173
-0.141817
-0.230044
-0.310432
-0.382636
-0.445622
-0.498365
-0.539075
-0.565352
-0.577197
-0.576395
-0.563852
-0.540968
-0.511002
-0.476741
-0.440350
-0.404638
-0.370590
-0.338342
