EVENT_NAME: L_AQUILA
EVENT_ID: IT-2009-0009
EVENT_DATE_YYYYMMDD: 20090406
EVENT_TIME_HHMMSS: 013240
EVENT_LATITUDE_DEGREE: 42.3420
EVENT_LONGITUDE_DEGREE: 13.3800
EVENT_DEPTH_KM: 8.3
HYPOCENTER_REFERENCE: INGV-CNT_Seismic_Bulletin
MAGNITUDE_W: 6.1
MAGNITUDE_W_REFERENCE: INGV-CNT_Seismic_Bulletin
MAGNITUDE_L: 
MAGNITUDE_L_REFERENCE: 
FOCAL_MECHANISM: Normal faulting
NETWORK: IT
STATION_CODE: SPO
STATION_NAME: 
STATION_LATITUDE_DEGREE: 42.733585
STATION_LONGITUDE_DEGREE: 12.740602
STATION_ELEVATION_M: 476
LOCATION: 
SENSOR_DEPTH_M: 0.0
VS30_M/S: 
SITE_CLASSIFICATION_EC8: A (inferred from geology)
MORPHOLOGIC_CLASSIFICATION: 
EPICENTRAL_DISTANCE_KM: 68.2
EARTHQUAKE_BACKAZIMUTH_DEGREE: 309.8
DATE_TIME_FIRST_SAMPLE_YYYYMMDD_HHMMSS: 20090406_013241.000
DATE_TIME_FIRST_SAMPLE_PRECISION: seconds
SAMPLING_INTERVAL_S: 0.005000
NDATA: 20200
DURATION_S: 101.000
STREAM: HNZ
UNITS: cm/s^2
INSTRUMENT: sensor = FBA-3 [Kinemetrics] | digitizer = Etna [Kinemetrics]
INSTRUMENT_ANALOG/DIGITAL: D
INSTRUMENTAL_FREQUENCY_HZ: 210.000
INSTRUMENTAL_DAMPING: 0.700000
FULL_SCALE_G: 1.0
N_BIT_DIGITAL_CONVERTER: 18
PGA_CM/S^2: 5.215533
TIME_PGA_S: 27.810000
BASELINE_CORRECTION: BASELINE NOT REMOVED
FILTER_TYPE: 
FILTER_ORDER: 
LOW_CUT_FREQUENCY_HZ: 
HIGH_CUT_FREQUENCY_HZ: 
LATE/NORMAL_TRIGGERED: NT
DATABASE_VERSION: 0.5
HEADER_FORMAT: DYNA 1.2
DATA_TYPE: ACCELERATION
PROCESSING: converted to cm/s^2
DATA_TIMESTAMP_YYYYMMDD_HHMMSS: 20211011_160446.414
DATA_LICENSE: CC-BY3_0-IT (http://creativecommons.org/licenses/by/3.0/deed.en)
DATA_CITATION: Luzi L, Pacor F, Puglia R (2019). Italian Accelerometric Archive v 3.0 - Istituto Nazionale di Geofisica e Vulcanologia, Dipartimento della Protezione Civile Nazionale. doi: 10.13127/itaca.3.1
DATA_CREATOR: ITACA working group
ORIGINAL_DATA_MEDIATOR_CITATION: data obtained within the DPC-INGV data exchange agreements
ORIGINAL_DATA_MEDIATOR: Archive of Italian Department of Civil Protection
ORIGINAL_DATA_CREATOR_CITATION: Presidency Of Counsil Of Ministers-Civil Protection Department. (1972). Italian Strong Motion Network. Presidency of Counsil of Ministers - Civil Protection Department. https://doi.org/10.7914/SN/IT http://www.fdsn.org/networks/detail/IT/
ORIGINAL_DATA_CREATOR: network: IT (Italian Strong Motion Network (RAN)); owner: Presidency of Counsil of Ministers - Civil Protection Department (PCM - DPC)
USER1: 
USER2: 
USER3: 
USER4: 
USER5: 
[...]
1.608702
1.499489
1.344673
1.150101
0.962077
0.812406
0.681678
0.525459
0.325509
0.128364
-0.045628
-0.181033
-0.285335
-0.377476
-0.445062
-0.531590
-0.654133
-0.793280
-0.936871
-1.086308
-1.265445
-1.475452
-1.671427
-1.812211
-1.907392
-1.932181
-1.842145
-1.625824
-1.298887
-0.914888
-0.520365
-0.146890
0.154791
0.384442
0.575506
0.753474
0.961843
1.168108
1.318247
1.406412
1.437516
1.415299
1.334851
1.198510
0.984996
0.681678
0.320597
-0.044693
-0.360638
-0.613208
-0.818070
-0.954176
-1.007730
-0.994634
-0.903429
-0.741597
-0.535098
-0.347542
-0.262417
-0.296093
-0.411854
-0.544686
-0.657641
-0.734113
-0.759137
-0.728501
-0.633553
-0.470553
-0.264054
-0.084449
0.021490
0.035288
-0.014992
-0.042120
0.012136
0.166250
0.419988
0.723540
0.998092
1.180737
1.207865
1.040888
0.714653
0.351233
0.080423
-0.032532
0.000209
0.122985
0.303292
0.500904
0.698750
0.880928
1.008148
1.030131
0.906886
0.673961
0.410400
0.175838
-0.012420
-0.164195
-0.294923
-0.386597
-0.467279
-0.550299
-0.620457
-0.670036
-0.624901
-0.466811
-0.196000
0.151984
0.481260
0.714886
0.824567
0.845848
0.837430
0.875549
0.950852
1.007212
1.003003
0.922321
0.775690
0.576909
0.368773
0.171395
-0.007041
-0.162091
-0.268965
-0.303109
-0.254699
-0.082578
0.223312
0.625318
1.063105
1.473063
1.829232
2.094898
2.206683
2.134888
1.885593
1.525213
1.107772
0.665308
0.240851
-0.158817
-0.518962
-0.836778
-1.095428
-1.260534
-1.322974
-1.275735
-1.160441
-1.021528
-0.880978
-0.738791
-0.561524
-0.349179
-0.128882
0.023829
0.035989
-0.106899
-0.353622
-0.611571
-0.862737
-1.122322
-1.396407
-1.659968
-1.870442
-1.971704
-1.962583
-1.878159
-1.699256
-1.494160
-1.273396
-1.019190
-0.789772
-0.579999
-0.384492
-0.198105
0.031780
0.349830
0.709508
1.024284
1.223767
1.313570
1.378817
1.450612
1.490134
1.456458
1.341399
1.142851
0.875549
0.592344
0.342581
0.149178
0.001846
-0.092166
-0.150164
-0.237394
-0.411854
-0.743702
-1.203238
-1.677039
-2.055660
-2.224507
-2.168848
-1.905755
-1.471710
-0.961660
-0.409047
0.151750
0.681211
1.138174
1.419742
1.484522
1.372736
1.173019
0.969327
0.808197
0.680977
0.528032
0.330653
0.091414
-0.188049
-0.514285
-0.838649
-1.086308
-1.219608
-1.221245
-1.090517
-0.814328
-0.414660
0.040199
0.479155
0.860114
1.180503
1.484522
1.758606
1.968847
2.154298
2.273099
2.295083
2.239424
2.077358
1.800000
1.432371
0.994584
0.530370
0.103575
-0.274110
-0.565500
-0.830464
-1.088646
-1.263574
-1.378867
-1.392665
-1.295613
-1.157401
-1.021762
-0.876301
-0.752588
-0.661149
-0.544686
-0.431030
-0.342163
-0.334680
-0.414660
-0.525510
-0.667931
-0.803336
-0.858060
-0.770362
-0.556847
-0.241136
0.137485
0.483131
0.805391
1.078072
1.224936
1.216751
1.054452
0.787383
0.460446
0.165548
-0.102222
-0.353622
-0.562226
-0.770596
-0.905533
-0.915122
-0.793280
-0.547025
-0.264054
-0.007976
0.197587
0.386780
0.581586
0.794165
1.029195
1.258379
1.445935
1.499723
1.408283
1.239436
1.025688
0.759086
0.449689
0.131404
-0.194363
-0.498382
-0.776208
-1.011472
-1.188738
-1.291169
-1.287194
-1.181255
-1.011238
-0.880043
-0.799594
-0.761475
-0.745339
-0.694825
-0.582806
-0.384259
-0.158583
0.058908
0.202498
0.224715
0.135146
-0.079772
-0.398524
-0.745807
-0.995336
-1.065494
-0.866946
-0.413958
0.151984
0.706000
1.184011
1.609403
1.979371
2.328290
2.639325
2.806535
2.802092
2.629035
2.347701
2.099575
1.981242
2.002055
2.113373
2.199667
2.163653
1.969081
1.632789
1.173019
0.624149
0.092350
-0.363678
-0.702542
-0.917928
-1.016383
-0.975925
-0.826488
-0.602918
-0.343800
-0.093569
0.131171
0.316622
0.422093
0.458108
0.448753
0.400578
0.344919
0.325041
0.342814
0.321299
0.242956
0.114800
-0.037677
-0.172614
-0.242305
-0.194597
-0.058724
0.120413
0.299784
0.463486
0.597723
0.670921
0.628592
0.441737
0.158298
-0.176824
-0.508672
-0.803336
-1.040471
-1.225221
-1.421664
-1.595422
-1.673298
-1.635178
-1.471944
-1.212592
-0.921904
-0.672608
-0.461432
-0.269900
-0.086554
0.110591
0.266342
0.334162
0.274293
0.106148
-0.094037
-0.313165
-0.511011
-0.705583
-0.922137
-1.102678
-1.232237
-1.327418
-1.393834
-1.428446
-1.464226
-1.483403
-1.444582
-1.304733
-1.010537
-0.552170
0.025699
0.553991
0.954126
1.177463
1.208566
1.101926
0.887710
0.664139
0.433318
0.249036
0.160403
0.101470
0.028740
-0.072990
-0.224765
-0.449037
-0.653899
-0.815965
-0.938508
-1.026673
-1.099638
-1.112500
-1.019891
-0.764983
-0.343566
0.191974
0.698049
1.082048
1.355664
1.548599
1.663425
1.630918
1.384429
0.929337
0.382804
-0.116722
-0.442256
-0.496277
-0.300770
0.016579
0.344451
0.628826
0.865025
1.085322
1.292756
1.468620
1.619459
1.780589
1.959726
2.131614
2.256729
2.300461
2.249012
2.110332
1.887230
1.597710
1.320585
1.081580
0.869469
0.655954
0.421625
0.216530
0.039263
-0.153672
-0.417233
-0.805909
-1.286726
-1.782744
-2.224507
-2.528526
-2.673753
-2.689656
-2.591434
-2.381194
-2.017774
-1.518248
-0.968208
-0.483649
-0.171445
-0.038144
-0.052644
-0.165131
-0.317374
-0.446465
-0.495576
-0.430796
-0.235289
0.047215
0.343516
0.566151
0.676533
0.691968
0.648470
0.583691
0.469567
0.338605
0.228457
0.141460
0.097729
0.064754
0.088842
0.177943
0.276632
0.336968
0.290196
0.197353
0.119010
0.056803
0.050723
0.120413
0.227989
0.294171
0.277333
0.213957
0.101470
-0.040015
-0.154841
-0.233418
-0.229442
-0.162091
-0.083280
-0.049370
-0.091932
-0.116020
-0.115319
-0.155776
-0.252361
-0.419805
-0.613909
-0.731775
-0.728267
-0.597773
-0.336784
0.049319
0.503243
0.902677
1.153141
1.249726
1.222130
1.083919
0.911096
0.750667
0.610819
0.501606
0.385611
0.254181
0.166250
0.228690
0.405021
0.601230
0.777795
0.867364
0.888879
0.891451
0.899169
0.919515
0.947812
0.967690
0.905717
0.738740
0.484066
0.185426
-0.093803
-0.334212
-0.509374
-0.616014
-0.710026
-0.800764
-0.889631
-0.945290
-0.916291
-0.827658
-0.674713
-0.490665
-0.285101
-0.077901
0.124856
0.401747
0.728217
1.081346
1.403606
1.610339
1.667868
1.560059
1.314973
0.955763
0.523589
0.101704
-0.243240
-0.476399
-0.577193
-0.611571
-0.632618
-0.604555
-0.506567
-0.310358
-0.031129
0.252076
0.469801
0.596319
0.648938
0.641454
0.578546
0.466994
0.391224
0.434020
0.608480
0.914838
1.266564
1.585082
1.852150
2.054674
2.164822
2.193821
2.204111
2.156169
2.053738
1.898689
1.630217
1.310997
0.990375
0.693605
0.451793
0.272189
0.123453
-0.030427
-0.182203
-0.340994
-0.460964
-0.548428
-0.667697
-0.845899
-1.108992
-1.412543
-1.697619
-1.931713
-2.084424
-2.136575
-2.099625
-2.040459
-1.975913
-1.906924
-1.831154
-1.691071
-1.485040
-1.180320
-0.811288
-0.446465
-0.074627
0.245762
0.480792
0.561240
0.418819
0.069665
-0.430329
-0.921436
-1.300992
-1.559407
-1.723344
-1.838637
-1.875587
-1.818291
-1.666282
-1.424002
-1.192480
-0.980369
-0.735283
-0.448336
-0.127245
0.153855
0.365265
0.503477
0.565917
0.571530
0.518210
0.388183
0.189635
-0.073457
-0.385427
-0.702542
-1.021762
-1.295847
-1.498136
-1.619977
-1.641493
-1.589576
-1.490419
-1.364602
-1.252115
-1.196924
-1.120685
-0.986215
-0.820642
-0.625836
-0.496745
-0.509140
-0.666294
-0.902025
-1.072744
-1.057543
-0.852915
-0.528784
-0.167703
0.133275
0.324105
0.385143
0.332992
0.240851
0.189402
0.211853
0.310775
0.486873
0.729854
1.037380
1.342568
1.535737
1.535737
1.307021
0.890048
0.393796
-0.056386
-0.396419
-0.602216
-0.687809
-0.719147
-0.751185
-0.778313
-0.787668
-0.747210
-0.601515
-0.351985
-0.007743
0.347492
0.626253
0.808197
0.868065
0.872275
0.873210
0.886306
0.954828
1.032703
1.089531
1.113385
1.097716
1.079475
1.043928
0.993414
0.858945
0.600061
0.296276
-0.000727
-0.225233
-0.355727
-0.409047
-0.417466
-0.400394
-0.357130
-0.288141
-0.179162
-0.061063
0.073874
0.239448
0.403852
0.568490
0.711612
0.813342
0.875315
0.876250
0.772884
0.509557
0.089543
-0.463303
-1.086775
-1.652718
-2.071095
-2.281803
-2.281569
-2.101730
-1.787889
-1.390794
-0.902961
-0.365082
0.135848
0.545571
0.842574
1.050476
1.195938
1.300240
1.400800
1.478441
1.477506
1.381155
1.192196
0.960674
0.742482
0.561240
0.413206
0.240851
-0.009380
-0.341695
-0.749314
-1.160441
-1.471008
-1.668854
-1.783446
-1.839572
-1.863894
-1.857112
-1.790228
-1.674467
-1.531578
-1.356416
-1.176812
-1.037898
-0.961660
-0.945290
-0.966337
-1.002819
-1.102444
-1.308241
-1.609921
-1.969131
-2.296770
-2.529461
-2.672350
-2.752096
-2.771273
-2.745548
-2.666503
-2.518236
-2.321793
-2.082554
-1.818291
-1.522925
-1.175642
-0.792345
-0.385895
0.003249
0.346556
0.627891
0.814277
0.931208
1.002535
1.025220
0.969795
0.835793
0.638648
0.367837
0.068028
-0.214709
-0.479907
-0.735283
-0.965635
-1.201367
-1.484338
-1.796074
-2.107810
-2.393822
-2.648496
-2.860842
-3.042084
-3.216543
-3.376504
-3.513780
-3.616211
-3.654097
-3.574116
-3.352417
-2.989231
-2.507478
-1.968430
-1.447388
-0.996739
-0.626070
-0.316439
-0.003533
0.358015
0.774287
1.227509
1.689384
2.150790
2.588110
2.981697
3.334359
3.608209
3.767936
3.834586
3.829675
3.813305
3.788750
3.696141
3.528697
3.273321
2.960182
2.617810
2.241762
1.860336
1.455757
1.041122
0.633971
0.239916
-0.090062
-0.350816
-0.542348
-0.695994
-0.846367
-0.995102
-1.115774
-1.173537
-1.155063
-1.053099
-0.896647
-0.675415
-0.444594
-0.273174
-0.173082
-0.159752
-0.186412
-0.215177
-0.223830
-0.172147
-0.040483
0.146605
0.360588
0.552821
0.712548
0.850760
0.945239
1.004874
1.030365
1.057258
1.100757
1.124844
1.102861
1.030365
0.923256
0.791359
0.643793
0.473309
0.296510
0.132574
0.012603
-0.041185
-0.069950
-0.078836
-0.102456
-0.163260
-0.228039
-0.314802
-0.413257
-0.521300
-0.653666
-0.815965
-1.004924
-1.199496
-1.400382
-1.567359
-1.666048
-1.673999
-1.565722
-1.371150
-1.121153
-0.845197
-0.556146
-0.269900
-0.036040
0.132340
0.245060
0.291833
0.279672
0.241085
0.196418
0.156428
0.136549
0.131404
0.118074
0.090713
0.040667
-0.070885
-0.261248
-0.500253
-0.777612
-1.052398
-1.307072
-1.543037
-1.726618
-1.873716
-1.949253
-1.928206
-1.873482
-1.829049
-1.831387
-1.888449
-1.974978
-2.057998
-2.118334
-2.188025
-2.253973
-2.296536
-2.354066
-2.403176
-2.417208
-2.405749
-2.302149
-2.067820
-1.721473
-1.254219
-0.704881
-0.110173
0.473542
0.999027
1.432605
1.687980
1.776380
1.717447
1.533165
1.314037
1.101458
0.934482
0.850993
0.879992
1.007914
1.176995
1.320819
1.396356
1.415767
1.378817
1.336254
1.334617
1.446870
1.695464
2.028248
2.410376
2.766779
3.083660
3.341141
3.520979
3.625515
3.679537
3.701754
3.691230
3.676497
3.655683
3.635805
3.597218
3.529632
3.442636
3.336463
3.225379
3.099095
2.951295
2.768650
2.567062
2.349338
2.094898
1.819410
1.523576
1.236396
0.976576
0.731958
0.499969
0.257221
-0.028556
-0.356663
-0.675181
-0.927282
-1.078122
-1.148281
-1.172368
-1.193650
-1.285791
-1.453469
-1.686862
-1.981760
-2.312205
-2.648496
-2.963039
-3.241333
-3.433098
-3.507232
-3.493902
-3.405503
-3.262848
-3.088154
-2.890542
-2.688486
-2.491342
-2.314075
-2.187089
-2.157155
-2.195274
-2.292093
-2.416039
-2.522913
-2.671882
-2.862245
-3.082308
-3.332772
-3.583938
-3.756060
-3.835339
-3.793945
-3.586277
-3.264251
-2.834182
-2.331147
-1.770350
-1.195520
-0.643609
-0.100819
0.398941
0.897765
1.370865
1.767961
2.072915
2.280116
2.437737
2.565191
2.711120
2.861727
2.994793
3.115699
3.212050
3.269579
3.257886
3.197550
3.105409
2.983334
2.819865
2.611028
2.338113
1.970016
1.539011
1.070588
0.584392
0.174435
-0.145486
-0.409749
-0.621627
-0.828827
-1.037431
-1.275501
-1.529473
-1.800985
-2.132600
-2.493447
-2.835117
-3.083009
-3.191754
-3.078800
-2.781797
-2.385871
-1.916045
-1.446219
-0.991828
-0.561291
-0.131455
0.275696
0.646131
0.970730
1.225638
1.428629
1.526383
1.547196
1.498553
1.366656
1.266798
1.201316
1.165068
1.193599
1.288780
1.489199
1.768896
2.119687
2.498307
2.854711
3.181882
3.440064
3.660360
3.836925
3.997354
4.139541
4.205256
4.288510
4.347910
4.310493
4.199175
4.012788
3.783137
3.524020
3.309570
3.101667
2.915281
2.769586
2.568465
2.350040
2.088583
1.833909
1.593735
1.362915
1.194301
0.988036
0.781771
0.575272
0.342347
0.118776
-0.093336
-0.245111
-0.364614
-0.409047
-0.384492
-0.352921
-0.284400
-0.266860
-0.318543
-0.441788
-0.635892
-0.885421
-1.197859
-1.500475
-1.791865
-2.063845
-2.344010
-2.626045
-2.927024
-3.230809
-3.508401
-3.739923
-3.869716
-3.947358
-3.904094
-3.824815
-3.712795
-3.539973
-3.309854
-2.976135
-2.630255
-2.196210
-1.820630
-1.510063
-1.250945
-1.134717
-1.062220
-1.112266
-1.157401
-1.217269
-1.253986
-1.140563
-0.985514
-0.743702
-0.489729
-0.177759
0.103341
0.341177
0.641454
0.883266
1.209034
1.571752
1.963000
2.426512
2.889088
3.406621
3.907084
4.406375
4.829897
5.089482
5.215533
5.157068
4.985415
4.745240
4.472558
4.204788
3.927195
3.673924
3.396332
3.106579
2.825712
2.548821
2.314493
2.127171
2.047892
2.053037
2.144008
2.315662
2.544612
2.836937
3.173229
3.544833
3.876214
4.199643
4.438180
4.576392
4.633922
4.574755
4.466712
4.244544
3.977943
3.655683
3.289224
2.893766
2.466035
2.061690
1.612443
1.212308
0.762828
0.369942
0.039965
-0.305213
-0.496511
-0.659980
-0.723824
-0.736686
-0.769894
-0.739025
-0.704413
-0.633086
-0.554509
-0.514986
-0.497681
-0.579766
-0.704179
-0.858294
-1.056140
-1.208851
-1.364836
-1.498370
-1.678209
-1.902949
-2.134003
-2.381895
-2.584886
-2.801207
-2.977772
-3.158546
-3.365279
-3.548859
-3.715134
-3.780615
-3.761205
-3.623929
-3.395681
-3.103355
-2.735258
-2.359211
-1.959075
-1.575778
-1.205343
-0.849641
-0.525744
-0.205121
0.069198
0.338605
0.576675
0.736636
0.836962
0.830180
0.730555
0.539491
0.284817
0.003483
-0.251425
-0.450674
-0.626070
-0.732476
-0.813158
-0.866713
-0.902727
-0.958620
-1.025270
-1.142434
-1.276202
-1.444582
-1.620679
-1.765673
-1.902247
-2.014734
-2.103133
-2.183815
-2.272916
-2.362952
-2.489471
-2.623941
-2.733387
-2.815706
-2.824593
-2.783434
-2.706026
-2.613885
-2.504906
-2.333720
-2.111318
-1.811509
-1.444114
-1.036963
-0.605724
-0.188283
0.212086
0.543233
0.796036
0.971665
1.046735
1.071758
1.075968
1.071992
1.053283
1.034808
1.013293
0.994116
0.992479
0.960674
0.899636
0.770078
0.586263
0.390288
0.176306
0.008393
-0.116488
-0.200444
-0.238797
-0.238330
-0.156478
0.013773
0.267044
0.592344
0.933312
1.271709
1.611274
1.942654
2.272398
2.589513
2.900781
3.187494
3.434451
3.623645
3.731922
3.752969
3.668545
3.485900
3.207139
2.857517
2.446390
2.010942
1.585316
1.188220
0.857541
0.579247
0.383272
0.235472
0.100535
0.009563
-0.086787
-0.166066
-0.203718
-0.229910
-0.257740
-0.333276
-0.475230
-0.715872
-1.044446
-1.409971
-1.786954
-2.150841
-2.491810
-2.800506
-3.088622
-3.326926
-3.473556
-3.513313
-3.416494
-3.171876
-2.824359
-2.459069
-2.097287
-1.769180
-1.503047
-1.271525
-1.084203
-0.902259
-0.741597
-0.593096
-0.433369
-0.253764
-0.023411
0.217465
0.520548
0.801649
1.057726
1.295796
1.447572
1.612210
1.705988
1.777315
1.806782
1.791581
1.818942
1.767961
1.753929
1.747381
1.707391
1.668804
1.583445
1.506738
1.394485
1.350987
1.379518
1.434242
1.598646
1.763985
1.945227
2.135823
2.239424
2.302800
2.292510
2.285027
2.265382
2.217441
2.238254
2.234279
2.237319
2.222586
2.196861
2.156637
2.075487
1.992701
1.835546
1.644482
1.421847
1.182842
0.962077
0.770779
0.577143
0.345855
0.103809
-0.182203
-0.453481
-0.683600
-0.805909
-0.785563
-0.666762
-0.445296
-0.222894
-0.007041
0.169758
0.320831
0.468631
0.553757
0.637011
0.677937
0.666711
0.572699
0.391691
0.174435
-0.088425
-0.330470
-0.589120
-0.837714
-1.096130
-1.383310
-1.617639
-1.855943
-2.038354
-2.163937
-2.271279
-2.343776
-2.435917
-2.534606
-2.630255
-2.699712
-2.746951
-2.763556
-2.753032
-2.746016
-2.703453
-2.643819
-2.556589
-2.449013
-2.342139
-2.200186
-2.062208
-1.927972
-1.810574
-1.752576
-1.740416
-1.808469
-1.916746
-2.034144
-2.170953
-2.283440
-2.391717
-2.474738
-2.564540
-2.675624
-2.778523
-2.900130
-2.995779
-3.081840
-3.160651
-3.212802
-3.258404
-3.272670
-3.239228
-3.127676
-2.927258
-2.655746
-2.329277
-1.972171
-1.613429
-1.256792
-0.929621
-0.652964
-0.391508
-0.174485
0.024764
0.252544
0.487106
0.737571
0.969327
1.147996
1.243879
1.269604
1.248089
1.174189
1.100055
1.024050
0.955529
0.886540
0.801415
0.697113
0.548378
0.383272
0.170693
-0.071119
-0.319947
-0.546090
-0.680092
-0.729904
-0.665125
-0.509607
-0.275045
0.039731
0.401045
0.786916
1.109409
1.337423
1.451547
1.460902
1.395889
1.238266
1.030131
0.789021
0.516807
0.196418
-0.173082
-0.545856
-0.892671
-1.168159
-1.384480
-1.537425
-1.624187
-1.673298
-1.674935
-1.659032
-1.602438
-1.507023
-1.426107
-1.331861
-1.236914
-1.137757
-1.006795
-0.855020
-0.689914
-0.536034
-0.385427
-0.223362
-0.027387
0.200861
0.435189
0.664139
0.836962
0.926998
0.953190
0.945941
0.965585
1.026857
1.087193
1.137940
1.158754
1.132562
1.078072
1.024986
0.993181
0.978447
0.983592
1.003237
1.001366
0.921853
0.757449
0.517976
0.216530
-0.118826
-0.443425
-0.716340
-0.949733
-1.142434
-1.311281
-1.456041
-1.552626
-1.584664
-1.544674
-1.424704
-1.231301
-1.000247
-0.737621
-0.444360
-0.116020
0.200159
0.495058
0.770078
0.973536
1.127417
1.235226
1.316844
1.385365
1.416000
1.415767
1.361979
1.256040
1.089531
0.847252
0.570828
0.247633
-0.087256
-0.386831
-0.639634
-0.832335
-1.002819
-1.139394
-1.257727
-1.346828
-1.383544
-1.381206
-1.325547
-1.237148
-1.104783
-0.954176
-0.800530
-0.654367
-0.532058
-0.417700
-0.337252
-0.262651
-0.193428
-0.138471
-0.087489
-0.063635
-0.069950
-0.134495
-0.240200
-0.365082
-0.499084
-0.601281
-0.644545
-0.620457
-0.518260
-0.332341
-0.124907
0.090713
0.301187
0.492485
0.694775
0.889580
1.079241
1.238266
1.371567
1.462773
1.477038
1.439620
1.325730
1.177697
0.998793
0.796738
0.624616
0.458809
0.337202
0.249972
0.203901
0.226352
0.285752
0.401513
0.542063
0.675130
0.793230
0.888177
0.961142
1.016801
1.072927
1.101926
1.119933
1.132328
1.112683
1.089297
1.057492
1.027324
1.005108
0.985931
0.970028
0.932143
0.877420
0.770545
0.581820
0.333694
0.036691
-0.284166
-0.584911
-0.836311
-1.033689
-1.155063
-1.211189
-1.242760
-1.246970
-1.221947
-1.169796
