EVENT_NAME: L_AQUILA
EVENT_ID: IT-2009-0009
EVENT_DATE_YYYYMMDD: 20090406
EVENT_TIME_HHMMSS: 013240
EVENT_LATITUDE_DEGREE: 42.3420
EVENT_LONGITUDE_DEGREE: 13.3800
EVENT_DEPTH_KM: 8.3
HYPOCENTER_REFERENCE: INGV-CNT_Seismic_Bulletin
MAGNITUDE_W: 6.1
MAGNITUDE_W_REFERENCE: INGV-CNT_Seismic_Bulletin
MAGNITUDE_L: 
MAGNITUDE_L_REFERENCE: 
FOCAL_MECHANISM: Normal faulting
NETWORK: IT
STATION_CODE: SPO
STATION_NAME: 
STATION_LATITUDE_DEGREE: 42.733585
STATION_LONGITUDE_DEGREE: 12.740602
STATION_ELEVATION_M: 476
LOCATION: 
SENSOR_DEPTH_M: 0.0
VS30_M/S: 
SITE_CLASSIFICATION_EC8: A (inferred from geology)
MORPHOLOGIC_CLASSIFICATION: 
EPICENTRAL_DISTANCE_KM: 68.2
EARTHQUAKE_BACKAZIMUTH_DEGREE: 309.8
DATE_TIME_FIRST_SAMPLE_YYYYMMDD_HHMMSS: 
DATE_TIME_FIRST_SAMPLE_PRECISION: 
SAMPLING_INTERVAL_S: 
NDATA: 105
DURATION_S: 
STREAM: HNN
UNITS: cm
INSTRUMENT: sensor = FBA-3 [Kinemetrics] | digitizer = Etna [Kinemetrics]
INSTRUMENT_ANALOG/DIGITAL: D
INSTRUMENTAL_FREQUENCY_HZ: 200.000
INSTRUMENTAL_DAMPING: 0.700000
FULL_SCALE_G: 1.0
N_BIT_DIGITAL_CONVERTER: 18
PGD_CM: -0.251596
TIME_PGD_S: 
BASELINE_CORRECTION: BASELINE REMOVED
FILTER_TYPE: BUTTERWORTH
FILTER_ORDER: 2
LOW_CUT_FREQUENCY_HZ: 0.050
HIGH_CUT_FREQUENCY_HZ: 40.000
LATE/NORMAL_TRIGGERED: NT
DATABASE_VERSION: 0.5
HEADER_FORMAT: DYNA 1.2
DATA_TYPE: DISPLACEMENT RESPONSE SPECTRUM
PROCESSING: manual (Paolucci et al., 2011)
DATA_TIMESTAMP_YYYYMMDD_HHMMSS: 20211011_160447.420
DATA_LICENSE: CC-BY3_0-IT (http://creativecommons.org/licenses/by/3.0/deed.en)
DATA_CITATION: Luzi L, Pacor F, Puglia R (2019). Italian Accelerometric Archive v 3.0 - Istituto Nazionale di Geofisica e Vulcanologia, Dipartimento della Protezione Civile Nazionale. doi: 10.13127/itaca.3.1
DATA_CREATOR: ITACA working group
ORIGINAL_DATA_MEDIATOR_CITATION: data obtained within the DPC-INGV data exchange agreements
ORIGINAL_DATA_MEDIATOR: Archive of Italian Department of Civil Protection
ORIGINAL_DATA_CREATOR_CITATION: Presidency Of Counsil Of Ministers-Civil Protection Department. (1972). Italian Strong Motion Network. Presidency of Counsil of Ministers - Civil Protection Department. https://doi.org/10.7914/SN/IT http://www.fdsn.org/networks/detail/IT/
ORIGINAL_DATA_CREATOR: network: IT (Italian Strong Motion Network (RAN)); owner: Presidency of Counsil of Ministers - Civil Protection Department (PCM - DPC)
USER1: 
USER2: 
USER3: 
USER4: 
USER5: 
    0.010000     0.000024
    0.020000     0.000098
    0.022000     0.000118
    0.025000     0.000153
    0.029000     0.000207
    0.030000     0.000223
    0.032000     0.000255
    0.035001     0.000304
    0.036000     0.000320
    0.040000     0.000399
    0.041999     0.000441
    0.044001     0.000483
    0.045000     0.000507
    0.046000     0.000534
    0.048001     0.000589
    0.050000     0.000637
    0.054999     0.000785
    0.059999     0.000947
    0.064998     0.001186
    0.067002     0.001292
    0.069999     0.001426
    0.075002     0.001479
    0.080000     0.001761
    0.084998     0.002435
    0.090001     0.002725
    0.095003     0.003450
    0.100000     0.003797
    0.109999     0.004012
    0.120005     0.006202
    0.130005     0.007020
    0.132996     0.006864
    0.139997     0.006340
    0.149993     0.008108
    0.160000     0.010360
    0.170010     0.012731
    0.179986     0.014544
    0.190006     0.018718
    0.200000     0.019685
    0.220022     0.026714
    0.239981     0.031698
    0.250000     0.035522
    0.260010     0.039446
    0.280034     0.036642
    0.290023     0.043164
    0.300030     0.049311
    0.320000     0.066138
    0.340020     0.088287
    0.350017     0.100273
    0.359971     0.110663
    0.379939     0.120359
    0.400000     0.134309
    0.419992     0.122288
    0.439947     0.108477
    0.450045     0.102038
    0.459982     0.103302
    0.480077     0.092770
    0.500000     0.104411
    0.550055     0.151020
    0.599880     0.209058
    0.650195     0.263766
    0.667111     0.261868
    0.699790     0.222947
    0.750188     0.174101
    0.800000     0.182115
    0.850340     0.171878
    0.900090     0.180810
    0.949668     0.166109
    1.000000     0.179677
    1.100110     0.250722
    1.200480     0.238130
    1.300390     0.325313
    1.400560     0.331571
    1.499250     0.301506
    1.600000     0.273188
    1.700680     0.256751
    1.798561     0.252513
    1.901141     0.274597
    2.000000     0.319310
    2.197802     0.275473
    2.398082     0.265956
    2.500000     0.289531
    2.597403     0.282283
    2.801121     0.284130
    3.003003     0.376105
    3.205128     0.319989
    3.401361     0.412319
    3.496503     0.489706
    3.597122     0.575034
    3.802281     0.685061
    4.000000     0.613777
    4.201681     0.626146
    4.405286     0.575170
    4.608295     0.558312
    4.807692     0.533394
    5.000000     0.512556
    5.494505     0.489336
    5.988024     0.487799
    6.493506     0.506175
    6.993007     0.546898
    7.518797     0.537062
    8.000000     0.531480
    8.474576     0.480758
    9.009009     0.417532
    9.523809     0.385319
   10.000000     0.378965
