EVENT_NAME: L_AQUILA
EVENT_ID: IT-2009-0009
EVENT_DATE_YYYYMMDD: 20090406
EVENT_TIME_HHMMSS: 013240
EVENT_LATITUDE_DEGREE: 42.3420
EVENT_LONGITUDE_DEGREE: 13.3800
EVENT_DEPTH_KM: 8.3
HYPOCENTER_REFERENCE: INGV-CNT_Seismic_Bulletin
MAGNITUDE_W: 6.1
MAGNITUDE_W_REFERENCE: INGV-CNT_Seismic_Bulletin
MAGNITUDE_L: 
MAGNITUDE_L_REFERENCE: 
FOCAL_MECHANISM: Normal faulting
NETWORK: IT
STATION_CODE: SPO
STATION_NAME: 
STATION_LATITUDE_DEGREE: 42.733585
STATION_LONGITUDE_DEGREE: 12.740602
STATION_ELEVATION_M: 476
LOCATION: 
SENSOR_DEPTH_M: 0.0
VS30_M/S: 
SITE_CLASSIFICATION_EC8: A (inferred from geology)
MORPHOLOGIC_CLASSIFICATION: 
EPICENTRAL_DISTANCE_KM: 68.2
EARTHQUAKE_BACKAZIMUTH_DEGREE: 309.8
DATE_TIME_FIRST_SAMPLE_YYYYMMDD_HHMMSS: 
DATE_TIME_FIRST_SAMPLE_PRECISION: 
SAMPLING_INTERVAL_S: 
NDATA: 105
DURATION_S: 
STREAM: HNZ
UNITS: cm/s^2
INSTRUMENT: sensor = FBA-3 [Kinemetrics] | digitizer = Etna [Kinemetrics]
INSTRUMENT_ANALOG/DIGITAL: D
INSTRUMENTAL_FREQUENCY_HZ: 210.000
INSTRUMENTAL_DAMPING: 0.700000
FULL_SCALE_G: 1.0
N_BIT_DIGITAL_CONVERTER: 18
PGA_CM/S^2: 5.202775
TIME_PGA_S: 
BASELINE_CORRECTION: BASELINE REMOVED
FILTER_TYPE: BUTTERWORTH
FILTER_ORDER: 2
LOW_CUT_FREQUENCY_HZ: 0.050
HIGH_CUT_FREQUENCY_HZ: 40.000
LATE/NORMAL_TRIGGERED: NT
DATABASE_VERSION: 0.5
HEADER_FORMAT: DYNA 1.2
DATA_TYPE: ACCELERATION RESPONSE SPECTRUM
PROCESSING: manual (Paolucci et al., 2011)
DATA_TIMESTAMP_YYYYMMDD_HHMMSS: 20211011_160447.560
DATA_LICENSE: CC-BY3_0-IT (http://creativecommons.org/licenses/by/3.0/deed.en)
DATA_CITATION: Luzi L, Pacor F, Puglia R (2019). Italian Accelerometric Archive v 3.0 - Istituto Nazionale di Geofisica e Vulcanologia, Dipartimento della Protezione Civile Nazionale. doi: 10.13127/itaca.3.1
DATA_CREATOR: ITACA working group
ORIGINAL_DATA_MEDIATOR_CITATION: data obtained within the DPC-INGV data exchange agreements
ORIGINAL_DATA_MEDIATOR: Archive of Italian Department of Civil Protection
ORIGINAL_DATA_CREATOR_CITATION: Presidency Of Counsil Of Ministers-Civil Protection Department. (1972). Italian Strong Motion Network. Presidency of Counsil of Ministers - Civil Protection Department. https://doi.org/10.7914/SN/IT http://www.fdsn.org/networks/detail/IT/
ORIGINAL_DATA_CREATOR: network: IT (Italian Strong Motion Network (RAN)); owner: Presidency of Counsil of Ministers - Civil Protection Department (PCM - DPC)
USER1: 
USER2: 
USER3: 
USER4: 
USER5: 
    0.010000     5.208189
    0.020000     5.259722
    0.022000     5.280881
    0.025000     5.314186
    0.029000     5.385101
    0.030000     5.392413
    0.032000     5.453018
    0.035001     5.539809
    0.036000     5.520643
    0.040000     5.607300
    0.041999     5.611018
    0.044001     5.559453
    0.045000     5.429270
    0.046000     5.329744
    0.048001     5.657714
    0.050000     6.005490
    0.054999     6.334593
    0.059999     6.844942
    0.064998     6.989381
    0.067002     6.850573
    0.069999     6.504834
    0.075002     6.121745
    0.080000     6.246331
    0.084998     7.469351
    0.090001     7.867156
    0.095003     6.956504
    0.100000     8.526932
    0.109999     9.608122
    0.120005     9.567970
    0.130005    11.975948
    0.132996    11.884634
    0.139997    11.603909
    0.149993    10.102550
    0.160000     9.532157
    0.170010    11.041790
    0.179986    10.199283
    0.190006    11.689638
    0.200000    12.521929
    0.220022    14.792520
    0.239981    13.842675
    0.250000    11.789441
    0.260010    10.255122
    0.280034    13.424345
    0.290023    13.603270
    0.300030    12.823164
    0.320000    13.255245
    0.340020    16.413082
    0.350017    18.479269
    0.359971    20.304550
    0.379939    21.040592
    0.400000    19.166792
    0.419992    17.034504
    0.439947    14.404095
    0.450045    13.091092
    0.459982    12.366652
    0.480077    11.358441
    0.500000    10.374348
    0.550055    12.905334
    0.599880    15.551027
    0.650195    14.150373
    0.667111    14.153133
    0.699790    12.204576
    0.750188     9.491963
    0.800000     6.521698
    0.850340     4.953322
    0.900090     5.358912
    0.949668     5.911939
    1.000000     5.646157
    1.100110     5.527470
    1.200480     5.670646
    1.300390     4.633356
    1.400560     3.771312
    1.499250     2.848781
    1.600000     2.560776
    1.700680     2.359261
    1.798561     2.380731
    1.901141     2.276974
    2.000000     2.252460
    2.197802     2.129933
    2.398082     2.273802
    2.500000     2.507114
    2.597403     2.627339
    2.801121     2.185866
    3.003003     2.019425
    3.205128     2.303832
    3.401361     2.590943
    3.496503     2.481795
    3.597122     2.266785
    3.802281     1.858105
    4.000000     1.576741
    4.201681     1.378699
    4.405286     1.364947
    4.608295     1.359647
    4.807692     1.370334
    5.000000     1.292849
    5.494505     0.973714
    5.988024     0.815199
    6.493506     0.741805
    6.993007     0.589604
    7.518797     0.434860
    8.000000     0.312310
    8.474576     0.239751
    9.009009     0.209785
    9.523809     0.183560
   10.000000     0.160036
