EVENT_NAME: L_AQUILA
EVENT_ID: IT-2009-0009
EVENT_DATE_YYYYMMDD: 20090406
EVENT_TIME_HHMMSS: 013240
EVENT_LATITUDE_DEGREE: 42.3420
EVENT_LONGITUDE_DEGREE: 13.3800
EVENT_DEPTH_KM: 8.3
HYPOCENTER_REFERENCE: INGV-CNT_Seismic_Bulletin
MAGNITUDE_W: 6.1
MAGNITUDE_W_REFERENCE: INGV-CNT_Seismic_Bulletin
MAGNITUDE_L: 
MAGNITUDE_L_REFERENCE: 
FOCAL_MECHANISM: Normal faulting
NETWORK: IT
STATION_CODE: SPO
STATION_NAME: 
STATION_LATITUDE_DEGREE: 42.733585
STATION_LONGITUDE_DEGREE: 12.740602
STATION_ELEVATION_M: 476
LOCATION: 
SENSOR_DEPTH_M: 0.0
VS30_M/S: 
SITE_CLASSIFICATION_EC8: A (inferred from geology)
MORPHOLOGIC_CLASSIFICATION: 
EPICENTRAL_DISTANCE_KM: 68.2
EARTHQUAKE_BACKAZIMUTH_DEGREE: 309.8
DATE_TIME_FIRST_SAMPLE_YYYYMMDD_HHMMSS: 
DATE_TIME_FIRST_SAMPLE_PRECISION: 
SAMPLING_INTERVAL_S: 
NDATA: 105
DURATION_S: 
STREAM: HNN
UNITS: cm/s^2
INSTRUMENT: sensor = FBA-3 [Kinemetrics] | digitizer = Etna [Kinemetrics]
INSTRUMENT_ANALOG/DIGITAL: D
INSTRUMENTAL_FREQUENCY_HZ: 200.000
INSTRUMENTAL_DAMPING: 0.700000
FULL_SCALE_G: 1.0
N_BIT_DIGITAL_CONVERTER: 18
PGA_CM/S^2: 9.574907
TIME_PGA_S: 
BASELINE_CORRECTION: BASELINE REMOVED
FILTER_TYPE: BUTTERWORTH
FILTER_ORDER: 2
LOW_CUT_FREQUENCY_HZ: 0.050
HIGH_CUT_FREQUENCY_HZ: 40.000
LATE/NORMAL_TRIGGERED: NT
DATABASE_VERSION: 0.5
HEADER_FORMAT: DYNA 1.2
DATA_TYPE: ACCELERATION RESPONSE SPECTRUM
PROCESSING: manual (Paolucci et al., 2011)
DATA_TIMESTAMP_YYYYMMDD_HHMMSS: 20211011_160447.277
DATA_LICENSE: CC-BY3_0-IT (http://creativecommons.org/licenses/by/3.0/deed.en)
DATA_CITATION: Luzi L, Pacor F, Puglia R (2019). Italian Accelerometric Archive v 3.0 - Istituto Nazionale di Geofisica e Vulcanologia, Dipartimento della Protezione Civile Nazionale. doi: 10.13127/itaca.3.1
DATA_CREATOR: ITACA working group
ORIGINAL_DATA_MEDIATOR_CITATION: data obtained within the DPC-INGV data exchange agreements
ORIGINAL_DATA_MEDIATOR: Archive of Italian Department of Civil Protection
ORIGINAL_DATA_CREATOR_CITATION: Presidency Of Counsil Of Ministers-Civil Protection Department. (1972). Italian Strong Motion Network. Presidency of Counsil of Ministers - Civil Protection Department. https://doi.org/10.7914/SN/IT http://www.fdsn.org/networks/detail/IT/
ORIGINAL_DATA_CREATOR: network: IT (Italian Strong Motion Network (RAN)); owner: Presidency of Counsil of Ministers - Civil Protection Department (PCM - DPC)
USER1: 
USER2: 
USER3: 
USER4: 
USER5: 
    0.010000     9.592160
    0.020000     9.638194
    0.022000     9.650484
    0.025000     9.665793
    0.029000     9.724652
    0.030000     9.799532
    0.032000     9.849226
    0.035001     9.806881
    0.036000     9.740405
    0.040000     9.845865
    0.041999     9.880779
    0.044001     9.840996
    0.045000     9.889325
    0.046000     9.970583
    0.048001    10.083497
    0.050000    10.055293
    0.054999    10.242312
    0.059999    10.382281
    0.064998    11.067737
    0.067002    11.395515
    0.069999    11.520906
    0.075002    10.403247
    0.080000    10.904166
    0.084998    13.286300
    0.090001    13.272411
    0.095003    15.180858
    0.100000    15.094530
    0.109999    13.087984
    0.120005    16.990414
    0.130005    16.410870
    0.132996    15.374059
    0.139997    12.842410
    0.149993    14.251428
    0.160000    16.044643
    0.170010    17.438442
    0.179986    17.815931
    0.190006    20.570122
    0.200000    19.548811
    0.220022    21.845196
    0.239981    21.811291
    0.250000    22.517202
    0.260010    23.151709
    0.280034    18.534960
    0.290023    20.347486
    0.300030    21.719870
    0.320000    25.600271
    0.340020    30.267784
    0.350017    32.449539
    0.359971    33.843563
    0.379939    33.055756
    0.400000    33.305927
    0.419992    27.469467
    0.439947    22.265301
    0.450045    19.966749
    0.459982    19.359188
    0.480077    15.984792
    0.500000    16.551922
    0.550055    19.815212
    0.599880    23.053894
    0.650195    24.769514
    0.667111    23.356535
    0.699790    18.056986
    0.750188    12.285775
    0.800000    11.288291
    0.850340     9.460484
    0.900090     8.879475
    0.949668     7.320132
    1.000000     7.143765
    1.100110     8.238627
    1.200480     6.568209
    1.300390     7.645281
    1.400560     6.731454
    1.499250     5.338554
    1.600000     4.238137
    1.700680     3.530892
    1.798561     3.094101
    1.901141     3.029805
    2.000000     3.183161
    2.197802     2.266440
    2.398082     1.834377
    2.500000     1.842633
    2.597403     1.666668
    2.801121     1.441261
    3.003003     1.655698
    3.205128     1.239848
    3.401361     1.417180
    3.496503     1.584961
    3.597122     1.763849
    3.802281     1.896944
    4.000000     1.525713
    4.201681     1.411199
    4.405286     1.198370
    4.608295     1.069858
    4.807692     0.941574
    5.000000     0.836775
    5.494505     0.664672
    5.988024     0.541930
    6.493506     0.481068
    6.993007     0.446939
    7.518797     0.386524
    8.000000     0.341151
    8.474576     0.277593
    9.009009     0.218875
    9.523809     0.186946
   10.000000     0.167519
