EVENT_NAME: L_AQUILA
EVENT_ID: IT-2009-0009
EVENT_DATE_YYYYMMDD: 20090406
EVENT_TIME_HHMMSS: 013240
EVENT_LATITUDE_DEGREE: 42.3420
EVENT_LONGITUDE_DEGREE: 13.3800
EVENT_DEPTH_KM: 8.3
HYPOCENTER_REFERENCE: INGV-CNT_Seismic_Bulletin
MAGNITUDE_W: 6.1
MAGNITUDE_W_REFERENCE: INGV-CNT_Seismic_Bulletin
MAGNITUDE_L: 
MAGNITUDE_L_REFERENCE: 
FOCAL_MECHANISM: Normal faulting
NETWORK: IT
STATION_CODE: SPO
STATION_NAME: 
STATION_LATITUDE_DEGREE: 42.733585
STATION_LONGITUDE_DEGREE: 12.740602
STATION_ELEVATION_M: 476
LOCATION: 
SENSOR_DEPTH_M: 0.0
VS30_M/S: 
SITE_CLASSIFICATION_EC8: A (inferred from geology)
MORPHOLOGIC_CLASSIFICATION: 
EPICENTRAL_DISTANCE_KM: 68.2
EARTHQUAKE_BACKAZIMUTH_DEGREE: 309.8
DATE_TIME_FIRST_SAMPLE_YYYYMMDD_HHMMSS: 20090406_013241.000
DATE_TIME_FIRST_SAMPLE_PRECISION: seconds
SAMPLING_INTERVAL_S: 0.005000
NDATA: 20200
DURATION_S: 101.000
STREAM: HNE
UNITS: cm/s^2
INSTRUMENT: sensor = FBA-3 [Kinemetrics] | digitizer = Etna [Kinemetrics]
INSTRUMENT_ANALOG/DIGITAL: D
INSTRUMENTAL_FREQUENCY_HZ: 206.000
INSTRUMENTAL_DAMPING: 0.700000
FULL_SCALE_G: 1.0
N_BIT_DIGITAL_CONVERTER: 18
PGA_CM/S^2: -6.250600
TIME_PGA_S: 26.885000
BASELINE_CORRECTION: BASELINE REMOVED
FILTER_TYPE: BUTTERWORTH
FILTER_ORDER: 2
LOW_CUT_FREQUENCY_HZ: 0.050
HIGH_CUT_FREQUENCY_HZ: 40.000
LATE/NORMAL_TRIGGERED: NT
DATABASE_VERSION: 0.5
HEADER_FORMAT: DYNA 1.2
DATA_TYPE: ACCELERATION
PROCESSING: manual (Paolucci et al., 2011)
DATA_TIMESTAMP_YYYYMMDD_HHMMSS: 20211011_160445.460
DATA_LICENSE: CC-BY3_0-IT (http://creativecommons.org/licenses/by/3.0/deed.en)
DATA_CITATION: Luzi L, Pacor F, Puglia R (2019). Italian Accelerometric Archive v 3.0 - Istituto Nazionale di Geofisica e Vulcanologia, Dipartimento della Protezione Civile Nazionale. doi: 10.13127/itaca.3.1
DATA_CREATOR: ITACA working group
ORIGINAL_DATA_MEDIATOR_CITATION: data obtained within the DPC-INGV data exchange agreements
ORIGINAL_DATA_MEDIATOR: Archive of Italian Department of Civil Protection
ORIGINAL_DATA_CREATOR_CITATION: Presidency Of Counsil Of Ministers-Civil Protection Department. (1972). Italian Strong Motion Network. Presidency of Counsil of Ministers - Civil Protection Department. https://doi.org/10.7914/SN/IT http://www.fdsn.org/networks/detail/IT/
ORIGINAL_DATA_CREATOR: network: IT (Italian Strong Motion Network (RAN)); owner: Presidency of Counsil of Ministers - Civil Protection Department (PCM - DPC)
USER1: 
USER2: 
USER3: 
USER4: 
USER5: 
[...]
0.961509
0.834400
0.649742
0.411956
0.139355
-0.134390
-0.373570
-0.553193
-0.660659
-0.695132
-0.671649
-0.619925
-0.569037
-0.532471
-0.508237
-0.485028
-0.446494
-0.380136
-0.290577
-0.200012
-0.126513
-0.067230
-0.011092
0.041512
0.077539
0.081859
0.048368
-0.015271
-0.094156
-0.177221
-0.260515
-0.338917
-0.399500
-0.430029
-0.431174
-0.414639
-0.391277
-0.366398
-0.346693
-0.342141
-0.355420
-0.374796
-0.379494
-0.349052
-0.268287
-0.130722
0.053827
0.258760
0.459913
0.654539
0.853410
1.058917
1.257564
1.426902
1.543226
1.591733
1.575521
1.503273
1.368013
1.153545
0.858311
0.500927
0.108001
-0.295766
-0.687646
-1.042904
-1.338709
-1.562237
-1.708498
-1.775439
-1.766742
-1.690246
-1.548976
-1.341379
-1.075690
-0.781902
-0.504444
-0.280719
-0.127449
-0.044430
-0.025342
-0.063948
-0.149405
-0.253934
-0.331499
-0.339166
-0.261284
-0.107597
0.107474
0.371339
0.660087
0.930880
1.136867
1.250766
1.270240
1.208366
1.087661
0.932101
0.757212
0.575106
0.408662
0.292051
0.254710
0.307266
0.437716
0.611217
0.777868
0.893085
0.936192
0.914144
0.850568
0.769192
0.684372
0.600726
0.515782
0.424566
0.324468
0.217294
0.109120
0.008571
-0.078045
-0.155199
-0.238441
-0.338403
-0.448982
-0.556264
-0.653544
-0.743822
-0.831255
-0.916669
-0.999557
-1.074630
-1.125719
-1.133711
-1.094650
-1.022954
-0.936494
-0.848074
-0.768992
-0.708271
-0.668626
-0.647891
-0.639525
-0.630054
-0.601055
-0.535979
-0.426339
-0.272731
-0.080443
0.142025
0.377006
0.593367
0.754436
0.834241
0.825983
0.738676
0.592735
0.414355
0.221123
0.013547
-0.211976
-0.450787
-0.694884
-0.933956
-1.146564
-1.303780
-1.384789
-1.382028
-1.294504
-1.123619
-0.874139
-0.554586
-0.176413
0.241332
0.663585
1.043415
1.342826
1.547322
1.658614
1.683088
1.631752
1.518837
1.354218
1.147936
0.923364
0.712833
0.536693
0.393766
0.275042
0.179139
0.108569
0.059284
0.022329
-0.009103
-0.039996
-0.076984
-0.127477
-0.198615
-0.299133
-0.435590
-0.602897
-0.784140
-0.961476
-1.123339
-1.261122
-1.366223
-1.434481
-1.465160
-1.453213
-1.388382
-1.260299
-1.066109
-0.817701
-0.540351
-0.264029
-0.012069
0.207592
0.397012
0.551659
0.653123
0.681013
0.631354
0.523649
0.396258
0.294900
0.250862
0.259546
0.280615
0.262692
0.173701
0.014517
-0.185119
-0.376902
-0.512956
-0.569395
-0.552622
-0.484337
-0.383667
-0.260160
-0.116645
0.047376
0.230676
0.416090
0.565398
0.641667
0.632791
0.549581
0.411892
0.240973
0.056876
-0.124003
-0.286609
-0.410547
-0.474518
-0.473101
-0.422919
-0.349519
-0.274554
-0.213751
-0.174490
-0.152241
-0.136351
-0.121027
-0.110559
-0.116697
-0.149429
-0.204641
-0.254824
-0.252538
-0.156648
0.032058
0.260397
0.449873
0.536175
0.492512
0.330804
0.089113
-0.185222
-0.452560
-0.695486
-0.921682
-1.148307
-1.378412
-1.589990
-1.744007
-1.801597
-1.742617
-1.575941
-1.331441
-1.042461
-0.731948
-0.406260
-0.064806
0.274648
0.561748
0.737290
0.776747
0.707274
0.588374
0.479245
0.408755
0.362324
0.294368
0.157373
-0.067846
-0.360979
-0.680180
-0.985722
-1.247326
-1.448777
-1.595763
-1.703919
-1.770298
-1.765794
-1.659847
-1.451026
-1.176515
-0.893809
-0.652062
-0.476037
-0.367030
-0.313592
-0.301011
-0.309359
-0.312833
-0.294874
-0.259077
-0.217482
-0.171937
-0.108254
-0.004383
0.159603
0.400158
0.725818
1.119570
1.531868
1.897601
2.157918
2.276868
2.251626
2.111291
1.901136
1.655423
1.380682
1.065890
0.702675
0.298496
-0.117516
-0.504936
-0.840332
-1.128805
-1.372134
-1.532825
-1.552781
-1.410312
-1.144368
-0.827062
-0.530898
-0.315603
-0.217869
-0.240687
-0.354609
-0.511860
-0.666784
-0.792724
-0.887537
-0.964232
-1.027275
-1.056443
-1.025496
-0.943138
-0.864626
-0.849305
-0.908703
-0.997385
-1.048450
-1.016536
-0.888399
-0.668103
-0.371436
-0.030842
0.305929
0.587144
0.781157
0.907732
1.039995
1.257479
1.594416
2.026882
2.496119
2.945801
3.340539
3.650685
3.834736
3.854861
3.713938
3.465014
3.173125
2.871212
2.559331
2.235914
1.906863
1.563689
1.175101
0.710250
0.163698
-0.446121
-1.091121
-1.735334
-2.332264
-2.831272
-3.186092
-3.361125
-3.339426
-3.131380
-2.775771
-2.324891
-1.822075
-1.292643
-0.751144
-0.212039
0.301346
0.754311
1.110766
1.346542
1.451614
1.424577
1.276149
1.040639
0.771156
0.516147
0.301275
0.126539
-0.027301
-0.189310
-0.384051
-0.612191
-0.845200
-1.045119
-1.186252
-1.254062
-1.236366
-1.133709
-0.976981
-0.828337
-0.760689
-0.818139
-0.980240
-1.167378
-1.291397
-1.312250
-1.254018
-1.172060
-1.105905
-1.052547
-0.976560
-0.849276
-0.676849
-0.486004
-0.288353
-0.071685
0.169221
0.404986
0.584295
0.666669
0.638533
0.512112
0.321132
0.119924
-0.018499
-0.028778
0.106153
0.347031
0.622841
0.859548
1.005538
1.042506
0.978918
0.837950
0.639711
0.387186
0.072132
-0.306954
-0.734190
-1.183227
-1.628674
-2.040682
-2.368993
-2.545855
-2.520523
-2.293861
-1.912265
-1.430912
-0.893901
-0.340908
0.192485
0.681734
1.109608
1.464461
1.743661
1.949583
2.083293
2.138604
2.098055
1.944948
1.687518
1.370768
1.060639
0.807685
0.621829
0.482717
0.370608
0.283202
0.223536
0.181447
0.137766
0.086871
0.050447
0.064258
0.150992
0.307985
0.513750
0.743824
0.987503
1.245358
1.501432
1.701692
1.776910
1.695551
1.485674
1.205738
0.906896
0.620983
0.362570
0.128472
-0.095311
-0.318564
-0.541313
-0.754266
-0.933537
-1.041118
-1.045494
-0.949630
-0.796735
-0.642151
-0.513299
-0.393775
-0.241235
-0.016482
0.293958
0.666217
1.046573
1.375691
1.603181
1.685465
1.591759
1.320500
0.906817
0.412187
-0.097853
-0.571141
-0.972305
-1.278465
-1.476299
-1.561846
-1.542332
-1.439883
-1.288221
-1.121435
-0.967277
-0.847981
-0.781646
-0.779572
-0.847154
-0.994945
-1.241140
-1.590522
-2.014598
-2.460490
-2.873507
-3.208696
-3.437473
-3.553995
-3.565493
-3.469224
-3.244835
-2.875321
-2.375964
-1.803920
-1.243084
-0.775194
-0.449705
-0.269141
-0.200989
-0.206523
-0.260169
-0.337413
-0.392154
-0.368712
-0.241031
-0.033019
0.195147
0.382993
0.509300
0.606829
0.737515
0.949780
1.250698
1.603720
1.949005
2.235622
2.441580
2.573546
2.656004
2.711020
2.742427
2.742861
2.707140
2.636768
2.549609
2.488546
2.501003
2.597789
2.737072
2.853086
2.895777
2.845802
2.704301
2.474189
2.153679
1.749603
1.294642
0.850344
0.488078
0.258993
0.178174
0.229788
0.377687
0.572730
0.765205
0.922187
1.032183
1.094979
1.113756
1.093326
1.037439
0.951089
0.852858
0.780702
0.772029
0.830653
0.921440
1.001229
1.044518
1.042966
0.998180
0.917125
0.805724
0.665432
0.500400
0.327540
0.169950
0.041395
-0.054004
-0.118723
-0.164660
-0.199615
-0.208094
-0.160897
-0.046271
0.111331
0.260987
0.350153
0.340373
0.207817
-0.054546
-0.425413
-0.852276
-1.267508
-1.612027
-1.851540
-1.975823
-1.986142
-1.883678
-1.668190
-1.349999
-0.961518
-0.553242
-0.182325
0.093388
0.217484
0.145747
-0.126653
-0.544116
-1.005395
-1.405852
-1.677292
-1.805105
-1.820466
-1.777009
-1.722606
-1.679829
-1.642359
-1.585653
-1.484288
-1.324073
-1.109100
-0.862648
-0.614972
-0.391348
-0.213656
-0.103195
-0.067953
-0.082425
-0.091650
-0.045781
0.068528
0.221448
0.359260
0.445497
0.486848
0.508422
0.511707
0.467816
0.342931
0.125008
-0.162879
-0.467195
-0.727233
-0.905423
-1.003954
-1.058012
-1.112547
-1.197705
-1.323464
-1.488327
-1.675917
-1.852882
-1.989642
-2.074225
-2.097112
-2.038635
-1.881455
-1.628299
-1.304051
-0.943784
-0.579903
-0.236064
0.074325
0.349056
0.600061
0.850301
1.110888
1.352762
1.511986
1.535483
1.425686
1.242262
1.061414
0.936084
0.887895
0.911520
0.976316
1.040912
1.077227
1.076311
1.033911
0.944183
0.810011
0.647357
0.475653
0.312142
0.172136
0.059702
-0.038189
-0.137924
-0.244579
-0.346598
-0.415232
-0.414777
-0.320001
-0.125143
0.159425
0.513427
0.905347
1.284337
1.586413
1.767633
1.833284
1.828822
1.802796
1.777140
1.745789
1.686020
1.561966
1.334906
0.991005
0.558079
0.089114
-0.362678
-0.748825
-1.026770
-1.168036
-1.155271
-0.978241
-0.645251
-0.188966
0.345875
0.914898
1.476181
1.986166
2.394476
2.648124
2.708883
2.569079
2.254582
1.816773
1.320250
0.831603
0.406302
0.076155
-0.151242
-0.283524
-0.334496
-0.321847
-0.280823
-0.275768
-0.374467
-0.601651
-0.923595
-1.275180
-1.598090
-1.861174
-2.058208
-2.195958
-2.284370
-2.333403
-2.354021
-2.353204
-2.321745
-2.233656
-2.064202
-1.804433
-1.464936
-1.078360
-0.694753
-0.374208
-0.179267
-0.145639
-0.249693
-0.420428
-0.582184
-0.678938
-0.676109
-0.560551
-0.341358
-0.053056
0.242227
0.473828
0.596468
0.601833
0.499604
0.300444
0.018949
-0.325861
-0.722085
-1.162120
-1.624889
-2.073329
-2.469326
-2.785978
-3.007321
-3.120078
-3.108223
-2.952230
-2.635660
-2.160426
-1.556227
-0.876750
-0.186223
0.454354
0.988288
1.364901
1.559142
1.589104
1.505418
1.361174
1.194957
1.037439
0.919258
0.866951
0.894169
0.993676
1.131901
1.256204
1.323857
1.332882
1.321911
1.338267
1.405209
1.514601
1.639507
1.751793
1.845094
1.943899
2.071681
2.207235
2.284937
2.237950
2.034618
1.688538
1.256793
0.821113
0.445876
0.142680
-0.123487
-0.391052
-0.663028
-0.901454
-1.043129
-1.021205
-0.798358
-0.394990
0.125627
0.697851
1.268950
1.796198
2.253484
2.636203
2.950518
3.195324
3.356394
3.424137
3.416094
3.374521
3.341685
3.335798
3.339953
3.315934
3.240807
3.133530
3.049479
3.049529
3.157866
3.333519
3.484145
3.514859
3.373819
3.066496
2.632998
2.113114
1.534717
0.920867
0.290095
-0.349926
-0.995755
-1.626062
-2.196546
-2.663900
-3.005147
-3.219849
-3.329688
-3.370400
-3.371144
-3.341973
-3.281223
-3.187508
-3.061927
-2.903961
-2.714111
-2.499960
-2.269768
-2.020118
-1.737978
-1.423779
-1.113860
-0.868615
-0.733334
-0.711363
-0.768334
-0.857667
-0.946342
-1.023958
-1.092695
-1.151558
-1.194003
-1.222685
-1.257181
-1.314914
-1.387943
-1.440928
-1.421197
-1.276987
-0.987657
-0.579307
-0.101225
0.404992
0.901552
1.338209
1.663845
1.852118
1.905874
1.837354
1.653035
1.359401
0.972512
0.517331
0.024345
-0.470547
-0.930755
-1.331757
-1.665462
-1.928739
-2.116193
-2.225346
-2.257538
-2.213751
-2.100002
-1.933890
-1.735635
-1.513746
-1.263982
-0.978359
-0.651246
-0.287007
0.084758
0.407890
0.630271
0.739221
0.765532
0.759718
0.764642
0.799281
0.858508
0.923841
0.973469
0.985312
0.936165
0.805319
0.588133
0.309447
0.015927
-0.251760
-0.479671
-0.678413
-0.864688
-1.044041
-1.209689
-1.351519
-1.460608
-1.524987
-1.521811
-1.422439
-1.219048
-0.944077
-0.652136
-0.386313
-0.168258
-0.011169
0.071019
0.069290
-0.010344
-0.143271
-0.293132
-0.427316
-0.531293
-0.607160
-0.652564
-0.644285
-0.553558
-0.376196
-0.139872
0.113243
0.343156
0.516824
0.609297
0.605549
0.499543
0.296448
0.023644
-0.264468
-0.507972
-0.677708
-0.785893
-0.859606
-0.913371
-0.947003
-0.955458
-0.935569
-0.889107
-0.820663
-0.730524
-0.608990
-0.441629
-0.223478
0.034906
0.310985
0.572062
0.780564
0.911030
0.967301
0.977604
0.969258
0.954043
0.936254
0.922242
0.918202
0.928226
0.958526
1.014135
1.089711
1.171195
1.247496
1.316147
1.371012
1.386380
1.324662
1.157800
0.875380
0.486970
0.027294
-0.451012
-0.892639
-1.247346
-1.478473
-1.577801
-1.569957
-1.493033
-1.368527
-1.192902
-0.960279
-0.682156
-0.381534
-0.080909
0.200794
0.450484
0.665055
0.851043
1.019142
1.176069
1.318840
1.433576
1.498553
1.497064
1.429369
1.306563
1.139653
0.942179
0.736368
0.546305
0.386327
0.263841
0.191399
0.185877
0.253693
0.381650
0.541249
0.697375
0.815133
0.868384
0.847232
0.753820
0.591343
0.362712
0.078117
-0.243453
-0.579523
-0.906269
-1.201627
-1.456211
-1.674714
-1.855523
-1.977419
-2.019081
-1.989199
-1.928902
-1.882056
-1.867947
-1.882544
-1.913688
-1.949629
-1.981719
-2.000035
-1.980278
-1.881060
-1.666148
-1.330541
-0.900762
-0.416531
0.080771
0.552995
0.972687
1.324674
1.599081
1.793476
1.927118
2.041620
2.176529
2.340843
2.508413
2.640598
2.706956
2.687323
2.572600
2.371480
2.105247
1.789190
1.427640
1.025368
0.591449
0.139607
-0.303691
-0.701206
-1.024895
-1.267951
-1.433009
-1.517277
-1.517690
-1.449435
-1.350685
-1.261443
-1.197335
-1.143893
-1.077266
-0.999696
-0.954274
-0.992364
-1.126340
-1.316781
-1.500124
-1.627947
-1.681363
-1.652030
-1.522870
-1.273072
-0.891808
-0.383430
0.233122
0.923494
1.638219
2.323100
2.932744
3.436859
3.824045
4.101708
4.284663
4.382143
4.398474
4.339307
4.210303
4.017444
3.773915
3.499191
3.205872
2.889463
2.534583
2.132275
1.692449
1.243961
0.825927
0.474362
0.208818
0.029099
-0.075792
-0.119857
-0.122430
-0.110531
-0.112307
-0.150745
-0.241828
-0.391086
-0.591987
-0.830806
-1.097129
-1.392552
-1.723397
-2.084078
-2.458201
-2.837308
-3.227425
-3.638282
-4.074923
-4.531869
-4.986053
-5.401609
-5.746993
-6.005605
-6.172339
-6.249338
-6.250600
-6.203370
-6.131420
-6.035581
-5.898370
-5.704314
-5.448750
-5.132740
-4.762240
-4.352117
-3.918683
-3.470134
-3.015659
-2.579470
-2.193446
-1.876781
-1.628760
-1.433414
-1.267567
-1.109880
-0.940600
-0.740282
-0.498900
-0.225032
0.051441
0.286196
0.443299
0.520602
0.549168
0.567461
0.598292
0.644204
0.692985
0.725084
0.730297
0.722150
0.727073
0.758215
0.807148
0.862278
0.919728
0.972980
1.010195
1.025352
1.018714
0.990540
0.952404
0.935099
0.965859
1.042091
1.133236
1.202552
1.225340
1.194166
1.115797
1.007334
0.892099
0.794279
0.733782
0.720770
0.751773
0.807794
0.859028
0.879924
0.860507
0.801613
0.705384
0.577913
0.431909
0.279079
0.128554
-0.013260
-0.151769
-0.302776
-0.472547
-0.645087
-0.793332
-0.899719
-0.967381
-1.013892
-1.056135
-1.103219
-1.158147
-1.218959
-1.279878
-1.339511
-1.399307
-1.449359
-1.472389
-1.454390
-1.388094
-1.276648
-1.125208
-0.934460
-0.707547
-0.454073
-0.188586
0.071659
0.313490
0.536600
0.748481
0.954484
1.155800
1.344210
1.494730
1.578720
1.596249
1.579139
1.560924
1.560808
1.586164
1.629693
1.662299
1.644981
1.549687
1.373093
1.143190
0.903100
0.688830
0.521415
0.406103
0.336579
0.299868
0.281391
0.268551
0.250352
0.216287
0.157747
0.074261
-0.021494
-0.104169
-0.140603
-0.100060
0.031701
0.247214
0.523976
0.823567
1.087874
1.255827
1.288175
1.173385
0.921802
0.563384
0.140657
-0.307652
-0.757564
-1.193353
-1.592783
-1.924624
-2.161733
-2.292791
-2.328012
-2.293974
-2.217293
-2.119598
-2.012746
-1.893623
-1.760134
-1.620380
-1.480381
-1.338361
-1.197786
-1.071579
-0.967699
-0.882695
-0.804885
-0.719923
-0.618029
-0.498333
-0.364620
-0.216109
-0.046536
0.147340
0.351700
0.539518
0.694427
0.816623
0.912530
0.993456
1.080614
1.199587
1.370126
1.601356
1.888152
2.214807
2.558603
2.891868
3.193031
3.451313
3.661104
3.816983
3.910308
3.930854
3.870232
3.720968
3.480889
3.162126
2.795062
2.426996
2.106746
1.861967
1.694173
1.598349
1.582662
1.658763
1.820863
2.040530
2.280248
2.514286
2.734947
2.947479
3.157777
3.357623
3.525811
3.642826
3.701257
3.701357
3.642557
3.522047
3.337056
3.084674
2.763662
2.382302
1.959555
1.514570
1.061545
0.622646
0.226216
-0.115492
-0.409430
-0.673069
-0.921501
-1.155899
-1.368266
-1.547755
-1.681947
-1.754639
-1.748907
-1.655466
-1.477850
-1.240940
-0.988894
-0.770094
-0.622683
-0.560815
-0.575899
-0.651172
-0.770166
-0.921610
-1.103385
-1.317031
-1.557553
-1.811078
-2.061938
-2.297963
-2.505633
-2.668089
-2.771348
-2.809388
-2.788473
-2.729459
-2.661016
-2.600256
-2.542049
-2.476105
-2.407330
-2.352910
-2.322094
-2.308820
-2.305411
-2.309539
-2.322463
-2.350609
-2.399456
-2.461290
-2.512122
-2.523016
-2.476989
-2.367770
-2.185472
-1.918622
-1.565756
-1.139698
-0.665189
-0.175139
0.291072
0.694561
1.007736
1.215932
1.308928
1.280791
1.143258
0.924526
0.650960
0.340421
0.009189
-0.322259
-0.627721
-0.878996
-1.057119
-1.163934
-1.219967
-1.245749
-1.248312
-1.223509
-1.159237
-1.040255
-0.860292
-0.632653
-0.387663
-0.155871
0.047501
0.228279
0.408817
0.617703
0.878469
1.193582
1.538311
1.878334
2.191397
2.471633
2.717982
2.922593
3.072944
3.160767
3.185080
3.155670
3.094052
3.018689
2.928536
2.806837
2.640605
2.432582
2.200371
1.973409
1.786498
1.666395
1.616440
1.614296
1.629699
1.640991
1.633102
1.591564
1.507814
1.383798
1.226515
1.043714
0.842392
0.620596
0.363839
0.058250
-0.295851
-0.684748
-1.087298
-1.471933
-1.797202
-2.029795
-2.157920
-2.185051
-2.118935
-1.972958
-1.777561
-1.580762
-1.431871
-1.363909
-1.387464
-1.492933
-1.652637
-1.828942
-1.992560
-2.133782
-2.256028
-2.363918
-2.454282
-2.510501
-2.505343
-2.414154
-2.229918
-1.969689
-1.674428
-1.402125
-1.206469
-1.112182
-1.108989
-1.171326
-1.284151
-1.448038
-1.663425
-1.915037
-2.173572
-2.406537
-2.584833
-2.688900
-2.708331
-2.629035
-2.431024
-2.108306
-1.679896
-1.178640
-0.638906
-0.094669
0.418320
0.874017
1.262284
1.574444
1.800845
1.940842
2.008645
2.021157
1.977198
1.867207
1.694756
1.477894
1.238283
0.997122
0.782366
0.628755
0.567348
0.617143
0.783623
1.055479
1.402726
1.789965
2.193884
2.606135
3.021357
3.433374
3.841075
4.247004
4.650950
5.042413
5.400905
5.698495
5.901588
5.988039
5.960915
5.844429
5.677906
5.508306
5.374984
5.293402
5.250070
5.216667
5.169823
5.095394
4.985283
4.837809
4.655634
4.439560
4.186576
3.898055
3.584566
3.259951
2.932529
2.602841
2.269859
1.932266
1.590694
1.257496
0.955990
0.705015
0.505938
0.346350
0.210174
0.081521
-0.052865
-0.198190
-0.350478
-0.505408
-0.661657
-0.813371
-0.950812
-1.074171
-1.198282
-1.336485
-1.485545
-1.627402
-1.742820
-1.820413
-1.853168
-1.838640
-1.783716
-1.704537
-1.624619
-1.575051
-1.590251
-1.691360
-1.872404
-2.102264
-2.337616
-2.535472
-2.658425
-2.686148
-2.628603
-2.514519
-2.365823
-2.187902
-1.973635
-1.711124
-1.396407
-1.043287
-0.680366
-0.335995
-0.026153
0.242476
0.463594
0.632007
0.753006
0.838477
0.894468
0.925890
0.941375
0.945473
0.939149
0.927447
0.918505
0.914512
0.906605
0.881078
0.830199
0.757507
0.672262
0.578183
0.470574
0.340072
0.174271
-0.038273
-0.301751
-0.611436
-0.954230
-1.305902
-1.635238
-1.920150
-2.156502
-2.353770
-2.525164
-2.676759
-2.806176
-2.908909
-2.980773
-3.020009
-3.031792
-3.022561
-2.989227
-2.922701
-2.816728
-2.669021
-2.482709
-2.268893
-2.039351
-1.794322
-1.522344
-1.213001
-0.869214
-0.507012
-0.147307
