EVENT_NAME: L_AQUILA
EVENT_ID: IT-2009-0009
EVENT_DATE_YYYYMMDD: 20090406
EVENT_TIME_HHMMSS: 013240
EVENT_LATITUDE_DEGREE: 42.3420
EVENT_LONGITUDE_DEGREE: 13.3800
EVENT_DEPTH_KM: 8.3
HYPOCENTER_REFERENCE: INGV-CNT_Seismic_Bulletin
MAGNITUDE_W: 6.1
MAGNITUDE_W_REFERENCE: INGV-CNT_Seismic_Bulletin
MAGNITUDE_L: 
MAGNITUDE_L_REFERENCE: 
FOCAL_MECHANISM: Normal faulting
NETWORK: IT
STATION_CODE: SPO
STATION_NAME: 
STATION_LATITUDE_DEGREE: 42.733585
STATION_LONGITUDE_DEGREE: 12.740602
STATION_ELEVATION_M: 476
LOCATION: 
SENSOR_DEPTH_M: 0.0
VS30_M/S: 
SITE_CLASSIFICATION_EC8: A (inferred from geology)
MORPHOLOGIC_CLASSIFICATION: 
EPICENTRAL_DISTANCE_KM: 68.2
EARTHQUAKE_BACKAZIMUTH_DEGREE: 309.8
DATE_TIME_FIRST_SAMPLE_YYYYMMDD_HHMMSS: 20090406_013241.000
DATE_TIME_FIRST_SAMPLE_PRECISION: seconds
SAMPLING_INTERVAL_S: 0.005000
NDATA: 20200
DURATION_S: 101.000
STREAM: HNN
UNITS: cm/s^2
INSTRUMENT: sensor = FBA-3 [Kinemetrics] | digitizer = Etna [Kinemetrics]
INSTRUMENT_ANALOG/DIGITAL: D
INSTRUMENTAL_FREQUENCY_HZ: 200.000
INSTRUMENTAL_DAMPING: 0.700000
FULL_SCALE_G: 1.0
N_BIT_DIGITAL_CONVERTER: 18
PGA_CM/S^2: 9.584828
TIME_PGA_S: 26.670000
BASELINE_CORRECTION: BASELINE NOT REMOVED
FILTER_TYPE: 
FILTER_ORDER: 
LOW_CUT_FREQUENCY_HZ: 
HIGH_CUT_FREQUENCY_HZ: 
LATE/NORMAL_TRIGGERED: NT
DATABASE_VERSION: 0.5
HEADER_FORMAT: DYNA 1.2
DATA_TYPE: ACCELERATION
PROCESSING: converted to cm/s^2
DATA_TIMESTAMP_YYYYMMDD_HHMMSS: 20211011_160445.869
DATA_LICENSE: CC-BY3_0-IT (http://creativecommons.org/licenses/by/3.0/deed.en)
DATA_CITATION: Luzi L, Pacor F, Puglia R (2019). Italian Accelerometric Archive v 3.0 - Istituto Nazionale di Geofisica e Vulcanologia, Dipartimento della Protezione Civile Nazionale. doi: 10.13127/itaca.3.1
DATA_CREATOR: ITACA working group
ORIGINAL_DATA_MEDIATOR_CITATION: data obtained within the DPC-INGV data exchange agreements
ORIGINAL_DATA_MEDIATOR: Archive of Italian Department of Civil Protection
ORIGINAL_DATA_CREATOR_CITATION: Presidency Of Counsil Of Ministers-Civil Protection Department. (1972). Italian Strong Motion Network. Presidency of Counsil of Ministers - Civil Protection Department. https://doi.org/10.7914/SN/IT http://www.fdsn.org/networks/detail/IT/
ORIGINAL_DATA_CREATOR: network: IT (Italian Strong Motion Network (RAN)); owner: Presidency of Counsil of Ministers - Civil Protection Department (PCM - DPC)
USER1: 
USER2: 
USER3: 
USER4: 
USER5: 
[...]
0.690891
0.623014
0.513241
0.369764
0.182284
-0.045687
-0.280681
-0.535569
-0.771967
-0.955936
-1.085369
-1.150671
-1.100583
-0.946105
-0.717665
-0.436095
-0.159673
0.102237
0.307739
0.440215
0.473919
0.421491
0.324591
0.165900
-0.004728
-0.172312
-0.343642
-0.528313
-0.730070
-0.929955
-1.120946
-1.281743
-1.407900
-1.448626
-1.400644
-1.299999
-1.144351
-0.941892
-0.677173
-0.350430
0.016104
0.362040
0.635185
0.797153
0.857539
0.867136
0.817516
0.737702
0.663740
0.603353
0.548350
0.498496
0.472047
0.470643
0.465260
0.395979
0.280120
0.141793
-0.004259
-0.103968
-0.117309
-0.036325
0.101535
0.293227
0.526349
0.776088
1.015996
1.163920
1.228520
1.230158
1.162984
1.043849
0.850752
0.588608
0.286908
0.021019
-0.132522
-0.175121
-0.141885
-0.068157
0.024764
0.121664
0.210605
0.241501
0.183689
0.066660
-0.112628
-0.307363
-0.432818
-0.493204
-0.498120
-0.456926
-0.399348
-0.350898
-0.349025
-0.416200
-0.547272
-0.713686
-0.875654
-1.011875
-1.122584
-1.203802
-1.283615
-1.356173
-1.394793
-1.417028
-1.424050
-1.425220
-1.421943
-1.435050
-1.450498
-1.420773
-1.353130
-1.232591
-1.054240
-0.813863
-0.497886
-0.130182
0.240331
0.579713
0.897563
1.163452
1.346017
1.423490
1.380189
1.253096
1.087384
0.915586
0.740745
0.572224
0.368594
0.096152
-0.201101
-0.493438
-0.783669
-1.054005
-1.241017
-1.320128
-1.272381
-1.101285
-0.829545
-0.483374
-0.087349
0.334188
0.727403
1.083638
1.373167
1.583585
1.714189
1.751638
1.699677
1.556434
1.369422
1.155494
0.927522
0.686444
0.425236
0.160517
-0.147034
-0.471905
-0.793032
-1.109009
-1.402516
-1.681747
-1.912527
-2.075431
-2.157585
-2.157117
-2.078006
-1.956062
-1.822883
-1.669576
-1.478819
-1.215271
-0.920359
-0.651193
-0.429073
-0.246040
-0.090158
0.029679
0.137111
0.226521
0.294866
0.367658
0.444663
0.504815
0.538519
0.533370
0.485389
0.419384
0.317803
0.160283
-0.040772
-0.237146
-0.377581
-0.452947
-0.426030
-0.280681
-0.025324
0.316633
0.689720
1.085745
1.449470
1.713486
1.886923
1.959714
1.917350
1.798449
1.660121
1.517112
1.361230
1.198794
1.026763
0.845134
0.673570
0.521667
0.436002
0.456834
0.550222
0.688784
0.840219
0.988845
1.109385
1.138642
1.067957
0.929161
0.764385
0.611077
0.491240
0.380531
0.214350
-0.024388
-0.298235
-0.573018
-0.831651
-1.044643
-1.211994
-1.318022
-1.310532
-1.184141
-0.944935
-0.613510
-0.221698
0.199839
0.592353
0.908330
1.127407
1.266203
1.366848
1.455087
1.535603
1.573520
1.551285
1.459768
1.266437
1.005932
0.718509
0.449344
0.244778
0.105982
0.067830
0.111599
0.166134
0.217393
0.269822
0.321783
0.395276
0.503177
0.625589
0.773513
0.914883
1.000080
1.052509
1.049466
0.981121
0.837645
0.608737
0.363679
0.130558
-0.037729
-0.096244
-0.054113
0.072746
0.237756
0.429449
0.626291
0.773279
0.838815
0.839283
0.802302
0.700721
0.520497
0.289249
0.005572
-0.330301
-0.694260
-1.040898
-1.286658
-1.399006
-1.377707
-1.214803
-0.935573
-0.569975
-0.166929
0.234713
0.581118
0.796450
0.888435
0.901308
0.876264
0.867838
0.889137
0.913479
0.925416
0.914181
0.893350
0.885392
0.874625
0.820324
0.703764
0.536881
0.350571
0.166134
-0.014324
-0.204612
-0.436095
-0.673195
-0.882910
-1.043707
-1.140607
-1.192801
-1.211292
-1.208717
-1.179694
-1.153012
-1.149033
-1.167523
-1.197951
-1.189056
-1.116265
-0.999002
-0.860674
-0.747157
-0.707367
-0.722815
-0.761200
-0.780861
-0.737092
-0.603211
-0.382261
-0.102095
0.173858
0.413299
0.658123
0.864093
0.983462
1.023018
0.990718
0.905287
0.803238
0.740511
0.742383
0.813303
0.914415
1.041274
1.207221
1.414127
1.656610
1.863985
1.969779
1.892072
1.611905
1.133258
0.482814
-0.249317
-1.030834
-1.755709
-2.318850
-2.688661
-2.861629
-2.857650
-2.686788
-2.397494
-2.010597
-1.564718
-1.127967
-0.753944
-0.515908
-0.442648
-0.515206
-0.727964
-1.023578
-1.327618
-1.620424
-1.830607
-1.918144
-1.830607
-1.553015
-1.187886
-0.731943
-0.186590
0.397617
0.946715
1.398211
1.775980
2.048890
2.193538
2.213433
2.098276
1.896051
1.637418
1.317930
0.981356
0.641739
0.299781
-0.029069
-0.348557
-0.594785
-0.771498
-0.886186
-0.899762
-0.842886
-0.670386
-0.377112
0.034126
0.575500
1.093001
1.520389
1.863985
2.081424
2.179494
2.131512
2.017293
1.880837
1.706465
1.561115
1.394232
1.175623
0.897797
0.601481
0.340975
0.105280
-0.108415
-0.309001
-0.437031
-0.510759
-0.561315
-0.556166
-0.506078
-0.424860
-0.398880
-0.487587
-0.665237
-0.866994
-0.999470
-1.014450
-0.876356
-0.629425
-0.363771
-0.124799
0.023828
0.052149
-0.028835
-0.243466
-0.558974
-0.878228
-1.189291
-1.398538
-1.406730
-1.322469
-1.251082
-1.255295
-1.363897
-1.487479
-1.588826
-1.639616
-1.578762
-1.520949
-1.510651
-1.467116
-1.385898
-1.240315
-1.075773
-0.961787
-0.880803
-0.800522
-0.729836
-0.679983
-0.627319
-0.582614
-0.536739
-0.461607
-0.267105
0.115110
0.601949
1.040572
1.383934
1.710444
1.996930
2.239413
2.393422
2.411211
2.379145
2.327652
2.322035
2.389444
2.458958
2.514430
2.526835
2.454043
2.273819
2.006526
1.681655
1.291481
0.877902
0.449578
0.029211
-0.249785
-0.366814
-0.373835
-0.293086
-0.264063
-0.323747
-0.430945
-0.662194
-0.962489
-1.335342
-1.787307
-2.201822
-2.595974
-2.901185
-3.084217
-3.153966
-3.094984
-2.981232
-2.784390
-2.523182
-2.207673
-1.829203
-1.457754
-1.119776
-0.859504
-0.762838
-0.826502
-0.961553
-1.110179
-1.209653
-1.271445
-1.309596
-1.272615
-1.208249
-1.098710
-0.948446
-0.800755
-0.613510
-0.416200
-0.231529
-0.069093
0.067830
0.201711
0.392936
0.669357
0.984398
1.264096
1.445725
1.546369
1.539816
1.456726
1.374338
1.309738
1.320504
1.397977
1.459300
1.463981
1.366146
1.158069
0.888201
0.597268
0.304930
-0.002855
-0.273893
-0.480565
-0.626851
-0.715090
-0.830715
-0.991278
-1.199121
-1.402282
-1.496139
-1.479755
-1.310064
-1.024046
-0.723985
-0.415732
-0.152885
0.076491
0.330443
0.587437
0.839751
1.030274
1.186156
1.394232
1.629694
1.919456
2.261414
2.631459
3.004546
3.358206
3.678396
3.853705
3.855812
3.700164
3.408996
3.016716
2.526133
1.937011
1.247244
0.510199
-0.224273
-0.941892
-1.617381
-2.189651
-2.646062
-2.952443
-3.093111
-3.124943
-3.055428
-2.957358
-2.868417
-2.786263
-2.698023
-2.551971
-2.388131
-2.235526
-2.151968
-2.182395
-2.301998
-2.515224
-2.789773
-3.082813
-3.351744
-3.549991
-3.637528
-3.624889
-3.565439
-3.453325
-3.304465
-3.117921
-2.845713
-2.545886
-2.271571
-2.008959
-1.771859
-1.563080
-1.359918
-1.168225
-0.993151
-0.800522
-0.622170
-0.489694
-0.398880
-0.339897
-0.299405
-0.276000
-0.224273
-0.155460
-0.096478
-0.075647
-0.057390
-0.001216
0.018678
0.044191
0.081640
0.146942
0.366955
0.800195
1.454619
2.298161
3.178684
3.955754
4.623519
5.120188
5.418845
5.511532
5.340436
4.921474
4.304733
3.567687
2.829003
2.158195
1.543561
1.046189
0.736766
0.662570
0.866668
1.266203
1.746722
2.179260
2.436957
2.490790
2.386401
2.207581
2.005824
1.820919
1.666909
1.524134
1.395402
1.236946
1.014826
0.681997
0.238224
-0.216549
-0.647916
-0.984491
-1.215739
-1.379579
-1.438561
-1.424284
-1.360152
-1.245698
-1.091923
-0.940722
-0.865589
-0.888761
-1.009066
-1.204270
-1.408602
-1.533823
-1.509715
-1.331597
-1.060793
-0.747391
-0.429307
-0.185888
-0.021111
0.070873
0.049106
-0.057858
-0.283255
-0.613744
-0.935338
-1.223931
-1.435050
-1.531950
-1.532418
-1.462435
-1.413985
-1.419135
-1.451434
-1.508076
-1.524928
-1.473436
-1.336746
-1.099881
-0.812224
-0.495545
-0.120352
0.322485
0.777492
1.182645
1.463513
1.603011
1.607692
1.518985
1.414829
1.262458
1.033082
0.793876
0.630270
0.518390
0.453557
0.432491
0.389191
0.363913
0.350338
0.365785
0.464557
0.597970
0.758767
0.918862
1.065850
1.238350
1.328930
1.254968
1.101661
0.898733
0.644547
0.402064
0.253438
0.261630
0.429449
0.682933
0.919096
1.100023
1.209561
1.203710
1.038466
0.720382
0.293930
-0.129012
-0.457394
-0.712282
-0.910763
-1.066410
-1.116031
-0.983320
-0.712516
-0.369856
0.009784
0.392000
0.728106
0.979483
1.133727
1.236478
1.316993
1.364507
1.363805
1.320270
1.197156
0.936885
0.579713
0.103173
-0.473778
-1.117435
-1.835756
-2.544481
-3.220438
-3.764153
-4.098387
-4.201372
-4.072173
-3.773281
-3.288315
-2.683511
-2.007788
-1.332533
-0.734283
-0.215847
0.164730
0.409086
0.558648
0.620673
0.553265
0.327400
-0.033048
-0.401688
-0.669683
-0.770328
-0.615616
-0.239253
0.280120
0.878838
1.499792
2.046081
2.397635
2.501323
2.308460
1.877560
1.289609
0.553499
-0.239721
-1.052367
-1.862673
-2.637636
-3.374916
-4.003360
-4.473346
-4.750704
-4.832624
-4.757960
-4.572821
-4.250758
-3.755493
-3.160520
-2.528097
-1.921889
-1.378877
-0.886420
-0.427434
-0.005429
0.393404
0.777258
1.084107
1.301312
1.452513
1.543327
1.586627
1.627119
1.648185
1.566966
1.371997
1.117577
0.877902
0.692997
0.543669
0.335358
0.034360
-0.284191
-0.591040
-0.838673
-0.942360
-0.920827
-0.844290
-0.704792
-0.531824
-0.399114
-0.324215
-0.360494
-0.521994
-0.821119
-1.277764
-1.769284
-2.236462
-2.633189
-2.900950
-3.038810
-3.020086
-2.830031
-2.484563
-2.078239
-1.656000
-1.283850
-0.996193
-0.753008
-0.591508
-0.501865
-0.487821
-0.475182
-0.375708
-0.221465
0.029913
0.351976
0.702593
1.073809
1.406169
1.736892
2.115362
2.511153
2.824322
3.006418
3.112446
3.210984
3.340183
3.512450
3.716547
3.927199
4.083549
4.149085
4.188641
4.176938
4.053122
3.806894
3.438254
2.949308
2.308694
1.534433
0.730680
0.003231
-0.603211
-1.075071
-1.400176
-1.609891
-1.762496
-1.853311
-1.890994
-1.874610
-1.793860
-1.628850
-1.325746
-0.934870
-0.544463
-0.196420
0.057064
0.205222
0.306803
0.339571
0.309611
0.253204
0.162858
0.098726
0.097556
0.192349
0.388021
0.657420
0.993526
1.338059
1.655206
1.923436
2.079786
2.086808
1.955033
1.730338
1.477791
1.254734
1.084341
0.965674
0.889137
0.811430
0.701657
0.533838
0.296270
0.061745
-0.175589
-0.459500
-0.729836
-0.979107
-1.175715
-1.299999
-1.419837
-1.569867
-1.767646
-1.969637
-2.112412
-2.171160
-2.148457
-2.050621
-1.848863
-1.533589
-1.104094
-0.599700
-0.046858
0.587905
1.247244
1.886923
2.489854
3.055102
3.605604
4.133169
4.616029
4.986073
5.197193
5.199768
5.064951
4.861789
4.544173
4.149553
3.700632
3.203026
2.657907
2.110213
1.634609
1.241159
0.945779
0.763917
0.661399
0.597736
0.571990
0.576905
0.582756
0.574564
0.526114
0.392936
0.181348
-0.055284
-0.300810
-0.566932
-0.823225
-1.071794
-1.315915
-1.513460
-1.639148
-1.671214
-1.625339
-1.534759
-1.420539
-1.300234
-1.188354
-1.143883
-1.192567
-1.312405
-1.514396
-1.745410
-1.956062
-2.138392
-2.277422
-2.375258
-2.368705
-2.242314
-2.002639
-1.647575
-1.199823
-0.712282
-0.268041
0.137814
0.472983
0.709615
0.814005
0.751043
0.593523
0.354785
0.060341
-0.241359
-0.560613
-0.828374
-0.987767
-1.053771
-1.022408
-0.968809
-0.935807
-0.885250
-0.780626
-0.617489
-0.461373
-0.352770
-0.344578
-0.452244
-0.649087
-0.889229
-1.111583
-1.314980
-1.501757
-1.654830
-1.752198
-1.759454
-1.664192
-1.476245
-1.182503
-0.837737
-0.483842
-0.132757
0.173156
0.447939
0.658825
0.800663
0.900372
0.980185
1.074744
1.197390
1.393062
1.661292
2.022676
2.484470
2.986991
3.491853
3.916198
4.226558
4.454529
4.612284
4.727440
4.786189
4.785018
4.730951
4.605496
4.445636
4.256517
4.056398
3.856280
3.626669
3.412741
3.211686
3.000099
2.762765
2.458256
2.065508
1.610735
1.178432
0.806047
0.473218
0.149985
-0.146566
-0.363537
-0.470267
-0.445925
-0.354409
-0.233635
-0.090158
0.007210
0.065724
0.074384
-0.013855
-0.218421
-0.531590
-0.906081
-1.296957
-1.656469
-1.980872
-2.224057
-2.353491
-2.395621
-2.368705
-2.297317
-2.210716
-2.173267
-2.187076
-2.257761
-2.367534
-2.465136
-2.537460
-2.554546
-2.533481
-2.495797
-2.461625
-2.433772
-2.427453
-2.459285
-2.496500
-2.536757
-2.554312
-2.572100
-2.584271
-2.573504
-2.559695
-2.523884
-2.524586
-2.575143
-2.643956
-2.687490
-2.669000
-2.565781
-2.347873
-2.034939
-1.617615
-1.110413
-0.554293
-0.019005
0.435534
0.803940
1.063509
1.198560
1.210264
1.099320
0.893350
0.605460
0.241501
-0.119649
-0.452479
-0.763306
-1.006960
-1.114392
-1.039962
-0.785308
-0.388113
0.091002
0.623716
1.117811
1.535837
1.831685
1.938181
1.887391
1.695932
1.460470
1.198092
0.905053
0.631206
0.357125
0.151389
0.029679
-0.046155
-0.060433
-0.077051
-0.140480
-0.286532
-0.528782
-0.809650
-1.147394
-1.472500
-1.694854
-1.854247
-1.933358
-1.922592
-1.829437
-1.650851
-1.437625
-1.207079
-0.980511
-0.777116
-0.602977
-0.522462
-0.519653
-0.551953
-0.593381
-0.561081
-0.477289
-0.378516
-0.274361
-0.132288
0.129387
0.532902
1.029805
1.547072
2.087978
2.671014
3.309756
4.009587
4.754357
5.497956
6.226108
6.943493
7.624366
8.254213
8.770543
9.163057
9.447671
9.584828
9.563997
9.389391
9.048838
8.571127
7.994878
7.368541
6.756482
6.199660
5.707438
5.251260
4.810998
4.375652
3.951307
3.558091
3.148959
2.666099
2.116065
1.488089
0.833197
0.183455
-0.492268
-1.163544
-1.841608
-2.496500
-3.107155
-3.689021
-4.219160
-4.718404
-5.160772
-5.485410
-5.638951
-5.579267
-5.323208
-4.919459
-4.456728
-4.018807
-3.625825
-3.294635
-3.019617
-2.814817
-2.709726
-2.712066
-2.791178
-2.920611
-3.128688
-3.398790
-3.728811
-4.080832
-4.450409
-4.803133
-5.099917
-5.363232
-5.551414
-5.693486
-5.727425
-5.647143
-5.514432
-5.277567
-4.979846
-4.642804
-4.246545
-3.810028
-3.331382
-2.740387
-2.038450
-1.274253
-0.398645
0.530795
1.449704
2.306353
3.082019
3.772955
4.324160
4.831128
5.276538
5.640029
5.934473
6.079354
6.119846
6.083802
5.963262
5.777655
5.583621
5.406674
5.217088
5.041077
4.856640
4.644116
4.363247
4.017545
3.671140
3.310458
2.978097
2.635906
2.211794
1.702018
1.099320
0.445833
-0.212570
-0.821587
-1.387303
-1.914868
-2.393515
-2.812477
-3.167776
-3.512542
-3.827583
-4.100259
-4.312315
-4.450643
-4.436833
-4.258482
-3.964974
-3.509733
-3.002531
-2.512650
-2.089240
-1.746815
-1.456584
-1.225335
-1.015854
-0.859972
-0.749965
-0.622170
-0.499992
-0.379453
-0.164120
0.077193
0.338869
0.713360
1.132088
1.574456
2.054039
2.528707
2.962649
3.418593
3.865408
4.250432
4.623051
4.869513
4.938560
4.840490
4.592623
4.164065
3.525791
2.792256
1.977503
1.159239
0.362508
-0.407071
-1.045813
-1.533823
-1.883738
-2.114050
-2.182161
-2.161096
-2.129732
-2.117327
-2.168820
-2.297083
-2.520842
-2.784390
-3.103644
-3.420323
-3.698383
-3.979486
-4.198095
-4.369659
-4.493710
-4.582417
-4.646315
-4.641165
-4.610738
-4.524137
-4.386979
-4.224075
-4.019276
-3.867138
-3.803943
-3.847712
-3.983699
-4.217990
-4.482943
-4.763109
-5.032509
-5.257438
-5.471834
-5.587224
-5.747787
-5.831112
-5.869497
-5.978100
-5.955396
-5.931991
-5.850539
-5.662591
-5.418703
-5.161708
-4.876861
-4.515945
-4.209564
-3.815412
-3.326232
-2.803349
-2.254016
-1.681513
-1.039728
-0.465352
0.157474
0.825473
1.420681
2.028995
2.579263
2.998226
3.356802
3.737847
4.074655
4.373078
4.733292
5.033119
5.299710
5.569110
5.778591
5.973093
6.148635
6.271281
6.300304
6.340094
6.293283
6.126166
5.958581
5.719608
5.466359
5.211471
5.013458
4.951901
4.987244
5.121358
5.284965
5.462145
5.653136
5.740908
5.722885
5.625518
5.385843
5.070334
4.724865
4.372375
4.060143
3.705079
3.390974
3.105658
2.830641
2.598925
2.342632
2.109277
1.799620
1.430277
1.023018
0.582288
0.126813
-0.356047
-0.828608
-1.326682
-1.806733
-2.288891
-2.717918
-3.144604
-3.575503
-3.997274
-4.463516
-4.879670
-5.241522
-5.527306
-5.696763
-5.745447
-5.727425
-5.637547
-5.475579
-5.232160
-4.944036
-4.556905
-4.083875
-3.630507
-3.112772
-2.690533
-2.304339
-1.856587
-1.492160
-1.114626
-0.755583
-0.453181
-0.217251
-0.084073
0.004869
-0.005429
-0.097414
-0.248147
-0.461139
-0.680450
-0.860908
-0.974894
-0.981214
-0.856227
-0.651427
-0.374069
-0.045687
0.310548
0.666783
0.994697
1.324015
1.614012
1.857900
2.065742
2.177622
2.252754
2.281309
2.219518
2.151407
2.038358
1.882476
1.736424
1.603948
1.507516
1.406169
1.326122
1.295694
1.275331
1.297333
1.339697
1.382062
1.455321
1.504239
1.505175
1.469833
1.359826
1.195050
1.035189
0.850752
0.664208
0.464090
0.219968
0.010018
-0.209761
-0.426498
-0.609297
-0.795841
-0.945403
-1.070858
-1.185780
-1.267934
-1.341662
-1.419603
-1.509949
-1.641489
-1.785902
-1.958870
-2.146350
-2.298955
-2.445709
-2.574675
-2.680703
-2.753026
-2.762623
-2.721663
-2.619146
-2.430262
-2.173033
-1.884441
-1.590933
-1.331129
-1.127733
-0.991980
-0.895315
-0.804032
-0.702218
-0.531356
-0.281383
0.076725
0.556074
1.096278
1.689379
2.277096
2.824556
3.379037
3.914092
4.423166
4.891748
5.267176
5.550151
5.698075
5.688479
5.508021
5.162786
4.739611
4.270795
3.764763
3.238135
2.706123
2.152110
1.567200
0.940161
0.274269
-0.394432
-1.051431
-1.638914
-2.129966
-2.500713
-2.769410
-2.975147
-3.103176
-3.180883
-3.265846
-3.379129
-3.505052
-3.651338
-3.775388
-3.884927
-4.005700
-4.118282
-4.284228
-4.490199
-4.720511
-4.972825
-5.223733
-5.485643
-5.731872
-5.964291
-6.188049
-6.397062
-6.557859
-6.634396
-6.646567
-6.579159
-6.386764
-6.137493
-5.889860
-5.631929
-5.415426
-5.181603
-4.955972
-4.769195
-4.515243
-4.319805
-4.181711
-3.995870
-3.816348
-3.616463
-3.363915
-3.093111
-2.731727
-2.259400
-1.757113
-1.237506
-0.797479
-0.400284
-0.082200
0.127749
0.371871
0.541562
0.667485
0.785684
0.831559
0.875562
0.883520
0.867604
0.833665
0.810962
0.819622
0.834602
0.912777
1.007336
1.178198
1.293822
1.426767
1.518049
1.488791
1.648653
1.727764
1.917350
2.211092
2.489151
2.908816
3.249135
3.622925
3.957392
4.260028
4.555642
4.758570
4.911643
4.974839
4.961263
4.874194
4.768167
4.631711
4.489638
4.368396
4.309414
4.317840
4.355758
4.486830
4.622349
4.796487
4.975541
5.072908
5.150382
5.125572
5.027033
4.854767
4.606901
4.307775
3.915262
3.500747
3.057677
2.631693
2.259308
1.914775
1.629694
1.402892
1.240457
1.111257
1.016230
0.947183
0.876732
0.809558
0.748235
0.687614
0.593757
0.479069
0.334890
0.173624
0.037871
-0.141182
-0.337323
-0.514972
-0.728900
-0.925508
-1.085369
-1.209419
-1.269338
-1.267466
-1.194206
-1.110179
-1.037621
-1.012343
-1.088412
-1.195844
-1.322937
-1.461031
-1.580166
-1.620190
-1.581804
-1.454009
-1.163779
