EVENT_NAME: L_AQUILA
EVENT_ID: IT-2009-0009
EVENT_DATE_YYYYMMDD: 20090406
EVENT_TIME_HHMMSS: 013240
EVENT_LATITUDE_DEGREE: 42.3420
EVENT_LONGITUDE_DEGREE: 13.3800
EVENT_DEPTH_KM: 8.3
HYPOCENTER_REFERENCE: INGV-CNT_Seismic_Bulletin
MAGNITUDE_W: 6.1
MAGNITUDE_W_REFERENCE: INGV-CNT_Seismic_Bulletin
MAGNITUDE_L: 
MAGNITUDE_L_REFERENCE: 
FOCAL_MECHANISM: Normal faulting
NETWORK: IT
STATION_CODE: SPO
STATION_NAME: 
STATION_LATITUDE_DEGREE: 42.733585
STATION_LONGITUDE_DEGREE: 12.740602
STATION_ELEVATION_M: 476
LOCATION: 
SENSOR_DEPTH_M: 0.0
VS30_M/S: 
SITE_CLASSIFICATION_EC8: A (inferred from geology)
MORPHOLOGIC_CLASSIFICATION: 
EPICENTRAL_DISTANCE_KM: 68.2
EARTHQUAKE_BACKAZIMUTH_DEGREE: 309.8
DATE_TIME_FIRST_SAMPLE_YYYYMMDD_HHMMSS: 20090406_013241.000
DATE_TIME_FIRST_SAMPLE_PRECISION: seconds
SAMPLING_INTERVAL_S: 0.005000
NDATA: 20200
DURATION_S: 101.000
STREAM: HNZ
UNITS: cm
INSTRUMENT: sensor = FBA-3 [Kinemetrics] | digitizer = Etna [Kinemetrics]
INSTRUMENT_ANALOG/DIGITAL: D
INSTRUMENTAL_FREQUENCY_HZ: 210.000
INSTRUMENTAL_DAMPING: 0.700000
FULL_SCALE_G: 1.0
N_BIT_DIGITAL_CONVERTER: 18
PGD_CM: 0.245864
TIME_PGD_S: 29.460000
BASELINE_CORRECTION: BASELINE REMOVED
FILTER_TYPE: BUTTERWORTH
FILTER_ORDER: 2
LOW_CUT_FREQUENCY_HZ: 0.050
HIGH_CUT_FREQUENCY_HZ: 40.000
LATE/NORMAL_TRIGGERED: NT
DATABASE_VERSION: 0.5
HEADER_FORMAT: DYNA 1.2
DATA_TYPE: DISPLACEMENT
PROCESSING: manual (Paolucci et al., 2011)
DATA_TIMESTAMP_YYYYMMDD_HHMMSS: 20211011_160446.672
DATA_LICENSE: CC-BY3_0-IT (http://creativecommons.org/licenses/by/3.0/deed.en)
DATA_CITATION: Luzi L, Pacor F, Puglia R (2019). Italian Accelerometric Archive v 3.0 - Istituto Nazionale di Geofisica e Vulcanologia, Dipartimento della Protezione Civile Nazionale. doi: 10.13127/itaca.3.1
DATA_CREATOR: ITACA working group
ORIGINAL_DATA_MEDIATOR_CITATION: data obtained within the DPC-INGV data exchange agreements
ORIGINAL_DATA_MEDIATOR: Archive of Italian Department of Civil Protection
ORIGINAL_DATA_CREATOR_CITATION: Presidency Of Counsil Of Ministers-Civil Protection Department. (1972). Italian Strong Motion Network. Presidency of Counsil of Ministers - Civil Protection Department. https://doi.org/10.7914/SN/IT http://www.fdsn.org/networks/detail/IT/
ORIGINAL_DATA_CREATOR: network: IT (Italian Strong Motion Network (RAN)); owner: Presidency of Counsil of Ministers - Civil Protection Department (PCM - DPC)
USER1: 
USER2: 
USER3: 
USER4: 
USER5: 
[...]
2.008679e-01
2.006400e-01
2.004251e-01
2.002156e-01
2.000035e-01
1.997806e-01
1.995400e-01
1.992759e-01
1.989832e-01
1.986578e-01
1.982961e-01
1.978959e-01
1.974562e-01
1.969781e-01
1.964647e-01
1.959206e-01
1.953515e-01
1.947641e-01
1.941660e-01
1.935650e-01
1.929692e-01
1.923860e-01
1.918221e-01
1.912825e-01
1.907713e-01
1.902911e-01
1.898442e-01
1.894321e-01
1.890555e-01
1.887144e-01
1.884076e-01
1.881323e-01
1.878842e-01
1.876576e-01
1.874453e-01
1.872392e-01
1.870312e-01
1.868138e-01
1.865808e-01
1.863270e-01
1.860483e-01
1.857411e-01
1.854026e-01
1.850307e-01
1.846244e-01
1.841837e-01
1.837100e-01
1.832057e-01
1.826738e-01
1.821183e-01
1.815429e-01
1.809512e-01
1.803464e-01
1.797312e-01
1.791077e-01
1.784780e-01
1.778435e-01
1.772058e-01
1.765661e-01
1.759249e-01
1.752821e-01
1.746359e-01
1.739839e-01
1.733228e-01
1.726495e-01
1.719614e-01
1.712573e-01
1.705380e-01
1.698061e-01
1.690659e-01
1.683227e-01
1.675819e-01
1.668486e-01
1.661279e-01
1.654247e-01
1.647440e-01
1.640904e-01
1.634680e-01
1.628801e-01
1.623287e-01
1.618144e-01
1.613362e-01
1.608913e-01
1.604760e-01
1.600857e-01
1.597157e-01
1.593613e-01
1.590187e-01
1.586846e-01
1.583569e-01
1.580346e-01
1.577180e-01
1.574089e-01
1.571101e-01
1.568248e-01
1.565565e-01
1.563081e-01
1.560821e-01
1.558803e-01
1.557041e-01
1.555549e-01
1.554333e-01
1.553400e-01
1.552750e-01
1.552381e-01
1.552285e-01
1.552455e-01
1.552884e-01
1.553566e-01
1.554497e-01
1.555671e-01
1.557082e-01
1.558713e-01
1.560536e-01
1.562505e-01
1.564559e-01
1.566623e-01
1.568618e-01
1.570470e-01
1.572114e-01
1.573503e-01
1.574605e-01
1.575405e-01
1.575895e-01
1.576075e-01
1.575951e-01
1.575536e-01
1.574851e-01
1.573922e-01
1.572780e-01
1.571462e-01
1.570008e-01
1.568461e-01
1.566865e-01
1.565271e-01
1.563735e-01
1.562314e-01
1.561062e-01
1.560028e-01
1.559244e-01
1.558720e-01
1.558446e-01
1.558395e-01
1.558529e-01
1.558810e-01
1.559199e-01
1.559655e-01
1.560132e-01
1.560575e-01
1.560923e-01
1.561108e-01
1.561065e-01
1.560731e-01
1.560051e-01
1.558978e-01
1.557476e-01
1.555518e-01
1.553087e-01
1.550174e-01
1.546777e-01
1.542900e-01
1.538556e-01
1.533768e-01
1.528566e-01
1.522982e-01
1.517053e-01
1.510820e-01
1.504323e-01
1.497605e-01
1.490705e-01
1.483655e-01
1.476479e-01
1.469184e-01
1.461763e-01
1.454194e-01
1.446447e-01
1.438490e-01
1.430299e-01
1.421861e-01
1.413180e-01
1.404269e-01
1.395152e-01
1.385855e-01
1.376405e-01
1.366826e-01
1.357140e-01
1.347367e-01
1.337519e-01
1.327602e-01
1.317612e-01
1.307532e-01
1.297337e-01
1.286994e-01
1.276469e-01
1.265731e-01
1.254754e-01
1.243519e-01
1.232020e-01
1.220257e-01
1.208238e-01
1.195978e-01
1.183490e-01
1.170787e-01
1.157874e-01
1.144753e-01
1.131425e-01
1.117893e-01
1.104164e-01
1.090259e-01
1.076207e-01
1.062043e-01
1.047804e-01
1.033525e-01
1.019234e-01
1.004956e-01
9.907060e-02
9.764963e-02
9.623301e-02
9.482056e-02
9.341208e-02
9.200813e-02
9.061080e-02
8.922398e-02
8.785324e-02
8.650551e-02
8.518872e-02
8.391138e-02
8.268208e-02
8.150875e-02
8.039791e-02
7.935414e-02
7.838010e-02
7.747681e-02
7.664439e-02
7.588245e-02
7.519041e-02
7.456738e-02
7.401209e-02
7.352294e-02
7.309808e-02
7.273562e-02
7.243361e-02
7.218973e-02
7.200073e-02
7.186204e-02
7.176798e-02
7.171212e-02
7.168783e-02
7.168849e-02
7.170761e-02
7.173895e-02
7.177653e-02
7.181476e-02
7.184837e-02
7.187229e-02
7.188156e-02
7.187130e-02
7.183708e-02
7.177533e-02
7.168384e-02
7.156178e-02
7.140937e-02
7.122748e-02
7.101722e-02
7.077979e-02
7.051661e-02
7.022940e-02
6.992042e-02
6.959260e-02
6.924956e-02
6.889549e-02
6.853478e-02
6.817145e-02
6.780867e-02
6.744849e-02
6.709165e-02
6.673763e-02
6.638484e-02
6.603110e-02
6.567430e-02
6.531321e-02
6.494796e-02
6.458031e-02
6.421338e-02
6.385132e-02
6.349881e-02
6.316072e-02
6.284170e-02
6.254593e-02
6.227709e-02
6.203860e-02
6.183366e-02
6.166518e-02
6.153559e-02
6.144645e-02
6.139795e-02
6.138882e-02
6.141656e-02
6.147803e-02
6.156988e-02
6.168888e-02
6.183223e-02
6.199800e-02
6.218533e-02
6.239422e-02
6.262508e-02
6.287810e-02
6.315283e-02
6.344814e-02
6.376246e-02
6.409415e-02
6.444184e-02
6.480469e-02
6.518262e-02
6.557627e-02
6.598672e-02
6.641500e-02
6.686160e-02
6.732644e-02
6.780897e-02
6.830844e-02
6.882427e-02
6.935640e-02
6.990548e-02
7.047291e-02
7.106064e-02
7.167115e-02
7.230733e-02
7.297221e-02
7.366850e-02
7.439814e-02
7.516209e-02
7.596027e-02
7.679141e-02
7.765302e-02
7.854148e-02
7.945256e-02
8.038205e-02
8.132627e-02
8.228225e-02
8.324762e-02
8.422045e-02
8.519889e-02
8.618088e-02
8.716398e-02
8.814539e-02
8.912189e-02
9.008975e-02
9.104446e-02
9.198093e-02
9.289401e-02
9.377945e-02
9.463444e-02
9.545774e-02
9.624941e-02
9.701015e-02
9.774065e-02
9.844110e-02
9.911085e-02
9.974857e-02
1.003526e-01
1.009214e-01
1.014540e-01
1.019503e-01
1.024106e-01
1.028354e-01
1.032249e-01
1.035785e-01
1.038953e-01
1.041741e-01
1.044145e-01
1.046167e-01
1.047818e-01
1.049116e-01
1.050079e-01
1.050723e-01
1.051062e-01
1.051106e-01
1.050862e-01
1.050344e-01
1.049563e-01
1.048539e-01
1.047294e-01
1.045857e-01
1.044262e-01
1.042550e-01
1.040766e-01
1.038961e-01
1.037188e-01
1.035501e-01
1.033951e-01
1.032579e-01
1.031425e-01
1.030514e-01
1.029866e-01
1.029489e-01
1.029378e-01
1.029518e-01
1.029883e-01
1.030440e-01
1.031149e-01
1.031975e-01
1.032881e-01
1.033834e-01
1.034804e-01
1.035765e-01
1.036693e-01
1.037566e-01
1.038367e-01
1.039082e-01
1.039703e-01
1.040223e-01
1.040635e-01
1.040929e-01
1.041090e-01
1.041099e-01
1.040939e-01
1.040599e-01
1.040077e-01
1.039385e-01
1.038543e-01
1.037578e-01
1.036516e-01
1.035384e-01
1.034201e-01
1.032989e-01
1.031763e-01
1.030539e-01
1.029329e-01
1.028136e-01
1.026953e-01
1.025767e-01
1.024561e-01
1.023321e-01
1.022045e-01
1.020744e-01
1.019433e-01
1.018129e-01
1.016843e-01
1.015574e-01
1.014305e-01
1.013014e-01
1.011668e-01
1.010232e-01
1.008675e-01
1.006971e-01
1.005101e-01
1.003059e-01
1.000843e-01
9.984573e-02
9.959084e-02
9.932026e-02
9.903480e-02
9.873584e-02
9.842575e-02
9.810805e-02
9.778716e-02
9.746793e-02
9.715498e-02
9.685225e-02
9.656271e-02
9.628828e-02
9.602992e-02
9.578773e-02
9.556109e-02
9.534895e-02
9.515015e-02
9.496374e-02
9.478916e-02
9.462630e-02
9.447534e-02
9.433651e-02
9.420989e-02
9.409543e-02
9.399287e-02
9.390173e-02
9.382123e-02
9.375036e-02
9.368802e-02
9.363321e-02
9.358497e-02
9.354223e-02
9.350353e-02
9.346668e-02
9.342859e-02
9.338537e-02
9.333271e-02
9.326637e-02
9.318260e-02
9.307823e-02
9.295058e-02
9.279695e-02
9.261429e-02
9.239903e-02
9.214722e-02
9.185497e-02
9.151894e-02
9.113683e-02
9.070769e-02
9.023219e-02
8.971250e-02
8.915205e-02
8.855520e-02
8.792694e-02
8.727236e-02
8.659634e-02
8.590322e-02
8.519670e-02
8.447990e-02
8.375544e-02
8.302565e-02
8.229273e-02
8.155894e-02
8.082658e-02
8.009811e-02
7.937618e-02
7.866360e-02
7.796322e-02
7.727782e-02
7.660995e-02
7.596189e-02
7.533580e-02
7.473388e-02
7.415850e-02
7.361230e-02
7.309827e-02
7.261972e-02
7.217993e-02
7.178178e-02
7.142751e-02
7.111858e-02
7.085563e-02
7.063847e-02
7.046603e-02
7.033648e-02
7.024747e-02
7.019637e-02
7.018049e-02
7.019722e-02
7.024414e-02
7.031906e-02
7.041993e-02
7.054477e-02
7.069163e-02
7.085877e-02
7.104473e-02
7.124857e-02
7.146988e-02
7.170882e-02
7.196614e-02
7.224289e-02
7.254015e-02
7.285868e-02
7.319869e-02
7.355962e-02
7.394008e-02
7.433768e-02
7.474896e-02
7.516950e-02
7.559411e-02
7.601709e-02
7.643252e-02
7.683464e-02
7.721828e-02
7.757918e-02
7.791440e-02
7.822246e-02
7.850321e-02
7.875755e-02
7.898701e-02
7.919323e-02
7.937769e-02
7.954138e-02
7.968458e-02
7.980665e-02
7.990605e-02
7.998045e-02
8.002702e-02
8.004249e-02
8.002318e-02
7.996502e-02
7.986373e-02
7.971523e-02
7.951597e-02
7.926300e-02
7.895391e-02
7.858647e-02
7.815852e-02
7.766804e-02
7.711342e-02
7.649375e-02
7.580884e-02
7.505910e-02
7.424523e-02
7.336789e-02
7.242747e-02
7.142403e-02
7.035732e-02
6.922710e-02
6.803349e-02
6.677746e-02
6.546096e-02
6.408704e-02
6.265962e-02
6.118332e-02
5.966318e-02
5.810442e-02
5.651223e-02
5.489171e-02
5.324792e-02
5.158583e-02
4.991036e-02
4.822643e-02
4.653892e-02
4.485260e-02
4.317212e-02
4.150197e-02
3.984658e-02
3.821024e-02
3.659698e-02
3.501031e-02
3.345297e-02
3.192664e-02
3.043157e-02
2.896643e-02
2.752843e-02
2.611368e-02
2.471766e-02
2.333587e-02
2.196452e-02
2.060103e-02
1.924420e-02
1.789430e-02
1.655315e-02
1.522432e-02
1.391286e-02
1.262478e-02
1.136659e-02
1.014497e-02
8.966587e-03
7.837924e-03
6.765016e-03
5.753104e-03
4.806363e-03
3.927869e-03
3.119832e-03
2.383925e-03
1.721459e-03
1.133228e-03
6.190639e-04
1.773490e-04
-1.953102e-04
-5.040867e-04
-7.556439e-04
-9.577494e-04
-1.118974e-03
-1.248468e-03
-1.355705e-03
-1.450180e-03
-1.541121e-03
-1.637273e-03
-1.746772e-03
-1.877046e-03
-2.034630e-03
-2.224897e-03
-2.451818e-03
-2.717811e-03
-3.023702e-03
-3.368746e-03
-3.750747e-03
-4.166297e-03
-4.611093e-03
-5.080258e-03
-5.568737e-03
-6.071798e-03
-6.585605e-03
-7.107648e-03
-7.636867e-03
-8.173553e-03
-8.719179e-03
-9.276195e-03
-9.847726e-03
-1.043723e-02
-1.104810e-02
-1.168322e-02
-1.234459e-02
-1.303322e-02
-1.374940e-02
-1.449313e-02
-1.526447e-02
-1.606381e-02
-1.689180e-02
-1.774916e-02
-1.863639e-02
-1.955353e-02
-2.049979e-02
-2.147334e-02
-2.247132e-02
-2.349010e-02
-2.452582e-02
-2.557495e-02
-2.663476e-02
-2.770360e-02
-2.878091e-02
-2.986712e-02
-3.096330e-02
-3.207078e-02
-3.319060e-02
-3.432299e-02
-3.546699e-02
-3.662038e-02
-3.778004e-02
-3.894246e-02
-4.010440e-02
-4.126328e-02
-4.241748e-02
-4.356635e-02
-4.471020e-02
-4.585026e-02
-4.698864e-02
-4.812828e-02
-4.927281e-02
-5.042624e-02
-5.159262e-02
-5.277562e-02
-5.397820e-02
-5.520228e-02
-5.644851e-02
-5.771613e-02
-5.900304e-02
-6.030633e-02
-6.162279e-02
-6.294931e-02
-6.428331e-02
-6.562288e-02
-6.696681e-02
-6.831444e-02
-6.966542e-02
-7.101951e-02
-7.237627e-02
-7.373485e-02
-7.509360e-02
-7.645008e-02
-7.780132e-02
-7.914423e-02
-8.047616e-02
-8.179545e-02
-8.310189e-02
-8.439680e-02
-8.568285e-02
-8.696366e-02
-8.824334e-02
-8.952586e-02
-9.081438e-02
-9.211071e-02
-9.341489e-02
-9.472521e-02
-9.603828e-02
-9.734943e-02
-9.865315e-02
-9.994349e-02
-1.012146e-01
-1.024612e-01
-1.036789e-01
-1.048646e-01
-1.060164e-01
-1.071335e-01
-1.082164e-01
-1.092658e-01
-1.102829e-01
-1.112690e-01
-1.122259e-01
-1.131556e-01
-1.140611e-01
-1.149459e-01
-1.158137e-01
-1.166688e-01
-1.175149e-01
-1.183549e-01
-1.191909e-01
-1.200236e-01
-1.208527e-01
-1.216764e-01
-1.224923e-01
-1.232976e-01
-1.240899e-01
-1.248673e-01
-1.256289e-01
-1.263747e-01
-1.271051e-01
-1.278211e-01
-1.285237e-01
-1.292146e-01
-1.298958e-01
-1.305706e-01
-1.312432e-01
-1.319185e-01
-1.326019e-01
-1.332987e-01
-1.340134e-01
-1.347502e-01
-1.355121e-01
-1.363015e-01
-1.371195e-01
-1.379668e-01
-1.388430e-01
-1.397472e-01
-1.406777e-01
-1.416324e-01
-1.426088e-01
-1.436038e-01
-1.446143e-01
-1.456365e-01
-1.466669e-01
-1.477014e-01
-1.487358e-01
-1.497656e-01
-1.507871e-01
-1.517972e-01
-1.527937e-01
-1.537756e-01
-1.547427e-01
-1.556958e-01
-1.566359e-01
-1.575646e-01
-1.584838e-01
-1.593953e-01
-1.603014e-01
-1.612041e-01
-1.621060e-01
-1.630094e-01
-1.639172e-01
-1.648325e-01
-1.657588e-01
-1.666996e-01
-1.676584e-01
-1.686384e-01
-1.696419e-01
-1.706706e-01
-1.717251e-01
-1.728050e-01
-1.739090e-01
-1.750352e-01
-1.761810e-01
-1.773437e-01
-1.785204e-01
-1.797087e-01
-1.809063e-01
-1.821114e-01
-1.833224e-01
-1.845378e-01
-1.857561e-01
-1.869757e-01
-1.881951e-01
-1.894131e-01
-1.906292e-01
-1.918435e-01
-1.930568e-01
-1.942704e-01
-1.954859e-01
-1.967045e-01
-1.979271e-01
-1.991542e-01
-2.003860e-01
-2.016224e-01
-2.028629e-01
-2.041066e-01
-2.053522e-01
-2.065974e-01
-2.078392e-01
-2.090742e-01
-2.102991e-01
-2.115106e-01
-2.127065e-01
-2.138852e-01
-2.150463e-01
-2.161902e-01
-2.173177e-01
-2.184299e-01
-2.195278e-01
-2.206124e-01
-2.216844e-01
-2.227444e-01
-2.237929e-01
-2.248299e-01
-2.258553e-01
-2.268687e-01
-2.278689e-01
-2.288545e-01
-2.298238e-01
-2.307752e-01
-2.317072e-01
-2.326187e-01
-2.335085e-01
-2.343757e-01
-2.352191e-01
-2.360378e-01
-2.368307e-01
-2.375968e-01
-2.383345e-01
-2.390415e-01
-2.397146e-01
-2.403500e-01
-2.409440e-01
-2.414931e-01
-2.419952e-01
-2.424496e-01
-2.428571e-01
-2.432196e-01
-2.435398e-01
-2.438208e-01
-2.440658e-01
-2.442776e-01
-2.444588e-01
-2.446121e-01
-2.447400e-01
-2.448454e-01
-2.449311e-01
-2.450003e-01
-2.450556e-01
-2.450991e-01
-2.451322e-01
-2.451550e-01
-2.451672e-01
-2.451679e-01
-2.451562e-01
-2.451317e-01
-2.450943e-01
-2.450437e-01
-2.449797e-01
-2.449011e-01
-2.448064e-01
-2.446938e-01
-2.445618e-01
-2.444089e-01
-2.442340e-01
-2.440366e-01
-2.438162e-01
-2.435731e-01
-2.433078e-01
-2.430210e-01
-2.427136e-01
-2.423867e-01
-2.420416e-01
-2.416796e-01
-2.413021e-01
-2.409100e-01
-2.405039e-01
-2.400838e-01
-2.396496e-01
-2.392009e-01
-2.387381e-01
-2.382616e-01
-2.377719e-01
-2.372699e-01
-2.367561e-01
-2.362310e-01
-2.356953e-01
-2.351494e-01
-2.345936e-01
-2.340284e-01
-2.334540e-01
-2.328705e-01
-2.322782e-01
-2.316772e-01
-2.310683e-01
-2.304529e-01
-2.298323e-01
-2.292081e-01
-2.285819e-01
-2.279548e-01
-2.273279e-01
-2.267023e-01
-2.260787e-01
-2.254579e-01
-2.248407e-01
-2.242275e-01
-2.236184e-01
-2.230129e-01
-2.224102e-01
-2.218089e-01
-2.212069e-01
-2.206019e-01
-2.199909e-01
-2.193710e-01
-2.187397e-01
-2.180949e-01
-2.174356e-01
-2.167612e-01
-2.160718e-01
-2.153677e-01
-2.146499e-01
-2.139195e-01
-2.131783e-01
-2.124282e-01
-2.116713e-01
-2.109090e-01
-2.101418e-01
-2.093693e-01
-2.085903e-01
-2.078030e-01
-2.070054e-01
-2.061956e-01
-2.053718e-01
-2.045322e-01
-2.036752e-01
-2.027993e-01
-2.019034e-01
-2.009868e-01
-2.000492e-01
-1.990906e-01
-1.981112e-01
-1.971108e-01
-1.960890e-01
-1.950453e-01
-1.939794e-01
-1.928915e-01
-1.917816e-01
-1.906503e-01
-1.894977e-01
-1.883238e-01
-1.871287e-01
-1.859123e-01
-1.846747e-01
-1.834166e-01
-1.821391e-01
-1.808440e-01
-1.795331e-01
-1.782089e-01
-1.768732e-01
-1.755277e-01
-1.741735e-01
-1.728109e-01
-1.714398e-01
-1.700595e-01
-1.686694e-01
-1.672687e-01
-1.658572e-01
-1.644348e-01
-1.630021e-01
-1.615596e-01
-1.601080e-01
-1.586483e-01
-1.571815e-01
-1.557087e-01
-1.542315e-01
-1.527518e-01
-1.512714e-01
-1.497926e-01
-1.483179e-01
-1.468494e-01
-1.453890e-01
-1.439383e-01
-1.424984e-01
-1.410700e-01
-1.396534e-01
-1.382483e-01
-1.368540e-01
-1.354692e-01
-1.340925e-01
-1.327222e-01
-1.313573e-01
-1.299968e-01
-1.286404e-01
-1.272882e-01
-1.259413e-01
-1.246014e-01
-1.232710e-01
-1.219532e-01
-1.206512e-01
-1.193678e-01
-1.181053e-01
-1.168650e-01
-1.156476e-01
-1.144524e-01
-1.132783e-01
-1.121231e-01
-1.109841e-01
-1.098582e-01
-1.087423e-01
-1.076336e-01
-1.065294e-01
-1.054270e-01
-1.043235e-01
-1.032162e-01
-1.021019e-01
-1.009771e-01
-9.983813e-02
-9.868075e-02
-9.750088e-02
-9.629471e-02
-9.505878e-02
-9.378996e-02
-9.248539e-02
-9.114254e-02
-8.975938e-02
-8.833457e-02
-8.686775e-02
-8.535947e-02
-8.381111e-02
-8.222456e-02
-8.060185e-02
-7.894497e-02
-7.725573e-02
-7.553571e-02
-7.378615e-02
-7.200795e-02
-7.020175e-02
-6.836821e-02
-6.650822e-02
-6.462299e-02
-6.271402e-02
-6.078299e-02
-5.883162e-02
-5.686152e-02
-5.487434e-02
-5.287183e-02
-5.085603e-02
-4.882926e-02
-4.679406e-02
-4.475305e-02
-4.270884e-02
-4.066409e-02
-3.862162e-02
-3.658448e-02
-3.455585e-02
-3.253898e-02
-3.053702e-02
-2.855286e-02
-2.658895e-02
-2.464710e-02
-2.272839e-02
-2.083315e-02
-1.896114e-02
-1.711165e-02
-1.528351e-02
-1.347512e-02
-1.168442e-02
-9.909146e-03
-8.147018e-03
-6.396097e-03
-4.655071e-03
-2.923464e-03
-1.201637e-03
5.093433e-04
2.207840e-03
3.891728e-03
5.558522e-03
7.205613e-03
8.830545e-03
1.043117e-02
1.200567e-02
1.355257e-02
1.507089e-02
1.656026e-02
1.802093e-02
1.945379e-02
2.086030e-02
2.224244e-02
2.360250e-02
2.494284e-02
2.626575e-02
2.757345e-02
2.886828e-02
3.015283e-02
3.142990e-02
3.270238e-02
3.397303e-02
3.524443e-02
3.651907e-02
3.779956e-02
3.908874e-02
4.038969e-02
4.170543e-02
4.303850e-02
4.439049e-02
4.576182e-02
4.715171e-02
4.855832e-02
4.997899e-02
5.141040e-02
5.284876e-02
5.428990e-02
5.572947e-02
5.716306e-02
5.858636e-02
5.999512e-02
6.138525e-02
6.275298e-02
6.409509e-02
6.540909e-02
6.669317e-02
6.794614e-02
6.916741e-02
7.035694e-02
7.151540e-02
7.264424e-02
7.374574e-02
7.482290e-02
7.587935e-02
7.691899e-02
7.794547e-02
7.896184e-02
7.997032e-02
8.097230e-02
8.196847e-02
8.295902e-02
8.394375e-02
8.492220e-02
8.589367e-02
8.685723e-02
8.781163e-02
8.875535e-02
8.968679e-02
9.060449e-02
9.150706e-02
9.239296e-02
9.326016e-02
9.410603e-02
9.492731e-02
9.572030e-02
9.648102e-02
9.720550e-02
9.789010e-02
9.853169e-02
9.912786e-02
9.967691e-02
1.001779e-01
1.006305e-01
1.010350e-01
1.013923e-01
1.017035e-01
1.019701e-01
1.021937e-01
1.023760e-01
1.025187e-01
1.026232e-01
1.026905e-01
1.027219e-01
1.027183e-01
1.026807e-01
1.026103e-01
1.025086e-01
1.023770e-01
1.022171e-01
1.020307e-01
1.018198e-01
1.015863e-01
1.013320e-01
1.010586e-01
1.007679e-01
1.004614e-01
1.001409e-01
9.980731e-02
9.946149e-02
9.910360e-02
9.873343e-02
9.835055e-02
9.795442e-02
9.754445e-02
9.712014e-02
9.668123e-02
9.622790e-02
9.576096e-02
9.528179e-02
9.479202e-02
9.429321e-02
9.378639e-02
9.327185e-02
9.274891e-02
9.221600e-02
9.167107e-02
9.111201e-02
9.053720e-02
8.994587e-02
8.933825e-02
8.871536e-02
8.807869e-02
8.742986e-02
8.677035e-02
8.610136e-02
8.542363e-02
8.473731e-02
8.404187e-02
8.333605e-02
8.261790e-02
8.188491e-02
8.113423e-02
8.036274e-02
7.956732e-02
7.874516e-02
7.789418e-02
7.701330e-02
7.610258e-02
7.516311e-02
7.419686e-02
7.320644e-02
7.219484e-02
7.116530e-02
7.012100e-02
6.906484e-02
6.799927e-02
6.692636e-02
6.584796e-02
6.476599e-02
6.368254e-02
6.260002e-02
6.152103e-02
6.044816e-02
5.938373e-02
5.832961e-02
5.728721e-02
5.625759e-02
