EVENT_NAME: L_AQUILA
EVENT_ID: IT-2009-0009
EVENT_DATE_YYYYMMDD: 20090406
EVENT_TIME_HHMMSS: 013240
EVENT_LATITUDE_DEGREE: 42.3420
EVENT_LONGITUDE_DEGREE: 13.3800
EVENT_DEPTH_KM: 8.3
HYPOCENTER_REFERENCE: INGV-CNT_Seismic_Bulletin
MAGNITUDE_W: 6.1
MAGNITUDE_W_REFERENCE: INGV-CNT_Seismic_Bulletin
MAGNITUDE_L: 
MAGNITUDE_L_REFERENCE: 
FOCAL_MECHANISM: Normal faulting
NETWORK: IT
STATION_CODE: SPO
STATION_NAME: 
STATION_LATITUDE_DEGREE: 42.733585
STATION_LONGITUDE_DEGREE: 12.740602
STATION_ELEVATION_M: 476
LOCATION: 
SENSOR_DEPTH_M: 0.0
VS30_M/S: 
SITE_CLASSIFICATION_EC8: A (inferred from geology)
MORPHOLOGIC_CLASSIFICATION: 
EPICENTRAL_DISTANCE_KM: 68.2
EARTHQUAKE_BACKAZIMUTH_DEGREE: 309.8
DATE_TIME_FIRST_SAMPLE_YYYYMMDD_HHMMSS: 20090406_013241.000
DATE_TIME_FIRST_SAMPLE_PRECISION: seconds
SAMPLING_INTERVAL_S: 0.005000
NDATA: 20200
DURATION_S: 101.000
STREAM: HNN
UNITS: cm/s^2
INSTRUMENT: sensor = FBA-3 [Kinemetrics] | digitizer = Etna [Kinemetrics]
INSTRUMENT_ANALOG/DIGITAL: D
INSTRUMENTAL_FREQUENCY_HZ: 200.000
INSTRUMENTAL_DAMPING: 0.700000
FULL_SCALE_G: 1.0
N_BIT_DIGITAL_CONVERTER: 18
PGA_CM/S^2: 9.574907
TIME_PGA_S: 26.670000
BASELINE_CORRECTION: BASELINE REMOVED
FILTER_TYPE: BUTTERWORTH
FILTER_ORDER: 2
LOW_CUT_FREQUENCY_HZ: 0.050
HIGH_CUT_FREQUENCY_HZ: 40.000
LATE/NORMAL_TRIGGERED: NT
DATABASE_VERSION: 0.5
HEADER_FORMAT: DYNA 1.2
DATA_TYPE: ACCELERATION
PROCESSING: manual (Paolucci et al., 2011)
DATA_TIMESTAMP_YYYYMMDD_HHMMSS: 20211011_160445.995
DATA_LICENSE: CC-BY3_0-IT (http://creativecommons.org/licenses/by/3.0/deed.en)
DATA_CITATION: Luzi L, Pacor F, Puglia R (2019). Italian Accelerometric Archive v 3.0 - Istituto Nazionale di Geofisica e Vulcanologia, Dipartimento della Protezione Civile Nazionale. doi: 10.13127/itaca.3.1
DATA_CREATOR: ITACA working group
ORIGINAL_DATA_MEDIATOR_CITATION: data obtained within the DPC-INGV data exchange agreements
ORIGINAL_DATA_MEDIATOR: Archive of Italian Department of Civil Protection
ORIGINAL_DATA_CREATOR_CITATION: Presidency Of Counsil Of Ministers-Civil Protection Department. (1972). Italian Strong Motion Network. Presidency of Counsil of Ministers - Civil Protection Department. https://doi.org/10.7914/SN/IT http://www.fdsn.org/networks/detail/IT/
ORIGINAL_DATA_CREATOR: network: IT (Italian Strong Motion Network (RAN)); owner: Presidency of Counsil of Ministers - Civil Protection Department (PCM - DPC)
USER1: 
USER2: 
USER3: 
USER4: 
USER5: 
[...]
0.516118
0.368512
0.180879
-0.040891
-0.284852
-0.533828
-0.765405
-0.956989
-1.088967
-1.140294
-1.092277
-0.943260
-0.714136
-0.439526
-0.156221
0.102654
0.307524
0.434235
0.472007
0.427824
0.320026
0.170930
0.003052
-0.169063
-0.344907
-0.530858
-0.728201
-0.929308
-1.120885
-1.285039
-1.398234
-1.439241
-1.403349
-1.302160
-1.147139
-0.938109
-0.668207
-0.340392
0.017921
0.356795
0.624529
0.792855
0.865743
0.865570
0.817087
0.744518
0.669149
0.601957
0.545435
0.503805
0.482782
0.475126
0.454205
0.391643
0.280139
0.137614
-0.000812
-0.093317
-0.108483
-0.039512
0.101152
0.297487
0.533279
0.782044
1.003167
1.158383
1.232830
1.233473
1.169889
1.041470
0.841887
0.578393
0.289685
0.038939
-0.120268
-0.174226
-0.146177
-0.070099
0.028230
0.129280
0.207995
0.233320
0.183341
0.058393
-0.115664
-0.292447
-0.425400
-0.491711
-0.495250
-0.454728
-0.396619
-0.352976
-0.355233
-0.421926
-0.548350
-0.708428
-0.869386
-1.008267
-1.119157
-1.209101
-1.286200
-1.349660
-1.393307
-1.415755
-1.422711
-1.423678
-1.428403
-1.439001
-1.442904
-1.419424
-1.352579
-1.233183
-1.053126
-0.805010
-0.491489
-0.134134
0.233908
0.585333
0.902096
1.163553
1.341852
1.413665
1.377063
1.257378
1.094326
0.920947
0.749586
0.568896
0.355362
0.097270
-0.193837
-0.496693
-0.791083
-1.049936
-1.235782
-1.314167
-1.267895
-1.100291
-0.829698
-0.481437
-0.084106
0.330001
0.727909
1.081938
1.372218
1.585672
1.713419
1.749178
1.693390
1.559854
1.373625
1.158735
0.928610
0.686605
0.430093
0.152902
-0.148678
-0.468209
-0.791822
-1.107679
-1.407839
-1.681464
-1.910134
-2.072506
-2.153357
-2.150604
-2.079113
-1.965298
-1.829016
-1.667754
-1.463330
-1.209065
-0.928105
-0.659560
-0.429913
-0.243146
-0.091623
0.032946
0.136303
0.222798
0.299078
0.372943
0.444683
0.503480
0.534949
0.531120
0.492963
0.421607
0.309867
0.151427
-0.040556
-0.231024
-0.379043
-0.450496
-0.420159
-0.275339
-0.022630
0.312847
0.696039
1.086443
1.438894
1.713440
1.886309
1.949821
1.913444
1.806776
1.666671
1.516458
1.361233
1.197863
1.023917
0.842532
0.667162
0.524937
0.449431
0.459994
0.547895
0.685757
0.844260
0.994241
1.100050
1.126922
1.063023
0.930238
0.771155
0.623843
0.498396
0.369992
0.200653
-0.026277
-0.294305
-0.571078
-0.828663
-1.049283
-1.217869
-1.312079
-1.305229
-1.181328
-0.943736
-0.611923
-0.217007
0.198531
0.584505
0.897821
1.121223
1.269348
1.374535
1.462102
1.534102
1.572161
1.550826
1.448999
1.260794
1.004735
0.720424
0.453796
0.243840
0.116208
0.076337
0.102794
0.158310
0.215046
0.266914
0.323532
0.398992
0.502188
0.631676
0.773775
0.904855
1.002583
1.054049
1.049522
0.976110
0.825494
0.608811
0.361493
0.133106
-0.028132
-0.091128
-0.052601
0.067144
0.239262
0.434725
0.620499
0.761542
0.837117
0.848023
0.800796
0.693683
0.522833
0.289998
-0.000481
-0.339543
-0.700390
-1.032862
-1.279202
-1.398215
-1.374533
-1.213207
-0.934282
-0.570102
-0.163016
0.234701
0.565016
0.783895
0.885115
0.901967
0.885353
0.876312
0.887984
0.907921
0.917910
0.912730
0.901556
0.891149
0.869318
0.810267
0.697427
0.538163
0.356181
0.171182
-0.015623
-0.217335
-0.440867
-0.671387
-0.879115
-1.038727
-1.141964
-1.196160
-1.213618
-1.204481
-1.180336
-1.158809
-1.156679
-1.175478
-1.194268
-1.180205
-1.111841
-0.995572
-0.864187
-0.760952
-0.715570
-0.726384
-0.762243
-0.777797
-0.730386
-0.595634
-0.378830
-0.112980
0.162375
0.424096
0.661098
0.854236
0.977934
1.018975
0.984668
0.900822
0.807729
0.748149
0.747912
0.805958
0.906310
1.039986
1.211924
1.425502
1.659995
1.861573
1.957196
1.882338
1.603528
1.125166
0.483983
-0.260829
-1.032842
-1.742978
-2.309915
-2.686314
-2.863468
-2.856527
-2.690925
-2.396299
-2.006388
-1.564778
-1.129013
-0.764206
-0.526634
-0.446959
-0.524478
-0.730992
-1.018889
-1.333798
-1.622563
-1.830947
-1.906327
-1.816704
-1.568506
-1.194033
-0.722682
-0.180465
0.389721
0.931534
1.401182
1.776758
2.044149
2.188783
2.203681
2.098887
1.899039
1.631320
1.319164
0.983290
0.639176
0.295560
-0.037898
-0.342273
-0.594048
-0.777021
-0.883949
-0.909557
-0.844099
-0.670243
-0.369826
0.055654
0.562933
1.074714
1.520449
1.860815
2.077189
2.162974
2.132608
2.023061
1.875891
1.719771
1.561349
1.383038
1.161165
0.894949
0.611697
0.342069
0.098421
-0.118244
-0.300433
-0.436225
-0.522434
-0.560869
-0.549320
-0.494250
-0.431720
-0.420921
-0.504536
-0.672255
-0.861769
-0.991597
-0.999498
-0.869403
-0.636851
-0.368747
-0.133668
0.016629
0.051653
-0.040938
-0.254594
-0.557224
-0.892087
-1.185267
-1.363403
-1.397613
-1.335904
-1.271936
-1.277872
-1.363675
-1.485479
-1.582969
-1.616692
-1.592017
-1.548289
-1.510426
-1.461906
-1.372833
-1.240253
-1.094752
-0.970479
-0.876124
-0.800738
-0.735329
-0.678577
-0.632285
-0.596224
-0.553367
-0.453967
-0.233707
0.128193
0.573824
1.011458
1.391169
1.717828
2.003267
2.231101
2.369017
2.406757
2.376739
2.336946
2.335273
2.382924
2.455282
2.513407
2.519278
2.442375
2.269546
2.008494
1.676737
1.290523
0.865820
0.431444
0.042703
-0.233623
-0.362384
-0.366114
-0.313076
-0.280263
-0.317522
-0.443352
-0.661531
-0.968649
-1.351220
-1.779594
-2.209932
-2.595912
-2.896634
-3.083513
-3.149490
-3.109032
-2.983928
-2.787843
-2.525196
-2.201279
-1.833351
-1.455877
-1.118879
-0.880932
-0.785699
-0.829113
-0.956610
-1.099488
-1.212713
-1.281674
-1.304335
-1.279532
-1.209190
-1.099854
-0.960235
-0.796696
-0.613436
-0.421176
-0.238855
-0.081179
0.056982
0.206655
0.408007
0.675029
0.975227
1.248185
1.442315
1.534109
1.528612
1.457547
1.371315
1.320289
1.331844
1.392281
1.451162
1.449768
1.351212
1.155580
0.892760
0.597362
0.291705
-0.006236
-0.270656
-0.476199
-0.618730
-0.726185
-0.845406
-1.009391
-1.209252
-1.393447
-1.495497
-1.468027
-1.303653
-1.038127
-0.730622
-0.431974
-0.163429
0.085227
0.334561
0.586173
0.818781
1.016814
1.195760
1.390856
1.629139
1.919728
2.257288
2.626276
3.005965
3.367485
3.663446
3.835863
3.847029
3.697523
3.412512
3.016307
2.518821
1.922951
1.243288
0.512867
-0.229671
-0.950860
-1.617878
-2.194127
-2.644696
-2.946293
-3.097513
-3.122441
-3.064349
-2.972186
-2.880230
-2.792239
-2.687743
-2.549519
-2.388616
-2.245150
-2.167259
-2.186854
-2.310041
-2.522536
-2.795552
-3.088169
-3.351995
-3.542148
-3.634663
-3.636467
-3.572681
-3.463242
-3.310675
-3.105696
-2.848112
-2.561118
-2.276846
-2.014640
-1.778508
-1.564352
-1.365525
-1.175449
-0.987882
-0.802789
-0.633346
-0.497747
-0.403749
-0.345283
-0.307516
-0.271141
-0.222029
-0.163929
-0.113520
-0.077832
-0.047272
-0.014990
0.012775
0.031735
0.059469
0.148243
0.377226
0.814301
1.472030
2.288504
3.150677
3.949764
4.617365
5.116692
5.419671
5.496426
5.323549
4.906603
4.295610
3.576304
2.838225
2.143443
1.529957
1.041743
0.740407
0.681540
0.875979
1.266026
1.736135
2.152191
2.411063
2.478054
2.387843
2.209651
2.007517
1.820333
1.661346
1.525588
1.393828
1.231588
0.995967
0.659602
0.236513
-0.218922
-0.641033
-0.983062
-1.228132
-1.378798
-1.443608
-1.434316
-1.363295
-1.241932
-1.091592
-0.953712
-0.878588
-0.901120
-1.024656
-1.215899
-1.408294
-1.522204
-1.500788
-1.336782
-1.067833
-0.751653
-0.445787
-0.194472
-0.021558
0.062480
0.048381
-0.074076
-0.303853
-0.610914
-0.938512
-1.226927
-1.430966
-1.528280
-1.529297
-1.478472
-1.432595
-1.427719
-1.463408
-1.510254
-1.526087
-1.473209
-1.332929
-1.111595
-0.829615
-0.497797
-0.111511
0.324308
0.771464
1.165687
1.446897
1.587726
1.603008
1.533083
1.408940
1.236317
1.023037
0.805602
0.629417
0.514677
0.451240
0.414202
0.382792
0.354072
0.343456
0.374025
0.458958
0.589923
0.746417
0.913837
1.082996
1.226817
1.294789
1.251087
1.103040
0.882723
0.629588
0.400011
0.264778
0.275177
0.427497
0.663064
0.906214
1.099951
1.205769
1.187468
1.016773
0.700367
0.295748
-0.111236
-0.456749
-0.727399
-0.935537
-1.072847
-1.099028
-0.979819
-0.724651
-0.378790
0.006367
0.384472
0.712877
0.961963
1.129902
1.239130
1.312748
1.357394
1.364610
1.314520
1.178670
0.933170
0.570304
0.095700
-0.478132
-1.133242
-1.842116
-2.560668
-3.224907
-3.758338
-4.094689
-4.202270
-4.086585
-3.772454
-3.291492
-2.686552
-2.016475
-1.347608
-0.738791
-0.232427
0.149828
0.410844
0.565679
0.613333
0.529495
0.299479
-0.040915
-0.401211
-0.670239
-0.755277
-0.610534
-0.249439
0.271474
0.880525
1.498085
2.030263
2.379672
2.475225
2.297621
1.878982
1.277059
0.552062
-0.240897
-1.057815
-1.869878
-2.655209
-3.382730
-4.004718
-4.469969
-4.748005
-4.842785
-4.780857
-4.580472
-4.238329
-3.755979
-3.169831
-2.544225
-1.939542
-1.387784
-0.890767
-0.435216
-0.007547
0.396478
0.763655
1.068484
1.293729
1.442644
1.534598
1.594463
1.632954
1.627821
1.539611
1.357350
1.120764
0.891219
0.699915
0.522379
0.306455
0.026485
-0.293685
-0.598431
-0.826990
-0.940085
-0.938059
-0.848889
-0.705504
-0.543559
-0.405486
-0.334499
-0.368363
-0.536361
-0.849230
-1.281448
-1.770009
-2.240844
-2.634487
-2.911471
-3.045465
-3.017481
-2.824268
-2.494611
-2.088205
-1.673075
-1.300709
-0.994827
-0.761247
-0.604480
-0.524187
-0.495484
-0.466529
-0.384856
-0.221458
0.027016
0.343056
0.694469
1.049034
1.395450
1.749738
2.124781
2.491817
2.791843
2.990966
3.112217
3.212260
3.339277
3.510986
3.713295
3.909341
4.061348
4.154488
4.191107
4.161792
4.039908
3.802172
3.435884
2.929789
2.281444
1.524503
0.736141
0.004885
-0.607062
-1.074926
-1.405434
-1.626997
-1.772311
-1.861928
-1.902208
-1.888465
-1.802573
-1.617486
-1.322423
-0.947887
-0.557598
-0.215657
0.040521
0.207190
0.298831
0.327966
0.302929
0.236895
0.154718
0.094185
0.096434
0.189804
0.380557
0.654549
0.983120
1.329393
1.653507
1.912080
2.060140
2.068231
1.942360
1.725332
1.477772
1.252948
1.080414
0.963020
0.881089
0.800172
0.684634
0.515617
0.300835
0.060204
-0.197018
-0.468503
-0.739100
-0.979954
-1.168231
-1.309106
-1.437957
-1.592755
-1.780273
-1.968671
-2.111979
-2.179993
-2.163575
-2.057784
-1.851232
-1.535367
-1.117151
-0.614529
-0.042817
0.582419
1.232357
1.871205
2.477434
3.052104
3.605599
4.134687
4.607341
4.968345
5.167516
5.192934
5.074015
4.847796
4.534519
4.145463
3.691880
3.184968
2.645013
2.110828
1.629142
1.235405
0.945876
0.756533
0.645912
0.588548
0.567137
0.569239
0.577811
0.567143
0.506570
0.375467
0.179044
-0.057783
-0.312108
-0.572211
-0.832581
-1.087807
-1.324725
-1.517833
-1.639126
-1.675528
-1.636523
-1.545491
-1.426370
-1.301960
-1.201772
-1.160358
-1.202042
-1.329472
-1.522645
-1.745432
-1.961655
-2.149146
-2.294724
-2.378496
-2.371583
-2.250106
-2.005653
-1.647607
-1.206997
-0.733355
-0.275448
0.133368
0.467194
0.695419
0.790134
0.746403
0.587210
0.346699
0.055174
-0.260938
-0.568912
-0.824643
-0.988663
-1.050897
-1.038451
-0.995840
-0.948007
-0.882498
-0.774347
-0.624688
-0.471531
-0.369878
-0.364023
-0.467244
-0.656347
-0.886173
-1.116378
-1.327815
-1.514379
-1.664829
-1.756608
-1.764438
-1.671513
-1.475304
-1.191117
-0.851052
-0.492445
-0.145505
0.169152
0.436127
0.643701
0.790631
0.891833
0.973463
1.064455
1.192608
1.383156
1.656966
2.025574
2.479999
2.982287
3.472778
3.893977
4.217166
4.448679
4.610848
4.719503
4.776657
4.776825
4.716067
4.598581
4.438096
4.251539
4.050410
3.839124
3.622713
3.410627
3.206262
2.995731
2.749192
2.435319
2.046045
1.612411
1.186324
0.800561
0.452758
0.131088
-0.152869
-0.362502
-0.464435
-0.456229
-0.367363
-0.238739
-0.106848
0.000891
0.064721
0.063119
-0.031086
-0.235584
-0.540865
-0.910917
-1.300367
-1.669820
-1.986729
-2.222352
-2.359941
-2.403545
-2.373961
-2.302203
-2.226998
-2.185959
-2.201062
-2.270732
-2.371990
-2.470945
-2.537962
-2.559907
-2.543303
-2.506501
-2.468312
-2.443636
-2.442748
-2.466370
-2.503375
-2.539092
-2.565842
-2.583020
-2.589218
-2.580386
-2.558104
-2.538113
-2.544617
-2.588132
-2.650224
-2.692366
-2.674886
-2.568703
-2.358461
-2.039903
-1.617731
-1.112147
-0.566203
-0.036753
0.427264
0.796082
1.053165
1.188481
1.199547
1.093125
0.882831
0.588684
0.241569
-0.121262
-0.470061
-0.779621
-1.010638
-1.110176
-1.038156
-0.790530
-0.398357
0.088161
0.611383
1.110961
1.527662
1.808813
1.921976
1.872016
1.700269
1.459227
1.185819
0.898854
0.614197
0.355923
0.152326
0.020237
-0.044684
-0.067187
-0.088884
-0.156586
-0.302597
-0.532781
-0.829397
-1.155826
-1.461880
-1.704422
-1.864880
-1.940003
-1.927809
-1.830235
-1.661689
-1.447940
-1.215555
-0.985586
-0.778883
-0.622466
-0.539950
-0.530517
-0.561271
-0.582982
-0.560163
-0.492644
-0.401832
-0.291349
-0.126435
0.141545
0.529323
1.006873
1.530275
2.080568
2.667945
3.309161
4.006151
4.740531
5.485651
6.222479
6.939930
7.621499
8.238170
8.758538
9.162549
9.438948
9.574907
9.556599
9.376097
9.037017
8.560023
7.984955
7.365973
6.758538
6.200465
5.699331
5.238527
4.797664
4.369401
3.957005
3.554020
3.131407
2.652670
2.100238
1.485458
0.835669
0.171852
-0.499543
-1.175906
-1.847590
-2.498540
-3.115241
-3.693337
-4.234753
-4.735409
-5.169654
-5.487530
-5.633548
-5.574997
-5.322261
-4.930110
-4.476985
-4.032246
-3.634630
-3.296426
-3.023190
-2.827763
-2.725154
-2.716934
-2.789660
-2.930940
-3.138218
-3.409598
-3.733949
-4.091249
-4.456340
-4.802928
-5.110693
-5.368491
-5.567351
-5.692163
-5.726188
-5.664335
-5.513726
-5.285177
-4.991912
-4.647435
-4.259613
-3.825636
-3.327563
-2.741180
-2.054089
-1.268445
-0.398655
0.520231
1.435565
2.297986
3.074502
3.749560
4.328343
4.831187
5.271066
5.639083
5.911726
6.071019
6.119327
6.072621
5.949889
5.776984
5.585069
5.395743
5.215142
5.038778
4.851111
4.626679
4.346611
4.016971
3.665198
3.317892
2.978629
2.619578
2.197930
1.686119
1.089253
0.442208
-0.208112
-0.826184
-1.398453
-1.922741
-2.394946
-2.812284
-3.183238
-3.522378
-3.834733
-4.110318
-4.326236
-4.447098
-4.435207
-4.269236
-3.952249
-3.514841
-3.017196
-2.530100
-2.103071
-1.750534
-1.462526
-1.224261
-1.028664
-0.872961
-0.746986
-0.633282
-0.513448
-0.367054
-0.178049
0.059012
0.351019
0.706901
1.121076
1.574113
2.043678
2.510504
2.967094
3.415887
3.853556
4.263319
4.611368
4.848121
4.931451
4.844650
4.582051
4.137911
3.524828
2.786257
1.979127
1.152146
0.344141
-0.402632
-1.041700
-1.541962
-1.895060
-2.103520
-2.182833
-2.174669
-2.138271
-2.127280
-2.178645
-2.310934
-2.522950
-2.796893
-3.105099
-3.418115
-3.714100
-3.979041
-4.201113
-4.374424
-4.503018
-4.593111
-4.644488
-4.652785
-4.614715
-4.527764
-4.391564
-4.215706
-4.029674
-3.881280
-3.815628
-3.855157
-3.997162
-4.219222
-4.487393
-4.767695
-5.033689
-5.267567
-5.460817
-5.615625
-5.737917
-5.832091
-5.905107
-5.957136
-5.974209
-5.939893
-5.839664
-5.667238
-5.436116
-5.166751
-4.870091
-4.551052
-4.203300
-3.803578
-3.337321
-2.816321
-2.258424
-1.673339
-1.071255
-0.459086
0.166615
0.802940
1.431016
2.023230
2.548057
2.991017
3.372818
3.724401
4.061214
4.390991
4.715156
5.022703
5.303106
5.554545
5.778360
5.975012
6.137576
6.253581
6.317935
6.327158
6.268766
6.137740
5.946503
5.711324
5.452178
5.206486
5.025945
4.950738
4.986611
5.108448
5.281041
5.469853
5.634345
5.729736
5.724194
5.604886
5.377254
5.069922
4.725867
4.378297
4.037990
3.705946
3.389401
3.097751
2.833012
2.588779
2.349960
2.091674
1.787575
1.427060
1.019303
0.579576
0.118972
-0.355772
-0.840394
-1.330131
-1.815115
-2.281940
-2.724630
-3.151725
-3.579486
-4.018772
-4.462661
-4.884050
-5.248054
-5.523873
-5.692973
-5.757850
-5.736100
-5.641829
-5.478968
-5.246186
-4.938026
-4.551489
-4.100912
-3.619084
-3.144183
-2.700236
-2.283515
-1.880484
-1.488805
-1.112664
-0.762815
-0.461474
-0.230322
-0.077977
-0.005028
-0.013142
-0.101725
-0.260618
-0.466685
-0.683232
-0.866109
-0.973275
-0.974947
-0.864398
-0.657250
-0.377596
-0.049432
0.302575
0.655973
0.996914
1.317693
1.608696
1.856775
2.049197
2.179928
2.250732
2.264631
2.226240
2.143746
2.024943
1.882015
1.736085
1.605293
1.493966
1.400430
1.328892
1.286405
1.275034
1.291809
1.331394
1.387505
1.448949
1.495257
1.503054
1.455657
1.350122
1.201130
1.030425
0.849784
0.657587
0.448852
0.226900
0.002364
-0.216648
-0.425553
-0.620004
-0.795795
-0.949230
-1.078821
-1.185280
-1.271538
-1.346271
-1.424118
-1.520173
-1.643640
-1.795062
-1.966160
-2.141127
-2.305049
-2.452263
-2.581398
-2.685795
-2.752874
-2.770259
-2.728060
-2.616212
-2.429233
-2.177371
-1.888219
-1.597775
-1.340474
-1.139467
-0.997953
-0.898649
-0.811842
-0.702789
-0.535983
-0.280338
0.082831
0.550377
1.095511
1.677968
2.260957
2.827058
3.377222
3.912657
4.422133
4.882821
5.266944
5.546047
5.690656
5.674919
5.491788
5.165699
4.743160
4.266645
3.761110
3.238828
2.703063
2.147123
1.558818
0.930792
0.269305
-0.403570
-1.052902
-1.638000
-2.125660
-2.503515
-2.780381
-2.973271
-3.101018
-3.191248
-3.278142
-3.384852
-3.512952
-3.648325
-3.775595
-3.890674
-4.003092
-4.131123
-4.292579
-4.493154
-4.724658
-4.974178
-5.230895
-5.486334
-5.734231
-5.972258
-6.198038
-6.399594
-6.555119
-6.644131
-6.651580
-6.565541
-6.389020
-6.151738
-5.894736
-5.645600
-5.411281
-5.187434
-4.968098
-4.748567
-4.534162
-4.340551
-4.169524
-4.002474
-3.821790
-3.618099
-3.380613
-3.088775
-2.717871
-2.263990
-1.759244
-1.255516
-0.797642
-0.411062
-0.100490
0.149609
0.359261
0.534120
0.671431
0.771066
0.835787
0.869902
0.876629
0.860268
0.832690
0.810816
0.808792
0.837586
0.907080
1.019367
1.159654
1.299826
1.411085
1.482047
1.535703
1.611624
1.736645
1.926862
2.189229
2.514525
2.879100
3.252931
3.614151
3.953965
4.266960
4.541337
4.758857
4.903509
4.967255
4.953315
4.877745
4.761680
4.623818
4.484971
4.372237
4.309399
4.306748
4.364008
4.474851
4.626194
4.796987
4.957899
5.078806
5.137627
5.120876
5.024277
4.851552
4.607009
4.292487
3.914766
3.493139
3.056824
2.635624
2.250471
1.912215
1.628310
1.403347
1.233641
1.108203
1.014138
0.938765
0.871984
0.809441
0.748099
0.678730
0.588561
0.471304
0.332232
0.182030
0.023982
-0.146926
-0.332520
-0.529602
-0.732001
-0.925802
-1.091499
-1.210996
-1.269733
-1.261689
-1.198781
-1.112672
-1.045304
-1.032901
-1.087995
-1.195850
-1.331018
-1.467902
-1.577016
-1.626620
-1.588160
-1.438231
