EVENT_NAME: L_AQUILA
EVENT_ID: IT-2009-0009
EVENT_DATE_YYYYMMDD: 20090406
EVENT_TIME_HHMMSS: 013240
EVENT_LATITUDE_DEGREE: 42.3420
EVENT_LONGITUDE_DEGREE: 13.3800
EVENT_DEPTH_KM: 8.3
HYPOCENTER_REFERENCE: INGV-CNT_Seismic_Bulletin
MAGNITUDE_W: 6.1
MAGNITUDE_W_REFERENCE: INGV-CNT_Seismic_Bulletin
MAGNITUDE_L: 
MAGNITUDE_L_REFERENCE: 
FOCAL_MECHANISM: Normal faulting
NETWORK: IT
STATION_CODE: SPO
STATION_NAME: 
STATION_LATITUDE_DEGREE: 42.733585
STATION_LONGITUDE_DEGREE: 12.740602
STATION_ELEVATION_M: 476
LOCATION: 
SENSOR_DEPTH_M: 0.0
VS30_M/S: 
SITE_CLASSIFICATION_EC8: A (inferred from geology)
MORPHOLOGIC_CLASSIFICATION: 
EPICENTRAL_DISTANCE_KM: 68.2
EARTHQUAKE_BACKAZIMUTH_DEGREE: 309.8
DATE_TIME_FIRST_SAMPLE_YYYYMMDD_HHMMSS: 20090406_013241.000
DATE_TIME_FIRST_SAMPLE_PRECISION: seconds
SAMPLING_INTERVAL_S: 0.005000
NDATA: 20200
DURATION_S: 101.000
STREAM: HNZ
UNITS: cm/s^2
INSTRUMENT: sensor = FBA-3 [Kinemetrics] | digitizer = Etna [Kinemetrics]
INSTRUMENT_ANALOG/DIGITAL: D
INSTRUMENTAL_FREQUENCY_HZ: 210.000
INSTRUMENTAL_DAMPING: 0.700000
FULL_SCALE_G: 1.0
N_BIT_DIGITAL_CONVERTER: 18
PGA_CM/S^2: 5.202775
TIME_PGA_S: 27.810000
BASELINE_CORRECTION: BASELINE REMOVED
FILTER_TYPE: BUTTERWORTH
FILTER_ORDER: 2
LOW_CUT_FREQUENCY_HZ: 0.050
HIGH_CUT_FREQUENCY_HZ: 40.000
LATE/NORMAL_TRIGGERED: NT
DATABASE_VERSION: 0.5
HEADER_FORMAT: DYNA 1.2
DATA_TYPE: ACCELERATION
PROCESSING: manual (Paolucci et al., 2011)
DATA_TIMESTAMP_YYYYMMDD_HHMMSS: 20211011_160446.540
DATA_LICENSE: CC-BY3_0-IT (http://creativecommons.org/licenses/by/3.0/deed.en)
DATA_CITATION: Luzi L, Pacor F, Puglia R (2019). Italian Accelerometric Archive v 3.0 - Istituto Nazionale di Geofisica e Vulcanologia, Dipartimento della Protezione Civile Nazionale. doi: 10.13127/itaca.3.1
DATA_CREATOR: ITACA working group
ORIGINAL_DATA_MEDIATOR_CITATION: data obtained within the DPC-INGV data exchange agreements
ORIGINAL_DATA_MEDIATOR: Archive of Italian Department of Civil Protection
ORIGINAL_DATA_CREATOR_CITATION: Presidency Of Counsil Of Ministers-Civil Protection Department. (1972). Italian Strong Motion Network. Presidency of Counsil of Ministers - Civil Protection Department. https://doi.org/10.7914/SN/IT http://www.fdsn.org/networks/detail/IT/
ORIGINAL_DATA_CREATOR: network: IT (Italian Strong Motion Network (RAN)); owner: Presidency of Counsil of Ministers - Civil Protection Department (PCM - DPC)
USER1: 
USER2: 
USER3: 
USER4: 
USER5: 
[...]
1.335853
1.149591
0.970901
0.815259
0.669855
0.508625
0.322584
0.129576
-0.044058
-0.183803
-0.290633
-0.374759
-0.452655
-0.543594
-0.657921
-0.791168
-0.936159
-1.096252
-1.278999
-1.477620
-1.667253
-1.820667
-1.916497
-1.930814
-1.836756
-1.621982
-1.302977
-0.920502
-0.524249
-0.160028
0.141841
0.378507
0.574834
0.764731
0.963674
1.155418
1.308419
1.402535
1.435918
1.413515
1.335407
1.192239
0.970754
0.670648
0.318652
-0.038605
-0.359101
-0.622140
-0.822148
-0.954839
-1.014538
-0.996853
-0.900221
-0.734716
-0.536212
-0.365838
-0.282268
-0.305887
-0.409334
-0.541733
-0.659475
-0.737905
-0.764800
-0.730886
-0.628903
-0.464645
-0.269861
-0.097721
0.003382
0.019889
-0.014628
-0.035926
0.016530
0.172581
0.422248
0.719291
0.993922
1.169949
1.184485
1.015668
0.707977
0.364589
0.097855
-0.026392
-0.007246
0.115121
0.294492
0.497439
0.701708
0.882087
0.999128
1.008622
0.891308
0.674520
0.418719
0.179688
-0.017072
-0.171933
-0.293367
-0.390786
-0.476395
-0.559497
-0.633323
-0.667978
-0.620378
-0.458980
-0.187525
0.145952
0.463451
0.694056
0.811275
0.843866
0.852441
0.885262
0.945118
0.995036
0.992192
0.915073
0.768781
0.577022
0.369160
0.167750
-0.014475
-0.166815
-0.273159
-0.310904
-0.252708
-0.074589
0.226213
0.619464
1.052358
1.471401
1.831088
2.086111
2.190928
2.119153
1.882624
1.526591
1.106059
0.666548
0.238270
-0.162330
-0.526595
-0.844247
-1.096485
-1.259326
-1.317257
-1.277262
-1.170215
-1.034244
-0.891308
-0.736981
-0.553950
-0.340773
-0.133018
0.004129
0.012939
-0.116770
-0.341847
-0.603114
-0.868023
-1.135617
-1.407699
-1.663679
-1.862913
-1.968806
-1.969036
-1.874855
-1.710273
-1.501546
-1.268725
-1.027971
-0.797020
-0.588404
-0.397717
-0.198040
0.049164
0.360087
0.699724
0.997941
1.203231
1.320743
1.393670
1.450608
1.479617
1.447929
1.332065
1.131863
0.872238
0.595717
0.344395
0.144076
0.003028
-0.085251
-0.149049
-0.244140
-0.437720
-0.768900
-1.211655
-1.674434
-2.040081
-2.216280
-2.165330
-1.903977
-1.484835
-0.970454
-0.411365
0.155363
0.687670
1.123397
1.394241
1.466625
1.369943
1.181566
0.981934
0.813661
0.670114
0.517663
0.327392
0.087051
-0.202601
-0.524015
-0.835673
-1.083014
-1.221461
-1.226185
-1.086652
-0.806744
-0.416113
0.028007
0.462819
0.850164
1.186627
1.484450
1.748450
1.973716
2.150566
2.263669
2.296065
2.234315
2.067966
1.793711
1.423653
0.988463
0.533483
0.105863
-0.264495
-0.577017
-0.848924
-1.085994
-1.270351
-1.374713
-1.382251
-1.302440
-1.170120
-1.023113
-0.885213
-0.764372
-0.653276
-0.540226
-0.431462
-0.356998
-0.348266
-0.413103
-0.534332
-0.680038
-0.803407
-0.846828
-0.766382
-0.554837
-0.242412
0.119853
0.483381
0.812230
1.069674
1.210793
1.202384
1.046370
0.782826
0.472526
0.167930
-0.107643
-0.355752
-0.582364
-0.776036
-0.899128
-0.907065
-0.782319
-0.552998
-0.280782
-0.024139
0.193942
0.386919
0.581911
0.797995
1.033943
1.260805
1.425602
1.478997
1.410087
1.246584
1.021209
0.751456
0.448363
0.126954
-0.195176
-0.502124
-0.780670
-1.017453
-1.194107
-1.286682
-1.277354
-1.175884
-1.028313
-0.893815
-0.808418
-0.769699
-0.745371
-0.691068
-0.572400
-0.385034
-0.159740
0.050504
0.191053
0.222479
0.125887
-0.096869
-0.412928
-0.747065
-0.992016
-1.042561
-0.841707
-0.417146
0.129123
0.682839
1.177705
1.606539
1.991246
2.341613
2.627608
2.789261
2.780481
2.610112
2.352598
2.118859
1.998580
2.012490
2.105592
2.180618
2.148718
1.963847
1.624112
1.159443
0.626276
0.097985
-0.359051
-0.704833
-0.923937
-1.012578
-0.974660
-0.828313
-0.607208
-0.351369
-0.096275
0.130548
0.306390
0.415331
0.455675
0.440975
0.396472
0.354232
0.336157
0.332789
0.308692
0.234034
0.107553
-0.043160
-0.171732
-0.229545
-0.190017
-0.064226
0.110322
0.295934
0.467152
0.600459
0.660942
0.610466
0.434208
0.155611
-0.175358
-0.505277
-0.796105
-1.037658
-1.245912
-1.436005
-1.591322
-1.667735
-1.627363
-1.465583
-1.216932
-0.939678
-0.683531
-0.464388
-0.267903
-0.074856
0.111891
0.257865
0.315988
0.261385
0.110763
-0.091758
-0.306022
-0.515349
-0.721167
-0.920848
-1.097424
-1.234431
-1.329854
-1.393341
-1.438777
-1.474644
-1.490055
-1.448442
-1.297247
-0.992608
-0.534261
0.012453
0.537830
0.940287
1.163979
1.204364
1.096095
0.894573
0.657494
0.435134
0.265374
0.159486
0.093404
0.024954
-0.082049
-0.243364
-0.444099
-0.645365
-0.813861
-0.942668
-1.041268
-1.108831
-1.115759
-1.009853
-0.746705
-0.328464
0.177785
0.669527
1.070760
1.365023
1.565877
1.663419
1.608859
1.355534
0.916163
0.382391
-0.105721
-0.414819
-0.473703
-0.304690
-0.002979
0.326069
0.620490
0.870159
1.088792
1.284990
1.459945
1.622113
1.787779
1.962451
2.127783
2.249284
2.294761
2.246371
2.101935
1.876120
1.604167
1.331085
1.084363
0.860226
0.641851
0.426963
0.228156
0.044150
-0.160169
-0.437983
-0.821138
-1.290844
-1.781760
-2.211992
-2.518242
-2.677782
-2.701168
-2.601237
-2.371382
-2.000066
-1.509550
-0.976329
-0.506834
-0.186328
-0.043735
-0.054985
-0.167304
-0.318194
-0.444646
-0.490752
-0.419280
-0.226827
0.046846
0.329571
0.549454
0.669190
0.695199
0.655979
0.574592
0.464390
0.342114
0.229531
0.141960
0.085638
0.068505
0.102198
0.181774
0.269393
0.312524
0.284573
0.204309
0.115548
0.059623
0.063499
0.127690
0.216867
0.278280
0.277112
0.210259
0.095285
-0.039148
-0.156865
-0.222768
-0.219316
-0.162853
-0.099456
-0.070804
-0.079507
-0.098995
-0.119173
-0.165431
-0.269627
-0.431415
-0.605239
-0.722642
-0.728587
-0.596633
-0.324321
0.062128
0.495562
0.881457
1.141625
1.246886
1.213821
1.086337
0.918766
0.756066
0.616739
0.491544
0.364561
0.248016
0.192548
0.245379
0.399384
0.594197
0.760045
0.857732
0.892032
0.895926
0.902061
0.924944
0.955139
0.958922
0.892228
0.729165
0.481231
0.190718
-0.091902
-0.327902
-0.501224
-0.622412
-0.718725
-0.810189
-0.891298
-0.935108
-0.915427
-0.825207
-0.676845
-0.492613
-0.294203
-0.089547
0.136585
0.409729
0.735768
1.083838
1.393982
1.600987
1.660108
1.558418
1.309621
0.947020
0.523547
0.107994
-0.233262
-0.461482
-0.581541
-0.630513
-0.639078
-0.603030
-0.494327
-0.296622
-0.032854
0.238764
0.458607
0.596631
0.652599
0.636541
0.562405
0.464089
0.403523
0.446169
0.623142
0.912601
1.253486
1.580948
1.851991
2.045743
2.159018
2.205709
2.203878
2.158046
2.056333
1.880563
1.625519
1.314836
0.992343
0.699402
0.459699
0.272253
0.115220
-0.035827
-0.188618
-0.330873
-0.448492
-0.551161
-0.675826
-0.860487
-1.114125
-1.408646
-1.695618
-1.928566
-2.075652
-2.128306
-2.106586
-2.047722
-1.981557
-1.914109
-1.827043
-1.688914
-1.473397
-1.176626
-0.821322
-0.442106
-0.071720
0.253162
0.479883
0.544154
0.398653
0.051243
-0.419707
-0.896985
-1.287226
-1.561193
-1.738638
-1.842468
-1.870931
-1.808250
-1.654294
-1.440363
-1.208991
-0.975775
-0.723466
-0.437010
-0.133551
0.144961
0.361461
0.501850
0.570353
0.574629
0.515054
0.386243
0.186348
-0.076255
-0.382508
-0.706801
-1.020434
-1.292988
-1.496759
-1.613489
-1.639649
-1.588384
-1.486838
-1.370960
-1.272287
-1.194530
-1.108050
-0.979292
-0.805253
-0.626507
-0.514792
-0.532687
-0.684193
-0.895003
-1.044959
-1.036391
-0.847040
-0.530177
-0.176913
0.124116
0.313248
0.373137
0.332068
0.251910
0.198262
0.212688
0.309225
0.488492
0.744153
1.049226
1.339336
1.522063
1.515443
1.289904
0.887689
0.406846
-0.042985
-0.384357
-0.592333
-0.691058
-0.731453
-0.757702
-0.783435
-0.789876
-0.738469
-0.591628
-0.337419
-0.006090
0.336070
0.617136
0.793835
0.868024
0.878793
0.877012
0.899884
0.956415
1.027470
1.083568
1.107777
1.104225
1.086607
1.055769
0.985444
0.836577
0.596067
0.299207
0.010366
-0.214391
-0.351880
-0.412699
-0.422725
-0.401854
-0.355855
-0.282884
-0.183532
-0.061833
0.079783
0.238580
0.405856
0.567537
0.708950
0.818353
0.883105
0.878281
0.763749
0.501091
0.078190
-0.474607
-1.082073
-1.641383
-2.056971
-2.272005
-2.278607
-2.106049
-1.795992
-1.381783
-0.891526
-0.368586
0.125357
0.535798
0.840461
1.050983
1.197920
1.312866
1.409898
1.473273
1.468199
1.370712
1.190415
0.968563
0.754009
0.573273
0.413787
0.231818
-0.018880
-0.356218
-0.752553
-1.141918
-1.456602
-1.666969
-1.786774
-1.846830
-1.867667
-1.850339
-1.787076
-1.676248
-1.525671
-1.351479
-1.180749
-1.045848
-0.966782
-0.940204
-0.951297
-1.000395
-1.113808
-1.320846
-1.619024
-1.961701
-2.280001
-2.522136
-2.675339
-2.754055
-2.775347
-2.745269
-2.660092
-2.516888
-2.321947
-2.087352
-1.820133
-1.516882
-1.171372
-0.787808
-0.386317
0.002229
0.345571
0.618934
0.813728
0.939291
1.008653
1.021792
0.967330
0.836371
0.631015
0.367844
0.076882
-0.211373
-0.480025
-0.727127
-0.963723
-1.211790
-1.489628
-1.794223
-2.103101
-2.391225
-2.643583
-2.858733
-3.046256
-3.217822
-3.377471
-3.518064
-3.619833
-3.649258
-3.566905
-3.344473
-2.979773
-2.503178
-1.973133
-1.457482
-1.006686
-0.633801
-0.311974
0.007601
0.365983
0.776112
1.225148
1.690195
2.150055
2.588010
2.989337
3.334672
3.598057
3.761229
3.832138
3.843540
3.826756
3.784101
3.690598
3.521628
3.274272
2.965726
2.618135
2.246791
1.858156
1.454296
1.040150
0.629434
0.245940
-0.083370
-0.343288
-0.541412
-0.703483
-0.853951
-0.996336
-1.110671
-1.168719
-1.151183
-1.053861
-0.885668
-0.670935
-0.452628
-0.279506
-0.182089
-0.159236
-0.183375
-0.215844
-0.218733
-0.162219
-0.035100
0.147892
0.353634
0.549525
0.717047
0.849169
0.942695
1.000363
1.036275
1.068704
1.101809
1.118862
1.098097
1.031567
0.926649
0.794350
0.640745
0.470218
0.294921
0.137950
0.023204
-0.040961
-0.067686
-0.082569
-0.109277
-0.158535
-0.228245
-0.312763
-0.409615
-0.521658
-0.655887
-0.817304
-1.003524
-1.204384
-1.401201
-1.565122
-1.661861
-1.663702
-1.562341
-1.373013
-1.124077
-0.842470
-0.550938
-0.274599
-0.040036
0.134581
0.243037
0.287962
0.281308
0.243879
0.198218
0.161175
0.139759
0.129953
0.120422
0.096180
0.037056
-0.078934
-0.261941
-0.501591
-0.772841
-1.048557
-1.308679
-1.540547
-1.732761
-1.869191
-1.932897
-1.925026
-1.877335
-1.837116
-1.839182
-1.889333
-1.967975
-2.049936
-2.123133
-2.188141
-2.247258
-2.302391
-2.355358
-2.401673
-2.426298
-2.401861
-2.291816
-2.066127
-1.715341
-1.251136
-0.702294
-0.110545
0.475420
1.003484
1.420081
1.681770
1.772666
1.710348
1.539344
1.317799
1.101632
0.937472
0.861894
0.891996
1.011179
1.170352
1.311254
1.394042
1.409076
1.374995
1.334773
1.346980
1.463024
1.699467
2.029751
2.402067
2.765343
3.084015
3.337592
3.517311
3.627412
3.682621
3.700012
3.694662
3.679160
3.660240
3.634999
3.593846
3.529547
3.443160
3.341089
3.227297
3.098553
2.947801
2.771647
2.571257
2.346214
2.093741
1.816157
1.526103
1.242396
0.979153
0.737150
0.502034
0.249203
-0.040471
-0.359245
-0.667291
-0.914414
-1.071055
-1.143845
-1.170645
-1.204341
-1.291085
-1.453070
-1.688523
-1.981858
-2.310433
-2.648272
-2.967534
-3.236143
-3.421523
-3.505621
-3.493671
-3.405694
-3.264019
-3.087504
-2.890683
-2.685456
-2.485658
-2.313386
-2.197803
-2.159957
-2.197712
-2.287298
-2.400662
-2.526730
-2.675871
-2.862487
-3.088699
-3.338429
-3.575996
-3.755020
-3.833188
-3.780718
-3.586992
-3.263360
-2.834028
-2.326543
-1.771556
-1.201746
-0.642948
-0.106307
0.409827
0.906356
1.367098
1.760908
2.064507
2.281315
2.439840
2.576373
2.714893
2.858318
2.996907
3.119419
3.213035
3.262070
3.256947
3.202174
3.109541
2.985079
2.823873
2.611553
2.329776
1.968327
1.536147
1.063487
0.597735
0.187070
-0.144798
-0.406563
-0.625162
-0.829559
-1.041060
-1.270252
-1.523376
-1.811035
-2.141062
-2.497882
-2.833696
-3.079839
-3.169275
-3.066309
-2.786652
-2.384938
-1.923715
-1.451613
-0.993709
-0.553666
-0.128819
0.275747
0.646739
0.969792
1.232481
1.422178
1.527452
1.544732
1.485331
1.380888
1.274280
1.197221
1.165393
1.192830
1.297698
1.492973
1.775229
2.121283
2.494056
2.854680
3.174487
3.441707
3.661031
3.844675
3.999615
4.125066
4.223526
4.298675
4.336086
4.307206
4.196457
4.012514
3.781587
3.537433
3.307934
3.105823
2.928465
2.757746
2.567677
2.343873
2.093467
1.836972
1.595139
1.378889
1.182510
0.989077
0.785991
0.569714
0.343110
0.118036
-0.085885
-0.249104
-0.356627
-0.401037
-0.388670
-0.340710
-0.289433
-0.272388
-0.319011
-0.440922
-0.636060
-0.893118
-1.189017
-1.493566
-1.786095
-2.065344
-2.342708
-2.629899
-2.929699
-3.230541
-3.507134
-3.729148
-3.873258
-3.930756
-3.910536
-3.833171
-3.711352
-3.537700
-3.296550
-2.982522
-2.608487
-2.207251
-1.824811
-1.502104
-1.264853
-1.124457
-1.076769
-1.101054
-1.163396
-1.220649
-1.225561
-1.145551
-0.979873
-0.748815
-0.476199
-0.187877
0.092827
0.359450
0.622570
0.900161
1.211724
1.569101
1.973059
2.418845
2.899591
3.406168
3.921302
4.409551
4.817058
5.090965
5.202775
5.157707
4.990778
4.750794
4.480384
4.205779
3.936577
3.669133
3.394509
3.110015
2.823471
2.550337
2.313071
2.139111
2.050709
2.055102
2.146408
2.314103
2.548763
2.842021
3.179992
3.538445
3.887361
4.195726
4.433662
4.580316
4.629792
4.586565
4.457778
4.251810
3.980619
3.656836
3.290727
2.893407
2.477861
2.053942
1.625873
1.196458
0.774931
0.377761
0.020887
-0.278889
-0.503393
-0.646501
-0.721322
-0.752434
-0.758141
-0.740275
-0.695089
-0.627673
-0.556309
-0.508246
-0.510162
-0.576154
-0.700845
-0.864292
-1.039965
-1.204773
-1.354095
-1.505943
-1.684608
-1.898338
-2.133719
-2.368963
-2.588737
-2.789287
-2.977567
-3.166895
-3.363466
-3.553029
-3.703002
-3.777279
-3.751725
-3.621090
-3.395806
-3.094414
-2.739229
-2.354219
-1.960626
-1.573615
-1.202013
-0.849886
-0.518749
-0.208920
0.080043
0.345230
0.573477
0.743426
0.834264
0.830964
0.728755
0.537961
0.285983
0.013207
-0.241027
-0.453166
-0.616114
-0.732076
-0.809414
-0.861077
-0.903240
-0.953927
-1.029025
-1.137493
-1.278802
-1.442382
-1.610068
-1.764842
-1.898185
-2.008636
-2.100034
-2.182000
-2.267520
-2.368752
-2.489692
-2.618764
-2.731728
-2.803034
-2.818147
-2.781394
-2.710160
-2.616965
-2.496721
-2.331300
-2.103043
-1.804259
-1.441335
-1.033141
-0.604355
-0.180693
0.211034
0.544292
0.798521
0.964741
1.050755
1.081030
1.083141
1.073291
1.056763
1.036610
1.018158
1.005751
0.994190
0.964946
0.894338
0.768296
0.592299
0.388848
0.187793
0.015746
-0.113633
-0.199549
-0.242192
-0.231397
-0.148005
0.022411
0.276312
0.589962
0.930938
1.275398
1.614478
1.947613
2.275311
2.596322
2.905543
3.191810
3.438320
3.625743
3.735741
3.753697
3.671057
3.487468
3.211185
2.857802
2.449886
2.016484
1.589248
1.196805
0.860489
0.591398
0.387126
0.232569
0.109482
0.005142
-0.084444
-0.153745
-0.196929
-0.222313
-0.255406
-0.330804
-0.480464
-0.719806
-1.037780
-1.402527
-1.779400
-2.144416
-2.486756
-2.803508
-3.088171
-3.320820
-3.470172
-3.503541
-3.398993
-3.161285
-2.829051
-2.457937
-2.095721
-1.771950
-1.497943
-1.269420
-1.073853
-0.899964
-0.740959
-0.588670
-0.428507
-0.243688
-0.022919
0.235196
0.518586
0.803228
1.064366
1.286692
1.467149
1.609100
1.713049
1.777582
1.807204
1.812738
1.803038
1.784329
1.764607
1.745179
1.715964
1.665697
1.590225
1.497202
1.410577
1.362663
1.375813
1.455784
1.594296
1.770997
1.958652
2.125671
2.242756
2.299131
2.307276
2.288737
2.261673
2.241239
2.235772
2.239367
2.239609
2.228698
2.202894
2.158501
2.089793
1.986876
1.839404
1.647152
1.424231
1.193781
0.976496
0.775703
0.574748
0.352390
0.098218
-0.180022
-0.452450
-0.671118
-0.787932
-0.778103
-0.652148
-0.450081
-0.222673
-0.008746
0.176261
0.332881
0.463403
0.567900
0.644849
0.684061
0.664761
0.569556
0.399878
0.176549
-0.072669
-0.327086
-0.580142
-0.836368
-1.100601
-1.367231
-1.621009
-1.845104
-2.026161
-2.161046
-2.261132
-2.346584
-2.434950
-2.530072
-2.621151
-2.693560
-2.738804
-2.757365
-2.755420
-2.736642
-2.698160
-2.636167
-2.551652
-2.448711
-2.329684
-2.196159
-2.054826
-1.919551
-1.809841
-1.746660
-1.744484
-1.803083
-1.906356
-2.031828
-2.160219
-2.278136
-2.380270
-2.471889
-2.564870
-2.667408
-2.778109
-2.888671
-2.990156
-3.078113
-3.152173
-3.212462
-3.255450
-3.268415
-3.229207
-3.116042
-2.919987
-2.649352
-2.324345
-1.968932
-1.605424
-1.253538
-0.929660
-0.642769
-0.393012
-0.171892
0.038948
0.259947
0.499143
0.745441
0.971534
1.145431
1.247175
1.276826
1.249008
1.185279
1.108063
1.032712
0.962691
0.891391
0.807160
0.698872
0.559403
0.384461
0.172229
-0.069740
-0.317050
-0.531087
-0.672987
-0.718222
-0.660587
-0.506210
-0.265047
0.050303
0.415342
0.786043
1.107662
1.336813
1.456347
1.471269
1.395524
1.245990
1.042323
0.799295
0.517942
0.192973
-0.168293
-0.537739
-0.878195
-1.161881
-1.378109
-1.528501
-1.621014
-1.666542
-1.674348
-1.648240
-1.590312
-1.509458
-1.419465
-1.328211
-1.233515
-1.126171
-0.997288
-0.847885
-0.689832
-0.534370
-0.379903
-0.212036
-0.016269
0.208683
0.446443
0.666028
0.832328
0.925463
0.956475
0.962805
0.983125
1.031167
1.092495
1.141503
1.157686
1.135355
1.087058
1.035420
0.999278
0.987246
0.997216
1.012238
0.999123
0.922103
0.761752
0.520713
0.219094
-0.109850
-0.427987
-0.707880
-0.942682
-1.140533
-1.310244
-1.449669
-1.544563
-1.576942
-1.534120
-1.414601
-1.229954
-0.997642
-0.729520
-0.431413
-0.113610
0.205586
0.505820
0.767869
0.977255
1.132299
1.244637
1.328559
1.389882
1.423797
1.420337
1.369195
1.261192
1.090171
0.856952
0.570987
0.250597
-0.075617
-0.375222
-0.627275
-0.830697
-0.997129
-1.137317
-1.252847
-1.336299
-1.377972
-1.372751
-1.321048
-1.226874
-1.098373
-0.949105
-0.795349
-0.650742
-0.523445
-0.416660
-0.328848
-0.254370
-0.187875
-0.128422
-0.080885
-0.056619
-0.070279
-0.130782
-0.233761
-0.362298
-0.491366
-0.592003
-0.637570
-0.609562
-0.502678
-0.330619
-0.122336
0.093869
0.302967
0.504074
0.702152
0.897541
1.082979
1.247737
1.379359
1.462778
1.484588
1.440004
1.334948
1.182995
1.001495
0.810056
0.627671
0.468421
0.341557
0.254675
0.215628
0.230270
0.298113
0.409332
0.544148
0.679164
0.797551
0.893083
0.967958
1.027699
1.075096
1.109328
1.129131
1.133009
1.120372
1.095031
1.064312
1.035306
1.012183
0.994227
0.975249
0.943892
0.882383
0.768400
0.586218
0.337329
0.040192
-0.275289
-0.575013
-0.829767
-1.021068
-1.144532
-1.211313
-1.239484
-1.240265
-1.215046
