EVENT_NAME: L_AQUILA
EVENT_ID: IT-2009-0009
EVENT_DATE_YYYYMMDD: 20090406
EVENT_TIME_HHMMSS: 013240
EVENT_LATITUDE_DEGREE: 42.3420
EVENT_LONGITUDE_DEGREE: 13.3800
EVENT_DEPTH_KM: 8.3
HYPOCENTER_REFERENCE: INGV-CNT_Seismic_Bulletin
MAGNITUDE_W: 6.1
MAGNITUDE_W_REFERENCE: INGV-CNT_Seismic_Bulletin
MAGNITUDE_L: 
MAGNITUDE_L_REFERENCE: 
FOCAL_MECHANISM: Normal faulting
NETWORK: IT
STATION_CODE: SPO
STATION_NAME: 
STATION_LATITUDE_DEGREE: 42.733585
STATION_LONGITUDE_DEGREE: 12.740602
STATION_ELEVATION_M: 476
LOCATION: 
SENSOR_DEPTH_M: 0.0
VS30_M/S: 
SITE_CLASSIFICATION_EC8: A (inferred from geology)
MORPHOLOGIC_CLASSIFICATION: 
EPICENTRAL_DISTANCE_KM: 68.2
EARTHQUAKE_BACKAZIMUTH_DEGREE: 309.8
DATE_TIME_FIRST_SAMPLE_YYYYMMDD_HHMMSS: 20090406_013241.000
DATE_TIME_FIRST_SAMPLE_PRECISION: seconds
SAMPLING_INTERVAL_S: 0.005000
NDATA: 20200
DURATION_S: 101.000
STREAM: HNE
UNITS: cm/s^2
INSTRUMENT: sensor = FBA-3 [Kinemetrics] | digitizer = Etna [Kinemetrics]
INSTRUMENT_ANALOG/DIGITAL: D
INSTRUMENTAL_FREQUENCY_HZ: 206.000
INSTRUMENTAL_DAMPING: 0.700000
FULL_SCALE_G: 1.0
N_BIT_DIGITAL_CONVERTER: 18
PGA_CM/S^2: -6.254526
TIME_PGA_S: 26.880000
BASELINE_CORRECTION: BASELINE NOT REMOVED
FILTER_TYPE: 
FILTER_ORDER: 
LOW_CUT_FREQUENCY_HZ: 
HIGH_CUT_FREQUENCY_HZ: 
LATE/NORMAL_TRIGGERED: NT
DATABASE_VERSION: 0.5
HEADER_FORMAT: DYNA 1.2
DATA_TYPE: ACCELERATION
PROCESSING: converted to cm/s^2
DATA_TIMESTAMP_YYYYMMDD_HHMMSS: 20211011_160445.328
DATA_LICENSE: CC-BY3_0-IT (http://creativecommons.org/licenses/by/3.0/deed.en)
DATA_CITATION: Luzi L, Pacor F, Puglia R (2019). Italian Accelerometric Archive v 3.0 - Istituto Nazionale di Geofisica e Vulcanologia, Dipartimento della Protezione Civile Nazionale. doi: 10.13127/itaca.3.1
DATA_CREATOR: ITACA working group
ORIGINAL_DATA_MEDIATOR_CITATION: data obtained within the DPC-INGV data exchange agreements
ORIGINAL_DATA_MEDIATOR: Archive of Italian Department of Civil Protection
ORIGINAL_DATA_CREATOR_CITATION: Presidency Of Counsil Of Ministers-Civil Protection Department. (1972). Italian Strong Motion Network. Presidency of Counsil of Ministers - Civil Protection Department. https://doi.org/10.7914/SN/IT http://www.fdsn.org/networks/detail/IT/
ORIGINAL_DATA_CREATOR: network: IT (Italian Strong Motion Network (RAN)); owner: Presidency of Counsil of Ministers - Civil Protection Department (PCM - DPC)
USER1: 
USER2: 
USER3: 
USER4: 
USER5: 
[...]
1.030676
1.052914
1.032548
0.957641
0.826787
0.649351
0.415265
0.133193
-0.144198
-0.381093
-0.558763
-0.669018
-0.706939
-0.677913
-0.614710
-0.572106
-0.536993
-0.509605
-0.490879
-0.454361
-0.395840
-0.295652
-0.189845
-0.130153
-0.081698
-0.016856
0.035111
0.074203
0.083801
0.044240
-0.021538
-0.102999
-0.183525
-0.258432
-0.343171
-0.412226
-0.437273
-0.436337
-0.414099
-0.397010
-0.378518
-0.345746
-0.342937
-0.357918
-0.380390
-0.387647
-0.353002
-0.276925
-0.144432
0.047049
0.267089
0.459742
0.642796
0.842939
1.052914
1.253759
1.418555
1.547770
1.594587
1.555729
1.492760
1.373610
1.154273
0.853005
0.495088
0.100421
-0.299163
-0.688681
-1.055960
-1.346226
-1.562053
-1.718422
-1.783497
-1.768048
-1.691502
-1.556201
-1.354887
-1.087094
-0.783719
-0.500710
-0.282777
-0.132026
-0.050096
-0.033008
-0.063439
-0.145603
-0.258432
-0.347618
-0.356046
-0.261475
-0.107915
0.096675
0.360256
0.648883
0.935637
1.142568
1.241352
1.270379
1.206707
1.074215
0.925337
0.757030
0.576082
0.402157
0.278091
0.247426
0.296818
0.423693
0.610024
0.779736
0.895140
0.937041
0.906376
0.841301
0.763116
0.676739
0.593873
0.513581
0.418543
0.321631
0.212548
0.102995
0.004446
-0.094806
-0.156371
-0.234087
-0.343873
-0.455766
-0.568595
-0.655909
-0.746500
-0.838261
-0.922766
-0.999312
-1.075155
-1.138358
-1.147722
-1.098564
-1.021316
-0.946643
-0.853243
-0.768972
-0.714898
-0.673699
-0.650291
-0.642332
-0.637416
-0.606751
-0.546123
-0.431889
-0.275520
-0.089891
0.133895
0.366107
0.593404
0.756328
0.830299
0.823042
0.735962
0.588957
0.395603
0.215591
0.018959
-0.221915
-0.458341
-0.694533
-0.932597
-1.158724
-1.314391
-1.387893
-1.389298
-1.298473
-1.132272
-0.878290
-0.559231
-0.187972
0.229870
0.659650
1.050807
1.339902
1.538875
1.654513
1.683071
1.621741
1.507741
1.359799
1.145846
0.914101
0.697572
0.527860
0.397709
0.269898
0.169476
0.100421
0.058051
0.017320
-0.016856
-0.044712
-0.081932
-0.132026
-0.209274
-0.296822
-0.436571
-0.610496
-0.790508
-0.971690
-1.121270
-1.271085
-1.376657
-1.431901
-1.472164
-1.458119
-1.392341
-1.273426
-1.074219
-0.822812
-0.547293
-0.261943
-0.012174
0.197332
0.386473
0.543076
0.654735
0.683761
0.626644
0.524583
0.388580
0.276219
0.235488
0.249299
0.283007
0.269430
0.171349
0.014980
-0.186100
-0.393265
-0.528332
-0.577022
-0.556188
-0.485261
-0.387647
-0.267093
-0.118683
0.040729
0.209739
0.411988
0.574209
0.639051
0.629219
0.542608
0.407307
0.235488
0.046581
-0.124067
-0.288629
-0.421355
-0.489942
-0.479643
-0.422292
-0.356748
-0.278797
-0.213722
-0.176970
-0.161755
-0.143496
-0.128983
-0.117513
-0.115874
-0.151923
-0.199442
-0.258900
-0.271775
-0.180248
0.018959
0.263578
0.453655
0.542374
0.492045
0.327249
0.082630
-0.196868
-0.466768
-0.704833
-0.921361
-1.144211
-1.379700
-1.596463
-1.750491
-1.820015
-1.752832
-1.578673
-1.336863
-1.040511
-0.732455
-0.416205
-0.084038
0.260301
0.571869
0.750944
0.774586
0.705063
0.573741
0.458337
0.397007
0.354871
0.296818
0.167603
-0.066716
-0.374304
-0.686340
-0.989246
-1.262658
-1.462566
-1.590377
-1.696886
-1.776709
-1.779050
-1.679095
-1.462566
-1.176280
-0.891164
-0.652866
-0.475897
-0.375475
-0.320699
-0.296120
-0.319528
-0.328423
-0.301504
-0.259602
-0.217233
-0.174864
-0.115406
-0.013813
0.161283
0.386941
0.703424
1.117755
1.525532
1.897259
2.164350
2.276009
2.255644
2.102084
1.882043
1.646320
1.379697
1.062277
0.703424
0.302436
-0.128749
-0.525991
-0.849029
-1.111439
-1.363783
-1.554562
-1.582886
-1.420431
-1.141636
-0.834048
-0.531609
-0.309229
-0.216297
-0.240407
-0.359557
-0.525991
-0.675104
-0.806426
-0.891633
-0.954601
-1.029275
-1.069069
-1.057131
-0.949218
-0.846922
-0.841772
-0.900762
-1.018039
-1.066962
-1.016634
-0.897719
-0.676976
-0.382497
-0.035583
0.300330
0.594809
0.803145
0.902163
1.014290
1.239948
1.576796
2.023432
2.507519
2.937768
3.329627
3.638385
3.843678
3.872939
3.709079
3.447840
3.148913
2.874565
2.565104
2.220063
1.892578
1.556899
1.182363
0.714661
0.152856
-0.448275
-1.089903
-1.741362
-2.338279
-2.837583
-3.194798
-3.372468
-3.352337
-3.143064
-2.774146
-2.322362
-1.826803
-1.296834
-0.757736
-0.223085
0.294946
0.755391
1.109328
1.343179
1.443836
1.428386
1.283019
1.027164
0.762648
0.503047
0.291200
0.122893
-0.038158
-0.183993
-0.378049
-0.614242
-0.857456
-1.057599
-1.182132
-1.261253
-1.254465
-1.143508
-0.989480
-0.829132
-0.742286
-0.803616
-0.981755
-1.188687
-1.321179
-1.323052
-1.251188
-1.165980
-1.093648
-1.062749
-0.996971
-0.862372
-0.674636
-0.474259
-0.297524
-0.091763
0.154026
0.410350
0.587552
0.663162
0.644435
0.504452
0.325377
0.125000
-0.048457
-0.050330
0.101357
0.335676
0.626176
0.869625
0.999542
1.045891
0.975431
0.819999
0.636008
0.381323
0.075608
-0.305717
-0.747202
-1.185410
-1.629469
-2.032330
-2.375967
-2.571662
-2.539359
-2.298719
-1.902179
-1.442201
-0.902166
-0.332169
0.183287
0.675568
1.113776
1.457179
1.738081
1.947119
2.070951
2.130408
2.103722
1.949694
1.692903
1.362608
1.036996
0.796590
0.617515
0.489236
0.369385
0.268494
0.215357
0.181414
0.142556
0.091760
0.036515
0.050561
0.147238
0.294712
0.520370
0.744623
0.980113
1.226371
1.481056
1.716779
1.794028
1.697819
1.472863
1.194301
0.903567
0.610492
0.350190
0.131554
-0.097147
-0.324912
-0.540271
-0.753054
-0.934938
-1.059003
-1.062983
-0.959517
-0.791678
-0.627350
-0.514989
-0.398649
-0.252346
-0.030901
0.279262
0.659182
1.056425
1.362374
1.601609
1.691498
1.592948
1.330071
0.896779
0.405902
-0.108618
-0.577256
-0.976137
-1.288407
-1.478250
-1.571650
-1.552923
-1.439626
-1.291918
-1.123845
-0.970519
-0.854413
-0.777165
-0.788401
-0.858158
-0.997907
-1.230120
-1.586164
-2.025776
-2.464685
-2.879485
-3.220547
-3.449950
-3.550607
-3.561375
-3.471720
-3.260341
-2.892828
-2.385565
-1.809481
-1.238313
-0.763822
-0.444530
-0.272711
-0.212083
-0.219808
-0.246962
-0.333573
-0.410822
-0.386711
-0.255389
-0.039094
0.202716
0.399114
0.513581
0.596915
0.719108
0.937276
1.235266
1.604886
1.958590
2.232235
2.446891
2.570020
2.640246
2.703215
2.746521
2.735050
2.704151
2.646566
2.550123
2.474045
2.473811
2.588747
2.743477
2.857009
2.898208
2.841793
2.691979
2.474747
2.156626
1.753531
1.299639
0.834746
0.475425
0.246724
0.172519
0.223316
0.368214
0.578657
0.767564
0.920421
1.025526
1.094581
1.109328
1.084983
1.039337
0.953896
0.855112
0.764286
0.749071
0.829128
0.929550
0.997669
1.042146
1.043316
0.991349
0.913165
0.798463
0.668077
0.504920
0.312034
0.163858
0.045177
-0.068589
-0.125472
-0.151689
-0.200379
-0.216062
-0.178375
-0.058757
0.111189
0.261237
0.352531
0.332633
0.214654
-0.047053
-0.428144
-0.855115
-1.282087
-1.621979
-1.855596
-1.980363
-1.985045
-1.888602
-1.681904
-1.357696
-0.963965
-0.558061
-0.184695
0.088248
0.218868
0.167369
-0.119619
-0.547527
-1.018507
-1.428624
-1.687288
-1.818610
-1.819547
-1.770857
-1.722401
-1.672307
-1.651473
-1.591782
-1.487614
-1.340140
-1.111205
-0.861670
-0.618455
-0.396308
-0.218638
-0.095275
-0.055714
-0.090593
-0.109320
-0.056182
0.051731
0.221443
0.379684
0.448740
0.467935
0.493684
0.510538
0.468871
0.350190
0.131086
-0.163861
-0.475897
-0.746500
-0.914105
-1.012421
-1.056429
-1.101373
-1.209286
-1.323520
-1.478016
-1.682373
-1.869641
-1.991365
-2.066506
-2.104194
-2.047077
-1.892815
-1.633449
-1.303857
-0.946643
-0.579129
-0.238066
0.073267
0.352531
0.597852
0.831937
1.090367
1.354181
1.527170
1.551983
1.428386
1.221689
1.052680
0.932360
0.872668
0.904738
0.978709
1.048700
1.071640
1.066959
1.036762
0.946171
0.807826
0.637880
0.477532
0.310161
0.152388
0.062967
-0.037221
-0.141623
-0.237598
-0.349023
-0.420653
-0.425803
-0.325380
-0.129685
0.155431
0.507495
0.889522
1.286531
1.603950
1.775067
1.831013
1.814159
1.788644
1.778578
1.736911
1.676049
1.567433
1.346925
0.997904
0.545651
0.084503
-0.356982
-0.764992
-1.031850
-1.163406
-1.167151
-0.989714
-0.650057
-0.187738
0.341295
0.913867
1.471224
1.976848
2.397733
2.653120
2.713983
2.573298
2.252835
1.813925
1.318366
0.818829
0.396539
0.073501
-0.158712
-0.282777
-0.336616
-0.341766
-0.290268
-0.259837
-0.358152
-0.597387
-0.930491
-1.288641
-1.606295
-1.865895
-2.061825
-2.195956
-2.289356
-2.336875
-2.353027
-2.345068
-2.326107
-2.247689
-2.061825
-1.818376
-1.474037
-1.074219
-0.707876
-0.375709
-0.155903
-0.131792
-0.259837
-0.430953
-0.585917
-0.687276
-0.685872
-0.562509
-0.356748
-0.062971
0.252342
0.483852
0.598554
0.591063
0.499536
0.305479
0.009830
-0.336616
-0.713494
-1.158958
-1.630874
-2.076104
-2.480369
-2.784212
-3.008934
-3.124806
-3.103036
-2.963989
-2.646336
-2.164822
-1.568373
-0.870097
-0.187504
0.444526
0.994861
1.374547
1.569540
1.583585
1.492760
1.359565
1.195472
1.032782
0.915037
0.858857
0.886713
0.981986
1.128523
1.271549
1.333816
1.333114
1.309705
1.323048
1.404276
1.508444
1.638361
1.770619
1.842717
1.924413
2.048712
2.208827
2.299184
2.239258
2.046371
1.696414
1.250716
0.799165
0.427204
0.139981
-0.109554
-0.381795
-0.662931
-0.899123
-1.048236
-1.044490
-0.821641
-0.382263
0.127575
0.689379
1.275997
1.798709
2.256112
2.630882
2.940109
3.192219
3.365208
3.433561
3.408513
3.368251
3.330095
3.319561
3.346715
3.327988
3.248634
3.134634
3.039595
3.025784
3.136272
3.335245
3.494657
3.529067
3.386744
3.053874
2.625030
2.116363
1.528107
0.919953
0.277857
-0.345044
-0.980117
-1.636492
-2.205319
-2.668106
-3.012445
-3.229910
-3.328460
-3.361466
-3.373170
-3.344378
-3.285388
-3.189414
-3.057623
-2.915768
-2.715391
-2.495585
-2.269927
-2.017583
-1.759387
-1.435881
-1.106757
-0.859329
-0.721687
-0.712791
-0.774824
-0.867990
-0.952495
-1.022018
-1.091073
-1.153106
-1.208818
-1.225204
-1.244165
-1.313220
-1.386723
-1.436583
-1.431901
-1.297068
-0.999312
-0.566956
-0.098552
0.388112
0.901226
1.343882
1.674410
1.851613
1.894918
1.837802
1.655683
1.358863
0.971218
0.516156
0.026450
-0.475429
-0.942897
-1.331011
-1.662943
-1.932844
-2.122453
-2.221705
-2.258924
-2.224046
-2.101385
-1.930971
-1.730828
-1.517811
-1.266403
-0.978244
-0.659186
-0.302908
0.082162
0.423927
0.640690
0.741346
0.761009
0.750710
0.755157
0.796356
0.856750
0.923230
0.971218
0.981986
0.937510
0.812274
0.599022
0.301734
0.005148
-0.258900
-0.485963
-0.670656
-0.863308
-1.046597
-1.211159
-1.354419
-1.458119
-1.520151
-1.525301
-1.444308
-1.227311
-0.935407
-0.646545
-0.386008
-0.175098
-0.009833
0.073267
0.072798
-0.006556
-0.146773
-0.298929
-0.437273
-0.532546
-0.595983
-0.648184
-0.658484
-0.565552
-0.378518
-0.139048
0.115168
0.339890
0.521540
0.608854
0.603470
0.504452
0.303841
0.030897
-0.279500
-0.525757
-0.681658
-0.776697
-0.857222
-0.916914
-0.945004
-0.961390
-0.936577
-0.889292
-0.819768
-0.724964
-0.616114
-0.449680
-0.222149
0.028791
0.307352
0.572571
0.788163
0.923230
0.960918
0.967941
0.968409
0.955534
0.936807
0.915272
0.921124
0.931423
0.947809
1.013821
1.087324
1.176043
1.250013
1.302683
1.364247
1.393273
1.330071
1.152634
0.888586
0.490641
0.021768
-0.450382
-0.894910
-1.254699
-1.492529
-1.581482
-1.567203
-1.477080
-1.371273
-1.206243
-0.959986
-0.682126
-0.380156
-0.084507
0.206929
0.450144
0.665503
0.852069
1.009842
1.179086
1.311110
1.431430
1.510316
1.496271
1.426514
1.304087
1.145377
0.943596
0.729174
0.542374
0.389048
0.269898
0.183755
0.180712
0.248129
0.381557
0.540735
0.695465
0.823510
0.870093
0.846216
0.748603
0.596213
0.365405
0.076076
-0.243685
-0.578426
-0.907082
-1.215607
-1.451799
-1.663178
-1.854659
-1.988790
-2.033969
-1.989024
-1.917160
-1.874557
-1.872216
-1.880643
-1.915053
-1.953911
-1.976852
-1.991131
-1.979661
-1.894454
-1.677925
-1.328436
-0.900294
-0.419717
0.085439
0.557355
0.973325
1.319303
1.607930
1.804327
1.923945
2.034901
2.159201
2.339914
2.517585
2.638139
2.709067
2.690808
2.581959
2.366600
2.093657
1.798709
1.426748
1.022014
0.596915
0.146770
-0.306185
-0.714196
-1.024359
-1.264062
-1.429092
-1.523429
-1.529047
-1.449692
-1.341310
-1.250953
-1.194773
-1.145615
-1.102543
-1.001653
-0.936343
-0.978946
-1.114716
-1.327733
-1.510320
-1.633683
-1.667625
-1.654048
-1.527174
-1.273426
-0.899357
-0.379220
0.222145
0.924167
1.643745
2.324465
2.937534
3.443392
3.827760
4.096256
4.281652
4.387692
4.397524
4.335257
4.216576
4.019945
3.773687
3.491614
3.202050
2.893058
2.540525
2.138835
1.693839
1.246268
0.820467
0.467701
0.208100
0.030897
-0.074675
-0.125706
-0.121024
-0.105106
-0.114938
-0.145369
-0.237364
-0.390690
-0.588024
-0.838261
-1.100437
-1.385084
-1.715379
-2.088042
-2.468431
-2.830561
-3.226867
-3.638857
-4.065361
-4.527211
-4.986018
-5.409478
-5.746561
-6.004757
-6.173532
-6.254526
-6.254057
-6.187343
-6.126013
-6.037763
-5.902696
-5.704191
-5.443655
-5.139344
-4.764339
-4.340879
-3.919291
-3.475466
-3.021808
-2.570726
-2.182613
-1.882984
-1.612381
-1.445010
-1.264999
-1.101139
-0.950388
-0.736200
-0.510074
-0.223085
0.045645
0.303841
0.457635
0.516156
0.551737
0.552439
0.608152
0.635072
0.694061
0.743921
0.727769
0.728472
0.706467
0.766393
0.818360
0.853941
0.922294
0.970984
1.026462
1.011949
1.023419
1.009842
0.946171
0.929785
0.952491
1.049168
1.135546
1.210453
1.230584
1.193365
1.126416
1.000010
0.900758
0.788632
0.732217
0.723790
0.739708
0.819765
0.859559
0.891395
0.856048
0.799633
0.722619
0.566016
0.437269
0.283944
0.124063
-0.017324
-0.149114
-0.286522
-0.471684
-0.645609
-0.796828
-0.908253
-0.956708
-1.013825
-1.051513
-1.099734
-1.160362
-1.203200
-1.305729
-1.312050
-1.395852
-1.469823
-1.438690
-1.488784
-1.367294
-1.273660
-1.133443
-0.920191
-0.724730
-0.432123
-0.207870
0.093632
0.316950
0.523881
0.769671
0.934466
1.173468
1.320239
1.515466
1.607696
1.569072
1.601141
1.538172
1.581712
1.570242
1.619166
1.695478
1.616825
1.594119
1.364013
1.138121
0.916676
0.666439
0.541437
0.391623
0.346444
0.303373
0.277857
0.281135
0.240170
0.230806
0.157538
0.082162
-0.015451
-0.106277
-0.133196
-0.118215
0.043538
0.244384
0.516624
0.824212
1.097624
1.272720
1.282083
1.192194
0.919953
0.571869
0.130852
-0.306185
-0.750245
-1.189857
-1.581950
-1.945016
-2.137902
-2.325405
-2.302699
-2.288888
-2.239027
-2.070486
-2.046375
-1.875259
-1.767346
-1.610040
-1.467716
-1.369401
-1.159426
-1.090605
-0.949218
-0.880631
-0.813214
-0.700385
-0.644907
-0.463959
-0.382263
-0.202017
-0.042371
0.117275
0.392793
0.522945
0.713958
0.808295
0.921358
1.009608
1.058532
1.226605
1.347861
1.610739
1.895855
2.200634
2.577277
2.892356
3.197603
3.455565
3.661560
3.818397
3.915542
3.936376
3.863810
3.740915
3.477803
3.173024
2.809489
2.405458
2.121045
1.840376
1.724504
1.599971
1.566497
1.679560
1.788410
2.080314
2.268753
2.524842
2.751202
2.923021
3.180983
3.336649
3.556690
3.633938
3.706504
3.709313
3.631597
3.548731
3.309964
3.119184
2.749330
2.399606
1.955312
1.503294
1.112137
0.569762
0.260067
-0.127578
-0.416908
-0.635543
-0.948515
-1.125952
-1.380637
-1.541921
-1.662475
-1.778113
-1.723338
-1.670668
-1.484336
-1.221693
-1.003994
-0.743223
-0.618455
-0.557593
-0.571170
-0.650057
-0.766865
-0.927448
-1.086626
-1.320945
-1.543092
-1.818610
-2.056675
-2.283269
-2.517823
-2.650783
-2.783041
-2.801768
-2.790532
-2.730606
-2.632056
-2.608648
-2.537486
-2.482008
-2.402887
-2.331023
-2.330555
-2.305039
-2.297783
-2.311594
-2.320957
-2.338514
-2.394226
-2.452513
-2.510800
-2.536316
-2.454386
-2.369647
-2.186826
-1.911074
-1.576332
-1.124079
-0.673465
-0.168543
0.300096
0.698040
1.021078
1.203665
1.328666
1.291447
1.139057
0.927912
0.652393
0.349488
0.009596
-0.311335
-0.629223
-0.879460
-1.060174
-1.164810
-1.198050
-1.251890
-1.236908
-1.215841
-1.163874
-1.032318
-0.874544
-0.618689
-0.382497
-0.148880
0.064606
0.221209
0.423224
0.612599
0.869391
1.198749
1.544961
1.891875
2.192675
2.475450
2.714217
2.934257
3.077985
3.159447
3.205562
3.150786
3.095776
3.012676
2.934725
2.823300
2.636969
2.449466
2.199463
1.980359
1.784430
1.656620
1.623379
1.620805
1.640936
1.635552
1.643043
1.599503
1.512189
1.386017
1.231755
1.050807
0.831001
0.632731
0.369385
0.068117
-0.290736
-0.686574
-1.064622
-1.479421
-1.799415
-2.026946
-2.158034
-2.171611
-2.127837
-1.972170
-1.774368
-1.572353
-1.417856
-1.360973
-1.375955
-1.485273
-1.649601
-1.835932
-1.989727
-2.127369
-2.254477
-2.350686
-2.450406
-2.502841
-2.508225
-2.418571
-2.224280
-1.979661
-1.665518
-1.390234
-1.192198
-1.097862
-1.118929
-1.167853
-1.283725
-1.436817
-1.649601
-1.921374
-2.160609
-2.409207
-2.585474
-2.682151
-2.698068
-2.622927
-2.452513
-2.087106
-1.690331
-1.164342
-0.633437
-0.112597
0.470744
0.836385
1.286765
1.580308
1.789346
1.987850
1.959292
2.050819
1.977784
1.871978
1.714907
1.453667
1.272954
0.982688
0.799867
0.622899
0.564144
0.635540
0.756562
1.081706
1.392337
1.813457
2.195952
2.593429
3.053874
3.411557
3.866852
4.237175
4.647058
5.065135
5.377171
5.721276
5.910183
5.994219
5.971279
5.848150
5.685929
5.498895
5.378341
5.282132
5.268321
5.221504
5.167430
5.113591
4.976651
4.856331
4.643781
4.450661
4.199254
3.890495
3.604443
3.241143
2.951813
2.604431
2.263369
1.955078
1.585458
1.273890
0.942659
0.708574
0.515454
0.341295
0.225890
0.074203
-0.032072
-0.201081
-0.352066
-0.491347
-0.663400
-0.800105
-0.968881
-1.059003
-1.189389
-1.333820
-1.467950
-1.646558
-1.722167
-1.823994
-1.853723
-1.828910
-1.793329
-1.686352
-1.639535
-1.558776
-1.577736
-1.687522
-1.853723
-2.114026
-2.324000
-2.535379
-2.667169
-2.689876
-2.617777
-2.501905
-2.367540
-2.171845
-1.979193
-1.709058
-1.397491
-1.044256
-0.661527
-0.338723
-0.015920
0.239233
0.470510
0.651223
0.736665
0.849494
0.905440
0.919953
0.947107
0.950852
0.945469
0.930019
0.916676
0.916910
0.914101
0.886245
0.840130
0.756562
0.670418
0.588020
0.467466
0.346444
0.180010
-0.032773
-0.294247
-0.611667
-0.935875
-1.312986
-1.637428
-1.913181
-2.163652
-2.337811
-2.523207
-2.671383
-2.804343
-2.903361
-2.977332
-3.027192
-3.011509
-3.023447
-2.986930
-2.918109
-2.814877
-2.665531
-2.486924
-2.252838
-2.036075
-1.788647
-1.522492
-1.219118
-0.857456
-0.509371
-0.141623
