EVENT_NAME: L_AQUILA
EVENT_ID: IT-2009-0009
EVENT_DATE_YYYYMMDD: 20090406
EVENT_TIME_HHMMSS: 013240
EVENT_LATITUDE_DEGREE: 42.3420
EVENT_LONGITUDE_DEGREE: 13.3800
EVENT_DEPTH_KM: 8.3
HYPOCENTER_REFERENCE: INGV-CNT_Seismic_Bulletin
MAGNITUDE_W: 6.1
MAGNITUDE_W_REFERENCE: INGV-CNT_Seismic_Bulletin
MAGNITUDE_L: 
MAGNITUDE_L_REFERENCE: 
FOCAL_MECHANISM: Normal faulting
NETWORK: IT
STATION_CODE: SPO
STATION_NAME: 
STATION_LATITUDE_DEGREE: 42.733585
STATION_LONGITUDE_DEGREE: 12.740602
STATION_ELEVATION_M: 476
LOCATION: 
SENSOR_DEPTH_M: 0.0
VS30_M/S: 
SITE_CLASSIFICATION_EC8: A (inferred from geology)
MORPHOLOGIC_CLASSIFICATION: 
EPICENTRAL_DISTANCE_KM: 68.2
EARTHQUAKE_BACKAZIMUTH_DEGREE: 309.8
DATE_TIME_FIRST_SAMPLE_YYYYMMDD_HHMMSS: 
DATE_TIME_FIRST_SAMPLE_PRECISION: 
SAMPLING_INTERVAL_S: 
NDATA: 105
DURATION_S: 
STREAM: HNE
UNITS: cm/s^2
INSTRUMENT: sensor = FBA-3 [Kinemetrics] | digitizer = Etna [Kinemetrics]
INSTRUMENT_ANALOG/DIGITAL: D
INSTRUMENTAL_FREQUENCY_HZ: 206.000
INSTRUMENTAL_DAMPING: 0.700000
FULL_SCALE_G: 1.0
N_BIT_DIGITAL_CONVERTER: 18
PGA_CM/S^2: -6.250600
TIME_PGA_S: 
BASELINE_CORRECTION: BASELINE REMOVED
FILTER_TYPE: BUTTERWORTH
FILTER_ORDER: 2
LOW_CUT_FREQUENCY_HZ: 0.050
HIGH_CUT_FREQUENCY_HZ: 40.000
LATE/NORMAL_TRIGGERED: NT
DATABASE_VERSION: 0.5
HEADER_FORMAT: DYNA 1.2
DATA_TYPE: ACCELERATION RESPONSE SPECTRUM
PROCESSING: manual (Paolucci et al., 2011)
DATA_TIMESTAMP_YYYYMMDD_HHMMSS: 20211011_160446.989
DATA_LICENSE: CC-BY3_0-IT (http://creativecommons.org/licenses/by/3.0/deed.en)
DATA_CITATION: Luzi L, Pacor F, Puglia R (2019). Italian Accelerometric Archive v 3.0 - Istituto Nazionale di Geofisica e Vulcanologia, Dipartimento della Protezione Civile Nazionale. doi: 10.13127/itaca.3.1
DATA_CREATOR: ITACA working group
ORIGINAL_DATA_MEDIATOR_CITATION: data obtained within the DPC-INGV data exchange agreements
ORIGINAL_DATA_MEDIATOR: Archive of Italian Department of Civil Protection
ORIGINAL_DATA_CREATOR_CITATION: Presidency Of Counsil Of Ministers-Civil Protection Department. (1972). Italian Strong Motion Network. Presidency of Counsil of Ministers - Civil Protection Department. https://doi.org/10.7914/SN/IT http://www.fdsn.org/networks/detail/IT/
ORIGINAL_DATA_CREATOR: network: IT (Italian Strong Motion Network (RAN)); owner: Presidency of Counsil of Ministers - Civil Protection Department (PCM - DPC)
USER1: 
USER2: 
USER3: 
USER4: 
USER5: 
    0.010000     6.259959
    0.020000     6.284942
    0.022000     6.285307
    0.025000     6.306602
    0.029000     6.295153
    0.030000     6.268489
    0.032000     6.322061
    0.035001     6.423849
    0.036000     6.411557
    0.040000     6.560528
    0.041999     6.560777
    0.044001     6.571205
    0.045000     6.578546
    0.046000     6.546873
    0.048001     6.513239
    0.050000     6.790628
    0.054999     6.903443
    0.059999     7.208627
    0.064998     7.644377
    0.067002     7.439960
    0.069999     7.025630
    0.075002     6.827629
    0.080000     7.827605
    0.084998     8.172504
    0.090001     8.220369
    0.095003     8.672424
    0.100000    10.757875
    0.109999    11.511172
    0.120005    12.263567
    0.130005    13.150040
    0.132996    13.715315
    0.139997    12.915462
    0.149993    12.749660
    0.160000    10.786857
    0.170010    11.014803
    0.179986    11.277200
    0.190006    11.077551
    0.200000    12.372512
    0.220022    15.638626
    0.239981    14.317225
    0.250000    17.353891
    0.260010    18.604097
    0.280034    16.135607
    0.290023    15.104007
    0.300030    15.363947
    0.320000    21.039410
    0.340020    20.059935
    0.350017    18.162672
    0.359971    16.403376
    0.379939    15.049180
    0.400000    15.079923
    0.419992    13.885981
    0.439947    13.679979
    0.450045    14.323114
    0.459982    13.979122
    0.480077    13.854329
    0.500000    15.396284
    0.550055    15.926797
    0.599880    18.569754
    0.650195    14.328757
    0.667111    13.522667
    0.699790    11.355439
    0.750188    10.467135
    0.800000    10.483253
    0.850340     7.869333
    0.900090     5.627934
    0.949668     5.567505
    1.000000     6.683250
    1.100110     9.598309
    1.200480     7.293319
    1.300390     7.071094
    1.400560     7.019738
    1.499250     5.103250
    1.600000     3.905583
    1.700680     4.227618
    1.798561     3.830889
    1.901141     3.009981
    2.000000     2.611974
    2.197802     2.119620
    2.398082     2.075465
    2.500000     2.202319
    2.597403     1.855357
    2.801121     1.686161
    3.003003     2.164524
    3.205128     2.362014
    3.401361     2.241642
    3.496503     2.149132
    3.597122     2.065558
    3.802281     1.815098
    4.000000     1.422923
    4.201681     1.265527
    4.405286     1.171492
    4.608295     1.037434
    4.807692     0.866077
    5.000000     0.709468
    5.494505     0.590539
    5.988024     0.572594
    6.493506     0.519074
    6.993007     0.425898
    7.518797     0.371748
    8.000000     0.293214
    8.474576     0.227916
    9.009009     0.192703
    9.523809     0.178812
   10.000000     0.171959
