EVENT_NAME: L_AQUILA
EVENT_ID: IT-2009-0009
EVENT_DATE_YYYYMMDD: 20090406
EVENT_TIME_HHMMSS: 013240
EVENT_LATITUDE_DEGREE: 42.3420
EVENT_LONGITUDE_DEGREE: 13.3800
EVENT_DEPTH_KM: 8.3
HYPOCENTER_REFERENCE: INGV-CNT_Seismic_Bulletin
MAGNITUDE_W: 6.1
MAGNITUDE_W_REFERENCE: INGV-CNT_Seismic_Bulletin
MAGNITUDE_L: 
MAGNITUDE_L_REFERENCE: 
FOCAL_MECHANISM: Normal faulting
NETWORK: IT
STATION_CODE: SPO
STATION_NAME: 
STATION_LATITUDE_DEGREE: 42.733585
STATION_LONGITUDE_DEGREE: 12.740602
STATION_ELEVATION_M: 476
LOCATION: 
SENSOR_DEPTH_M: 0.0
VS30_M/S: 
SITE_CLASSIFICATION_EC8: A (inferred from geology)
MORPHOLOGIC_CLASSIFICATION: 
EPICENTRAL_DISTANCE_KM: 68.2
EARTHQUAKE_BACKAZIMUTH_DEGREE: 309.8
DATE_TIME_FIRST_SAMPLE_YYYYMMDD_HHMMSS: 20090406_013241.000
DATE_TIME_FIRST_SAMPLE_PRECISION: seconds
SAMPLING_INTERVAL_S: 0.005000
NDATA: 20200
DURATION_S: 101.000
STREAM: HNE
UNITS: cm
INSTRUMENT: sensor = FBA-3 [Kinemetrics] | digitizer = Etna [Kinemetrics]
INSTRUMENT_ANALOG/DIGITAL: D
INSTRUMENTAL_FREQUENCY_HZ: 206.000
INSTRUMENTAL_DAMPING: 0.700000
FULL_SCALE_G: 1.0
N_BIT_DIGITAL_CONVERTER: 18
PGD_CM: -0.268477
TIME_PGD_S: 29.040000
BASELINE_CORRECTION: BASELINE REMOVED
FILTER_TYPE: BUTTERWORTH
FILTER_ORDER: 2
LOW_CUT_FREQUENCY_HZ: 0.050
HIGH_CUT_FREQUENCY_HZ: 40.000
LATE/NORMAL_TRIGGERED: NT
DATABASE_VERSION: 0.5
HEADER_FORMAT: DYNA 1.2
DATA_TYPE: DISPLACEMENT
PROCESSING: manual (Paolucci et al., 2011)
DATA_TIMESTAMP_YYYYMMDD_HHMMSS: 20211011_160445.593
DATA_LICENSE: CC-BY3_0-IT (http://creativecommons.org/licenses/by/3.0/deed.en)
DATA_CITATION: Luzi L, Pacor F, Puglia R (2019). Italian Accelerometric Archive v 3.0 - Istituto Nazionale di Geofisica e Vulcanologia, Dipartimento della Protezione Civile Nazionale. doi: 10.13127/itaca.3.1
DATA_CREATOR: ITACA working group
ORIGINAL_DATA_MEDIATOR_CITATION: data obtained within the DPC-INGV data exchange agreements
ORIGINAL_DATA_MEDIATOR: Archive of Italian Department of Civil Protection
ORIGINAL_DATA_CREATOR_CITATION: Presidency Of Counsil Of Ministers-Civil Protection Department. (1972). Italian Strong Motion Network. Presidency of Counsil of Ministers - Civil Protection Department. https://doi.org/10.7914/SN/IT http://www.fdsn.org/networks/detail/IT/
ORIGINAL_DATA_CREATOR: network: IT (Italian Strong Motion Network (RAN)); owner: Presidency of Counsil of Ministers - Civil Protection Department (PCM - DPC)
USER1: 
USER2: 
USER3: 
USER4: 
USER5: 
[...]
-2.918810e-03
-2.657687e-03
-2.336702e-03
-1.949514e-03
-1.494604e-03
-9.754669e-04
-3.999652e-04
2.209557e-04
8.748830e-04
1.549600e-03
2.234475e-03
2.921254e-03
3.604252e-03
4.280161e-03
4.947708e-03
5.607209e-03
6.259690e-03
6.905276e-03
7.541500e-03
8.162684e-03
8.760777e-03
9.326991e-03
9.853253e-03
1.033298e-02
1.076126e-02
1.113464e-02
1.145091e-02
1.170884e-02
1.190793e-02
1.204818e-02
1.213039e-02
1.215676e-02
1.213152e-02
1.206117e-02
1.195420e-02
1.182027e-02
1.166897e-02
1.150832e-02
1.134318e-02
1.117441e-02
1.099939e-02
1.081386e-02
1.061377e-02
1.039671e-02
1.016275e-02
9.914780e-03
9.658271e-03
9.400437e-03
9.148658e-03
8.908724e-03
8.683703e-03
8.473727e-03
8.276241e-03
8.086266e-03
7.896766e-03
7.699118e-03
7.483419e-03
7.238666e-03
6.953291e-03
6.616083e-03
6.217142e-03
5.748552e-03
5.204778e-03
4.583003e-03
3.883522e-03
3.110235e-03
2.271056e-03
1.377867e-03
4.457726e-04
-5.082408e-04
-1.466910e-03
-2.414220e-03
-3.336823e-03
-4.225303e-03
-5.074805e-03
-5.884580e-03
-6.656718e-03
-7.394828e-03
-8.103064e-03
-8.785363e-03
-9.444681e-03
-1.008233e-02
-1.069762e-02
-1.128806e-02
-1.185021e-02
-1.238096e-02
-1.287861e-02
-1.334294e-02
-1.377422e-02
-1.417204e-02
-1.453473e-02
-1.485956e-02
-1.514340e-02
-1.538344e-02
-1.557736e-02
-1.572268e-02
-1.581621e-02
-1.585456e-02
-1.583578e-02
-1.576106e-02
-1.563547e-02
-1.546766e-02
-1.526844e-02
-1.504869e-02
-1.481779e-02
-1.458332e-02
-1.435194e-02
-1.413034e-02
-1.392532e-02
-1.374283e-02
-1.358641e-02
-1.345553e-02
-1.334461e-02
-1.324356e-02
-1.313937e-02
-1.301774e-02
-1.286438e-02
-1.266612e-02
-1.241152e-02
-1.209101e-02
-1.169674e-02
-1.122259e-02
-1.066453e-02
-1.002086e-02
-9.291796e-03
-8.478366e-03
-7.581393e-03
-6.601026e-03
-5.537160e-03
-4.390395e-03
-3.162610e-03
-1.856487e-03
-4.741272e-04
9.844709e-04
2.522016e-03
4.142899e-03
5.850885e-03
7.646743e-03
9.526947e-03
1.148381e-02
1.350650e-02
1.558202e-02
1.769591e-02
1.983282e-02
2.197698e-02
2.411239e-02
2.622291e-02
2.829278e-02
3.030773e-02
3.225608e-02
3.412931e-02
3.592204e-02
3.763153e-02
3.925676e-02
4.079771e-02
4.225511e-02
4.363048e-02
4.492616e-02
4.614530e-02
4.729183e-02
4.837052e-02
4.938670e-02
5.034614e-02
5.125508e-02
5.212056e-02
5.295045e-02
5.375250e-02
5.453283e-02
5.529483e-02
5.603904e-02
5.676405e-02
5.746761e-02
5.814751e-02
5.880182e-02
5.942881e-02
6.002701e-02
6.059536e-02
6.113314e-02
6.163949e-02
6.211297e-02
6.255175e-02
6.295451e-02
6.332174e-02
6.365704e-02
6.396765e-02
6.426378e-02
6.455738e-02
6.486111e-02
6.518737e-02
6.554709e-02
6.594840e-02
6.639602e-02
6.689128e-02
6.743248e-02
6.801500e-02
6.863151e-02
6.927233e-02
6.992608e-02
7.058045e-02
7.122304e-02
7.184237e-02
7.242841e-02
7.297281e-02
7.346899e-02
7.391227e-02
7.429991e-02
7.463112e-02
7.490698e-02
7.513034e-02
7.530535e-02
7.543697e-02
7.553075e-02
7.559293e-02
7.563065e-02
7.565209e-02
7.566635e-02
7.568274e-02
7.570932e-02
7.575165e-02
7.581247e-02
7.589243e-02
7.599138e-02
7.610944e-02
7.624749e-02
7.640700e-02
7.658960e-02
7.679654e-02
7.702812e-02
7.728310e-02
7.755821e-02
7.784803e-02
7.814558e-02
7.844353e-02
7.873518e-02
7.901485e-02
7.927755e-02
7.951864e-02
7.973362e-02
7.991837e-02
8.006932e-02
8.018376e-02
8.026008e-02
8.029835e-02
8.030106e-02
8.027329e-02
8.022192e-02
8.015425e-02
8.007692e-02
7.999538e-02
7.991357e-02
7.983353e-02
7.975522e-02
7.967665e-02
7.959450e-02
7.950503e-02
7.940487e-02
7.929142e-02
7.916280e-02
7.901787e-02
7.885683e-02
7.868194e-02
7.849766e-02
7.830988e-02
7.812492e-02
7.794855e-02
7.778510e-02
7.763688e-02
7.750380e-02
7.738320e-02
7.727002e-02
7.715743e-02
7.703823e-02
7.690633e-02
7.675749e-02
7.658899e-02
7.639901e-02
7.618620e-02
7.594971e-02
7.568933e-02
7.540556e-02
7.509957e-02
7.477306e-02
7.442828e-02
7.406828e-02
7.369725e-02
7.332062e-02
7.294487e-02
7.257689e-02
7.222321e-02
7.188905e-02
7.157766e-02
7.129045e-02
7.102769e-02
7.078915e-02
7.057447e-02
7.038320e-02
7.021498e-02
7.006971e-02
6.994765e-02
6.984956e-02
6.977681e-02
6.973131e-02
6.971509e-02
6.973006e-02
6.977793e-02
6.986008e-02
6.997688e-02
7.012681e-02
7.030567e-02
7.050642e-02
7.071935e-02
7.093296e-02
7.113529e-02
7.131531e-02
7.146414e-02
7.157601e-02
7.164844e-02
7.168162e-02
7.167747e-02
7.163911e-02
7.157092e-02
7.147873e-02
7.136949e-02
7.125071e-02
7.112990e-02
7.101411e-02
7.090959e-02
7.082169e-02
7.075507e-02
7.071393e-02
7.070219e-02
7.072342e-02
7.078049e-02
7.087502e-02
7.100698e-02
7.117467e-02
7.137503e-02
7.160388e-02
7.185628e-02
7.212710e-02
7.241157e-02
7.270570e-02
7.300642e-02
7.331193e-02
7.362209e-02
7.393859e-02
7.426463e-02
7.460420e-02
7.496120e-02
7.533859e-02
7.573768e-02
7.615796e-02
7.659708e-02
7.705098e-02
7.751395e-02
7.797888e-02
7.843771e-02
7.888206e-02
7.930376e-02
7.969541e-02
8.005066e-02
8.036404e-02
8.063103e-02
8.084858e-02
8.101566e-02
8.113301e-02
8.120214e-02
8.122421e-02
8.119959e-02
8.112790e-02
8.100837e-02
8.084010e-02
8.062229e-02
8.035448e-02
8.003715e-02
7.967281e-02
7.926681e-02
7.882754e-02
7.836576e-02
7.789356e-02
7.742338e-02
7.696703e-02
7.653499e-02
7.613607e-02
7.577713e-02
7.546303e-02
7.519710e-02
7.498221e-02
7.482174e-02
7.471979e-02
7.468055e-02
7.470732e-02
7.480177e-02
7.496340e-02
7.518934e-02
7.547457e-02
7.581244e-02
7.619503e-02
7.661331e-02
7.705723e-02
7.751594e-02
7.797813e-02
7.843273e-02
7.886980e-02
7.928125e-02
7.966101e-02
8.000493e-02
8.031093e-02
8.057898e-02
8.081079e-02
8.100884e-02
8.117535e-02
8.131193e-02
8.141991e-02
8.150096e-02
8.155702e-02
8.158922e-02
8.159662e-02
8.157585e-02
8.152216e-02
8.143097e-02
8.129909e-02
8.112516e-02
8.090994e-02
8.065665e-02
8.037152e-02
8.006411e-02
7.974711e-02
7.943593e-02
7.914784e-02
7.890071e-02
7.871166e-02
7.859592e-02
7.856611e-02
7.863190e-02
7.880023e-02
7.907567e-02
7.946067e-02
7.995564e-02
8.055908e-02
8.126778e-02
8.207692e-02
8.298041e-02
8.397137e-02
8.504249e-02
8.618584e-02
8.739255e-02
8.865257e-02
8.995490e-02
9.128833e-02
9.264241e-02
9.400835e-02
9.537951e-02
9.675140e-02
9.812139e-02
9.948838e-02
1.008523e-01
1.022135e-01
1.035719e-01
1.049264e-01
1.062750e-01
1.076138e-01
1.089377e-01
1.102409e-01
1.115167e-01
1.127577e-01
1.139556e-01
1.151013e-01
1.161856e-01
1.171990e-01
1.181317e-01
1.189735e-01
1.197133e-01
1.203399e-01
1.208418e-01
1.212087e-01
1.214319e-01
1.215050e-01
1.214237e-01
1.211863e-01
1.207925e-01
1.202437e-01
1.195416e-01
1.186886e-01
1.176881e-01
1.165451e-01
1.152658e-01
1.138582e-01
1.123315e-01
1.106961e-01
1.089626e-01
1.071424e-01
1.052469e-01
1.032868e-01
1.012719e-01
9.921009e-02
9.710755e-02
9.496918e-02
9.279912e-02
9.060131e-02
8.837999e-02
8.614016e-02
8.388786e-02
8.162993e-02
7.937329e-02
7.712380e-02
7.488539e-02
7.266000e-02
7.044834e-02
6.825087e-02
6.606835e-02
6.390194e-02
6.175285e-02
5.962189e-02
5.750919e-02
5.541454e-02
5.333807e-02
5.128055e-02
4.924321e-02
4.722743e-02
4.523465e-02
4.326618e-02
4.132297e-02
3.940540e-02
3.751329e-02
3.564595e-02
3.380242e-02
3.198226e-02
3.018625e-02
2.841629e-02
2.667467e-02
2.496311e-02
2.328218e-02
2.163110e-02
2.000792e-02
1.840993e-02
1.683423e-02
1.527839e-02
1.374090e-02
1.222143e-02
1.072075e-02
9.240267e-03
7.781258e-03
6.344248e-03
4.928751e-03
3.533294e-03
2.155471e-03
7.920964e-04
-5.604806e-04
-1.906081e-03
-3.248467e-03
-4.591185e-03
-5.937696e-03
-7.291778e-03
-8.657673e-03
-1.003969e-02
-1.144155e-02
-1.286590e-02
-1.431443e-02
-1.578831e-02
-1.728860e-02
-1.881646e-02
-2.037328e-02
-2.196057e-02
-2.357986e-02
-2.523263e-02
-2.692039e-02
-2.864439e-02
-3.040519e-02
-3.220235e-02
-3.403422e-02
-3.589800e-02
-3.778991e-02
-3.970518e-02
-4.163814e-02
-4.358246e-02
-4.553149e-02
-4.747872e-02
-4.941812e-02
-5.134411e-02
-5.325138e-02
-5.513479e-02
-5.698930e-02
-5.881021e-02
-6.059375e-02
-6.233783e-02
-6.404200e-02
-6.570668e-02
-6.733235e-02
-6.891900e-02
-7.046599e-02
-7.197224e-02
-7.343693e-02
-7.486050e-02
-7.624532e-02
-7.759582e-02
-7.891774e-02
-8.021708e-02
-8.149920e-02
-8.276828e-02
-8.402721e-02
-8.527773e-02
-8.652075e-02
-8.775674e-02
-8.898601e-02
-9.020902e-02
-9.142663e-02
-9.264029e-02
-9.385210e-02
-9.506444e-02
-9.627939e-02
-9.749785e-02
-9.871881e-02
-9.993898e-02
-1.011530e-01
-1.023539e-01
-1.035342e-01
-1.046873e-01
-1.058090e-01
-1.068985e-01
-1.079587e-01
-1.089958e-01
-1.100188e-01
-1.110384e-01
-1.120656e-01
-1.131117e-01
-1.141877e-01
-1.153035e-01
-1.164674e-01
-1.176854e-01
-1.189607e-01
-1.202942e-01
-1.216850e-01
-1.231313e-01
-1.246306e-01
-1.261801e-01
-1.277771e-01
-1.294180e-01
-1.310994e-01
-1.328178e-01
-1.345697e-01
-1.363516e-01
-1.381602e-01
-1.399931e-01
-1.418479e-01
-1.437230e-01
-1.456160e-01
-1.475244e-01
-1.494454e-01
-1.513754e-01
-1.533108e-01
-1.552474e-01
-1.571804e-01
-1.591045e-01
-1.610151e-01
-1.629084e-01
-1.647813e-01
-1.666313e-01
-1.684566e-01
-1.702548e-01
-1.720230e-01
-1.737569e-01
-1.754508e-01
-1.770976e-01
-1.786889e-01
-1.802163e-01
-1.816714e-01
-1.830466e-01
-1.843356e-01
-1.855331e-01
-1.866351e-01
-1.876394e-01
-1.885454e-01
-1.893546e-01
-1.900708e-01
-1.907000e-01
-1.912502e-01
-1.917304e-01
-1.921500e-01
-1.925169e-01
-1.928373e-01
-1.931153e-01
-1.933534e-01
-1.935519e-01
-1.937089e-01
-1.938204e-01
-1.938809e-01
-1.938844e-01
-1.938250e-01
-1.936973e-01
-1.934958e-01
-1.932154e-01
-1.928511e-01
-1.923987e-01
-1.918551e-01
-1.912191e-01
-1.904905e-01
-1.896708e-01
-1.887631e-01
-1.877719e-01
-1.867037e-01
-1.855663e-01
-1.843694e-01
-1.831235e-01
-1.818398e-01
-1.805295e-01
-1.792036e-01
-1.778721e-01
-1.765434e-01
-1.752250e-01
-1.739235e-01
-1.726449e-01
-1.713953e-01
-1.701799e-01
-1.690031e-01
-1.678684e-01
-1.667776e-01
-1.657305e-01
-1.647248e-01
-1.637560e-01
-1.628183e-01
-1.619053e-01
-1.610115e-01
-1.601333e-01
-1.592691e-01
-1.584193e-01
-1.575858e-01
-1.567716e-01
-1.559804e-01
-1.552167e-01
-1.544860e-01
-1.537943e-01
-1.531478e-01
-1.525529e-01
-1.520154e-01
-1.515405e-01
-1.511324e-01
-1.507935e-01
-1.505249e-01
-1.503260e-01
-1.501953e-01
-1.501312e-01
-1.501320e-01
-1.501964e-01
-1.503227e-01
-1.505092e-01
-1.507546e-01
-1.510579e-01
-1.514190e-01
-1.518377e-01
-1.523142e-01
-1.528487e-01
-1.534420e-01
-1.540953e-01
-1.548101e-01
-1.555877e-01
-1.564284e-01
-1.573310e-01
-1.582928e-01
-1.593092e-01
-1.603737e-01
-1.614772e-01
-1.626092e-01
-1.637579e-01
-1.649110e-01
-1.660567e-01
-1.671852e-01
-1.682884e-01
-1.693612e-01
-1.704013e-01
-1.714094e-01
-1.723889e-01
-1.733452e-01
-1.742854e-01
-1.752170e-01
-1.761483e-01
-1.770877e-01
-1.780429e-01
-1.790200e-01
-1.800235e-01
-1.810561e-01
-1.821192e-01
-1.832135e-01
-1.843389e-01
-1.854950e-01
-1.866800e-01
-1.878911e-01
-1.891236e-01
-1.903720e-01
-1.916301e-01
-1.928920e-01
-1.941528e-01
-1.954078e-01
-1.966527e-01
-1.978821e-01
-1.990895e-01
-2.002671e-01
-2.014063e-01
-2.024984e-01
-2.035358e-01
-2.045114e-01
-2.054191e-01
-2.062537e-01
-2.070115e-01
-2.076902e-01
-2.082893e-01
-2.088096e-01
-2.092524e-01
-2.096198e-01
-2.099140e-01
-2.101381e-01
-2.102961e-01
-2.103933e-01
-2.104355e-01
-2.104283e-01
-2.103765e-01
-2.102830e-01
-2.101492e-01
-2.099749e-01
-2.097599e-01
-2.095039e-01
-2.092071e-01
-2.088705e-01
-2.084962e-01
-2.080872e-01
-2.076477e-01
-2.071820e-01
-2.066953e-01
-2.061930e-01
-2.056817e-01
-2.051689e-01
-2.046635e-01
-2.041752e-01
-2.037141e-01
-2.032898e-01
-2.029105e-01
-2.025818e-01
-2.023072e-01
-2.020871e-01
-2.019200e-01
-2.018023e-01
-2.017290e-01
-2.016952e-01
-2.016972e-01
-2.017333e-01
-2.018041e-01
-2.019122e-01
-2.020616e-01
-2.022567e-01
-2.025017e-01
-2.028000e-01
-2.031547e-01
-2.035685e-01
-2.040437e-01
-2.045816e-01
-2.051822e-01
-2.058431e-01
-2.065597e-01
-2.073257e-01
-2.081334e-01
-2.089762e-01
-2.098492e-01
-2.107500e-01
-2.116785e-01
-2.126363e-01
-2.136262e-01
-2.146523e-01
-2.157200e-01
-2.168355e-01
-2.180054e-01
-2.192355e-01
-2.205302e-01
-2.218921e-01
-2.233217e-01
-2.248170e-01
-2.263731e-01
-2.279820e-01
-2.296328e-01
-2.313131e-01
-2.330093e-01
-2.347079e-01
-2.363961e-01
-2.380624e-01
-2.396972e-01
-2.412926e-01
-2.428430e-01
-2.443448e-01
-2.457965e-01
-2.471976e-01
-2.485492e-01
-2.498542e-01
-2.511169e-01
-2.523426e-01
-2.535373e-01
-2.547071e-01
-2.558573e-01
-2.569918e-01
-2.581122e-01
-2.592171e-01
-2.603024e-01
-2.613613e-01
-2.623852e-01
-2.633643e-01
-2.642886e-01
-2.651477e-01
-2.659313e-01
-2.666290e-01
-2.672307e-01
-2.677263e-01
-2.681055e-01
-2.683588e-01
-2.684769e-01
-2.684527e-01
-2.682809e-01
-2.679593e-01
-2.674888e-01
-2.668721e-01
-2.661135e-01
-2.652172e-01
-2.641866e-01
-2.630235e-01
-2.617293e-01
-2.603046e-01
-2.587507e-01
-2.570694e-01
-2.552634e-01
-2.533365e-01
-2.512932e-01
-2.491390e-01
-2.468800e-01
-2.445236e-01
-2.420776e-01
-2.395501e-01
-2.369493e-01
-2.342834e-01
-2.315608e-01
-2.287899e-01
-2.259792e-01
-2.231370e-01
-2.202710e-01
-2.173873e-01
-2.144910e-01
-2.115860e-01
-2.086758e-01
-2.057635e-01
-2.028526e-01
-1.999466e-01
-1.970494e-01
-1.941648e-01
-1.912967e-01
-1.884490e-01
-1.856251e-01
-1.828280e-01
-1.800608e-01
-1.773271e-01
-1.746305e-01
-1.719746e-01
-1.693623e-01
-1.667955e-01
-1.642750e-01
-1.618005e-01
-1.593705e-01
-1.569832e-01
-1.546365e-01
-1.523292e-01
-1.500616e-01
-1.478363e-01
-1.456578e-01
-1.435319e-01
-1.414644e-01
-1.394604e-01
-1.375227e-01
-1.356522e-01
-1.338475e-01
-1.321056e-01
-1.304228e-01
-1.287948e-01
-1.272161e-01
-1.256801e-01
-1.241791e-01
-1.227041e-01
-1.212462e-01
-1.197967e-01
-1.183478e-01
-1.168928e-01
-1.154263e-01
-1.139440e-01
-1.124428e-01
-1.109207e-01
-1.093762e-01
-1.078086e-01
-1.062174e-01
-1.046026e-01
-1.029643e-01
-1.013029e-01
-9.961844e-02
-9.791115e-02
-9.618119e-02
-9.442921e-02
-9.265647e-02
-9.086479e-02
-8.905631e-02
-8.723337e-02
-8.539867e-02
-8.355547e-02
-8.170790e-02
-7.986130e-02
-7.802224e-02
-7.619847e-02
-7.439855e-02
-7.263128e-02
-7.090489e-02
-6.922650e-02
-6.760203e-02
-6.603640e-02
-6.453390e-02
-6.309832e-02
-6.173289e-02
-6.044019e-02
-5.922200e-02
-5.807932e-02
-5.701243e-02
-5.602110e-02
-5.510451e-02
-5.426098e-02
-5.348787e-02
-5.278149e-02
-5.213717e-02
-5.154958e-02
-5.101297e-02
-5.052121e-02
-5.006752e-02
-4.964415e-02
-4.924251e-02
-4.885355e-02
-4.846827e-02
-4.807827e-02
-4.767611e-02
-4.725532e-02
-4.681003e-02
-4.633462e-02
-4.582370e-02
-4.527233e-02
-4.467601e-02
-4.403051e-02
-4.333160e-02
-4.257485e-02
-4.175553e-02
-4.086885e-02
-3.991049e-02
-3.887734e-02
-3.776809e-02
-3.658368e-02
-3.532760e-02
-3.400586e-02
-3.262657e-02
-3.119926e-02
-2.973404e-02
-2.824116e-02
-2.673070e-02
-2.521273e-02
-2.369744e-02
-2.219521e-02
-2.071639e-02
-1.927085e-02
-1.786722e-02
-1.651230e-02
-1.521088e-02
-1.396583e-02
-1.277847e-02
-1.164891e-02
-1.057619e-02
-9.557903e-03
-8.589981e-03
-7.666558e-03
-6.780082e-03
-5.921728e-03
-5.082198e-03
-4.252668e-03
-3.425573e-03
-2.595220e-03
-1.758320e-03
-9.143011e-04
-6.524760e-05
7.844184e-04
1.628237e-03
2.458007e-03
3.264215e-03
4.036468e-03
4.763714e-03
5.434393e-03
6.036896e-03
6.560390e-03
6.995778e-03
7.336622e-03
7.579840e-03
7.725885e-03
7.778345e-03
7.743223e-03
7.628131e-03
7.441431e-03
7.191466e-03
6.886009e-03
6.532058e-03
6.135866e-03
5.702899e-03
5.237578e-03
4.742986e-03
4.220762e-03
3.671233e-03
3.093776e-03
2.487335e-03
1.850850e-03
1.183530e-03
4.851547e-04
-2.435271e-04
-1.000467e-03
-1.782338e-03
-2.584873e-03
-3.403202e-03
-4.231887e-03
-5.064749e-03
-5.894750e-03
-6.714087e-03
-7.514532e-03
-8.287992e-03
-9.027036e-03
-9.725287e-03
-1.037789e-02
-1.098222e-02
-1.153837e-02
-1.204919e-02
-1.251990e-02
-1.295748e-02
-1.336982e-02
-1.376467e-02
-1.414884e-02
-1.452790e-02
-1.490631e-02
-1.528771e-02
-1.567493e-02
-1.606995e-02
-1.647357e-02
-1.688499e-02
-1.730160e-02
-1.771910e-02
-1.813206e-02
-1.853427e-02
-1.891900e-02
-1.927943e-02
-1.960922e-02
-1.990331e-02
-2.015837e-02
-2.037299e-02
-2.054729e-02
-2.068233e-02
-2.077989e-02
-2.084250e-02
-2.087332e-02
-2.087575e-02
-2.085277e-02
-2.080657e-02
-2.073816e-02
-2.064727e-02
-2.053243e-02
-2.039132e-02
-2.022113e-02
-2.001875e-02
-1.978078e-02
-1.950355e-02
-1.918293e-02
-1.881417e-02
-1.839173e-02
-1.790977e-02
-1.736311e-02
-1.674819e-02
-1.606398e-02
-1.531260e-02
-1.449962e-02
-1.363353e-02
-1.272488e-02
-1.178521e-02
-1.082623e-02
-9.859153e-03
-8.894209e-03
-7.940253e-03
-7.004584e-03
-6.092923e-03
-5.209656e-03
-4.358307e-03
-3.541966e-03
-2.763463e-03
-2.025429e-03
-1.330390e-03
-6.808323e-04
-7.912364e-05
4.725957e-04
9.723816e-04
1.418381e-03
1.808886e-03
2.142510e-03
2.418259e-03
2.635437e-03
2.793454e-03
2.891570e-03
2.928549e-03
2.902372e-03
2.810182e-03
2.648367e-03
2.412553e-03
2.097570e-03
1.697626e-03
1.206573e-03
6.181914e-04
-7.344939e-05
-8.734239e-04
-1.785337e-03
-2.810870e-03
-3.949533e-03
-5.198633e-03
-6.553635e-03
-8.008967e-03
-9.558916e-03
-1.119813e-02
-1.292155e-02
-1.472406e-02
-1.660018e-02
-1.854366e-02
-2.054740e-02
-2.260354e-02
-2.470382e-02
-2.683983e-02
-2.900303e-02
-3.118466e-02
-3.337566e-02
-3.556645e-02
-3.774686e-02
-3.990640e-02
-4.203461e-02
-4.412138e-02
-4.615716e-02
-4.813314e-02
-5.004136e-02
-5.187469e-02
-5.362696e-02
-5.529317e-02
-5.686965e-02
-5.835379e-02
-5.974363e-02
-6.103747e-02
-6.223371e-02
-6.333075e-02
-6.432726e-02
-6.522264e-02
-6.601725e-02
-6.671244e-02
-6.731026e-02
-6.781312e-02
-6.822335e-02
-6.854275e-02
-6.877234e-02
-6.891263e-02
-6.896411e-02
-6.892784e-02
-6.880588e-02
-6.860180e-02
-6.832090e-02
-6.797035e-02
-6.755906e-02
-6.709760e-02
-6.659787e-02
-6.607241e-02
-6.553380e-02
-6.499395e-02
-6.446371e-02
-6.395232e-02
-6.346709e-02
-6.301347e-02
-6.259517e-02
-6.221413e-02
-6.187032e-02
-6.156168e-02
-6.128433e-02
-6.103290e-02
-6.080138e-02
-6.058406e-02
-6.037653e-02
-6.017625e-02
-5.998269e-02
-5.979713e-02
-5.962195e-02
-5.945985e-02
