EVENT_NAME: L_AQUILA
EVENT_ID: IT-2009-0009
EVENT_DATE_YYYYMMDD: 20090406
EVENT_TIME_HHMMSS: 013240
EVENT_LATITUDE_DEGREE: 42.3420
EVENT_LONGITUDE_DEGREE: 13.3800
EVENT_DEPTH_KM: 8.3
HYPOCENTER_REFERENCE: INGV-CNT_Seismic_Bulletin
MAGNITUDE_W: 6.1
MAGNITUDE_W_REFERENCE: INGV-CNT_Seismic_Bulletin
MAGNITUDE_L: 
MAGNITUDE_L_REFERENCE: 
FOCAL_MECHANISM: Normal faulting
NETWORK: IT
STATION_CODE: SPO
STATION_NAME: 
STATION_LATITUDE_DEGREE: 42.733585
STATION_LONGITUDE_DEGREE: 12.740602
STATION_ELEVATION_M: 476
LOCATION: 
SENSOR_DEPTH_M: 0.0
VS30_M/S: 
SITE_CLASSIFICATION_EC8: A (inferred from geology)
MORPHOLOGIC_CLASSIFICATION: 
EPICENTRAL_DISTANCE_KM: 68.2
EARTHQUAKE_BACKAZIMUTH_DEGREE: 309.8
DATE_TIME_FIRST_SAMPLE_YYYYMMDD_HHMMSS: 20090406_013241.000
DATE_TIME_FIRST_SAMPLE_PRECISION: seconds
SAMPLING_INTERVAL_S: 0.005000
NDATA: 20200
DURATION_S: 101.000
STREAM: HNZ
UNITS: cm/s
INSTRUMENT: sensor = FBA-3 [Kinemetrics] | digitizer = Etna [Kinemetrics]
INSTRUMENT_ANALOG/DIGITAL: D
INSTRUMENTAL_FREQUENCY_HZ: 210.000
INSTRUMENTAL_DAMPING: 0.700000
FULL_SCALE_G: 1.0
N_BIT_DIGITAL_CONVERTER: 18
PGV_CM/S: 0.638550
TIME_PGV_S: 28.010000
BASELINE_CORRECTION: BASELINE REMOVED
FILTER_TYPE: BUTTERWORTH
FILTER_ORDER: 2
LOW_CUT_FREQUENCY_HZ: 0.050
HIGH_CUT_FREQUENCY_HZ: 40.000
LATE/NORMAL_TRIGGERED: NT
DATABASE_VERSION: 0.5
HEADER_FORMAT: DYNA 1.2
DATA_TYPE: VELOCITY
PROCESSING: manual (Paolucci et al., 2011)
DATA_TIMESTAMP_YYYYMMDD_HHMMSS: 20211011_160446.822
DATA_LICENSE: CC-BY3_0-IT (http://creativecommons.org/licenses/by/3.0/deed.en)
DATA_CITATION: Luzi L, Pacor F, Puglia R (2019). Italian Accelerometric Archive v 3.0 - Istituto Nazionale di Geofisica e Vulcanologia, Dipartimento della Protezione Civile Nazionale. doi: 10.13127/itaca.3.1
DATA_CREATOR: ITACA working group
ORIGINAL_DATA_MEDIATOR_CITATION: data obtained within the DPC-INGV data exchange agreements
ORIGINAL_DATA_MEDIATOR: Archive of Italian Department of Civil Protection
ORIGINAL_DATA_CREATOR_CITATION: Presidency Of Counsil Of Ministers-Civil Protection Department. (1972). Italian Strong Motion Network. Presidency of Counsil of Ministers - Civil Protection Department. https://doi.org/10.7914/SN/IT http://www.fdsn.org/networks/detail/IT/
ORIGINAL_DATA_CREATOR: network: IT (Italian Strong Motion Network (RAN)); owner: Presidency of Counsil of Ministers - Civil Protection Department (PCM - DPC)
USER1: 
USER2: 
USER3: 
USER4: 
USER5: 
[...]
-0.073233
-0.069410
-0.064591
-0.058814
-0.052272
-0.045260
-0.038080
-0.031012
-0.024335
-0.018374
-0.013520
-0.010167
-0.008574
-0.008767
-0.010562
-0.013673
-0.017784
-0.022558
-0.027631
-0.032615
-0.037116
-0.040790
-0.043471
-0.045300
-0.046711
-0.048241
-0.050287
-0.052996
-0.056293
-0.059983
-0.063807
-0.067461
-0.070606
-0.072929
-0.074278
-0.074767
-0.074750
-0.074651
-0.074724
-0.074903
-0.074821
-0.073958
-0.071847
-0.068250
-0.063281
-0.057431
-0.051508
-0.046430
-0.042890
-0.041067
-0.040578
-0.040710
-0.040746
-0.040171
-0.038698
-0.036211
-0.032702
-0.028292
-0.023296
-0.018253
-0.013797
-0.010424
-0.008330
-0.007432
-0.007517
-0.008377
-0.009844
-0.011798
-0.014180
-0.016977
-0.020144
-0.023484
-0.026586
-0.028880
-0.029818
-0.029088
-0.026771
-0.023301
-0.019244
-0.015025
-0.010763
-0.006337
-0.001611
0.003364
0.008325
0.012900
0.016744
0.019629
0.021475
0.022314
0.022242
0.021408
0.020042
0.018487
0.017224
0.016851
0.017982
0.021079
0.026341
0.033698
0.042853
0.053284
0.064239
0.074834
0.084248
0.091880
0.097411
0.100743
0.101935
0.101123
0.098490
0.094269
0.088787
0.082490
0.075904
0.069517
0.063666
0.058495
0.054039
0.050354
0.047584
0.045880
0.045215
0.045236
0.045300
0.044716
0.043007
0.039992
0.035651
0.029973
0.022935
0.014616
0.005302
-0.004542
-0.014387
-0.023762
-0.032313
-0.039821
-0.046164
-0.051304
-0.055289
-0.058231
-0.060220
-0.061210
-0.060964
-0.059164
-0.055665
-0.050675
-0.044659
-0.038056
-0.031087
-0.023834
-0.016436
-0.009196
-0.002536
0.003123
0.007484
0.010463
0.012185
0.012905
0.012920
0.012494
0.011749
0.010528
0.008340
0.004495
-0.001563
-0.009935
-0.020136
-0.031217
-0.042044
-0.051564
-0.058988
-0.063840
-0.065897
-0.065120
-0.061682
-0.056065
-0.049094
-0.041760
-0.034911
-0.029003
-0.024093
-0.020025
-0.016674
-0.014086
-0.012449
-0.012014
-0.013027
-0.015647
-0.019825
-0.025240
-0.031348
-0.037479
-0.042912
-0.046946
-0.049026
-0.048886
-0.046572
-0.042321
-0.036388
-0.028966
-0.020224
-0.010355
0.000398
0.011716
0.023197
0.034368
0.044708
0.053677
0.060795
0.065737
0.068405
0.068934
0.067611
0.064726
0.060482
0.055052
0.048700
0.041826
0.034915
0.028403
0.022552
0.017437
0.013011
0.009189
0.005922
0.003221
0.001064
-0.000721
-0.002462
-0.004528
-0.007199
-0.010600
-0.014617
-0.018851
-0.022683
-0.025457
-0.026669
-0.026070
-0.023653
-0.019592
-0.014243
-0.008189
-0.002177
0.003054
0.006969
0.009331
0.010171
0.009633
0.007854
0.004942
0.001062
-0.003434
-0.007969
-0.011881
-0.014646
-0.016050
-0.016170
-0.015201
-0.013266
-0.010356
-0.006366
-0.001197
0.005107
0.012235
0.019630
0.026681
0.032914
0.038020
0.041777
0.044019
0.044654
0.043678
0.041167
0.037264
0.032176
0.026206
0.019772
0.013386
0.007506
0.002365
-0.002104
-0.006146
-0.009995
-0.013722
-0.017177
-0.020039
-0.021964
-0.022763
-0.022510
-0.021555
-0.020443
-0.019813
-0.020298
-0.022362
-0.026098
-0.031058
-0.036271
-0.040479
-0.042565
-0.041919
-0.038505
-0.032617
-0.024584
-0.014628
-0.002920
0.010218
0.024165
0.038067
0.051118
0.062881
0.073475
0.083468
0.093530
0.104058
0.114961
0.125705
0.135524
0.143645
0.149442
0.152573
0.153063
0.151268
0.147744
0.143124
0.138061
0.133188
0.129046
0.126010
0.124254
0.123772
0.124425
0.125957
0.128034
0.130312
0.132517
0.134499
0.136270
0.137951
0.139615
0.141159
0.142329
0.142866
0.142651
0.141792
0.140644
0.139694
0.139373
0.139925
0.141404
0.143740
0.146742
0.150047
0.153099
0.155270
0.156049
0.155172
0.152645
0.148665
0.143477
0.137247
0.130067
0.122110
0.113772
0.105635
0.098307
0.092222
0.087524
0.084106
0.081784
0.080445
0.080071
0.080630
0.081919
0.083499
0.084806
0.085360
0.084901
0.083371
0.080794
0.077188
0.072584
0.067097
0.060925
0.054276
0.047309
0.040115
0.032742
0.025292
0.018049
0.011563
0.006600
0.003929
0.003991
0.006680
0.011382
0.017202
0.023223
0.028704
0.033177
0.036464
0.038640
0.039967
0.040764
0.041231
0.041356
0.040946
0.039729
0.037508
0.034282
0.030212
0.025499
0.020293
0.014748
0.009170
0.004120
0.000387
-0.001255
-0.000367
0.002981
0.008335
0.015160
0.022989
0.031306
0.039351
0.046128
0.050709
0.052621
0.052093
0.050019
0.047650
0.046127
0.046112
0.047742
0.050844
0.055195
0.060639
0.067064
0.074364
0.082474
0.091413
0.101226
0.111865
0.123111
0.134585
0.145817
0.156326
0.165707
0.173728
0.180383
0.185805
0.190106
0.193315
0.195450
0.196591
0.196812
0.196011
0.193821
0.189715
0.183261
0.174352
0.163292
0.150701
0.137312
0.123806
0.110800
0.098943
0.088943
0.081395
0.076513
0.073979
0.073048
0.072829
0.072554
0.071718
0.070127
0.067903
0.065450
0.063353
0.062219
0.062453
0.064101
0.066848
0.070194
0.073670
0.076950
0.079823
0.082145
0.083856
0.085003
0.085713
0.086141
0.086484
0.086995
0.087904
0.089251
0.090813
0.092236
0.093258
0.093835
0.094134
0.094451
0.095090
0.096174
0.097565
0.098951
0.100002
0.100479
0.100283
0.099498
0.098385
0.097288
0.096474
0.095977
0.095623
0.095225
0.094730
0.094134
0.093307
0.091959
0.089802
0.086776
0.083162
0.079519
0.076536
0.074915
0.075225
0.077703
0.082110
0.087819
0.094053
0.100122
0.105554
0.110148
0.113928
0.117012
0.119469
0.121292
0.122532
0.123495
0.124722
0.126719
0.129690
0.133490
0.137779
0.142239
0.146718
0.151229
0.155853
0.160629
0.165424
0.169885
0.173531
0.175937
0.176890
0.176431
0.174791
0.172285
0.169173
0.165580
0.161529
0.157072
0.152397
0.147820
0.143694
0.140309
0.137846
0.136375
0.135927
0.136610
0.138659
0.142338
0.147757
0.154727
0.162732
0.171032
0.178825
0.185373
0.190108
0.192725
0.193265
0.192099
0.189792
0.186884
0.183731
0.180536
0.177521
0.175049
0.173566
0.173402
0.174596
0.176889
0.179872
0.183135
0.186318
0.189130
0.191450
0.193468
0.195699
0.198814
0.203377
0.209645
0.217549
0.226809
0.237038
0.247833
0.258862
0.269881
0.280671
0.290953
0.300356
0.308483
0.315058
0.320019
0.323516
0.325815
0.327176
0.327752
0.327573
0.326630
0.324976
0.322733
0.319977
0.316598
0.312296
0.306725
0.299682
0.291204
0.281561
0.271183
0.260541
0.250008
0.239770
0.229862
0.220291
0.211156
0.202712
0.195345
0.189461
0.185355
0.183144
0.182786
0.184052
0.186451
0.189172
0.191165
0.191421
0.189323
0.184838
0.178402
0.170596
0.161902
0.152690
0.143335
0.134294
0.126023
0.118821
0.112776
0.107897
0.104280
0.102095
0.101427
0.102152
0.103959
0.106468
0.109320
0.112193
0.114768
0.116700
0.117631
0.117250
0.115338
0.111804
0.106701
0.100237
0.092753
0.084685
0.076487
0.068545
0.061111
0.054256
0.047895
0.041922
0.036382
0.031485
0.027459
0.024327
0.021753
0.019089
0.015668
0.011193
0.005968
0.000786
-0.003449
-0.006100
-0.006984
-0.006364
-0.004797
-0.002932
-0.001271
-0.000012
0.000979
0.002043
0.003589
0.006031
0.009752
0.014998
0.021695
0.029305
0.036883
0.043332
0.047771
0.049805
0.049590
0.047668
0.044706
0.041251
0.037594
0.033805
0.029888
0.025939
0.022246
0.019288
0.017601
0.017571
0.019251
0.022337
0.026306
0.030646
0.035040
0.039425
0.043924
0.048707
0.053844
0.059262
0.064801
0.070322
0.075755
0.081034
0.085961
0.090144
0.093124
0.094620
0.094672
0.093600
0.091841
0.089777
0.087663
0.085654
0.083875
0.082461
0.081543
0.081234
0.081633
0.082825
0.084855
0.087692
0.091237
0.095329
0.099745
0.104136
0.107955
0.110460
0.110851
0.108478
0.103068
0.094861
0.084576
0.073216
0.061823
0.051293
0.042313
0.035404
0.030946
0.029103
0.029730
0.032409
0.036611
0.041866
0.047856
0.054420
0.061470
0.068836
0.076177
0.083030
0.088983
0.093825
0.097595
0.100462
0.102531
0.103690
0.103595
0.101814
0.098052
0.092342
0.085059
0.076724
0.067790
0.058556
0.049218
0.039966
0.031031
0.022649
0.015021
0.008264
0.002360
-0.002869
-0.007703
-0.012404
-0.017161
-0.022163
-0.027732
-0.034336
-0.042431
-0.052240
-0.063640
-0.076250
-0.089627
-0.103397
-0.117274
-0.131000
-0.144301
-0.156885
-0.168495
-0.178932
-0.188032
-0.195617
-0.201474
-0.205413
-0.207344
-0.207333
-0.205605
-0.202511
-0.198442
-0.193746
-0.188702
-0.183593
-0.178757
-0.174575
-0.171420
-0.169580
-0.169196
-0.170253
-0.172653
-0.176289
-0.181107
-0.187166
-0.194614
-0.203586
-0.214101
-0.226057
-0.239275
-0.253569
-0.268800
-0.284889
-0.301776
-0.319367
-0.337466
-0.355712
-0.373547
-0.390269
-0.405168
-0.417684
-0.427550
-0.434837
-0.439870
-0.443039
-0.444599
-0.444561
-0.442731
-0.438851
-0.432725
-0.424274
-0.413524
-0.400584
-0.385637
-0.368964
-0.350973
-0.332167
-0.313007
-0.293789
-0.274655
-0.255735
-0.237282
-0.219673
-0.203302
-0.188473
-0.175383
-0.164149
-0.154858
-0.147587
-0.142386
-0.139239
-0.138009
-0.138426
-0.140142
-0.142849
-0.146367
-0.150636
-0.155618
-0.161172
-0.167015
-0.172771
-0.178040
-0.182469
-0.185823
-0.188086
-0.189484
-0.190394
-0.191191
-0.192108
-0.193187
-0.194280
-0.195092
-0.195267
-0.194528
-0.192759
-0.190012
-0.186427
-0.182181
-0.177467
-0.172465
-0.167284
-0.161940
-0.156431
-0.150837
-0.145347
-0.140189
-0.135556
-0.131584
-0.128380
-0.126029
-0.124554
-0.123865
-0.123749
-0.123953
-0.124292
-0.124705
-0.125251
-0.126044
-0.127185
-0.128749
-0.130797
-0.133405
-0.136685
-0.140771
-0.145789
-0.151811
-0.158817
-0.166642
-0.174952
-0.183270
-0.191082
-0.197947
-0.203567
-0.207780
-0.210534
-0.211907
-0.212107
-0.211435
-0.210219
-0.208780
-0.207373
-0.206154
-0.205163
-0.204357
-0.203658
-0.203008
-0.202406
-0.201925
-0.201740
-0.202134
-0.203444
-0.205952
-0.209816
-0.215059
-0.221603
-0.229305
-0.237969
-0.247315
-0.256980
-0.266605
-0.275991
-0.285177
-0.294373
-0.303819
-0.313659
-0.323909
-0.334525
-0.345465
-0.356702
-0.368214
-0.379990
-0.391999
-0.404130
-0.416140
-0.427599
-0.437929
-0.446506
-0.452762
-0.456273
-0.456826
-0.454449
-0.449431
-0.442331
-0.433922
-0.425059
-0.416507
-0.408810
-0.402221
-0.396713
-0.392026
-0.387716
-0.383256
-0.378200
-0.372349
-0.365792
-0.358822
-0.351777
-0.344902
-0.338228
-0.331493
-0.324178
-0.315681
-0.305532
-0.293522
-0.279695
-0.264275
-0.247587
-0.230000
-0.211863
-0.193450
-0.174950
-0.156477
-0.138081
-0.119780
-0.101605
-0.083635
-0.065988
-0.048772
-0.032066
-0.015930
-0.000437
0.014302
0.028160
0.041016
0.052747
0.063216
0.072297
0.079927
0.086139
0.091035
0.094721
0.097231
0.098477
0.098275
0.096478
0.093142
0.088570
0.083215
0.077495
0.071642
0.065621
0.059165
0.051900
0.043457
0.033548
0.021996
0.008754
-0.006083
-0.022264
-0.039372
-0.056900
-0.074368
-0.091397
-0.107717
-0.123154
-0.137608
-0.151035
-0.163463
-0.175030
-0.186019
-0.196819
-0.207808
-0.219244
-0.231247
-0.243881
-0.257260
-0.271573
-0.287016
-0.303708
-0.321588
-0.340363
-0.359529
-0.378433
-0.396368
-0.412685
-0.426855
-0.438488
-0.447345
-0.453354
-0.456569
-0.457100
-0.455051
-0.450520
-0.443684
-0.434879
-0.424557
-0.413150
-0.400951
-0.388069
-0.374495
-0.360203
-0.345219
-0.329622
-0.313556
-0.297246
-0.280961
-0.264950
-0.249403
-0.234477
-0.220358
-0.207300
-0.195651
-0.185810
-0.178129
-0.172812
-0.169823
-0.168888
-0.169612
-0.171644
-0.174770
-0.178918
-0.184123
-0.190475
-0.198091
-0.207147
-0.217852
-0.230341
-0.244510
-0.259909
-0.275755
-0.291087
-0.305020
-0.316945
-0.326563
-0.333821
-0.338790
-0.341558
-0.342202
-0.340824
-0.337590
-0.332741
-0.326579
-0.319468
-0.311831
-0.304107
-0.296680
-0.289776
-0.283404
-0.277418
-0.271591
-0.265627
-0.259139
-0.251674
-0.242798
-0.232191
-0.219721
-0.205448
-0.189575
-0.172367
-0.154061
-0.134838
-0.114840
-0.094215
-0.073097
-0.051604
-0.029923
-0.008387
0.012595
0.032658
0.051566
0.069253
0.085792
0.101322
0.115964
0.129753
0.142591
0.154310
0.164778
0.173963
0.181938
0.188833
0.194745
0.199691
0.203621
0.206469
0.208185
0.208775
0.208345
0.207100
0.205317
0.203312
0.201368
0.199665
0.198218
0.196856
0.195261
0.193056
0.189876
0.185410
0.179465
0.171997
0.163067
0.152740
0.141026
0.127877
0.113228
0.097076
0.079540
0.060894
0.041528
0.021874
0.002322
-0.016844
-0.035401
-0.053090
-0.069572
-0.084485
-0.097527
-0.108564
-0.117688
-0.125198
-0.131522
-0.137145
-0.142529
-0.148034
-0.153851
-0.159954
-0.166082
-0.171810
-0.176709
-0.180453
-0.182834
-0.183773
-0.183309
-0.181512
-0.178399
-0.173898
-0.167840
-0.159994
-0.150129
-0.138035
-0.123537
-0.106506
-0.086899
-0.064852
-0.040766
-0.015312
0.010702
0.036491
0.061445
0.085199
0.107601
0.128630
0.148312
0.166658
0.183631
0.199181
0.213298
0.226050
0.237615
0.248311
0.258564
0.268840
0.279572
0.291142
0.303886
0.318096
0.333996
0.351688
0.371125
0.392104
0.414272
0.437174
0.460323
0.483255
0.505544
0.526803
0.546706
0.564991
0.581444
0.595911
0.608301
0.618570
0.626700
0.632682
0.636557
0.638445
0.638550
0.637155
0.634638
0.631406
0.627799
0.624037
0.620247
0.616545
0.613070
0.609931
0.607150
0.604609
0.602058
0.599177
0.595673
0.591351
0.586151
0.580128
0.573357
0.565827
0.557404
0.547913
0.537244
0.525399
0.512456
0.498509
0.483621
0.467787
0.450969
0.433204
0.414689
0.395803
0.377044
0.358939
0.341960
0.326488
0.312792
0.301021
0.291217
0.283349
0.277339
0.273090
0.270496
0.269451
0.269852
0.271578
0.274445
0.278162
0.282334
0.286489
0.290132
0.292822
0.294252
0.294318
0.293113
0.290847
0.287767
0.284106
0.280059
0.275754
0.271237
0.266468
0.261323
0.255635
0.249241
0.242029
0.233979
0.225155
0.215664
0.205621
0.195120
0.184210
0.172873
0.161029
0.148581
0.135487
0.121828
0.107813
0.093722
0.079815
0.066265
0.053180
0.040696
0.029040
0.018524
0.009503
0.002296
-0.002869
-0.005891
-0.006795
-0.005739
-0.003018
0.000975
0.005798
0.011052
0.016457
0.021873
0.027240
0.032523
0.037706
0.042797
0.047826
0.052797
0.057622
0.062093
0.065935
0.068896
0.070841
0.071779
0.071858
0.071290
0.070292
0.069081
0.067924
0.067184
0.067296
0.068678
0.071628
0.076282
0.082659
0.090732
0.100470
0.111846
0.124828
0.139356
0.155315
0.172506
0.190635
0.209314
0.228082
0.246438
0.263875
0.279931
0.294220
0.306469
0.316552
0.324498
0.330482
0.334784
0.337741
0.339677
0.340840
0.341387
0.341413
0.340991
0.340222
0.339237
0.338126
0.336849
0.335195
0.332792
0.329193
0.324005
0.316992
0.308095
0.297373
0.284939
0.270922
0.255481
0.238877
0.221526
0.204008
0.187013
0.171207
0.157061
0.144772
0.134293
0.125433
0.117944
0.111596
0.106227
0.101727
0.098023
0.095079
0.092937
0.091718
0.091604
0.092780
0.095373
0.099389
0.104711
0.111144
0.118480
0.126525
0.135091
0.143978
0.153014
0.162078
0.171093
0.180015
0.188838
0.197564
0.206144
0.214472
0.222423
0.229909
0.236962
0.243776
0.250655
0.257934
0.265905
0.274760
0.284553
0.295182
0.306395
0.317891
0.329427
0.340871
0.352179
0.363386
0.374565
0.385761
0.396959
0.408103
0.419117
0.429910
0.440359
0.450293
0.459490
0.467726
0.474847
0.480816
0.485699
0.489577
0.492451
0.494213
0.494704
0.493804
0.491542
0.488186
0.484246
0.480356
0.477095
0.474845
0.473731
0.473687
0.474569
0.476233
0.478550
0.481390
0.484614
0.488034
0.491358
0.494206
0.496205
0.497088
0.496725
0.495089
0.492189
0.488007
0.482504
0.475667
0.467562
0.458337
0.448206
0.437401
0.426095
0.414362
0.402188
0.389537
0.376431
0.362964
0.349270
0.335483
0.321706
0.308022
0.294532
0.281351
0.268593
0.256349
0.244701
0.233720
0.223446
0.213848
0.204799
0.196065
0.187343
0.178328
0.168796
0.158637
0.147836
0.136445
0.124544
0.112184
0.099360
0.086023
0.072132
0.057689
0.042738
0.027347
0.011587
-0.004476
-0.020753
-0.037095
-0.053241
-0.068821
-0.083421
-0.096668
-0.108290
-0.118134
-0.126161
-0.132429
-0.137077
-0.140291
-0.142256
-0.143116
-0.142921
-0.141621
-0.139126
-0.135398
-0.130541
-0.124814
-0.118578
-0.112194
-0.105949
-0.100022
-0.094482
-0.089318
-0.084505
-0.080048
-0.076012
-0.072518
-0.069721
-0.067798
-0.066937
-0.067286
-0.068871
-0.071527
-0.074892
-0.078483
-0.081786
-0.084317
-0.085642
-0.085390
-0.083314
-0.079383
-0.073845
-0.067161
-0.059879
-0.052523
-0.045545
-0.039315
-0.034104
-0.030107
-0.027518
-0.026553
-0.027394
-0.030083
-0.034474
-0.040283
-0.047174
-0.054816
-0.062921
-0.071254
-0.079626
-0.087867
-0.095819
-0.103366
-0.110463
-0.117104
-0.123272
-0.128903
-0.133889
-0.138129
-0.141578
-0.144250
-0.146149
-0.147209
-0.147291
-0.146247
-0.144015
-0.140685
-0.136523
-0.131896
-0.127114
-0.122300
-0.117384
-0.112228
-0.106766
-0.101058
-0.095270
-0.089593
-0.084158
-0.078980
-0.073984
-0.069048
-0.064062
-0.059001
-0.054005
-0.049394
-0.045586
-0.042982
-0.041887
-0.042436
-0.044576
-0.048115
-0.052829
-0.058531
-0.065083
-0.072331
-0.080054
-0.087938
-0.095609
-0.102682
-0.108832
-0.113820
-0.117468
-0.119625
-0.120193
-0.119165
-0.116636
-0.112796
-0.107910
-0.102249
-0.096025
-0.089383
-0.082433
-0.075314
-0.068213
-0.061367
-0.055061
-0.049610
-0.045325
-0.042470
-0.041217
-0.041595
-0.043471
-0.046608
-0.050761
-0.055747
-0.061433
-0.067698
-0.074379
-0.081269
-0.088133
-0.094738
-0.100872
-0.106364
-0.111110
-0.115086
-0.118340
-0.120957
-0.123041
-0.124685
-0.125957
-0.126896
-0.127538
-0.127943
-0.128226
-0.128577
-0.129231
-0.130400
-0.132211
-0.134668
-0.137628
-0.140816
-0.143864
-0.146377
-0.148030
-0.148642
-0.148173
-0.146658
-0.144137
-0.140627
-0.136139
-0.130724
-0.124485
-0.117589
-0.110275
-0.102852
-0.095652
-0.088977
-0.083062
-0.078055
-0.074004
-0.070866
-0.068524
-0.066816
-0.065543
-0.064465
-0.063313
-0.061823
-0.059776
-0.057055
-0.053659
-0.049672
-0.045206
-0.040366
-0.035228
-0.029852
-0.024306
-0.018660
-0.012995
-0.007393
-0.001918
0.003403
0.008580
0.013641
0.018612
0.023488
0.028208
0.032620
0.036462
0.039393
0.041079
0.041280
0.039904
0.037029
0.032880
0.027775
0.022052
0.015995
0.009798
0.003597
-0.002479
-0.008290
-0.013702
-0.018589
-0.022837
-0.026353
-0.029075
-0.030953
-0.031919
-0.031874
-0.030724
-0.028428
-0.025027
-0.020680
-0.015692
-0.010478
-0.005473
-0.001023
0.002687
0.005615
0.007772
0.009121
0.009544
0.008872
0.006952
0.003701
-0.000870
-0.006678
-0.013596
-0.021453
-0.030046
-0.039162
-0.048614
-0.058254
-0.067949
-0.077548
-0.086874
-0.095753
-0.104051
-0.111680
-0.118570
-0.124667
-0.129932
-0.134362
-0.138007
