EVENT_NAME: L_AQUILA
EVENT_ID: IT-2009-0009
EVENT_DATE_YYYYMMDD: 20090406
EVENT_TIME_HHMMSS: 013240
EVENT_LATITUDE_DEGREE: 42.3420
EVENT_LONGITUDE_DEGREE: 13.3800
EVENT_DEPTH_KM: 8.3
HYPOCENTER_REFERENCE: INGV-CNT_Seismic_Bulletin
MAGNITUDE_W: 6.1
MAGNITUDE_W_REFERENCE: INGV-CNT_Seismic_Bulletin
MAGNITUDE_L: 
MAGNITUDE_L_REFERENCE: 
FOCAL_MECHANISM: Normal faulting
NETWORK: IT
STATION_CODE: SPO
STATION_NAME: 
STATION_LATITUDE_DEGREE: 42.733585
STATION_LONGITUDE_DEGREE: 12.740602
STATION_ELEVATION_M: 476
LOCATION: 
SENSOR_DEPTH_M: 0.0
VS30_M/S: 
SITE_CLASSIFICATION_EC8: A (inferred from geology)
MORPHOLOGIC_CLASSIFICATION: 
EPICENTRAL_DISTANCE_KM: 68.2
EARTHQUAKE_BACKAZIMUTH_DEGREE: 309.8
DATE_TIME_FIRST_SAMPLE_YYYYMMDD_HHMMSS: 20090406_013241.000
DATE_TIME_FIRST_SAMPLE_PRECISION: seconds
SAMPLING_INTERVAL_S: 0.005000
NDATA: 20200
DURATION_S: 101.000
STREAM: HNE
UNITS: cm/s
INSTRUMENT: sensor = FBA-3 [Kinemetrics] | digitizer = Etna [Kinemetrics]
INSTRUMENT_ANALOG/DIGITAL: D
INSTRUMENTAL_FREQUENCY_HZ: 206.000
INSTRUMENTAL_DAMPING: 0.700000
FULL_SCALE_G: 1.0
N_BIT_DIGITAL_CONVERTER: 18
PGV_CM/S: -0.593235
TIME_PGV_S: 34.280000
BASELINE_CORRECTION: BASELINE REMOVED
FILTER_TYPE: BUTTERWORTH
FILTER_ORDER: 2
LOW_CUT_FREQUENCY_HZ: 0.050
HIGH_CUT_FREQUENCY_HZ: 40.000
LATE/NORMAL_TRIGGERED: NT
DATABASE_VERSION: 0.5
HEADER_FORMAT: DYNA 1.2
DATA_TYPE: VELOCITY
PROCESSING: manual (Paolucci et al., 2011)
DATA_TIMESTAMP_YYYYMMDD_HHMMSS: 20211011_160445.740
DATA_LICENSE: CC-BY3_0-IT (http://creativecommons.org/licenses/by/3.0/deed.en)
DATA_CITATION: Luzi L, Pacor F, Puglia R (2019). Italian Accelerometric Archive v 3.0 - Istituto Nazionale di Geofisica e Vulcanologia, Dipartimento della Protezione Civile Nazionale. doi: 10.13127/itaca.3.1
DATA_CREATOR: ITACA working group
ORIGINAL_DATA_MEDIATOR_CITATION: data obtained within the DPC-INGV data exchange agreements
ORIGINAL_DATA_MEDIATOR: Archive of Italian Department of Civil Protection
ORIGINAL_DATA_CREATOR_CITATION: Presidency Of Counsil Of Ministers-Civil Protection Department. (1972). Italian Strong Motion Network. Presidency of Counsil of Ministers - Civil Protection Department. https://doi.org/10.7914/SN/IT http://www.fdsn.org/networks/detail/IT/
ORIGINAL_DATA_CREATOR: network: IT (Italian Strong Motion Network (RAN)); owner: Presidency of Counsil of Ministers - Civil Protection Department (PCM - DPC)
USER1: 
USER2: 
USER3: 
USER4: 
USER5: 
[...]
-0.384826
-0.382128
-0.378656
-0.374573
-0.370010
-0.365043
-0.359640
-0.353642
-0.346791
-0.338785
-0.329344
-0.318270
-0.305477
-0.291017
-0.275052
-0.257796
-0.239490
-0.220405
-0.200854
-0.181199
-0.161848
-0.143243
-0.125839
-0.110028
-0.096053
-0.083918
-0.073384
-0.064075
-0.055604
-0.047612
-0.039699
-0.031405
-0.022300
-0.012098
-0.000697
0.011875
0.025550
0.040287
0.056076
0.072864
0.090493
0.108707
0.127213
0.145720
0.163933
0.181543
0.198229
0.213652
0.227470
0.239382
0.249179
0.256752
0.262060
0.265173
0.266304
0.265727
0.263680
0.260314
0.255707
0.249927
0.243086
0.235347
0.226938
0.218164
0.209420
0.201143
0.193753
0.187549
0.182604
0.178754
0.175640
0.172836
0.169957
0.166701
0.162850
0.158242
0.152725
0.146140
0.138352
0.129297
0.118987
0.107497
0.094969
0.081629
0.067772
0.053725
0.039783
0.026135
0.012830
-0.000171
-0.012881
-0.025262
-0.037299
-0.049063
-0.060674
-0.072218
-0.083745
-0.095292
-0.106905
-0.118658
-0.130655
-0.142962
-0.155522
-0.168137
-0.180522
-0.192361
-0.203288
-0.212881
-0.220710
-0.226409
-0.229735
-0.230610
-0.229155
-0.225682
-0.220644
-0.214564
-0.208019
-0.201615
-0.195899
-0.191276
-0.188022
-0.186319
-0.186274
-0.187885
-0.191023
-0.195418
-0.200704
-0.206524
-0.212624
-0.218852
-0.225094
-0.231211
-0.237008
-0.242209
-0.246510
-0.249674
-0.251612
-0.252391
-0.252154
-0.251012
-0.248968
-0.245880
-0.241487
-0.235519
-0.227828
-0.218436
-0.207479
-0.195121
-0.181531
-0.166918
-0.151553
-0.135750
-0.119824
-0.104046
-0.088576
-0.073482
-0.058840
-0.044805
-0.031602
-0.019439
-0.008438
0.001429
0.010362
0.018694
0.026776
0.034848
0.042996
0.051201
0.059367
0.067324
0.074863
0.081782
0.087915
0.093134
0.097346
0.100449
0.102268
0.102559
0.101080
0.097656
0.092220
0.084860
0.075874
0.065725
0.054935
0.044010
0.033415
0.023551
0.014663
0.006759
-0.000400
-0.007220
-0.014157
-0.021622
-0.029885
-0.039030
-0.048993
-0.059662
-0.070942
-0.082761
-0.095033
-0.107585
-0.120112
-0.132183
-0.143332
-0.153181
-0.161553
-0.168563
-0.174596
-0.180157
-0.185702
-0.191558
-0.197979
-0.205219
-0.213536
-0.223112
-0.233979
-0.246012
-0.258936
-0.272381
-0.285922
-0.299068
-0.311223
-0.321764
-0.330164
-0.336057
-0.339251
-0.339725
-0.337633
-0.333263
-0.326952
-0.319080
-0.310075
-0.300371
-0.290328
-0.280222
-0.270336
-0.261000
-0.252526
-0.245137
-0.238945
-0.233960
-0.230048
-0.226904
-0.224067
-0.220982
-0.217064
-0.211786
-0.204773
-0.195823
-0.184853
-0.171823
-0.156716
-0.139549
-0.120344
-0.099109
-0.075854
-0.050642
-0.023637
0.004855
0.034363
0.064303
0.094108
0.123330
0.151720
0.179261
0.206136
0.232603
0.258853
0.284937
0.310786
0.336263
0.361189
0.385378
0.408656
0.430854
0.451787
0.471277
0.489200
0.505500
0.520163
0.533177
0.544526
0.554187
0.562141
0.568428
0.573208
0.576733
0.579263
0.580995
0.582046
0.582453
0.582189
0.581198
0.579446
0.576919
0.573610
0.569544
0.564789
0.559419
0.553427
0.546745
0.539317
0.531180
0.522466
0.513364
0.504098
0.494905
0.485986
0.477464
0.469340
0.461465
0.453514
0.445057
0.435695
0.425184
0.413496
0.400818
0.387526
0.374096
0.360953
0.348380
0.336551
0.325611
0.315743
0.307188
0.300205
0.294989
0.291587
0.289907
0.289776
0.290989
0.293307
0.296467
0.300232
0.304424
0.308897
0.313526
0.318233
0.322960
0.327656
0.332293
0.336886
0.341458
0.345991
0.350397
0.354548
0.358335
0.361697
0.364588
0.366940
0.368641
0.369512
0.369321
0.367812
0.364755
0.359984
0.353454
0.345278
0.335677
0.324895
0.313126
0.300500
0.287116
0.273085
0.258541
0.243637
0.228537
0.213378
0.198265
0.183319
0.168706
0.154622
0.141277
0.128863
0.117519
0.107322
0.098350
0.090739
0.084674
0.080328
0.077793
0.077056
0.078000
0.080432
0.084158
0.089058
0.095082
0.102183
0.110274
0.119264
0.129100
0.139781
0.151350
0.163863
0.177336
0.191672
0.206630
0.221851
0.236881
0.251216
0.264349
0.275857
0.285463
0.293043
0.298577
0.302091
0.303594
0.303058
0.300447
0.295764
0.289108
0.280726
0.270983
0.260284
0.249010
0.237474
0.225911
0.214545
0.203657
0.193584
0.184685
0.177295
0.171671
0.167906
0.165906
0.165419
0.166071
0.167380
0.168804
0.169811
0.169933
0.168764
0.165954
0.161242
0.154451
0.145449
0.134136
0.120501
0.104699
0.087078
0.068169
0.048644
0.029209
0.010492
-0.007024
-0.023018
-0.037340
-0.049993
-0.061091
-0.070790
-0.079238
-0.086593
-0.093064
-0.098919
-0.104445
-0.109906
-0.115491
-0.121288
-0.127297
-0.133464
-0.139675
-0.145736
-0.151388
-0.156374
-0.160507
-0.163666
-0.165737
-0.166572
-0.166000
-0.163867
-0.160089
-0.154692
-0.147809
-0.139650
-0.130521
-0.120865
-0.111230
-0.102164
-0.094142
-0.087516
-0.082467
-0.078970
-0.076835
-0.075811
-0.075682
-0.076279
-0.077445
-0.079004
-0.080723
-0.082285
-0.083321
-0.083501
-0.082591
-0.080441
-0.076947
-0.072085
-0.065959
-0.058817
-0.051012
-0.042924
-0.034859
-0.027008
-0.019513
-0.012521
-0.006165
-0.000485
0.004594
0.009240
0.013682
0.018178
0.022969
0.028223
0.034038
0.040476
0.047592
0.055448
0.064123
0.073752
0.084488
0.096391
0.109333
0.122984
0.136843
0.150274
0.162597
0.173218
0.181730
0.187934
0.191797
0.193415
0.192989
0.190791
0.187134
0.182332
0.176653
0.170270
0.163268
0.155700
0.147607
0.139008
0.129912
0.120342
0.110344
0.099957
0.089200
0.078101
0.066725
0.055150
0.043435
0.031603
0.019623
0.007396
-0.005235
-0.018438
-0.032363
-0.047163
-0.062996
-0.079989
-0.098210
-0.117676
-0.138328
-0.159995
-0.182383
-0.205107
-0.227733
-0.249820
-0.271000
-0.291066
-0.309990
-0.327843
-0.344684
-0.360504
-0.375222
-0.388697
-0.400748
-0.411228
-0.420056
-0.427202
-0.432639
-0.436327
-0.438200
-0.438157
-0.436082
-0.431908
-0.425642
-0.417354
-0.407155
-0.395196
-0.381644
-0.366667
-0.350454
-0.333242
-0.315295
-0.296828
-0.277967
-0.258769
-0.239247
-0.219408
-0.199303
-0.179075
-0.158923
-0.139038
-0.119564
-0.100572
-0.082047
-0.063879
-0.045919
-0.028058
-0.010296
0.007255
0.024391
0.040818
0.056180
0.070111
0.082258
0.092291
0.099947
0.105090
0.107723
0.107969
0.106048
0.102279
0.097046
0.090724
0.083660
0.076208
0.068763
0.061726
0.055471
0.050285
0.046305
0.043463
0.041506
0.040057
0.038711
0.037113
0.035036
0.032419
0.029336
0.025918
0.022312
0.018702
0.015322
0.012434
0.010330
0.009314
0.009649
0.011507
0.014990
0.020180
0.027153
0.035923
0.046406
0.058458
0.071924
0.086647
0.102456
0.119177
0.136632
0.154600
0.172811
0.190961
0.208727
0.225795
0.241910
0.256935
0.270840
0.283638
0.295337
0.305925
0.315359
0.323558
0.330402
0.335711
0.339217
0.340587
0.339513
0.335847
0.329641
0.321114
0.310614
0.298570
0.285425
0.271565
0.257267
0.242682
0.227825
0.212609
0.196913
0.180660
0.163823
0.146393
0.128372
0.109798
0.090755
0.071368
0.051805
0.032276
0.012990
-0.005909
-0.024320
-0.042119
-0.059143
-0.075259
-0.090392
-0.104513
-0.117642
-0.129865
-0.141294
-0.151995
-0.161957
-0.171115
-0.179376
-0.186636
-0.192817
-0.197901
-0.201957
-0.205112
-0.207510
-0.209265
-0.210441
-0.211016
-0.210881
-0.209872
-0.207795
-0.204452
-0.199680
-0.193389
-0.185566
-0.176238
-0.165467
-0.153386
-0.140230
-0.126291
-0.111864
-0.097225
-0.082612
-0.068200
-0.054122
-0.040525
-0.027623
-0.015665
-0.004844
0.004739
0.013099
0.020395
0.026896
0.032879
0.038566
0.044115
0.049595
0.054954
0.060053
0.064741
0.068873
0.072283
0.074820
0.076409
0.077080
0.076925
0.076076
0.074702
0.073005
0.071209
0.069560
0.068338
0.067858
0.068440
0.070360
0.073789
0.078739
0.085043
0.092394
0.100413
0.108708
0.116900
0.124666
0.131771
0.138055
0.143385
0.147652
0.150809
0.152904
0.154050
0.154379
0.154005
0.153001
0.151392
0.149155
0.146230
0.142531
0.137961
0.132485
0.126211
0.119410
0.112466
0.105823
0.099962
0.095328
0.092252
0.090908
0.091274
0.093125
0.096071
0.099651
0.103438
0.107060
0.110151
0.112353
0.113374
0.113006
0.111126
0.107731
0.102928
0.096910
0.089960
0.082428
0.074643
0.066846
0.059162
0.051611
0.044153
0.036732
0.029286
0.021773
0.014218
0.006715
-0.000628
-0.007712
-0.014438
-0.020722
-0.026501
-0.031689
-0.036081
-0.039357
-0.041190
-0.041326
-0.039597
-0.035943
-0.030464
-0.023407
-0.015087
-0.005844
0.003968
0.014014
0.024024
0.033832
0.043368
0.052626
0.061625
0.070374
0.078830
0.086923
0.094620
0.101927
0.108831
0.115278
0.121209
0.126576
0.131325
0.135404
0.138797
0.141541
0.143685
0.145270
0.146331
0.146895
0.146970
0.146533
0.145542
0.143932
0.141607
0.138455
0.134365
0.129247
0.123047
0.115762
0.107453
0.098269
0.088432
0.078177
0.067717
0.057204
0.046720
0.036305
0.026045
0.016091
0.006606
-0.002286
-0.010537
-0.018187
-0.025336
-0.032065
-0.038376
-0.044185
-0.049363
-0.053761
-0.057211
-0.059551
-0.060647
-0.060359
-0.058519
-0.054966
-0.049625
-0.042569
-0.034027
-0.024328
-0.013818
-0.002793
0.008509
0.019893
0.031200
0.042337
0.053290
0.064141
0.075036
0.086168
0.097750
0.109987
0.123021
0.136902
0.151610
0.167102
0.183323
0.200182
0.217532
0.235143
0.252678
0.269716
0.285834
0.300661
0.313862
0.325147
0.334291
0.341116
0.345470
0.347253
0.346455
0.343138
0.337394
0.329349
0.319209
0.307275
0.293916
0.279540
0.264568
0.249384
0.234274
0.219439
0.205063
0.191328
0.178396
0.166418
0.155550
0.145923
0.137585
0.130458
0.124334
0.118920
0.113896
0.108992
0.104058
0.099073
0.094098
0.089248
0.084699
0.080669
0.077360
0.074936
0.073532
0.073229
0.074008
0.075742
0.078245
0.081285
0.084572
0.087778
0.090583
0.092677
0.093757
0.093589
0.092091
0.089367
0.085678
0.081367
0.076791
0.072277
0.068101
0.064500
0.061678
0.059778
0.058869
0.058956
0.060013
0.061983
0.064780
0.068299
0.072461
0.077231
0.082591
0.088500
0.094880
0.101586
0.108388
0.114993
0.121106
0.126472
0.130884
0.134207
0.136396
0.137502
0.137624
0.136883
0.135413
0.133352
0.130832
0.128004
0.125022
0.121989
0.118860
0.115435
0.111438
0.106616
0.100777
0.093812
0.085715
0.076582
0.066599
0.056010
0.045079
0.034055
0.023160
0.012594
0.002534
-0.006888
-0.015621
-0.023685
-0.031113
-0.037904
-0.044027
-0.049447
-0.054145
-0.058147
-0.061520
-0.064334
-0.066604
-0.068285
-0.069303
-0.069565
-0.068959
-0.067380
-0.064766
-0.061084
-0.056296
-0.050374
-0.043355
-0.035332
-0.026412
-0.016705
-0.006347
0.004487
0.015610
0.026830
0.037964
0.048858
0.059404
0.069534
0.079199
0.088375
0.097072
0.105313
0.113133
0.120598
0.127849
0.135082
0.142506
0.150305
0.158645
0.167643
0.177349
0.187737
0.198734
0.210240
0.222162
0.234430
0.246994
0.259788
0.272710
0.285666
0.298595
0.311459
0.324199
0.336706
0.348819
0.360335
0.371014
0.380613
0.388953
0.395930
0.401483
0.405561
0.408124
0.409173
0.408780
0.407130
0.404515
0.401295
0.397842
0.394529
0.391736
0.389823
0.389091
0.389754
0.391922
0.395595
0.400671
0.406973
0.414288
0.422371
0.430906
0.439486
0.447661
0.454997
0.461138
0.465855
0.469057
0.470754
0.470994
0.469853
0.467424
0.463779
0.458920
0.452782
0.445308
0.436515
0.426524
0.415549
0.403850
0.391674
0.379202
0.366542
0.353748
0.340825
0.327744
0.314474
0.301005
0.287347
0.273485
0.259354
0.244851
0.229867
0.214309
0.198160
0.181527
0.164611
0.147636
0.130813
0.114336
0.098364
0.082998
0.068270
0.054154
0.040550
0.027276
0.014098
0.000809
-0.012714
-0.026496
-0.040469
-0.054487
-0.068363
-0.081911
-0.094949
-0.107311
-0.118856
-0.129511
-0.139268
-0.148173
-0.156325
-0.163885
-0.171063
-0.178077
-0.185143
-0.192471
-0.200232
-0.208512
-0.217321
-0.226629
-0.236380
-0.246488
-0.256819
-0.267207
-0.277463
-0.287398
-0.296866
-0.305785
-0.314124
-0.321885
-0.329093
-0.335771
-0.341907
-0.347437
-0.352275
-0.356354
-0.359632
-0.362064
-0.363576
-0.364074
-0.363474
-0.361723
-0.358829
-0.354871
-0.349958
-0.344188
-0.337646
-0.330441
-0.322717
-0.314638
-0.306389
-0.298187
-0.290252
-0.282777
-0.275922
-0.269820
-0.264564
-0.260171
-0.256597
-0.253800
-0.251752
-0.250420
-0.249758
-0.249717
-0.250250
-0.251309
-0.252865
-0.254914
-0.257460
-0.260497
-0.263999
-0.267929
-0.272217
-0.276733
-0.281310
-0.285806
-0.290099
-0.294064
-0.297558
-0.300446
-0.302604
-0.303915
-0.304312
-0.303823
-0.302589
-0.300837
-0.298871
-0.297055
-0.295773
-0.295348
-0.295982
-0.297763
-0.300694
-0.304722
-0.309769
-0.315765
-0.322652
-0.330343
-0.338711
-0.347601
-0.356832
-0.366178
-0.375400
-0.384273
-0.392606
-0.400229
-0.407027
-0.412976
-0.418160
-0.422737
-0.426938
-0.431040
-0.435306
-0.439918
-0.444964
-0.450478
-0.456462
-0.462904
-0.469788
-0.477096
-0.484789
-0.492791
-0.500999
-0.509308
-0.517643
-0.525949
-0.534172
-0.542258
-0.550132
-0.557679
-0.564771
-0.571305
-0.577190
-0.582322
-0.586589
-0.589898
-0.592155
-0.593235
-0.592980
-0.591234
-0.587870
-0.582804
-0.576024
-0.567618
-0.557754
-0.546613
-0.534367
-0.521209
-0.507344
-0.492969
-0.478275
-0.463471
-0.448764
-0.434325
-0.420277
-0.406696
-0.393604
-0.380970
-0.368722
-0.356778
-0.345025
-0.333281
-0.321337
-0.309021
-0.296247
-0.283028
-0.269476
-0.255790
-0.242220
-0.229018
-0.216424
-0.204653
-0.193875
-0.184163
-0.175500
-0.167834
-0.161110
-0.155242
-0.150118
-0.145624
-0.141648
-0.138057
-0.134689
-0.131378
-0.127965
-0.124307
-0.120286
-0.115822
-0.110871
-0.105406
-0.099403
-0.092852
-0.085753
-0.078109
-0.069952
-0.061381
-0.052566
-0.043703
-0.034960
-0.026481
-0.018381
-0.010732
-0.003560
0.003162
0.009539
0.015736
0.021917
0.028198
0.034638
0.041251
0.048002
0.054801
0.061532
0.068086
0.074364
0.080273
0.085747
0.090756
0.095275
0.099240
0.102550
0.105089
0.106750
0.107443
0.107114
0.105767
0.103448
0.100209
0.096099
0.091177
0.085507
0.079136
0.072075
0.064345
0.055975
0.046989
0.037424
0.027384
0.017027
0.006502
-0.004085
-0.014677
-0.025268
-0.035900
-0.046615
-0.057408
-0.068233
-0.079021
-0.089671
-0.100052
-0.110037
-0.119543
-0.128540
-0.137051
-0.145146
-0.152947
-0.160606
-0.168263
-0.176031
-0.183966
-0.192034
-0.200086
-0.207909
-0.215299
-0.222105
-0.228245
-0.233702
-0.238507
-0.242697
-0.246288
-0.249289
-0.251725
-0.253628
-0.254997
-0.255820
-0.256120
-0.255972
-0.255486
-0.254793
-0.254033
-0.253326
-0.252737
-0.252290
-0.251983
-0.251804
-0.251722
-0.251711
-0.251748
-0.251797
-0.251788
-0.251626
-0.251230
-0.250551
-0.249549
-0.248178
-0.246400
-0.244188
-0.241512
-0.238358
-0.234747
-0.230718
-0.226295
-0.221464
-0.216191
-0.210425
-0.204111
-0.197218
-0.189753
-0.181742
-0.173205
-0.164163
-0.154673
-0.144812
-0.134652
-0.124274
-0.113793
-0.103364
-0.093140
-0.083264
-0.073885
-0.065138
-0.057119
-0.049876
-0.043431
-0.037754
-0.032743
-0.028233
-0.024050
-0.020036
-0.016070
-0.012078
-0.008033
-0.003946
0.000146
0.004179
0.008059
0.011671
0.014900
0.017631
0.019756
0.021195
0.021902
0.021858
0.021048
0.019460
0.017101
0.013993
0.010172
0.005692
0.000628
-0.004947
-0.010993
-0.017498
-0.024433
-0.031741
-0.039347
-0.047163
-0.055063
-0.062898
-0.070515
-0.077749
-0.084397
-0.090236
-0.095058
-0.098683
-0.100949
-0.101721
-0.100917
-0.098492
-0.094412
-0.088662
-0.081277
-0.072353
-0.062026
-0.050467
-0.037861
-0.024379
-0.010134
0.004800
0.020323
0.036301
0.052619
0.069210
0.086030
0.103043
0.120244
0.137658
0.155318
0.173225
0.191329
0.209511
0.227594
0.245371
0.262641
0.279203
0.294837
0.309317
0.322442
0.334050
0.344031
0.352349
0.359054
0.364257
0.368096
0.370726
0.372339
0.373172
0.373481
0.373523
0.373553
0.373802
0.374449
0.375603
0.377288
0.379439
0.381920
0.384555
0.387162
0.389546
0.391496
0.392830
0.393434
0.393265
0.392305
0.390556
0.388049
0.384844
0.381011
0.376630
0.371805
0.366655
0.361307
0.355906
0.350618
0.345610
0.341006
0.336889
0.333289
0.330174
0.327436
0.324939
0.322555
0.320175
0.317707
0.315081
0.312264
0.309234
0.305959
0.302391
0.298505
0.294314
0.289855
0.285195
0.280418
0.275606
0.270834
0.266185
0.261756
0.257639
0.253902
0.250591
0.247736
0.245341
0.243376
0.241802
0.240624
0.239897
0.239668
0.239961
0.240784
0.242131
0.243959
0.246196
0.248782
0.251679
0.254853
0.258256
0.261824
0.265461
0.269030
0.272362
0.275301
0.277713
0.279471
0.280477
0.280693
0.280142
0.278869
0.276926
0.274391
0.271349
0.267872
0.264050
0.259997
0.255818
0.251589
0.247357
0.243158
0.239000
0.234850
0.230644
0.226320
0.221822
0.217083
0.212024
0.206582
0.200713
0.194394
0.187623
0.180429
0.172841
0.164865
0.156513
0.147853
0.139005
0.130109
0.121312
0.112770
0.104635
0.097030
0.090033
0.083686
0.077992
0.072904
0.068344
0.064248
0.060579
0.057311
0.054437
0.051971
0.049926
0.048278
0.046975
0.045972
0.045231
0.044716
0.044394
0.044249
0.044260
0.044392
0.044609
0.044892
0.045232
0.045606
0.045981
0.046329
0.046628
0.046855
0.046988
0.047038
0.047043
0.047035
0.047030
0.047034
0.047031
0.046966
0.046761
0.046338
0.045606
0.044461
0.042833
0.040736
0.038252
0.035482
0.032526
0.029480
0.026432
0.023451
0.020596
0.017934
0.015531
0.013429
0.011653
0.010238
0.009237
0.008703
0.008690
0.009257
0.010468
0.012374
0.015011
0.018407
0.022586
0.027551
0.033295
0.039827
0.047166
0.055305
0.064205
0.073802
0.083991
0.094612
0.105477
0.116432
0.127380
0.138260
0.149042
0.159731
0.170357
0.180941
0.191474
0.201898
0.212094
0.221889
0.231098
0.239576
0.247223
0.253983
0.259837
0.264791
0.268857
0.272025
0.274265
0.275565
0.275929
0.275358
0.273851
0.271436
0.268183
0.264191
0.259590
0.254545
0.249246
0.243892
0.238679
0.233806
0.229436
0.225662
0.222505
0.219942
0.217916
0.216325
0.215031
0.213871
0.212676
0.211280
0.209525
0.207277
0.204425
0.200885
0.196612
0.191615
0.185930
0.179598
0.172655
0.165142
0.157106
0.148574
0.139562
0.130083
0.120128
0.109652
0.098598
0.086929
0.074617
0.061639
0.048003
0.033785
0.019107
0.004109
-0.011063
-0.026253
-0.041323
-0.056171
-0.070707
-0.084828
-0.098434
-0.111451
-0.123817
-0.135472
-0.146370
-0.156496
-0.165851
-0.174422
-0.182197
-0.189189
-0.195402
-0.200788
-0.205275
-0.208808
-0.211369
-0.212942
-0.213511
-0.213074
-0.211646
-0.209227
-0.205819
-0.201457
-0.196211
-0.190172
-0.183466
-0.176249
-0.168679
-0.160880
-0.152944
-0.144954
-0.136995
-0.129146
