EVENT_NAME: L_AQUILA
EVENT_ID: IT-2009-0009
EVENT_DATE_YYYYMMDD: 20090406
EVENT_TIME_HHMMSS: 013240
EVENT_LATITUDE_DEGREE: 42.3420
EVENT_LONGITUDE_DEGREE: 13.3800
EVENT_DEPTH_KM: 8.3
HYPOCENTER_REFERENCE: INGV-CNT_Seismic_Bulletin
MAGNITUDE_W: 6.1
MAGNITUDE_W_REFERENCE: INGV-CNT_Seismic_Bulletin
MAGNITUDE_L: 
MAGNITUDE_L_REFERENCE: 
FOCAL_MECHANISM: Normal faulting
NETWORK: IT
STATION_CODE: SPO
STATION_NAME: 
STATION_LATITUDE_DEGREE: 42.733585
STATION_LONGITUDE_DEGREE: 12.740602
STATION_ELEVATION_M: 476
LOCATION: 
SENSOR_DEPTH_M: 0.0
VS30_M/S: 
SITE_CLASSIFICATION_EC8: A (inferred from geology)
MORPHOLOGIC_CLASSIFICATION: 
EPICENTRAL_DISTANCE_KM: 68.2
EARTHQUAKE_BACKAZIMUTH_DEGREE: 309.8
DATE_TIME_FIRST_SAMPLE_YYYYMMDD_HHMMSS: 20090406_013241.000
DATE_TIME_FIRST_SAMPLE_PRECISION: seconds
SAMPLING_INTERVAL_S: 0.005000
NDATA: 20200
DURATION_S: 101.000
STREAM: HNN
UNITS: cm
INSTRUMENT: sensor = FBA-3 [Kinemetrics] | digitizer = Etna [Kinemetrics]
INSTRUMENT_ANALOG/DIGITAL: D
INSTRUMENTAL_FREQUENCY_HZ: 200.000
INSTRUMENTAL_DAMPING: 0.700000
FULL_SCALE_G: 1.0
N_BIT_DIGITAL_CONVERTER: 18
PGD_CM: -0.251596
TIME_PGD_S: 25.360000
BASELINE_CORRECTION: BASELINE REMOVED
FILTER_TYPE: BUTTERWORTH
FILTER_ORDER: 2
LOW_CUT_FREQUENCY_HZ: 0.050
HIGH_CUT_FREQUENCY_HZ: 40.000
LATE/NORMAL_TRIGGERED: NT
DATABASE_VERSION: 0.5
HEADER_FORMAT: DYNA 1.2
DATA_TYPE: DISPLACEMENT
PROCESSING: manual (Paolucci et al., 2011)
DATA_TIMESTAMP_YYYYMMDD_HHMMSS: 20211011_160446.126
DATA_LICENSE: CC-BY3_0-IT (http://creativecommons.org/licenses/by/3.0/deed.en)
DATA_CITATION: Luzi L, Pacor F, Puglia R (2019). Italian Accelerometric Archive v 3.0 - Istituto Nazionale di Geofisica e Vulcanologia, Dipartimento della Protezione Civile Nazionale. doi: 10.13127/itaca.3.1
DATA_CREATOR: ITACA working group
ORIGINAL_DATA_MEDIATOR_CITATION: data obtained within the DPC-INGV data exchange agreements
ORIGINAL_DATA_MEDIATOR: Archive of Italian Department of Civil Protection
ORIGINAL_DATA_CREATOR_CITATION: Presidency Of Counsil Of Ministers-Civil Protection Department. (1972). Italian Strong Motion Network. Presidency of Counsil of Ministers - Civil Protection Department. https://doi.org/10.7914/SN/IT http://www.fdsn.org/networks/detail/IT/
ORIGINAL_DATA_CREATOR: network: IT (Italian Strong Motion Network (RAN)); owner: Presidency of Counsil of Ministers - Civil Protection Department (PCM - DPC)
USER1: 
USER2: 
USER3: 
USER4: 
USER5: 
[...]
4.327850e-02
4.267724e-02
4.211132e-02
4.157983e-02
4.107977e-02
4.060707e-02
4.015739e-02
3.972645e-02
3.930974e-02
3.890191e-02
3.849651e-02
3.808626e-02
3.766360e-02
3.722116e-02
3.675247e-02
3.625289e-02
3.572045e-02
3.515632e-02
3.456468e-02
3.395229e-02
3.332787e-02
3.270135e-02
3.208308e-02
3.148300e-02
3.090998e-02
3.037126e-02
2.987218e-02
2.941593e-02
2.900342e-02
2.863324e-02
2.830206e-02
2.800521e-02
2.773734e-02
2.749268e-02
2.726519e-02
2.704845e-02
2.683553e-02
2.661889e-02
2.639055e-02
2.614242e-02
2.586659e-02
2.555556e-02
2.520250e-02
2.480169e-02
2.434906e-02
2.384260e-02
2.328237e-02
2.267017e-02
2.200883e-02
2.130177e-02
2.055302e-02
1.976768e-02
1.895211e-02
1.811334e-02
1.725809e-02
1.639208e-02
1.552000e-02
1.464562e-02
1.377207e-02
1.290193e-02
1.203736e-02
1.118026e-02
1.033249e-02
9.495832e-03
8.671764e-03
7.861069e-03
7.063653e-03
6.278560e-03
5.504008e-03
4.737202e-03
3.974182e-03
3.210148e-03
2.440338e-03
1.661053e-03
8.705045e-04
6.945250e-05
-7.384830e-04
-1.546984e-03
-2.347664e-03
-3.130943e-03
-3.887061e-03
-4.607207e-03
-5.284517e-03
-5.914669e-03
-6.496075e-03
-7.029646e-03
-7.518047e-03
-7.964781e-03
-8.373603e-03
-8.748395e-03
-9.093241e-03
-9.412488e-03
-9.710672e-03
-9.992177e-03
-1.026056e-02
-1.051770e-02
-1.076335e-02
-1.099530e-02
-1.121010e-02
-1.140380e-02
-1.157264e-02
-1.171399e-02
-1.182715e-02
-1.191375e-02
-1.197708e-02
-1.202114e-02
-1.204960e-02
-1.206560e-02
-1.207235e-02
-1.207409e-02
-1.207648e-02
-1.208623e-02
-1.211026e-02
-1.215500e-02
-1.222598e-02
-1.232740e-02
-1.246162e-02
-1.262848e-02
-1.282487e-02
-1.304485e-02
-1.328013e-02
-1.352083e-02
-1.375657e-02
-1.397770e-02
-1.417639e-02
-1.434704e-02
-1.448596e-02
-1.459051e-02
-1.465852e-02
-1.468817e-02
-1.467851e-02
-1.463009e-02
-1.454544e-02
-1.442927e-02
-1.428799e-02
-1.412869e-02
-1.395804e-02
-1.378131e-02
-1.360166e-02
-1.342011e-02
-1.323599e-02
-1.304791e-02
-1.285445e-02
-1.265432e-02
-1.244611e-02
-1.222791e-02
-1.199717e-02
-1.175063e-02
-1.148474e-02
-1.119624e-02
-1.088267e-02
-1.054275e-02
-1.017659e-02
-9.786031e-03
-9.374833e-03
-8.948414e-03
-8.512958e-03
-8.074175e-03
-7.636094e-03
-7.200292e-03
-6.765805e-03
-6.329639e-03
-5.887492e-03
-5.434477e-03
-4.965949e-03
-4.478382e-03
-3.969888e-03
-3.440193e-03
-2.890478e-03
-2.323421e-03
-1.743294e-03
-1.155916e-03
-5.685504e-04
1.032662e-05
5.716939e-04
1.107240e-03
1.610805e-03
2.079416e-03
2.513663e-03
2.917580e-03
3.298139e-03
3.664447e-03
4.026679e-03
4.394778e-03
4.777003e-03
5.178825e-03
5.602775e-03
6.049274e-03
6.517907e-03
7.008448e-03
7.521189e-03
8.056627e-03
8.615013e-03
9.196218e-03
9.799961e-03
1.042598e-02
1.107374e-02
1.174175e-02
1.242720e-02
1.312610e-02
1.383391e-02
1.454599e-02
1.525769e-02
1.596395e-02
1.665919e-02
1.733764e-02
1.799412e-02
1.862463e-02
1.922659e-02
1.979865e-02
2.034036e-02
2.085197e-02
2.133406e-02
2.178719e-02
2.221139e-02
2.260621e-02
2.297118e-02
2.330664e-02
2.361430e-02
2.389708e-02
2.415825e-02
2.440039e-02
2.462465e-02
2.483074e-02
2.501778e-02
2.518538e-02
2.533472e-02
2.546916e-02
2.559414e-02
2.571628e-02
2.584249e-02
2.597931e-02
2.613264e-02
2.630734e-02
2.650648e-02
2.673110e-02
2.698034e-02
2.725209e-02
2.754404e-02
2.785469e-02
2.818404e-02
2.853354e-02
2.890569e-02
2.930385e-02
2.973231e-02
3.019640e-02
3.070199e-02
3.125412e-02
3.185518e-02
3.250330e-02
3.319151e-02
3.390784e-02
3.463628e-02
3.535819e-02
3.605429e-02
3.670681e-02
3.730158e-02
3.782920e-02
3.828522e-02
3.866984e-02
3.898718e-02
3.924461e-02
3.945189e-02
3.962004e-02
3.975997e-02
3.988079e-02
3.998845e-02
4.008494e-02
4.016831e-02
4.023341e-02
4.027303e-02
4.027931e-02
4.024503e-02
4.016497e-02
4.003726e-02
3.986412e-02
3.965178e-02
3.940958e-02
3.914932e-02
3.888454e-02
3.862951e-02
3.839776e-02
3.820105e-02
3.804875e-02
3.794756e-02
3.790109e-02
3.790971e-02
3.797080e-02
3.807937e-02
3.822872e-02
3.841105e-02
3.861796e-02
3.884086e-02
3.907114e-02
3.930047e-02
3.952125e-02
3.972717e-02
3.991367e-02
4.007807e-02
4.021973e-02
4.034029e-02
4.044410e-02
4.053866e-02
4.063460e-02
4.074463e-02
4.088152e-02
4.105642e-02
4.127784e-02
4.155119e-02
4.187862e-02
4.225936e-02
4.269068e-02
4.316889e-02
4.369010e-02
4.425034e-02
4.484516e-02
4.546901e-02
4.611523e-02
4.677675e-02
4.744681e-02
4.811934e-02
4.878891e-02
4.945097e-02
5.010212e-02
5.074022e-02
5.136429e-02
5.197463e-02
5.257261e-02
5.315980e-02
5.373647e-02
5.430052e-02
5.484776e-02
5.537347e-02
5.587438e-02
5.635030e-02
5.680449e-02
5.724276e-02
5.767181e-02
5.809752e-02
5.852364e-02
5.895106e-02
5.937745e-02
5.979748e-02
6.020357e-02
6.058737e-02
6.094153e-02
6.126161e-02
6.154675e-02
6.179848e-02
6.201843e-02
6.220642e-02
6.236032e-02
6.247709e-02
6.255428e-02
6.259105e-02
6.258803e-02
6.254629e-02
6.246680e-02
6.235076e-02
6.220039e-02
6.201902e-02
6.181029e-02
6.157729e-02
6.132238e-02
6.104746e-02
6.075416e-02
6.044389e-02
6.011781e-02
5.977683e-02
5.942201e-02
5.905585e-02
5.868384e-02
5.831504e-02
5.796058e-02
5.763141e-02
5.733702e-02
5.708557e-02
5.688421e-02
5.673862e-02
5.665226e-02
5.662606e-02
5.665929e-02
5.675094e-02
5.690097e-02
5.711058e-02
5.738156e-02
5.771538e-02
5.811219e-02
5.857005e-02
5.908465e-02
5.964947e-02
6.025620e-02
6.089519e-02
6.155583e-02
6.222726e-02
6.289976e-02
6.356641e-02
6.422401e-02
6.487245e-02
6.551306e-02
6.614667e-02
6.677234e-02
6.738693e-02
6.798497e-02
6.855881e-02
6.909886e-02
6.959442e-02
7.003473e-02
7.041015e-02
7.071315e-02
7.093906e-02
7.108623e-02
7.115568e-02
7.115053e-02
7.107569e-02
7.093771e-02
7.074470e-02
7.050586e-02
7.023062e-02
6.992741e-02
6.960218e-02
6.925730e-02
6.889170e-02
6.850218e-02
6.808517e-02
6.763785e-02
6.715848e-02
6.664651e-02
6.610255e-02
6.552835e-02
6.492667e-02
6.430097e-02
6.365536e-02
6.299441e-02
6.232293e-02
6.164549e-02
6.096601e-02
6.028795e-02
5.961507e-02
5.895238e-02
5.830657e-02
5.768514e-02
5.709491e-02
5.654074e-02
5.602493e-02
5.554733e-02
5.510617e-02
5.469929e-02
5.432542e-02
5.398484e-02
5.367907e-02
5.340958e-02
5.317634e-02
5.297687e-02
5.280630e-02
5.265804e-02
5.252472e-02
5.239869e-02
5.227250e-02
5.213955e-02
5.199470e-02
5.183437e-02
5.165589e-02
5.145628e-02
5.123143e-02
5.097635e-02
5.068643e-02
5.035912e-02
4.999512e-02
4.959852e-02
4.917597e-02
4.873516e-02
4.828354e-02
4.782784e-02
4.737427e-02
4.692907e-02
4.649852e-02
4.608843e-02
4.570377e-02
4.534901e-02
4.502901e-02
4.474974e-02
4.451847e-02
4.434363e-02
4.423444e-02
4.420041e-02
4.425056e-02
4.439229e-02
4.462993e-02
4.496374e-02
4.538998e-02
4.590154e-02
4.648851e-02
4.713845e-02
4.783646e-02
4.856556e-02
4.930747e-02
5.004365e-02
5.075605e-02
5.142801e-02
5.204511e-02
5.259610e-02
5.307342e-02
5.347331e-02
5.379514e-02
5.404036e-02
5.421128e-02
5.431019e-02
5.433929e-02
5.430120e-02
5.419938e-02
5.403783e-02
5.382016e-02
5.354831e-02
5.322179e-02
5.283751e-02
5.239017e-02
5.187294e-02
5.127851e-02
5.060028e-02
4.983350e-02
4.897584e-02
4.802728e-02
4.698940e-02
4.586494e-02
4.465771e-02
4.337284e-02
4.201676e-02
4.059666e-02
3.911964e-02
3.759225e-02
3.602040e-02
3.440944e-02
3.276434e-02
3.108986e-02
2.939067e-02
2.767142e-02
2.593634e-02
2.418881e-02
2.243119e-02
2.066493e-02
1.889099e-02
1.711027e-02
1.532400e-02
1.353363e-02
1.174042e-02
9.945264e-03
8.148928e-03
6.352218e-03
4.555827e-03
2.760229e-03
9.661185e-04
-8.242863e-04
-2.605260e-03
-4.365877e-03
-6.089693e-03
-7.756296e-03
-9.344132e-03
-1.083322e-02
-1.220688e-02
-1.345262e-02
-1.456287e-02
-1.553571e-02
-1.637546e-02
-1.709255e-02
-1.770224e-02
-1.822253e-02
-1.867186e-02
-1.906760e-02
-1.942510e-02
-1.975655e-02
-2.006949e-02
-2.036540e-02
-2.063940e-02
-2.088176e-02
-2.108071e-02
-2.122585e-02
-2.131072e-02
-2.133364e-02
-2.129686e-02
-2.120484e-02
-2.106263e-02
-2.087492e-02
-2.064567e-02
-2.037828e-02
-2.007604e-02
-1.974302e-02
-1.938509e-02
-1.901068e-02
-1.863035e-02
-1.825550e-02
-1.789667e-02
-1.756242e-02
-1.725887e-02
-1.698979e-02
-1.675681e-02
-1.655968e-02
-1.639663e-02
-1.626463e-02
-1.615992e-02
-1.607905e-02
-1.602015e-02
-1.598378e-02
-1.597302e-02
-1.599266e-02
-1.604751e-02
-1.614041e-02
-1.627083e-02
-1.643467e-02
-1.662521e-02
-1.683454e-02
-1.705501e-02
-1.728035e-02
-1.750622e-02
-1.773053e-02
-1.795364e-02
-1.817859e-02
-1.841114e-02
-1.865896e-02
-1.893025e-02
-1.923221e-02
-1.956994e-02
-1.994589e-02
-2.036006e-02
-2.081119e-02
-2.129814e-02
-2.182079e-02
-2.238002e-02
-2.297700e-02
-2.361214e-02
-2.428410e-02
-2.498939e-02
-2.572247e-02
-2.647629e-02
-2.724256e-02
-2.801161e-02
-2.877256e-02
-2.951422e-02
-3.022673e-02
-3.090308e-02
-3.153973e-02
-3.213630e-02
-3.269455e-02
-3.321758e-02
-3.370969e-02
-3.417624e-02
-3.462264e-02
-3.505330e-02
-3.547110e-02
-3.587762e-02
-3.627378e-02
-3.666038e-02
-3.703812e-02
-3.740727e-02
-3.776708e-02
-3.811541e-02
-3.844899e-02
-3.876391e-02
-3.905599e-02
-3.932099e-02
-3.955532e-02
-3.975728e-02
-3.992796e-02
-4.007107e-02
-4.019211e-02
-4.029741e-02
-4.039271e-02
-4.048139e-02
-4.056319e-02
-4.063430e-02
-4.068884e-02
-4.072072e-02
-4.072510e-02
-4.069934e-02
-4.064390e-02
-4.056303e-02
-4.046465e-02
-4.035888e-02
-4.025589e-02
-4.016432e-02
-4.009093e-02
-4.004094e-02
-4.001776e-02
-4.002206e-02
-4.005085e-02
-4.009777e-02
-4.015415e-02
-4.021037e-02
-4.025698e-02
-4.028577e-02
-4.029050e-02
-4.026700e-02
-4.021251e-02
-4.012520e-02
-4.000396e-02
-3.984861e-02
-3.966039e-02
-3.944270e-02
-3.920169e-02
-3.894642e-02
-3.868875e-02
-3.844304e-02
-3.822566e-02
-3.805433e-02
-3.794702e-02
-3.792033e-02
-3.798760e-02
-3.815724e-02
-3.843193e-02
-3.880879e-02
-3.927996e-02
-3.983342e-02
-4.045404e-02
-4.112508e-02
-4.182980e-02
-4.255299e-02
-4.328200e-02
-4.400725e-02
-4.472224e-02
-4.542309e-02
-4.610860e-02
-4.678087e-02
-4.744566e-02
-4.811147e-02
-4.878731e-02
-4.947991e-02
-5.019139e-02
-5.091813e-02
-5.165111e-02
-5.237730e-02
-5.308147e-02
-5.374820e-02
-5.436417e-02
-5.492065e-02
-5.541524e-02
-5.585240e-02
-5.624258e-02
-5.660084e-02
-5.694529e-02
-5.729577e-02
-5.767269e-02
-5.809636e-02
-5.858640e-02
-5.916102e-02
-5.983576e-02
-6.062224e-02
-6.152742e-02
-6.255368e-02
-6.369945e-02
-6.495974e-02
-6.632599e-02
-6.778613e-02
-6.932552e-02
-7.092852e-02
-7.258000e-02
-7.426618e-02
-7.597463e-02
-7.769396e-02
-7.941348e-02
-8.112308e-02
-8.281359e-02
-8.447740e-02
-8.610886e-02
-8.770425e-02
-8.926128e-02
-9.077844e-02
-9.225478e-02
-9.369043e-02
-9.508759e-02
-9.645081e-02
-9.778601e-02
-9.909894e-02
-1.003944e-01
-1.016767e-01
-1.029514e-01
-1.042255e-01
-1.055069e-01
-1.068032e-01
-1.081202e-01
-1.094607e-01
-1.108247e-01
-1.122099e-01
-1.136128e-01
-1.150292e-01
-1.164557e-01
-1.178907e-01
-1.193348e-01
-1.207923e-01
-1.222711e-01
-1.237819e-01
-1.253370e-01
-1.269480e-01
-1.286250e-01
-1.303747e-01
-1.322006e-01
-1.341019e-01
-1.360738e-01
-1.381081e-01
-1.401945e-01
-1.423228e-01
-1.444837e-01
-1.466694e-01
-1.488741e-01
-1.510939e-01
-1.533269e-01
-1.555722e-01
-1.578292e-01
-1.600958e-01
-1.623679e-01
-1.646394e-01
-1.669023e-01
-1.691478e-01
-1.713672e-01
-1.735516e-01
-1.756923e-01
-1.777798e-01
-1.798051e-01
-1.817606e-01
-1.836413e-01
-1.854441e-01
-1.871667e-01
-1.888058e-01
-1.903572e-01
-1.918157e-01
-1.931764e-01
-1.944356e-01
-1.955910e-01
-1.966416e-01
-1.975881e-01
-1.984337e-01
-1.991842e-01
-1.998488e-01
-2.004401e-01
-2.009744e-01
-2.014706e-01
-2.019484e-01
-2.024261e-01
-2.029189e-01
-2.034387e-01
-2.039935e-01
-2.045891e-01
-2.052289e-01
-2.059153e-01
-2.066492e-01
-2.074304e-01
-2.082566e-01
-2.091233e-01
-2.100230e-01
-2.109464e-01
-2.118838e-01
-2.128265e-01
-2.137683e-01
-2.147048e-01
-2.156339e-01
-2.165548e-01
-2.174681e-01
-2.183755e-01
-2.192790e-01
-2.201802e-01
-2.210789e-01
-2.219729e-01
-2.228574e-01
-2.237256e-01
-2.245691e-01
-2.253795e-01
-2.261484e-01
-2.268696e-01
-2.275393e-01
-2.281573e-01
-2.287267e-01
-2.292530e-01
-2.297423e-01
-2.302003e-01
-2.306313e-01
-2.310382e-01
-2.314231e-01
-2.317880e-01
-2.321358e-01
-2.324707e-01
-2.327981e-01
-2.331239e-01
-2.334547e-01
-2.337972e-01
-2.341582e-01
-2.345437e-01
-2.349583e-01
-2.354058e-01
-2.358891e-01
-2.364123e-01
-2.369800e-01
-2.375969e-01
-2.382666e-01
-2.389908e-01
-2.397691e-01
-2.405988e-01
-2.414748e-01
-2.423892e-01
-2.433315e-01
-2.442892e-01
-2.452480e-01
-2.461922e-01
-2.471056e-01
-2.479722e-01
-2.487769e-01
-2.495053e-01
-2.501435e-01
-2.506784e-01
-2.510980e-01
-2.513935e-01
-2.515598e-01
-2.515963e-01
-2.515059e-01
-2.512943e-01
-2.509694e-01
-2.505408e-01
-2.500199e-01
-2.494194e-01
-2.487528e-01
-2.480334e-01
-2.472732e-01
-2.464822e-01
-2.456676e-01
-2.448340e-01
-2.439843e-01
-2.431198e-01
-2.422412e-01
-2.413484e-01
-2.404411e-01
-2.395196e-01
-2.385855e-01
-2.376420e-01
-2.366940e-01
-2.357474e-01
-2.348087e-01
-2.338842e-01
-2.329806e-01
-2.321042e-01
-2.312609e-01
-2.304555e-01
-2.296911e-01
-2.289686e-01
-2.282870e-01
-2.276441e-01
-2.270368e-01
-2.264620e-01
-2.259173e-01
-2.254016e-01
-2.249160e-01
-2.244636e-01
-2.240493e-01
-2.236786e-01
-2.233569e-01
-2.230890e-01
-2.228784e-01
-2.227273e-01
-2.226355e-01
-2.226000e-01
-2.226145e-01
-2.226703e-01
-2.227563e-01
-2.228605e-01
-2.229717e-01
-2.230795e-01
-2.231757e-01
-2.232545e-01
-2.233135e-01
-2.233538e-01
-2.233795e-01
-2.233965e-01
-2.234122e-01
-2.234343e-01
-2.234707e-01
-2.235277e-01
-2.236094e-01
-2.237174e-01
-2.238513e-01
-2.240101e-01
-2.241927e-01
-2.243973e-01
-2.246212e-01
-2.248608e-01
-2.251122e-01
-2.253728e-01
-2.256425e-01
-2.259239e-01
-2.262217e-01
-2.265417e-01
-2.268895e-01
-2.272706e-01
-2.276895e-01
-2.281500e-01
-2.286545e-01
-2.292031e-01
-2.297934e-01
-2.304207e-01
-2.310777e-01
-2.317560e-01
-2.324466e-01
-2.331408e-01
-2.338308e-01
-2.345099e-01
-2.351729e-01
-2.358162e-01
-2.364371e-01
-2.370338e-01
-2.376038e-01
-2.381440e-01
-2.386496e-01
-2.391138e-01
-2.395273e-01
-2.398789e-01
-2.401559e-01
-2.403460e-01
-2.404388e-01
-2.404262e-01
-2.403024e-01
-2.400633e-01
-2.397062e-01
-2.392297e-01
-2.386338e-01
-2.379200e-01
-2.370912e-01
-2.361515e-01
-2.351055e-01
-2.339582e-01
-2.327149e-01
-2.313811e-01
-2.299620e-01
-2.284627e-01
-2.268886e-01
-2.252457e-01
-2.235419e-01
-2.217870e-01
-2.199918e-01
-2.181669e-01
-2.163220e-01
-2.144658e-01
-2.126063e-01
-2.107507e-01
-2.089040e-01
-2.070691e-01
-2.052455e-01
-2.034311e-01
-2.016226e-01
-1.998169e-01
-1.980111e-01
-1.962037e-01
-1.943947e-01
-1.925865e-01
-1.907842e-01
-1.889954e-01
-1.872293e-01
-1.854958e-01
-1.838041e-01
-1.821620e-01
-1.805754e-01
-1.790479e-01
-1.775804e-01
-1.761723e-01
-1.748218e-01
-1.735269e-01
-1.722867e-01
-1.711015e-01
-1.699730e-01
-1.689039e-01
-1.678965e-01
-1.669526e-01
-1.660727e-01
-1.652564e-01
-1.645027e-01
-1.638108e-01
-1.631799e-01
-1.626101e-01
-1.621020e-01
-1.616564e-01
-1.612743e-01
-1.609564e-01
-1.607031e-01
-1.605144e-01
-1.603903e-01
-1.603301e-01
-1.603334e-01
-1.604003e-01
-1.605319e-01
-1.607298e-01
-1.609950e-01
-1.613270e-01
-1.617233e-01
-1.621785e-01
-1.626847e-01
-1.632314e-01
-1.638059e-01
-1.643945e-01
-1.649840e-01
-1.655629e-01
-1.661219e-01
-1.666545e-01
-1.671574e-01
-1.676303e-01
-1.680759e-01
-1.684995e-01
-1.689083e-01
-1.693111e-01
-1.697169e-01
-1.701344e-01
-1.705715e-01
-1.710338e-01
-1.715239e-01
-1.720399e-01
-1.725757e-01
-1.731214e-01
-1.736649e-01
-1.741932e-01
-1.746937e-01
-1.751560e-01
-1.755730e-01
-1.759421e-01
-1.762643e-01
-1.765440e-01
-1.767872e-01
-1.770008e-01
-1.771919e-01
-1.773677e-01
-1.775346e-01
-1.776976e-01
-1.778602e-01
-1.780238e-01
-1.781892e-01
-1.783567e-01
-1.785282e-01
-1.787073e-01
-1.788996e-01
-1.791127e-01
-1.793547e-01
-1.796333e-01
-1.799544e-01
-1.803222e-01
-1.807385e-01
-1.812029e-01
-1.817132e-01
-1.822649e-01
-1.828529e-01
-1.834713e-01
-1.841143e-01
-1.847767e-01
-1.854548e-01
-1.861463e-01
-1.868511e-01
-1.875699e-01
-1.883033e-01
-1.890507e-01
-1.898104e-01
-1.905802e-01
-1.913572e-01
-1.921375e-01
-1.929141e-01
-1.936776e-01
-1.944158e-01
-1.951158e-01
-1.957638e-01
-1.963451e-01
-1.968437e-01
-1.972421e-01
-1.975220e-01
-1.976648e-01
-1.976520e-01
-1.974657e-01
-1.970888e-01
-1.965060e-01
-1.957043e-01
-1.946735e-01
-1.934067e-01
-1.919005e-01
-1.901554e-01
-1.881759e-01
-1.859705e-01
-1.835511e-01
-1.809321e-01
-1.781289e-01
-1.751567e-01
-1.720296e-01
-1.687599e-01
-1.653593e-01
-1.618388e-01
-1.582090e-01
-1.544803e-01
-1.506627e-01
-1.467669e-01
-1.428047e-01
-1.387901e-01
-1.347383e-01
-1.306656e-01
-1.265886e-01
-1.225241e-01
-1.184890e-01
-1.145001e-01
-1.105736e-01
-1.067251e-01
-1.029688e-01
-9.931846e-02
-9.578648e-02
-9.238374e-02
-8.911818e-02
-8.599347e-02
-8.300813e-02
-8.015585e-02
-7.742682e-02
-7.480972e-02
-7.229342e-02
-6.986799e-02
-6.752496e-02
-6.525752e-02
-6.306077e-02
-6.093216e-02
-5.887146e-02
-5.688051e-02
-5.496282e-02
-5.312360e-02
-5.136961e-02
-4.970898e-02
-4.815062e-02
-4.670367e-02
-4.537680e-02
-4.417769e-02
-4.311280e-02
-4.218709e-02
-4.140368e-02
-4.076343e-02
-4.026479e-02
-3.990399e-02
-3.967532e-02
-3.957144e-02
-3.958376e-02
-3.970256e-02
-3.991700e-02
-4.021464e-02
-4.058080e-02
-4.099831e-02
-4.144754e-02
-4.190673e-02
-4.235292e-02
-4.276322e-02
-4.311607e-02
-4.339205e-02
-4.357430e-02
-4.364834e-02
-4.360159e-02
-4.342307e-02
-4.310358e-02
-4.263629e-02
-4.201723e-02
-4.124518e-02
-4.032132e-02
-3.924871e-02
-3.803167e-02
-3.667501e-02
-3.518345e-02
-3.356152e-02
-3.181362e-02
-2.994444e-02
-2.795959e-02
-2.586608e-02
-2.367214e-02
-2.138657e-02
-1.901806e-02
-1.657508e-02
-1.406661e-02
-1.150319e-02
-8.897618e-03
-6.264816e-03
-3.620958e-03
-9.823033e-04
1.635697e-03
4.218736e-03
6.753706e-03
9.228803e-03
1.163359e-02
1.395880e-02
1.619595e-02
1.833723e-02
2.037575e-02
2.230612e-02
2.412531e-02
2.583362e-02
2.743520e-02
2.893797e-02
3.035287e-02
3.169234e-02
