EVENT_NAME: L_AQUILA
EVENT_ID: IT-2009-0009
EVENT_DATE_YYYYMMDD: 20090406
EVENT_TIME_HHMMSS: 013240
EVENT_LATITUDE_DEGREE: 42.3420
EVENT_LONGITUDE_DEGREE: 13.3800
EVENT_DEPTH_KM: 8.3
HYPOCENTER_REFERENCE: INGV-CNT_Seismic_Bulletin
MAGNITUDE_W: 6.1
MAGNITUDE_W_REFERENCE: INGV-CNT_Seismic_Bulletin
MAGNITUDE_L: 
MAGNITUDE_L_REFERENCE: 
FOCAL_MECHANISM: Normal faulting
NETWORK: IT
STATION_CODE: SPO
STATION_NAME: 
STATION_LATITUDE_DEGREE: 42.733585
STATION_LONGITUDE_DEGREE: 12.740602
STATION_ELEVATION_M: 476
LOCATION: 
SENSOR_DEPTH_M: 0.0
VS30_M/S: 
SITE_CLASSIFICATION_EC8: A (inferred from geology)
MORPHOLOGIC_CLASSIFICATION: 
EPICENTRAL_DISTANCE_KM: 68.2
EARTHQUAKE_BACKAZIMUTH_DEGREE: 309.8
DATE_TIME_FIRST_SAMPLE_YYYYMMDD_HHMMSS: 20090406_013241.000
DATE_TIME_FIRST_SAMPLE_PRECISION: seconds
SAMPLING_INTERVAL_S: 0.005000
NDATA: 20200
DURATION_S: 101.000
STREAM: HNN
UNITS: cm/s
INSTRUMENT: sensor = FBA-3 [Kinemetrics] | digitizer = Etna [Kinemetrics]
INSTRUMENT_ANALOG/DIGITAL: D
INSTRUMENTAL_FREQUENCY_HZ: 200.000
INSTRUMENTAL_DAMPING: 0.700000
FULL_SCALE_G: 1.0
N_BIT_DIGITAL_CONVERTER: 18
PGV_CM/S: 0.815398
TIME_PGV_S: 26.770000
BASELINE_CORRECTION: BASELINE REMOVED
FILTER_TYPE: BUTTERWORTH
FILTER_ORDER: 2
LOW_CUT_FREQUENCY_HZ: 0.050
HIGH_CUT_FREQUENCY_HZ: 40.000
LATE/NORMAL_TRIGGERED: NT
DATABASE_VERSION: 0.5
HEADER_FORMAT: DYNA 1.2
DATA_TYPE: VELOCITY
PROCESSING: manual (Paolucci et al., 2011)
DATA_TIMESTAMP_YYYYMMDD_HHMMSS: 20211011_160446.281
DATA_LICENSE: CC-BY3_0-IT (http://creativecommons.org/licenses/by/3.0/deed.en)
DATA_CITATION: Luzi L, Pacor F, Puglia R (2019). Italian Accelerometric Archive v 3.0 - Istituto Nazionale di Geofisica e Vulcanologia, Dipartimento della Protezione Civile Nazionale. doi: 10.13127/itaca.3.1
DATA_CREATOR: ITACA working group
ORIGINAL_DATA_MEDIATOR_CITATION: data obtained within the DPC-INGV data exchange agreements
ORIGINAL_DATA_MEDIATOR: Archive of Italian Department of Civil Protection
ORIGINAL_DATA_CREATOR_CITATION: Presidency Of Counsil Of Ministers-Civil Protection Department. (1972). Italian Strong Motion Network. Presidency of Counsil of Ministers - Civil Protection Department. https://doi.org/10.7914/SN/IT http://www.fdsn.org/networks/detail/IT/
ORIGINAL_DATA_CREATOR: network: IT (Italian Strong Motion Network (RAN)); owner: Presidency of Counsil of Ministers - Civil Protection Department (PCM - DPC)
USER1: 
USER2: 
USER3: 
USER4: 
USER5: 
[...]
-0.097991
-0.099693
-0.099603
-0.097820
-0.094697
-0.090733
-0.086404
-0.082076
-0.077991
-0.074268
-0.070922
-0.067912
-0.065185
-0.062666
-0.060252
-0.057877
-0.055606
-0.053648
-0.052247
-0.051559
-0.051563
-0.052029
-0.052572
-0.052769
-0.052264
-0.050776
-0.048110
-0.044200
-0.039184
-0.033392
-0.027228
-0.021060
-0.015211
-0.010003
-0.005794
-0.002902
-0.001454
-0.001259
-0.001860
-0.002731
-0.003462
-0.003813
-0.003672
-0.003025
-0.001985
-0.000819
0.000098
0.000390
-0.000188
-0.001651
-0.003778
-0.006236
-0.008712
-0.010986
-0.012969
-0.014734
-0.016510
-0.018620
-0.021362
-0.024904
-0.029251
-0.034292
-0.039888
-0.045933
-0.052364
-0.059113
-0.066079
-0.073158
-0.080271
-0.087390
-0.094532
-0.101727
-0.108941
-0.116038
-0.122801
-0.128967
-0.134233
-0.138258
-0.140715
-0.141386
-0.140217
-0.137290
-0.132779
-0.126962
-0.120252
-0.113184
-0.106299
-0.100012
-0.094540
-0.089935
-0.086188
-0.083343
-0.081566
-0.081080
-0.082049
-0.084533
-0.088488
-0.093738
-0.099917
-0.106487
-0.112827
-0.118328
-0.122477
-0.124884
-0.125304
-0.123654
-0.120015
-0.114605
-0.107744
-0.099816
-0.091249
-0.082503
-0.074036
-0.066237
-0.059368
-0.053575
-0.048932
-0.045499
-0.043348
-0.042584
-0.043327
-0.045668
-0.049627
-0.055166
-0.062205
-0.070612
-0.080163
-0.090525
-0.101292
-0.112045
-0.122441
-0.132267
-0.141412
-0.149751
-0.157068
-0.163113
-0.167754
-0.171051
-0.173201
-0.174417
-0.174875
-0.174710
-0.174029
-0.172915
-0.171419
-0.169554
-0.167331
-0.164814
-0.162139
-0.159483
-0.157019
-0.154910
-0.153361
-0.152604
-0.152807
-0.153962
-0.155857
-0.158110
-0.160210
-0.161587
-0.161700
-0.160136
-0.156656
-0.151224
-0.144029
-0.135462
-0.126030
-0.116281
-0.106714
-0.097680
-0.089347
-0.081765
-0.074958
-0.068969
-0.063849
-0.059637
-0.056301
-0.053676
-0.051429
-0.049129
-0.046390
-0.042961
-0.038740
-0.033768
-0.028268
-0.022634
-0.017318
-0.012667
-0.008811
-0.005692
-0.003200
-0.001350
-0.000347
-0.000478
-0.001950
-0.004805
-0.008949
-0.014195
-0.020284
-0.026845
-0.033371
-0.039278
-0.043996
-0.047056
-0.048141
-0.047148
-0.044226
-0.039737
-0.034131
-0.027784
-0.020911
-0.013601
-0.005930
0.001931
0.009685
0.016930
0.023234
0.028257
0.031860
0.034129
0.035348
0.035929
0.036310
0.036824
0.037616
0.038691
0.040026
0.041643
0.043638
0.046149
0.049308
0.053177
0.057701
0.062714
0.067984
0.073232
0.078112
0.082240
0.085284
0.087091
0.087757
0.087616
0.087160
0.086897
0.087233
0.088429
0.090603
0.093706
0.097513
0.101699
0.105939
0.109943
0.113411
0.116026
0.117476
0.117473
0.115775
0.112273
0.107109
0.100713
0.093722
0.086849
0.080783
0.076112
0.073261
0.072446
0.073620
0.076445
0.080364
0.084790
0.089300
0.093727
0.098108
0.102548
0.107088
0.111677
0.116241
0.120749
0.125204
0.129551
0.133602
0.137089
0.139780
0.141561
0.142417
0.142339
0.141252
0.139048
0.135691
0.131295
0.126102
0.120392
0.114411
0.108343
0.102321
0.096419
0.090625
0.084842
0.078964
0.072993
0.067092
0.061533
0.056555
0.052234
0.048429
0.044851
0.041219
0.037408
0.033519
0.029867
0.026889
0.024995
0.024430
0.025242
0.027362
0.030668
0.034939
0.039829
0.044924
0.049847
0.054351
0.058390
0.062130
0.065870
0.069900
0.074431
0.079631
0.085691
0.092818
0.101118
0.110426
0.120212
0.129624
0.137641
0.143267
0.145687
0.144383
0.139219
0.130504
0.118954
0.105523
0.091205
0.076923
0.063468
0.051487
0.041455
0.033631
0.027986
0.024165
0.021532
0.019297
0.016674
0.013020
0.007925
0.001256
-0.006857
-0.016011
-0.025543
-0.034627
-0.042469
-0.048439
-0.052053
-0.052955
-0.051006
-0.046349
-0.039343
-0.030459
-0.020238
-0.009294
0.001724
0.012218
0.021714
0.029870
0.036466
0.041382
0.044578
0.046056
0.045867
0.044155
0.041185
0.037300
0.032880
0.028332
0.024112
0.020761
0.018912
0.019190
0.022005
0.027378
0.034980
0.044284
0.054670
0.065485
0.076148
0.086264
0.095643
0.104242
0.112049
0.118964
0.124770
0.129244
0.132303
0.134013
0.134505
0.133914
0.132412
0.130231
0.127619
0.124814
0.122068
0.119596
0.117438
0.115333
0.112811
0.109449
0.105140
0.100182
0.095185
0.090838
0.087654
0.085810
0.085142
0.085225
0.085483
0.085278
0.084005
0.081219
0.076759
0.070832
0.064015
0.057027
0.050348
0.043988
0.037599
0.030780
0.023353
0.015438
0.007355
-0.000605
-0.008347
-0.015899
-0.023208
-0.030073
-0.036274
-0.041748
-0.046600
-0.050981
-0.054984
-0.058661
-0.062054
-0.065215
-0.068196
-0.070963
-0.073233
-0.074402
-0.073761
-0.070892
-0.065834
-0.058878
-0.050289
-0.040273
-0.029117
-0.017272
-0.005239
0.006645
0.018330
0.030006
0.041921
0.054197
0.066764
0.079361
0.091573
0.102920
0.112963
0.121346
0.127799
0.132128
0.134285
0.134499
0.133331
0.131519
0.129688
0.128123
0.126722
0.125134
0.122917
0.119610
0.114766
0.108010
0.099112
0.088063
0.075083
0.060600
0.045182
0.029435
0.013890
-0.001030
-0.014969
-0.027595
-0.038602
-0.047768
-0.055048
-0.060642
-0.065047
-0.068975
-0.073121
-0.077904
-0.083401
-0.089465
-0.095873
-0.102395
-0.108793
-0.114838
-0.120338
-0.125139
-0.129122
-0.132190
-0.134295
-0.135490
-0.135896
-0.135611
-0.134577
-0.132537
-0.129162
-0.124286
-0.118045
-0.110834
-0.103163
-0.095520
-0.088232
-0.081376
-0.074774
-0.068115
-0.061154
-0.053898
-0.046649
-0.039893
-0.034115
-0.029651
-0.026664
-0.025206
-0.025237
-0.026590
-0.028971
-0.032065
-0.035696
-0.039923
-0.044970
-0.051016
-0.057983
-0.065461
-0.072801
-0.079319
-0.084510
-0.088163
-0.090323
-0.091140
-0.090714
-0.089041
-0.086110
-0.082016
-0.076932
-0.070953
-0.063999
-0.055853
-0.046255
-0.034968
-0.021837
-0.006807
0.010030
0.028347
0.047527
0.066762
0.085250
0.102312
0.117394
0.129988
0.139602
0.145819
0.148383
0.147235
0.142481
0.134391
0.123421
0.110197
0.095466
0.079978
0.064366
0.049044
0.034183
0.019782
0.005821
-0.007618
-0.020365
-0.032309
-0.043534
-0.054371
-0.065305
-0.076855
-0.089468
-0.103446
-0.118886
-0.135646
-0.153357
-0.171530
-0.189713
-0.207576
-0.224892
-0.241446
-0.256974
-0.271215
-0.284020
-0.295405
-0.305478
-0.314370
-0.322192
-0.329020
-0.334897
-0.339836
-0.343850
-0.347017
-0.349506
-0.351525
-0.353251
-0.354789
-0.356144
-0.357254
-0.358074
-0.358642
-0.359031
-0.359267
-0.359342
-0.359278
-0.359120
-0.358822
-0.358081
-0.356195
-0.352123
-0.344763
-0.333321
-0.317567
-0.297818
-0.274732
-0.249148
-0.222050
-0.194568
-0.167950
-0.143417
-0.121939
-0.104057
-0.089866
-0.079149
-0.071499
-0.066291
-0.062588
-0.059181
-0.054801
-0.048471
-0.039790
-0.029029
-0.016974
-0.004584
0.007356
0.018404
0.028442
0.037543
0.045850
0.053478
0.060447
0.066605
0.071585
0.074883
0.076065
0.074971
0.071766
0.066850
0.060710
0.053816
0.046598
0.039426
0.032610
0.026400
0.020942
0.016173
0.011780
0.007275
0.002152
-0.003928
-0.010969
-0.018580
-0.026084
-0.032768
-0.038107
-0.041866
-0.044095
-0.045067
-0.045175
-0.044862
-0.044621
-0.044991
-0.046510
-0.049565
-0.054257
-0.060392
-0.067547
-0.075188
-0.082835
-0.090227
-0.097390
-0.104529
-0.111846
-0.119397
-0.127027
-0.134393
-0.141058
-0.146616
-0.150764
-0.153253
-0.153811
-0.152189
-0.148332
-0.142503
-0.135269
-0.127330
-0.119315
-0.111650
-0.104605
-0.098423
-0.093308
-0.089280
-0.086133
-0.083560
-0.081304
-0.079233
-0.077319
-0.075548
-0.073831
-0.071961
-0.069666
-0.066716
-0.062984
-0.058415
-0.053000
-0.046866
-0.040392
-0.034137
-0.028622
-0.024208
-0.021060
-0.019060
-0.017736
-0.016360
-0.014223
-0.010907
-0.006376
-0.000877
0.005152
0.011090
0.016174
0.019675
0.021154
0.020598
0.018314
0.014677
0.010000
0.004635
-0.000860
-0.005759
-0.009382
-0.011276
-0.011244
-0.009322
-0.005758
-0.000948
0.004702
0.010897
0.017461
0.024248
0.031071
0.037644
0.043537
0.048203
0.051054
0.051533
0.049142
0.043476
0.034266
0.021462
0.005338
-0.013454
-0.033927
-0.054939
-0.075372
-0.094234
-0.110692
-0.124124
-0.134207
-0.140945
-0.144639
-0.145801
-0.145052
-0.142997
-0.140169
-0.137102
-0.134455
-0.132957
-0.133162
-0.135168
-0.138519
-0.142296
-0.145348
-0.146596
-0.145238
-0.140836
-0.133345
-0.123194
-0.111295
-0.098919
-0.087431
-0.078036
-0.071651
-0.068891
-0.070095
-0.075384
-0.084734
-0.098010
-0.114923
-0.134947
-0.157297
-0.181037
-0.205251
-0.229155
-0.252057
-0.273249
-0.292029
-0.307878
-0.320599
-0.330297
-0.337236
-0.341690
-0.343866
-0.343903
-0.341921
-0.338103
-0.332760
-0.326292
-0.319079
-0.311406
-0.303433
-0.295268
-0.287129
-0.279431
-0.272645
-0.267041
-0.262585
-0.259085
-0.256473
-0.254941
-0.254808
-0.256277
-0.259269
-0.263404
-0.268104
-0.272795
-0.277039
-0.280567
-0.283284
-0.285312
-0.286984
-0.288826
-0.291508
-0.295754
-0.302161
-0.311011
-0.322216
-0.335388
-0.349945
-0.365173
-0.380260
-0.394382
-0.406855
-0.417296
-0.425661
-0.432165
-0.437139
-0.440945
-0.443967
-0.446588
-0.449066
-0.451398
-0.453323
-0.454430
-0.454295
-0.452580
-0.449107
-0.443862
-0.436885
-0.428136
-0.417512
-0.405053
-0.391094
-0.376139
-0.360578
-0.344517
-0.327820
-0.310265
-0.291699
-0.272152
-0.251845
-0.231073
-0.210117
-0.189309
-0.169109
-0.150098
-0.132919
-0.118270
-0.106863
-0.099240
-0.095559
-0.095535
-0.098570
-0.103945
-0.110972
-0.119107
-0.127969
-0.137278
-0.146789
-0.156232
-0.165244
-0.173332
-0.179944
-0.184683
-0.187471
-0.188550
-0.188347
-0.187311
-0.185817
-0.184177
-0.182662
-0.181478
-0.180704
-0.180233
-0.179751
-0.178802
-0.176899
-0.173627
-0.168711
-0.162064
-0.153797
-0.144236
-0.133936
-0.123594
-0.113883
-0.105256
-0.097867
-0.091602
-0.086200
-0.081385
-0.076980
-0.072979
-0.069556
-0.066978
-0.065473
-0.065172
-0.066158
-0.068500
-0.072196
-0.077095
-0.082936
-0.089482
-0.096672
-0.104636
-0.113537
-0.123380
-0.133940
-0.144840
-0.155658
-0.165947
-0.175203
-0.182880
-0.188466
-0.191538
-0.191752
-0.188840
-0.182679
-0.173322
-0.160935
-0.145675
-0.127647
-0.106973
-0.083937
-0.059095
-0.033257
-0.007293
0.018077
0.042316
0.064989
0.085716
0.104176
0.120101
0.133326
0.143880
0.152025
0.158202
0.162932
0.166715
0.169944
0.172887
0.175722
0.178569
0.181458
0.184293
0.186826
0.188704
0.189599
0.189310
0.187749
0.184888
0.180725
0.175286
0.168663
0.161074
0.152878
0.144500
0.136318
0.128590
0.121458
0.114949
0.108940
0.103138
0.097128
0.090480
0.082867
0.074140
0.064332
0.053586
0.042112
0.030220
0.018362
0.007111
-0.002917
-0.011155
-0.017190
-0.020857
-0.022234
-0.021567
-0.019231
-0.015754
-0.011803
-0.008071
-0.005135
-0.003402
-0.003126
-0.004430
-0.007275
-0.011398
-0.016342
-0.021596
-0.026788
-0.031768
-0.036508
-0.040920
-0.044792
-0.047915
-0.050273
-0.052122
-0.053942
-0.056279
-0.059560
-0.063991
-0.069573
-0.076212
-0.083784
-0.092108
-0.100891
-0.109713
-0.118071
-0.125448
-0.131403
-0.135658
-0.138121
-0.138848
-0.138002
-0.135822
-0.132603
-0.128650
-0.124191
-0.119324
-0.114001
-0.108038
-0.101122
-0.092838
-0.082710
-0.070310
-0.055398
-0.038034
-0.018565
0.002521
0.024765
0.047819
0.071416
0.095300
0.119184
0.142764
0.165757
0.187948
0.209205
0.229457
0.248653
0.266766
0.283820
0.299851
0.314830
0.328576
0.340752
0.350982
0.359044
0.364976
0.368979
0.371243
0.371898
0.371134
0.369321
0.366999
0.364718
0.362881
0.361687
0.361153
0.361158
0.361481
0.361797
0.361641
0.360463
0.357759
0.353205
0.346703
0.338354
0.328420
0.317308
0.305508
0.293491
0.281621
0.270110
0.258975
0.248045
0.237040
0.225686
0.213826
0.201472
0.188782
0.175982
0.163266
0.150733
0.138392
0.126173
0.113960
0.101628
0.089111
0.076415
0.063586
0.050671
0.037725
0.024823
0.012033
-0.000658
-0.013381
-0.026322
-0.039573
-0.053035
-0.066409
-0.079253
-0.091045
-0.101244
-0.109333
-0.114894
-0.117725
-0.117909
-0.115772
-0.111792
-0.106526
-0.100584
-0.094586
-0.089120
-0.084706
-0.081763
-0.080555
-0.081161
-0.083511
-0.087410
-0.092463
-0.098014
-0.103204
-0.107157
-0.109149
-0.108708
-0.105651
-0.100096
-0.092458
-0.083414
-0.073804
-0.064444
-0.055943
-0.048646
-0.042717
-0.038223
-0.035152
-0.033373
-0.032611
-0.032510
-0.032733
-0.033069
-0.033513
-0.034296
-0.035809
-0.038473
-0.042620
-0.048399
-0.055709
-0.064231
-0.073555
-0.083255
-0.092894
-0.102046
-0.110354
-0.117594
-0.123671
-0.128599
-0.132494
-0.135606
-0.138306
-0.140958
-0.143765
-0.146680
-0.149481
-0.151944
-0.153953
-0.155410
-0.156042
-0.155334
-0.152688
-0.147653
-0.140002
-0.129599
-0.116259
-0.099713
-0.079683
-0.055980
-0.028552
0.002561
0.037260
0.075368
0.116559
0.160351
0.206164
0.253359
0.301233
0.349016
0.395897
0.441082
0.483882
0.523807
0.560637
0.594429
0.625432
0.653928
0.680121
0.704109
0.725956
0.745741
0.763511
0.779168
0.792432
0.802933
0.810360
0.814539
0.815398
0.812900
0.807021
0.797783
0.785290
0.769714
0.751247
0.730073
0.706396
0.680548
0.653110
0.624943
0.597068
0.570456
0.545806
0.523421
0.503260
0.485087
0.468604
0.453488
0.439350
0.425724
0.412139
0.398191
0.383536
0.367845
0.350797
0.332127
0.311671
0.289389
0.265375
0.239821
0.212979
0.185142
0.156681
0.128050
0.099729
0.072160
0.045734
0.020775
-0.002463
-0.023761
-0.042889
-0.059527
-0.073233
-0.083503
-0.089845
-0.091838
-0.089237
-0.082060
-0.070570
-0.055197
-0.036449
-0.014808
0.009348
0.035704
0.063899
0.093458
0.123813
0.154409
0.184773
0.214522
0.243407
0.271332
0.298311
0.324387
0.349581
0.373836
0.396970
0.418703
0.438787
0.457113
0.473703
0.488596
0.501694
0.512684
0.521114
0.526560
0.528772
0.527731
0.523600
0.516608
0.506994
0.495019
0.480958
0.465042
0.447430
0.428256
0.407705
0.386073
0.363838
0.341662
0.320316
0.300554
0.282980
0.267894
0.255244
0.244728
0.235976
0.228663
0.222542
0.217398
0.213034
0.209299
0.206132
0.203565
0.201730
0.200840
0.201135
0.202890
0.206424
0.212030
0.219900
0.230119
0.242671
0.257507
0.274586
0.293854
0.315170
0.338227
0.362468
0.387125
0.411348
0.434259
0.454948
0.472572
0.486504
0.496399
0.502160
0.503881
0.501867
0.496659
0.488949
0.479474
0.468956
0.458042
0.447169
0.436477
0.425841
0.414948
0.403393
0.390778
0.376794
0.361268
0.344178
0.325607
0.305712
0.284707
0.262834
0.240319
0.217354
0.194131
0.170867
0.147794
0.125155
0.103197
0.082119
0.061970
0.042564
0.023486
0.004210
-0.015776
-0.036872
-0.059309
-0.083147
-0.108316
-0.134654
-0.161958
-0.190036
-0.218725
-0.247886
-0.277411
-0.307197
-0.337068
-0.366768
-0.395966
-0.424302
-0.451483
-0.477317
-0.501667
-0.524422
-0.545439
-0.564457
-0.581143
-0.595225
-0.606517
-0.614884
-0.620240
-0.622535
-0.621702
-0.617688
-0.610532
-0.600416
-0.587676
-0.572721
-0.555857
-0.537235
-0.516929
-0.494974
-0.471398
-0.446285
-0.419769
-0.391996
-0.363104
-0.333229
-0.302542
-0.271274
-0.239684
-0.208048
-0.176704
-0.146016
-0.116283
-0.087727
-0.060466
-0.034433
-0.009303
0.015450
0.040383
0.065926
0.092331
0.119680
0.147852
0.176500
0.205121
0.233146
0.260032
0.285382
0.309011
0.330902
0.351092
0.369622
0.386569
0.402058
0.416223
0.429167
0.440917
0.451375
0.460313
0.467448
0.472545
0.475443
0.476037
0.474259
0.470057
0.463406
0.454330
0.442921
0.429298
0.413539
0.395642
0.375548
0.353234
0.328814
0.302574
0.274954
0.246490
0.217700
0.189020
0.160811
0.133416
0.107185
0.082495
0.059737
0.039233
0.021137
0.005416
-0.008085
-0.019502
-0.028905
-0.036349
-0.041912
-0.045726
-0.048034
-0.049185
-0.049575
-0.049600
-0.049666
-0.050174
-0.051478
-0.053811
-0.057227
-0.061558
-0.066424
-0.071299
-0.075621
-0.078907
-0.080795
-0.081042
-0.079529
-0.076249
-0.071265
-0.064676
-0.056633
-0.047349
-0.037103
-0.026203
-0.014950
-0.003627
0.007505
0.018223
0.028348
0.037758
0.046439
0.054465
0.061935
0.068937
0.075581
0.082013
0.088389
0.094848
0.101505
0.108442
0.115687
0.123163
0.130678
0.137957
0.144707
0.150713
0.155865
0.160114
0.163402
0.165646
0.166781
0.166793
0.165709
0.163582
0.160482
0.156503
0.151756
0.146362
0.140436
0.134078
0.127347
0.120226
0.112625
0.104407
0.095432
0.085601
0.074895
0.063370
0.051109
0.038202
0.024773
0.011009
-0.002843
-0.016483
-0.029564
-0.041710
-0.052597
-0.062038
-0.070027
-0.076729
-0.082427
-0.087417
-0.091910
-0.095969
-0.099483
-0.102163
-0.103565
-0.103150
-0.100399
-0.094921
-0.086531
-0.075226
-0.061091
-0.044205
-0.024642
-0.002531
0.021883
0.048218
0.075948
0.104401
0.132776
0.160235
0.186063
0.209779
0.231112
0.249918
0.266112
0.279627
0.290363
0.298157
0.302811
0.304158
0.302140
0.296875
0.288685
0.278057
0.265539
0.251637
0.236771
0.221266
0.205310
0.188919
0.171995
0.154430
0.136188
0.117310
0.097857
0.077842
0.057186
0.035723
0.013257
-0.010366
-0.035237
-0.061391
-0.088823
-0.117494
-0.147355
-0.178346
-0.210344
-0.243119
-0.276340
-0.309598
-0.342425
-0.374371
-0.405129
-0.434603
-0.462831
-0.489887
-0.515824
-0.540665
-0.564408
-0.587079
-0.608781
-0.629629
-0.649641
-0.668750
-0.686841
-0.703744
-0.719188
-0.732777
-0.744097
-0.752893
-0.759171
-0.763159
-0.765214
-0.765717
-0.764969
-0.763172
-0.760502
-0.757145
-0.753289
-0.749110
-0.744761
-0.740378
-0.736076
-0.731913
-0.727859
-0.723815
-0.719627
-0.715092
-0.709995
-0.704197
-0.697697
-0.690642
-0.683232
-0.675553
-0.667495
-0.658812
-0.649178
-0.638231
-0.625659
-0.611263
-0.594999
-0.576928
-0.557158
-0.535823
-0.513117
-0.489322
-0.464805
-0.439968
-0.415202
-0.390813
-0.367005
-0.343886
-0.321461
-0.299600
-0.278053
-0.256519
-0.234699
-0.212325
-0.189194
-0.165209
-0.140419
-0.115025
-0.089337
-0.063733
-0.038611
-0.014354
0.008682
0.030144
0.049718
0.067183
0.082468
0.095646
0.106898
0.116459
0.124601
0.131617
0.137786
0.143327
0.148397
0.153091
0.157451
0.161498
0.165239
0.168632
0.171575
0.173932
0.175593
0.176503
0.176623
0.175888
0.174226
0.171578
0.167918
0.163289
0.157831
0.151776
0.145428
0.139119
0.133125
0.127562
0.122335
0.117171
0.111731
0.105752
0.099097
0.091757
0.083872
0.075739
0.067798
0.060607
0.054759
0.050747
0.048864
0.049196
0.051659
0.056047
0.062030
0.069162
0.076950
0.084949
0.092827
0.100354
0.107351
0.113654
0.119140
0.123794
0.127737
0.131174
0.134290
0.137188
0.139874
0.142261
0.144141
0.145201
0.145089
0.143525
0.140398
0.135770
0.129797
