EVENT_NAME: L_AQUILA
EVENT_ID: IT-2009-0009
EVENT_DATE_YYYYMMDD: 20090406
EVENT_TIME_HHMMSS: 013240
EVENT_LATITUDE_DEGREE: 42.3420
EVENT_LONGITUDE_DEGREE: 13.3800
EVENT_DEPTH_KM: 8.3
HYPOCENTER_REFERENCE: INGV-CNT_Seismic_Bulletin
MAGNITUDE_W: 6.1
MAGNITUDE_W_REFERENCE: INGV-CNT_Seismic_Bulletin
MAGNITUDE_L: 
MAGNITUDE_L_REFERENCE: 
FOCAL_MECHANISM: Normal faulting
NETWORK: IT
STATION_CODE: CSS
STATION_NAME: 
STATION_LATITUDE_DEGREE: 41.485790
STATION_LONGITUDE_DEGREE: 13.823090
STATION_ELEVATION_M: 166
LOCATION: 
SENSOR_DEPTH_M: 0.0
VS30_M/S: 648
SITE_CLASSIFICATION_EC8: B
MORPHOLOGIC_CLASSIFICATION: 
EPICENTRAL_DISTANCE_KM: 102.0
EARTHQUAKE_BACKAZIMUTH_DEGREE: 158.7
DATE_TIME_FIRST_SAMPLE_YYYYMMDD_HHMMSS: 
DATE_TIME_FIRST_SAMPLE_PRECISION: 
SAMPLING_INTERVAL_S: 
NDATA: 105
DURATION_S: 
STREAM: HNN
UNITS: cm/s^2
INSTRUMENT: sensor = FBA-3 [Kinemetrics] | digitizer = Etna [Kinemetrics]
INSTRUMENT_ANALOG/DIGITAL: D
INSTRUMENTAL_FREQUENCY_HZ: 
INSTRUMENTAL_DAMPING: 
FULL_SCALE_G: 
N_BIT_DIGITAL_CONVERTER: 18
PGA_CM/S^2: -9.442088
TIME_PGA_S: 
BASELINE_CORRECTION: BASELINE REMOVED
FILTER_TYPE: BUTTERWORTH
FILTER_ORDER: 2
LOW_CUT_FREQUENCY_HZ: 0.070
HIGH_CUT_FREQUENCY_HZ: 30.000
LATE/NORMAL_TRIGGERED: NT
DATABASE_VERSION: 0.5
HEADER_FORMAT: DYNA 1.2
DATA_TYPE: ACCELERATION RESPONSE SPECTRUM
PROCESSING: manual (Paolucci et al., 2011)
DATA_TIMESTAMP_YYYYMMDD_HHMMSS: 20211011_160638.418
DATA_LICENSE: CC-BY3_0-IT (http://creativecommons.org/licenses/by/3.0/deed.en)
DATA_CITATION: Luzi L, Pacor F, Puglia R (2019). Italian Accelerometric Archive v 3.0 - Istituto Nazionale di Geofisica e Vulcanologia, Dipartimento della Protezione Civile Nazionale. doi: 10.13127/itaca.3.1
DATA_CREATOR: ITACA working group
ORIGINAL_DATA_MEDIATOR_CITATION: data obtained within the DPC-INGV data exchange agreements
ORIGINAL_DATA_MEDIATOR: Archive of Italian Department of Civil Protection
ORIGINAL_DATA_CREATOR_CITATION: Presidency Of Counsil Of Ministers-Civil Protection Department. (1972). Italian Strong Motion Network. Presidency of Counsil of Ministers - Civil Protection Department. https://doi.org/10.7914/SN/IT http://www.fdsn.org/networks/detail/IT/
ORIGINAL_DATA_CREATOR: network: IT (Italian Strong Motion Network (RAN)); owner: Presidency of Counsil of Ministers - Civil Protection Department (PCM - DPC)
USER1: 
USER2: 
USER3: 
USER4: 
USER5: 
    0.010000     9.442766
    0.020000     9.462108
    0.022000     9.467487
    0.025000     9.472941
    0.029000     9.491019
    0.030000     9.494759
    0.032000     9.497339
    0.035001     9.504672
    0.036000     9.508512
    0.040000     9.533464
    0.041999     9.531855
    0.044001     9.542339
    0.045000     9.551064
    0.046000     9.559599
    0.048001     9.576926
    0.050000     9.593599
    0.054999     9.622380
    0.059999     9.665844
    0.064998     9.725252
    0.067002     9.715250
    0.069999     9.737717
    0.075002     9.841176
    0.080000     9.924116
    0.084998     9.921707
    0.090001     9.722751
    0.095003     9.442469
    0.100000     9.419537
    0.109999    10.468411
    0.120005    11.175874
    0.130005    10.291157
    0.132996    10.472358
    0.139997    10.603009
    0.149993    10.680862
    0.160000    12.591549
    0.170010    11.308216
    0.179986    12.641886
    0.190006    14.638916
    0.200000    14.974101
    0.220022    18.163622
    0.239981    16.583773
    0.250000    17.767900
    0.260010    20.560541
    0.280034    25.560020
    0.290023    26.462965
    0.300030    26.952030
    0.320000    33.515900
    0.340020    36.376392
    0.350017    39.014530
    0.359971    40.258717
    0.379939    35.185200
    0.400000    32.136459
    0.419992    29.894180
    0.439947    23.891790
    0.450045    20.835567
    0.459982    18.399700
    0.480077    18.965405
    0.500000    18.201323
    0.550055    20.616861
    0.599880    21.760143
    0.650195    18.984644
    0.667111    19.317772
    0.699790    21.200085
    0.750188    16.606224
    0.800000    13.291510
    0.850340    16.167229
    0.900090    18.999302
    0.949668    19.693703
    1.000000    19.745358
    1.100110    16.433678
    1.200480    11.546864
    1.300390    10.602304
    1.400560    11.585408
    1.499250     9.357790
    1.600000     8.491936
    1.700680     8.735510
    1.798561     8.273883
    1.901141     9.278757
    2.000000     9.203506
    2.197802     6.363675
    2.398082     4.416678
    2.500000     3.937936
    2.597403     3.580822
    2.801121     2.907888
    3.003003     3.539876
    3.205128     2.922992
    3.401361     2.552000
    3.496503     2.319915
    3.597122     2.159931
    3.802281     1.990523
    4.000000     2.243263
    4.201681     2.585561
    4.405286     2.793285
    4.608295     2.606474
    4.807692     2.283889
    5.000000     1.815699
    5.494505     1.291777
    5.988024     1.364783
    6.493506     1.284025
    6.993007     0.963706
    7.518797     0.773292
    8.000000     0.625181
    8.474576     0.535335
    9.009009     0.477456
    9.523809     0.416276
   10.000000     0.420654
