EVENT_NAME: L_AQUILA
EVENT_ID: IT-2009-0009
EVENT_DATE_YYYYMMDD: 20090406
EVENT_TIME_HHMMSS: 013240
EVENT_LATITUDE_DEGREE: 42.3420
EVENT_LONGITUDE_DEGREE: 13.3800
EVENT_DEPTH_KM: 8.3
HYPOCENTER_REFERENCE: INGV-CNT_Seismic_Bulletin
MAGNITUDE_W: 6.1
MAGNITUDE_W_REFERENCE: INGV-CNT_Seismic_Bulletin
MAGNITUDE_L: 
MAGNITUDE_L_REFERENCE: 
FOCAL_MECHANISM: Normal faulting
NETWORK: IT
STATION_CODE: CSS
STATION_NAME: 
STATION_LATITUDE_DEGREE: 41.485790
STATION_LONGITUDE_DEGREE: 13.823090
STATION_ELEVATION_M: 166
LOCATION: 
SENSOR_DEPTH_M: 0.0
VS30_M/S: 648
SITE_CLASSIFICATION_EC8: B
MORPHOLOGIC_CLASSIFICATION: 
EPICENTRAL_DISTANCE_KM: 102.0
EARTHQUAKE_BACKAZIMUTH_DEGREE: 158.7
DATE_TIME_FIRST_SAMPLE_YYYYMMDD_HHMMSS: 
DATE_TIME_FIRST_SAMPLE_PRECISION: 
SAMPLING_INTERVAL_S: 
NDATA: 105
DURATION_S: 
STREAM: HNZ
UNITS: cm
INSTRUMENT: sensor = FBA-3 [Kinemetrics] | digitizer = Etna [Kinemetrics]
INSTRUMENT_ANALOG/DIGITAL: D
INSTRUMENTAL_FREQUENCY_HZ: 
INSTRUMENTAL_DAMPING: 
FULL_SCALE_G: 
N_BIT_DIGITAL_CONVERTER: 18
PGD_CM: -0.694080
TIME_PGD_S: 
BASELINE_CORRECTION: BASELINE REMOVED
FILTER_TYPE: BUTTERWORTH
FILTER_ORDER: 2
LOW_CUT_FREQUENCY_HZ: 0.070
HIGH_CUT_FREQUENCY_HZ: 30.000
LATE/NORMAL_TRIGGERED: NT
DATABASE_VERSION: 0.5
HEADER_FORMAT: DYNA 1.2
DATA_TYPE: DISPLACEMENT RESPONSE SPECTRUM
PROCESSING: manual (Paolucci et al., 2011)
DATA_TIMESTAMP_YYYYMMDD_HHMMSS: 20211011_160638.832
DATA_LICENSE: CC-BY3_0-IT (http://creativecommons.org/licenses/by/3.0/deed.en)
DATA_CITATION: Luzi L, Pacor F, Puglia R (2019). Italian Accelerometric Archive v 3.0 - Istituto Nazionale di Geofisica e Vulcanologia, Dipartimento della Protezione Civile Nazionale. doi: 10.13127/itaca.3.1
DATA_CREATOR: ITACA working group
ORIGINAL_DATA_MEDIATOR_CITATION: data obtained within the DPC-INGV data exchange agreements
ORIGINAL_DATA_MEDIATOR: Archive of Italian Department of Civil Protection
ORIGINAL_DATA_CREATOR_CITATION: Presidency Of Counsil Of Ministers-Civil Protection Department. (1972). Italian Strong Motion Network. Presidency of Counsil of Ministers - Civil Protection Department. https://doi.org/10.7914/SN/IT http://www.fdsn.org/networks/detail/IT/
ORIGINAL_DATA_CREATOR: network: IT (Italian Strong Motion Network (RAN)); owner: Presidency of Counsil of Ministers - Civil Protection Department (PCM - DPC)
USER1: 
USER2: 
USER3: 
USER4: 
USER5: 
    0.010000     0.000007
    0.020000     0.000029
    0.022000     0.000035
    0.025000     0.000045
    0.029000     0.000061
    0.030000     0.000065
    0.032000     0.000074
    0.035001     0.000089
    0.036000     0.000094
    0.040000     0.000116
    0.041999     0.000128
    0.044001     0.000141
    0.045000     0.000147
    0.046000     0.000154
    0.048001     0.000168
    0.050000     0.000183
    0.054999     0.000221
    0.059999     0.000263
    0.064998     0.000310
    0.067002     0.000331
    0.069999     0.000365
    0.075002     0.000421
    0.080000     0.000481
    0.084998     0.000554
    0.090001     0.000632
    0.095003     0.000707
    0.100000     0.000842
    0.109999     0.001110
    0.120005     0.001581
    0.130005     0.002179
    0.132996     0.002224
    0.139997     0.002259
    0.149993     0.002908
    0.160000     0.003595
    0.170010     0.003732
    0.179986     0.004469
    0.190006     0.004348
    0.200000     0.004363
    0.220022     0.007061
    0.239981     0.009198
    0.250000     0.011757
    0.260010     0.014287
    0.280034     0.022213
    0.290023     0.022731
    0.300030     0.021264
    0.320000     0.017380
    0.340020     0.022314
    0.350017     0.021599
    0.359971     0.023914
    0.379939     0.026553
    0.400000     0.025475
    0.419992     0.031577
    0.439947     0.034293
    0.450045     0.032065
    0.459982     0.033012
    0.480077     0.031659
    0.500000     0.035290
    0.550055     0.038491
    0.599880     0.044731
    0.650195     0.062419
    0.667111     0.062051
    0.699790     0.066668
    0.750188     0.084021
    0.800000     0.102687
    0.850340     0.104036
    0.900090     0.147125
    0.949668     0.190426
    1.000000     0.259672
    1.100110     0.260723
    1.200480     0.298490
    1.300390     0.313919
    1.400560     0.283728
    1.499250     0.309016
    1.600000     0.374230
    1.700680     0.531152
    1.798561     0.573012
    1.901141     0.528794
    2.000000     0.511751
    2.197802     0.465229
    2.398082     0.514129
    2.500000     0.580208
    2.597403     0.634617
    2.801121     0.661556
    3.003003     0.718517
    3.205128     0.733964
    3.401361     0.679579
    3.496503     0.681466
    3.597122     0.695379
    3.802281     0.786951
    4.000000     0.871533
    4.201681     0.953021
    4.405286     1.032833
    4.608295     1.088806
    4.807692     1.147298
    5.000000     1.244991
    5.494505     1.409244
    5.988024     1.431821
    6.493506     1.549845
    6.993007     1.695313
    7.518797     1.730801
    8.000000     1.591850
    8.474576     1.355454
    9.009009     1.328855
    9.523809     1.292487
   10.000000     1.257975
