EVENT_NAME: L_AQUILA
EVENT_ID: IT-2009-0009
EVENT_DATE_YYYYMMDD: 20090406
EVENT_TIME_HHMMSS: 013240
EVENT_LATITUDE_DEGREE: 42.3420
EVENT_LONGITUDE_DEGREE: 13.3800
EVENT_DEPTH_KM: 8.3
HYPOCENTER_REFERENCE: INGV-CNT_Seismic_Bulletin
MAGNITUDE_W: 6.1
MAGNITUDE_W_REFERENCE: INGV-CNT_Seismic_Bulletin
MAGNITUDE_L: 
MAGNITUDE_L_REFERENCE: 
FOCAL_MECHANISM: Normal faulting
NETWORK: IT
STATION_CODE: CSS
STATION_NAME: 
STATION_LATITUDE_DEGREE: 41.485790
STATION_LONGITUDE_DEGREE: 13.823090
STATION_ELEVATION_M: 166
LOCATION: 
SENSOR_DEPTH_M: 0.0
VS30_M/S: 648
SITE_CLASSIFICATION_EC8: B
MORPHOLOGIC_CLASSIFICATION: 
EPICENTRAL_DISTANCE_KM: 102.0
EARTHQUAKE_BACKAZIMUTH_DEGREE: 158.7
DATE_TIME_FIRST_SAMPLE_YYYYMMDD_HHMMSS: 20090406_013234.000
DATE_TIME_FIRST_SAMPLE_PRECISION: seconds
SAMPLING_INTERVAL_S: 0.005000
NDATA: 20000
DURATION_S: 100.000
STREAM: HNZ
UNITS: cm/s
INSTRUMENT: sensor = FBA-3 [Kinemetrics] | digitizer = Etna [Kinemetrics]
INSTRUMENT_ANALOG/DIGITAL: D
INSTRUMENTAL_FREQUENCY_HZ: 
INSTRUMENTAL_DAMPING: 
FULL_SCALE_G: 
N_BIT_DIGITAL_CONVERTER: 18
PGV_CM/S: 0.752017
TIME_PGV_S: 48.620000
BASELINE_CORRECTION: BASELINE REMOVED
FILTER_TYPE: BUTTERWORTH
FILTER_ORDER: 2
LOW_CUT_FREQUENCY_HZ: 0.070
HIGH_CUT_FREQUENCY_HZ: 30.000
LATE/NORMAL_TRIGGERED: NT
DATABASE_VERSION: 0.5
HEADER_FORMAT: DYNA 1.2
DATA_TYPE: VELOCITY
PROCESSING: manual (Paolucci et al., 2011)
DATA_TIMESTAMP_YYYYMMDD_HHMMSS: 20211011_160638.010
DATA_LICENSE: CC-BY3_0-IT (http://creativecommons.org/licenses/by/3.0/deed.en)
DATA_CITATION: Luzi L, Pacor F, Puglia R (2019). Italian Accelerometric Archive v 3.0 - Istituto Nazionale di Geofisica e Vulcanologia, Dipartimento della Protezione Civile Nazionale. doi: 10.13127/itaca.3.1
DATA_CREATOR: ITACA working group
ORIGINAL_DATA_MEDIATOR_CITATION: data obtained within the DPC-INGV data exchange agreements
ORIGINAL_DATA_MEDIATOR: Archive of Italian Department of Civil Protection
ORIGINAL_DATA_CREATOR_CITATION: Presidency Of Counsil Of Ministers-Civil Protection Department. (1972). Italian Strong Motion Network. Presidency of Counsil of Ministers - Civil Protection Department. https://doi.org/10.7914/SN/IT http://www.fdsn.org/networks/detail/IT/
ORIGINAL_DATA_CREATOR: network: IT (Italian Strong Motion Network (RAN)); owner: Presidency of Counsil of Ministers - Civil Protection Department (PCM - DPC)
USER1: 
USER2: 
USER3: 
USER4: 
USER5: 
[...]
0.206049
0.204986
0.203359
0.201165
0.198426
0.195190
0.191536
0.187551
0.183327
0.178956
0.174526
0.170110
0.165766
0.161536
0.157447
0.153501
0.149679
0.145942
0.142236
0.138503
0.134677
0.130690
0.126486
0.122022
0.117267
0.112204
0.106830
0.101157
0.095213
0.089041
0.082685
0.076192
0.069612
0.063009
0.056456
0.050028
0.043807
0.037881
0.032336
0.027244
0.022657
0.018614
0.015138
0.012230
0.009865
0.007998
0.006573
0.005528
0.004798
0.004320
0.004037
0.003902
0.003891
0.004010
0.004283
0.004754
0.005478
0.006529
0.007984
0.009919
0.012391
0.015435
0.019063
0.023260
0.027982
0.033160
0.038708
0.044511
0.050435
0.056333
0.062059
0.067468
0.072429
0.076840
0.080634
0.083770
0.086232
0.088033
0.089207
0.089802
0.089873
0.089477
0.088672
0.087523
0.086102
0.084477
0.082715
0.080881
0.079047
0.077282
0.075647
0.074183
0.072909
0.071818
0.070874
0.070025
0.069200
0.068324
0.067326
0.066142
0.064724
0.063041
0.061084
0.058872
0.056456
0.053912
0.051340
0.048852
0.046569
0.044619
0.043130
0.042211
0.041943
0.042379
0.043540
0.045417
0.047976
0.051167
0.054921
0.059152
0.063756
0.068619
0.073629
0.078680
0.083677
0.088539
0.093206
0.097642
0.101832
0.105780
0.109513
0.113079
0.116541
0.119976
0.123467
0.127105
0.130982
0.135190
0.139803
0.144874
0.150436
0.156499
0.163054
0.170073
0.177507
0.185289
0.193330
0.201528
0.209770
0.217935
0.225906
0.233571
0.240825
0.247568
0.253706
0.259155
0.263843
0.267719
0.270750
0.272915
0.274209
0.274639
0.274217
0.272967
0.270927
0.268147
0.264692
0.260643
0.256102
0.251188
0.246025
0.240735
0.235434
0.230228
0.225205
0.220437
0.215975
0.211852
0.208083
0.204663
0.201578
0.198807
0.196327
0.194116
0.192148
0.190398
0.188841
0.187458
0.186243
0.185204
0.184354
0.183709
0.183292
0.183137
0.183276
0.183742
0.184559
0.185740
0.187282
0.189166
0.191350
0.193779
0.196383
0.199077
0.201762
0.204324
0.206641
0.208594
0.210076
0.211004
0.211322
0.211015
0.210112
0.208678
0.206805
0.204599
0.202170
0.199636
0.197109
0.194689
0.192454
0.190461
0.188734
0.187275
0.186066
0.185077
0.184268
0.183593
0.183009
0.182474
0.181949
0.181391
0.180749
0.179965
0.178960
0.177638
0.175896
0.173637
0.170775
0.167236
0.162960
0.157917
0.152113
0.145591
0.138428
0.130725
0.122604
0.114197
0.105637
0.097055
0.088574
0.080305
0.072347
0.064786
0.057692
0.051111
0.045072
0.039586
0.034653
0.030254
0.026363
0.022959
0.020028
0.017562
0.015555
0.013997
0.012867
0.012138
0.011780
0.011760
0.012035
0.012552
0.013256
0.014099
0.015035
0.016018
0.017001
0.017937
0.018776
0.019464
0.019943
0.020168
0.020107
0.019739
0.019046
0.018019
0.016660
0.014982
0.012999
0.010722
0.008161
0.005330
0.002243
-0.001102
-0.004714
-0.008613
-0.012824
-0.017364
-0.022240
-0.027449
-0.032969
-0.038762
-0.044779
-0.050948
-0.057175
-0.063336
-0.069287
-0.074875
-0.079952
-0.084383
-0.088047
-0.090842
-0.092696
-0.093569
-0.093449
-0.092350
-0.090314
-0.087406
-0.083705
-0.079295
-0.074256
-0.068659
-0.062564
-0.056029
-0.049118
-0.041897
-0.034441
-0.026826
-0.019134
-0.011442
-0.003818
0.003675
0.010981
0.018052
0.024853
0.031356
0.037542
0.043407
0.048961
0.054226
0.059223
0.063974
0.068508
0.072851
0.077033
0.081082
0.085031
0.088911
0.092756
0.096595
0.100437
0.104271
0.108061
0.111754
0.115280
0.118556
0.121490
0.123982
0.125937
0.127266
0.127894
0.127760
0.126820
0.125057
0.122486
0.119148
0.115107
0.110446
0.105259
0.099645
0.093707
0.087550
0.081278
0.074995
0.068794
0.062760
0.056973
0.051507
0.046426
0.041779
0.037602
0.033923
0.030748
0.028062
0.025824
0.023972
0.022429
0.021109
0.019921
0.018772
0.017561
0.016182
0.014524
0.012482
0.009960
0.006887
0.003218
-0.001053
-0.005898
-0.011256
-0.017037
-0.023127
-0.029402
-0.035725
-0.041951
-0.047930
-0.053529
-0.058637
-0.063171
-0.067080
-0.070342
-0.072961
-0.074960
-0.076374
-0.077257
-0.077684
-0.077742
-0.077524
-0.077124
-0.076635
-0.076153
-0.075779
-0.075626
-0.075807
-0.076431
-0.077592
-0.079370
-0.081822
-0.084989
-0.088889
-0.093516
-0.098837
-0.104790
-0.111283
-0.118208
-0.125452
-0.132904
-0.140457
-0.148009
-0.155473
-0.162790
-0.169917
-0.176828
-0.183505
-0.189940
-0.196128
-0.202062
-0.207748
-0.213196
-0.218420
-0.223432
-0.228246
-0.232887
-0.237387
-0.241780
-0.246104
-0.250399
-0.254700
-0.259035
-0.263426
-0.267881
-0.272393
-0.276947
-0.281522
-0.286096
-0.290640
-0.295122
-0.299514
-0.303787
-0.307915
-0.311870
-0.315615
-0.319116
-0.322340
-0.325261
-0.327863
-0.330139
-0.332090
-0.333713
-0.334994
-0.335906
-0.336416
-0.336474
-0.336028
-0.335024
-0.333418
-0.331175
-0.328273
-0.324701
-0.320457
-0.315550
-0.309995
-0.303810
-0.297016
-0.289642
-0.281722
-0.273305
-0.264453
-0.255236
-0.245725
-0.235991
-0.226105
-0.216132
-0.206143
-0.196210
-0.186403
-0.176785
-0.167408
-0.158311
-0.149521
-0.141057
-0.132931
-0.125148
-0.117708
-0.110615
-0.103892
-0.097566
-0.091668
-0.086234
-0.081311
-0.076958
-0.073230
-0.070176
-0.067832
-0.066230
-0.065392
-0.065332
-0.066049
-0.067541
-0.069798
-0.072796
-0.076484
-0.080790
-0.085627
-0.090898
-0.096498
-0.102320
-0.108257
-0.114200
-0.120042
-0.125682
-0.131028
-0.135996
-0.140517
-0.144536
-0.148020
-0.150952
-0.153329
-0.155156
-0.156446
-0.157212
-0.157469
-0.157231
-0.156518
-0.155347
-0.153744
-0.151736
-0.149364
-0.146686
-0.143781
-0.140734
-0.137615
-0.134471
-0.131318
-0.128150
-0.124938
-0.121630
-0.118153
-0.114425
-0.110374
-0.105936
-0.101066
-0.095738
-0.089952
-0.083733
-0.077122
-0.070179
-0.062984
-0.055632
-0.048218
-0.040827
-0.033537
-0.026410
-0.019501
-0.012850
-0.006493
-0.000454
0.005262
0.010662
0.015762
0.020582
0.025150
0.029492
0.033633
0.037592
0.041376
0.044980
0.048384
0.051550
0.054427
0.056947
0.059031
0.060588
0.061531
0.061788
0.061306
0.060053
0.058029
0.055266
0.051815
0.047752
0.043176
0.038213
0.033005
0.027693
0.022407
0.017261
0.012347
0.007733
0.003466
-0.000425
-0.003939
-0.007100
-0.009944
-0.012513
-0.014851
-0.017006
-0.019020
-0.020938
-0.022800
-0.024640
-0.026484
-0.028353
-0.030272
-0.032268
-0.034370
-0.036607
-0.039008
-0.041599
-0.044404
-0.047443
-0.050732
-0.054284
-0.058103
-0.062187
-0.066533
-0.071138
-0.075999
-0.081115
-0.086491
-0.092143
-0.098101
-0.104397
-0.111057
-0.118100
-0.125542
-0.133393
-0.141655
-0.150321
-0.159374
-0.168777
-0.178478
-0.188408
-0.198486
-0.208617
-0.218693
-0.228605
-0.238257
-0.247562
-0.256444
-0.264836
-0.272697
-0.280018
-0.286823
-0.293159
-0.299095
-0.304719
-0.310137
-0.315467
-0.320828
-0.326333
-0.332080
-0.338145
-0.344566
-0.351350
-0.358476
-0.365899
-0.373557
-0.381358
-0.389187
-0.396907
-0.404381
-0.411478
-0.418078
-0.424071
-0.429371
-0.433920
-0.437687
-0.440669
-0.442894
-0.444423
-0.445342
-0.445762
-0.445815
-0.445658
-0.445465
-0.445425
-0.445720
-0.446520
-0.447979
-0.450230
-0.453380
-0.457497
-0.462611
-0.468715
-0.475768
-0.483694
-0.492384
-0.501689
-0.511436
-0.521431
-0.531473
-0.541365
-0.550927
-0.560009
-0.568488
-0.576265
-0.583276
-0.589487
-0.594902
-0.599541
-0.603442
-0.606656
-0.609241
-0.611250
-0.612740
-0.613770
-0.614395
-0.614668
-0.614639
-0.614360
-0.613883
-0.613247
-0.612474
-0.611571
-0.610533
-0.609355
-0.608036
-0.606572
-0.604955
-0.603163
-0.601161
-0.598917
-0.596399
-0.593574
-0.590403
-0.586844
-0.582854
-0.578390
-0.573412
-0.567891
-0.561811
-0.555169
-0.547971
-0.540234
-0.531992
-0.523298
-0.514225
-0.504865
-0.495323
-0.485709
-0.476137
-0.466712
-0.457537
-0.448708
-0.440304
-0.432386
-0.424998
-0.418173
-0.411935
-0.406295
-0.401254
-0.396810
-0.392960
-0.389691
-0.386982
-0.384807
-0.383142
-0.381957
-0.381209
-0.380845
-0.380799
-0.380990
-0.381323
-0.381695
-0.381999
-0.382131
-0.381993
-0.381496
-0.380549
-0.379069
-0.376992
-0.374273
-0.370887
-0.366827
-0.362107
-0.356754
-0.350811
-0.344329
-0.337374
-0.330027
-0.322385
-0.314552
-0.306641
-0.298772
-0.291067
-0.283647
-0.276620
-0.270074
-0.264072
-0.258646
-0.253793
-0.249477
-0.245630
-0.242160
-0.238959
-0.235911
-0.232893
-0.229786
-0.226487
-0.222925
-0.219059
-0.214879
-0.210403
-0.205667
-0.200714
-0.195580
-0.190309
-0.184949
-0.179551
-0.174157
-0.168789
-0.163462
-0.158185
-0.152963
-0.147793
-0.142672
-0.137595
-0.132564
-0.127585
-0.122677
-0.117875
-0.113232
-0.108804
-0.104652
-0.100833
-0.097397
-0.094388
-0.091845
-0.089796
-0.088258
-0.087246
-0.086769
-0.086830
-0.087419
-0.088514
-0.090082
-0.092080
-0.094456
-0.097155
-0.100115
-0.103274
-0.106568
-0.109935
-0.113307
-0.116611
-0.119790
-0.122800
-0.125614
-0.128221
-0.130630
-0.132868
-0.134974
-0.137009
-0.139049
-0.141178
-0.143474
-0.146010
-0.148854
-0.152072
-0.155716
-0.159822
-0.164402
-0.169441
-0.174900
-0.180718
-0.186812
-0.193083
-0.199420
-0.205709
-0.211832
-0.217675
-0.223135
-0.228128
-0.232602
-0.236524
-0.239885
-0.242694
-0.244985
-0.246817
-0.248266
-0.249420
-0.250374
-0.251230
-0.252088
-0.253041
-0.254162
-0.255508
-0.257121
-0.259034
-0.261278
-0.263878
-0.266850
-0.270210
-0.273974
-0.278158
-0.282771
-0.287809
-0.293252
-0.299059
-0.305171
-0.311518
-0.318029
-0.324634
-0.331259
-0.337833
-0.344283
-0.350545
-0.356563
-0.362301
-0.367740
-0.372876
-0.377711
-0.382262
-0.386547
-0.390580
-0.394368
-0.397914
-0.401216
-0.404269
-0.407061
-0.409583
-0.411831
-0.413808
-0.415520
-0.416975
-0.418191
-0.419191
-0.420007
-0.420667
-0.421203
-0.421648
-0.422042
-0.422425
-0.422836
-0.423313
-0.423890
-0.424596
-0.425453
-0.426478
-0.427676
-0.429048
-0.430580
-0.432251
-0.434030
-0.435885
-0.437780
-0.439680
-0.441549
-0.443352
-0.445049
-0.446603
-0.447979
-0.449153
-0.450103
-0.450813
-0.451271
-0.451464
-0.451372
-0.450979
-0.450275
-0.449261
-0.447945
-0.446338
-0.444461
-0.442345
-0.440035
-0.437579
-0.435033
-0.432457
-0.429921
-0.427490
-0.425222
-0.423160
-0.421329
-0.419732
-0.418356
-0.417174
-0.416154
-0.415265
-0.414475
-0.413747
-0.413043
-0.412325
-0.411566
-0.410752
-0.409875
-0.408937
-0.407951
-0.406950
-0.405980
-0.405089
-0.404331
-0.403760
-0.403425
-0.403370
-0.403636
-0.404258
-0.405263
-0.406666
-0.408476
-0.410690
-0.413294
-0.416271
-0.419595
-0.423233
-0.427143
-0.431274
-0.435574
-0.439983
-0.444439
-0.448876
-0.453232
-0.457451
-0.461483
-0.465280
-0.468800
-0.472010
-0.474886
-0.477413
-0.479587
-0.481421
-0.482949
-0.484209
-0.485245
-0.486105
-0.486837
-0.487490
-0.488105
-0.488710
-0.489311
-0.489893
-0.490427
-0.490882
-0.491220
-0.491407
-0.491405
-0.491184
-0.490722
-0.490005
-0.489026
-0.487787
-0.486294
-0.484559
-0.482598
-0.480433
-0.478099
-0.475645
-0.473123
-0.470596
-0.468123
-0.465764
-0.463567
-0.461569
-0.459790
-0.458229
-0.456868
-0.455664
-0.454553
-0.453450
-0.452247
-0.450828
-0.449076
-0.446881
-0.444148
-0.440800
-0.436779
-0.432048
-0.426589
-0.420410
-0.413540
-0.406027
-0.397935
-0.389341
-0.380331
-0.370985
-0.361373
-0.351554
-0.341577
-0.331481
-0.321295
-0.311032
-0.300684
-0.290231
-0.279638
-0.268870
-0.257889
-0.246657
-0.235139
-0.223308
-0.211139
-0.198612
-0.185729
-0.172517
-0.159025
-0.145318
-0.131467
-0.117546
-0.103633
-0.089807
-0.076147
-0.062722
-0.049591
-0.036796
-0.024358
-0.012287
-0.000579
0.010774
0.021788
0.032484
0.042888
0.053028
0.062938
0.072639
0.082135
0.091410
0.100442
0.109202
0.117654
0.125754
0.133454
0.140710
0.147480
0.153729
0.159439
0.164613
0.169267
0.173435
0.177167
0.180525
0.183583
0.186427
0.189153
0.191867
0.194675
0.197687
0.201005
0.204717
0.208895
0.213589
0.218831
0.224633
0.230983
0.237846
0.245173
0.252900
0.260958
0.269269
0.277763
0.286376
0.295054
0.303750
0.312429
0.321077
0.329695
0.338297
0.346904
0.355538
0.364223
0.372981
0.381833
0.390786
0.399831
0.408945
0.418096
0.427253
0.436379
0.445431
0.454352
0.463084
0.471567
0.479757
0.487620
0.495135
0.502291
0.509092
0.515553
0.521700
0.527563
0.533170
0.538549
0.543736
0.548763
0.553656
0.558434
0.563117
0.567726
0.572282
0.576811
0.581336
0.585884
0.590486
0.595169
0.599955
0.604856
0.609867
0.614970
0.620135
0.625334
0.630544
0.635736
0.640882
0.645955
0.650933
0.655798
0.660541
0.665162
0.669663
0.674039
0.678279
0.682361
0.686256
0.689937
0.693382
0.696575
0.699500
0.702136
0.704472
0.706517
0.708298
0.709854
0.711232
0.712482
0.713660
0.714820
0.716011
0.717274
0.718638
0.720118
0.721708
0.723389
0.725137
0.726932
0.728750
0.730568
0.732361
0.734101
0.735765
0.737338
0.738811
0.740171
0.741410
0.742528
0.743532
0.744441
0.745276
0.746066
0.746838
0.747609
0.748384
0.749152
0.749894
0.750583
0.751179
0.751642
0.751932
0.752017
0.751864
0.751443
0.750738
0.749746
0.748472
0.746925
0.745124
0.743101
0.740897
0.738559
0.736143
0.733718
0.731358
0.729141
0.727138
0.725409
0.724003
0.722958
0.722292
0.721990
0.722007
0.722269
0.722684
0.723150
0.723554
0.723787
0.723742
0.723321
0.722436
0.721006
0.718963
0.716262
0.712895
0.708886
0.704286
0.699162
0.693599
0.687692
0.681539
0.675244
0.668904
0.662612
0.656458
0.650527
0.644891
0.639606
0.634711
0.630232
0.626187
0.622584
0.619420
0.616688
0.614365
0.612423
0.610834
0.609579
0.608640
0.608001
0.607646
0.607562
0.607732
0.608144
0.608784
0.609638
0.610687
0.611896
0.613216
0.614582
0.615928
0.617182
0.618280
0.619161
0.619775
0.620087
0.620072
0.619720
0.619038
0.618040
0.616749
0.615188
0.613381
0.611350
0.609112
0.606690
0.604110
0.601400
0.598595
0.595731
0.592843
0.589953
0.587073
0.584205
0.581350
0.578514
0.575701
0.572919
0.570172
0.567459
0.564779
0.562124
0.559493
0.556890
0.554319
0.551791
0.549323
0.546944
0.544686
0.542580
0.540649
0.538909
0.537360
0.535984
0.534753
0.533623
0.532537
0.531431
0.530238
0.528898
0.527350
0.525537
0.523407
0.520918
0.518031
0.514715
0.510949
0.506730
0.502070
0.496993
0.491533
0.485736
0.479648
0.473309
0.466751
0.459999
0.453070
0.445970
0.438698
0.431255
0.423646
0.415874
0.407944
0.399869
0.391663
0.383346
0.374936
0.366455
0.357927
0.349380
0.340840
0.332329
0.323859
0.315426
0.307017
0.298614
0.290201
0.281753
0.273244
0.264657
0.255986
0.247237
0.238424
0.229566
0.220690
0.211816
0.202963
0.194140
0.185355
0.176616
0.167936
0.159329
0.150807
0.142378
0.134051
0.125838
0.117752
0.109805
0.102003
0.094351
0.086852
0.079503
0.072299
0.065224
0.058255
0.051361
0.044508
0.037662
0.030786
0.023844
0.016805
0.009651
0.002378
-0.005005
-0.012475
-0.020003
-0.027551
-0.035074
-0.042515
-0.049810
-0.056881
-0.063657
-0.070073
-0.076073
-0.081607
-0.086641
-0.091158
-0.095160
-0.098665
-0.101710
-0.104351
-0.106659
-0.108710
-0.110572
-0.112308
-0.113977
-0.115626
-0.117293
-0.118996
-0.120731
-0.122479
-0.124199
-0.125835
-0.127318
-0.128575
-0.129535
-0.130137
-0.130324
-0.130049
-0.129272
-0.127975
-0.126157
-0.123836
-0.121042
-0.117824
-0.114240
-0.110358
-0.106243
-0.101957
-0.097568
-0.093138
-0.088722
-0.084366
-0.080106
-0.075964
-0.071958
-0.068097
-0.064378
-0.060784
-0.057289
-0.053859
-0.050456
-0.047035
-0.043542
-0.039916
-0.036100
-0.032036
-0.027673
-0.022965
-0.017876
-0.012383
-0.006475
-0.000151
0.006593
0.013759
0.021346
0.029343
0.037733
0.046492
0.055597
0.065026
0.074754
0.084758
0.095010
0.105486
0.116170
0.127051
0.138120
0.149369
0.160780
0.172337
0.184026
0.195842
0.207781
0.219839
0.232010
0.244291
0.256680
0.269167
0.281739
0.294389
0.307106
0.319878
0.332682
0.345489
0.358264
0.370966
0.383553
0.395983
0.408214
0.420202
0.431894
0.443244
0.454224
0.464823
0.475043
0.484898
0.494403
0.503578
0.512451
0.521057
0.529422
0.537564
0.545495
0.553225
0.560754
0.568072
0.575164
0.582006
0.588573
0.594835
0.600763
0.606329
0.611509
0.616284
0.620644
0.624582
0.628097
0.631187
0.633864
0.636142
0.638036
0.639549
0.640670
0.641392
0.641707
0.641619
0.641126
0.640225
0.638914
0.637196
0.635066
0.632519
0.629555
0.626182
0.622416
0.618287
0.613835
0.609104
0.604138
0.598982
0.593689
0.588311
0.582903
0.577524
0.572225
0.567045
0.562015
0.557159
0.552485
0.547981
0.543618
0.539353
0.535136
0.530910
0.526613
0.522179
0.517541
0.512632
0.507386
0.501739
0.495631
0.489013
0.481853
0.474140
0.465876
0.457077
0.447771
0.437992
0.427787
0.417217
0.406343
0.395215
0.383868
0.372329
0.360621
0.348762
0.336758
0.324610
0.312308
0.299835
0.287169
0.274293
0.261197
0.247880
0.234342
0.220597
0.206670
0.192600
0.178437
0.164235
0.150057
0.135976
0.122075
0.108436
0.095134
0.082235
0.069799
0.057887
0.046557
0.035853
0.025803
0.016415
0.007676
-0.000440
-0.007971
-0.014961
-0.021463
-0.027538
-0.033255
-0.038684
-0.043896
-0.048957
-0.053925
-0.058848
-0.063757
-0.068672
-0.073594
-0.078519
-0.083434
-0.088325
-0.093178
-0.097975
-0.102701
-0.107351
-0.111928
-0.116436
-0.120883
-0.125286
-0.129667
-0.134053
-0.138471
-0.142955
-0.147536
-0.152240
-0.157087
-0.162088
-0.167247
-0.172559
-0.178014
-0.183593
-0.189276
-0.195043
-0.200874
-0.206752
-0.212668
-0.218622
-0.224617
-0.230652
-0.236729
-0.242847
-0.248999
-0.255169
-0.261343
-0.267497
-0.273600
-0.279610
-0.285481
-0.291161
-0.296591
-0.301711
-0.306469
-0.310816
-0.314709
-0.318120
-0.321039
-0.323467
-0.325413
-0.326892
-0.327921
-0.328527
-0.328742
-0.328602
-0.328137
-0.327371
-0.326324
-0.325016
-0.323472
-0.321710
-0.319747
-0.317590
-0.315239
-0.312693
-0.309939
-0.306963
-0.303753
-0.300295
-0.296577
-0.292588
-0.288315
-0.283747
-0.278873
-0.273677
-0.268149
-0.262281
-0.256074
-0.249535
-0.242681
-0.235541
-0.228146
-0.220529
-0.212728
-0.204782
-0.196731
-0.188621
-0.180496
-0.172406
-0.164395
-0.156507
-0.148787
-0.141278
-0.134017
-0.127024
-0.120307
-0.113874
-0.107729
-0.101869
-0.096286
-0.090967
-0.085906
-0.081095
-0.076531
-0.072213
-0.068138
-0.064297
-0.060676
-0.057272
-0.054081
-0.051098
-0.048316
-0.045728
-0.043331
-0.041125
-0.039116
-0.037309
-0.035705
-0.034303
-0.033109
-0.032140
-0.031413
-0.030936
-0.030707
-0.030714
-0.030944
-0.031374
-0.031981
-0.032736
-0.033613
-0.034589
-0.035646
-0.036776
-0.037978
-0.039252
-0.040601
