EVENT_NAME: L_AQUILA
EVENT_ID: IT-2009-0009
EVENT_DATE_YYYYMMDD: 20090406
EVENT_TIME_HHMMSS: 013240
EVENT_LATITUDE_DEGREE: 42.3420
EVENT_LONGITUDE_DEGREE: 13.3800
EVENT_DEPTH_KM: 8.3
HYPOCENTER_REFERENCE: INGV-CNT_Seismic_Bulletin
MAGNITUDE_W: 6.1
MAGNITUDE_W_REFERENCE: INGV-CNT_Seismic_Bulletin
MAGNITUDE_L: 
MAGNITUDE_L_REFERENCE: 
FOCAL_MECHANISM: Normal faulting
NETWORK: IT
STATION_CODE: CSS
STATION_NAME: 
STATION_LATITUDE_DEGREE: 41.485790
STATION_LONGITUDE_DEGREE: 13.823090
STATION_ELEVATION_M: 166
LOCATION: 
SENSOR_DEPTH_M: 0.0
VS30_M/S: 648
SITE_CLASSIFICATION_EC8: B
MORPHOLOGIC_CLASSIFICATION: 
EPICENTRAL_DISTANCE_KM: 102.0
EARTHQUAKE_BACKAZIMUTH_DEGREE: 158.7
DATE_TIME_FIRST_SAMPLE_YYYYMMDD_HHMMSS: 20090406_013234.000
DATE_TIME_FIRST_SAMPLE_PRECISION: seconds
SAMPLING_INTERVAL_S: 0.005000
NDATA: 20000
DURATION_S: 100.000
STREAM: HNN
UNITS: cm/s^2
INSTRUMENT: sensor = FBA-3 [Kinemetrics] | digitizer = Etna [Kinemetrics]
INSTRUMENT_ANALOG/DIGITAL: D
INSTRUMENTAL_FREQUENCY_HZ: 
INSTRUMENTAL_DAMPING: 
FULL_SCALE_G: 
N_BIT_DIGITAL_CONVERTER: 18
PGA_CM/S^2: -9.442088
TIME_PGA_S: 44.525000
BASELINE_CORRECTION: BASELINE REMOVED
FILTER_TYPE: BUTTERWORTH
FILTER_ORDER: 2
LOW_CUT_FREQUENCY_HZ: 0.070
HIGH_CUT_FREQUENCY_HZ: 30.000
LATE/NORMAL_TRIGGERED: NT
DATABASE_VERSION: 0.5
HEADER_FORMAT: DYNA 1.2
DATA_TYPE: ACCELERATION
PROCESSING: manual (Paolucci et al., 2011)
DATA_TIMESTAMP_YYYYMMDD_HHMMSS: 20211011_160637.229
DATA_LICENSE: CC-BY3_0-IT (http://creativecommons.org/licenses/by/3.0/deed.en)
DATA_CITATION: Luzi L, Pacor F, Puglia R (2019). Italian Accelerometric Archive v 3.0 - Istituto Nazionale di Geofisica e Vulcanologia, Dipartimento della Protezione Civile Nazionale. doi: 10.13127/itaca.3.1
DATA_CREATOR: ITACA working group
ORIGINAL_DATA_MEDIATOR_CITATION: data obtained within the DPC-INGV data exchange agreements
ORIGINAL_DATA_MEDIATOR: Archive of Italian Department of Civil Protection
ORIGINAL_DATA_CREATOR_CITATION: Presidency Of Counsil Of Ministers-Civil Protection Department. (1972). Italian Strong Motion Network. Presidency of Counsil of Ministers - Civil Protection Department. https://doi.org/10.7914/SN/IT http://www.fdsn.org/networks/detail/IT/
ORIGINAL_DATA_CREATOR: network: IT (Italian Strong Motion Network (RAN)); owner: Presidency of Counsil of Ministers - Civil Protection Department (PCM - DPC)
USER1: 
USER2: 
USER3: 
USER4: 
USER5: 
[...]
-0.232505
-0.141093
-0.063054
0.000784
0.057819
0.117136
0.182938
0.257732
0.346463
0.454245
0.583272
0.734530
0.909741
1.108808
1.327547
1.559415
1.797809
2.036495
2.268842
2.487841
2.687374
2.862473
3.009541
3.128278
3.221425
3.290795
3.335628
3.356323
3.357342
3.344230
3.319489
3.283265
3.236878
3.183312
3.123685
3.055169
2.974150
2.879265
2.769083
2.640183
2.490351
2.320807
2.133271
1.928053
1.708113
1.481037
1.253689
1.030148
0.816210
0.619614
0.445583
0.296021
0.171577
0.071379
-0.007761
-0.069409
-0.115681
-0.147380
-0.165516
-0.173876
-0.178311
-0.183048
-0.190963
-0.205849
-0.231523
-0.269765
-0.320124
-0.381119
-0.450319
-0.524233
-0.598994
-0.669820
-0.730566
-0.775012
-0.798323
-0.797169
-0.769260
-0.713794
-0.631234
-0.523085
-0.393934
-0.251014
-0.099892
0.056141
0.213902
0.371604
0.528642
0.681798
0.825709
0.956080
1.069570
1.163269
1.235758
1.286503
1.314968
1.321370
1.305737
1.266853
1.203727
1.115413
1.000071
0.856243
0.684011
0.485328
0.263416
0.021678
-0.236125
-0.505483
-0.781382
-1.058331
-1.329841
-1.587521
-1.821313
-2.022490
-2.187257
-2.315537
-2.405827
-2.454450
-2.460096
-2.425735
-2.355494
-2.252323
-2.119774
-1.963953
-1.792061
-1.609586
-1.420665
-1.231187
-1.048391
-0.877155
-0.718856
-0.572365
-0.435404
-0.305778
-0.180375
-0.054038
0.078740
0.221629
0.376813
0.546191
0.730474
0.928463
1.138416
1.358161
1.583127
1.805386
2.014709
2.199949
2.350550
2.458258
2.517007
2.522558
2.474121
2.374174
2.226254
2.035773
1.812121
1.567753
1.315534
1.065706
0.824958
0.599231
0.394724
0.215505
0.062366
-0.065760
-0.169749
-0.251346
-0.316409
-0.373965
-0.431755
-0.495076
-0.569662
-0.661389
-0.770892
-0.892085
-1.017355
-1.140607
-1.255025
-1.352145
-1.424997
-1.469753
-1.483409
-1.462515
-1.404724
-1.309426
-1.176698
-1.007295
-0.804215
-0.573300
-0.322080
-0.059014
0.207340
0.470083
0.724105
0.964806
1.187407
1.386987
1.559459
1.702491
1.815067
1.896988
1.949833
1.977334
1.983296
1.970193
1.940966
1.900626
1.854488
1.805778
1.755388
1.703139
1.649984
1.597338
1.543416
1.484710
1.419767
1.346904
1.262791
1.167129
1.063594
0.954423
0.839430
0.721057
0.605465
0.498162
0.402058
0.320299
0.257553
0.216086
0.192909
0.182314
0.179061
0.178802
0.177611
0.172561
0.162289
0.146094
0.122428
0.088265
0.041159
-0.018784
-0.090798
-0.174155
-0.266335
-0.363911
-0.463983
-0.562616
-0.653829
-0.732474
-0.797557
-0.850928
-0.893174
-0.922916
-0.940796
-0.951214
-0.958120
-0.962992
-0.968321
-0.978612
-0.997134
-1.024909
-1.063276
-1.114313
-1.177932
-1.251417
-1.332630
-1.421417
-1.517284
-1.617553
-1.718170
-1.815083
-1.904898
-1.984894
-2.053023
-2.108116
-2.149394
-2.175329
-2.182974
-2.169107
-2.132354
-2.073745
-1.996322
-1.905091
-1.804972
-1.697803
-1.583719
-1.464989
-1.345486
-1.227073
-1.108536
-0.987886
-0.865079
-0.742025
-0.620026
-0.498126
-0.374374
-0.247719
-0.118001
0.014571
0.149055
0.283795
0.418015
0.553040
0.690158
0.827620
0.961108
1.086023
1.198528
1.295604
1.375503
1.437273
1.478755
1.497402
1.492760
1.465468
1.415602
1.342943
1.247595
1.131834
1.001715
0.864887
0.726388
0.588389
0.455005
0.333316
0.226929
0.133947
0.053900
-0.009401
-0.053917
-0.083816
-0.106328
-0.125974
-0.143691
-0.160999
-0.181559
-0.207159
-0.235118
-0.262204
-0.288155
-0.312342
-0.330158
-0.336182
-0.329806
-0.314718
-0.292575
-0.261094
-0.219568
-0.172381
-0.125939
-0.085288
-0.054761
-0.039964
-0.047130
-0.079467
-0.135748
-0.214669
-0.318593
-0.450155
-0.606867
-0.780805
-0.962435
-1.144669
-1.322844
-1.490903
-1.641377
-1.769574
-1.874038
-1.953338
-2.005687
-2.031157
-2.032550
-2.015186
-1.985096
-1.946871
-1.906242
-1.872099
-1.851468
-1.846456
-1.857865
-1.886202
-1.928376
-1.977806
-2.027621
-2.072275
-2.107348
-2.128387
-2.130301
-2.107809
-2.055430
-1.968292
-1.844271
-1.684442
-1.491962
-1.272600
-1.035413
-0.790087
-0.543584
-0.301063
-0.068848
0.146997
0.343669
0.519460
0.671153
0.796599
0.898052
0.980870
1.049569
1.107350
1.158020
1.205511
1.252310
1.299075
1.345693
1.392667
1.440188
1.486029
1.525823
1.555147
1.569527
1.563354
1.532704
1.478507
1.403375
1.308086
1.193577
1.062323
0.916981
0.760239
0.594925
0.424731
0.256078
0.096207
-0.050127
-0.178775
-0.284491
-0.364711
-0.421483
-0.457041
-0.470466
-0.460587
-0.428656
-0.375664
-0.301067
-0.206160
-0.094705
0.029734
0.164285
0.306250
0.453007
0.601600
0.748843
0.890929
1.022079
1.135237
1.224969
1.287911
1.320657
1.320442
1.286883
1.220223
1.120784
0.991563
0.837613
0.662676
0.468973
0.259368
0.037871
-0.190984
-0.421560
-0.646675
-0.858862
-1.051754
-1.220400
-1.360472
-1.468250
-1.542571
-1.585058
-1.597513
-1.581033
-1.537386
-1.469176
-1.378848
-1.268545
-1.140587
-0.997497
-0.841514
-0.674533
-0.498753
-0.316992
-0.131994
0.053897
0.237108
0.411603
0.570442
0.707946
0.820206
0.904335
0.958047
0.980652
0.973676
0.939882
0.883026
0.808771
0.723726
0.633328
0.542274
0.456004
0.379181
0.313328
0.258096
0.213893
0.181886
0.162695
0.155687
0.159576
0.172969
0.192683
0.213294
0.230242
0.241755
0.247420
0.246545
0.238316
0.222657
0.200366
0.173280
0.145174
0.121096
0.103822
0.091895
0.083048
0.077460
0.075712
0.077469
0.084087
0.099577
0.128600
0.173379
0.231502
0.298369
0.370036
0.440075
0.498246
0.536582
0.551574
0.538983
0.493256
0.411057
0.291275
0.135112
-0.054321
-0.273572
-0.515535
-0.767970
-1.019543
-1.261959
-1.485420
-1.679020
-1.836060
-1.953858
-2.030191
-2.064373
-2.059163
-2.019216
-1.950104
-1.859160
-1.755106
-1.645822
-1.536488
-1.430712
-1.332752
-1.247700
-1.181017
-1.137776
-1.120031
-1.125377
-1.149029
-1.185712
-1.229436
-1.272738
-1.306235
-1.320319
-1.307740
-1.263452
-1.184191
-1.069065
-0.918519
-0.732998
-0.513381
-0.262321
0.014475
0.308363
0.610893
0.916129
1.216869
1.502623
1.765881
2.004184
2.213938
2.390429
2.534122
2.649617
2.739272
2.803129
2.844158
2.870107
2.889760
2.908499
2.928306
2.950950
2.977749
3.006294
3.031758
3.050980
3.062055
3.061527
3.043332
2.999737
2.923945
2.811409
2.658915
2.464996
2.231296
1.962250
1.664281
1.344970
1.011567
0.670483
0.327594
-0.011866
-0.342422
-0.656642
-0.945487
-1.200691
-1.416461
-1.589877
-1.720272
-1.808055
-1.855712
-1.869028
-1.853834
-1.813715
-1.753216
-1.679173
-1.597386
-1.510648
-1.420631
-1.330519
-1.243814
-1.159133
-1.069608
-0.970263
-0.861432
-0.743235
-0.612868
-0.470143
-0.321294
-0.172909
-0.024886
0.125170
0.273476
0.411784
0.535629
0.645762
0.741777
0.819472
0.875623
0.911171
0.928729
0.929473
0.914105
0.886156
0.850760
0.810144
0.763864
0.711975
0.655583
0.596218
0.535770
0.475840
0.417449
0.361593
0.308308
0.255205
0.198040
0.132391
0.054994
-0.036240
-0.143239
-0.267630
-0.409995
-0.569946
-0.745867
-0.933953
-1.128282
-1.322207
-1.509493
-1.684440
-1.841922
-1.978365
-2.092875
-2.186708
-2.260849
-2.314778
-2.349041
-2.367178
-2.373517
-2.371123
-2.361179
-2.342404
-2.312092
-2.267553
-2.205908
-2.123893
-2.019143
-1.891534
-1.742084
-1.570543
-1.375475
-1.157073
-0.918231
-0.661819
-0.389605
-0.105148
0.184970
0.472878
0.751049
1.013135
1.253750
1.468313
1.654187
1.811555
1.941826
2.045687
2.124770
2.183036
2.224340
2.251310
2.267058
2.275800
2.281097
2.284587
2.287794
2.293578
2.304386
2.320141
2.338710
2.357388
2.372184
2.377446
2.368569
2.343245
2.299513
2.234957
2.147936
2.038228
1.906131
1.751027
1.571986
1.370140
1.148076
0.907928
0.652696
0.387140
0.116824
-0.152860
-0.418500
-0.678462
-0.929961
-1.168565
-1.391169
-1.596179
-1.779515
-1.935823
-2.063827
-2.164794
-2.238922
-2.287379
-2.313756
-2.321226
-2.310720
-2.283385
-2.242561
-2.190666
-2.125865
-2.044238
-1.943965
-1.825516
-1.689399
-1.536181
-1.367550
-1.184968
-0.987454
-0.772036
-0.536807
-0.283267
-0.015360
0.262875
0.546280
0.826312
1.093647
1.341896
1.566993
1.765353
1.933411
2.068175
2.167594
2.229240
2.250326
2.230657
2.173162
2.081684
1.960719
1.814941
1.646877
1.457662
1.250802
1.033317
0.813085
0.596369
0.388280
0.194162
0.018297
-0.138472
-0.276761
-0.395828
-0.496395
-0.582472
-0.657248
-0.720957
-0.773405
-0.816352
-0.853229
-0.885308
-0.909615
-0.923868
-0.928979
-0.923655
-0.903655
-0.867630
-0.816971
-0.751012
-0.667508
-0.565812
-0.446774
-0.312264
-0.165882
-0.012156
0.144404
0.299287
0.448170
0.586886
0.711941
0.821413
0.913885
0.986324
1.034536
1.056444
1.052150
1.019491
0.953804
0.852777
0.717455
0.548875
0.348085
0.120690
-0.121285
-0.363497
-0.595476
-0.812476
-1.010355
-1.183160
-1.328996
-1.450832
-1.549161
-1.621901
-1.670335
-1.698367
-1.709280
-1.706706
-1.695426
-1.680103
-1.664685
-1.652490
-1.644687
-1.639031
-1.632124
-1.621333
-1.603895
-1.576825
-1.536826
-1.479579
-1.401827
-1.303501
-1.185734
-1.049143
-0.895533
-0.727871
-0.547426
-0.354333
-0.150756
0.060037
0.275932
0.494065
0.710758
0.925408
1.139560
1.352885
1.563500
1.769431
1.969220
2.163340
2.352554
2.534604
2.706019
2.864227
3.004709
3.120661
3.206806
3.259778
3.275194
3.247237
3.170893
3.043125
2.862344
2.626840
2.334551
1.986923
1.590333
1.151192
0.674958
0.171193
-0.346364
-0.865136
-1.375562
-1.868263
-2.332153
-2.757099
-3.137912
-3.473607
-3.762989
-4.003131
-4.192087
-4.331286
-4.424063
-4.472393
-4.477174
-4.442381
-4.376558
-4.288212
-4.181928
-4.060618
-3.928359
-3.789010
-3.643981
-3.492233
-3.331757
-3.161182
-2.979393
-2.783826
-2.571678
-2.341708
-2.092404
-1.820821
-1.524593
-1.203151
-0.857159
-0.488470
-0.101423
0.296724
0.698253
1.097474
1.489758
1.868704
2.225751
2.553341
2.846610
3.100972
3.312160
3.479799
3.606422
3.693504
3.741786
3.753014
3.729457
3.673764
3.588664
3.475853
3.337132
3.176059
2.995242
2.793346
2.568259
2.320139
2.049307
1.756758
1.446903
1.125696
0.798392
0.471021
0.151784
-0.151563
-0.434851
-0.694465
-0.923710
-1.116210
-1.270434
-1.388839
-1.473803
-1.526557
-1.550109
-1.549839
-1.530297
-1.493374
-1.440422
-1.374994
-1.301021
-1.218729
-1.125738
-1.022226
-0.911355
-0.793989
-0.666848
-0.526750
-0.372830
-0.203778
-0.016736
0.189785
0.414232
0.653511
0.903757
1.158819
1.410795
1.652942
1.879515
2.084126
2.260693
2.404208
2.510130
2.575140
2.598828
2.583634
2.533516
2.453600
2.350502
2.232074
2.106253
1.978688
1.851232
1.724068
1.597743
1.471146
1.339516
1.196238
1.035785
0.854240
0.648179
0.415407
0.156806
-0.123870
-0.421173
-0.727583
-1.032598
-1.324235
-1.591427
-1.823969
-2.012716
-2.150744
-2.233126
-2.256999
-2.221419
-2.126816
-1.976887
-1.779560
-1.544583
-1.281822
-1.001535
-0.715499
-0.438102
-0.184434
0.034603
0.214605
0.355714
0.460947
0.535473
0.585352
0.617957
0.641453
0.661239
0.681603
0.711760
0.763792
0.846712
0.968096
1.136038
1.354291
1.619453
1.924781
2.263347
2.626593
3.003398
3.382452
3.754369
4.111685
4.447195
4.752678
5.021183
5.249601
5.437009
5.582214
5.683922
5.741102
5.751725
5.712543
5.621481
5.479160
5.287624
5.049067
4.766505
4.444592
4.088496
3.703161
3.294692
2.869984
2.433725
1.987992
1.535372
1.079799
0.624106
0.169496
-0.282383
-0.728368
-1.165184
-1.591032
-2.004081
-2.400112
-2.774741
-3.127739
-3.462174
-3.779536
-4.078337
-4.357808
-4.620174
-4.866885
-5.094915
-5.300773
-5.485491
-5.650564
-5.791948
-5.903240
-5.981663
-6.027047
-6.038146
-6.013090
-5.951657
-5.854988
-5.724084
-5.559870
-5.363495
-5.136367
-4.881078
-4.601243
-4.300053
-3.980324
-3.644410
-3.292280
-2.921641
-2.530761
-2.119202
-1.687455
-1.238403
-0.776867
-0.307005
0.166969
0.638920
1.102975
1.556406
1.997916
2.423667
2.826788
3.200055
3.537035
3.830940
4.074604
4.263175
4.396243
4.476471
4.507375
4.493030
4.438407
4.349145
4.230975
4.088269
3.922311
3.732309
3.518795
3.284813
3.034418
2.771168
2.497091
2.212776
1.918996
1.617237
1.308423
0.993401
0.674451
0.354748
0.038906
-0.265504
-0.551111
-0.814212
-1.051340
-1.255524
-1.419415
-1.539476
-1.614724
-1.642916
-1.620500
-1.546201
-1.421976
-1.250124
-1.032547
-0.773752
-0.481504
-0.163235
0.175870
0.530378
0.892946
1.257027
1.619444
1.978365
2.329744
2.667712
2.987976
3.287762
3.562843
3.809343
4.028123
4.223007
4.396490
4.550794
4.690669
4.821440
4.944400
5.056959
5.157564
5.246733
5.323344
5.383668
5.423028
5.436155
5.417782
5.364170
5.274441
5.150880
4.996682
4.813531
4.602697
4.368043
4.115922
3.851429
3.577175
3.295947
3.011203
2.724113
2.431887
2.129636
1.812386
1.474934
1.112057
0.720675
0.300633
-0.148028
-0.626386
-1.133764
-1.665978
-2.217202
-2.781125
-3.349715
-3.914041
-4.467384
-5.004494
-5.518523
-6.002946
-6.456068
-6.879787
-7.274642
-7.639795
-7.975947
-8.284188
-8.563050
-8.809415
-9.021067
-9.195450
-9.327485
-9.411112
-9.442088
-9.419035
-9.342297
-9.212217
-9.029033
-8.793862
-8.509229
-8.178396
-7.805052
-7.394687
-6.954077
-6.488944
-6.003925
-5.503571
-4.992440
-4.474777
-3.953993
-3.432675
-2.913571
-2.400113
-1.895127
-1.400720
-0.919536
-0.452987
-0.000543
0.437464
0.860880
1.272612
1.675380
2.067456
2.445082
2.806484
3.151293
3.477797
3.781201
4.054157
4.290010
4.485157
4.637291
4.743612
4.803366
4.819765
4.796298
4.733915
4.634309
4.503090
4.348054
4.175197
3.986376
3.781025
3.560369
3.327410
3.081384
2.817260
2.533052
2.232404
1.919708
1.597957
1.270732
0.942840
0.619278
0.303521
-0.003087
-0.298280
-0.576838
-0.833773
-1.066858
-1.275306
-1.459046
-1.620075
-1.763374
-1.896063
-2.025312
-2.156480
-2.293529
-2.440267
-2.598685
-2.766277
-2.936461
-3.101438
-3.254149
-3.387545
-3.493487
-3.563865
-3.592710
-3.576689
-3.513781
-3.403074
-3.246018
-3.046256
-2.808425
-2.538110
-2.242311
-1.928452
-1.602494
-1.268593
-0.930379
-0.591276
-0.253408
0.082156
0.413526
0.738046
1.054856
1.365880
1.673704
1.979832
2.285703
2.593708
2.905315
3.218863
3.530492
3.836721
4.134622
4.419516
4.684989
4.925717
5.137415
5.314168
5.449695
5.541688
5.591632
5.600865
5.570096
5.501231
5.397021
5.260234
5.094358
4.904664
4.698231
4.482774
4.265268
4.050382
3.839676
3.633346
3.431464
3.232859
3.035688
2.839208
2.643232
2.447218
2.250495
2.051822
1.849332
1.643235
1.437570
1.236864
1.042626
0.855008
0.676181
0.509763
0.356937
0.215897
0.086160
-0.029903
-0.130928
-0.217687
-0.288946
-0.340490
-0.369087
-0.373019
-0.348832
-0.292069
-0.201571
-0.080805
0.064796
0.230028
0.409444
0.596833
0.786378
0.974184
1.158839
1.340127
1.517994
1.693933
1.871256
2.052900
2.240811
2.437003
2.642835
2.857077
3.075538
3.292281
3.500847
3.694327
3.864440
4.002427
4.101429
4.155821
4.159903
4.110866
4.010433
3.860711
3.662384
3.418598
3.135668
2.819612
2.475609
2.109609
1.728366
1.338027
0.943084
0.547355
0.155098
-0.230312
-0.607290
-0.973962
-1.327279
-1.665788
-1.991196
-2.306043
-2.611819
-2.910520
-3.205523
-3.498952
-3.789866
-4.075980
-4.355256
-4.624678
-4.879103
-5.112674
-5.319735
-5.493131
-5.623516
-5.701857
-5.722041
-5.680527
-5.574555
-5.402736
-5.167607
-4.875797
-4.535169
-4.153035
-3.737594
-3.298965
-2.846927
-2.388949
-1.931650
-1.482693
-1.049812
-0.638989
-0.254590
0.100443
0.425205
0.719127
0.979972
1.206365
1.400870
1.567524
1.708290
1.824499
1.919535
1.997044
2.057042
2.096144
2.110965
2.099104
2.058331
1.987227
1.885845
1.754695
1.593702
1.403262
1.185991
0.945800
0.685009
0.403459
0.100987
-0.219746
-0.554470
-0.901009
-1.258737
-1.624717
-1.993780
-2.361361
-2.722452
-3.068145
-3.386685
-3.668404
-3.906740
-4.094576
-4.224688
-4.294641
-4.305832
-4.258329
-4.152289
-3.993391
-3.792405
-3.560149
-3.306319
-3.042052
-2.779713
-2.529941
-2.299599
-2.092430
-1.910980
-1.755588
-1.622360
-1.504884
-1.397541
-1.296560
-1.198469
-1.098739
-0.992392
-0.874935
-0.742547
-0.592196
-0.422931
-0.236950
-0.036999
0.176491
0.402796
0.637772
0.877045
1.120042
1.367001
1.614590
1.858885
2.099477
2.337024
2.570801
2.800539
3.026764
3.248688
3.463774
3.668922
3.860447
4.032953
4.180261
4.297512
4.380318
4.422715
4.418556
4.364805
4.261503
4.109082
3.907814
3.658889
3.365110
3.031197
2.662101
2.261910
1.835666
1.388549
0.922735
0.438216
-0.065103
-0.587195
-1.126978
-1.680959
-2.243030
-2.805586
-3.361176
-3.902755
-4.422988
-4.914500
-5.371040
-5.787964
-6.161411
-6.487716
-6.762927
-6.982279
-7.141796
-7.240105
-7.277470
-7.254760
-7.174342
-7.040316
-6.857309
-6.629454
-6.360079
-6.053398
-5.716927
-5.360330
-4.992271
-4.620580
-4.254334
-3.901966
-3.566800
-3.248168
-2.947088
-2.666499
-2.406761
-2.165814
-1.942987
-1.738600
-1.550714
-1.375406
-1.209488
-1.051243
-0.899916
-0.756360
-0.623472
-0.504974
-0.404829
-0.327343
-0.275812
-0.251536
-0.254922
-0.286795
-0.347860
-0.436926
-0.550447
-0.684323
-0.836018
-1.004243
-1.186372
-1.377764
-1.574302
-1.774305
-1.977914
-2.186192
-2.401996
-2.630148
-2.874052
-3.133628
-3.407859
-3.696245
-3.996822
-4.305218
-4.616983
-4.930028
-5.243017
-5.552064
-5.851039
-6.134648
-6.399812
-6.643505
-6.860155
-7.043106
-7.187458
-7.288748
-7.341546
-7.342751
-7.292871
-7.191447
-7.035513
-6.824946
-6.564976
-6.261158
-5.915214
-5.527227
-5.099103
-4.634158
-4.135777
-3.608174
-3.056327
-2.485042
-1.898933
-1.301792
-0.696515
-0.086664
0.522851
1.126213
1.716532
2.285383
2.823874
3.324560
3.781506
4.190355
4.549280
4.857806
5.116341
5.327889
5.496542
5.624314
5.711843
5.760918
5.773671
5.749693
5.687156
5.585616
5.444253
5.260775
5.035115
4.771216
4.474349
4.148587
3.798103
3.431040
3.059981
2.697573
2.353403
2.035242
1.751159
1.509111
1.315340
1.174417
1.090482
1.066783
1.103497
1.198395
1.350478
1.559816
1.822866
2.130484
2.471555
2.836820
3.217372
3.601816
3.979376
4.344824
4.696378
5.030226
5.341253
5.627795
5.890945
6.129942
6.341915
6.524841
6.678060
6.800365
6.889074
6.941516
6.955858
6.930117
6.862291
6.751139
6.596047
6.397437
6.157641
5.880892
5.572403
5.237333
4.881000
4.509154
4.126441
3.735468
3.338474
2.939070
2.541949
2.151925
1.773764
1.411743
1.068643
0.746079
0.446243
0.173105
-0.068774
-0.277280
-0.453806
-0.601410
-0.724014
-0.827479
-0.919159
-1.005327
-1.089846
-1.175532
-1.265206
-1.361182
-1.464742
-1.575499
-1.692510
-1.816210
-1.946510
-2.081025
-2.216413
-2.347917
