EVENT_NAME: L_AQUILA
EVENT_ID: IT-2009-0009
EVENT_DATE_YYYYMMDD: 20090406
EVENT_TIME_HHMMSS: 013240
EVENT_LATITUDE_DEGREE: 42.3420
EVENT_LONGITUDE_DEGREE: 13.3800
EVENT_DEPTH_KM: 8.3
HYPOCENTER_REFERENCE: INGV-CNT_Seismic_Bulletin
MAGNITUDE_W: 6.1
MAGNITUDE_W_REFERENCE: INGV-CNT_Seismic_Bulletin
MAGNITUDE_L: 
MAGNITUDE_L_REFERENCE: 
FOCAL_MECHANISM: Normal faulting
NETWORK: IT
STATION_CODE: CSS
STATION_NAME: 
STATION_LATITUDE_DEGREE: 41.485790
STATION_LONGITUDE_DEGREE: 13.823090
STATION_ELEVATION_M: 166
LOCATION: 
SENSOR_DEPTH_M: 0.0
VS30_M/S: 648
SITE_CLASSIFICATION_EC8: B
MORPHOLOGIC_CLASSIFICATION: 
EPICENTRAL_DISTANCE_KM: 102.0
EARTHQUAKE_BACKAZIMUTH_DEGREE: 158.7
DATE_TIME_FIRST_SAMPLE_YYYYMMDD_HHMMSS: 20090406_013234.000
DATE_TIME_FIRST_SAMPLE_PRECISION: seconds
SAMPLING_INTERVAL_S: 0.005000
NDATA: 20000
DURATION_S: 100.000
STREAM: HNE
UNITS: cm
INSTRUMENT: sensor = FBA-3 [Kinemetrics] | digitizer = Etna [Kinemetrics]
INSTRUMENT_ANALOG/DIGITAL: D
INSTRUMENTAL_FREQUENCY_HZ: 
INSTRUMENTAL_DAMPING: 
FULL_SCALE_G: 
N_BIT_DIGITAL_CONVERTER: 18
PGD_CM: 0.746425
TIME_PGD_S: 48.065000
BASELINE_CORRECTION: BASELINE REMOVED
FILTER_TYPE: BUTTERWORTH
FILTER_ORDER: 2
LOW_CUT_FREQUENCY_HZ: 0.070
HIGH_CUT_FREQUENCY_HZ: 30.000
LATE/NORMAL_TRIGGERED: NT
DATABASE_VERSION: 0.5
HEADER_FORMAT: DYNA 1.2
DATA_TYPE: DISPLACEMENT
PROCESSING: manual (Paolucci et al., 2011)
DATA_TIMESTAMP_YYYYMMDD_HHMMSS: 20211011_160636.834
DATA_LICENSE: CC-BY3_0-IT (http://creativecommons.org/licenses/by/3.0/deed.en)
DATA_CITATION: Luzi L, Pacor F, Puglia R (2019). Italian Accelerometric Archive v 3.0 - Istituto Nazionale di Geofisica e Vulcanologia, Dipartimento della Protezione Civile Nazionale. doi: 10.13127/itaca.3.1
DATA_CREATOR: ITACA working group
ORIGINAL_DATA_MEDIATOR_CITATION: data obtained within the DPC-INGV data exchange agreements
ORIGINAL_DATA_MEDIATOR: Archive of Italian Department of Civil Protection
ORIGINAL_DATA_CREATOR_CITATION: Presidency Of Counsil Of Ministers-Civil Protection Department. (1972). Italian Strong Motion Network. Presidency of Counsil of Ministers - Civil Protection Department. https://doi.org/10.7914/SN/IT http://www.fdsn.org/networks/detail/IT/
ORIGINAL_DATA_CREATOR: network: IT (Italian Strong Motion Network (RAN)); owner: Presidency of Counsil of Ministers - Civil Protection Department (PCM - DPC)
USER1: 
USER2: 
USER3: 
USER4: 
USER5: 
[...]
-5.255026e-01
-5.254947e-01
-5.254640e-01
-5.254085e-01
-5.253263e-01
-5.252160e-01
-5.250761e-01
-5.249053e-01
-5.247026e-01
-5.244665e-01
-5.241956e-01
-5.238883e-01
-5.235427e-01
-5.231568e-01
-5.227284e-01
-5.222548e-01
-5.217332e-01
-5.211606e-01
-5.205337e-01
-5.198490e-01
-5.191031e-01
-5.182927e-01
-5.174146e-01
-5.164660e-01
-5.154443e-01
-5.143472e-01
-5.131728e-01
-5.119197e-01
-5.105865e-01
-5.091726e-01
-5.076776e-01
-5.061014e-01
-5.044445e-01
-5.027075e-01
-5.008916e-01
-4.989980e-01
-4.970285e-01
-4.949850e-01
-4.928700e-01
-4.906859e-01
-4.884353e-01
-4.861212e-01
-4.837463e-01
-4.813135e-01
-4.788261e-01
-4.762870e-01
-4.736998e-01
-4.710679e-01
-4.683949e-01
-4.656850e-01
-4.629423e-01
-4.601715e-01
-4.573779e-01
-4.545669e-01
-4.517448e-01
-4.489184e-01
-4.460950e-01
-4.432826e-01
-4.404896e-01
-4.377253e-01
-4.349991e-01
-4.323211e-01
-4.297020e-01
-4.271528e-01
-4.246850e-01
-4.223105e-01
-4.200416e-01
-4.178904e-01
-4.158694e-01
-4.139907e-01
-4.122662e-01
-4.107068e-01
-4.093230e-01
-4.081239e-01
-4.071175e-01
-4.063104e-01
-4.057075e-01
-4.053119e-01
-4.051251e-01
-4.051466e-01
-4.053743e-01
-4.058046e-01
-4.064320e-01
-4.072502e-01
-4.082516e-01
-4.094277e-01
-4.107691e-01
-4.122657e-01
-4.139071e-01
-4.156823e-01
-4.175805e-01
-4.195912e-01
-4.217042e-01
-4.239104e-01
-4.262009e-01
-4.285680e-01
-4.310042e-01
-4.335030e-01
-4.360577e-01
-4.386624e-01
-4.413110e-01
-4.439972e-01
-4.467144e-01
-4.494559e-01
-4.522146e-01
-4.549832e-01
-4.577545e-01
-4.605213e-01
-4.632767e-01
-4.660139e-01
-4.687264e-01
-4.714077e-01
-4.740512e-01
-4.766503e-01
-4.791981e-01
-4.816873e-01
-4.841106e-01
-4.864603e-01
-4.887282e-01
-4.909064e-01
-4.929862e-01
-4.949594e-01
-4.968177e-01
-4.985531e-01
-5.001583e-01
-5.016264e-01
-5.029512e-01
-5.041274e-01
-5.051509e-01
-5.060185e-01
-5.067283e-01
-5.072796e-01
-5.076734e-01
-5.079120e-01
-5.079993e-01
-5.079409e-01
-5.077440e-01
-5.074171e-01
-5.069704e-01
-5.064150e-01
-5.057631e-01
-5.050279e-01
-5.042227e-01
-5.033613e-01
-5.024573e-01
-5.015239e-01
-5.005738e-01
-4.996189e-01
-4.986703e-01
-4.977380e-01
-4.968312e-01
-4.959579e-01
-4.951252e-01
-4.943395e-01
-4.936058e-01
-4.929286e-01
-4.923114e-01
-4.917566e-01
-4.912662e-01
-4.908409e-01
-4.904806e-01
-4.901844e-01
-4.899504e-01
-4.897756e-01
-4.896562e-01
-4.895874e-01
-4.895637e-01
-4.895788e-01
-4.896260e-01
-4.896980e-01
-4.897869e-01
-4.898848e-01
-4.899836e-01
-4.900750e-01
-4.901508e-01
-4.902031e-01
-4.902242e-01
-4.902067e-01
-4.901443e-01
-4.900313e-01
-4.898633e-01
-4.896368e-01
-4.893496e-01
-4.890009e-01
-4.885908e-01
-4.881209e-01
-4.875939e-01
-4.870139e-01
-4.863857e-01
-4.857155e-01
-4.850103e-01
-4.842777e-01
-4.835261e-01
-4.827642e-01
-4.820008e-01
-4.812451e-01
-4.805058e-01
-4.797916e-01
-4.791103e-01
-4.784692e-01
-4.778743e-01
-4.773310e-01
-4.768433e-01
-4.764145e-01
-4.760469e-01
-4.757420e-01
-4.755006e-01
-4.753233e-01
-4.752101e-01
-4.751610e-01
-4.751757e-01
-4.752537e-01
-4.753948e-01
-4.755984e-01
-4.758640e-01
-4.761911e-01
-4.765787e-01
-4.770259e-01
-4.775315e-01
-4.780947e-01
-4.787145e-01
-4.793905e-01
-4.801224e-01
-4.809104e-01
-4.817551e-01
-4.826573e-01
-4.836179e-01
-4.846377e-01
-4.857172e-01
-4.868566e-01
-4.880555e-01
-4.893128e-01
-4.906268e-01
-4.919948e-01
-4.934135e-01
-4.948788e-01
-4.963859e-01
-4.979292e-01
-4.995026e-01
-5.010996e-01
-5.027129e-01
-5.043351e-01
-5.059584e-01
-5.075749e-01
-5.091765e-01
-5.107550e-01
-5.123027e-01
-5.138115e-01
-5.152737e-01
-5.166822e-01
-5.180299e-01
-5.193101e-01
-5.205167e-01
-5.216437e-01
-5.226856e-01
-5.236374e-01
-5.244940e-01
-5.252510e-01
-5.259041e-01
-5.264491e-01
-5.268823e-01
-5.271997e-01
-5.273977e-01
-5.274726e-01
-5.274207e-01
-5.272382e-01
-5.269218e-01
-5.264680e-01
-5.258738e-01
-5.251367e-01
-5.242548e-01
-5.232269e-01
-5.220529e-01
-5.207334e-01
-5.192704e-01
-5.176666e-01
-5.159253e-01
-5.140509e-01
-5.120478e-01
-5.099208e-01
-5.076750e-01
-5.053157e-01
-5.028481e-01
-5.002779e-01
-4.976109e-01
-4.948531e-01
-4.920109e-01
-4.890911e-01
-4.861007e-01
-4.830470e-01
-4.799376e-01
-4.767803e-01
-4.735831e-01
-4.703538e-01
-4.671004e-01
-4.638307e-01
-4.605524e-01
-4.572731e-01
-4.540000e-01
-4.507405e-01
-4.475014e-01
-4.442894e-01
-4.411109e-01
-4.379718e-01
-4.348778e-01
-4.318337e-01
-4.288442e-01
-4.259128e-01
-4.230427e-01
-4.202363e-01
-4.174956e-01
-4.148219e-01
-4.122164e-01
-4.096799e-01
-4.072129e-01
-4.048164e-01
-4.024909e-01
-4.002373e-01
-3.980561e-01
-3.959484e-01
-3.939147e-01
-3.919560e-01
-3.900728e-01
-3.882658e-01
-3.865350e-01
-3.848807e-01
-3.833024e-01
-3.817998e-01
-3.803718e-01
-3.790174e-01
-3.777350e-01
-3.765225e-01
-3.753776e-01
-3.742972e-01
-3.732778e-01
-3.723150e-01
-3.714036e-01
-3.705378e-01
-3.697110e-01
-3.689157e-01
-3.681443e-01
-3.673883e-01
-3.666392e-01
-3.658887e-01
-3.651283e-01
-3.643501e-01
-3.635468e-01
-3.627116e-01
-3.618386e-01
-3.609227e-01
-3.599594e-01
-3.589454e-01
-3.578779e-01
-3.567552e-01
-3.555762e-01
-3.543406e-01
-3.530486e-01
-3.517011e-01
-3.502996e-01
-3.488463e-01
-3.473438e-01
-3.457950e-01
-3.442032e-01
-3.425720e-01
-3.409052e-01
-3.392067e-01
-3.374800e-01
-3.357291e-01
-3.339573e-01
-3.321679e-01
-3.303640e-01
-3.285484e-01
-3.267232e-01
-3.248906e-01
-3.230522e-01
-3.212091e-01
-3.193619e-01
-3.175107e-01
-3.156547e-01
-3.137928e-01
-3.119227e-01
-3.100421e-01
-3.081479e-01
-3.062368e-01
-3.043054e-01
-3.023502e-01
-3.003676e-01
-2.983541e-01
-2.963058e-01
-2.942193e-01
-2.920906e-01
-2.899162e-01
-2.876922e-01
-2.854150e-01
-2.830810e-01
-2.806869e-01
-2.782295e-01
-2.757062e-01
-2.731148e-01
-2.704535e-01
-2.677212e-01
-2.649168e-01
-2.620396e-01
-2.590890e-01
-2.560645e-01
-2.529654e-01
-2.497912e-01
-2.465410e-01
-2.432141e-01
-2.398096e-01
-2.363263e-01
-2.327631e-01
-2.291182e-01
-2.253897e-01
-2.215756e-01
-2.176735e-01
-2.136816e-01
-2.095981e-01
-2.054217e-01
-2.011520e-01
-1.967894e-01
-1.923353e-01
-1.877922e-01
-1.831639e-01
-1.784553e-01
-1.736728e-01
-1.688236e-01
-1.639163e-01
-1.589600e-01
-1.539646e-01
-1.489404e-01
-1.438976e-01
-1.388467e-01
-1.337978e-01
-1.287608e-01
-1.237448e-01
-1.187583e-01
-1.138087e-01
-1.089024e-01
-1.040446e-01
-9.923924e-02
-9.448918e-02
-8.979612e-02
-8.516068e-02
-8.058245e-02
-7.606003e-02
-7.159104e-02
-6.717222e-02
-6.279971e-02
-5.846924e-02
-5.417635e-02
-4.991662e-02
-4.568592e-02
-4.148063e-02
-3.729780e-02
-3.313529e-02
-2.899180e-02
-2.486690e-02
-2.076100e-02
-1.667527e-02
-1.261162e-02
-8.572586e-03
-4.561206e-03
-5.808679e-04
3.364814e-03
7.272126e-03
1.113738e-02
1.495702e-02
1.872761e-02
2.244587e-02
2.610871e-02
2.971338e-02
3.325753e-02
3.673931e-02
4.015753e-02
4.351173e-02
4.680221e-02
5.003008e-02
5.319722e-02
5.630635e-02
5.936091e-02
6.236505e-02
6.532356e-02
6.824185e-02
7.112582e-02
7.398177e-02
7.681638e-02
7.963662e-02
8.244968e-02
8.526277e-02
8.808297e-02
9.091711e-02
9.377160e-02
9.665230e-02
9.956436e-02
1.025122e-01
1.054994e-01
1.085287e-01
1.116019e-01
1.147199e-01
1.178830e-01
1.210905e-01
1.243416e-01
1.276347e-01
1.309686e-01
1.343418e-01
1.377530e-01
1.412012e-01
1.446857e-01
1.482056e-01
1.517605e-01
1.553499e-01
1.589728e-01
1.626287e-01
1.663165e-01
1.700350e-01
1.737830e-01
1.775592e-01
1.813621e-01
1.851899e-01
1.890408e-01
1.929126e-01
1.968027e-01
2.007084e-01
2.046266e-01
2.085541e-01
2.124874e-01
2.164226e-01
2.203557e-01
2.242822e-01
2.281973e-01
2.320961e-01
2.359735e-01
2.398237e-01
2.436410e-01
2.474195e-01
2.511530e-01
2.548356e-01
2.584613e-01
2.620243e-01
2.655189e-01
2.689397e-01
2.722816e-01
2.755399e-01
2.787102e-01
2.817887e-01
2.847721e-01
2.876577e-01
2.904434e-01
2.931275e-01
2.957088e-01
2.981869e-01
3.005615e-01
3.028332e-01
3.050028e-01
3.070720e-01
3.090431e-01
3.109190e-01
3.127032e-01
3.144000e-01
3.160139e-01
3.175500e-01
3.190136e-01
3.204104e-01
3.217461e-01
3.230268e-01
3.242588e-01
3.254486e-01
3.266027e-01
3.277281e-01
3.288314e-01
3.299196e-01
3.309994e-01
3.320773e-01
3.331600e-01
3.342535e-01
3.353634e-01
3.364953e-01
3.376540e-01
3.388440e-01
3.400694e-01
3.413337e-01
3.426399e-01
3.439905e-01
3.453875e-01
3.468321e-01
3.483250e-01
3.498662e-01
3.514551e-01
3.530900e-01
3.547688e-01
3.564882e-01
3.582439e-01
3.600309e-01
3.618428e-01
3.636725e-01
3.655122e-01
3.673532e-01
3.691860e-01
3.710008e-01
3.727872e-01
3.745348e-01
3.762330e-01
3.778715e-01
3.794400e-01
3.809292e-01
3.823303e-01
3.836352e-01
3.848369e-01
3.859293e-01
3.869075e-01
3.877677e-01
3.885070e-01
3.891237e-01
3.896170e-01
3.899870e-01
3.902344e-01
3.903610e-01
3.903693e-01
3.902622e-01
3.900438e-01
3.897184e-01
3.892909e-01
3.887663e-01
3.881502e-01
3.874479e-01
3.866648e-01
3.858061e-01
3.848770e-01
3.838824e-01
3.828269e-01
3.817149e-01
3.805505e-01
3.793377e-01
3.780801e-01
3.767813e-01
3.754445e-01
3.740732e-01
3.726709e-01
3.712411e-01
3.697876e-01
3.683143e-01
3.668254e-01
3.653251e-01
3.638180e-01
3.623089e-01
3.608026e-01
3.593042e-01
3.578189e-01
3.563522e-01
3.549093e-01
3.534957e-01
3.521170e-01
3.507785e-01
3.494857e-01
3.482441e-01
3.470589e-01
3.459354e-01
3.448786e-01
3.438935e-01
3.429849e-01
3.421579e-01
3.414174e-01
3.407686e-01
3.402166e-01
3.397670e-01
3.394254e-01
3.391975e-01
3.390893e-01
3.391068e-01
3.392560e-01
3.395429e-01
3.399730e-01
3.405518e-01
3.412844e-01
3.421752e-01
3.432282e-01
3.444468e-01
3.458332e-01
3.473888e-01
3.491142e-01
3.510088e-01
3.530708e-01
3.552977e-01
3.576860e-01
3.602312e-01
3.629278e-01
3.657697e-01
3.687500e-01
3.718613e-01
3.750959e-01
3.784457e-01
3.819022e-01
3.854572e-01
3.891020e-01
3.928281e-01
3.966269e-01
4.004898e-01
4.044082e-01
4.083736e-01
4.123778e-01
4.164130e-01
4.204713e-01
4.245453e-01
4.286278e-01
4.327117e-01
4.367900e-01
4.408561e-01
4.449033e-01
4.489253e-01
4.529162e-01
4.568707e-01
4.607841e-01
4.646526e-01
4.684731e-01
4.722437e-01
4.759635e-01
4.796324e-01
4.832514e-01
4.868223e-01
4.903476e-01
4.938305e-01
4.972747e-01
5.006840e-01
5.040625e-01
5.074146e-01
5.107445e-01
5.140566e-01
5.173551e-01
5.206442e-01
5.239275e-01
5.272088e-01
5.304912e-01
5.337777e-01
5.370708e-01
5.403725e-01
5.436840e-01
5.470061e-01
5.503389e-01
5.536821e-01
5.570345e-01
5.603947e-01
5.637608e-01
5.671305e-01
5.705016e-01
5.738712e-01
5.772366e-01
5.805947e-01
5.839427e-01
5.872773e-01
5.905957e-01
5.938949e-01
5.971721e-01
6.004245e-01
6.036494e-01
6.068442e-01
6.100061e-01
6.131324e-01
6.162203e-01
6.192670e-01
6.222696e-01
6.252250e-01
6.281300e-01
6.309815e-01
6.337765e-01
6.365120e-01
6.391853e-01
6.417941e-01
6.443364e-01
6.468107e-01
6.492160e-01
6.515517e-01
6.538176e-01
6.560135e-01
6.581399e-01
6.601970e-01
6.621852e-01
6.641050e-01
6.659564e-01
6.677393e-01
6.694534e-01
6.710981e-01
6.726725e-01
6.741754e-01
6.756055e-01
6.769614e-01
6.782416e-01
6.794445e-01
6.805689e-01
6.816138e-01
6.825785e-01
6.834628e-01
6.842666e-01
6.849906e-01
6.856358e-01
6.862037e-01
6.866965e-01
6.871168e-01
6.874678e-01
6.877534e-01
6.879777e-01
6.881457e-01
6.882626e-01
6.883338e-01
6.883653e-01
6.883632e-01
6.883339e-01
6.882838e-01
6.882194e-01
6.881468e-01
6.880723e-01
6.880015e-01
6.879401e-01
6.878929e-01
6.878646e-01
6.878590e-01
6.878797e-01
6.879293e-01
6.880098e-01
6.881228e-01
6.882690e-01
6.884487e-01
6.886619e-01
6.889082e-01
6.891871e-01
6.894981e-01
6.898406e-01
6.902145e-01
6.906195e-01
6.910555e-01
6.915225e-01
6.920206e-01
6.925495e-01
6.931094e-01
6.936998e-01
6.943205e-01
6.949710e-01
6.956506e-01
6.963585e-01
6.970936e-01
6.978548e-01
6.986405e-01
6.994490e-01
7.002784e-01
7.011266e-01
7.019911e-01
7.028696e-01
7.037595e-01
7.046584e-01
7.055637e-01
7.064732e-01
7.073847e-01
7.082960e-01
7.092052e-01
7.101105e-01
7.110102e-01
7.119030e-01
7.127876e-01
7.136629e-01
7.145278e-01
7.153815e-01
7.162230e-01
7.170513e-01
7.178655e-01
7.186648e-01
7.194485e-01
7.202159e-01
7.209667e-01
7.217007e-01
7.224180e-01
7.231186e-01
7.238029e-01
7.244717e-01
7.251257e-01
7.257662e-01
7.263947e-01
7.270128e-01
7.276224e-01
7.282257e-01
7.288248e-01
7.294223e-01
7.300204e-01
7.306216e-01
7.312281e-01
7.318418e-01
7.324644e-01
7.330971e-01
7.337408e-01
7.343958e-01
7.350620e-01
7.357388e-01
7.364248e-01
7.371183e-01
7.378166e-01
7.385169e-01
7.392155e-01
7.399082e-01
7.405905e-01
7.412577e-01
7.419045e-01
7.425258e-01
7.431163e-01
7.436710e-01
7.441853e-01
7.446548e-01
7.450757e-01
7.454445e-01
7.457581e-01
7.460141e-01
7.462102e-01
7.463448e-01
7.464166e-01
7.464249e-01
7.463692e-01
7.462495e-01
7.460659e-01
7.458188e-01
7.455090e-01
7.451372e-01
7.447043e-01
7.442116e-01
7.436599e-01
7.430506e-01
7.423846e-01
7.416629e-01
7.408864e-01
7.400558e-01
7.391721e-01
7.382360e-01
7.372486e-01
7.362106e-01
7.351228e-01
7.339860e-01
7.328005e-01
7.315662e-01
7.302829e-01
7.289497e-01
7.275650e-01
7.261270e-01
7.246331e-01
7.230802e-01
7.214649e-01
7.197830e-01
7.180303e-01
7.162022e-01
7.142939e-01
7.123006e-01
7.102173e-01
7.080391e-01
7.057614e-01
7.033797e-01
7.008901e-01
6.982887e-01
6.955723e-01
6.927381e-01
6.897835e-01
6.867065e-01
6.835055e-01
6.801793e-01
6.767275e-01
6.731499e-01
6.694470e-01
6.656199e-01
6.616699e-01
6.575989e-01
6.534091e-01
6.491027e-01
6.446825e-01
6.401513e-01
6.355121e-01
6.307680e-01
6.259220e-01
6.209775e-01
6.159377e-01
6.108059e-01
6.055857e-01
6.002806e-01
5.948941e-01
5.894299e-01
5.838916e-01
5.782827e-01
5.726068e-01
5.668670e-01
5.610667e-01
5.552085e-01
5.492951e-01
5.433282e-01
5.373093e-01
5.312391e-01
5.251180e-01
5.189458e-01
5.127217e-01
5.064449e-01
5.001140e-01
4.937273e-01
4.872833e-01
4.807798e-01
4.742147e-01
4.675860e-01
4.608915e-01
4.541293e-01
4.472977e-01
4.403951e-01
4.334202e-01
4.263718e-01
4.192492e-01
4.120515e-01
4.047786e-01
3.974304e-01
3.900073e-01
3.825104e-01
3.749414e-01
3.673027e-01
3.595973e-01
3.518290e-01
3.440022e-01
3.361219e-01
3.281938e-01
3.202240e-01
3.122194e-01
3.041874e-01
2.961360e-01
2.880737e-01
2.800094e-01
2.719526e-01
2.639128e-01
2.558997e-01
2.479229e-01
2.399922e-01
2.321173e-01
2.243077e-01
2.165731e-01
2.089226e-01
2.013651e-01
1.939094e-01
1.865636e-01
1.793356e-01
1.722326e-01
1.652613e-01
1.584280e-01
1.517381e-01
1.451965e-01
1.388074e-01
1.325741e-01
1.264995e-01
1.205856e-01
1.148339e-01
1.092453e-01
1.038202e-01
9.855816e-02
9.345848e-02
8.851970e-02
8.373982e-02
7.911624e-02
7.464589e-02
7.032525e-02
6.615048e-02
6.211742e-02
5.822171e-02
5.445882e-02
5.082408e-02
4.731277e-02
4.392023e-02
4.064197e-02
3.747372e-02
3.441147e-02
3.145149e-02
2.859032e-02
2.582479e-02
2.315198e-02
2.056929e-02
1.807439e-02
1.566535e-02
1.334049e-02
1.109842e-02
8.937899e-03
6.857806e-03
4.857018e-03
2.934314e-03
1.088327e-03
-6.824918e-04
-2.379899e-03
-4.005895e-03
-5.562716e-03
-7.052793e-03
-8.478693e-03
-9.843074e-03
-1.114866e-02
-1.239819e-02
-1.359443e-02
-1.474009e-02
-1.583773e-02
-1.688967e-02
-1.789796e-02
-1.886433e-02
-1.979018e-02
-2.067660e-02
-2.152448e-02
-2.233462e-02
-2.310776e-02
-2.384466e-02
-2.454617e-02
-2.521322e-02
-2.584693e-02
-2.644866e-02
-2.702019e-02
-2.756377e-02
-2.808215e-02
-2.857846e-02
-2.905617e-02
-2.951893e-02
-2.997053e-02
-3.041476e-02
-3.085539e-02
-3.129609e-02
-3.174042e-02
-3.219176e-02
-3.265334e-02
-3.312816e-02
-3.361904e-02
-3.412851e-02
-3.465892e-02
-3.521241e-02
-3.579098e-02
-3.639649e-02
-3.703059e-02
-3.769469e-02
-3.838990e-02
-3.911692e-02
-3.987600e-02
-4.066696e-02
-4.148913e-02
-4.234130e-02
-4.322181e-02
-4.412859e-02
-4.505917e-02
-4.601078e-02
-4.698031e-02
-4.796446e-02
-4.895975e-02
-4.996259e-02
-5.096931e-02
-5.197619e-02
-5.297946e-02
-5.397529e-02
-5.495976e-02
-5.592888e-02
-5.687856e-02
-5.780465e-02
-5.870301e-02
-5.956946e-02
-6.039991e-02
-6.119023e-02
-6.193618e-02
-6.263337e-02
-6.327724e-02
-6.386306e-02
-6.438597e-02
-6.484097e-02
-6.522296e-02
-6.552669e-02
-6.574677e-02
-6.587760e-02
-6.591351e-02
-6.584874e-02
-6.567752e-02
-6.539417e-02
-6.499322e-02
-6.446948e-02
-6.381803e-02
-6.303426e-02
-6.211388e-02
-6.105296e-02
-5.984795e-02
-5.849572e-02
-5.699362e-02
-5.533945e-02
-5.353150e-02
-5.156850e-02
-4.944971e-02
-4.717487e-02
-4.474430e-02
-4.215887e-02
-3.942003e-02
-3.652982e-02
-3.349080e-02
-3.030600e-02
-2.697898e-02
-2.351371e-02
-1.991455e-02
-1.618622e-02
-1.233383e-02
-8.362859e-03
-4.279144e-03
-8.892671e-05
4.201136e-03
8.583971e-03
1.305216e-02
1.759805e-02
2.221375e-02
2.689122e-02
3.162223e-02
3.639841e-02
4.121125e-02
4.605217e-02
5.091245e-02
5.578339e-02
6.065631e-02
6.552263e-02
7.037396e-02
7.520218e-02
7.999946e-02
8.475830e-02
8.947153e-02
9.413233e-02
9.873424e-02
1.032712e-01
1.077376e-01
1.121284e-01
1.164389e-01
1.206649e-01
1.248027e-01
1.288489e-01
1.328005e-01
1.366550e-01
1.404099e-01
1.440634e-01
1.476134e-01
1.510583e-01
1.543961e-01
1.576250e-01
1.607430e-01
1.637477e-01
1.666369e-01
1.694081e-01
1.720589e-01
1.745867e-01
1.769892e-01
1.792638e-01
1.814081e-01
1.834198e-01
1.852970e-01
1.870381e-01
1.886421e-01
1.901085e-01
1.914374e-01
1.926296e-01
1.936867e-01
1.946108e-01
1.954050e-01
1.960731e-01
1.966196e-01
1.970498e-01
1.973696e-01
1.975853e-01
1.977039e-01
1.977325e-01
1.976787e-01
1.975499e-01
1.973542e-01
1.970996e-01
1.967940e-01
1.964455e-01
1.960623e-01
1.956525e-01
1.952240e-01
1.947846e-01
1.943421e-01
1.939038e-01
1.934767e-01
1.930673e-01
1.926819e-01
1.923263e-01
1.920057e-01
1.917246e-01
1.914872e-01
1.912971e-01
1.911570e-01
1.910695e-01
1.910363e-01
1.910589e-01
1.911379e-01
1.912737e-01
1.914660e-01
1.917139e-01
1.920160e-01
1.923703e-01
1.927743e-01
1.932251e-01
1.937194e-01
1.942532e-01
1.948224e-01
1.954223e-01
1.960477e-01
1.966932e-01
1.973530e-01
1.980213e-01
1.986921e-01
1.993601e-01
2.000202e-01
2.006678e-01
2.012990e-01
2.019104e-01
2.024996e-01
2.030647e-01
2.036045e-01
2.041187e-01
2.046075e-01
2.050719e-01
2.055132e-01
