EVENT_NAME: L_AQUILA
EVENT_ID: IT-2009-0009
EVENT_DATE_YYYYMMDD: 20090406
EVENT_TIME_HHMMSS: 013240
EVENT_LATITUDE_DEGREE: 42.3420
EVENT_LONGITUDE_DEGREE: 13.3800
EVENT_DEPTH_KM: 8.3
HYPOCENTER_REFERENCE: INGV-CNT_Seismic_Bulletin
MAGNITUDE_W: 6.1
MAGNITUDE_W_REFERENCE: INGV-CNT_Seismic_Bulletin
MAGNITUDE_L: 
MAGNITUDE_L_REFERENCE: 
FOCAL_MECHANISM: Normal faulting
NETWORK: IT
STATION_CODE: CSS
STATION_NAME: 
STATION_LATITUDE_DEGREE: 41.485790
STATION_LONGITUDE_DEGREE: 13.823090
STATION_ELEVATION_M: 166
LOCATION: 
SENSOR_DEPTH_M: 0.0
VS30_M/S: 648
SITE_CLASSIFICATION_EC8: B
MORPHOLOGIC_CLASSIFICATION: 
EPICENTRAL_DISTANCE_KM: 102.0
EARTHQUAKE_BACKAZIMUTH_DEGREE: 158.7
DATE_TIME_FIRST_SAMPLE_YYYYMMDD_HHMMSS: 20090406_013234.000
DATE_TIME_FIRST_SAMPLE_PRECISION: seconds
SAMPLING_INTERVAL_S: 0.005000
NDATA: 24000
DURATION_S: 120.000
STREAM: HNN
UNITS: cm/s^2
INSTRUMENT: sensor = FBA-3 [Kinemetrics] | digitizer = Etna [Kinemetrics]
INSTRUMENT_ANALOG/DIGITAL: D
INSTRUMENTAL_FREQUENCY_HZ: 
INSTRUMENTAL_DAMPING: 
FULL_SCALE_G: 
N_BIT_DIGITAL_CONVERTER: 18
PGA_CM/S^2: -9.435636
TIME_PGA_S: 44.525000
BASELINE_CORRECTION: BASELINE NOT REMOVED
FILTER_TYPE: 
FILTER_ORDER: 
LOW_CUT_FREQUENCY_HZ: 
HIGH_CUT_FREQUENCY_HZ: 
LATE/NORMAL_TRIGGERED: NT
DATABASE_VERSION: 0.5
HEADER_FORMAT: DYNA 1.2
DATA_TYPE: ACCELERATION
PROCESSING: converted to cm/s^2
DATA_TIMESTAMP_YYYYMMDD_HHMMSS: 20211011_160637.100
DATA_LICENSE: CC-BY3_0-IT (http://creativecommons.org/licenses/by/3.0/deed.en)
DATA_CITATION: Luzi L, Pacor F, Puglia R (2019). Italian Accelerometric Archive v 3.0 - Istituto Nazionale di Geofisica e Vulcanologia, Dipartimento della Protezione Civile Nazionale. doi: 10.13127/itaca.3.1
DATA_CREATOR: ITACA working group
ORIGINAL_DATA_MEDIATOR_CITATION: data obtained within the DPC-INGV data exchange agreements
ORIGINAL_DATA_MEDIATOR: Archive of Italian Department of Civil Protection
ORIGINAL_DATA_CREATOR_CITATION: Presidency Of Counsil Of Ministers-Civil Protection Department. (1972). Italian Strong Motion Network. Presidency of Counsil of Ministers - Civil Protection Department. https://doi.org/10.7914/SN/IT http://www.fdsn.org/networks/detail/IT/
ORIGINAL_DATA_CREATOR: network: IT (Italian Strong Motion Network (RAN)); owner: Presidency of Counsil of Ministers - Civil Protection Department (PCM - DPC)
USER1: 
USER2: 
USER3: 
USER4: 
USER5: 
[...]
-0.584960
-0.453825
-0.358050
-0.268831
-0.157367
-0.055034
-0.018972
0.020603
0.102562
0.172579
0.240956
0.319871
0.432975
0.575819
0.712105
0.882581
1.092163
1.309941
1.542237
1.781558
2.013386
2.255049
2.473764
2.663675
2.852182
2.998304
3.108129
3.195240
3.273921
3.330356
3.338318
3.333400
3.321223
3.306939
3.270877
3.216784
3.158242
3.101572
3.051226
2.954748
2.851479
2.757343
2.629721
2.475403
2.293921
2.116421
1.931427
1.683909
1.448101
1.251398
1.018166
0.790084
0.599001
0.430399
0.281467
0.145649
0.056431
-0.017801
-0.091097
-0.125285
-0.167904
-0.195536
-0.175397
-0.194365
-0.208181
-0.201156
-0.225510
-0.238857
-0.289204
-0.339082
-0.386618
-0.477008
-0.534145
-0.612592
-0.688932
-0.743493
-0.799694
-0.807890
-0.816554
-0.791263
-0.721012
-0.653806
-0.548664
-0.402308
-0.256888
-0.127393
0.043317
0.212622
0.339542
0.510485
0.675575
0.806944
0.939250
1.056803
1.153281
1.211121
1.276923
1.305023
1.290270
1.302213
1.251164
1.178571
1.109725
0.980698
0.844177
0.674170
0.463417
0.252665
0.007021
-0.252439
-0.517519
-0.798757
-1.068754
-1.342499
-1.601022
-1.842451
-2.049223
-2.192534
-2.322499
-2.427173
-2.476348
-2.475411
-2.432793
-2.371440
-2.273089
-2.133992
-1.977333
-1.798193
-1.629357
-1.444831
-1.232205
-1.062432
-0.891488
-0.724993
-0.595029
-0.446566
-0.313792
-0.196238
-0.068850
0.058538
0.213558
0.362490
0.523599
0.722643
0.913960
1.122371
1.339680
1.566356
1.794906
1.995589
2.193228
2.340989
2.438872
2.510762
2.516148
2.455967
2.359020
2.224841
2.021816
1.798418
1.558395
1.286055
1.058911
0.818418
0.575116
0.385205
0.194825
0.052684
-0.071426
-0.196238
-0.266958
-0.325968
-0.379827
-0.445161
-0.518690
-0.571378
-0.658724
-0.788219
-0.910456
-1.027541
-1.145797
-1.270140
-1.373878
-1.434293
-1.477615
-1.499393
-1.477615
-1.415091
-1.321424
-1.189586
-1.025902
-0.815617
-0.582853
-0.341189
-0.062996
0.197635
0.454753
0.716555
0.948383
1.177869
1.378318
1.548325
1.691403
1.801931
1.893960
1.935876
1.961166
1.973109
1.963040
1.933534
1.879441
1.846657
1.790691
1.741749
1.707326
1.623494
1.578767
1.550433
1.469176
1.396817
1.344832
1.265448
1.148129
1.041582
0.954471
0.837386
0.705080
0.589869
0.486834
0.401362
0.307461
0.232292
0.209109
0.183350
0.173515
0.169769
0.165319
0.176326
0.157826
0.154079
0.134877
0.103733
0.095771
0.025520
-0.036301
-0.086882
-0.188043
-0.278666
-0.371866
-0.469280
-0.568802
-0.675115
-0.744664
-0.803206
-0.855426
-0.900855
-0.948860
-0.944645
-0.947689
-0.977194
-0.975555
-0.974619
-0.980707
-1.008104
-1.041825
-1.064071
-1.118398
-1.188884
-1.266160
-1.340860
-1.422351
-1.528898
-1.623971
-1.728176
-1.825825
-1.909892
-1.998408
-2.059292
-2.116664
-2.155770
-2.179187
-2.197218
-2.179187
-2.139847
-2.084817
-2.008477
-1.904740
-1.805687
-1.716234
-1.593997
-1.466609
-1.350226
-1.231737
-1.120975
-0.999440
-0.870413
-0.745834
-0.624066
-0.510729
-0.381701
-0.252674
-0.128564
0.008426
0.139326
0.283107
0.414944
0.534371
0.684473
0.820058
0.955642
1.081625
1.187704
1.298700
1.362395
1.423513
1.486270
1.487441
1.481587
1.465195
1.403843
1.338743
1.249759
1.126820
0.993577
0.848158
0.723814
0.598065
0.441405
0.307929
0.230418
0.144244
0.038634
-0.023421
-0.065103
-0.083837
-0.099995
-0.138165
-0.154088
-0.165796
-0.174461
-0.209352
-0.256186
-0.262743
-0.283818
-0.314962
-0.342360
-0.354303
-0.326671
-0.307001
-0.302317
-0.278198
-0.223636
-0.170948
-0.131374
-0.090394
-0.064401
-0.040984
-0.040047
-0.083837
-0.151278
-0.222232
-0.308406
-0.451249
-0.608611
-0.785409
-0.979770
-1.138771
-1.319316
-1.504779
-1.649730
-1.770327
-1.871722
-1.964453
-2.010585
-2.032363
-2.047350
-2.005433
-1.985763
-1.970073
-1.899822
-1.861887
-1.858609
-1.856970
-1.849242
-1.882494
-1.938695
-1.975928
-2.036109
-2.073811
-2.104721
-2.135865
-2.129309
-2.108702
-2.061634
-1.976162
-1.845027
-1.686026
-1.503374
-1.273887
-1.031990
-0.786346
-0.550069
-0.311216
-0.053161
0.143542
0.331814
0.524536
0.671360
0.806710
0.889138
0.972970
1.059613
1.100125
1.157496
1.203159
1.246246
1.304789
1.344129
1.387919
1.435690
1.486270
1.530528
1.547388
1.566122
1.578767
1.534743
1.464024
1.409228
1.314858
1.185128
1.066170
0.919814
0.752383
0.604856
0.431570
0.241659
0.098113
-0.039111
-0.184296
-0.295527
-0.362265
-0.410504
-0.455464
-0.480052
-0.459211
-0.414017
-0.384745
-0.307469
-0.194599
-0.097887
0.031140
0.169300
0.303246
0.455924
0.604621
0.746529
0.888435
1.026361
1.145319
1.220956
1.285587
1.334997
1.319541
1.280903
1.232430
1.127757
0.985850
0.838557
0.666911
0.474424
0.259924
0.039804
-0.181252
-0.422680
-0.643502
-0.857299
-1.052831
-1.210427
-1.363340
-1.471995
-1.535221
-1.578776
-1.597275
-1.579713
-1.530771
-1.466609
-1.374580
-1.266160
-1.136430
-0.991479
-0.839737
-0.670432
-0.496678
-0.309577
-0.127627
0.049639
0.242830
0.417988
0.575585
0.715384
0.821228
0.910915
0.967350
0.984679
0.976951
0.947914
0.892650
0.806944
0.727326
0.642791
0.548187
0.454519
0.378648
0.327833
0.260158
0.219413
0.188268
0.161105
0.170003
0.161105
0.170237
0.203723
0.223862
0.236741
0.245873
0.252899
0.254070
0.246342
0.227140
0.209577
0.184287
0.149162
0.118485
0.106309
0.111929
0.087809
0.073759
0.092727
0.087107
0.088278
0.110992
0.124105
0.173750
0.252665
0.301138
0.361085
0.453817
0.524536
0.532732
0.546782
0.568559
0.490815
0.417520
0.318466
0.121764
-0.038408
-0.245414
-0.519392
-0.769720
-1.003890
-1.242274
-1.492602
-1.678298
-1.816692
-1.948296
-2.031426
-2.052970
-2.048520
-2.016439
-1.940100
-1.852755
-1.739885
-1.631932
-1.535221
-1.419072
-1.323297
-1.242040
-1.168745
-1.119101
-1.109500
-1.120975
-1.133385
-1.178814
-1.217218
-1.255153
-1.309481
-1.308310
-1.294962
-1.263115
-1.170853
-1.058919
-0.907880
-0.723823
-0.506982
-0.254078
0.018963
0.331346
0.624760
0.903422
1.238519
1.534041
1.761185
2.005658
2.241936
2.410772
2.532306
2.655479
2.757578
2.821974
2.857333
2.874428
2.894801
2.921496
2.947957
2.951236
2.980741
3.032024
3.041391
3.058719
3.074643
3.066447
3.058017
3.018208
2.933439
2.822442
2.679364
2.477276
2.243809
1.979900
1.672669
1.356072
1.026127
0.680961
0.338371
0.005616
-0.325968
-0.646079
-0.935746
-1.188649
-1.407598
-1.577371
-1.701013
-1.808730
-1.842685
-1.839641
-1.850178
-1.805687
-1.734967
-1.661204
-1.581352
-1.500798
-1.411110
-1.313462
-1.209725
-1.152353
-1.075546
-0.945816
-0.839737
-0.730848
-0.613997
-0.462489
-0.283818
-0.152917
-0.029744
0.131599
0.298094
0.439064
0.546313
0.644664
0.764091
0.843709
0.887499
0.927307
0.934567
0.953066
0.939250
0.886093
0.864316
0.830595
0.778844
0.726624
0.672297
0.613286
0.545845
0.495264
0.434615
0.368579
0.326194
0.269056
0.214729
0.153845
0.066032
-0.018972
-0.124817
-0.251737
-0.393644
-0.551474
-0.724993
-0.919354
-1.111608
-1.307374
-1.492367
-1.667760
-1.830977
-1.962346
-2.078963
-2.162561
-2.242647
-2.311727
-2.326246
-2.347087
-2.361137
-2.344511
-2.344511
-2.328353
-2.291823
-2.251311
-2.186212
-2.111980
-2.004965
-1.868444
-1.723259
-1.552549
-1.366853
-1.139005
-0.889381
-0.653103
-0.376783
-0.083369
0.198103
0.496435
0.769243
1.028234
1.277157
1.485802
1.680631
1.821133
1.957420
2.080359
2.131407
2.201893
2.244980
2.269099
2.291345
2.282447
2.303756
2.308206
2.303522
2.311484
2.315933
2.344033
2.358318
2.366045
2.396956
2.402810
2.383608
2.361362
2.319914
2.256922
2.166767
2.058112
1.919250
1.775001
1.601716
1.373869
1.176230
0.932927
0.662696
0.418691
0.127384
-0.137930
-0.392004
-0.658021
-0.906475
-1.163125
-1.362638
-1.559574
-1.783908
-1.915980
-2.029318
-2.154599
-2.220869
-2.267703
-2.286437
-2.298613
-2.301892
-2.259742
-2.213376
-2.165839
-2.111980
-2.029084
-1.917854
-1.804750
-1.672678
-1.516019
-1.341797
-1.160081
-0.968530
-0.755904
-0.520564
-0.260167
0.011704
0.270695
0.564579
0.861506
1.109960
1.364970
1.588837
1.782729
1.961166
2.087852
2.182222
2.255986
2.281510
2.244043
2.196273
2.110567
1.972172
1.834246
1.672903
1.485802
1.273176
1.049544
0.834810
0.618438
0.414476
0.207938
0.031843
-0.100931
-0.258060
-0.389663
-0.464597
-0.553581
-0.639990
-0.697596
-0.756138
-0.797118
-0.813510
-0.863622
-0.908817
-0.888444
-0.891722
-0.918652
-0.886336
-0.834585
-0.790561
-0.737170
-0.645376
-0.537424
-0.434155
-0.287096
-0.140038
0.004679
0.172813
0.319871
0.468803
0.616330
0.733415
0.843006
0.931757
1.009969
1.071790
1.068511
1.064999
1.053993
0.980698
0.874853
0.732244
0.580502
0.383800
0.141668
-0.096951
-0.356879
-0.573954
-0.769018
-0.998738
-1.180688
-1.288406
-1.413921
-1.547866
-1.597510
-1.636616
-1.682981
-1.684855
-1.683450
-1.669868
-1.655818
-1.644812
-1.616711
-1.620692
-1.625142
-1.599617
-1.599383
-1.585099
-1.544353
-1.514380
-1.464501
-1.379029
-1.272014
-1.165701
-1.032927
-0.863154
-0.699469
-0.530633
-0.336272
-0.115450
0.083126
0.284746
0.534605
0.740674
0.935035
1.167800
1.379489
1.581811
1.798653
2.001678
2.173558
2.372837
2.574925
2.718705
2.880750
3.038815
3.146533
3.228961
3.277434
3.304363
3.273921
3.193133
3.073706
2.876535
2.653137
2.378457
2.002614
1.602886
1.190514
0.707422
0.187800
-0.326671
-0.840205
-1.346011
-1.841280
-2.317113
-2.740960
-3.107435
-3.444874
-3.739459
-3.983698
-4.172673
-4.300295
-4.395602
-4.450632
-4.463980
-4.418551
-4.337295
-4.265404
-4.162604
-4.035215
-3.898695
-3.762174
-3.619096
-3.465715
-3.314910
-3.128511
-2.950542
-2.771636
-2.541214
-2.311493
-2.072406
-1.797256
-1.500798
-1.178346
-0.833180
-0.470919
-0.077046
0.327833
0.724048
1.119795
1.508985
1.892789
2.261606
2.575393
2.861314
3.139274
3.343704
3.493104
3.631498
3.725166
3.761462
3.778323
3.759121
3.691680
3.612765
3.506217
3.365247
3.187513
3.015398
2.836726
2.582653
2.338179
2.093472
1.774767
1.468239
1.154920
0.821462
0.506973
0.159699
-0.130437
-0.389897
-0.679096
-0.902963
-1.098260
-1.246255
-1.351866
-1.459115
-1.505949
-1.521170
-1.522810
-1.499861
-1.477615
-1.419307
-1.340391
-1.270374
-1.199421
-1.113247
-0.989371
-0.876267
-0.772764
-0.650762
-0.499488
-0.339316
-0.186403
0.004679
0.212153
0.441874
0.676512
0.916770
1.194261
1.436860
1.668923
1.908946
2.109864
2.283384
2.428101
2.538863
2.603728
2.621759
2.608411
2.560641
2.477979
2.375412
2.256688
2.121104
2.000038
1.883656
1.744325
1.614127
1.494700
1.364736
1.225405
1.057271
0.875556
0.681195
0.439532
0.181711
-0.098824
-0.395049
-0.695020
-1.019345
-1.298475
-1.561448
-1.813414
-1.982485
-2.128841
-2.218527
-2.223445
-2.204009
-2.113151
-1.948764
-1.756511
-1.522107
-1.256793
-0.983282
-0.696659
-0.408865
-0.149405
0.059475
0.236038
0.388015
0.479809
0.555914
0.621482
0.631317
0.651690
0.703441
0.715149
0.713979
0.788445
0.884220
0.978825
1.148129
1.375508
1.648081
1.946648
2.275890
2.655245
3.027575
3.405759
3.782538
4.125830
4.469826
4.786423
5.043541
5.268110
5.460597
5.605548
5.706475
5.756588
5.776492
5.741835
5.640908
5.502748
5.306748
5.076559
4.790170
4.459054
4.116698
3.727508
3.313262
2.883561
2.458777
2.017835
1.549262
1.099890
0.647475
0.193186
-0.258060
-0.712349
-1.145797
-1.562384
-1.978035
-2.389705
-2.760162
-3.099942
-3.435039
-3.758193
-4.067062
-4.337997
-4.585280
-4.841930
-5.090384
-5.284276
-5.444917
-5.626398
-5.785165
-5.884687
-5.954001
-6.005753
-6.021208
-5.996152
-5.926838
-5.834341
-5.708123
-5.533433
-5.347502
-5.119889
-4.855980
-4.580831
-4.283669
-3.956534
-3.615818
-3.278614
-2.905347
-2.504683
-2.104721
-1.675956
-1.209959
-0.755904
-0.296697
0.188034
0.664569
1.127054
1.568698
2.010810
2.446131
2.847498
3.218189
3.552583
3.850915
4.102413
4.284597
4.411517
4.497458
4.526260
4.512210
4.456946
4.367494
4.245959
4.098198
3.947627
3.754437
3.534786
3.304832
3.049353
2.786848
2.514275
2.236315
1.933534
1.629816
1.335934
1.008798
0.687284
0.383800
0.059475
-0.263680
-0.533209
-0.782599
-1.036673
-1.245553
-1.406896
-1.517892
-1.590719
-1.632167
-1.610155
-1.527727
-1.398231
-1.239230
-1.024263
-0.753328
-0.459211
-0.146126
0.183350
0.548889
0.917238
1.274581
1.631455
1.987159
2.351293
2.690839
2.995962
3.296636
3.594031
3.830542
4.031226
4.240808
4.416903
4.570050
4.699546
4.823890
4.967436
5.080306
5.164607
5.255465
5.344683
5.393625
5.435775
5.457553
5.427814
5.389175
5.288717
5.158284
5.012865
4.826700
4.629061
4.375455
4.121147
3.872693
3.591221
3.309281
3.015398
2.736736
2.449644
2.139838
1.825816
1.487675
1.134547
0.733415
0.303480
-0.127627
-0.608611
-1.119804
-1.656286
-2.203306
-2.758523
-3.348162
-3.905720
-4.445714
-4.990627
-5.514231
-6.002943
-6.431707
-6.863516
-7.272845
-7.625739
-7.961070
-8.264319
-8.559841
-8.799865
-8.996801
-9.188821
-9.315507
-9.403554
-9.435636
-9.401681
-9.333537
-9.200997
-9.018345
-8.788157
-8.490995
-8.172056
-7.802771
-7.372133
-6.947349
-6.479244
-5.989595
-5.499244
-4.974938
-4.468429
-3.940377
-3.425672
-2.908391
-2.375187
-1.901228
-1.386991
-0.896406
-0.456869
0.008192
0.457329
0.873683
1.265448
1.683909
2.085510
2.452688
2.814480
3.156602
3.481395
3.789094
4.071737
4.299116
4.487856
4.645453
4.764177
4.812181
4.813118
4.810777
4.748253
4.644048
4.509634
4.347823
4.179689
3.994461
3.801272
3.560076
3.315838
3.101807
2.838366
2.532774
2.233974
1.933300
1.604292
1.276688
0.952597
0.616798
0.309568
0.017324
-0.296697
-0.578638
-0.823579
-1.061964
-1.270140
-1.458179
-1.616009
-1.757447
-1.889285
-2.012458
-2.158112
-2.287139
-2.424831
-2.592497
-2.756415
-2.937428
-3.096430
-3.243254
-3.385863
-3.487258
-3.567110
-3.586312
-3.568984
-3.516764
-3.398274
-3.243020
-3.040229
-2.807932
-2.535359
-2.234685
-1.922069
-1.597744
-1.268501
-0.922633
-0.584960
-0.252205
0.081253
0.420330
0.747933
1.056569
1.366610
1.674543
1.988798
2.287833
2.589209
2.906743
3.221467
3.538767
3.834992
4.129343
4.428378
4.691350
4.921773
5.133931
5.324779
5.461768
5.534829
5.590561
5.610232
5.568784
5.502045
5.399479
5.262256
5.099976
4.904913
4.698141
4.484344
4.259073
4.048086
3.849276
3.626347
3.428941
3.242308
3.032024
2.839771
2.643537
2.448707
2.246853
2.050385
1.863049
1.641291
1.428665
1.235943
1.045797
0.861037
0.670658
0.499245
0.361085
0.225267
0.081253
-0.041218
-0.125285
-0.207713
-0.297400
-0.349152
-0.360860
-0.370461
-0.358050
-0.299273
-0.205605
-0.077749
0.062285
0.223628
0.411432
0.594084
0.788679
0.976015
1.149534
1.342022
1.522098
1.686485
1.866328
2.053429
2.238423
2.429974
2.635809
2.854055
3.071130
3.290547
3.497085
3.683250
3.869649
4.002891
4.087895
4.156741
4.168215
4.106160
3.992588
3.866370
3.669434
3.401778
3.134825
2.816588
2.470953
2.107991
1.717162
1.334060
0.940889
0.543972
0.142371
-0.233472
-0.604162
-0.984688
-1.337113
-1.673146
-1.989275
-2.312429
-2.624812
-2.911669
-3.205084
-3.503416
-3.799407
-4.080879
-4.355091
-4.630006
-4.889935
-5.115206
-5.319636
-5.500883
-5.633189
-5.713041
-5.725920
-5.684238
-5.588463
-5.414240
-5.174685
-4.878226
-4.541256
-4.167756
-3.742270
-3.299689
-2.853830
-2.399072
-1.941505
-1.483703
-1.056109
-0.649591
-0.255718
0.095302
0.409558
0.709529
0.984679
1.200349
1.383236
1.559800
1.705687
1.819962
1.903561
1.980602
2.054834
2.089960
2.098155
2.093472
2.052024
1.979197
1.875460
1.743389
1.591178
1.397052
1.173185
0.932693
0.674872
0.399255
0.099049
-0.236515
-0.571144
-0.900152
-1.264052
-1.639192
-2.006604
-2.361605
-2.724802
-3.083550
-3.404831
-3.674828
-3.904315
-4.119048
-4.245500
-4.289289
-4.314579
-4.278986
-4.171268
-3.999622
-3.793084
-3.580926
-3.317251
-3.047254
-2.791072
-2.528334
-2.317113
-2.103785
-1.908019
-1.769156
-1.631698
-1.521170
-1.409237
-1.301051
-1.212769
-1.108329
-1.004592
-0.887039
-0.751220
-0.611421
-0.437901
-0.236047
-0.048243
0.154079
0.390356
0.637640
0.871341
1.093334
1.353028
1.619513
1.845019
2.078017
2.333028
2.561577
2.783570
3.014461
3.235518
3.455168
3.653276
3.843188
4.029118
4.168684
4.280148
4.366557
4.415030
4.415498
4.346184
4.248067
4.102882
3.890490
3.653042
3.356115
3.007436
2.656416
2.257157
1.808254
1.376445
0.916536
0.418223
-0.073065
-0.596903
-1.139239
-1.686962
-2.260912
-2.818002
-3.371110
-3.917428
-4.432836
-4.933959
-5.381457
-5.798513
-6.179507
-6.492591
-6.776639
-7.001677
-7.154589
-7.250131
-7.292281
-7.272611
-7.182924
-7.055301
-6.868200
-6.637777
-6.383000
-6.069213
-5.724984
-5.369982
-5.010064
-4.638202
-4.257442
-3.902910
-3.590293
-3.269949
-2.948668
-2.674924
-2.426236
-2.185041
-1.946657
-1.749017
-1.568707
-1.389099
-1.223775
-1.062666
-0.920993
-0.767613
-0.633667
-0.524779
-0.414017
-0.337443
-0.288970
-0.265553
-0.270939
-0.296229
-0.357347
-0.450313
-0.565290
-0.702982
-0.846293
-1.010446
-1.203636
-1.394485
-1.589080
-1.788124
-1.989041
-2.208693
-2.414293
-2.629729
-2.892936
-3.150522
-3.416305
-3.707612
-4.006178
-4.326523
-4.633753
-4.934427
-5.254068
-5.567153
-5.868295
-6.150236
-6.406183
-6.651359
-6.882484
-7.058345
-7.189246
-7.307034
-7.366747
-7.350823
-7.294154
-7.209854
-7.064434
-6.833074
-6.568931
-6.272472
-5.932926
-5.545609
-5.102795
-4.653423
-4.151832
-3.613242
-3.076291
-2.494848
-1.907082
-1.319784
-0.709773
-0.099995
0.508846
1.112535
1.698428
2.278232
2.814246
3.304363
3.779494
4.178518
4.526495
4.858079
5.104425
5.306045
5.484483
5.611637
5.706007
5.740430
5.751904
5.751436
5.671350
5.560822
5.441629
5.253826
5.021295
4.758089
4.455307
4.143861
3.795885
3.414657
3.042093
2.682643
2.344736
2.024158
1.734724
1.495637
1.302915
1.165458
1.074366
1.045329
1.099422
1.192387
1.331016
1.539427
1.807551
2.126256
2.463460
2.814715
3.201797
3.605271
3.973152
4.323938
4.678002
5.027617
5.339766
5.602973
5.877185
6.123063
6.330069
6.515063
6.659312
6.789744
6.882944
6.924860
6.943359
6.923455
6.847116
6.740803
6.588124
6.385567
6.149758
5.866881
5.559417
5.230643
4.867680
4.491838
4.116698
3.726571
3.329185
2.926648
2.529964
2.144287
1.757439
1.399862
1.059145
0.736459
0.440469
0.157358
-0.086413
-0.287330
-0.462021
-0.617041
-0.737405
-0.836458
-0.924974
-1.013725
-1.107158
-1.179282
-1.278102
-1.372941
-1.463331
-1.600788
-1.701481
-1.812477
-1.968903
-2.086690
-2.218527
-2.365118
-2.483139
