EVENT_NAME: L_AQUILA
EVENT_ID: IT-2009-0009
EVENT_DATE_YYYYMMDD: 20090406
EVENT_TIME_HHMMSS: 013240
EVENT_LATITUDE_DEGREE: 42.3420
EVENT_LONGITUDE_DEGREE: 13.3800
EVENT_DEPTH_KM: 8.3
HYPOCENTER_REFERENCE: INGV-CNT_Seismic_Bulletin
MAGNITUDE_W: 6.1
MAGNITUDE_W_REFERENCE: INGV-CNT_Seismic_Bulletin
MAGNITUDE_L: 
MAGNITUDE_L_REFERENCE: 
FOCAL_MECHANISM: Normal faulting
NETWORK: IT
STATION_CODE: CSS
STATION_NAME: 
STATION_LATITUDE_DEGREE: 41.485790
STATION_LONGITUDE_DEGREE: 13.823090
STATION_ELEVATION_M: 166
LOCATION: 
SENSOR_DEPTH_M: 0.0
VS30_M/S: 648
SITE_CLASSIFICATION_EC8: B
MORPHOLOGIC_CLASSIFICATION: 
EPICENTRAL_DISTANCE_KM: 102.0
EARTHQUAKE_BACKAZIMUTH_DEGREE: 158.7
DATE_TIME_FIRST_SAMPLE_YYYYMMDD_HHMMSS: 20090406_013234.000
DATE_TIME_FIRST_SAMPLE_PRECISION: seconds
SAMPLING_INTERVAL_S: 0.005000
NDATA: 20000
DURATION_S: 100.000
STREAM: HNN
UNITS: cm/s
INSTRUMENT: sensor = FBA-3 [Kinemetrics] | digitizer = Etna [Kinemetrics]
INSTRUMENT_ANALOG/DIGITAL: D
INSTRUMENTAL_FREQUENCY_HZ: 
INSTRUMENTAL_DAMPING: 
FULL_SCALE_G: 
N_BIT_DIGITAL_CONVERTER: 18
PGV_CM/S: -1.404798
TIME_PGV_S: 46.775000
BASELINE_CORRECTION: BASELINE REMOVED
FILTER_TYPE: BUTTERWORTH
FILTER_ORDER: 2
LOW_CUT_FREQUENCY_HZ: 0.070
HIGH_CUT_FREQUENCY_HZ: 30.000
LATE/NORMAL_TRIGGERED: NT
DATABASE_VERSION: 0.5
HEADER_FORMAT: DYNA 1.2
DATA_TYPE: VELOCITY
PROCESSING: manual (Paolucci et al., 2011)
DATA_TIMESTAMP_YYYYMMDD_HHMMSS: 20211011_160637.493
DATA_LICENSE: CC-BY3_0-IT (http://creativecommons.org/licenses/by/3.0/deed.en)
DATA_CITATION: Luzi L, Pacor F, Puglia R (2019). Italian Accelerometric Archive v 3.0 - Istituto Nazionale di Geofisica e Vulcanologia, Dipartimento della Protezione Civile Nazionale. doi: 10.13127/itaca.3.1
DATA_CREATOR: ITACA working group
ORIGINAL_DATA_MEDIATOR_CITATION: data obtained within the DPC-INGV data exchange agreements
ORIGINAL_DATA_MEDIATOR: Archive of Italian Department of Civil Protection
ORIGINAL_DATA_CREATOR_CITATION: Presidency Of Counsil Of Ministers-Civil Protection Department. (1972). Italian Strong Motion Network. Presidency of Counsil of Ministers - Civil Protection Department. https://doi.org/10.7914/SN/IT http://www.fdsn.org/networks/detail/IT/
ORIGINAL_DATA_CREATOR: network: IT (Italian Strong Motion Network (RAN)); owner: Presidency of Counsil of Ministers - Civil Protection Department (PCM - DPC)
USER1: 
USER2: 
USER3: 
USER4: 
USER5: 
[...]
-0.097945
-0.093757
-0.090443
-0.088099
-0.086802
-0.086612
-0.087567
-0.089675
-0.092908
-0.097203
-0.102462
-0.108564
-0.115366
-0.122707
-0.130420
-0.138345
-0.146333
-0.154238
-0.161925
-0.169271
-0.176165
-0.182508
-0.188211
-0.193198
-0.197406
-0.200778
-0.203272
-0.204857
-0.205517
-0.205248
-0.204062
-0.202004
-0.199152
-0.195612
-0.191511
-0.186989
-0.182199
-0.177296
-0.172428
-0.167728
-0.163313
-0.159269
-0.155651
-0.152484
-0.149773
-0.147493
-0.145597
-0.144030
-0.142740
-0.141670
-0.140761
-0.139947
-0.139169
-0.138371
-0.137506
-0.136543
-0.135476
-0.134325
-0.133116
-0.131879
-0.130646
-0.129455
-0.128341
-0.127340
-0.126473
-0.125747
-0.125142
-0.124623
-0.124163
-0.123748
-0.123361
-0.122982
-0.122595
-0.122174
-0.121677
-0.121034
-0.120167
-0.119009
-0.117517
-0.115667
-0.113467
-0.110975
-0.108293
-0.105535
-0.102840
-0.100373
-0.098318
-0.096862
-0.096186
-0.096458
-0.097826
-0.100403
-0.104243
-0.109341
-0.115651
-0.123078
-0.131473
-0.140653
-0.150423
-0.160574
-0.170895
-0.181191
-0.191287
-0.201038
-0.210334
-0.219109
-0.227338
-0.235021
-0.242174
-0.248838
-0.255077
-0.260982
-0.266670
-0.272271
-0.277898
-0.283643
-0.289571
-0.295718
-0.302082
-0.308613
-0.315215
-0.321754
-0.328071
-0.333992
-0.339337
-0.343930
-0.347595
-0.350162
-0.351473
-0.351401
-0.349859
-0.346805
-0.342224
-0.336140
-0.328626
-0.319797
-0.309776
-0.298706
-0.286754
-0.274084
-0.260836
-0.247139
-0.233124
-0.218903
-0.204552
-0.190103
-0.175561
-0.160919
-0.146165
-0.131276
-0.116244
-0.101086
-0.085831
-0.070520
-0.055213
-0.039996
-0.024998
-0.010378
0.003679
0.016974
0.029299
0.040455
0.050267
0.058588
0.065313
0.070371
0.073723
0.075361
0.075302
0.073590
0.070306
0.065579
0.059575
0.052493
0.044544
0.035942
0.026902
0.017624
0.008278
-0.000991
-0.010059
-0.018825
-0.027221
-0.035208
-0.042761
-0.049865
-0.056517
-0.062736
-0.068532
-0.073880
-0.078731
-0.083038
-0.086755
-0.089819
-0.092170
-0.093776
-0.094641
-0.094765
-0.094139
-0.092772
-0.090713
-0.088035
-0.084806
-0.081097
-0.077000
-0.072622
-0.068066
-0.063422
-0.058775
-0.054204
-0.049773
-0.045520
-0.041469
-0.037650
-0.034090
-0.030812
-0.027831
-0.025152
-0.022773
-0.020685
-0.018877
-0.017336
-0.016060
-0.015070
-0.014408
-0.014133
-0.014314
-0.015030
-0.016368
-0.018418
-0.021268
-0.024997
-0.029667
-0.035309
-0.041920
-0.049467
-0.057889
-0.067099
-0.076991
-0.087455
-0.098389
-0.109693
-0.121267
-0.133012
-0.144848
-0.156715
-0.168571
-0.180377
-0.192089
-0.203649
-0.214987
-0.226017
-0.236636
-0.246732
-0.256190
-0.264900
-0.272753
-0.279630
-0.285415
-0.290007
-0.293316
-0.295264
-0.295789
-0.294865
-0.292500
-0.288745
-0.283679
-0.277411
-0.270069
-0.261798
-0.252740
-0.243031
-0.232803
-0.222179
-0.211264
-0.200142
-0.188885
-0.177550
-0.166171
-0.154766
-0.143343
-0.131904
-0.120436
-0.108914
-0.097313
-0.085620
-0.073833
-0.061972
-0.050085
-0.038242
-0.026525
-0.015028
-0.003853
0.006887
0.017078
0.026608
0.035363
0.043223
0.050074
0.055814
0.060354
0.063618
0.065553
0.066137
0.065373
0.063281
0.059888
0.055239
0.049396
0.042440
0.034459
0.025561
0.015882
0.005563
-0.005261
-0.016455
-0.027892
-0.039461
-0.051067
-0.062621
-0.074038
-0.085251
-0.096204
-0.106833
-0.117054
-0.126774
-0.135902
-0.144349
-0.152030
-0.158867
-0.164792
-0.169730
-0.173590
-0.176274
-0.177690
-0.177767
-0.176453
-0.173721
-0.169590
-0.164121
-0.157412
-0.149577
-0.140750
-0.131083
-0.120742
-0.109904
-0.098758
-0.087506
-0.076353
-0.065487
-0.055079
-0.045275
-0.036201
-0.027966
-0.020678
-0.014424
-0.009257
-0.005192
-0.002210
-0.000269
0.000702
0.000794
0.000101
-0.001283
-0.003262
-0.005744
-0.008656
-0.011942
-0.015547
-0.019414
-0.023496
-0.027762
-0.032188
-0.036737
-0.041356
-0.046001
-0.050619
-0.055137
-0.059476
-0.063560
-0.067315
-0.070653
-0.073482
-0.075716
-0.077277
-0.078107
-0.078167
-0.077445
-0.075949
-0.073708
-0.070774
-0.067214
-0.063107
-0.058537
-0.053606
-0.048433
-0.043151
-0.037890
-0.032793
-0.028024
-0.023760
-0.020173
-0.017428
-0.015688
-0.015084
-0.015691
-0.017508
-0.020486
-0.024548
-0.029600
-0.035516
-0.042161
-0.049415
-0.057161
-0.065270
-0.073622
-0.082114
-0.090660
-0.099193
-0.107671
-0.116071
-0.124395
-0.132657
-0.140880
-0.149076
-0.157236
-0.165343
-0.173362
-0.181246
-0.188931
-0.196328
-0.203338
-0.209855
-0.215784
-0.221030
-0.225507
-0.229147
-0.231884
-0.233655
-0.234409
-0.234109
-0.232729
-0.230259
-0.226705
-0.222078
-0.216380
-0.209616
-0.201798
-0.192951
-0.183105
-0.172288
-0.160526
-0.147853
-0.134323
-0.120001
-0.104978
-0.089375
-0.073341
-0.057042
-0.040666
-0.024429
-0.008575
0.006641
0.020952
0.034087
0.045759
0.055694
0.063646
0.069402
0.072776
0.073632
0.071900
0.067575
0.060697
0.051356
0.039695
0.025909
0.010220
-0.007148
-0.025963
-0.045979
-0.066939
-0.088596
-0.110716
-0.133078
-0.155464
-0.177676
-0.199559
-0.221000
-0.241909
-0.262212
-0.281854
-0.300799
-0.319019
-0.336480
-0.353139
-0.368945
-0.383842
-0.397761
-0.410619
-0.422328
-0.432790
-0.441894
-0.449517
-0.455533
-0.459819
-0.462261
-0.462768
-0.461284
-0.457793
-0.452306
-0.444857
-0.435513
-0.424385
-0.411618
-0.397385
-0.381880
-0.365319
-0.347920
-0.329888
-0.311421
-0.292712
-0.273947
-0.255299
-0.236931
-0.218987
-0.201608
-0.184922
-0.169042
-0.154066
-0.140099
-0.127258
-0.115657
-0.105411
-0.096627
-0.089392
-0.083764
-0.079772
-0.077417
-0.076658
-0.077416
-0.079590
-0.083062
-0.087681
-0.093262
-0.099614
-0.106558
-0.113927
-0.121560
-0.129311
-0.137060
-0.144711
-0.152178
-0.159380
-0.166255
-0.172760
-0.178854
-0.184483
-0.189594
-0.194150
-0.198120
-0.201455
-0.204088
-0.205953
-0.206971
-0.207055
-0.206106
-0.204035
-0.200768
-0.196249
-0.190455
-0.183401
-0.175136
-0.165738
-0.155318
-0.144014
-0.131993
-0.119443
-0.106567
-0.093573
-0.080655
-0.067987
-0.055719
-0.043966
-0.032806
-0.022275
-0.012381
-0.003125
0.005495
0.013484
0.020840
0.027537
0.033518
0.038697
0.042968
0.046209
0.048286
0.049070
0.048451
0.046345
0.042707
0.037544
0.030923
0.022966
0.013846
0.003783
-0.006971
-0.018137
-0.029422
-0.040529
-0.051163
-0.061047
-0.069945
-0.077668
-0.084077
-0.089085
-0.092662
-0.094853
-0.095775
-0.095602
-0.094529
-0.092750
-0.090446
-0.087768
-0.084842
-0.081752
-0.078545
-0.075238
-0.071830
-0.068272
-0.064453
-0.060219
-0.055379
-0.049698
-0.042927
-0.034830
-0.025206
-0.013889
-0.000756
0.014261
0.031173
0.049945
0.070503
0.092739
0.116503
0.141609
0.167857
0.195042
0.222953
0.251372
0.280078
0.308837
0.337399
0.365507
0.392903
0.419341
0.444586
0.468419
0.490641
0.511084
0.529600
0.546073
0.560423
0.572592
0.582532
0.590209
0.595608
0.598728
0.599576
0.598164
0.594522
0.588696
0.580741
0.570720
0.558720
0.544846
0.529207
0.511897
0.492999
0.472607
0.450818
0.427717
0.403383
0.377908
0.351404
0.323977
0.295724
0.266764
0.237248
0.207340
0.177205
0.147014
0.116948
0.087190
0.057915
0.029295
0.001495
-0.025322
-0.051004
-0.075409
-0.098415
-0.119916
-0.139817
-0.158039
-0.174501
-0.189109
-0.201763
-0.212359
-0.220796
-0.226988
-0.230872
-0.232407
-0.231573
-0.228378
-0.222863
-0.215081
-0.205092
-0.192973
-0.178839
-0.162839
-0.145154
-0.125999
-0.105626
-0.084310
-0.062329
-0.039947
-0.017410
0.005055
0.027247
0.048993
0.070148
0.090589
0.110201
0.128862
0.146456
0.162880
0.178053
0.191908
0.204394
0.215458
0.225053
0.233139
0.239681
0.244648
0.248020
0.249794
0.249989
0.248661
0.245905
0.241834
0.236578
0.230300
0.223203
0.215506
0.207432
0.199217
0.191115
0.183384
0.176274
0.170023
0.164861
0.160992
0.158584
0.157768
0.158648
0.161300
0.165764
0.172049
0.180147
0.190038
0.201687
0.215026
0.229966
0.246404
0.264219
0.283265
0.303406
0.324521
0.346503
0.369257
0.392711
0.416818
0.441540
0.466825
0.492613
0.518846
0.545463
0.572381
0.599496
0.626677
0.653766
0.680587
0.706959
0.732714
0.757697
0.781765
0.804778
0.826618
0.847198
0.866455
0.884341
0.900821
0.915877
0.929497
0.941657
0.952305
0.961367
0.968741
0.974302
0.977905
0.979408
0.978668
0.975536
0.969867
0.961538
0.950452
0.936546
0.919797
0.900227
0.877890
0.852868
0.825275
0.795260
0.762980
0.728581
0.692208
0.654009
0.614129
0.572708
0.529893
0.485846
0.440741
0.394763
0.348126
0.301070
0.253860
0.206765
0.160053
0.113992
0.068847
0.024878
-0.017668
-0.058560
-0.097586
-0.134559
-0.169330
-0.201774
-0.231794
-0.259312
-0.284274
-0.306648
-0.326418
-0.343581
-0.358149
-0.370150
-0.379625
-0.386629
-0.391226
-0.393491
-0.393494
-0.391307
-0.387002
-0.380639
-0.372262
-0.361925
-0.349700
-0.335667
-0.319911
-0.302522
-0.283616
-0.263345
-0.241895
-0.219469
-0.196283
-0.172565
-0.148548
-0.124449
-0.100468
-0.076798
-0.053626
-0.031111
-0.009371
0.011505
0.031437
0.050342
0.068144
0.084781
0.100188
0.114274
0.126940
0.138102
0.147700
0.155690
0.162044
0.166758
0.169854
0.171372
0.171356
0.169865
0.166981
0.162812
0.157478
0.151101
0.143806
0.135705
0.126889
0.117408
0.107282
0.096499
0.085032
0.072830
0.059837
0.046006
0.031323
0.015816
-0.000455
-0.017392
-0.034860
-0.052679
-0.070643
-0.088526
-0.106095
-0.123110
-0.139341
-0.154572
-0.168614
-0.181305
-0.192516
-0.202158
-0.210171
-0.216514
-0.221166
-0.224122
-0.225389
-0.224978
-0.222911
-0.219220
-0.213946
-0.207117
-0.198748
-0.188849
-0.177421
-0.164452
-0.149925
-0.133831
-0.116179
-0.096995
-0.076322
-0.054224
-0.030799
-0.006171
0.019516
0.046087
0.073336
0.101044
0.129002
0.157006
0.184857
0.212363
0.239348
0.265649
0.291121
0.315645
0.339136
0.361550
0.382876
0.403128
0.422326
0.440493
0.457650
0.473815
0.488993
0.503189
0.516405
0.528641
0.539894
0.550153
0.559399
0.567616
0.574804
0.580988
0.586201
0.590476
0.593857
0.596406
0.598190
0.599270
0.599701
0.599551
0.598897
0.597808
0.596363
0.594661
0.592815
0.590950
0.589206
0.587746
0.586738
0.586334
0.586658
0.587808
0.589855
0.592840
0.596771
0.601642
0.607437
0.614137
0.621727
0.630197
0.639553
0.649818
0.661022
0.673207
0.686421
0.700706
0.716084
0.732545
0.750050
0.768521
0.787843
0.807855
0.828363
0.849142
0.869941
0.890496
0.910548
0.929851
0.948163
0.965256
0.980935
0.995033
1.007411
1.017959
1.026601
1.033291
1.038006
1.040743
1.041518
1.040367
1.037330
1.032461
1.025824
1.017495
1.007539
0.996009
0.982950
0.968397
0.952370
0.934875
0.915926
0.895546
0.873769
0.850646
0.826251
0.800687
0.774088
0.746623
0.718505
0.689996
0.661386
0.632983
0.605110
0.578097
0.552259
0.527880
0.505204
0.484439
0.465751
0.449256
0.435021
0.423076
0.413418
0.406005
0.400756
0.397561
0.396288
0.396790
0.398916
0.402512
0.407412
0.413443
0.420448
0.428285
0.436827
0.445949
0.455547
0.465532
0.475817
0.486298
0.496853
0.507348
0.517640
0.527576
0.537005
0.545779
0.553747
0.560764
0.566694
0.571423
0.574848
0.576865
0.577370
0.576271
0.573499
0.568994
0.562700
0.554577
0.544608
0.532801
0.519189
0.503848
0.486914
0.468572
0.449039
0.428566
0.407442
0.385969
0.364440
0.343148
0.322387
0.302420
0.283458
0.265657
0.249126
0.233915
0.220017
0.207367
0.195869
0.185407
0.175852
0.167074
0.158962
0.151438
0.144450
0.137967
0.131975
0.126481
0.121519
0.117145
0.113432
0.110471
0.108356
0.107172
0.106987
0.107869
0.109883
0.113072
0.117457
0.123057
0.129892
0.137965
0.147260
0.157757
0.169442
0.182296
0.196299
0.211433
0.227676
0.244995
0.263340
0.282642
0.302807
0.323708
0.345196
0.367097
0.389211
0.411303
0.433127
0.454435
0.474980
0.494519
0.512814
0.529639
0.544795
0.558106
0.569416
0.578594
0.585537
0.590150
0.592341
0.592016
0.589080
0.583445
0.575040
0.563825
0.549797
0.532991
0.513477
0.491362
0.466790
0.439935
0.410995
0.380188
0.347749
0.313935
0.279023
0.243314
0.207114
0.170726
0.134453
0.098581
0.063379
0.029093
-0.004054
-0.035855
-0.066122
-0.094706
-0.121508
-0.146469
-0.169572
-0.190844
-0.210354
-0.228188
-0.244429
-0.259164
-0.272497
-0.284530
-0.295360
-0.305074
-0.313767
-0.321521
-0.328398
-0.334445
-0.339702
-0.344201
-0.347983
-0.351100
-0.353625
-0.355649
-0.357286
-0.358665
-0.359923
-0.361198
-0.362632
-0.364371
-0.366555
-0.369308
-0.372729
-0.376909
-0.381931
-0.387862
-0.394751
-0.402623
-0.411494
-0.421384
-0.432315
-0.444325
-0.457476
-0.471846
-0.487514
-0.504553
-0.523034
-0.543019
-0.564545
-0.587630
-0.612280
-0.638495
-0.666255
-0.695510
-0.726184
-0.758183
-0.791400
-0.825701
-0.860916
-0.896854
-0.933297
-0.970005
-1.006719
-1.043183
-1.079141
-1.114318
-1.148443
-1.181268
-1.212574
-1.242150
-1.269786
-1.295281
-1.318452
-1.339131
-1.357172
-1.372453
-1.384879
-1.394373
-1.400882
-1.404365
-1.404798
-1.402184
-1.396553
-1.387970
-1.376543
-1.362424
-1.345801
-1.326894
-1.305942
-1.283195
-1.258906
-1.233325
-1.206685
-1.179202
-1.151081
-1.122522
-1.093717
-1.064849
-1.036100
-1.007665
-0.979736
-0.952515
-0.926211
-0.901036
-0.877180
-0.854808
-0.834065
-0.815074
-0.797919
-0.782619
-0.769131
-0.757364
-0.747188
-0.738432
-0.730887
-0.724310
-0.718438
-0.712986
-0.707652
-0.702134
-0.696142
-0.689390
-0.681591
-0.672477
-0.661824
-0.649466
-0.635282
-0.619195
-0.601186
-0.581289
-0.559565
-0.536083
-0.510932
-0.484226
-0.456087
-0.426632
-0.395983
-0.364273
-0.331649
-0.298259
-0.264257
-0.229811
-0.195104
-0.160324
-0.125674
-0.091362
-0.057607
-0.024627
0.007361
0.038149
0.067553
0.095415
0.121602
0.146007
0.168553
0.189185
0.207862
0.224555
0.239250
0.251960
0.262719
0.271588
0.278647
0.283990
0.287721
0.289952
0.290817
0.290473
0.289087
0.286818
0.283811
0.280191
0.276054
0.271458
0.266431
0.260982
0.255104
0.248778
0.241972
0.234649
0.226771
0.218308
0.209227
0.199495
0.189090
0.178008
0.166268
0.153923
0.141046
0.127718
0.114015
0.100022
0.085843
0.071591
0.057384
0.043354
0.029650
0.016432
0.003854
-0.007931
-0.018773
-0.028531
-0.037084
-0.044337
-0.050219
-0.054670
-0.057660
-0.059195
-0.059313
-0.058067
-0.055515
-0.051725
-0.046780
-0.040770
-0.033782
-0.025915
-0.017282
-0.008014
0.001756
0.011897
0.022261
0.032671
0.042919
0.052786
0.062070
0.070570
0.078080
0.084400
0.089360
0.092816
0.094629
0.094675
0.092868
0.089170
0.083568
0.076058
0.066666
0.055450
0.042482
0.027843
0.011629
-0.006038
-0.025014
-0.045139
-0.066243
-0.088144
-0.110648
-0.133561
-0.156693
-0.179858
-0.202872
-0.225567
-0.247788
-0.269391
-0.290254
-0.310271
-0.329349
-0.347399
-0.364329
-0.380041
-0.394426
-0.407377
-0.418793
-0.428582
-0.436647
-0.442895
-0.447253
-0.449670
-0.450104
-0.448532
-0.444975
-0.439496
-0.432182
-0.423134
-0.412464
-0.400304
-0.386791
-0.372054
-0.356235
-0.339481
-0.321941
-0.303750
-0.285026
-0.265876
-0.246398
-0.226683
-0.206817
-0.186881
-0.166948
-0.147086
-0.127360
-0.107835
-0.088581
-0.069666
-0.051178
-0.033226
-0.015925
0.000611
0.016263
0.030917
0.044468
0.056824
0.067899
0.077619
0.085925
0.092795
0.098234
0.102274
0.104975
0.106428
0.106753
0.106079
0.104538
0.102268
0.099414
0.096120
0.092521
0.088748
0.084928
0.081168
0.077543
0.074106
0.070894
0.067919
0.065166
0.062599
0.060172
0.057832
0.055529
0.053227
0.050897
0.048516
0.046062
0.043525
0.040904
0.038196
0.035381
0.032446
0.029387
0.026203
0.022893
0.019473
0.015978
0.012444
0.008901
0.005389
0.001956
-0.001352
-0.004503
-0.007462
-0.010189
-0.012651
-0.014837
-0.016731
-0.018314
-0.019574
-0.020523
-0.021184
-0.021577
-0.021721
-0.021641
-0.021371
-0.020943
-0.020373
-0.019684
-0.018921
-0.018138
-0.017377
-0.016680
-0.016103
-0.015714
-0.015581
-0.015785
-0.016422
-0.017588
-0.019367
-0.021835
-0.025053
-0.029064
-0.033876
-0.039461
-0.045752
-0.052662
-0.060080
-0.067870
-0.075872
-0.083904
-0.091779
-0.099313
-0.106344
-0.112730
-0.118339
-0.123051
-0.126769
-0.129418
-0.130938
-0.131291
-0.130477
-0.128520
-0.125452
-0.121311
-0.116151
-0.110047
-0.103077
-0.095320
-0.086863
-0.077803
-0.068232
-0.058237
-0.047918
-0.037393
-0.026779
-0.016178
-0.005686
0.004608
0.014612
0.024245
0.033431
0.042099
0.050189
0.057641
0.064394
0.070381
0.075525
0.079746
0.082980
0.085172
0.086277
0.086253
0.085060
0.082663
0.079039
0.074181
0.068083
0.060749
0.052201
0.042487
0.031663
0.019782
0.006901
-0.006911
-0.021593
-0.037103
-0.053414
-0.070485
-0.088256
-0.106660
-0.125624
-0.145058
-0.164843
-0.184856
-0.204980
-0.225091
-0.245040
-0.264660
-0.283771
-0.302184
-0.319709
-0.336169
-0.351421
-0.365357
-0.377895
-0.388975
-0.398556
-0.406617
-0.413155
-0.418173
-0.421681
-0.423704
-0.424295
-0.423533
-0.421516
-0.418354
-0.414163
-0.409076
-0.403219
-0.396705
-0.389632
-0.382100
-0.374212
-0.366065
-0.357758
-0.349388
-0.341052
-0.332836
-0.324817
-0.317071
-0.309683
-0.302752
-0.296383
-0.290674
-0.285721
-0.281624
-0.278483
-0.276389
-0.275428
-0.275679
-0.277197
-0.280020
-0.284178
-0.289695
-0.296569
-0.304789
-0.314343
-0.325227
-0.337423
-0.350902
-0.365619
-0.381512
-0.398508
-0.416513
-0.435412
-0.455062
-0.475289
-0.495885
-0.516626
-0.537266
-0.557538
-0.577170
-0.595891
-0.613432
-0.629529
-0.643934
-0.656430
-0.666824
-0.674937
-0.680605
-0.683692
-0.684090
-0.681722
-0.676558
-0.668618
-0.657971
-0.644709
-0.628938
-0.610779
-0.590379
-0.567894
-0.543481
-0.517311
-0.489581
-0.460499
-0.430267
-0.399093
-0.367196
-0.334799
-0.302121
-0.269375
-0.236786
-0.204586
-0.172999
-0.142237
-0.112500
-0.083970
-0.056812
-0.031171
-0.007181
0.015037
0.035386
0.053792
0.070186
0.084502
0.096691
0.106733
0.114629
0.120381
0.123998
0.125507
0.124950
0.122387
0.117914
0.111678
0.103856
0.094635
0.084214
0.072816
0.060683
0.048079
0.035285
0.022603
0.010335
-0.001232
-0.011825
-0.021184
-0.029074
-0.035292
-0.039654
-0.041982
-0.042116
-0.039918
-0.035273
-0.028088
-0.018302
-0.005910
0.009024
0.026378
0.045992
0.067661
0.091142
0.116156
0.142392
0.169498
0.197096
0.224799
0.252239
0.279066
0.304936
0.329527
0.352558
0.373800
0.393069
0.410224
0.425158
0.437789
0.448051
0.455889
0.461267
0.464171
0.464621
0.462672
0.458394
0.451872
0.443207
0.432525
0.419970
0.405697
0.389866
0.372641
0.354186
0.334650
