EVENT_NAME: L_AQUILA
EVENT_ID: IT-2009-0009
EVENT_DATE_YYYYMMDD: 20090406
EVENT_TIME_HHMMSS: 013240
EVENT_LATITUDE_DEGREE: 42.3420
EVENT_LONGITUDE_DEGREE: 13.3800
EVENT_DEPTH_KM: 8.3
HYPOCENTER_REFERENCE: INGV-CNT_Seismic_Bulletin
MAGNITUDE_W: 6.1
MAGNITUDE_W_REFERENCE: INGV-CNT_Seismic_Bulletin
MAGNITUDE_L: 
MAGNITUDE_L_REFERENCE: 
FOCAL_MECHANISM: Normal faulting
NETWORK: IT
STATION_CODE: CSS
STATION_NAME: 
STATION_LATITUDE_DEGREE: 41.485790
STATION_LONGITUDE_DEGREE: 13.823090
STATION_ELEVATION_M: 166
LOCATION: 
SENSOR_DEPTH_M: 0.0
VS30_M/S: 648
SITE_CLASSIFICATION_EC8: B
MORPHOLOGIC_CLASSIFICATION: 
EPICENTRAL_DISTANCE_KM: 102.0
EARTHQUAKE_BACKAZIMUTH_DEGREE: 158.7
DATE_TIME_FIRST_SAMPLE_YYYYMMDD_HHMMSS: 20090406_013234.000
DATE_TIME_FIRST_SAMPLE_PRECISION: seconds
SAMPLING_INTERVAL_S: 0.005000
NDATA: 20000
DURATION_S: 100.000
STREAM: HNZ
UNITS: cm
INSTRUMENT: sensor = FBA-3 [Kinemetrics] | digitizer = Etna [Kinemetrics]
INSTRUMENT_ANALOG/DIGITAL: D
INSTRUMENTAL_FREQUENCY_HZ: 
INSTRUMENTAL_DAMPING: 
FULL_SCALE_G: 
N_BIT_DIGITAL_CONVERTER: 18
PGD_CM: -0.694080
TIME_PGD_S: 47.870000
BASELINE_CORRECTION: BASELINE REMOVED
FILTER_TYPE: BUTTERWORTH
FILTER_ORDER: 2
LOW_CUT_FREQUENCY_HZ: 0.070
HIGH_CUT_FREQUENCY_HZ: 30.000
LATE/NORMAL_TRIGGERED: NT
DATABASE_VERSION: 0.5
HEADER_FORMAT: DYNA 1.2
DATA_TYPE: DISPLACEMENT
PROCESSING: manual (Paolucci et al., 2011)
DATA_TIMESTAMP_YYYYMMDD_HHMMSS: 20211011_160637.872
DATA_LICENSE: CC-BY3_0-IT (http://creativecommons.org/licenses/by/3.0/deed.en)
DATA_CITATION: Luzi L, Pacor F, Puglia R (2019). Italian Accelerometric Archive v 3.0 - Istituto Nazionale di Geofisica e Vulcanologia, Dipartimento della Protezione Civile Nazionale. doi: 10.13127/itaca.3.1
DATA_CREATOR: ITACA working group
ORIGINAL_DATA_MEDIATOR_CITATION: data obtained within the DPC-INGV data exchange agreements
ORIGINAL_DATA_MEDIATOR: Archive of Italian Department of Civil Protection
ORIGINAL_DATA_CREATOR_CITATION: Presidency Of Counsil Of Ministers-Civil Protection Department. (1972). Italian Strong Motion Network. Presidency of Counsil of Ministers - Civil Protection Department. https://doi.org/10.7914/SN/IT http://www.fdsn.org/networks/detail/IT/
ORIGINAL_DATA_CREATOR: network: IT (Italian Strong Motion Network (RAN)); owner: Presidency of Counsil of Ministers - Civil Protection Department (PCM - DPC)
USER1: 
USER2: 
USER3: 
USER4: 
USER5: 
[...]
2.772684e-01
2.782207e-01
2.791644e-01
2.801008e-01
2.810311e-01
2.819565e-01
2.828778e-01
2.837958e-01
2.847108e-01
2.856232e-01
2.865330e-01
2.874399e-01
2.883437e-01
2.892435e-01
2.901383e-01
2.910265e-01
2.919059e-01
2.927741e-01
2.936280e-01
2.944642e-01
2.952790e-01
2.960686e-01
2.968291e-01
2.975571e-01
2.982492e-01
2.989029e-01
2.995159e-01
3.000869e-01
3.006151e-01
3.011003e-01
3.015432e-01
3.019447e-01
3.023065e-01
3.026304e-01
3.029189e-01
3.031744e-01
3.033998e-01
3.035977e-01
3.037710e-01
3.039222e-01
3.040541e-01
3.041689e-01
3.042690e-01
3.043568e-01
3.044346e-01
3.045046e-01
3.045689e-01
3.046296e-01
3.046885e-01
3.047473e-01
3.048075e-01
3.048702e-01
3.049365e-01
3.050070e-01
3.050822e-01
3.051623e-01
3.052473e-01
3.053370e-01
3.054308e-01
3.055282e-01
3.056279e-01
3.057287e-01
3.058292e-01
3.059279e-01
3.060232e-01
3.061133e-01
3.061966e-01
3.062715e-01
3.063365e-01
3.063901e-01
3.064309e-01
3.064575e-01
3.064687e-01
3.064632e-01
3.064397e-01
3.063966e-01
3.063325e-01
3.062457e-01
3.061345e-01
3.059972e-01
3.058324e-01
3.056386e-01
3.054147e-01
3.051599e-01
3.048740e-01
3.045574e-01
3.042109e-01
3.038366e-01
3.034368e-01
3.030149e-01
3.025747e-01
3.021204e-01
3.016570e-01
3.011891e-01
3.007219e-01
3.002601e-01
2.998085e-01
2.993715e-01
2.989530e-01
2.985565e-01
2.981852e-01
2.978419e-01
2.975291e-01
2.972490e-01
2.970034e-01
2.967939e-01
2.966217e-01
2.964876e-01
2.963919e-01
2.963347e-01
2.963156e-01
2.963340e-01
2.963889e-01
2.964791e-01
2.966034e-01
2.967602e-01
2.969479e-01
2.971649e-01
2.974097e-01
2.976809e-01
2.979770e-01
2.982969e-01
2.986394e-01
2.990037e-01
2.993888e-01
2.997942e-01
3.002194e-01
3.006639e-01
3.011277e-01
3.016107e-01
3.021129e-01
3.026342e-01
3.031745e-01
3.037333e-01
3.043097e-01
3.049025e-01
3.055099e-01
3.061298e-01
3.067595e-01
3.073959e-01
3.080353e-01
3.086741e-01
3.093082e-01
3.099335e-01
3.105459e-01
3.111417e-01
3.117172e-01
3.122694e-01
3.127957e-01
3.132940e-01
3.137625e-01
3.142003e-01
3.146066e-01
3.149816e-01
3.153256e-01
3.156394e-01
3.159243e-01
3.161818e-01
3.164139e-01
3.166228e-01
3.168108e-01
3.169804e-01
3.171342e-01
3.172745e-01
3.174036e-01
3.175235e-01
3.176356e-01
3.177412e-01
3.178408e-01
3.179346e-01
3.180224e-01
3.181033e-01
3.181760e-01
3.182384e-01
3.182882e-01
3.183226e-01
3.183387e-01
3.183334e-01
3.183039e-01
3.182477e-01
3.181625e-01
3.180468e-01
3.178998e-01
3.177212e-01
3.175115e-01
3.172718e-01
3.170042e-01
3.167110e-01
3.163951e-01
3.160597e-01
3.157080e-01
3.153432e-01
3.149684e-01
3.145865e-01
3.142003e-01
3.138118e-01
3.134231e-01
3.130355e-01
3.126499e-01
3.122667e-01
3.118859e-01
3.115070e-01
3.111289e-01
3.107499e-01
3.103677e-01
3.099798e-01
3.095829e-01
3.091738e-01
3.087489e-01
3.083044e-01
3.078368e-01
3.073427e-01
3.068187e-01
3.062623e-01
3.056713e-01
3.050440e-01
3.043795e-01
3.036772e-01
3.029371e-01
3.021598e-01
3.013458e-01
3.004962e-01
2.996121e-01
2.986946e-01
2.977449e-01
2.967642e-01
2.957539e-01
2.947152e-01
2.936492e-01
2.925571e-01
2.914399e-01
2.902987e-01
2.891343e-01
2.879473e-01
2.867384e-01
2.855079e-01
2.842559e-01
2.829824e-01
2.816873e-01
2.803701e-01
2.790307e-01
2.776687e-01
2.762840e-01
2.748764e-01
2.734459e-01
2.719927e-01
2.705171e-01
2.690195e-01
2.675006e-01
2.659610e-01
2.644017e-01
2.628236e-01
2.612280e-01
2.596163e-01
2.579900e-01
2.563507e-01
2.547000e-01
2.530396e-01
2.513710e-01
2.496960e-01
2.480165e-01
2.463344e-01
2.446521e-01
2.429719e-01
2.412968e-01
2.396297e-01
2.379738e-01
2.363325e-01
2.347090e-01
2.331067e-01
2.315289e-01
2.299789e-01
2.284599e-01
2.269748e-01
2.255266e-01
2.241180e-01
2.227515e-01
2.214292e-01
2.201530e-01
2.189244e-01
2.177445e-01
2.166139e-01
2.155333e-01
2.145026e-01
2.135215e-01
2.125895e-01
2.117056e-01
2.108685e-01
2.100770e-01
2.093294e-01
2.086241e-01
2.079594e-01
2.073337e-01
2.067451e-01
2.061921e-01
2.056726e-01
2.051848e-01
2.047264e-01
2.042953e-01
2.038887e-01
2.035039e-01
2.031378e-01
2.027869e-01
2.024477e-01
2.021166e-01
2.017896e-01
2.014630e-01
2.011327e-01
2.007950e-01
2.004460e-01
2.000820e-01
1.996996e-01
1.992957e-01
1.988675e-01
1.984130e-01
1.979306e-01
1.974190e-01
1.968777e-01
1.963067e-01
1.957065e-01
1.950781e-01
1.944229e-01
1.937429e-01
1.930403e-01
1.923177e-01
1.915776e-01
1.908228e-01
1.900562e-01
1.892804e-01
1.884982e-01
1.877121e-01
1.869248e-01
1.861386e-01
1.853560e-01
1.845793e-01
1.838106e-01
1.830519e-01
1.823051e-01
1.815716e-01
1.808527e-01
1.801491e-01
1.794610e-01
1.787886e-01
1.781320e-01
1.774913e-01
1.768666e-01
1.762584e-01
1.756677e-01
1.750956e-01
1.745437e-01
1.740140e-01
1.735087e-01
1.730300e-01
1.725802e-01
1.721616e-01
1.717759e-01
1.714250e-01
1.711101e-01
1.708320e-01
1.705909e-01
1.703867e-01
1.702191e-01
1.700870e-01
1.699895e-01
1.699253e-01
1.698928e-01
1.698905e-01
1.699168e-01
1.699701e-01
1.700489e-01
1.701519e-01
1.702776e-01
1.704251e-01
1.705932e-01
1.707812e-01
1.709881e-01
1.712130e-01
1.714549e-01
1.717126e-01
1.719848e-01
1.722695e-01
1.725647e-01
1.728676e-01
1.731753e-01
1.734842e-01
1.737907e-01
1.740910e-01
1.743811e-01
1.746575e-01
1.749166e-01
1.751553e-01
1.753712e-01
1.755623e-01
1.757273e-01
1.758657e-01
1.759778e-01
1.760641e-01
1.761258e-01
1.761645e-01
1.761818e-01
1.761797e-01
1.761600e-01
1.761245e-01
1.760748e-01
1.760122e-01
1.759380e-01
1.758529e-01
1.757578e-01
1.756531e-01
1.755391e-01
1.754159e-01
1.752835e-01
1.751417e-01
1.749904e-01
1.748290e-01
1.746572e-01
1.744742e-01
1.742791e-01
1.740711e-01
1.738491e-01
1.736119e-01
1.733582e-01
1.730868e-01
1.727963e-01
1.724854e-01
1.721527e-01
1.717970e-01
1.714170e-01
1.710114e-01
1.705790e-01
1.701183e-01
1.696278e-01
1.691058e-01
1.685505e-01
1.679600e-01
1.673323e-01
1.666653e-01
1.659570e-01
1.652054e-01
1.644086e-01
1.635647e-01
1.626723e-01
1.617302e-01
1.607378e-01
1.596947e-01
1.586013e-01
1.574582e-01
1.562670e-01
1.550292e-01
1.537469e-01
1.524228e-01
1.510593e-01
1.496592e-01
1.482251e-01
1.467593e-01
1.452638e-01
1.437402e-01
1.421895e-01
1.406122e-01
1.390080e-01
1.373764e-01
1.357160e-01
1.340253e-01
1.323024e-01
1.305457e-01
1.287533e-01
1.269238e-01
1.250560e-01
1.231492e-01
1.212033e-01
1.192188e-01
1.171969e-01
1.151395e-01
1.130491e-01
1.109287e-01
1.087819e-01
1.066123e-01
1.044238e-01
1.022205e-01
1.000060e-01
9.778389e-02
9.555718e-02
9.332837e-02
9.109929e-02
8.887100e-02
8.664368e-02
8.441655e-02
8.218795e-02
7.995535e-02
7.771546e-02
7.546431e-02
7.319741e-02
7.090992e-02
6.859686e-02
6.625329e-02
6.387445e-02
6.145598e-02
5.899406e-02
5.648561e-02
5.392843e-02
5.132128e-02
4.866391e-02
4.595709e-02
4.320245e-02
4.040241e-02
3.755997e-02
3.467864e-02
3.176226e-02
2.881483e-02
2.584032e-02
2.284261e-02
1.982540e-02
1.679212e-02
1.374592e-02
1.068967e-02
7.625966e-03
4.557117e-03
1.485140e-03
-1.588202e-03
-4.661395e-03
-7.733196e-03
-1.080261e-02
-1.386885e-02
-1.693122e-02
-1.998908e-02
-2.304174e-02
-2.608852e-02
-2.912869e-02
-3.216155e-02
-3.518633e-02
-3.820214e-02
-4.120795e-02
-4.420253e-02
-4.718453e-02
-5.015240e-02
-5.310441e-02
-5.603863e-02
-5.895291e-02
-6.184486e-02
-6.471192e-02
-6.755137e-02
-7.036043e-02
-7.313627e-02
-7.587612e-02
-7.857729e-02
-8.123726e-02
-8.385374e-02
-8.642487e-02
-8.894920e-02
-9.142581e-02
-9.385435e-02
-9.623504e-02
-9.856860e-02
-1.008563e-01
-1.030998e-01
-1.053013e-01
-1.074633e-01
-1.095883e-01
-1.116791e-01
-1.137388e-01
-1.157703e-01
-1.177766e-01
-1.197606e-01
-1.217254e-01
-1.236739e-01
-1.256088e-01
-1.275328e-01
-1.294485e-01
-1.313583e-01
-1.332643e-01
-1.351686e-01
-1.370726e-01
-1.389775e-01
-1.408841e-01
-1.427926e-01
-1.447026e-01
-1.466133e-01
-1.485232e-01
-1.504307e-01
-1.523334e-01
-1.542288e-01
-1.561138e-01
-1.579851e-01
-1.598395e-01
-1.616737e-01
-1.634842e-01
-1.652680e-01
-1.670220e-01
-1.687437e-01
-1.704306e-01
-1.720807e-01
-1.736926e-01
-1.752654e-01
-1.767986e-01
-1.782924e-01
-1.797478e-01
-1.811660e-01
-1.825491e-01
-1.838995e-01
-1.852199e-01
-1.865131e-01
-1.877820e-01
-1.890294e-01
-1.902576e-01
-1.914684e-01
-1.926632e-01
-1.938427e-01
-1.950072e-01
-1.961561e-01
-1.972886e-01
-1.984032e-01
-1.994985e-01
-2.005729e-01
-2.016249e-01
-2.026532e-01
-2.036568e-01
-2.046347e-01
-2.055862e-01
-2.065110e-01
-2.074087e-01
-2.082795e-01
-2.091235e-01
-2.099408e-01
-2.107317e-01
-2.114965e-01
-2.122355e-01
-2.129488e-01
-2.136368e-01
-2.142996e-01
-2.149376e-01
-2.155510e-01
-2.161403e-01
-2.167065e-01
-2.172505e-01
-2.177738e-01
-2.182779e-01
-2.187649e-01
-2.192369e-01
-2.196961e-01
-2.201451e-01
-2.205864e-01
-2.210226e-01
-2.214564e-01
-2.218906e-01
-2.223277e-01
-2.227702e-01
-2.232207e-01
-2.236811e-01
-2.241533e-01
-2.246391e-01
-2.251397e-01
-2.256561e-01
-2.261889e-01
-2.267386e-01
-2.273051e-01
-2.278882e-01
-2.284871e-01
-2.291011e-01
-2.297292e-01
-2.303703e-01
-2.310234e-01
-2.316878e-01
-2.323627e-01
-2.330477e-01
-2.337430e-01
-2.344488e-01
-2.351662e-01
-2.358963e-01
-2.366405e-01
-2.374009e-01
-2.381795e-01
-2.389786e-01
-2.398006e-01
-2.406478e-01
-2.415223e-01
-2.424259e-01
-2.433599e-01
-2.443254e-01
-2.453225e-01
-2.463510e-01
-2.474102e-01
-2.484985e-01
-2.496142e-01
-2.507549e-01
-2.519179e-01
-2.531005e-01
-2.542999e-01
-2.555134e-01
-2.567383e-01
-2.579724e-01
-2.592137e-01
-2.604608e-01
-2.617127e-01
-2.629688e-01
-2.642293e-01
-2.654945e-01
-2.667653e-01
-2.680428e-01
-2.693284e-01
-2.706236e-01
-2.719300e-01
-2.732494e-01
-2.745836e-01
-2.759347e-01
-2.773046e-01
-2.786953e-01
-2.801092e-01
-2.815482e-01
-2.830145e-01
-2.845098e-01
-2.860357e-01
-2.875932e-01
-2.891834e-01
-2.908066e-01
-2.924629e-01
-2.941520e-01
-2.958734e-01
-2.976262e-01
-2.994090e-01
-3.012205e-01
-3.030592e-01
-3.049236e-01
-3.068121e-01
-3.087234e-01
-3.106562e-01
-3.126091e-01
-3.145809e-01
-3.165705e-01
-3.185766e-01
-3.205979e-01
-3.226332e-01
-3.246811e-01
-3.267403e-01
-3.288093e-01
-3.308869e-01
-3.329718e-01
-3.350627e-01
-3.371587e-01
-3.392587e-01
-3.413621e-01
-3.434681e-01
-3.455763e-01
-3.476865e-01
-3.497987e-01
-3.519128e-01
-3.540294e-01
-3.561489e-01
-3.582718e-01
-3.603991e-01
-3.625315e-01
-3.646699e-01
-3.668151e-01
-3.689680e-01
-3.711293e-01
-3.732994e-01
-3.754788e-01
-3.776677e-01
-3.798661e-01
-3.820739e-01
-3.842906e-01
-3.865159e-01
-3.887489e-01
-3.909888e-01
-3.932346e-01
-3.954851e-01
-3.977391e-01
-3.999955e-01
-4.022528e-01
-4.045097e-01
-4.067646e-01
-4.090160e-01
-4.112623e-01
-4.135020e-01
-4.157337e-01
-4.179560e-01
-4.201677e-01
-4.223679e-01
-4.245558e-01
-4.267309e-01
-4.288932e-01
-4.310428e-01
-4.331803e-01
-4.353064e-01
-4.374222e-01
-4.395288e-01
-4.416275e-01
-4.437193e-01
-4.458051e-01
-4.478859e-01
-4.499622e-01
-4.520346e-01
-4.541033e-01
-4.561686e-01
-4.582302e-01
-4.602880e-01
-4.623418e-01
-4.643911e-01
-4.664358e-01
-4.684756e-01
-4.705103e-01
-4.725402e-01
-4.745657e-01
-4.765873e-01
-4.786061e-01
-4.806233e-01
-4.826401e-01
-4.846583e-01
-4.866796e-01
-4.887059e-01
-4.907392e-01
-4.927816e-01
-4.948351e-01
-4.969015e-01
-4.989829e-01
-5.010809e-01
-5.031970e-01
-5.053327e-01
-5.074891e-01
-5.096670e-01
-5.118669e-01
-5.140891e-01
-5.163335e-01
-5.185996e-01
-5.208869e-01
-5.231943e-01
-5.255207e-01
-5.278647e-01
-5.302248e-01
-5.325992e-01
-5.349862e-01
-5.373842e-01
-5.397913e-01
-5.422060e-01
-5.446271e-01
-5.470533e-01
-5.494838e-01
-5.519180e-01
-5.543555e-01
-5.567960e-01
-5.592395e-01
-5.616861e-01
-5.641355e-01
-5.665877e-01
-5.690421e-01
-5.714982e-01
-5.739552e-01
-5.764123e-01
-5.788682e-01
-5.813218e-01
-5.837718e-01
-5.862169e-01
-5.886559e-01
-5.910873e-01
-5.935101e-01
-5.959231e-01
-5.983253e-01
-6.007158e-01
-6.030940e-01
-6.054596e-01
-6.078126e-01
-6.101532e-01
-6.124820e-01
-6.147999e-01
-6.171077e-01
-6.194067e-01
-6.216978e-01
-6.239822e-01
-6.262605e-01
-6.285332e-01
-6.308005e-01
-6.330617e-01
-6.353159e-01
-6.375612e-01
-6.397956e-01
-6.420164e-01
-6.442204e-01
-6.464043e-01
-6.485645e-01
-6.506975e-01
-6.527995e-01
-6.548672e-01
-6.568973e-01
-6.588870e-01
-6.608337e-01
-6.627354e-01
-6.645903e-01
-6.663972e-01
-6.681549e-01
-6.698628e-01
-6.715202e-01
-6.731267e-01
-6.746819e-01
-6.761853e-01
-6.776364e-01
-6.790346e-01
-6.803790e-01
-6.816684e-01
-6.829017e-01
-6.840774e-01
-6.851940e-01
-6.862496e-01
-6.872427e-01
-6.881714e-01
-6.890339e-01
-6.898291e-01
-6.905557e-01
-6.912130e-01
-6.918007e-01
-6.923189e-01
-6.927679e-01
-6.931487e-01
-6.934623e-01
-6.937102e-01
-6.938942e-01
-6.940160e-01
-6.940774e-01
-6.940803e-01
-6.940264e-01
-6.939175e-01
-6.937551e-01
-6.935406e-01
-6.932755e-01
-6.929608e-01
-6.925976e-01
-6.921869e-01
-6.917299e-01
-6.912277e-01
-6.906817e-01
-6.900934e-01
-6.894646e-01
-6.887974e-01
-6.880938e-01
-6.873564e-01
-6.865878e-01
-6.857906e-01
-6.849675e-01
-6.841212e-01
-6.832540e-01
-6.823682e-01
-6.814656e-01
-6.805476e-01
-6.796155e-01
-6.786697e-01
-6.777104e-01
-6.767370e-01
-6.757486e-01
-6.747436e-01
-6.737200e-01
-6.726755e-01
-6.716076e-01
-6.705134e-01
-6.693902e-01
-6.682353e-01
-6.670461e-01
-6.658202e-01
-6.645557e-01
-6.632509e-01
-6.619046e-01
-6.605158e-01
-6.590839e-01
-6.576086e-01
-6.560899e-01
-6.545277e-01
-6.529223e-01
-6.512739e-01
-6.495824e-01
-6.478479e-01
-6.460702e-01
-6.442491e-01
-6.423842e-01
-6.404750e-01
-6.385211e-01
-6.365219e-01
-6.344772e-01
-6.323867e-01
-6.302504e-01
-6.280685e-01
-6.258414e-01
-6.235696e-01
-6.212542e-01
-6.188964e-01
-6.164976e-01
-6.140595e-01
-6.115838e-01
-6.090724e-01
-6.065269e-01
-6.039491e-01
-6.013406e-01
-5.987028e-01
-5.960370e-01
-5.933442e-01
-5.906256e-01
-5.878817e-01
-5.851135e-01
-5.823213e-01
-5.795057e-01
-5.766671e-01
-5.738057e-01
-5.709216e-01
-5.680149e-01
-5.650855e-01
-5.621331e-01
-5.591572e-01
-5.561575e-01
-5.531332e-01
-5.500838e-01
-5.470090e-01
-5.439083e-01
-5.407816e-01
-5.376289e-01
-5.344502e-01
-5.312458e-01
-5.280161e-01
-5.247614e-01
-5.214824e-01
-5.181797e-01
-5.148539e-01
-5.115056e-01
-5.081354e-01
-5.047440e-01
-5.013322e-01
-4.979009e-01
-4.944512e-01
-4.909843e-01
-4.875014e-01
-4.840039e-01
-4.804932e-01
-4.769709e-01
-4.734383e-01
-4.698968e-01
-4.663475e-01
-4.627914e-01
-4.592290e-01
-4.556607e-01
-4.520866e-01
-4.485065e-01
-4.449201e-01
-4.413270e-01
-4.377264e-01
-4.341178e-01
-4.305009e-01
-4.268752e-01
-4.232405e-01
-4.195968e-01
-4.159439e-01
-4.122821e-01
-4.086116e-01
-4.049328e-01
-4.012461e-01
-3.975521e-01
-3.938512e-01
-3.901442e-01
-3.864315e-01
-3.827139e-01
-3.789917e-01
-3.752653e-01
-3.715350e-01
-3.678008e-01
-3.640627e-01
-3.603208e-01
-3.565750e-01
-3.528256e-01
-3.490727e-01
-3.453168e-01
-3.415586e-01
-3.377989e-01
-3.340388e-01
-3.302795e-01
-3.265223e-01
-3.227686e-01
-3.190199e-01
-3.152775e-01
-3.115429e-01
-3.078173e-01
-3.041017e-01
-3.003973e-01
-2.967045e-01
-2.930238e-01
-2.893552e-01
-2.856984e-01
-2.820527e-01
-2.784170e-01
-2.747899e-01
-2.711699e-01
-2.675551e-01
-2.639437e-01
-2.603337e-01
-2.567237e-01
-2.531123e-01
-2.494989e-01
-2.458832e-01
-2.422654e-01
-2.386465e-01
-2.350278e-01
-2.314112e-01
-2.277990e-01
-2.241940e-01
-2.205991e-01
-2.170178e-01
-2.134534e-01
-2.099089e-01
-2.063875e-01
-2.028917e-01
-1.994237e-01
-1.959852e-01
-1.925775e-01
-1.892013e-01
-1.858568e-01
-1.825437e-01
-1.792614e-01
-1.760088e-01
-1.727844e-01
-1.695863e-01
-1.664128e-01
-1.632616e-01
-1.601307e-01
-1.570178e-01
-1.539207e-01
-1.508372e-01
-1.477654e-01
-1.447033e-01
-1.416491e-01
-1.386012e-01
-1.355580e-01
-1.325180e-01
-1.294798e-01
-1.264420e-01
-1.234033e-01
-1.203626e-01
-1.173187e-01
-1.142705e-01
-1.112170e-01
-1.081576e-01
-1.050915e-01
-1.020186e-01
-9.893893e-02
-9.585302e-02
-9.276162e-02
-8.966582e-02
-8.656694e-02
-8.346651e-02
-8.036615e-02
-7.726755e-02
-7.417236e-02
-7.108215e-02
-6.799841e-02
-6.492247e-02
-6.185556e-02
-5.879881e-02
-5.575325e-02
-5.271980e-02
-4.969925e-02
-4.669225e-02
-4.369928e-02
-4.072062e-02
-3.775641e-02
-3.480664e-02
-3.187128e-02
-2.895025e-02
-2.604350e-02
-2.315094e-02
-2.027243e-02
-1.740783e-02
-1.455697e-02
-1.171968e-02
-8.895784e-03
-6.085162e-03
-3.287695e-03
-5.032470e-04
2.268350e-03
5.027307e-03
7.773924e-03
1.050864e-02
1.323207e-02
1.594497e-02
1.864822e-02
2.134277e-02
2.402957e-02
2.670949e-02
2.938325e-02
3.205136e-02
3.471405e-02
3.737120e-02
4.002239e-02
4.266688e-02
4.530363e-02
4.793131e-02
5.054835e-02
5.315294e-02
5.574309e-02
5.831666e-02
6.087141e-02
6.340506e-02
6.591541e-02
6.840037e-02
7.085804e-02
7.328672e-02
7.568496e-02
7.805151e-02
8.038526e-02
8.268525e-02
8.495060e-02
8.718045e-02
8.937395e-02
9.153022e-02
9.364845e-02
9.572782e-02
9.776755e-02
9.976689e-02
1.017252e-01
1.036419e-01
1.055166e-01
1.073489e-01
1.091385e-01
1.108854e-01
1.125896e-01
1.142513e-01
1.158706e-01
1.174477e-01
1.189828e-01
1.204759e-01
1.219269e-01
1.233356e-01
1.247018e-01
1.260251e-01
1.273051e-01
1.285413e-01
1.297334e-01
1.308812e-01
1.319846e-01
1.330437e-01
1.340585e-01
1.350292e-01
1.359560e-01
1.368391e-01
1.376788e-01
1.384754e-01
1.392295e-01
1.399413e-01
1.406116e-01
1.412408e-01
1.418295e-01
1.423786e-01
1.428886e-01
1.433603e-01
1.437946e-01
1.441921e-01
1.445536e-01
1.448797e-01
1.451710e-01
1.454278e-01
1.456503e-01
1.458387e-01
1.459926e-01
1.461118e-01
1.461958e-01
1.462441e-01
1.462560e-01
1.462310e-01
1.461686e-01
1.460686e-01
1.459308e-01
1.457554e-01
1.455429e-01
1.452938e-01
1.450094e-01
1.446911e-01
1.443408e-01
1.439604e-01
1.435523e-01
1.431191e-01
1.426634e-01
1.421875e-01
1.416942e-01
1.411857e-01
1.406639e-01
1.401306e-01
1.395871e-01
1.390342e-01
1.384727e-01
1.379028e-01
1.373247e-01
1.367382e-01
1.361432e-01
1.355396e-01
1.349272e-01
1.343062e-01
1.336770e-01
1.330404e-01
1.323975e-01
1.317499e-01
1.310992e-01
1.304475e-01
1.297973e-01
1.291509e-01
1.285111e-01
1.278803e-01
1.272611e-01
1.266559e-01
1.260668e-01
1.254956e-01
1.249438e-01
1.244126e-01
1.239028e-01
