EVENT_NAME: L_AQUILA
EVENT_ID: IT-2009-0009
EVENT_DATE_YYYYMMDD: 20090406
EVENT_TIME_HHMMSS: 013240
EVENT_LATITUDE_DEGREE: 42.3420
EVENT_LONGITUDE_DEGREE: 13.3800
EVENT_DEPTH_KM: 8.3
HYPOCENTER_REFERENCE: INGV-CNT_Seismic_Bulletin
MAGNITUDE_W: 6.1
MAGNITUDE_W_REFERENCE: INGV-CNT_Seismic_Bulletin
MAGNITUDE_L: 
MAGNITUDE_L_REFERENCE: 
FOCAL_MECHANISM: Normal faulting
NETWORK: IT
STATION_CODE: CSS
STATION_NAME: 
STATION_LATITUDE_DEGREE: 41.485790
STATION_LONGITUDE_DEGREE: 13.823090
STATION_ELEVATION_M: 166
LOCATION: 
SENSOR_DEPTH_M: 0.0
VS30_M/S: 648
SITE_CLASSIFICATION_EC8: B
MORPHOLOGIC_CLASSIFICATION: 
EPICENTRAL_DISTANCE_KM: 102.0
EARTHQUAKE_BACKAZIMUTH_DEGREE: 158.7
DATE_TIME_FIRST_SAMPLE_YYYYMMDD_HHMMSS: 20090406_013234.000
DATE_TIME_FIRST_SAMPLE_PRECISION: seconds
SAMPLING_INTERVAL_S: 0.005000
NDATA: 24000
DURATION_S: 120.000
STREAM: HNZ
UNITS: cm/s^2
INSTRUMENT: sensor = FBA-3 [Kinemetrics] | digitizer = Etna [Kinemetrics]
INSTRUMENT_ANALOG/DIGITAL: D
INSTRUMENTAL_FREQUENCY_HZ: 
INSTRUMENTAL_DAMPING: 
FULL_SCALE_G: 
N_BIT_DIGITAL_CONVERTER: 18
PGA_CM/S^2: -2.851087
TIME_PGA_S: 50.615000
BASELINE_CORRECTION: BASELINE NOT REMOVED
FILTER_TYPE: 
FILTER_ORDER: 
LOW_CUT_FREQUENCY_HZ: 
HIGH_CUT_FREQUENCY_HZ: 
LATE/NORMAL_TRIGGERED: NT
DATABASE_VERSION: 0.5
HEADER_FORMAT: DYNA 1.2
DATA_TYPE: ACCELERATION
PROCESSING: converted to cm/s^2
DATA_TIMESTAMP_YYYYMMDD_HHMMSS: 20211011_160637.616
DATA_LICENSE: CC-BY3_0-IT (http://creativecommons.org/licenses/by/3.0/deed.en)
DATA_CITATION: Luzi L, Pacor F, Puglia R (2019). Italian Accelerometric Archive v 3.0 - Istituto Nazionale di Geofisica e Vulcanologia, Dipartimento della Protezione Civile Nazionale. doi: 10.13127/itaca.3.1
DATA_CREATOR: ITACA working group
ORIGINAL_DATA_MEDIATOR_CITATION: data obtained within the DPC-INGV data exchange agreements
ORIGINAL_DATA_MEDIATOR: Archive of Italian Department of Civil Protection
ORIGINAL_DATA_CREATOR_CITATION: Presidency Of Counsil Of Ministers-Civil Protection Department. (1972). Italian Strong Motion Network. Presidency of Counsil of Ministers - Civil Protection Department. https://doi.org/10.7914/SN/IT http://www.fdsn.org/networks/detail/IT/
ORIGINAL_DATA_CREATOR: network: IT (Italian Strong Motion Network (RAN)); owner: Presidency of Counsil of Ministers - Civil Protection Department (PCM - DPC)
USER1: 
USER2: 
USER3: 
USER4: 
USER5: 
[...]
-0.296088
-0.351052
-0.428235
-0.523193
-0.635928
-0.754509
-0.875196
-0.992608
-1.090841
-1.181356
-1.241232
-1.270234
-1.287542
-1.272105
-1.218077
-1.139022
-1.043596
-0.926885
-0.802223
-0.670309
-0.541437
-0.423557
-0.305677
-0.192709
-0.103831
-0.032729
0.025743
0.058488
0.075327
0.075561
0.058254
0.010540
-0.054013
-0.141955
-0.254923
-0.373505
-0.510797
-0.650195
-0.800585
-0.944661
-1.080784
-1.212931
-1.321923
-1.406825
-1.463192
-1.510437
-1.533358
-1.532189
-1.509034
-1.477459
-1.448925
-1.398405
-1.350224
-1.306486
-1.259709
-1.206382
-1.149547
-1.107915
-1.066283
-1.022546
-0.979510
-0.942322
-0.921740
-0.897649
-0.875664
-0.881043
-0.878704
-0.878704
-0.899053
-0.907239
-0.924312
-0.927587
-0.927353
-0.937410
-0.924312
-0.915658
-0.894375
-0.868179
-0.845726
-0.805030
-0.769010
-0.718491
-0.658615
-0.603417
-0.536759
-0.468230
-0.403676
-0.342865
-0.272699
-0.196919
-0.118800
-0.030624
0.073222
0.183618
0.304071
0.438089
0.559711
0.699342
0.838272
0.962935
1.096251
1.221382
1.344407
1.456908
1.567771
1.671617
1.757455
1.827387
1.886093
1.936145
1.959300
1.977076
1.987367
1.974737
1.945033
1.909014
1.864576
1.802595
1.741316
1.682142
1.612677
1.536664
1.472110
1.408025
1.334350
1.251320
1.159869
1.075669
0.974863
0.859790
0.733256
0.592923
0.457034
0.311555
0.154382
-0.005598
-0.154819
-0.307548
-0.461681
-0.609732
-0.757316
-0.871921
-0.976235
-1.072130
-1.130134
-1.175041
-1.200535
-1.199599
-1.182760
-1.138321
-1.080082
-1.006407
-0.916360
-0.816256
-0.703288
-0.597804
-0.487876
-0.373037
-0.268723
-0.165578
-0.060328
0.035333
0.131929
0.226420
0.306643
0.388738
0.464050
0.530241
0.573744
0.602513
0.617715
0.611868
0.622159
0.628942
0.629877
0.649524
0.683204
0.735127
0.802955
0.877332
0.962233
1.056724
1.153320
1.236351
1.306283
1.383233
1.438430
1.460884
1.473748
1.470941
1.451294
1.416445
1.370837
1.326398
1.266055
1.196356
1.136948
1.071459
1.011584
0.959426
0.903761
0.859790
0.822836
0.784244
0.748459
0.714545
0.675252
0.627539
0.566961
0.497964
0.416103
0.306409
0.182916
0.046091
-0.100323
-0.254222
-0.414669
-0.559212
-0.692295
-0.815554
-0.924079
-1.002197
-1.047572
-1.066985
-1.062775
-1.037047
-0.982317
-0.926885
-0.863267
-0.780705
-0.703755
-0.632420
-0.576052
-0.517580
-0.466826
-0.439227
-0.404846
-0.384965
-0.377247
-0.369295
-0.376312
-0.377715
-0.383562
-0.403209
-0.423323
-0.449285
-0.482263
-0.521790
-0.563188
-0.608563
-0.660720
-0.711708
-0.766905
-0.821168
-0.868413
-0.922441
-0.976235
-1.024651
-1.079615
-1.128731
-1.186502
-1.263685
-1.335956
-1.406357
-1.487516
-1.573587
-1.652408
-1.729357
-1.812855
-1.882086
-1.939155
-1.987336
-2.013064
-2.027799
-2.021718
-1.981021
-1.924654
-1.860803
-1.783385
-1.678369
-1.567740
-1.464595
-1.356071
-1.267895
-1.187905
-1.118674
-1.082421
-1.062541
-1.069090
-1.097157
-1.145805
-1.210592
-1.281928
-1.360515
-1.420858
-1.478629
-1.530552
-1.556280
-1.568910
-1.545988
-1.485177
-1.417817
-1.322859
-1.193752
-1.055992
-0.905601
-0.751235
-0.594997
-0.437590
-0.300765
-0.180781
-0.080910
-0.006767
0.039075
0.044922
0.015686
-0.054481
-0.158561
-0.282288
-0.441333
-0.628443
-0.817893
-1.016698
-1.217842
-1.402381
-1.578733
-1.734269
-1.857762
-1.944769
-1.993183
-2.005346
-1.976577
-1.905007
-1.804201
-1.693338
-1.552303
-1.392324
-1.231876
-1.074703
-0.923143
-0.770648
-0.631250
-0.511031
-0.400168
-0.283925
-0.195983
-0.123244
-0.045827
0.014516
0.068311
0.102693
0.136372
0.162568
0.184320
0.219169
0.241622
0.275770
0.305942
0.330734
0.363244
0.408151
0.465921
0.508489
0.574914
0.646483
0.719223
0.808802
0.899785
1.007374
1.113325
1.227229
1.341133
1.448020
1.555375
1.659455
1.753712
1.823411
1.883287
1.924217
1.934742
1.923749
1.896852
1.848437
1.780843
1.691966
1.590926
1.490354
1.378789
1.264183
1.131802
1.019068
0.912883
0.777461
0.663791
0.554331
0.452590
0.346404
0.247937
0.167012
0.083280
0.026679
-0.028519
-0.053545
-0.057521
-0.054013
-0.007703
0.044688
0.111112
0.200692
0.308982
0.434347
0.557606
0.689753
0.829384
0.959894
1.086194
1.203138
1.310493
1.406622
1.486611
1.545551
1.579231
1.600047
1.592095
1.556544
1.502984
1.423228
1.325930
1.216470
1.104204
0.985388
0.878267
0.787285
0.705423
0.660751
0.628006
0.611634
0.638531
0.680631
0.727409
0.789857
0.859322
0.914754
0.967145
1.008543
1.039650
1.074266
1.096719
1.099760
1.092509
1.090872
1.085492
1.077306
1.060233
1.050409
1.047135
1.032166
1.025383
1.011584
1.002930
0.983985
0.946329
0.908439
0.850434
0.783075
0.707529
0.622861
0.530007
0.428032
0.326524
0.226186
0.116726
0.007500
-0.095645
-0.199024
-0.292345
-0.379820
-0.452793
-0.517814
-0.574181
-0.609031
-0.632887
-0.652300
-0.659551
-0.637799
-0.611603
-0.581900
-0.540034
-0.500506
-0.456535
-0.425194
-0.404144
-0.378650
-0.379352
-0.407652
-0.436889
-0.482497
-0.545881
-0.617684
-0.704458
-0.798246
-0.892504
-0.984422
-1.068622
-1.140192
-1.195857
-1.232812
-1.243337
-1.231876
-1.202640
-1.149547
-1.067218
-0.971325
-0.870986
-0.758719
-0.649259
-0.538630
-0.430808
-0.338655
-0.265448
-0.208146
-0.160432
-0.147335
-0.144060
-0.162537
-0.203234
-0.242761
-0.300532
-0.353858
-0.422855
-0.496296
-0.567632
-0.649493
-0.721063
-0.810175
-0.897649
-0.978575
-1.062307
-1.135748
-1.201237
-1.241232
-1.272105
-1.296897
-1.299470
-1.284969
-1.264854
-1.230707
-1.172468
-1.119376
-1.061371
-0.997753
-0.941620
-0.878704
-0.827015
-0.781640
-0.732290
-0.678028
-0.630548
-0.587981
-0.530210
-0.475246
-0.421686
-0.365553
-0.315500
-0.265682
-0.210718
-0.170256
-0.136576
-0.102896
-0.080208
-0.057755
-0.050037
-0.047932
-0.052843
-0.065707
-0.085354
-0.114122
-0.139148
-0.177272
-0.210484
-0.241124
-0.281353
-0.304508
-0.325324
-0.341930
-0.349882
-0.350116
-0.340293
-0.334445
-0.309419
-0.280183
-0.247205
-0.199959
-0.164175
-0.108977
-0.057053
-0.013082
0.048196
0.107604
0.174496
0.234372
0.291675
0.350848
0.406514
0.457502
0.490480
0.522756
0.539362
0.548016
0.541935
0.514570
0.489778
0.442065
0.396691
0.351784
0.302667
0.267818
0.235073
0.212152
0.190167
0.174496
0.170754
0.174496
0.187360
0.195078
0.203265
0.218935
0.231097
0.235541
0.224081
0.210983
0.187126
0.143389
0.100821
0.042115
-0.018696
-0.090733
-0.172595
-0.244164
-0.330235
-0.412330
-0.487876
-0.561785
-0.629613
-0.698376
-0.749597
-0.790762
-0.828652
-0.849234
-0.858356
-0.856719
-0.837072
-0.809005
-0.773454
-0.729249
-0.671479
-0.604587
-0.544010
-0.475246
-0.402273
-0.329300
-0.269658
-0.222881
-0.172361
-0.136576
-0.113187
-0.097048
-0.086757
-0.083483
-0.093072
-0.086991
-0.067812
-0.059392
-0.036004
-0.002090
0.031590
0.078836
0.126081
0.178005
0.229226
0.279980
0.337049
0.377512
0.422418
0.471067
0.499134
0.525797
0.539129
0.538895
0.531644
0.504747
0.474809
0.433411
0.390142
0.347574
0.303837
0.278343
0.254486
0.252147
0.273899
0.315063
0.384762
0.472237
0.580293
0.703318
0.839676
0.979307
1.123616
1.273071
1.409896
1.533857
1.653374
1.758156
1.836509
1.902232
1.956728
1.996489
2.030169
2.056130
2.069930
2.087003
2.104077
2.120216
2.153896
2.188511
2.228506
2.279728
2.338902
2.402519
2.462161
2.536070
2.614422
2.678040
2.733706
2.775572
2.804106
2.818139
2.816502
2.802235
2.763877
2.722245
2.661434
2.587291
2.526480
2.442748
2.376324
2.308028
2.231079
2.176817
2.113433
2.060574
2.010288
1.974035
1.939654
1.887497
1.838146
1.783884
1.728218
1.654310
1.571279
1.486845
1.387910
1.287572
1.172733
1.063741
0.970887
0.864702
0.775590
0.707996
0.647653
0.597133
0.577486
0.581462
0.587076
0.636192
0.698407
0.770444
0.873355
0.970185
1.078944
1.194251
1.304646
1.407791
1.494564
1.580635
1.647995
1.693369
1.731961
1.753712
1.769149
1.775464
1.765173
1.761898
1.755817
1.748801
1.755350
1.760261
1.767278
1.782013
1.800724
1.823177
1.842824
1.857559
1.860599
1.860833
1.857091
1.841654
1.819669
1.779206
1.728920
1.666706
1.604959
1.536664
1.458779
1.396097
1.317978
1.257868
1.209220
1.151449
1.105607
1.065612
1.037078
1.011116
0.988195
0.965274
0.952410
0.942820
0.935570
0.936272
0.939312
0.948901
0.966443
0.987493
1.006438
1.035908
1.054385
1.062805
1.066080
1.070758
1.073798
1.055789
1.043393
1.027488
1.003631
0.975565
0.949369
0.931126
0.904463
0.875460
0.848096
0.810439
0.763662
0.715715
0.665428
0.616780
0.560412
0.494924
0.434347
0.382189
0.341961
0.302901
0.276004
0.264076
0.257761
0.267584
0.279746
0.295417
0.327226
0.350147
0.361373
0.377746
0.386165
0.388738
0.391545
0.387335
0.376576
0.357631
0.338218
0.324419
0.299159
0.273899
0.252381
0.222210
0.210983
0.192973
0.178238
0.183384
0.175900
0.185489
0.180577
0.167246
0.168649
0.147365
0.117895
0.078602
0.042349
0.001419
-0.060562
-0.119502
-0.175869
-0.226389
-0.281353
-0.340994
-0.381691
-0.412096
-0.443437
-0.461213
-0.460745
-0.450688
-0.420516
-0.376078
-0.321815
-0.257964
-0.191072
-0.111082
-0.031560
0.025977
0.075327
0.108540
0.116726
0.104330
0.068311
0.016154
-0.063368
-0.157860
-0.257262
-0.381925
-0.522258
-0.654171
-0.777898
-0.900924
-1.004302
-1.090373
-1.160774
-1.211294
-1.237723
-1.245208
-1.237489
-1.210826
-1.169662
-1.103939
-1.034474
-0.957992
-0.877769
-0.787721
-0.695803
-0.620023
-0.525299
-0.438292
-0.366956
-0.305677
-0.228494
-0.164175
-0.116695
-0.045125
-0.000219
0.052640
0.103160
0.144559
0.188764
0.223145
0.266648
0.282553
0.290505
0.290271
0.267116
0.240453
0.194143
0.137776
0.083981
0.013581
-0.055884
-0.116695
-0.184991
-0.241358
-0.295854
-0.344503
-0.386369
-0.432679
-0.466359
-0.501208
-0.524831
-0.542138
-0.564358
-0.562019
-0.555470
-0.561551
-0.558744
-0.552196
-0.554535
-0.547986
-0.538396
-0.537929
-0.526000
-0.519217
-0.514540
-0.512902
-0.510330
-0.492320
-0.491151
-0.483666
-0.461915
-0.437824
-0.407185
-0.373739
-0.335615
-0.295620
-0.257730
-0.237148
-0.213525
-0.196451
-0.209315
-0.228494
-0.255625
-0.292345
-0.349882
-0.418411
-0.482497
-0.563890
-0.649259
-0.741879
-0.834265
-0.917530
-1.004770
-1.081252
-1.151184
-1.205914
-1.253862
-1.301809
-1.341336
-1.373846
-1.404486
-1.443077
-1.481903
-1.511607
-1.537802
-1.578499
-1.607033
-1.629721
-1.653343
-1.669482
-1.689362
-1.696613
-1.697782
-1.700355
-1.696613
-1.682579
-1.672990
-1.672990
-1.675797
-1.673458
-1.674393
-1.694040
-1.709944
-1.726083
-1.742221
-1.753214
-1.766078
-1.767715
-1.767247
-1.762569
-1.753915
-1.749939
-1.740350
-1.730994
-1.713920
-1.694508
-1.679305
-1.658723
-1.637205
-1.610541
-1.581540
-1.554175
-1.524705
-1.493363
-1.463426
-1.437230
-1.407760
-1.384839
-1.374081
-1.366128
-1.364257
-1.365426
-1.383904
-1.402381
-1.422495
-1.454070
-1.470676
-1.490557
-1.498041
-1.505760
-1.502251
-1.477459
-1.462256
-1.412438
-1.347183
-1.278420
-1.198430
-1.107447
-0.997520
-0.901625
-0.798246
-0.696037
-0.608797
-0.518048
-0.457471
-0.409758
-0.368125
-0.345438
-0.328130
-0.328364
-0.329066
-0.337720
-0.347777
-0.345204
-0.343099
-0.325558
-0.298660
-0.250947
-0.186394
-0.120905
-0.035770
0.054979
0.153446
0.265245
0.364180
0.463583
0.560646
0.643677
0.724368
0.773953
0.817924
0.864702
0.878267
0.882711
0.886219
0.873122
0.846692
0.828917
0.805060
0.769977
0.742612
0.718287
0.696302
0.686011
0.682736
0.680631
0.696536
0.723433
0.761791
0.812077
0.869847
0.940248
1.012987
1.099994
1.184427
1.259038
1.346746
1.431180
1.512105
1.600047
1.678400
1.745994
1.819669
1.883287
1.940122
2.001868
2.046775
2.091681
2.135886
2.167695
2.210263
2.248621
2.279962
2.308964
2.330949
2.360185
2.382639
2.408834
2.433159
2.444151
2.476428
2.498414
2.505430
2.525311
2.537707
2.549401
2.557587
2.555950
2.549635
2.536771
2.514084
2.476662
2.438772
2.397140
2.337264
2.261484
2.189447
2.115772
2.032040
1.967954
1.898022
1.825516
1.767512
1.710677
1.671617
1.622267
1.575957
1.541108
1.497838
1.459247
1.409896
1.361949
1.307687
1.243601
1.180451
1.105841
1.028424
0.947966
0.862363
0.779332
0.698875
0.609997
0.523926
0.445339
0.370027
0.297990
0.218467
0.135203
0.052173
-0.027817
-0.104299
-0.186160
-0.277610
-0.351052
-0.430106
-0.520387
-0.601078
-0.684343
-0.758485
-0.841750
-0.899988
-0.950508
-1.007343
-1.037982
-1.070025
-1.084292
-1.091777
-1.090841
-1.067452
-1.042426
-1.019739
-0.985825
-0.941153
-0.910513
-0.882446
-0.863267
-0.854380
-0.855550
-0.869816
-0.896714
-0.939749
-0.991672
-1.062073
-1.137385
-1.230473
-1.336892
-1.442376
-1.556981
-1.661763
-1.774498
-1.872965
-1.960205
-2.059140
-2.133049
-2.183803
-2.233153
-2.283439
-2.318990
-2.356413
-2.383544
-2.409271
-2.448331
-2.468445
-2.506101
-2.544459
-2.586091
-2.639886
-2.668420
-2.719174
-2.767355
-2.794252
-2.829803
-2.846409
-2.851087
-2.847345
-2.833078
-2.797293
-2.738821
-2.674033
-2.589833
-2.502126
-2.399448
-2.280165
-2.155268
-2.022654
-1.891676
-1.759997
-1.636737
-1.520261
-1.413140
-1.315140
-1.227432
-1.156330
-1.100664
-1.057395
-1.023481
-1.008746
-1.000326
-0.993777
-1.000092
-1.001261
-0.999157
-0.998221
-0.991439
-0.987930
-0.976002
-0.960097
-0.943024
-0.928289
-0.922675
-0.903496
-0.891568
-0.894375
-0.892971
-0.898351
-0.909811
-0.931797
-0.958226
-0.982083
-1.018803
-1.046636
-1.075872
-1.112125
-1.129199
-1.153056
-1.169428
-1.182993
-1.195857
-1.193284
-1.205447
-1.219480
-1.223690
-1.225093
-1.242401
-1.251757
-1.244974
-1.251289
-1.247313
-1.239360
-1.218544
-1.186034
-1.158903
-1.104407
-1.035877
-0.970155
-0.889463
-0.796375
-0.697441
-0.596401
-0.505418
-0.407185
-0.308951
-0.227792
-0.136342
-0.056586
0.010073
0.076263
0.131461
0.194377
0.245131
0.290505
0.339154
0.370261
0.415168
0.456566
0.485568
0.536556
0.575849
0.622861
0.678292
0.722497
0.781437
0.835699
0.898849
0.956152
1.015326
1.093912
1.153554
1.220914
1.291782
1.353997
1.410364
1.459948
1.506258
1.541108
1.572916
1.589990
1.603556
1.610105
1.599112
1.581102
1.559117
1.530816
1.483571
1.433519
1.376216
1.324293
1.274007
1.207582
1.152151
1.097889
1.045498
0.994276
0.941651
0.896277
0.848329
0.794535
0.744249
0.708230
0.666364
0.617247
0.576317
0.538661
0.498900
0.458671
0.424757
0.384528
0.341727
0.301030
0.256591
0.224315
0.180577
0.124678
0.073456
0.027146
-0.016357
-0.069917
-0.103831
-0.138447
-0.173296
-0.193878
-0.215396
-0.227792
-0.248141
-0.255157
-0.272699
-0.295386
-0.299830
-0.321348
-0.334913
-0.360173
-0.385667
-0.391748
-0.411161
-0.423791
-0.429638
-0.431041
-0.420516
-0.412096
-0.397128
-0.375844
-0.364383
-0.345906
-0.327896
-0.331639
-0.341930
-0.347309
-0.369529
-0.409991
-0.451156
-0.505418
-0.567632
-0.628443
-0.694868
-0.773688
-0.850871
-0.917998
-0.989801
-1.057863
-1.129667
-1.193986
-1.249418
-1.303212
-1.345546
-1.391388
-1.428576
-1.463192
-1.492662
-1.504824
-1.530084
-1.547860
-1.557215
-1.566103
-1.559086
-1.560723
-1.558385
-1.559320
-1.573587
-1.573353
-1.582241
-1.602589
-1.622938
-1.649835
-1.677902
-1.712517
-1.748536
-1.789934
-1.827357
-1.850745
-1.880449
-1.895886
-1.903604
-1.911089
-1.894015
-1.878344
-1.865246
-1.831333
-1.794144
-1.754617
-1.699185
-1.645625
-1.586685
-1.522600
-1.464595
-1.399341
-1.328706
-1.264620
-1.210124
-1.154927
-1.096455
-1.041257
-0.986995
-0.922909
-0.859759
-0.801287
-0.732290
-0.649259
-0.568802
-0.491852
-0.391748
-0.298193
-0.200427
-0.090967
0.002588
0.109943
0.214257
0.310386
0.411893
0.505215
0.601811
0.693729
0.770211
0.858854
0.940248
0.998954
1.073096
1.144199
1.202905
1.260207
1.312131
1.365223
1.410130
1.446850
1.482869
1.514912
1.538769
1.555609
1.565666
1.564730
1.557246
1.539470
1.506960
1.473981
1.430712
1.366393
1.303711
1.243601
1.176007
1.109817
1.048772
0.994744
0.956152
0.917794
0.888091
0.884348
0.891833
0.908205
0.934400
0.969250
1.002228
1.043626
1.096953
1.135779
1.168523
1.193549
1.210389
1.220680
1.217640
1.199864
1.169459
1.142327
1.105373
1.060233
1.024214
0.985622
0.948200
0.928085
0.919432
0.907269
0.904930
0.920367
0.935102
0.952878
0.978371
1.002696
1.026786
1.046667
1.055321
1.053450
1.048070
1.020471
0.976968
0.936272
0.876396
0.810439
0.740273
0.663323
0.582164
0.492117
0.412829
0.336113
0.257293
0.186191
0.113685
0.046559
-0.008872
-0.070385
-0.129559
-0.182886
-0.236446
-0.286030
-0.345672
-0.406015
-0.460511
-0.524597
-0.596167
-0.670543
-0.745154
-0.820233
-0.903262
-0.988632
-1.069557
-1.153991
-1.229069
-1.299704
-1.372911
-1.436061
-1.495468
-1.549731
-1.589492
-1.624575
-1.661763
-1.680241
-1.685386
-1.684451
-1.669949
-1.646794
-1.610776
-1.565869
-1.513010
-1.464829
-1.404720
-1.333384
-1.274210
-1.204043
-1.140893
-1.075638
-1.009682
-0.958694
-0.902093
-0.855081
-0.814151
-0.786552
-0.769712
-0.742815
-0.722467
-0.713579
-0.701183
-0.676624
-0.660018
-0.644348
-0.620257
-0.593828
-0.551494
-0.515943
-0.470803
-0.405781
-0.351052
-0.289773
-0.219606
-0.146867
-0.077402
-0.013316
0.056616
0.118129
0.180577
0.248405
0.307813
0.377512
0.436919
0.480890
0.542871
0.608594
0.661920
0.710803
0.759919
0.801318
0.832191
0.851838
0.860726
0.868678
0.865403
0.847628
0.820964
0.789623
0.751499
0.704956
0.654670
0.600641
0.549654
0.504279
0.454695
0.404409
0.364648
0.328629
0.291441
0.258228
0.230863
0.210983
0.199055
0.186191
0.173561
0.166076
0.160697
0.164907
0.171924
0.183150
0.191102
0.202095
0.238348
0.264543
0.290973
0.337049
0.376108
0.416103
0.462179
0.510828
0.558541
0.602045
0.639701
0.674784
0.710335
0.736765
0.763428
0.789857
0.804358
0.814650
0.834296
0.847160
0.849265
0.866573
0.882009
0.900253
0.919432
0.936038
0.949837
0.950773
0.963403
0.977904
0.984453
0.995679
1.021173
1.040352
1.060233
1.099994
1.128528
1.170628
1.211558
1.250618
1.315405
1.371071
1.426268
1.488249
1.549294
1.597241
1.647995
1.694772
1.720500
1.752309
1.764003
1.770318
1.773827
1.761898
1.758624
1.731493
1.699918
1.671851
1.623904
1.584845
1.548124
1.496201
1.443576
1.404049
1.357739
1.306283
1.269563
1.229568
1.193315
1.173669
1.156829
1.140924
1.148409
1.166418
1.184427
1.221850
1.263248
1.315873
1.381128
1.446617
1.513976
1.575255
1.644486
1.708806
1.761431
1.819669
1.858494
1.879077
1.895683
1.889368
1.875802
1.861067
1.821072
1.772657
