EVENT_NAME: L_AQUILA
EVENT_ID: IT-2009-0009
EVENT_DATE_YYYYMMDD: 20090406
EVENT_TIME_HHMMSS: 013240
EVENT_LATITUDE_DEGREE: 42.3420
EVENT_LONGITUDE_DEGREE: 13.3800
EVENT_DEPTH_KM: 8.3
HYPOCENTER_REFERENCE: INGV-CNT_Seismic_Bulletin
MAGNITUDE_W: 6.1
MAGNITUDE_W_REFERENCE: INGV-CNT_Seismic_Bulletin
MAGNITUDE_L: 
MAGNITUDE_L_REFERENCE: 
FOCAL_MECHANISM: Normal faulting
NETWORK: IT
STATION_CODE: CSS
STATION_NAME: 
STATION_LATITUDE_DEGREE: 41.485790
STATION_LONGITUDE_DEGREE: 13.823090
STATION_ELEVATION_M: 166
LOCATION: 
SENSOR_DEPTH_M: 0.0
VS30_M/S: 648
SITE_CLASSIFICATION_EC8: B
MORPHOLOGIC_CLASSIFICATION: 
EPICENTRAL_DISTANCE_KM: 102.0
EARTHQUAKE_BACKAZIMUTH_DEGREE: 158.7
DATE_TIME_FIRST_SAMPLE_YYYYMMDD_HHMMSS: 20090406_013234.000
DATE_TIME_FIRST_SAMPLE_PRECISION: seconds
SAMPLING_INTERVAL_S: 0.005000
NDATA: 20000
DURATION_S: 100.000
STREAM: HNE
UNITS: cm/s
INSTRUMENT: sensor = FBA-3 [Kinemetrics] | digitizer = Etna [Kinemetrics]
INSTRUMENT_ANALOG/DIGITAL: D
INSTRUMENTAL_FREQUENCY_HZ: 
INSTRUMENTAL_DAMPING: 
FULL_SCALE_G: 
N_BIT_DIGITAL_CONVERTER: 18
PGV_CM/S: -1.612845
TIME_PGV_S: 48.620000
BASELINE_CORRECTION: BASELINE REMOVED
FILTER_TYPE: BUTTERWORTH
FILTER_ORDER: 2
LOW_CUT_FREQUENCY_HZ: 0.070
HIGH_CUT_FREQUENCY_HZ: 30.000
LATE/NORMAL_TRIGGERED: NT
DATABASE_VERSION: 0.5
HEADER_FORMAT: DYNA 1.2
DATA_TYPE: VELOCITY
PROCESSING: manual (Paolucci et al., 2011)
DATA_TIMESTAMP_YYYYMMDD_HHMMSS: 20211011_160636.973
DATA_LICENSE: CC-BY3_0-IT (http://creativecommons.org/licenses/by/3.0/deed.en)
DATA_CITATION: Luzi L, Pacor F, Puglia R (2019). Italian Accelerometric Archive v 3.0 - Istituto Nazionale di Geofisica e Vulcanologia, Dipartimento della Protezione Civile Nazionale. doi: 10.13127/itaca.3.1
DATA_CREATOR: ITACA working group
ORIGINAL_DATA_MEDIATOR_CITATION: data obtained within the DPC-INGV data exchange agreements
ORIGINAL_DATA_MEDIATOR: Archive of Italian Department of Civil Protection
ORIGINAL_DATA_CREATOR_CITATION: Presidency Of Counsil Of Ministers-Civil Protection Department. (1972). Italian Strong Motion Network. Presidency of Counsil of Ministers - Civil Protection Department. https://doi.org/10.7914/SN/IT http://www.fdsn.org/networks/detail/IT/
ORIGINAL_DATA_CREATOR: network: IT (Italian Strong Motion Network (RAN)); owner: Presidency of Counsil of Ministers - Civil Protection Department (PCM - DPC)
USER1: 
USER2: 
USER3: 
USER4: 
USER5: 
[...]
-0.021830
-0.034469
-0.047061
-0.059484
-0.071630
-0.083409
-0.094747
-0.105588
-0.115896
-0.125653
-0.134854
-0.143500
-0.151590
-0.159133
-0.166141
-0.172633
-0.178633
-0.184165
-0.189241
-0.193858
-0.198008
-0.201681
-0.204866
-0.207552
-0.209725
-0.211377
-0.212505
-0.213108
-0.213188
-0.212749
-0.211788
-0.210295
-0.208257
-0.205673
-0.202555
-0.198921
-0.194809
-0.190275
-0.185385
-0.180210
-0.174839
-0.169370
-0.163905
-0.158546
-0.153391
-0.148535
-0.144071
-0.140090
-0.136675
-0.133898
-0.131832
-0.130532
-0.130041
-0.130395
-0.131623
-0.133744
-0.136761
-0.140664
-0.145427
-0.151000
-0.157319
-0.164307
-0.171880
-0.179952
-0.188438
-0.197253
-0.206314
-0.215541
-0.224853
-0.234179
-0.243458
-0.252639
-0.261682
-0.270562
-0.279278
-0.287836
-0.296248
-0.304539
-0.312750
-0.320924
-0.329092
-0.337280
-0.345515
-0.353818
-0.362187
-0.370602
-0.379029
-0.387429
-0.395759
-0.403961
-0.411977
-0.419750
-0.427226
-0.434366
-0.441154
-0.447589
-0.453669
-0.459386
-0.464733
-0.469696
-0.474256
-0.478390
-0.482075
-0.485288
-0.488001
-0.490175
-0.491755
-0.492686
-0.492915
-0.492381
-0.491031
-0.488826
-0.485741
-0.481777
-0.476970
-0.471389
-0.465143
-0.458376
-0.451269
-0.444018
-0.436822
-0.429865
-0.423322
-0.417356
-0.412115
-0.407738
-0.404359
-0.402117
-0.401136
-0.401507
-0.403279
-0.406453
-0.410984
-0.416789
-0.423764
-0.431795
-0.440763
-0.450531
-0.460948
-0.471849
-0.483061
-0.494415
-0.505761
-0.516977
-0.527975
-0.538691
-0.549082
-0.559131
-0.568846
-0.578263
-0.587453
-0.596517
-0.605574
-0.614740
-0.624116
-0.633771
-0.643736
-0.654004
-0.664543
-0.675309
-0.686246
-0.697285
-0.708345
-0.719331
-0.730136
-0.740641
-0.750710
-0.760209
-0.769005
-0.776968
-0.783960
-0.789832
-0.794432
-0.797601
-0.799181
-0.799031
-0.797043
-0.793149
-0.787322
-0.779574
-0.769946
-0.758508
-0.745342
-0.730544
-0.714214
-0.696439
-0.677293
-0.656827
-0.635076
-0.612060
-0.587781
-0.562244
-0.535474
-0.507515
-0.478434
-0.448329
-0.417341
-0.385650
-0.353459
-0.320983
-0.288451
-0.256109
-0.224210
-0.193000
-0.162705
-0.133536
-0.105682
-0.079312
-0.054570
-0.031580
-0.010439
0.008791
0.026081
0.041429
0.054856
0.066391
0.076063
0.083897
0.089927
0.094201
0.096770
0.097696
0.097058
0.094967
0.091563
0.087019
0.081542
0.075371
0.068760
0.061960
0.055211
0.048741
0.042757
0.037435
0.032911
0.029291
0.026642
0.024988
0.024290
0.024462
0.025384
0.026902
0.028837
0.030984
0.033135
0.035092
0.036678
0.037755
0.038225
0.038041
0.037198
0.035727
0.033679
0.031112
0.028086
0.024666
0.020917
0.016906
0.012708
0.008410
0.004108
-0.000103
-0.004132
-0.007892
-0.011302
-0.014299
-0.016851
-0.018951
-0.020610
-0.021848
-0.022698
-0.023201
-0.023399
-0.023341
-0.023075
-0.022631
-0.022025
-0.021258
-0.020322
-0.019200
-0.017857
-0.016245
-0.014313
-0.012016
-0.009308
-0.006149
-0.002519
0.001583
0.006137
0.011104
0.016433
0.022072
0.027983
0.034144
0.040550
0.047218
0.054175
0.061462
0.069116
0.077177
0.085694
0.094721
0.104313
0.114519
0.125383
0.136936
0.149177
0.162084
0.175615
0.189723
0.204348
0.219419
0.234869
0.250631
0.266629
0.282782
0.299008
0.315232
0.331385
0.347395
0.363194
0.378716
0.393902
0.408687
0.423009
0.436824
0.450105
0.462832
0.474984
0.486545
0.497496
0.507807
0.517448
0.526387
0.534587
0.541994
0.548539
0.554147
0.558731
0.562191
0.564416
0.565286
0.564683
0.562487
0.558583
0.552866
0.545238
0.535596
0.523830
0.509843
0.493554
0.474892
0.453794
0.430230
0.404199
0.375735
0.344916
0.311869
0.276767
0.239820
0.201274
0.161419
0.120584
0.079118
0.037373
-0.004301
-0.045553
-0.086048
-0.125493
-0.163642
-0.200279
-0.235213
-0.268276
-0.299331
-0.328273
-0.355044
-0.379643
-0.402130
-0.422612
-0.441223
-0.458110
-0.473413
-0.487256
-0.499741
-0.510954
-0.520944
-0.529715
-0.537232
-0.543445
-0.548298
-0.551738
-0.553729
-0.554262
-0.553363
-0.551075
-0.547442
-0.542498
-0.536257
-0.528708
-0.519820
-0.509548
-0.497846
-0.484658
-0.469928
-0.453599
-0.435623
-0.415969
-0.394636
-0.371657
-0.347095
-0.321040
-0.293610
-0.264954
-0.235252
-0.204701
-0.173521
-0.141954
-0.110270
-0.078757
-0.047716
-0.017461
0.011681
0.039391
0.065371
0.089347
0.111080
0.130366
0.147053
0.161038
0.172280
0.180801
0.186675
0.190016
0.190975
0.189725
0.186458
0.181372
0.174664
0.166528
0.157154
0.146731
0.135438
0.123451
0.110943
0.098090
0.085066
0.072051
0.059233
0.046806
0.034963
0.023889
0.013761
0.004739
-0.003034
-0.009442
-0.014384
-0.017782
-0.019583
-0.019753
-0.018281
-0.015173
-0.010460
-0.004207
0.003488
0.012482
0.022596
0.033613
0.045301
0.057427
0.069750
0.082019
0.093980
0.105389
0.116014
0.125635
0.134040
0.141047
0.146510
0.150317
0.152387
0.152671
0.151154
0.147856
0.142847
0.136250
0.128228
0.118969
0.108670
0.097532
0.085756
0.073522
0.060987
0.048271
0.035465
0.022633
0.009822
-0.002932
-0.015610
-0.028207
-0.040720
-0.053132
-0.065411
-0.077521
-0.089431
-0.101132
-0.112632
-0.123966
-0.135192
-0.146379
-0.157606
-0.168943
-0.180442
-0.192121
-0.203960
-0.215905
-0.227878
-0.239775
-0.251465
-0.262793
-0.273603
-0.283743
-0.293062
-0.301411
-0.308660
-0.314687
-0.319387
-0.322665
-0.324445
-0.324667
-0.323293
-0.320310
-0.315717
-0.309525
-0.301757
-0.292460
-0.281694
-0.269532
-0.256048
-0.241312
-0.225402
-0.208390
-0.190346
-0.171330
-0.151400
-0.130612
-0.109010
-0.086629
-0.063490
-0.039604
-0.014975
0.010392
0.036489
0.063291
0.090761
0.118833
0.147416
0.176382
0.205576
0.234812
0.263888
0.292602
0.320771
0.348241
0.374888
0.400625
0.425393
0.449155
0.471873
0.493514
0.514040
0.533408
0.551560
0.568431
0.583958
0.598081
0.610741
0.621880
0.631457
0.639451
0.645856
0.650680
0.653939
0.655660
0.655871
0.654605
0.651904
0.647818
0.642399
0.635704
0.627812
0.618813
0.608808
0.597916
0.586272
0.574017
0.561274
0.548149
0.534734
0.521104
0.507312
0.493381
0.479310
0.465095
0.450734
0.436223
0.421554
0.406726
0.391746
0.376632
0.361416
0.346145
0.330872
0.315649
0.300532
0.285587
0.270883
0.256493
0.242495
0.228981
0.216066
0.203880
0.192567
0.182276
0.173162
0.165373
0.159044
0.154292
0.151201
0.149808
0.150112
0.152078
0.155633
0.160668
0.167039
0.174596
0.183187
0.192649
0.202809
0.213493
0.224540
0.235798
0.247128
0.258402
0.269497
0.280288
0.290659
0.300511
0.309766
0.318358
0.326232
0.333355
0.339717
0.345323
0.350194
0.354362
0.357869
0.360773
0.363137
0.365028
0.366520
0.367689
0.368624
0.369434
0.370242
0.371186
0.372397
0.374005
0.376124
0.378845
0.382221
0.386281
0.391041
0.396514
0.402711
0.409643
0.417314
0.425730
0.434894
0.444799
0.455438
0.466792
0.478824
0.491474
0.504660
0.518286
0.532250
0.546469
0.560879
0.575439
0.590118
0.604906
0.619810
0.634848
0.650037
0.665384
0.680908
0.696646
0.712649
0.728978
0.745692
0.762831
0.780405
0.798386
0.816709
0.835273
0.853936
0.872521
0.890824
0.908620
0.925667
0.941713
0.956508
0.969825
0.981462
0.991256
0.999080
1.004857
1.008557
1.010182
1.009771
1.007402
1.003193
0.997300
0.989916
0.981260
0.971567
0.961073
0.950013
0.938612
0.927088
0.915645
0.904484
0.893799
0.883763
0.874501
0.866095
0.858579
0.851946
0.846140
0.841058
0.836565
0.832502
0.828698
0.824980
0.821181
0.817145
0.812730
0.807807
0.802276
0.796068
0.789136
0.781462
0.773051
0.763927
0.754118
0.743651
0.732569
0.720934
0.708829
0.696357
0.683644
0.670839
0.658097
0.645573
0.633429
0.621825
0.610912
0.600827
0.591703
0.583658
0.576793
0.571191
0.566922
0.564049
0.562612
0.562617
0.564040
0.566828
0.570899
0.576140
0.582412
0.589566
0.597439
0.605858
0.614640
0.623611
0.632612
0.641510
0.650205
0.658635
0.666777
0.674636
0.682244
0.689644
0.696882
0.703992
0.710986
0.717862
0.724599
0.731172
0.737551
0.743705
0.749609
0.755240
0.760571
0.765567
0.770178
0.774351
0.778022
0.781135
0.783643
0.785502
0.786660
0.787052
0.786613
0.785289
0.783028
0.779771
0.775462
0.770043
0.763465
0.755691
0.746707
0.736519
0.725142
0.712599
0.698925
0.684165
0.668381
0.651651
0.634059
0.615702
0.596686
0.577123
0.557130
0.536815
0.516278
0.495613
0.474926
0.454325
0.433926
0.413846
0.394217
0.375174
0.356847
0.339352
0.322784
0.307221
0.292725
0.279348
0.267138
0.256143
0.246403
0.237955
0.230835
0.225069
0.220669
0.217633
0.215951
0.215599
0.216533
0.218689
0.221996
0.226376
0.231742
0.238004
0.245072
0.252854
0.261243
0.270129
0.279394
0.288921
0.298583
0.308245
0.317764
0.326991
0.335757
0.343876
0.351151
0.357384
0.362380
0.365956
0.367942
0.368190
0.366564
0.362956
0.357288
0.349519
0.339642
0.327683
0.313713
0.297841
0.280210
0.260980
0.240338
0.218488
0.195645
0.172032
0.147864
0.123344
0.098661
0.073988
0.049489
0.025323
0.001642
-0.021403
-0.043681
-0.065080
-0.085512
-0.104908
-0.123228
-0.140462
-0.156621
-0.171729
-0.185820
-0.198930
-0.211105
-0.222399
-0.232866
-0.242559
-0.251518
-0.259777
-0.267355
-0.274254
-0.280461
-0.285955
-0.290701
-0.294661
-0.297793
-0.300057
-0.301413
-0.301826
-0.301260
-0.299678
-0.297050
-0.293354
-0.288577
-0.282710
-0.275750
-0.267697
-0.258552
-0.248325
-0.237034
-0.224703
-0.211360
-0.197026
-0.181709
-0.165405
-0.148100
-0.129772
-0.110390
-0.089921
-0.068328
-0.045578
-0.021639
0.003505
0.029848
0.057368
0.086026
0.115762
0.146506
0.178163
0.210614
0.243709
0.277278
0.311134
0.345078
0.378905
0.412407
0.445389
0.477658
0.509028
0.539320
0.568377
0.596064
0.622273
0.646920
0.669946
0.691310
0.710987
0.728961
0.745223
0.759764
0.772580
0.783677
0.793083
0.800847
0.807024
0.811663
0.814807
0.816498
0.816776
0.815672
0.813213
0.809435
0.804398
0.798185
0.790903
0.782684
0.773689
0.764103
0.754124
0.743952
0.733783
0.723801
0.714178
0.705066
0.696590
0.688836
0.681860
0.675704
0.670404
0.665977
0.662421
0.659712
0.657812
0.656674
0.656250
0.656484
0.657305
0.658621
0.660323
0.662298
0.664424
0.666575
0.668632
0.670483
0.672036
0.673214
0.673955
0.674205
0.673924
0.673076
0.671635
0.669587
0.666931
0.663676
0.659835
0.655432
0.650482
0.644990
0.638955
0.632378
0.625257
0.617586
0.609347
0.600517
0.591074
0.581004
0.570306
0.558995
0.547098
0.534664
0.521756
0.508459
0.494864
0.481064
0.467140
0.453165
0.439193
0.425268
0.411419
0.397653
0.383952
0.370279
0.356588
0.342825
0.328936
0.314872
0.300584
0.286028
0.271180
0.256027
0.240583
0.224881
0.208979
0.192945
0.176850
0.160772
0.144799
0.129034
0.113585
0.098558
0.084060
0.070205
0.057107
0.044875
0.033603
0.023371
0.014248
0.006300
-0.000418
-0.005864
-0.010020
-0.012893
-0.014510
-0.014910
-0.014147
-0.012293
-0.009434
-0.005667
-0.001104
0.004133
0.009914
0.016111
0.022593
0.029238
0.035943
0.042635
0.049260
0.055783
0.062195
0.068514
0.074772
0.080996
0.087205
0.093407
0.099606
0.105796
0.111962
0.118085
0.124142
0.130100
0.135925
0.141579
0.147028
0.152231
0.157140
0.161706
0.165881
0.169627
0.172908
0.175699
0.177986
0.179771
0.181066
0.181897
0.182289
0.182263
0.181842
0.181059
0.179951
0.178558
0.176916
0.175055
0.172994
0.170739
0.168293
0.165658
0.162842
0.159859
0.156730
0.153485
0.150164
0.146806
0.143447
0.140122
0.136872
0.133748
0.130806
0.128104
0.125695
0.123621
0.121926
0.120650
0.119829
0.119486
0.119628
0.120241
0.121295
0.122741
0.124517
0.126545
0.128738
0.131004
0.133245
0.135352
0.137206
0.138689
0.139679
0.140056
0.139709
0.138542
0.136472
0.133430
0.129364
0.124252
0.118101
0.110948
0.102857
0.093905
0.084175
0.073753
0.062728
0.051191
0.039226
0.026919
0.014365
0.001654
-0.011137
-0.023946
-0.036719
-0.049407
-0.061968
-0.074364
-0.086568
-0.098557
-0.110322
-0.121865
-0.133200
-0.144342
-0.155307
-0.166108
-0.176747
-0.187212
-0.197495
-0.207599
-0.217544
-0.227364
-0.237110
-0.246847
-0.256660
-0.266650
-0.276927
-0.287603
-0.298784
-0.310575
-0.323075
-0.336373
-0.350538
-0.365619
-0.381654
-0.398667
-0.416668
-0.435639
-0.455542
-0.476327
-0.497931
-0.520274
-0.543274
-0.566849
-0.590920
-0.615402
-0.640203
-0.665226
-0.690369
-0.715523
-0.740575
-0.765425
-0.789990
-0.814196
-0.837976
-0.861271
-0.884036
-0.906236
-0.927841
-0.948830
-0.969189
-0.988906
-1.007966
-1.026350
-1.044042
-1.061025
-1.077293
-1.092839
-1.107664
-1.121777
-1.135194
-1.147944
-1.160069
-1.171629
-1.182698
-1.193376
-1.203779
-1.214027
-1.224222
-1.234455
-1.244810
-1.255366
-1.266186
-1.277321
-1.288815
-1.300703
-1.313010
-1.325744
-1.338894
-1.352433
-1.366323
-1.380521
-1.394985
-1.409673
-1.424536
-1.439525
-1.454585
-1.469647
-1.484617
-1.499379
-1.513799
-1.527744
-1.541076
-1.553659
-1.565360
-1.576054
-1.585625
-1.593954
-1.600918
-1.606401
-1.610287
-1.612467
-1.612845
-1.611359
-1.607965
-1.602635
-1.595357
-1.586137
-1.574984
-1.561906
-1.546930
-1.530104
-1.511486
-1.491144
-1.469154
-1.445609
-1.420607
-1.394254
-1.366666
-1.337976
-1.308316
-1.277828
-1.246650
-1.214922
-1.182776
-1.150336
-1.117719
-1.085036
-1.052402
-1.019936
-0.987755
-0.955976
-0.924715
-0.894072
-0.864127
-0.834954
-0.806611
-0.779142
-0.752579
-0.726948
-0.702262
-0.678508
-0.655652
-0.633650
-0.612450
-0.591997
-0.572234
-0.553107
-0.534561
-0.516540
-0.498979
-0.481809
-0.464971
-0.448414
-0.432104
-0.416019
-0.400158
-0.384541
-0.369198
-0.354164
-0.339482
-0.325199
-0.311364
-0.298015
-0.285180
-0.272876
-0.261116
-0.249907
-0.239249
-0.229132
-0.219527
-0.210388
-0.201658
-0.193274
-0.185170
-0.177284
-0.169576
-0.162027
-0.154628
-0.147382
-0.140302
-0.133410
-0.126741
-0.120346
-0.114306
-0.108717
-0.103675
-0.099263
-0.095541
-0.092553
-0.090319
-0.088846
-0.088125
-0.088141
-0.088865
-0.090269
-0.092316
-0.094966
-0.098175
-0.101895
-0.106082
-0.110698
-0.115714
-0.121101
-0.126820
-0.132821
-0.139042
-0.145403
-0.151816
-0.158192
-0.164432
-0.170434
-0.176103
-0.181355
-0.186117
-0.190321
-0.193907
-0.196830
-0.199058
-0.200568
-0.201344
-0.201375
-0.200654
-0.199166
-0.196895
-0.193823
-0.189936
-0.185220
-0.179670
-0.173291
-0.166090
-0.158064
-0.149191
-0.139438
-0.128773
-0.117165
-0.104582
-0.091000
-0.076398
-0.060747
-0.044014
-0.026167
-0.007182
0.012955
0.034245
0.056670
0.080189
0.104749
0.130290
0.156753
0.184076
0.212185
0.241003
0.270445
0.300420
0.330834
0.361591
0.392599
0.423759
0.454967
0.486114
0.517087
0.547767
0.578042
0.607806
0.636959
0.665404
0.693055
0.719832
0.745665
0.770478
0.794195
0.816743
0.838044
0.858013
0.876567
0.893638
0.909177
0.923141
0.935494
0.946201
0.955235
0.962570
0.968183
0.972057
0.974188
0.974583
0.973264
0.970267
0.965644
0.959456
0.951768
0.942647
0.932160
0.920382
0.907392
0.893283
0.878152
0.862096
0.845204
0.827557
0.809238
0.790328
0.770894
0.750997
0.730688
0.710006
0.688967
0.667569
0.645789
0.623592
0.600947
0.577832
0.554237
0.530154
0.505576
0.480496
0.454917
0.428854
0.402342
0.375437
0.348224
0.320800
0.293279
0.265783
0.238446
0.211412
0.184827
0.158842
0.133615
0.109301
0.086041
0.063955
0.043150
0.023717
0.005724
-0.010777
-0.025744
-0.039139
-0.050935
-0.061119
-0.069688
-0.076637
-0.081972
-0.085706
-0.087867
-0.088499
-0.087663
-0.085430
-0.081872
-0.077072
-0.071124
-0.064133
-0.056211
-0.047474
-0.038035
-0.028009
-0.017506
-0.006631
0.004512
0.015811
0.027160
0.038455
0.049583
0.060422
0.070858
0.080800
0.090160
0.098848
0.106771
0.113842
0.119975
0.125086
0.129099
0.131959
0.133644
0.134173
0.133602
0.132015
0.129518
0.126234
0.122294
0.117839
0.113013
0.107963
0.102835
0.097766
0.092874
0.088257
0.083995
0.080154
0.076783
0.073908
0.071541
0.069682
0.068316
0.067404
0.066891
0.066717
0.066816
0.067115
0.067534
0.067997
0.068423
0.068726
0.068816
0.068606
0.068021
0.066990
0.065448
0.063327
0.060558
0.057064
0.052770
0.047607
0.041509
0.034413
0.026264
0.017021
0.006653
-0.004875
-0.017594
-0.031532
-0.046709
-0.063141
-0.080839
-0.099797
-0.119988
-0.141369
-0.163890
-0.187485
-0.212075
-0.237570
-0.263876
-0.290889
-0.318494
-0.346560
-0.374944
-0.403494
-0.432055
-0.460470
-0.488589
-0.516276
-0.543405
-0.569855
-0.595513
-0.620272
-0.644030
-0.666698
-0.688212
-0.708540
-0.727678
-0.745658
-0.762537
-0.778399
-0.793343
-0.807480
-0.820926
-0.833801
-0.846231
-0.858341
-0.870256
-0.882091
-0.893937
-0.905864
-0.917923
-0.930159
-0.942620
-0.955354
-0.968413
-0.981848
-0.995704
-1.010007
-1.024767
-1.039979
-1.055625
-1.071685
-1.088134
-1.104949
-1.122090
-1.139487
-1.157042
-1.174635
-1.192137
-1.209398
-1.226262
-1.242566
-1.258143
-1.272819
-1.286429
-1.298827
-1.309896
-1.319545
-1.327708
-1.334345
-1.339449
-1.343029
-1.345114
-1.345746
-1.344984
-1.342890
-1.339524
-1.334947
-1.329218
-1.322397
-1.314542
-1.305712
-1.295967
-1.285362
-1.273945
-1.261758
-1.248840
-1.235229
-1.220956
-1.206052
-1.190555
-1.174505
-1.157938
-1.140885
-1.123378
-1.105446
-1.087114
-1.068402
-1.049336
-1.029933
-1.010211
-0.990189
-0.969888
-0.949311
-0.928444
-0.907264
-0.885751
-0.863894
-0.841677
-0.819079
-0.796079
-0.772660
-0.748810
-0.724528
-0.699833
-0.674769
-0.649399
-0.623813
-0.598126
-0.572470
-0.546981
-0.521789
-0.497019
-0.472794
-0.449240
-0.426477
-0.404618
-0.383760
-0.363970
-0.345289
-0.327741
-0.311344
-0.296101
-0.281994
-0.268995
-0.257073
-0.246196
-0.236327
-0.227427
-0.219446
-0.212316
-0.205951
-0.200254
-0.195111
-0.190391
-0.185951
-0.181651
-0.177354
-0.172928
-0.168245
-0.163186
-0.157650
-0.151556
-0.144841
-0.137458
-0.129392
-0.120651
-0.111273
-0.101326
-0.090899
-0.080093
-0.069013
-0.057772
-0.046478
-0.035237
-0.024155
-0.013343
-0.002922
0.006984
0.016270
0.024856
0.032677
0.039679
0.045817
0.051059
0.055391
0.058811
0.061331
0.062960
0.063705
0.063567
0.062545
0.060626
0.057786
0.054001
0.049248
0.043504
0.036748
0.028959
0.020123
0.010224
-0.000754
-0.012814
-0.025920
-0.040013
-0.055025
-0.070877
-0.087482
-0.104745
-0.122556
-0.140788
-0.159312
-0.177998
-0.196720
-0.215349
-0.233751
-0.251794
-0.269366
-0.286371
-0.302720
-0.318325
-0.333120
-0.347054
-0.360090
-0.372196
-0.383349
-0.393530
-0.402714
-0.410879
-0.418011
-0.424110
-0.429180
-0.433229
-0.436265
