EVENT_NAME: L_AQUILA
EVENT_ID: IT-2009-0009
EVENT_DATE_YYYYMMDD: 20090406
EVENT_TIME_HHMMSS: 013240
EVENT_LATITUDE_DEGREE: 42.3420
EVENT_LONGITUDE_DEGREE: 13.3800
EVENT_DEPTH_KM: 8.3
HYPOCENTER_REFERENCE: INGV-CNT_Seismic_Bulletin
MAGNITUDE_W: 6.1
MAGNITUDE_W_REFERENCE: INGV-CNT_Seismic_Bulletin
MAGNITUDE_L: 
MAGNITUDE_L_REFERENCE: 
FOCAL_MECHANISM: Normal faulting
NETWORK: IT
STATION_CODE: CSS
STATION_NAME: 
STATION_LATITUDE_DEGREE: 41.485790
STATION_LONGITUDE_DEGREE: 13.823090
STATION_ELEVATION_M: 166
LOCATION: 
SENSOR_DEPTH_M: 0.0
VS30_M/S: 648
SITE_CLASSIFICATION_EC8: B
MORPHOLOGIC_CLASSIFICATION: 
EPICENTRAL_DISTANCE_KM: 102.0
EARTHQUAKE_BACKAZIMUTH_DEGREE: 158.7
DATE_TIME_FIRST_SAMPLE_YYYYMMDD_HHMMSS: 20090406_013234.000
DATE_TIME_FIRST_SAMPLE_PRECISION: seconds
SAMPLING_INTERVAL_S: 0.005000
NDATA: 20000
DURATION_S: 100.000
STREAM: HNZ
UNITS: cm/s^2
INSTRUMENT: sensor = FBA-3 [Kinemetrics] | digitizer = Etna [Kinemetrics]
INSTRUMENT_ANALOG/DIGITAL: D
INSTRUMENTAL_FREQUENCY_HZ: 
INSTRUMENTAL_DAMPING: 
FULL_SCALE_G: 
N_BIT_DIGITAL_CONVERTER: 18
PGA_CM/S^2: -2.840379
TIME_PGA_S: 50.615000
BASELINE_CORRECTION: BASELINE REMOVED
FILTER_TYPE: BUTTERWORTH
FILTER_ORDER: 2
LOW_CUT_FREQUENCY_HZ: 0.070
HIGH_CUT_FREQUENCY_HZ: 30.000
LATE/NORMAL_TRIGGERED: NT
DATABASE_VERSION: 0.5
HEADER_FORMAT: DYNA 1.2
DATA_TYPE: ACCELERATION
PROCESSING: manual (Paolucci et al., 2011)
DATA_TIMESTAMP_YYYYMMDD_HHMMSS: 20211011_160637.746
DATA_LICENSE: CC-BY3_0-IT (http://creativecommons.org/licenses/by/3.0/deed.en)
DATA_CITATION: Luzi L, Pacor F, Puglia R (2019). Italian Accelerometric Archive v 3.0 - Istituto Nazionale di Geofisica e Vulcanologia, Dipartimento della Protezione Civile Nazionale. doi: 10.13127/itaca.3.1
DATA_CREATOR: ITACA working group
ORIGINAL_DATA_MEDIATOR_CITATION: data obtained within the DPC-INGV data exchange agreements
ORIGINAL_DATA_MEDIATOR: Archive of Italian Department of Civil Protection
ORIGINAL_DATA_CREATOR_CITATION: Presidency Of Counsil Of Ministers-Civil Protection Department. (1972). Italian Strong Motion Network. Presidency of Counsil of Ministers - Civil Protection Department. https://doi.org/10.7914/SN/IT http://www.fdsn.org/networks/detail/IT/
ORIGINAL_DATA_CREATOR: network: IT (Italian Strong Motion Network (RAN)); owner: Presidency of Counsil of Ministers - Civil Protection Department (PCM - DPC)
USER1: 
USER2: 
USER3: 
USER4: 
USER5: 
[...]
-0.408443
-0.504332
-0.614756
-0.733686
-0.854158
-0.969031
-1.071631
-1.156144
-1.218125
-1.254911
-1.264599
-1.245138
-1.195981
-1.119781
-1.021485
-0.906804
-0.781761
-0.652399
-0.523877
-0.399753
-0.282824
-0.176680
-0.085341
-0.011551
0.043595
0.079965
0.097752
0.096518
0.074706
0.030643
-0.036192
-0.124737
-0.232366
-0.355487
-0.490404
-0.633365
-0.780051
-0.925472
-1.064225
-1.190504
-1.298664
-1.385013
-1.448752
-1.490473
-1.510601
-1.510283
-1.492931
-1.463342
-1.425456
-1.382009
-1.335407
-1.287179
-1.237527
-1.186880
-1.137024
-1.089664
-1.044899
-1.002302
-0.962766
-0.928219
-0.899984
-0.878630
-0.864876
-0.858986
-0.860093
-0.867026
-0.878228
-0.891030
-0.902467
-0.910681
-0.915016
-0.914778
-0.908818
-0.896519
-0.878231
-0.854608
-0.825717
-0.790853
-0.749128
-0.700184
-0.644712
-0.584199
-0.520415
-0.455324
-0.390230
-0.324530
-0.256083
-0.182572
-0.101819
-0.011678
0.089211
0.200711
0.321289
0.448584
0.580322
0.714500
0.848830
0.981310
1.110947
1.237060
1.358733
1.474916
1.584022
1.683440
1.770395
1.843387
1.902152
1.946708
1.977326
1.994481
1.997864
1.986678
1.961319
1.923558
1.875488
1.819437
1.757933
1.692770
1.625138
1.556603
1.488161
1.418471
1.344728
1.265173
1.179495
1.086782
0.984583
0.870762
0.745469
0.610782
0.468776
0.320559
0.167498
0.012074
-0.143518
-0.298370
-0.451396
-0.599474
-0.737631
-0.861227
-0.967399
-1.054193
-1.120058
-1.164432
-1.187308
-1.188594
-1.168494
-1.128039
-1.069046
-0.993635
-0.904181
-0.803870
-0.696705
-0.586380
-0.475398
-0.365492
-0.257932
-0.153208
-0.051366
0.047428
0.142772
0.234034
0.320600
0.401578
0.474576
0.535565
0.580881
0.609473
0.623738
0.628864
0.630628
0.633651
0.642301
0.661570
0.695505
0.745489
0.810326
0.887505
0.973970
1.065627
1.157204
1.243823
1.322097
1.388623
1.439051
1.470412
1.482832
1.478082
1.458131
1.425271
1.381994
1.330154
1.271285
1.207892
1.143219
1.079968
1.019909
0.964153
0.913493
0.868381
0.828308
0.791769
0.756793
0.720865
0.680779
0.633219
0.575275
0.504097
0.416726
0.311365
0.188694
0.051456
-0.096568
-0.250590
-0.404655
-0.552748
-0.690125
-0.812636
-0.915214
-0.992576
-1.041618
-1.062414
-1.057146
-1.029148
-0.982828
-0.922888
-0.853307
-0.778207
-0.702858
-0.632170
-0.568818
-0.513773
-0.467694
-0.430842
-0.402906
-0.383585
-0.372355
-0.367955
-0.368795
-0.373956
-0.383786
-0.399141
-0.420366
-0.447436
-0.480210
-0.518246
-0.560928
-0.607721
-0.657931
-0.710427
-0.763787
-0.816820
-0.869126
-0.920895
-0.972204
-1.023246
-1.075195
-1.130460
-1.191582
-1.259224
-1.332007
-1.408592
-1.488360
-1.570203
-1.652417
-1.733302
-1.810523
-1.880649
-1.940131
-1.986004
-2.015594
-2.026124
-2.015196
-1.982496
-1.930293
-1.861150
-1.776435
-1.678377
-1.572068
-1.464208
-1.360969
-1.267279
-1.187222
-1.124795
-1.083635
-1.065936
-1.072129
-1.101016
-1.149568
-1.212813
-1.284237
-1.356914
-1.425110
-1.484675
-1.531482
-1.560312
-1.565713
-1.544009
-1.494755
-1.419533
-1.319986
-1.198606
-1.059992
-0.909789
-0.753431
-0.596424
-0.445023
-0.305689
-0.183872
-0.084020
-0.010607
0.031585
0.038469
0.008037
-0.059018
-0.160015
-0.291700
-0.450284
-0.630043
-0.823445
-1.022767
-1.220759
-1.410533
-1.585305
-1.737891
-1.861133
-1.949313
-1.998911
-2.008412
-1.978444
-1.912505
-1.816347
-1.695695
-1.555581
-1.402045
-1.242357
-1.082855
-0.927780
-0.780258
-0.642907
-0.516877
-0.401871
-0.297991
-0.205908
-0.125156
-0.054567
0.005923
0.055710
0.095353
0.127196
0.154591
0.180748
0.207601
0.235491
0.263921
0.292731
0.323326
0.358532
0.400368
0.448811
0.503492
0.565046
0.634290
0.711748
0.797921
0.892866
0.995611
1.104169
1.215992
1.328513
1.439598
1.547246
1.648432
1.738900
1.814497
1.871956
1.908582
1.922714
1.914458
1.884886
1.834955
1.765985
1.680795
1.583464
1.477552
1.365059
1.247642
1.127938
1.008242
0.888858
0.769991
0.653689
0.541937
0.434996
0.332928
0.237077
0.149578
0.072729
0.009148
-0.038200
-0.066608
-0.074352
-0.060753
-0.026313
0.027447
0.099457
0.189430
0.295952
0.415502
0.543816
0.677154
0.811875
0.944113
1.070538
1.188699
1.296396
1.390972
1.469272
1.528447
1.566578
1.582196
1.573870
1.540909
1.484037
1.405483
1.309135
1.200332
1.085240
0.970577
0.863240
0.769442
0.694032
0.640149
0.609586
0.603548
0.621525
0.659733
0.712346
0.773243
0.836104
0.895199
0.947055
0.990771
1.026653
1.054274
1.072053
1.079488
1.078857
1.073528
1.065477
1.055424
1.044427
1.033895
1.024331
1.015291
1.006158
0.995798
0.981688
0.960310
0.928745
0.885524
0.830351
0.763859
0.687229
0.601679
0.508616
0.409944
0.307519
0.202391
0.095315
-0.012167
-0.117755
-0.219010
-0.313604
-0.399518
-0.475283
-0.539800
-0.592077
-0.631666
-0.658862
-0.673460
-0.674241
-0.660962
-0.635778
-0.601982
-0.562756
-0.521457
-0.481836
-0.447423
-0.421307
-0.407001
-0.408050
-0.425794
-0.459198
-0.507083
-0.568850
-0.643507
-0.728865
-0.821255
-0.915913
-1.007761
-1.091872
-1.163631
-1.218874
-1.254186
-1.267410
-1.257676
-1.224678
-1.168665
-1.091812
-0.998699
-0.894707
-0.784519
-0.672165
-0.561792
-0.458215
-0.366345
-0.289811
-0.230758
-0.190841
-0.171222
-0.171708
-0.190464
-0.224225
-0.269209
-0.322535
-0.382704
-0.448855
-0.519855
-0.594442
-0.672014
-0.752789
-0.836786
-0.922620
-1.007638
-1.088533
-1.161387
-1.222395
-1.269428
-1.302261
-1.320955
-1.325103
-1.314664
-1.290126
-1.252361
-1.203617
-1.147591
-1.087844
-1.027006
-0.967189
-0.910182
-0.856894
-0.806612
-0.757681
-0.709096
-0.660408
-0.610557
-0.558463
-0.504399
-0.449653
-0.395401
-0.342324
-0.291083
-0.243095
-0.200144
-0.163124
-0.132047
-0.107110
-0.089084
-0.078803
-0.076571
-0.082214
-0.095374
-0.115395
-0.141185
-0.171469
-0.204849
-0.239710
-0.274291
-0.306509
-0.334177
-0.355872
-0.370950
-0.379001
-0.379918
-0.373844
-0.360534
-0.339464
-0.310746
-0.275377
-0.234721
-0.189965
-0.142041
-0.091634
-0.038490
0.018317
0.078665
0.140832
0.202769
0.263241
0.321367
0.375452
0.423028
0.462022
0.491175
0.509334
0.515057
0.507274
0.486235
0.453651
0.412381
0.366235
0.319306
0.275190
0.236419
0.203998
0.177842
0.158030
0.145433
0.140863
0.143704
0.151789
0.162801
0.175283
0.187695
0.197143
0.200123
0.194186
0.178167
0.151476
0.114172
0.067057
0.011026
-0.053170
-0.124422
-0.200930
-0.280730
-0.362009
-0.442715
-0.520891
-0.595283
-0.664790
-0.727655
-0.781911
-0.826297
-0.859974
-0.881899
-0.891130
-0.887359
-0.871167
-0.843821
-0.806416
-0.759502
-0.704009
-0.641879
-0.575161
-0.505396
-0.434789
-0.366964
-0.305452
-0.252011
-0.207250
-0.171917
-0.146527
-0.130637
-0.122933
-0.120905
-0.120275
-0.116432
-0.106853
-0.090836
-0.067786
-0.037256
0.000410
0.044161
0.092422
0.143435
0.195684
0.247847
0.298594
0.346958
0.392275
0.433021
0.466683
0.490963
0.504256
0.505543
0.494513
0.471835
0.439295
0.399567
0.355927
0.312130
0.272318
0.240797
0.222045
0.220678
0.240573
0.283822
0.350503
0.438997
0.546531
0.669592
0.804192
0.946259
1.091670
1.235831
1.374054
1.502577
1.618400
1.718741
1.802081
1.869200
1.922328
1.963784
1.995471
2.019145
2.037161
2.052763
2.069526
2.090693
2.118438
2.153573
2.196275
2.246481
2.303478
2.366210
2.433948
2.505318
2.576609
2.642465
2.698293
2.741353
2.770251
2.784207
2.782612
2.765110
2.732097
2.684960
2.626144
2.559126
2.487537
2.414306
2.341555
2.270658
2.202785
2.139148
2.080669
2.028163
1.981926
1.940213
1.899141
1.855070
1.806328
1.752008
1.690452
1.619963
1.540053
1.451152
1.353942
1.249891
1.142092
1.034608
0.930851
0.833663
0.746297
0.671636
0.611689
0.568757
0.545291
0.542690
0.561664
0.602405
0.663586
0.742455
0.835487
0.938756
1.048431
1.160424
1.269978
1.372653
1.465301
1.545580
1.611490
1.662242
1.698744
1.722667
1.735568
1.739105
1.735914
1.729586
1.723557
1.720375
1.721388
1.726877
1.736934
1.751685
1.770344
1.790573
1.809040
1.822783
1.830324
1.831342
1.825222
1.810268
1.784351
1.746261
1.696697
1.637961
1.572648
1.502983
1.431264
1.360095
1.292141
1.229472
1.172623
1.121286
1.075915
1.037349
1.005363
0.978578
0.955727
0.936610
0.921705
0.911343
0.905668
0.904974
0.909739
0.920354
0.936574
0.957195
0.980122
1.002334
1.020547
1.032982
1.039913
1.041895
1.038459
1.029173
1.014606
0.995598
0.973041
0.948600
0.924142
0.900124
0.875339
0.847992
0.816317
0.779016
0.736152
0.689029
0.638672
0.584864
0.527235
0.467343
0.408982
0.356136
0.311218
0.275483
0.250024
0.235597
0.232035
0.238232
0.252536
0.272848
0.295990
0.318011
0.336168
0.349736
0.358855
0.363607
0.363719
0.358554
0.347913
0.332787
0.314725
0.294476
0.272045
0.247918
0.223536
0.200859
0.181637
0.167072
0.158002
0.154316
0.154258
0.154944
0.153620
0.148458
0.137732
0.119345
0.092435
0.058002
0.017027
-0.030555
-0.084121
-0.141051
-0.198398
-0.254768
-0.309398
-0.360272
-0.404638
-0.440776
-0.467580
-0.483134
-0.485106
-0.471934
-0.443386
-0.400652
-0.345840
-0.281146
-0.208970
-0.133288
-0.060300
0.003315
0.052372
0.083167
0.093074
0.080842
0.046530
-0.008986
-0.084148
-0.177018
-0.285947
-0.408657
-0.540177
-0.673384
-0.801719
-0.920175
-1.024765
-1.112524
-1.181499
-1.230447
-1.259048
-1.268020
-1.258375
-1.230810
-1.186284
-1.127137
-1.056964
-0.979086
-0.895747
-0.808908
-0.720689
-0.632709
-0.546515
-0.464539
-0.388523
-0.317804
-0.250997
-0.187746
-0.127842
-0.070889
-0.016897
0.034132
0.082389
0.127975
0.170776
0.209697
0.241921
0.263928
0.273310
0.269054
0.250955
0.219522
0.176118
0.122904
0.062326
-0.003047
-0.070235
-0.136422
-0.199577
-0.258351
-0.312158
-0.361266
-0.406317
-0.447540
-0.484419
-0.516103
-0.541857
-0.561019
-0.572862
-0.577674
-0.577810
-0.576069
-0.573724
-0.570892
-0.567281
-0.562460
-0.556409
-0.549537
-0.542464
-0.536084
-0.530897
-0.526199
-0.520755
-0.514038
-0.505595
-0.493623
-0.475889
-0.451562
-0.421223
-0.386097
-0.348048
-0.309911
-0.275052
-0.246305
-0.226077
-0.217093
-0.221299
-0.238566
-0.268013
-0.309495
-0.362671
-0.426004
-0.497845
-0.577319
-0.663257
-0.753167
-0.843746
-0.932005
-1.015499
-1.091902
-1.159380
-1.217611
-1.267838
-1.311663
-1.350392
-1.385732
-1.419941
-1.454366
-1.488606
-1.521907
-1.554385
-1.585903
-1.615189
-1.641075
-1.663355
-1.681996
-1.696356
-1.705559
-1.709326
-1.707956
-1.702203
-1.694051
-1.686558
-1.681909
-1.680530
-1.682692
-1.689573
-1.701675
-1.717429
-1.734222
-1.749840
-1.762674
-1.771442
-1.775383
-1.774732
-1.770660
-1.764545
-1.757061
-1.747805
-1.735950
-1.721277
-1.704401
-1.685880
-1.665481
-1.642601
-1.617087
-1.589450
-1.560381
-1.530368
-1.499903
-1.469730
-1.440871
-1.414883
-1.393751
-1.378889
-1.370658
-1.369234
-1.375139
-1.388383
-1.407693
-1.430794
-1.454769
-1.476591
-1.493990
-1.505501
-1.509640
-1.504561
-1.488335
-1.458840
-1.414354
-1.355169
-1.283185
-1.199958
-1.106893
-1.006777
-0.903432
-0.800383
-0.700954
-0.608905
-0.528201
-0.461743
-0.410139
-0.372367
-0.347260
-0.333690
-0.329934
-0.333359
-0.340469
-0.347190
-0.349514
-0.343920
-0.327201
-0.296720
-0.251393
-0.192056
-0.120319
-0.037477
0.055148
0.155309
0.259459
0.363565
0.464261
0.558677
0.643749
0.716697
0.776348
0.823114
0.857098
0.877852
0.886018
0.883208
0.871159
0.852108
0.828325
0.801213
0.772227
0.743824
0.718706
0.698971
0.685967
0.680628
0.684277
0.698681
0.725009
0.763284
0.812810
0.872625
0.941534
1.017776
1.098715
1.181547
1.264868
1.348743
1.433179
1.517322
1.599533
1.677991
1.751800
1.821011
1.885704
1.945715
2.000685
2.050390
2.095350
2.136775
2.176046
2.213903
2.249716
2.282268
2.311318
2.337886
2.363213
2.387818
2.411525
2.434207
2.456272
2.477701
2.497372
2.514593
2.529876
2.543435
2.554297
2.560824
2.561439
2.554960
2.540454
2.517380
2.485947
2.446327
2.397509
2.338386
2.270103
2.196009
2.119722
2.044122
1.970952
1.900908
1.834958
1.774757
1.721106
1.672939
1.628410
1.586366
1.545976
1.505721
1.463681
1.418287
1.368446
1.313335
1.252449
1.185667
1.113234
1.035926
0.955014
0.871917
0.787700
0.702871
0.618189
0.535316
0.455674
0.378798
0.302429
0.224371
0.144222
0.063175
-0.017717
-0.098652
-0.180194
-0.262022
-0.343739
-0.426003
-0.509325
-0.592793
-0.674722
-0.753182
-0.825751
-0.890324
-0.946213
-0.993322
-1.031055
-1.058682
-1.075654
-1.081444
-1.075854
-1.059931
-1.035947
-1.005886
-0.971256
-0.934820
-0.900709
-0.872618
-0.852980
-0.843411
-0.845189
-0.859399
-0.886798
-0.927646
-0.981834
-1.049154
-1.129362
-1.221623
-1.323665
-1.431937
-1.542714
-1.652831
-1.759676
-1.861206
-1.955773
-2.041010
-2.114124
-2.174726
-2.225520
-2.269426
-2.307842
-2.341553
-2.371886
-2.400712
-2.429715
-2.460441
-2.494593
-2.533102
-2.575217
-2.619137
-2.663531
-2.707517
-2.749096
-2.785375
-2.813879
-2.832692
-2.840379
-2.835565
-2.816188
-2.780299
-2.727772
-2.660313
-2.579830
-2.487182
-2.382397
-2.266132
-2.140746
-2.009912
-1.877669
-1.747759
-1.623212
-1.506156
-1.398080
-1.300450
-1.215010
-1.143292
-1.085876
-1.042426
-1.012152
-0.993620
-0.984475
-0.981891
-0.982897
-0.984586
-0.984894
-0.982935
-0.978323
-0.970558
-0.959305
-0.945234
-0.930058
-0.915331
-0.901620
-0.889503
-0.880540
-0.876221
-0.877117
-0.883718
-0.896725
-0.916128
-0.940852
-0.969400
-1.000223
-1.031753
-1.062508
-1.090941
-1.115779
-1.136586
-1.153385
-1.166209
-1.175610
-1.183229
-1.190876
-1.198957
-1.207071
-1.215373
-1.223613
-1.230286
-1.234133
-1.234687
-1.230825
-1.220513
-1.202033
-1.174307
-1.136019
-1.085892
-1.024069
-0.951644
-0.869393
-0.778593
-0.682160
-0.583689
-0.485664
-0.389298
-0.295654
-0.205897
-0.121230
-0.043021
0.028090
0.092984
0.153188
0.209445
0.261476
0.308954
0.352274
0.392641
0.431520
0.470035
0.509363
0.550796
0.595015
0.642065
0.691659
0.743558
0.797868
0.854607
0.913555
0.974865
1.039022
1.105689
1.173586
1.241462
1.307848
1.370638
1.428019
1.479081
1.523334
1.560248
1.589284
1.610046
1.622117
1.624872
1.618042
1.602165
1.577647
1.544109
1.501649
1.452192
1.398726
1.343350
1.286616
1.229001
1.171932
1.116724
1.063626
1.012271
0.962206
0.912818
0.863568
0.814959
0.768344
0.724050
0.680920
0.638243
0.596576
0.556436
0.517578
0.479401
0.441071
0.401763
0.361441
0.320873
0.280407
0.238768
0.193881
0.145387
0.095310
0.045924
-0.001529
-0.045954
-0.086095
-0.121233
-0.151051
-0.175455
-0.195116
-0.211468
-0.226063
-0.240260
-0.254855
-0.269763
-0.285006
-0.301575
-0.320330
-0.340557
-0.360211
-0.377689
-0.392429
-0.403594
-0.409656
-0.409521
-0.403273
-0.391878
-0.376661
-0.359247
-0.341532
-0.325857
-0.315229
-0.312067
-0.317084
-0.330736
-0.354371
-0.388795
-0.433226
-0.486012
-0.545429
-0.610286
-0.679933
-0.753009
-0.827011
-0.899941
-0.971384
-1.041385
-1.109011
-1.172461
-1.230327
-1.282400
-1.329353
-1.371827
-1.409718
-1.442353
-1.469485
-1.492056
-1.511229
-1.526746
-1.537268
-1.542171
-1.542662
-1.541387
-1.541037
-1.543144
-1.547874
-1.555253
-1.566365
-1.582450
-1.603690
-1.629641
-1.659969
-1.694295
-1.731492
-1.769200
-1.804436
-1.834912
-1.859306
-1.876561
-1.885701
-1.886147
-1.878287
-1.863296
-1.841611
-1.812637
-1.776040
-1.732154
-1.681826
-1.626437
-1.567459
-1.505956
-1.442417
-1.377332
-1.312295
-1.249653
-1.190497
-1.133917
-1.078300
-1.022346
-0.965026
-0.905730
-0.844138
-0.779193
-0.709218
-0.633563
-0.552693
-0.466655
-0.375193
-0.278900
-0.179078
-0.077184
0.025601
0.128502
0.230665
0.331250
0.429870
0.526230
0.619635
0.709244
0.794738
0.875974
0.952497
1.024646
1.093620
1.159595
1.221652
1.279392
1.333056
1.382566
1.427427
1.467455
1.502784
1.533077
1.557360
1.574533
1.583692
1.584129
1.575303
1.556888
1.528873
1.491182
1.443663
1.387404
1.325186
1.259891
1.193701
1.129005
1.068704
1.015311
0.970375
0.935370
0.912630
0.904086
0.909398
0.926328
0.952299
0.985256
1.023890
1.066796
1.110941
1.151987
1.186495
1.212841
1.230145
1.237205
1.232790
1.216949
1.191532
1.158990
1.121403
1.081002
1.040534
1.002965
0.971344
0.947887
0.932963
0.926104
0.927360
0.936505
0.952209
0.972785
0.996604
1.021533
1.044700
1.062876
1.073148
1.073256
1.061364
1.036506
0.999388
0.951634
0.894605
0.829483
0.757465
0.679663
0.597689
0.514177
0.431885
0.352299
0.275734
0.202375
0.132735
0.067249
0.005542
-0.053360
-0.110017
-0.164655
-0.218120
-0.271957
-0.327412
-0.384977
-0.445306
-0.509600
-0.578428
-0.651131
-0.726869
-0.805492
-0.886905
-0.970056
-1.053044
-1.133921
-1.211393
-1.285027
-1.354575
-1.419260
-1.477950
-1.529701
-1.574258
-1.611730
-1.641279
-1.661028
-1.669630
-1.666864
-1.652899
-1.628010
-1.593027
-1.549649
-1.499842
-1.444727
-1.384725
-1.320908
-1.255052
-1.188602
-1.122539
-1.057925
-0.996084
-0.938245
-0.885498
-0.839319
-0.801180
-0.771076
-0.747089
-0.727079
-0.710001
-0.694807
-0.679662
-0.663359
-0.645774
-0.626250
-0.602972
-0.574192
-0.539168
-0.497625
-0.449231
-0.394420
-0.334436
-0.270132
-0.202234
-0.132473
-0.063051
0.004730
0.070694
0.135362
0.199566
0.263757
0.327383
0.389065
0.447934
0.505196
0.562921
0.621007
0.677204
0.729432
0.776218
0.815833
0.846625
0.868029
0.880514
0.884315
0.878773
0.863355
0.838661
0.805905
0.766116
0.720389
0.670523
0.618933
0.567702
0.517776
0.469489
0.423629
0.381130
0.342166
0.306634
0.275203
0.249034
0.228530
0.212678
0.199898
0.189528
0.182253
0.179209
0.180819
0.186419
0.195198
0.207649
0.225427
0.249285
0.278417
0.312030
0.349673
0.390517
0.433915
0.479566
0.526463
0.572603
0.616005
0.655728
0.691825
0.724555
0.753967
0.779866
0.801796
0.819708
0.834534
0.847309
0.858655
0.869878
0.882934
0.898724
0.916390
0.933961
0.949291
0.961305
0.970871
0.979887
0.989645
1.001010
1.015211
1.033112
1.054887
1.080836
1.111169
1.145512
1.183598
1.226017
1.273900
1.327390
1.384861
1.444232
1.503733
1.561395
1.615325
1.663992
1.705795
1.739337
1.763972
1.779782
1.787495
1.788041
1.781770
1.768164
1.746648
1.717734
1.682890
1.643856
1.602060
1.557890
1.511474
1.463980
1.416713
1.370161
1.324985
1.282543
1.244341
1.211919
1.186577
1.169281
1.161378
1.164201
1.177884
1.201875
1.235999
1.280220
1.333829
1.394820
1.460125
1.526973
1.593822
1.659644
1.722835
1.781065
1.831319
1.870325
1.895964
1.907936
1.907084
1.894367
1.869981
1.834160
