EVENT_NAME: L_AQUILA
EVENT_ID: IT-2009-0009
EVENT_DATE_YYYYMMDD: 20090406
EVENT_TIME_HHMMSS: 013240
EVENT_LATITUDE_DEGREE: 42.3420
EVENT_LONGITUDE_DEGREE: 13.3800
EVENT_DEPTH_KM: 8.3
HYPOCENTER_REFERENCE: INGV-CNT_Seismic_Bulletin
MAGNITUDE_W: 6.1
MAGNITUDE_W_REFERENCE: INGV-CNT_Seismic_Bulletin
MAGNITUDE_L: 
MAGNITUDE_L_REFERENCE: 
FOCAL_MECHANISM: Normal faulting
NETWORK: IT
STATION_CODE: CSS
STATION_NAME: 
STATION_LATITUDE_DEGREE: 41.485790
STATION_LONGITUDE_DEGREE: 13.823090
STATION_ELEVATION_M: 166
LOCATION: 
SENSOR_DEPTH_M: 0.0
VS30_M/S: 648
SITE_CLASSIFICATION_EC8: B
MORPHOLOGIC_CLASSIFICATION: 
EPICENTRAL_DISTANCE_KM: 102.0
EARTHQUAKE_BACKAZIMUTH_DEGREE: 158.7
DATE_TIME_FIRST_SAMPLE_YYYYMMDD_HHMMSS: 
DATE_TIME_FIRST_SAMPLE_PRECISION: 
SAMPLING_INTERVAL_S: 
NDATA: 105
DURATION_S: 
STREAM: HNE
UNITS: cm/s^2
INSTRUMENT: sensor = FBA-3 [Kinemetrics] | digitizer = Etna [Kinemetrics]
INSTRUMENT_ANALOG/DIGITAL: D
INSTRUMENTAL_FREQUENCY_HZ: 
INSTRUMENTAL_DAMPING: 
FULL_SCALE_G: 
N_BIT_DIGITAL_CONVERTER: 18
PGA_CM/S^2: -8.349044
TIME_PGA_S: 
BASELINE_CORRECTION: BASELINE REMOVED
FILTER_TYPE: BUTTERWORTH
FILTER_ORDER: 2
LOW_CUT_FREQUENCY_HZ: 0.070
HIGH_CUT_FREQUENCY_HZ: 30.000
LATE/NORMAL_TRIGGERED: NT
DATABASE_VERSION: 0.5
HEADER_FORMAT: DYNA 1.2
DATA_TYPE: ACCELERATION RESPONSE SPECTRUM
PROCESSING: manual (Paolucci et al., 2011)
DATA_TIMESTAMP_YYYYMMDD_HHMMSS: 20211011_160638.141
DATA_LICENSE: CC-BY3_0-IT (http://creativecommons.org/licenses/by/3.0/deed.en)
DATA_CITATION: Luzi L, Pacor F, Puglia R (2019). Italian Accelerometric Archive v 3.0 - Istituto Nazionale di Geofisica e Vulcanologia, Dipartimento della Protezione Civile Nazionale. doi: 10.13127/itaca.3.1
DATA_CREATOR: ITACA working group
ORIGINAL_DATA_MEDIATOR_CITATION: data obtained within the DPC-INGV data exchange agreements
ORIGINAL_DATA_MEDIATOR: Archive of Italian Department of Civil Protection
ORIGINAL_DATA_CREATOR_CITATION: Presidency Of Counsil Of Ministers-Civil Protection Department. (1972). Italian Strong Motion Network. Presidency of Counsil of Ministers - Civil Protection Department. https://doi.org/10.7914/SN/IT http://www.fdsn.org/networks/detail/IT/
ORIGINAL_DATA_CREATOR: network: IT (Italian Strong Motion Network (RAN)); owner: Presidency of Counsil of Ministers - Civil Protection Department (PCM - DPC)
USER1: 
USER2: 
USER3: 
USER4: 
USER5: 
    0.010000     8.354155
    0.020000     8.371977
    0.022000     8.378947
    0.025000     8.387798
    0.029000     8.408426
    0.030000     8.415301
    0.032000     8.424599
    0.035001     8.438051
    0.036000     8.444640
    0.040000     8.463927
    0.041999     8.487170
    0.044001     8.501479
    0.045000     8.504819
    0.046000     8.510337
    0.048001     8.525887
    0.050000     8.533262
    0.054999     8.585809
    0.059999     8.637042
    0.064998     8.705303
    0.067002     8.754629
    0.069999     8.811518
    0.075002     8.915048
    0.080000     9.063342
    0.084998     9.001819
    0.090001     9.085119
    0.095003     9.340077
    0.100000     9.342661
    0.109999     9.448777
    0.120005     9.693918
    0.130005    10.609686
    0.132996    10.824840
    0.139997    10.939148
    0.149993    10.158640
    0.160000    12.373672
    0.170010    12.440681
    0.179986    12.055748
    0.190006    11.658220
    0.200000    12.601817
    0.220022    14.750289
    0.239981    13.695416
    0.250000    16.405025
    0.260010    16.523470
    0.280034    15.353415
    0.290023    16.170494
    0.300030    15.183902
    0.320000    17.106636
    0.340020    21.955801
    0.350017    24.852571
    0.359971    26.528929
    0.379939    24.364620
    0.400000    25.100962
    0.419992    21.166414
    0.439947    18.021509
    0.450045    19.799158
    0.459982    20.757872
    0.480077    22.342472
    0.500000    24.130711
    0.550055    23.204853
    0.599880    23.951189
    0.650195    26.570227
    0.667111    24.454994
    0.699790    20.873827
    0.750188    23.324316
    0.800000    16.978148
    0.850340    16.374910
    0.900090    18.160704
    0.949668    18.735540
    1.000000    17.325733
    1.100110    14.329173
    1.200480    10.535125
    1.300390     8.140618
    1.400560     7.212724
    1.499250     7.786623
    1.600000     8.625775
    1.700680     9.829161
    1.798561    12.014716
    1.901141    12.743905
    2.000000    12.316777
    2.197802     9.566292
    2.398082     7.406185
    2.500000     6.691973
    2.597403     6.018929
    2.801121     5.191027
    3.003003     4.288120
    3.205128     3.274983
    3.401361     2.769747
    3.496503     2.613966
    3.597122     2.493014
    3.802281     2.363046
    4.000000     2.308089
    4.201681     2.217260
    4.405286     2.057521
    4.608295     1.861952
    4.807692     1.719822
    5.000000     1.713849
    5.494505     1.753957
    5.988024     1.730039
    6.493506     1.642697
    6.993007     1.485106
    7.518797     1.328355
    8.000000     1.176432
    8.474576     1.000311
    9.009009     0.867737
    9.523809     0.792775
   10.000000     0.707698
