EVENT_NAME: L_AQUILA
EVENT_ID: IT-2009-0009
EVENT_DATE_YYYYMMDD: 20090406
EVENT_TIME_HHMMSS: 013240
EVENT_LATITUDE_DEGREE: 42.3420
EVENT_LONGITUDE_DEGREE: 13.3800
EVENT_DEPTH_KM: 8.3
HYPOCENTER_REFERENCE: INGV-CNT_Seismic_Bulletin
MAGNITUDE_W: 6.1
MAGNITUDE_W_REFERENCE: INGV-CNT_Seismic_Bulletin
MAGNITUDE_L: 
MAGNITUDE_L_REFERENCE: 
FOCAL_MECHANISM: Normal faulting
NETWORK: IT
STATION_CODE: CSS
STATION_NAME: 
STATION_LATITUDE_DEGREE: 41.485790
STATION_LONGITUDE_DEGREE: 13.823090
STATION_ELEVATION_M: 166
LOCATION: 
SENSOR_DEPTH_M: 0.0
VS30_M/S: 648
SITE_CLASSIFICATION_EC8: B
MORPHOLOGIC_CLASSIFICATION: 
EPICENTRAL_DISTANCE_KM: 102.0
EARTHQUAKE_BACKAZIMUTH_DEGREE: 158.7
DATE_TIME_FIRST_SAMPLE_YYYYMMDD_HHMMSS: 20090406_013234.000
DATE_TIME_FIRST_SAMPLE_PRECISION: seconds
SAMPLING_INTERVAL_S: 0.005000
NDATA: 20000
DURATION_S: 100.000
STREAM: HNE
UNITS: cm/s^2
INSTRUMENT: sensor = FBA-3 [Kinemetrics] | digitizer = Etna [Kinemetrics]
INSTRUMENT_ANALOG/DIGITAL: D
INSTRUMENTAL_FREQUENCY_HZ: 
INSTRUMENTAL_DAMPING: 
FULL_SCALE_G: 
N_BIT_DIGITAL_CONVERTER: 18
PGA_CM/S^2: -8.349044
TIME_PGA_S: 43.895000
BASELINE_CORRECTION: BASELINE REMOVED
FILTER_TYPE: BUTTERWORTH
FILTER_ORDER: 2
LOW_CUT_FREQUENCY_HZ: 0.070
HIGH_CUT_FREQUENCY_HZ: 30.000
LATE/NORMAL_TRIGGERED: NT
DATABASE_VERSION: 0.5
HEADER_FORMAT: DYNA 1.2
DATA_TYPE: ACCELERATION
PROCESSING: manual (Paolucci et al., 2011)
DATA_TIMESTAMP_YYYYMMDD_HHMMSS: 20211011_160636.710
DATA_LICENSE: CC-BY3_0-IT (http://creativecommons.org/licenses/by/3.0/deed.en)
DATA_CITATION: Luzi L, Pacor F, Puglia R (2019). Italian Accelerometric Archive v 3.0 - Istituto Nazionale di Geofisica e Vulcanologia, Dipartimento della Protezione Civile Nazionale. doi: 10.13127/itaca.3.1
DATA_CREATOR: ITACA working group
ORIGINAL_DATA_MEDIATOR_CITATION: data obtained within the DPC-INGV data exchange agreements
ORIGINAL_DATA_MEDIATOR: Archive of Italian Department of Civil Protection
ORIGINAL_DATA_CREATOR_CITATION: Presidency Of Counsil Of Ministers-Civil Protection Department. (1972). Italian Strong Motion Network. Presidency of Counsil of Ministers - Civil Protection Department. https://doi.org/10.7914/SN/IT http://www.fdsn.org/networks/detail/IT/
ORIGINAL_DATA_CREATOR: network: IT (Italian Strong Motion Network (RAN)); owner: Presidency of Counsil of Ministers - Civil Protection Department (PCM - DPC)
USER1: 
USER2: 
USER3: 
USER4: 
USER5: 
[...]
-0.911218
-1.136393
-1.361721
-1.581451
-1.789768
-1.980340
-2.147697
-2.288515
-2.400585
-2.481885
-2.530965
-2.548348
-2.537223
-2.501133
-2.442332
-2.362417
-2.261813
-2.140115
-1.997649
-1.834503
-1.650152
-1.445618
-1.223683
-0.988175
-0.744788
-0.500031
-0.258703
-0.023958
0.200601
0.410575
0.603202
0.778752
0.938714
1.083589
1.213402
1.329066
1.431226
1.519570
1.594474
1.657366
1.709599
1.752197
1.786279
1.812570
1.830250
1.837240
1.832558
1.817832
1.794793
1.762606
1.719380
1.664608
1.599704
1.527708
1.453010
1.379870
1.310370
1.244451
1.180361
1.114904
1.045032
0.968090
0.880966
0.781469
0.669767
0.547396
0.416344
0.279569
0.141243
0.006607
-0.119017
-0.230814
-0.323611
-0.393984
-0.442054
-0.468348
-0.472377
-0.454579
-0.416620
-0.360041
-0.287037
-0.203716
-0.120296
-0.046644
0.010488
0.045881
0.055685
0.039507
-0.000118
-0.059993
-0.137796
-0.231841
-0.339918
-0.459930
-0.590100
-0.727573
-0.868659
-1.009818
-1.148045
-1.281270
-1.407885
-1.526513
-1.637041
-1.740120
-1.835067
-1.919967
-1.993187
-2.053325
-2.098934
-2.128534
-2.140945
-2.135537
-2.110251
-2.061316
-1.986417
-1.885423
-1.758992
-1.608880
-1.438309
-1.251171
-1.050807
-0.838808
-0.616218
-0.385320
-0.147964
0.094275
0.337000
0.574594
0.804092
1.024864
1.235008
1.429789
1.605269
1.760796
1.895572
2.006338
2.089400
2.141832
2.160429
2.140976
2.080453
1.980387
1.845396
1.679362
1.486228
1.272402
1.045473
0.811271
0.573748
0.338165
0.111370
-0.102027
-0.299783
-0.479430
-0.639237
-0.779752
-0.901878
-1.004456
-1.085058
-1.142096
-1.175703
-1.187445
-1.179517
-1.155630
-1.121419
-1.080881
-1.035123
-0.985938
-0.935933
-0.885279
-0.832157
-0.775502
-0.715545
-0.651944
-0.582327
-0.504417
-0.418785
-0.327244
-0.230252
-0.128124
-0.022998
0.081821
0.183220
0.278719
0.365865
0.442642
0.509115
0.565176
0.607380
0.632499
0.642194
0.640546
0.629676
0.610446
0.584042
0.551187
0.512462
0.469671
0.425312
0.380232
0.333044
0.282621
0.230271
0.178335
0.126736
0.073047
0.015625
-0.045902
-0.112252
-0.184224
-0.261563
-0.344215
-0.433250
-0.528412
-0.626166
-0.720750
-0.807284
-0.883294
-0.946989
-0.996643
-1.031038
-1.048618
-1.047070
-1.024524
-0.982065
-0.923981
-0.854319
-0.775110
-0.688241
-0.596254
-0.500623
-0.401636
-0.299784
-0.195510
-0.088361
0.022387
0.135418
0.246873
0.353478
0.454115
0.547877
0.632886
0.707195
0.769598
0.819104
0.854257
0.874130
0.878911
0.867892
0.839281
0.792460
0.727433
0.643982
0.543711
0.430577
0.308870
0.182055
0.053037
-0.074690
-0.196272
-0.307167
-0.405755
-0.492942
-0.569334
-0.635292
-0.693413
-0.747966
-0.802600
-0.859601
-0.920334
-0.985598
-1.054547
-1.124922
-1.195105
-1.262976
-1.323377
-1.369910
-1.399001
-1.410587
-1.406334
-1.388984
-1.361955
-1.328245
-1.289399
-1.245452
-1.196157
-1.140771
-1.076421
-0.999250
-0.907149
-0.799643
-0.676541
-0.538747
-0.389662
-0.235050
-0.081199
0.067639
0.209639
0.343765
0.469273
0.585692
0.692252
0.789030
0.879296
0.968651
1.061137
1.157784
1.258650
1.363824
1.472039
1.580594
1.686758
1.787586
1.879470
1.958683
2.021157
2.062154
2.077684
2.066415
2.030222
1.973525
1.901178
1.815943
1.718730
1.610565
1.492329
1.363719
1.224615
1.076252
0.920378
0.758429
0.591126
0.418359
0.239312
0.052649
-0.142667
-0.345962
-0.553902
-0.761044
-0.960983
-1.147109
-1.313910
-1.458186
-1.578783
-1.674973
-1.744793
-1.785602
-1.795819
-1.775298
-1.725681
-1.650620
-1.554344
-1.439993
-1.309321
-1.164358
-1.008950
-0.847602
-0.684081
-0.521901
-0.364418
-0.213733
-0.070343
0.066134
0.196532
0.322438
0.446392
0.570062
0.691260
0.804913
0.907235
0.996572
1.071167
1.127964
1.163265
1.174185
1.158662
1.114863
1.042830
0.945218
0.824843
0.683986
0.526524
0.357536
0.180390
-0.003770
-0.192916
-0.382044
-0.565751
-0.740612
-0.903536
-1.050247
-1.177134
-1.283723
-1.370799
-1.437544
-1.483780
-1.512140
-1.525886
-1.526891
-1.516307
-1.495623
-1.465709
-1.425063
-1.370337
-1.299095
-1.210756
-1.104759
-0.980182
-0.836877
-0.675618
-0.497912
-0.305871
-0.102295
0.109107
0.324199
0.538973
0.749135
0.949919
1.137080
1.306524
1.453082
1.572465
1.663991
1.728948
1.767212
1.778086
1.763787
1.729617
1.681527
1.625053
1.565452
1.507178
1.453171
1.405664
1.367028
1.338133
1.316498
1.297466
1.276611
1.250551
1.216801
1.173853
1.122130
1.064788
1.006076
0.949466
0.897697
0.852817
0.815996
0.786678
0.761962
0.738515
0.713654
0.684461
0.648392
0.603840
0.549314
0.484304
0.411158
0.333850
0.255036
0.175910
0.098106
0.023949
-0.045074
-0.108600
-0.166054
-0.216958
-0.263504
-0.310373
-0.359808
-0.410115
-0.460062
-0.509962
-0.559067
-0.605954
-0.650257
-0.692659
-0.734281
-0.775314
-0.814264
-0.849416
-0.878991
-0.899760
-0.908075
-0.902731
-0.885873
-0.860650
-0.829012
-0.791974
-0.750757
-0.707914
-0.667601
-0.634373
-0.611077
-0.597509
-0.592289
-0.595262
-0.605843
-0.621013
-0.637705
-0.655198
-0.673561
-0.691674
-0.707878
-0.721663
-0.733079
-0.741054
-0.744320
-0.743508
-0.741359
-0.740894
-0.743821
-0.750722
-0.761275
-0.774294
-0.788419
-0.802497
-0.815735
-0.827206
-0.835046
-0.837164
-0.832323
-0.819596
-0.797715
-0.766645
-0.728900
-0.688133
-0.648400
-0.614426
-0.589854
-0.576060
-0.573334
-0.580658
-0.594592
-0.610791
-0.625481
-0.635249
-0.637125
-0.628779
-0.609297
-0.580383
-0.545973
-0.510183
-0.476128
-0.446699
-0.424574
-0.410778
-0.404270
-0.402993
-0.404764
-0.407082
-0.406980
-0.401649
-0.389022
-0.368072
-0.338652
-0.300989
-0.255335
-0.202028
-0.141641
-0.074676
-0.002172
0.073668
0.151284
0.229944
0.307384
0.380812
0.449732
0.515285
0.577581
0.634590
0.682957
0.719795
0.743775
0.753986
0.749331
0.730299
0.698913
0.656618
0.604211
0.542888
0.473259
0.394100
0.304625
0.207864
0.109790
0.016016
-0.069106
-0.141448
-0.197440
-0.235842
-0.258005
-0.265922
-0.260904
-0.244420
-0.218973
-0.188088
-0.155958
-0.126340
-0.101806
-0.083749
-0.072363
-0.067590
-0.069622
-0.076722
-0.084959
-0.091448
-0.094808
-0.093561
-0.087008
-0.076026
-0.061606
-0.043243
-0.019492
0.009912
0.044219
0.083251
0.126781
0.174079
0.224791
0.278744
0.335018
0.391177
0.444015
0.491900
0.534987
0.573260
0.605818
0.632064
0.652899
0.669914
0.684023
0.696112
0.707402
0.717719
0.724836
0.725930
0.718509
0.699833
0.666333
0.614806
0.544427
0.456978
0.355434
0.243963
0.129407
0.019256
-0.083111
-0.177733
-0.263564
-0.339053
-0.404564
-0.461082
-0.510047
-0.554460
-0.597387
-0.641423
-0.689230
-0.741947
-0.799007
-0.859881
-0.923421
-0.986409
-1.045263
-1.098669
-1.147090
-1.190995
-1.230159
-1.263493
-1.289693
-1.307868
-1.317676
-1.319430
-1.313236
-1.298605
-1.276138
-1.248706
-1.219400
-1.189027
-1.157269
-1.124592
-1.090821
-1.053600
-1.010217
-0.959786
-0.902951
-0.840567
-0.773146
-0.701751
-0.628645
-0.555959
-0.484947
-0.416970
-0.353551
-0.295161
-0.240773
-0.189534
-0.142295
-0.099883
-0.061676
-0.027444
0.002334
0.028290
0.051880
0.074128
0.095809
0.118071
0.141724
0.165885
0.188321
0.206897
0.219682
0.224192
0.218225
0.202029
0.178317
0.149116
0.113910
0.072084
0.024729
-0.026892
-0.081829
-0.138519
-0.193897
-0.242457
-0.277625
-0.294664
-0.291872
-0.269625
-0.228562
-0.168354
-0.087229
0.017292
0.146555
0.299722
0.473598
0.662177
0.857448
1.051931
1.239571
1.415078
1.573876
1.712169
1.827764
1.920256
1.989363
2.034664
2.056210
2.053906
2.027612
1.977749
1.905618
1.814143
1.707015
1.586314
1.452815
1.308119
1.154760
0.995597
0.834095
0.674063
0.518728
0.370099
0.228442
0.092233
-0.041054
-0.174640
-0.311538
-0.452326
-0.595468
-0.739633
-0.884162
-1.028637
-1.172294
-1.314269
-1.454738
-1.593620
-1.729538
-1.861344
-1.987873
-2.106792
-2.215040
-2.308963
-2.384221
-2.436625
-2.462949
-2.460141
-2.423425
-2.347208
-2.229272
-2.072618
-1.883388
-1.668913
-1.437198
-1.196738
-0.956287
-0.723085
-0.500899
-0.292081
-0.100811
0.068214
0.213002
0.334331
0.433865
0.514198
0.579926
0.636307
0.686756
0.732790
0.775121
0.813879
0.849456
0.883003
0.915169
0.945091
0.970940
0.991674
1.007465
1.018137
1.022801
1.020421
1.010079
0.990911
0.960839
0.916069
0.851998
0.763201
0.644659
0.495095
0.317345
0.115687
-0.105304
-0.339948
-0.580871
-0.819749
-1.048951
-1.262390
-1.454339
-1.619119
-1.753226
-1.854710
-1.920622
-1.947923
-1.935789
-1.886408
-1.804034
-1.692630
-1.555721
-1.398352
-1.226887
-1.048481
-0.871854
-0.705630
-0.555476
-0.424476
-0.314828
-0.227532
-0.161512
-0.114435
-0.083796
-0.065517
-0.052404
-0.035885
-0.008658
0.034505
0.096967
0.180370
0.285018
0.410310
0.554615
0.714858
0.886455
1.064806
1.246821
1.430509
1.614055
1.794280
1.966353
2.126299
2.271706
2.400929
2.513924
2.612544
2.699110
2.775121
2.842163
2.902593
2.957654
3.006359
3.046249
3.074616
3.088913
3.086128
3.064395
3.024393
2.966580
2.889523
2.791543
2.671901
2.530877
2.368927
2.185428
1.979733
1.753040
1.507707
1.246415
0.972622
0.690562
0.405159
0.121864
-0.154009
-0.417834
-0.666377
-0.898249
-1.112997
-1.310792
-1.493649
-1.664411
-1.823783
-1.970154
-2.101990
-2.218943
-2.320679
-2.405488
-2.470263
-2.511755
-2.527867
-2.518316
-2.484594
-2.429315
-2.355759
-2.267509
-2.168202
-2.061654
-1.951466
-1.840245
-1.729052
-1.618116
-1.508469
-1.401607
-1.298487
-1.200076
-1.106402
-1.015118
-0.923410
-0.830011
-0.734606
-0.637018
-0.537081
-0.434706
-0.330460
-0.225549
-0.120645
-0.016009
0.087926
0.192096
0.298624
0.407610
0.516743
0.623790
0.726766
0.822348
0.906785
0.978089
1.034864
1.074297
1.093829
1.092895
1.071824
1.031058
0.971238
0.892723
0.796108
0.683138
0.555278
0.413365
0.259919
0.098159
-0.070700
-0.245708
-0.424166
-0.603314
-0.780723
-0.952611
-1.114651
-1.263713
-1.397557
-1.514623
-1.614428
-1.697133
-1.763003
-1.812324
-1.845320
-1.862440
-1.865159
-1.855792
-1.836286
-1.808544
-1.776072
-1.743080
-1.711620
-1.682416
-1.658164
-1.642222
-1.634789
-1.633623
-1.637610
-1.647038
-1.660498
-1.673862
-1.682910
-1.685379
-1.680195
-1.665830
-1.640442
-1.603277
-1.554570
-1.495174
-1.427996
-1.357637
-1.286975
-1.215917
-1.143549
-1.069378
-0.992592
-0.911951
-0.826779
-0.737040
-0.642627
-0.542659
-0.434644
-0.315996
-0.186344
-0.045675
0.106776
0.269947
0.441097
0.617029
0.792710
0.961423
1.116101
1.249273
1.353320
1.421554
1.450123
1.439281
1.391390
1.308596
1.193169
1.048067
0.875540
0.675705
0.448382
0.196296
-0.074235
-0.354460
-0.634766
-0.906120
-1.161051
-1.394992
-1.606271
-1.793439
-1.953613
-2.083443
-2.180175
-2.242382
-2.270895
-2.269223
-2.243245
-2.199526
-2.143133
-2.078261
-2.009792
-1.942922
-1.883415
-1.838011
-1.812823
-1.811353
-1.833327
-1.875119
-1.930939
-1.993072
-2.053672
-2.107814
-2.153137
-2.187390
-2.207861
-2.211928
-2.197187
-2.161120
-2.100829
-2.013917
-1.899756
-1.759227
-1.592611
-1.398308
-1.174476
-0.920048
-0.633804
-0.315904
0.029972
0.397504
0.778822
1.165415
1.549729
1.925478
2.287730
2.633153
2.959493
3.266134
3.554891
3.829294
4.093239
4.350103
4.603291
4.855814
5.107346
5.353996
5.591670
5.816247
6.021047
6.197535
6.338207
6.438270
6.495216
6.506414
6.468433
6.379707
6.242018
6.058925
5.833949
5.570741
5.273970
4.948396
4.598064
4.228170
3.845893
3.458032
3.069724
2.685248
2.307005
1.934399
1.566791
1.206109
0.854755
0.513869
0.185145
-0.127495
-0.418292
-0.680832
-0.908753
-1.095371
-1.234293
-1.322238
-1.359963
-1.349761
-1.294041
-1.196744
-1.064422
-0.904689
-0.724164
-0.529638
-0.330878
-0.139593
0.034432
0.184259
0.303743
0.386851
0.429422
0.430353
0.391363
0.317210
0.215258
0.094120
-0.036864
-0.168603
-0.294151
-0.409612
-0.513451
-0.605101
-0.684049
-0.749850
-0.802130
-0.839537
-0.859589
-0.860505
-0.842252
-0.805792
-0.751958
-0.681942
-0.599409
-0.510354
-0.420095
-0.331727
-0.247598
-0.170095
-0.100494
-0.039580
0.011495
0.053250
0.088699
0.121247
0.153436
0.187123
0.224398
0.268598
0.322531
0.386309
0.459336
0.541683
0.631767
0.725973
0.820384
0.910864
0.993425
1.065739
1.127880
1.182178
1.232115
1.281320
1.333458
1.391590
1.457281
1.530744
1.612282
1.703387
1.805461
1.918339
2.041150
2.172878
2.310505
2.448380
2.581247
2.706306
2.821621
2.924837
3.014309
3.090049
3.152261
3.199639
3.230565
3.245184
3.244953
3.230611
3.202018
3.159620
3.104544
3.037191
2.956910
2.864372
2.763036
2.656315
2.545295
2.430376
2.312237
2.190165
2.062290
1.928082
1.787839
1.640022
1.481315
1.309026
1.121607
0.916879
0.692037
0.444890
0.174124
-0.120617
-0.439181
-0.780800
-1.143412
-1.525575
-1.928484
-2.353221
-2.797418
-3.257703
-3.732545
-4.219450
-4.712852
-5.206263
-5.692828
-6.163803
-6.609350
-7.020418
-7.389382
-7.709113
-7.971070
-8.167020
-8.293101
-8.349044
-8.334777
-8.250351
-8.099066
-7.889093
-7.629739
-7.327402
-6.986697
-6.612683
-6.211030
-5.788466
-5.354106
-4.919736
-4.497466
-4.096471
-3.722228
-3.377251
-3.060645
-2.768579
-2.497082
-2.242486
-1.998075
-1.754177
-1.503375
-1.242544
-0.970646
-0.688119
-0.398128
-0.106650
0.179886
0.457632
0.726462
0.988802
1.248281
1.509750
1.777727
2.054283
2.340447
2.637495
2.946039
3.265780
3.595278
3.930877
4.266593
4.595722
4.912335
5.211029
5.486024
5.731118
5.940578
6.110111
6.236048
6.313436
6.336807
6.302503
6.208172
6.050943
5.828538
5.542041
5.195859
4.795340
4.346491
3.857282
3.337258
2.797003
2.248534
1.704195
1.174662
0.668316
0.191721
-0.249993
-0.653426
-1.017213
-1.341556
-1.627222
-1.874702
-2.084646
-2.258536
-2.397523
-2.501564
-2.570610
-2.604777
-2.603049
-2.563607
-2.485386
-2.368640
-2.214710
-2.025659
-1.804290
-1.554742
-1.281537
-0.988428
-0.679621
-0.360049
-0.034117
0.294380
0.621603
0.942591
1.250773
1.538821
1.798923
2.022742
2.203366
2.337696
2.425180
2.464567
2.453743
2.392184
2.281812
2.125160
1.924054
1.681008
1.401385
1.092635
0.761462
0.413982
0.056827
-0.303522
-0.659603
-1.001742
-1.319474
-1.604303
-1.851763
-2.059914
-2.227507
-2.355270
-2.446683
-2.507107
-2.543085
-2.561231
-2.566532
-2.562115
-2.550749
-2.535616
-2.519417
-2.502566
-2.482476
-2.455866
-2.421800
-2.382114
-2.340114
-2.300058
-2.266898
-2.245041
-2.237427
-2.245353
-2.267581
-2.299801
-2.335650
-2.367763
-2.389141
-2.394575
-2.379396
-2.337899
-2.265674
-2.162062
-2.028006
-1.863669
-1.669953
-1.449639
-1.205537
-0.939901
-0.655675
-0.356023
-0.044276
0.274815
0.596608
0.918496
1.238461
1.553465
1.859575
2.153134
2.432299
2.696946
2.947037
3.182087
3.402304
3.608942
3.803223
3.985887
4.157720
4.320332
4.476223
4.627846
4.777185
4.925644
5.073492
5.219345
5.360544
5.493822
5.614569
5.716522
5.793244
5.838733
5.847297
5.815195
5.742732
5.633800
5.493920
5.329449
5.147342
4.953775
4.752272
4.543708
4.328102
4.105227
3.873594
3.630457
3.374141
3.105335
2.824708
2.531885
2.227796
1.915476
1.598762
1.281056
0.964776
0.651902
0.344090
0.042137
-0.253186
-0.540134
-0.817178
-1.083904
-1.338865
-1.578515
-1.799789
-2.000839
-2.178514
-2.328809
-2.451021
-2.548494
-2.624987
-2.683162
-2.725992
-2.758274
-2.786265
-2.814256
-2.842949
-2.872123
-2.902273
-2.933703
-2.965612
-2.996100
-3.022811
-3.043081
-3.054174
-3.054687
-3.044623
-3.023315
-2.989065
-2.940755
-2.878024
-2.799688
-2.702697
-2.583036
-2.437199
-2.262705
-2.058060
-1.822792
-1.557893
-1.265794
-0.950370
-0.618291
-0.278533
0.060805
0.393133
0.711183
1.006879
1.274269
1.511447
1.718140
1.892418
2.031932
2.136885
2.209383
2.251581
2.265910
2.254793
2.219017
2.158332
2.074166
1.970358
1.850951
1.718376
1.574905
1.424637
1.272271
1.121309
0.974243
0.833447
0.701548
0.580784
0.472656
0.378256
0.298337
0.233859
0.187093
0.161828
0.161772
0.188651
0.242265
0.321526
0.423922
0.544096
0.675173
0.811997
0.952042
1.094561
1.239522
1.386303
1.534205
1.683263
1.832742
1.981145
2.127737
2.270842
2.406405
2.529892
2.637234
2.725104
2.792915
2.843687
2.882095
2.911927
2.935927
2.957526
2.980734
3.007760
3.037754
3.069447
3.104736
3.147526
3.200690
3.265815
3.342717
3.427874
3.514851
3.596203
3.664602
3.712657
3.732580
3.717083
3.660615
3.559195
3.409439
3.209136
2.959060
2.663256
2.327583
1.958702
1.564737
1.155491
0.739986
0.325084
-0.082272
-0.473901
-0.841788
-1.178478
-1.476808
-1.731161
-1.938668
-2.098757
-2.212111
-2.280101
-2.304845
-2.288592
-2.232272
-2.136888
-2.007283
-1.852292
-1.681343
-1.503115
-1.326584
-1.161305
-1.016308
-0.898582
-0.812632
-0.760842
-0.743607
-0.759751
-0.807111
-0.883155
-0.984593
-1.106135
-1.241691
-1.386237
-1.534835
-1.682190
-1.824779
-1.961884
-2.093316
-2.216472
-2.326952
-2.420964
-2.494585
-2.542597
-2.560920
-2.548398
-2.504712
-2.428834
-2.320812
-2.182718
-2.016848
-1.824863
-1.608986
-1.372927
-1.120537
-0.853839
-0.574589
-0.287365
0.001060
0.284511
0.557622
0.814270
1.048107
1.254504
1.430749
1.574676
1.683762
1.756449
1.794074
1.800200
1.779641
1.739004
1.686066
1.628282
1.571923
1.521525
1.479922
1.447635
1.421977
1.398911
1.375062
1.347533
1.314579
1.275772
1.230908
1.180688
1.126154
1.066362
0.999039
0.922328
0.834480
0.734240
0.622546
0.501613
0.371925
0.231557
0.078327
-0.087719
-0.264746
-0.452286
-0.651315
-0.861945
-1.083725
-1.315680
-1.554799
-1.796699
-2.037656
-2.275415
-2.508491
-2.734949
-2.952023
-3.156652
-3.346149
-3.518379
-3.671361
-3.803239
-3.912535
-3.998672
-4.062931
-4.107485
-4.132834
-4.137510
-4.120090
-4.079936
-4.015868
-3.925840
-3.808659
-3.665339
-3.499013
-3.313630
-3.112671
-2.899168
-2.675361
-2.441912
-2.199092
-1.948009
-1.689528
-1.424010
-1.153172
-0.880080
-0.607204
-0.336388
-0.070381
0.186737
0.431278
0.661436
0.875956
1.073155
1.252364
1.413754
1.556281
1.677888
1.777058
1.853063
1.905356
1.932464
1.932349
1.903877
1.845375
1.753209
1.623734
1.454991
1.246570
0.999273
0.715144
0.397356
0.049443
-0.325066
-0.721603
-1.133627
-1.553771
-1.975438
-2.391760
-2.794140
-3.174259
-3.526326
-3.845854
-4.128388
-4.370142
-4.568525
-4.722635
-4.833599
-4.903936
-4.936689
-4.934619
-4.899708
-4.833290
-4.736090
-4.609126
-4.455529
-4.279889
-4.086321
-3.879179
-3.664082
-3.446767
-3.231734
-3.021726
-2.818094
-2.621994
-2.435013
-2.258709
-2.093587
-1.938515
