EVENT_NAME: L_AQUILA
EVENT_ID: IT-2009-0009
EVENT_DATE_YYYYMMDD: 20090406
EVENT_TIME_HHMMSS: 013240
EVENT_LATITUDE_DEGREE: 42.3420
EVENT_LONGITUDE_DEGREE: 13.3800
EVENT_DEPTH_KM: 8.3
HYPOCENTER_REFERENCE: INGV-CNT_Seismic_Bulletin
MAGNITUDE_W: 6.1
MAGNITUDE_W_REFERENCE: INGV-CNT_Seismic_Bulletin
MAGNITUDE_L: 
MAGNITUDE_L_REFERENCE: 
FOCAL_MECHANISM: Normal faulting
NETWORK: IT
STATION_CODE: CSS
STATION_NAME: 
STATION_LATITUDE_DEGREE: 41.485790
STATION_LONGITUDE_DEGREE: 13.823090
STATION_ELEVATION_M: 166
LOCATION: 
SENSOR_DEPTH_M: 0.0
VS30_M/S: 648
SITE_CLASSIFICATION_EC8: B
MORPHOLOGIC_CLASSIFICATION: 
EPICENTRAL_DISTANCE_KM: 102.0
EARTHQUAKE_BACKAZIMUTH_DEGREE: 158.7
DATE_TIME_FIRST_SAMPLE_YYYYMMDD_HHMMSS: 20090406_013234.000
DATE_TIME_FIRST_SAMPLE_PRECISION: seconds
SAMPLING_INTERVAL_S: 0.005000
NDATA: 24000
DURATION_S: 120.000
STREAM: HNE
UNITS: cm/s^2
INSTRUMENT: sensor = FBA-3 [Kinemetrics] | digitizer = Etna [Kinemetrics]
INSTRUMENT_ANALOG/DIGITAL: D
INSTRUMENTAL_FREQUENCY_HZ: 
INSTRUMENTAL_DAMPING: 
FULL_SCALE_G: 
N_BIT_DIGITAL_CONVERTER: 18
PGA_CM/S^2: -8.298354
TIME_PGA_S: 43.895000
BASELINE_CORRECTION: BASELINE NOT REMOVED
FILTER_TYPE: 
FILTER_ORDER: 
LOW_CUT_FREQUENCY_HZ: 
HIGH_CUT_FREQUENCY_HZ: 
LATE/NORMAL_TRIGGERED: NT
DATABASE_VERSION: 0.5
HEADER_FORMAT: DYNA 1.2
DATA_TYPE: ACCELERATION
PROCESSING: converted to cm/s^2
DATA_TIMESTAMP_YYYYMMDD_HHMMSS: 20211011_160636.574
DATA_LICENSE: CC-BY3_0-IT (http://creativecommons.org/licenses/by/3.0/deed.en)
DATA_CITATION: Luzi L, Pacor F, Puglia R (2019). Italian Accelerometric Archive v 3.0 - Istituto Nazionale di Geofisica e Vulcanologia, Dipartimento della Protezione Civile Nazionale. doi: 10.13127/itaca.3.1
DATA_CREATOR: ITACA working group
ORIGINAL_DATA_MEDIATOR_CITATION: data obtained within the DPC-INGV data exchange agreements
ORIGINAL_DATA_MEDIATOR: Archive of Italian Department of Civil Protection
ORIGINAL_DATA_CREATOR_CITATION: Presidency Of Counsil Of Ministers-Civil Protection Department. (1972). Italian Strong Motion Network. Presidency of Counsil of Ministers - Civil Protection Department. https://doi.org/10.7914/SN/IT http://www.fdsn.org/networks/detail/IT/
ORIGINAL_DATA_CREATOR: network: IT (Italian Strong Motion Network (RAN)); owner: Presidency of Counsil of Ministers - Civil Protection Department (PCM - DPC)
USER1: 
USER2: 
USER3: 
USER4: 
USER5: 
[...]
-0.509479
-0.696272
-0.922857
-1.149209
-1.377666
-1.591144
-1.800174
-2.004054
-2.155501
-2.302032
-2.416729
-2.489293
-2.556005
-2.559750
-2.540088
-2.523702
-2.449968
-2.368978
-2.284242
-2.150585
-2.003117
-1.854714
-1.667452
-1.450230
-1.245648
-1.003145
-0.749875
-0.514629
-0.267913
-0.045541
0.192749
0.404587
0.587635
0.768575
0.916277
1.081769
1.198573
1.306950
1.429138
1.502403
1.584564
1.641678
1.697388
1.743267
1.765973
1.802957
1.812554
1.834323
1.822853
1.791019
1.788912
1.748417
1.710731
1.653617
1.585266
1.523236
1.429606
1.367108
1.302269
1.220576
1.174931
1.104708
1.025357
0.960284
0.870398
0.773725
0.650835
0.540820
0.405524
0.261801
0.142656
-0.023772
-0.119275
-0.238419
-0.360841
-0.387993
-0.458216
-0.482092
-0.484667
-0.470622
-0.418189
-0.384951
-0.303492
-0.216884
-0.122084
-0.058181
-0.011600
0.051367
0.038961
0.029129
-0.009961
-0.082290
-0.138937
-0.247314
-0.357798
-0.463366
-0.603343
-0.742853
-0.875340
-1.027957
-1.159039
-1.289888
-1.424013
-1.540115
-1.647322
-1.743527
-1.856820
-1.926574
-2.003351
-2.072404
-2.098620
-2.152926
-2.148244
-2.134902
-2.134434
-2.072638
-1.995861
-1.898485
-1.774191
-1.618531
-1.450230
-1.263203
-1.050663
-0.865274
-0.624410
-0.382142
-0.180368
0.087180
0.332258
0.563291
0.797133
1.000311
1.225024
1.432883
1.589011
1.739990
1.890969
1.994197
2.077996
2.130429
2.142835
2.141665
2.077294
1.957915
1.835025
1.677024
1.473144
1.261773
1.027229
0.800878
0.577803
0.314000
0.094671
-0.101017
-0.317068
-0.491923
-0.653202
-0.783816
-0.908345
-1.023276
-1.089519
-1.161146
-1.183383
-1.193449
-1.204216
-1.159742
-1.119949
-1.099116
-1.053003
-0.983249
-0.946264
-0.899683
-0.841164
-0.790604
-0.716870
-0.660926
-0.601939
-0.515799
-0.422871
-0.335327
-0.249187
-0.134957
-0.033369
0.070327
0.180342
0.256885
0.367135
0.438294
0.480662
0.560014
0.606127
0.631173
0.618767
0.630705
0.629768
0.589039
0.581081
0.538947
0.508049
0.458425
0.405758
0.378605
0.320788
0.283102
0.213113
0.159510
0.129080
0.060027
0.008531
-0.060053
-0.117168
-0.187859
-0.285936
-0.341646
-0.441597
-0.536164
-0.627921
-0.748236
-0.804649
-0.893130
-0.964054
-0.994718
-1.047853
-1.049726
-1.060260
-1.044811
-0.982546
-0.931752
-0.859657
-0.792009
-0.691824
-0.597960
-0.519779
-0.401804
-0.312387
-0.200031
-0.095867
0.000338
0.135634
0.241905
0.343962
0.442976
0.540351
0.626726
0.698821
0.761553
0.806496
0.855652
0.863142
0.860567
0.872271
0.830137
0.777002
0.727144
0.640068
0.533329
0.422143
0.301594
0.171682
0.051835
-0.082525
-0.208692
-0.318941
-0.413274
-0.489583
-0.590235
-0.642434
-0.694399
-0.761345
-0.799733
-0.874403
-0.924964
-0.982312
-1.072899
-1.130014
-1.195087
-1.266480
-1.335767
-1.385157
-1.399904
-1.421907
-1.414416
-1.391711
-1.372049
-1.326872
-1.298549
-1.255947
-1.194385
-1.145463
-1.087646
-1.009465
-0.908345
-0.807692
-0.687845
-0.544357
-0.400634
-0.236546
-0.080418
0.056517
0.205857
0.339514
0.461234
0.578506
0.691097
0.791983
0.865951
0.959113
1.054850
1.156205
1.251240
1.350488
1.475250
1.571222
1.679365
1.785167
1.872711
1.952531
2.013625
2.064185
2.073080
2.064654
2.028840
1.961660
1.893778
1.812788
1.717987
1.597672
1.489061
1.366171
1.213788
1.076151
0.912766
0.752424
0.589039
0.409269
0.238394
0.047153
-0.141980
-0.346562
-0.561210
-0.761111
-0.966629
-1.155528
-1.317977
-1.464743
-1.579674
-1.673070
-1.756635
-1.786831
-1.798769
-1.787533
-1.723631
-1.656451
-1.553692
-1.440633
-1.321488
-1.165126
-1.009933
-0.850996
-0.689483
-0.522119
-0.364586
-0.217821
-0.071991
0.062837
0.195323
0.322427
0.437358
0.556971
0.698119
0.806261
0.898956
0.997267
1.062809
1.128818
1.165568
1.164866
1.159950
1.120157
1.038699
0.935940
0.830371
0.685713
0.517646
0.355197
0.173789
0.007127
-0.194413
-0.395952
-0.558635
-0.745193
-0.899449
-1.058387
-1.189001
-1.266012
-1.379773
-1.446485
-1.479958
-1.514133
-1.521389
-1.533795
-1.515537
-1.492364
-1.464275
-1.423545
-1.382582
-1.291995
-1.209834
-1.111756
-0.975290
-0.842569
-0.673800
-0.498477
-0.308876
-0.101251
0.108013
0.327108
0.533797
0.751020
0.955836
1.128116
1.307652
1.461908
1.575201
1.660639
1.721967
1.778379
1.782358
1.760589
1.732500
1.679365
1.629273
1.561156
1.506616
1.459099
1.404325
1.363362
1.334337
1.323101
1.298055
1.278159
1.255453
1.214490
1.184294
1.125541
1.058362
1.014121
0.947644
0.896849
0.861269
0.804857
0.792451
0.771150
0.730889
0.721526
0.688053
0.649665
0.604020
0.557907
0.493068
0.404587
0.337876
0.256885
0.183386
0.098650
0.021639
-0.036412
-0.107571
-0.160940
-0.226950
-0.255507
-0.288980
-0.369268
-0.410231
-0.448619
-0.505968
-0.560976
-0.599832
-0.647350
-0.692760
-0.719211
-0.776560
-0.813778
-0.836249
-0.877915
-0.895002
-0.911855
-0.900152
-0.872531
-0.861997
-0.819396
-0.790604
-0.750343
-0.699314
-0.667246
-0.619494
-0.604514
-0.599130
-0.588129
-0.581106
-0.599364
-0.627453
-0.626517
-0.650627
-0.664437
-0.687845
-0.709848
-0.704230
-0.731851
-0.736533
-0.740278
-0.741916
-0.726233
-0.738405
-0.737001
-0.739107
-0.759940
-0.764856
-0.782178
-0.800201
-0.801606
-0.823375
-0.828758
-0.831568
-0.824077
-0.807926
-0.804181
-0.753386
-0.720615
-0.687143
-0.637518
-0.602407
-0.580872
-0.575489
-0.552081
-0.576191
-0.592342
-0.594448
-0.626049
-0.622304
-0.630496
-0.625815
-0.601003
-0.576425
-0.528907
-0.505734
-0.469452
-0.432234
-0.416551
-0.397591
-0.399229
-0.392675
-0.392909
-0.401102
-0.395952
-0.394782
-0.380971
-0.357095
-0.331113
-0.288980
-0.247080
-0.194413
-0.124424
-0.075737
0.010638
0.094671
0.147806
0.241905
0.323597
0.393118
0.458191
0.521391
0.589039
0.642643
0.699055
0.732762
0.746572
0.771385
0.766001
0.733698
0.712163
0.668157
0.617830
0.549246
0.479960
0.418866
0.317277
0.218263
0.117844
0.029832
-0.054669
-0.134957
-0.186923
-0.226715
-0.238887
-0.256209
-0.251059
-0.228822
-0.211500
-0.172644
-0.140575
-0.114593
-0.086738
-0.067076
-0.065905
-0.052563
-0.043434
-0.073396
-0.075737
-0.068480
-0.087206
-0.082056
-0.071523
-0.062628
-0.040859
-0.033837
-0.011366
0.033577
0.055346
0.092798
0.148977
0.184322
0.240266
0.294338
0.341387
0.414419
0.461702
0.503367
0.550885
0.585996
0.625789
0.649665
0.663943
0.685010
0.705609
0.707248
0.718717
0.736507
0.739550
0.744700
0.730421
0.715908
0.687117
0.633982
0.563057
0.469193
0.378605
0.267419
0.136337
0.024916
-0.054201
-0.156258
-0.261358
-0.314026
-0.383546
-0.455641
-0.486540
-0.531950
-0.589533
-0.616686
-0.665139
-0.732085
-0.777262
-0.839292
-0.900620
-0.975524
-1.031000
-1.071729
-1.136802
-1.163721
-1.213345
-1.248690
-1.263671
-1.297613
-1.293633
-1.299017
-1.294803
-1.282632
-1.261565
-1.218495
-1.199769
-1.174255
-1.136802
-1.098180
-1.069623
-1.040597
-0.988164
-0.940881
-0.881660
-0.816821
-0.760408
-0.678014
-0.603577
-0.539441
-0.462898
-0.395484
-0.329709
-0.271424
-0.226013
-0.170537
-0.109677
-0.083929
-0.046009
0.004551
0.020469
0.050431
0.073370
0.096076
0.122058
0.133762
0.163723
0.189472
0.212177
0.228328
0.239330
0.252672
0.245182
0.225285
0.193685
0.170043
0.150147
0.086947
0.047388
0.004551
-0.067778
-0.101953
-0.171005
-0.223204
-0.252932
-0.278914
-0.260656
-0.248718
-0.200265
-0.140809
-0.066608
0.041536
0.167703
0.325938
0.489323
0.692501
0.887954
1.069597
1.273477
1.436628
1.598609
1.748183
1.846027
1.945509
2.021350
2.055056
2.082912
2.083380
2.050609
2.007071
1.937316
1.834323
1.729223
1.619909
1.478762
1.333166
1.184997
1.022314
0.861035
0.699289
0.546437
0.393118
0.255715
0.123228
-0.021197
-0.139171
-0.276339
-0.434341
-0.561912
-0.712657
-0.860593
-0.989101
-1.155061
-1.285675
-1.413714
-1.576397
-1.697882
-1.826858
-1.963324
-2.074510
-2.184760
-2.280263
-2.354933
-2.410409
-2.429838
-2.423284
-2.400812
-2.326142
-2.199039
-2.042442
-1.855181
-1.637724
-1.406692
-1.170275
-0.915601
-0.688313
-0.480922
-0.260188
-0.065671
0.104502
0.241670
0.363858
0.471299
0.546437
0.607765
0.662305
0.724101
0.759680
0.805559
0.854247
0.873441
0.918150
0.943430
0.975967
1.013887
1.014589
1.042210
1.052977
1.050169
1.059766
1.039401
1.018569
0.997267
0.949048
0.877421
0.806730
0.685244
0.523264
0.354729
0.146168
-0.065203
-0.307237
-0.546931
-0.786859
-1.021403
-1.215218
-1.430568
-1.590441
-1.706543
-1.824518
-1.888654
-1.912998
-1.908082
-1.848627
-1.761551
-1.667218
-1.520219
-1.358004
-1.199066
-1.014381
-0.828290
-0.667012
-0.523289
-0.385887
-0.277276
-0.187859
-0.128637
-0.080184
-0.036178
-0.031730
-0.017217
-0.001768
0.026087
0.071732
0.128612
0.222008
0.317043
0.448594
0.590678
0.745636
0.936408
1.095580
1.286351
1.473612
1.635124
1.844388
2.006135
2.156177
2.320499
2.434962
2.557149
2.647737
2.731536
2.827273
2.870109
2.940098
2.999319
3.036069
3.097396
3.104887
3.125018
3.141871
3.093885
3.060647
3.008916
2.928628
2.832188
2.713512
2.568619
2.402191
2.236933
2.016668
1.789849
1.555070
1.281436
1.017164
0.730655
0.445317
0.162085
-0.114125
-0.379099
-0.630028
-0.849357
-1.079922
-1.273035
-1.444612
-1.621574
-1.781447
-1.934533
-2.057423
-2.176802
-2.276284
-2.362424
-2.432881
-2.467290
-2.492336
-2.473844
-2.442946
-2.390513
-2.307650
-2.230873
-2.122730
-2.018098
-1.909955
-1.790342
-1.692499
-1.577801
-1.457955
-1.363154
-1.258522
-1.145463
-1.065877
-0.977397
-0.876978
-0.788497
-0.689951
-0.593980
-0.492157
-0.395016
-0.285234
-0.175453
-0.085567
0.032407
0.140550
0.227392
0.338344
0.456786
0.562120
0.665582
0.766937
0.873441
0.956538
1.011312
1.083642
1.125307
1.136075
1.137947
1.118519
1.076619
1.011546
0.945537
0.842310
0.717781
0.611042
0.464043
0.292933
0.146168
-0.016515
-0.203074
-0.383312
-0.549506
-0.732553
-0.914196
-1.064005
-1.218261
-1.354025
-1.466849
-1.568204
-1.649663
-1.717077
-1.763424
-1.800174
-1.818431
-1.815388
-1.806494
-1.792449
-1.765998
-1.723163
-1.687583
-1.674475
-1.639129
-1.598634
-1.593250
-1.589271
-1.591846
-1.586228
-1.590207
-1.617126
-1.627425
-1.637257
-1.635618
-1.628128
-1.621808
-1.594421
-1.550180
-1.509217
-1.454677
-1.372517
-1.302996
-1.240030
-1.168871
-1.093498
-1.017892
-0.945328
-0.865742
-0.773517
-0.690185
-0.592342
-0.483262
-0.399932
-0.266040
-0.122318
-0.010898
0.155530
0.329215
0.480428
0.665348
0.848629
1.004758
1.168377
1.301098
1.399878
1.484848
1.499594
1.484614
1.445523
1.357276
1.247495
1.091132
0.923066
0.735571
0.499856
0.249629
-0.020495
-0.307940
-0.582511
-0.856613
-1.119247
-1.339980
-1.551117
-1.743527
-1.902933
-2.031440
-2.132093
-2.194123
-2.218935
-2.224319
-2.184292
-2.144031
-2.100961
-2.020439
-1.957941
-1.898719
-1.825688
-1.786363
-1.757572
-1.750783
-1.787065
-1.817495
-1.874376
-1.950684
-2.004522
-2.051805
-2.100727
-2.136774
-2.153160
-2.162523
-2.141222
-2.108217
-2.052975
-1.960516
-1.850734
-1.697882
-1.539413
-1.354493
-1.112926
-0.867147
-0.592342
-0.260422
0.083435
0.442742
0.840671
1.217533
1.599545
1.989047
2.333607
2.689870
3.018747
3.316024
3.613768
3.877571
4.145823
4.410328
4.649788
4.899547
5.166393
5.412875
5.634545
5.868387
6.079524
6.249463
6.399973
6.490093
6.541121
6.566869
6.526140
6.434617
6.294873
6.110188
5.891561
5.626821
5.320649
5.005115
4.659619
4.278075
3.896064
3.513350
3.126656
2.728259
2.360760
2.000751
1.616866
1.255921
0.911127
0.572654
0.239798
-0.071289
-0.364820
-0.628390
-0.847485
-1.047151
-1.188065
-1.265310
-1.303699
-1.296442
-1.244477
-1.143824
-1.006422
-0.846548
-0.676609
-0.482326
-0.267445
-0.082525
0.088585
0.236755
0.358241
0.450466
0.479960
0.489557
0.452339
0.365965
0.274909
0.148508
0.013681
-0.115763
-0.244505
-0.352882
-0.460323
-0.548570
-0.630730
-0.696974
-0.738171
-0.792009
-0.805351
-0.805585
-0.791072
-0.742853
-0.706337
-0.630730
-0.541782
-0.452832
-0.361309
-0.286170
-0.185284
-0.112486
-0.056074
0.022576
0.070795
0.105438
0.141018
0.178236
0.203750
0.245650
0.285209
0.308382
0.380244
0.448828
0.506645
0.590678
0.693203
0.777470
0.870866
0.974094
1.043849
1.126945
1.183358
1.232046
1.291969
1.332230
1.387004
1.444587
1.509192
1.590884
1.666959
1.751694
1.861008
1.974534
2.094849
2.218208
2.366143
2.512207
2.630883
2.760561
2.875024
2.982699
3.071414
3.136019
3.207880
3.256334
3.287700
3.297297
3.293318
3.290743
3.254461
3.213732
3.155915
3.087097
3.024833
2.913413
2.809717
2.712576
2.600688
2.484352
2.355142
2.254255
2.117555
1.973832
1.842750
1.688962
1.546175
1.353999
1.172122
0.979478
0.735805
0.506879
0.225285
-0.071757
-0.377694
-0.729978
-1.096073
-1.477617
-1.862906
-2.296883
-2.759650
-3.198543
-3.671142
-4.170426
-4.663624
-5.146288
-5.638082
-6.118172
-6.550744
-6.976528
-7.332089
-7.645751
-7.937878
-8.113903
-8.237026
-8.298354
-8.279629
-8.212214
-8.048595
-7.823883
-7.579741
-7.278486
-6.932054
-6.562916
-6.160539
-5.741543
-5.304992
-4.862120
-4.440549
-4.046366
-3.667397
-3.318624
-3.011984
-2.722667
-2.442478
-2.177035
-1.957238
-1.713331
-1.444612
-1.198364
-0.918410
-0.643838
-0.349605
-0.047647
0.229031
0.518114
0.770214
1.041976
1.307886
1.542431
1.835025
2.107490
2.383933
2.691509
2.993467
3.314853
3.640453
3.980330
4.319273
4.646042
4.960173
5.260258
5.535531
5.781076
5.995490
6.152789
6.281999
6.369309
6.387099
6.347775
6.254846
6.105740
5.883134
5.588198
5.241298
4.850625
4.395815
3.901681
3.392332
2.844829
2.292877
1.751694
1.219171
0.717547
0.237691
-0.205180
-0.605684
-0.971311
-1.292229
-1.577568
-1.831306
-2.037995
-2.203720
-2.354231
-2.456522
-2.518552
-2.557175
-2.557175
-2.519957
-2.436158
-2.326610
-2.164630
-1.980646
-1.765998
-1.494704
-1.243541
-0.945328
-0.625113
-0.321282
0.017660
0.337173
0.662305
0.991182
1.294076
1.583862
1.841111
2.076123
2.254255
2.374570
2.470307
2.509398
2.504716
2.436366
2.320499
2.173499
1.966810
1.736479
1.437564
1.129989
0.821477
0.442273
0.106375
-0.251293
-0.625347
-0.947201
-1.291995
-1.562821
-1.798535
-2.028398
-2.182419
-2.316077
-2.403621
-2.465885
-2.499592
-2.511296
-2.529554
-2.518084
-2.509892
-2.492570
-2.470099
-2.460736
-2.445053
-2.419070
-2.379277
-2.341591
-2.301564
-2.258260
-2.222446
-2.204657
-2.196230
-2.196464
-2.229235
-2.258260
-2.291733
-2.334803
-2.350252
-2.348614
-2.338314
-2.309991
-2.226192
-2.115474
-1.991179
-1.829901
-1.630000
-1.403181
-1.174723
-0.900620
-0.609429
-0.327602
-0.005982
0.323129
0.630471
0.954666
1.278393
1.585968
1.904077
2.191991
2.468434
2.733643
2.981997
3.227309
3.432359
3.647943
3.840120
4.019422
4.202703
4.349000
4.516130
4.662662
4.810598
4.963215
5.101789
5.260726
5.393447
5.522657
5.653974
5.751583
5.826253
5.874005
5.887815
5.855513
5.774055
5.670125
5.528743
5.363017
5.179033
4.979601
4.789765
4.576756
4.359066
4.137161
3.902852
3.674862
3.404504
3.127592
2.867768
2.563703
2.259171
1.950659
1.624123
1.315377
0.997267
0.679626
0.375328
0.076179
-0.220395
-0.515799
-0.786157
-1.042470
-1.314232
-1.553692
-1.763892
-1.966601
-2.152458
-2.313268
-2.412984
-2.516446
-2.602118
-2.647294
-2.709558
-2.724773
-2.744904
-2.793826
-2.813488
-2.844152
-2.873646
-2.902905
-2.939187
-2.968915
-2.993492
-3.015964
-3.035392
-3.021816
-3.014793
-3.001685
-2.961424
-2.916247
-2.846259
-2.772759
-2.680065
-2.555770
-2.414623
-2.236959
-2.032611
-1.803919
-1.527943
-1.244946
-0.935731
-0.585320
-0.252230
0.081797
0.414185
0.736039
1.038699
1.300864
1.527450
1.737181
1.924910
2.055758
2.154773
2.233891
2.276258
2.283749
2.271811
2.246296
2.183096
2.095551
1.988579
1.866625
1.749822
1.593927
1.439437
1.297353
1.135372
1.000545
0.850970
0.717547
0.605659
0.486280
0.400842
0.317043
0.255949
0.208198
0.173789
0.180342
0.205389
0.262504
0.334365
0.435017
0.570079
0.694607
0.827563
0.974796
1.107283
1.252410
1.411582
1.546643
1.691537
1.859603
1.994899
2.131834
2.293580
2.421853
2.539593
2.659440
2.743240
2.809249
2.857469
2.889069
2.932373
2.950631
2.967718
2.992296
3.012427
3.064158
3.085927
3.107462
3.164810
3.212328
3.271315
3.352305
3.439615
3.526691
3.609321
3.672521
3.724486
3.746021
3.729636
3.671350
3.566016
3.426741
3.221457
2.969825
2.673485
2.334543
1.975705
1.572626
1.154567
0.753360
0.338110
-0.077843
-0.466175
-0.831568
-1.171212
-1.475276
-1.723163
-1.933129
-2.092066
-2.202784
-2.279327
-2.291967
-2.278391
-2.233916
-2.138881
-1.997733
-1.842541
-1.681497
-1.494704
-1.324999
-1.152719
-1.006656
-0.897811
-0.801137
-0.759004
-0.738405
-0.753152
-0.810032
-0.872063
-0.978099
-1.112692
-1.235114
-1.379773
-1.537540
-1.682667
-1.826156
-1.954195
-2.085044
-2.222446
-2.326610
-2.410409
-2.497720
-2.548280
-2.560218
-2.542662
-2.504976
-2.438030
-2.314438
-2.183122
-2.018098
-1.825688
-1.615956
-1.364792
-1.119949
-0.863402
-0.578999
-0.285936
0.002445
0.278655
0.552055
0.818200
1.045721
1.251942
1.427967
1.565838
1.690834
1.753801
1.785167
1.804361
1.774868
1.732266
1.683344
1.619675
1.564667
1.519725
1.465887
1.438501
1.427265
1.385131
1.370384
1.352127
1.296183
1.275584
1.230407
1.162057
1.120860
1.061872
0.990947
0.911596
0.831542
0.732294
0.606361
0.491430
0.363624
0.222711
0.079690
-0.103357
-0.282894
-0.448619
-0.666076
-0.875340
-1.084136
-1.327808
-1.565161
-1.809536
-2.050167
-2.284242
-2.518084
-2.746776
-2.962360
-3.170688
-3.357246
-3.527888
-3.688230
-3.810417
-3.930030
-4.015702
-4.068369
-4.119164
-4.145146
-4.155211
-4.131804
-4.088265
-4.034194
-3.940797
-3.824930
-3.682846
-3.508693
-3.328923
-3.130193
-2.907587
-2.690130
-2.462608
-2.212615
-1.959579
-1.708415
-1.446953
-1.161614
-0.897577
-0.625815
-0.352648
-0.093526
0.181279
0.410673
0.639834
0.862440
1.058830
1.230641
1.389813
1.547346
1.652914
1.762930
1.834791
1.875989
1.925613
1.910398
1.874818
1.831982
1.733436
1.605163
1.436628
1.225024
0.982989
0.692735
0.376264
0.028193
-0.342114
-0.740278
-1.159742
-1.576163
-1.991413
-2.410643
-2.827299
-3.193861
-3.544741
-3.873852
-4.148189
-4.395139
-4.594806
-4.745551
-4.857204
-4.927896
-4.957155
-4.958325
-4.924852
-4.851587
-4.766851
-4.638344
-4.471916
-4.306892
-4.115652
-3.901941
-3.687996
-3.471475
-3.253083
-3.048969
-2.845790
-2.645655
-2.463779
-2.279327
-2.118985
-1.971049
-1.813048
