EVENT_NAME: L_AQUILA
EVENT_ID: IT-2009-0009
EVENT_DATE_YYYYMMDD: 20090406
EVENT_TIME_HHMMSS: 013240
EVENT_LATITUDE_DEGREE: 42.3420
EVENT_LONGITUDE_DEGREE: 13.3800
EVENT_DEPTH_KM: 8.3
HYPOCENTER_REFERENCE: INGV-CNT_Seismic_Bulletin
MAGNITUDE_W: 6.1
MAGNITUDE_W_REFERENCE: INGV-CNT_Seismic_Bulletin
MAGNITUDE_L: 
MAGNITUDE_L_REFERENCE: 
FOCAL_MECHANISM: Normal faulting
NETWORK: IT
STATION_CODE: CSS
STATION_NAME: 
STATION_LATITUDE_DEGREE: 41.485790
STATION_LONGITUDE_DEGREE: 13.823090
STATION_ELEVATION_M: 166
LOCATION: 
SENSOR_DEPTH_M: 0.0
VS30_M/S: 648
SITE_CLASSIFICATION_EC8: B
MORPHOLOGIC_CLASSIFICATION: 
EPICENTRAL_DISTANCE_KM: 102.0
EARTHQUAKE_BACKAZIMUTH_DEGREE: 158.7
DATE_TIME_FIRST_SAMPLE_YYYYMMDD_HHMMSS: 20090406_013234.000
DATE_TIME_FIRST_SAMPLE_PRECISION: seconds
SAMPLING_INTERVAL_S: 0.005000
NDATA: 20000
DURATION_S: 100.000
STREAM: HNN
UNITS: cm
INSTRUMENT: sensor = FBA-3 [Kinemetrics] | digitizer = Etna [Kinemetrics]
INSTRUMENT_ANALOG/DIGITAL: D
INSTRUMENTAL_FREQUENCY_HZ: 
INSTRUMENTAL_DAMPING: 
FULL_SCALE_G: 
N_BIT_DIGITAL_CONVERTER: 18
PGD_CM: 0.562641
TIME_PGD_S: 46.360000
BASELINE_CORRECTION: BASELINE REMOVED
FILTER_TYPE: BUTTERWORTH
FILTER_ORDER: 2
LOW_CUT_FREQUENCY_HZ: 0.070
HIGH_CUT_FREQUENCY_HZ: 30.000
LATE/NORMAL_TRIGGERED: NT
DATABASE_VERSION: 0.5
HEADER_FORMAT: DYNA 1.2
DATA_TYPE: DISPLACEMENT
PROCESSING: manual (Paolucci et al., 2011)
DATA_TIMESTAMP_YYYYMMDD_HHMMSS: 20211011_160637.356
DATA_LICENSE: CC-BY3_0-IT (http://creativecommons.org/licenses/by/3.0/deed.en)
DATA_CITATION: Luzi L, Pacor F, Puglia R (2019). Italian Accelerometric Archive v 3.0 - Istituto Nazionale di Geofisica e Vulcanologia, Dipartimento della Protezione Civile Nazionale. doi: 10.13127/itaca.3.1
DATA_CREATOR: ITACA working group
ORIGINAL_DATA_MEDIATOR_CITATION: data obtained within the DPC-INGV data exchange agreements
ORIGINAL_DATA_MEDIATOR: Archive of Italian Department of Civil Protection
ORIGINAL_DATA_CREATOR_CITATION: Presidency Of Counsil Of Ministers-Civil Protection Department. (1972). Italian Strong Motion Network. Presidency of Counsil of Ministers - Civil Protection Department. https://doi.org/10.7914/SN/IT http://www.fdsn.org/networks/detail/IT/
ORIGINAL_DATA_CREATOR: network: IT (Italian Strong Motion Network (RAN)); owner: Presidency of Counsil of Ministers - Civil Protection Department (PCM - DPC)
USER1: 
USER2: 
USER3: 
USER4: 
USER5: 
[...]
-1.584551e-01
-1.582081e-01
-1.579959e-01
-1.578236e-01
-1.576958e-01
-1.576164e-01
-1.575886e-01
-1.576149e-01
-1.576971e-01
-1.578366e-01
-1.580339e-01
-1.582892e-01
-1.586024e-01
-1.589725e-01
-1.593988e-01
-1.598798e-01
-1.604140e-01
-1.609993e-01
-1.616331e-01
-1.623126e-01
-1.630344e-01
-1.637945e-01
-1.645889e-01
-1.654128e-01
-1.662615e-01
-1.671294e-01
-1.680108e-01
-1.688992e-01
-1.697881e-01
-1.706703e-01
-1.715389e-01
-1.723869e-01
-1.732075e-01
-1.739946e-01
-1.747424e-01
-1.754462e-01
-1.761016e-01
-1.767053e-01
-1.772548e-01
-1.777486e-01
-1.781862e-01
-1.785679e-01
-1.788954e-01
-1.791708e-01
-1.793971e-01
-1.795781e-01
-1.797180e-01
-1.798214e-01
-1.798935e-01
-1.799398e-01
-1.799657e-01
-1.799768e-01
-1.799781e-01
-1.799746e-01
-1.799706e-01
-1.799701e-01
-1.799766e-01
-1.799929e-01
-1.800216e-01
-1.800649e-01
-1.801246e-01
-1.802023e-01
-1.802994e-01
-1.804169e-01
-1.805557e-01
-1.807166e-01
-1.809003e-01
-1.811071e-01
-1.813371e-01
-1.815902e-01
-1.818659e-01
-1.821632e-01
-1.824810e-01
-1.828176e-01
-1.831709e-01
-1.835383e-01
-1.839169e-01
-1.843033e-01
-1.846938e-01
-1.850846e-01
-1.854718e-01
-1.858516e-01
-1.862201e-01
-1.865740e-01
-1.869101e-01
-1.872256e-01
-1.875183e-01
-1.877863e-01
-1.880285e-01
-1.882442e-01
-1.884337e-01
-1.885977e-01
-1.887378e-01
-1.888566e-01
-1.889574e-01
-1.890446e-01
-1.891230e-01
-1.891984e-01
-1.892769e-01
-1.893644e-01
-1.894669e-01
-1.895896e-01
-1.897376e-01
-1.899152e-01
-1.901260e-01
-1.903731e-01
-1.906589e-01
-1.909852e-01
-1.913533e-01
-1.917639e-01
-1.922172e-01
-1.927132e-01
-1.932515e-01
-1.938319e-01
-1.944538e-01
-1.951171e-01
-1.958215e-01
-1.965669e-01
-1.973531e-01
-1.981798e-01
-1.990466e-01
-1.999528e-01
-2.008975e-01
-2.018791e-01
-2.028958e-01
-2.039451e-01
-2.050240e-01
-2.061292e-01
-2.072567e-01
-2.084024e-01
-2.095619e-01
-2.107301e-01
-2.119022e-01
-2.130727e-01
-2.142364e-01
-2.153877e-01
-2.165212e-01
-2.176316e-01
-2.187135e-01
-2.197616e-01
-2.207705e-01
-2.217353e-01
-2.226508e-01
-2.235123e-01
-2.243149e-01
-2.250542e-01
-2.257258e-01
-2.263258e-01
-2.268507e-01
-2.272975e-01
-2.276642e-01
-2.279495e-01
-2.281528e-01
-2.282749e-01
-2.283178e-01
-2.282846e-01
-2.281798e-01
-2.280094e-01
-2.277806e-01
-2.275021e-01
-2.271839e-01
-2.268369e-01
-2.264730e-01
-2.261049e-01
-2.257454e-01
-2.254075e-01
-2.251040e-01
-2.248472e-01
-2.246488e-01
-2.245192e-01
-2.244681e-01
-2.245038e-01
-2.246337e-01
-2.248636e-01
-2.251983e-01
-2.256412e-01
-2.261948e-01
-2.268602e-01
-2.276375e-01
-2.285259e-01
-2.295237e-01
-2.306287e-01
-2.318382e-01
-2.331493e-01
-2.345586e-01
-2.360626e-01
-2.376577e-01
-2.393401e-01
-2.411058e-01
-2.429505e-01
-2.448697e-01
-2.468585e-01
-2.489116e-01
-2.510232e-01
-2.531872e-01
-2.553967e-01
-2.576442e-01
-2.599219e-01
-2.622210e-01
-2.645323e-01
-2.668461e-01
-2.691526e-01
-2.714415e-01
-2.737031e-01
-2.759273e-01
-2.781049e-01
-2.802268e-01
-2.822849e-01
-2.842718e-01
-2.861812e-01
-2.880078e-01
-2.897474e-01
-2.913969e-01
-2.929540e-01
-2.944176e-01
-2.957873e-01
-2.970638e-01
-2.982484e-01
-2.993434e-01
-3.003514e-01
-3.012760e-01
-3.021212e-01
-3.028916e-01
-3.035921e-01
-3.042283e-01
-3.048066e-01
-3.053337e-01
-3.058168e-01
-3.062638e-01
-3.066826e-01
-3.070815e-01
-3.074685e-01
-3.078518e-01
-3.082389e-01
-3.086369e-01
-3.090522e-01
-3.094906e-01
-3.099569e-01
-3.104550e-01
-3.109877e-01
-3.115574e-01
-3.121652e-01
-3.128117e-01
-3.134970e-01
-3.142206e-01
-3.149815e-01
-3.157784e-01
-3.166097e-01
-3.174735e-01
-3.183677e-01
-3.192901e-01
-3.202381e-01
-3.212089e-01
-3.221995e-01
-3.232067e-01
-3.242272e-01
-3.252569e-01
-3.262918e-01
-3.273271e-01
-3.283576e-01
-3.293778e-01
-3.303816e-01
-3.313629e-01
-3.323151e-01
-3.332321e-01
-3.341078e-01
-3.349365e-01
-3.357131e-01
-3.364332e-01
-3.370931e-01
-3.376903e-01
-3.382232e-01
-3.386910e-01
-3.390943e-01
-3.394343e-01
-3.397128e-01
-3.399327e-01
-3.400967e-01
-3.402081e-01
-3.402700e-01
-3.402856e-01
-3.402581e-01
-3.401907e-01
-3.400865e-01
-3.399488e-01
-3.397812e-01
-3.395878e-01
-3.393729e-01
-3.391419e-01
-3.389004e-01
-3.386551e-01
-3.384128e-01
-3.381811e-01
-3.379676e-01
-3.377799e-01
-3.376252e-01
-3.375104e-01
-3.374412e-01
-3.374223e-01
-3.374571e-01
-3.375478e-01
-3.376949e-01
-3.378976e-01
-3.381534e-01
-3.384586e-01
-3.388083e-01
-3.391967e-01
-3.396171e-01
-3.400625e-01
-3.405258e-01
-3.410001e-01
-3.414789e-01
-3.419569e-01
-3.424296e-01
-3.428933e-01
-3.433456e-01
-3.437844e-01
-3.442086e-01
-3.446174e-01
-3.450101e-01
-3.453863e-01
-3.457455e-01
-3.460868e-01
-3.464091e-01
-3.467102e-01
-3.469871e-01
-3.472356e-01
-3.474502e-01
-3.476243e-01
-3.477504e-01
-3.478198e-01
-3.478236e-01
-3.477523e-01
-3.475964e-01
-3.473467e-01
-3.469942e-01
-3.465305e-01
-3.459480e-01
-3.452399e-01
-3.444006e-01
-3.434254e-01
-3.423107e-01
-3.410538e-01
-3.396534e-01
-3.381092e-01
-3.364222e-01
-3.345947e-01
-3.326302e-01
-3.305335e-01
-3.283106e-01
-3.259685e-01
-3.235153e-01
-3.209598e-01
-3.183118e-01
-3.155815e-01
-3.127794e-01
-3.099164e-01
-3.070037e-01
-3.040527e-01
-3.010747e-01
-2.980810e-01
-2.950831e-01
-2.920923e-01
-2.891197e-01
-2.861762e-01
-2.832725e-01
-2.804189e-01
-2.776253e-01
-2.749011e-01
-2.722551e-01
-2.696956e-01
-2.672306e-01
-2.648675e-01
-2.626135e-01
-2.604749e-01
-2.584580e-01
-2.565684e-01
-2.548114e-01
-2.531915e-01
-2.517129e-01
-2.503791e-01
-2.491928e-01
-2.481561e-01
-2.472701e-01
-2.465350e-01
-2.459503e-01
-2.455143e-01
-2.452248e-01
-2.450783e-01
-2.450708e-01
-2.451974e-01
-2.454524e-01
-2.458295e-01
-2.463216e-01
-2.469211e-01
-2.476202e-01
-2.484104e-01
-2.492829e-01
-2.502285e-01
-2.512373e-01
-2.522991e-01
-2.534031e-01
-2.545380e-01
-2.556924e-01
-2.568544e-01
-2.580123e-01
-2.591542e-01
-2.602685e-01
-2.613439e-01
-2.623693e-01
-2.633342e-01
-2.642284e-01
-2.650426e-01
-2.657684e-01
-2.663984e-01
-2.669265e-01
-2.673480e-01
-2.676597e-01
-2.678594e-01
-2.679465e-01
-2.679212e-01
-2.677850e-01
-2.675400e-01
-2.671892e-01
-2.667363e-01
-2.661853e-01
-2.655410e-01
-2.648087e-01
-2.639943e-01
-2.631040e-01
-2.621445e-01
-2.611225e-01
-2.600452e-01
-2.589200e-01
-2.577543e-01
-2.565559e-01
-2.553326e-01
-2.540925e-01
-2.528436e-01
-2.515936e-01
-2.503503e-01
-2.491208e-01
-2.479116e-01
-2.467287e-01
-2.455772e-01
-2.444612e-01
-2.433837e-01
-2.423465e-01
-2.413504e-01
-2.403949e-01
-2.394779e-01
-2.385966e-01
-2.377465e-01
-2.369222e-01
-2.361172e-01
-2.353243e-01
-2.345354e-01
-2.337422e-01
-2.329357e-01
-2.321069e-01
-2.312466e-01
-2.303459e-01
-2.293957e-01
-2.283873e-01
-2.273121e-01
-2.261623e-01
-2.249303e-01
-2.236092e-01
-2.221929e-01
-2.206758e-01
-2.190532e-01
-2.173207e-01
-2.154744e-01
-2.135109e-01
-2.114268e-01
-2.092191e-01
-2.068850e-01
-2.044219e-01
-2.018277e-01
-1.991004e-01
-1.962384e-01
-1.932410e-01
-1.901076e-01
-1.868387e-01
-1.834358e-01
-1.799010e-01
-1.762374e-01
-1.724490e-01
-1.685401e-01
-1.645162e-01
-1.603832e-01
-1.561472e-01
-1.518149e-01
-1.473932e-01
-1.428891e-01
-1.383097e-01
-1.336622e-01
-1.289539e-01
-1.241924e-01
-1.193856e-01
-1.145419e-01
-1.096704e-01
-1.047808e-01
-9.988379e-02
-9.499045e-02
-9.011277e-02
-8.526343e-02
-8.045574e-02
-7.570349e-02
-7.102076e-02
-6.642177e-02
-6.192063e-02
-5.753118e-02
-5.326684e-02
-4.914047e-02
-4.516417e-02
-4.134927e-02
-3.770636e-02
-3.424532e-02
-3.097528e-02
-2.790463e-02
-2.504109e-02
-2.239163e-02
-1.996240e-02
-1.775869e-02
-1.578488e-02
-1.404425e-02
-1.253890e-02
-1.126960e-02
-1.023577e-02
-9.435506e-03
-8.865545e-03
-8.521310e-03
-8.396922e-03
-8.485264e-03
-8.778066e-03
-9.265995e-03
-9.938791e-03
-1.078544e-02
-1.179431e-02
-1.295328e-02
-1.424984e-02
-1.567121e-02
-1.720445e-02
-1.883654e-02
-2.055444e-02
-2.234519e-02
-2.419593e-02
-2.609406e-02
-2.802720e-02
-2.998334e-02
-3.195079e-02
-3.391826e-02
-3.587480e-02
-3.780981e-02
-3.971301e-02
-4.157432e-02
-4.338395e-02
-4.513244e-02
-4.681078e-02
-4.841034e-02
-4.992295e-02
-5.134103e-02
-5.265775e-02
-5.386723e-02
-5.496457e-02
-5.594599e-02
-5.680881e-02
-5.755155e-02
-5.817380e-02
-5.867613e-02
-5.906012e-02
-5.932826e-02
-5.948381e-02
-5.953067e-02
-5.947314e-02
-5.931595e-02
-5.906424e-02
-5.872352e-02
-5.829962e-02
-5.779868e-02
-5.722730e-02
-5.659261e-02
-5.590210e-02
-5.516360e-02
-5.438515e-02
-5.357493e-02
-5.274114e-02
-5.189187e-02
-5.103501e-02
-5.017823e-02
-4.932891e-02
-4.849400e-02
-4.767994e-02
-4.689255e-02
-4.613705e-02
-4.541802e-02
-4.473949e-02
-4.410505e-02
-4.351801e-02
-4.298160e-02
-4.249910e-02
-4.207394e-02
-4.170979e-02
-4.141061e-02
-4.118058e-02
-4.102396e-02
-4.094488e-02
-4.094716e-02
-4.103412e-02
-4.120842e-02
-4.147181e-02
-4.182503e-02
-4.226766e-02
-4.279813e-02
-4.341369e-02
-4.411039e-02
-4.488325e-02
-4.572632e-02
-4.663284e-02
-4.759542e-02
-4.860621e-02
-4.965707e-02
-5.073964e-02
-5.184546e-02
-5.296607e-02
-5.409302e-02
-5.521791e-02
-5.633246e-02
-5.742857e-02
-5.849830e-02
-5.953388e-02
-6.052762e-02
-6.147187e-02
-6.235897e-02
-6.318123e-02
-6.393086e-02
-6.460001e-02
-6.518091e-02
-6.566588e-02
-6.604749e-02
-6.631861e-02
-6.647261e-02
-6.650346e-02
-6.640588e-02
-6.617545e-02
-6.580877e-02
-6.530355e-02
-6.465854e-02
-6.387351e-02
-6.294922e-02
-6.188740e-02
-6.069066e-02
-5.936242e-02
-5.790681e-02
-5.632859e-02
-5.463291e-02
-5.282516e-02
-5.091078e-02
-4.889514e-02
-4.678351e-02
-4.458105e-02
-4.229280e-02
-3.992373e-02
-3.747876e-02
-3.496282e-02
-3.238079e-02
-2.973758e-02
-2.703812e-02
-2.428735e-02
-2.149035e-02
-1.865228e-02
-1.577826e-02
-1.287332e-02
-9.942314e-03
-6.989934e-03
-4.020650e-03
-1.038621e-03
1.952331e-03
4.948680e-03
7.947184e-03
1.094494e-02
1.393942e-02
1.692846e-02
1.991028e-02
2.288358e-02
2.584766e-02
2.880241e-02
3.174844e-02
3.468717e-02
3.762086e-02
4.055253e-02
4.348582e-02
4.642486e-02
4.937414e-02
5.233834e-02
5.532220e-02
5.833041e-02
6.136759e-02
6.443828e-02
6.754691e-02
7.069789e-02
7.389566e-02
7.714475e-02
8.044986e-02
8.381589e-02
8.724799e-02
9.075152e-02
9.433194e-02
9.799467e-02
1.017449e-01
1.055875e-01
1.095267e-01
1.135660e-01
1.177078e-01
1.219535e-01
1.263032e-01
1.307557e-01
1.353085e-01
1.399577e-01
1.446985e-01
1.495248e-01
1.544295e-01
1.594047e-01
1.644417e-01
1.695315e-01
1.746645e-01
1.798310e-01
1.850210e-01
1.902247e-01
1.954323e-01
2.006341e-01
2.058208e-01
2.109831e-01
2.161122e-01
2.211997e-01
2.262374e-01
2.312174e-01
2.361322e-01
2.409742e-01
2.457360e-01
2.504104e-01
2.549900e-01
2.594677e-01
2.638366e-01
2.680898e-01
2.722211e-01
2.762245e-01
2.800949e-01
2.838281e-01
2.874206e-01
2.908706e-01
2.941775e-01
2.973424e-01
3.003680e-01
3.032584e-01
3.060197e-01
3.086591e-01
3.111851e-01
3.136073e-01
3.159361e-01
3.181824e-01
3.203575e-01
3.224729e-01
3.245400e-01
3.265700e-01
3.285738e-01
3.305616e-01
3.325430e-01
3.345269e-01
3.365215e-01
3.385341e-01
3.405711e-01
3.426384e-01
3.447406e-01
3.468820e-01
3.490662e-01
3.512959e-01
3.535736e-01
3.559013e-01
3.582804e-01
3.607119e-01
3.631961e-01
3.657329e-01
3.683211e-01
3.709590e-01
3.736440e-01
3.763729e-01
3.791416e-01
3.819454e-01
3.847789e-01
3.876360e-01
3.905103e-01
3.933946e-01
3.962814e-01
3.991628e-01
4.020303e-01
4.048753e-01
4.076888e-01
4.104616e-01
4.131847e-01
4.158487e-01
4.184446e-01
4.209639e-01
4.233984e-01
4.257413e-01
4.279865e-01
4.301293e-01
4.321665e-01
4.340964e-01
4.359186e-01
4.376343e-01
4.392463e-01
4.407584e-01
4.421757e-01
4.435039e-01
4.447496e-01
4.459191e-01
4.470192e-01
4.480561e-01
4.490354e-01
4.499624e-01
4.508417e-01
4.516771e-01
4.524719e-01
4.532291e-01
4.539513e-01
4.546412e-01
4.553010e-01
4.559334e-01
4.565410e-01
4.571268e-01
4.576939e-01
4.582463e-01
4.587881e-01
4.593239e-01
4.598589e-01
4.603982e-01
4.609476e-01
4.615130e-01
4.621003e-01
4.627155e-01
4.633650e-01
4.640548e-01
4.647911e-01
4.655799e-01
4.664271e-01
4.673386e-01
4.683201e-01
4.693773e-01
4.705156e-01
4.717406e-01
4.730573e-01
4.744705e-01
4.759846e-01
4.776031e-01
4.793291e-01
4.811646e-01
4.831106e-01
4.851671e-01
4.873328e-01
4.896050e-01
4.919799e-01
4.944525e-01
4.970165e-01
4.996647e-01
5.023887e-01
5.051792e-01
5.080263e-01
5.109193e-01
5.138470e-01
5.167977e-01
5.197594e-01
5.227195e-01
5.256649e-01
5.285821e-01
5.314573e-01
5.342764e-01
5.370254e-01
5.396904e-01
5.422578e-01
5.447146e-01
5.470485e-01
5.492482e-01
5.513032e-01
5.532041e-01
5.549429e-01
5.565125e-01
5.579077e-01
5.591242e-01
5.601598e-01
5.610134e-01
5.616857e-01
5.621786e-01
5.624955e-01
5.626410e-01
5.626207e-01
5.624414e-01
5.621108e-01
5.616373e-01
5.610297e-01
5.602974e-01
5.594495e-01
5.584953e-01
5.574435e-01
5.563026e-01
5.550805e-01
5.537846e-01
5.524221e-01
5.509995e-01
5.495227e-01
5.479973e-01
5.464285e-01
5.448209e-01
5.431789e-01
5.415067e-01
5.398082e-01
5.380871e-01
5.363472e-01
5.345917e-01
5.328236e-01
5.310454e-01
5.292589e-01
5.274656e-01
5.256660e-01
5.238600e-01
5.220468e-01
5.202250e-01
5.183922e-01
5.165457e-01
5.146820e-01
5.127975e-01
5.108878e-01
5.089485e-01
5.069748e-01
5.049616e-01
5.029042e-01
5.007973e-01
4.986357e-01
4.964141e-01
4.941267e-01
4.917674e-01
4.893299e-01
4.868071e-01
4.841919e-01
4.814768e-01
4.786541e-01
4.757160e-01
4.726546e-01
4.694621e-01
4.661308e-01
4.626533e-01
4.590224e-01
4.552314e-01
4.512744e-01
4.471459e-01
4.428414e-01
4.383571e-01
4.336906e-01
4.288406e-01
4.238070e-01
4.185911e-01
4.131954e-01
4.076238e-01
4.018816e-01
3.959752e-01
3.899123e-01
3.837016e-01
3.773527e-01
3.708763e-01
3.642840e-01
3.575883e-01
3.508025e-01
3.439402e-01
3.370158e-01
3.300440e-01
3.230396e-01
3.160177e-01
3.089937e-01
3.019828e-01
2.950001e-01
2.880602e-01
2.811775e-01
2.743654e-01
2.676364e-01
2.610019e-01
2.544722e-01
2.480562e-01
2.417617e-01
2.355951e-01
2.295616e-01
2.236656e-01
2.179102e-01
2.122976e-01
2.068290e-01
2.015048e-01
1.963243e-01
1.912859e-01
1.863873e-01
1.816247e-01
1.769936e-01
1.724885e-01
1.681026e-01
1.638285e-01
1.596582e-01
1.555828e-01
1.515932e-01
1.476801e-01
1.438345e-01
1.400476e-01
1.363117e-01
1.326195e-01
1.289651e-01
1.253436e-01
1.217514e-01
1.181864e-01
1.146482e-01
1.111375e-01
1.076568e-01
1.042098e-01
1.008019e-01
9.743951e-02
9.413039e-02
9.088306e-02
8.770664e-02
8.461067e-02
8.160474e-02
7.869829e-02
7.590046e-02
7.322005e-02
7.066538e-02
6.824425e-02
6.596382e-02
6.383066e-02
6.185074e-02
6.002938e-02
5.837113e-02
5.687984e-02
5.555856e-02
5.440950e-02
5.343398e-02
5.263236e-02
5.200399e-02
5.154718e-02
5.125915e-02
5.113601e-02
5.117282e-02
5.136356e-02
5.170133e-02
5.217840e-02
5.278641e-02
5.351645e-02
5.435921e-02
5.530514e-02
5.634445e-02
5.746722e-02
5.866347e-02
5.992327e-02
6.123687e-02
6.259481e-02
6.398805e-02
6.540800e-02
6.684660e-02
6.829636e-02
6.975045e-02
7.120281e-02
7.264825e-02
7.408234e-02
7.550139e-02
7.690235e-02
7.828262e-02
7.963990e-02
8.097206e-02
8.227697e-02
8.355249e-02
8.479638e-02
8.600624e-02
8.717948e-02
8.831334e-02
8.940488e-02
9.045102e-02
9.144849e-02
9.239394e-02
9.328398e-02
9.411532e-02
9.488493e-02
9.559016e-02
9.622875e-02
9.679883e-02
9.729894e-02
9.772816e-02
9.808611e-02
9.837303e-02
9.858980e-02
9.873806e-02
9.882021e-02
9.883948e-02
9.879983e-02
9.870596e-02
9.856331e-02
9.837789e-02
9.815620e-02
9.790511e-02
9.763176e-02
9.734346e-02
9.704749e-02
9.675092e-02
9.646059e-02
9.618301e-02
9.592438e-02
9.569048e-02
9.548663e-02
9.531772e-02
9.518815e-02
9.510174e-02
9.506167e-02
9.507045e-02
9.512994e-02
9.524124e-02
9.540460e-02
9.561919e-02
9.588312e-02
9.619347e-02
9.654632e-02
9.693672e-02
9.735872e-02
9.780552e-02
9.826960e-02
9.874274e-02
9.921611e-02
9.968045e-02
1.001263e-01
1.005441e-01
1.009244e-01
1.012578e-01
1.015350e-01
1.017474e-01
1.018866e-01
1.019448e-01
1.019146e-01
1.017895e-01
1.015638e-01
1.012326e-01
1.007919e-01
1.002387e-01
9.957085e-02
9.878738e-02
9.788809e-02
9.687373e-02
9.574589e-02
9.450695e-02
9.316000e-02
9.170873e-02
9.015737e-02
8.851063e-02
8.677363e-02
8.495199e-02
8.305179e-02
8.107965e-02
7.904277e-02
7.694881e-02
7.480590e-02
7.262266e-02
7.040819e-02
6.817192e-02
6.592358e-02
6.367306e-02
6.143040e-02
5.920552e-02
5.700805e-02
5.484713e-02
5.273147e-02
5.066915e-02
4.866763e-02
4.673367e-02
4.487340e-02
4.309223e-02
4.139482e-02
3.978512e-02
3.826637e-02
3.684123e-02
3.551185e-02
3.427986e-02
3.314645e-02
3.211236e-02
3.117796e-02
3.034322e-02
2.960778e-02
2.897099e-02
2.843181e-02
2.798891e-02
2.764058e-02
2.738469e-02
2.721856e-02
2.713893e-02
2.714198e-02
2.722330e-02
2.737788e-02
2.760022e-02
2.788434e-02
2.822384e-02
2.861193e-02
2.904156e-02
2.950553e-02
2.999670e-02
3.050808e-02
3.103295e-02
3.156509e-02
3.209886e-02
3.262925e-02
3.315194e-02
3.366329e-02
3.416036e-02
3.464096e-02
3.510356e-02
3.554730e-02
3.597194e-02
3.637778e-02
3.676550e-02
3.713603e-02
3.749050e-02
3.783009e-02
3.815592e-02
3.846892e-02
3.876978e-02
3.905894e-02
3.933659e-02
3.960272e-02
3.985720e-02
4.009978e-02
4.033009e-02
4.054772e-02
4.075224e-02
4.094322e-02
4.112013e-02
4.128236e-02
4.142929e-02
4.156031e-02
4.167478e-02
4.177214e-02
4.185203e-02
4.191425e-02
4.195875e-02
4.198570e-02
4.199548e-02
4.198872e-02
4.196620e-02
4.192889e-02
4.187795e-02
4.181469e-02
4.174051e-02
4.165686e-02
4.156529e-02
4.146742e-02
4.136480e-02
4.125888e-02
4.115100e-02
4.104240e-02
4.093419e-02
4.082733e-02
4.072262e-02
4.062075e-02
4.052233e-02
4.042773e-02
4.033704e-02
4.025015e-02
4.016675e-02
4.008623e-02
4.000766e-02
3.992976e-02
3.985084e-02
3.976873e-02
3.968078e-02
3.958395e-02
3.947477e-02
3.934951e-02
3.920419e-02
3.903481e-02
3.883750e-02
3.860874e-02
3.834543e-02
3.804503e-02
3.770568e-02
3.732632e-02
3.690680e-02
3.644791e-02
3.595134e-02
3.541962e-02
3.485597e-02
3.426427e-02
3.364902e-02
3.301517e-02
3.236808e-02
3.171340e-02
3.105694e-02
3.040456e-02
2.976196e-02
2.913470e-02
2.852814e-02
2.794739e-02
2.739715e-02
2.688177e-02
