EVENT_NAME: L_AQUILA
EVENT_ID: IT-2009-0009
EVENT_DATE_YYYYMMDD: 20090406
EVENT_TIME_HHMMSS: 013240
EVENT_LATITUDE_DEGREE: 42.3420
EVENT_LONGITUDE_DEGREE: 13.3800
EVENT_DEPTH_KM: 8.3
HYPOCENTER_REFERENCE: INGV-CNT_Seismic_Bulletin
MAGNITUDE_W: 6.1
MAGNITUDE_W_REFERENCE: INGV-CNT_Seismic_Bulletin
MAGNITUDE_L: 
MAGNITUDE_L_REFERENCE: 
FOCAL_MECHANISM: Normal faulting
NETWORK: IT
STATION_CODE: CLN
STATION_NAME: 
STATION_LATITUDE_DEGREE: 42.085224
STATION_LONGITUDE_DEGREE: 13.520722
STATION_ELEVATION_M: 796
LOCATION: 
SENSOR_DEPTH_M: 0.0
VS30_M/S: 
SITE_CLASSIFICATION_EC8: B (inferred from geology)
MORPHOLOGIC_CLASSIFICATION: 
EPICENTRAL_DISTANCE_KM: 30.8
EARTHQUAKE_BACKAZIMUTH_DEGREE: 157.8
DATE_TIME_FIRST_SAMPLE_YYYYMMDD_HHMMSS: 
DATE_TIME_FIRST_SAMPLE_PRECISION: 
SAMPLING_INTERVAL_S: 
NDATA: 105
DURATION_S: 
STREAM: HNN
UNITS: cm/s^2
INSTRUMENT: sensor = Episensor FBA ES-T [Kinemetrics] | digitizer = Etna [Kinemetrics]
INSTRUMENT_ANALOG/DIGITAL: D
INSTRUMENTAL_FREQUENCY_HZ: 
INSTRUMENTAL_DAMPING: 
FULL_SCALE_G: 
N_BIT_DIGITAL_CONVERTER: 18
PGA_CM/S^2: 88.467992
TIME_PGA_S: 
BASELINE_CORRECTION: BASELINE REMOVED
FILTER_TYPE: BUTTERWORTH
FILTER_ORDER: 2
LOW_CUT_FREQUENCY_HZ: 0.050
HIGH_CUT_FREQUENCY_HZ: 40.000
LATE/NORMAL_TRIGGERED: NT
DATABASE_VERSION: 0.5
HEADER_FORMAT: DYNA 1.2
DATA_TYPE: ACCELERATION RESPONSE SPECTRUM
PROCESSING: manual (Paolucci et al., 2011)
DATA_TIMESTAMP_YYYYMMDD_HHMMSS: 20211011_155942.803
DATA_LICENSE: CC-BY3_0-IT (http://creativecommons.org/licenses/by/3.0/deed.en)
DATA_CITATION: Luzi L, Pacor F, Puglia R (2019). Italian Accelerometric Archive v 3.0 - Istituto Nazionale di Geofisica e Vulcanologia, Dipartimento della Protezione Civile Nazionale. doi: 10.13127/itaca.3.1
DATA_CREATOR: ITACA working group
ORIGINAL_DATA_MEDIATOR_CITATION: data obtained within the DPC-INGV data exchange agreements
ORIGINAL_DATA_MEDIATOR: Archive of Italian Department of Civil Protection
ORIGINAL_DATA_CREATOR_CITATION: Presidency Of Counsil Of Ministers-Civil Protection Department. (1972). Italian Strong Motion Network. Presidency of Counsil of Ministers - Civil Protection Department. https://doi.org/10.7914/SN/IT http://www.fdsn.org/networks/detail/IT/
ORIGINAL_DATA_CREATOR: network: IT (Italian Strong Motion Network (RAN)); owner: Presidency of Counsil of Ministers - Civil Protection Department (PCM - DPC)
USER1: 
USER2: 
USER3: 
USER4: 
USER5: 
    0.010000    88.755470
    0.020000    91.804443
    0.022000    92.298752
    0.025000    93.340500
    0.029000    92.976112
    0.030000    95.827324
    0.032000    96.297096
    0.035001    96.103943
    0.036000   104.319206
    0.040000   122.038177
    0.041999   120.019577
    0.044001   120.743210
    0.045000   120.797768
    0.046000   120.481346
    0.048001   113.600586
    0.050000   110.925346
    0.054999   104.852951
    0.059999   121.981583
    0.064998   150.539413
    0.067002   141.516754
    0.069999   132.899185
    0.075002   119.519363
    0.080000   114.641838
    0.084998   118.657867
    0.090001   120.025742
    0.095003   135.465271
    0.100000   142.193344
    0.109999   183.119980
    0.120005   175.976440
    0.130005   159.828537
    0.132996   165.910782
    0.139997   158.054825
    0.149993   154.338242
    0.160000   137.775986
    0.170010   122.507889
    0.179986   131.976135
    0.190006   146.780945
    0.200000   173.946198
    0.220022   163.983063
    0.239981   152.222855
    0.250000   140.821869
    0.260010   140.108459
    0.280034   131.045609
    0.290023   141.491425
    0.300030   144.815918
    0.320000   146.184341
    0.340020   161.968384
    0.350017   158.907990
    0.359971   150.723724
    0.379939   124.536026
    0.400000   104.296082
    0.419992    85.105476
    0.439947   101.172707
    0.450045   103.718254
    0.459982   103.153419
    0.480077    92.884674
    0.500000    79.461838
    0.550055    83.622276
    0.599880    81.715179
    0.650195    87.906082
    0.667111    89.577576
    0.699790    92.556587
    0.750188   101.629791
    0.800000   106.055237
    0.850340   102.104668
    0.900090    92.287567
    0.949668    86.274368
    1.000000    82.555351
    1.100110    75.821281
    1.200480    64.715324
    1.300390    52.419342
    1.400560    44.698818
    1.499250    38.964725
    1.600000    34.914661
    1.700680    30.643568
    1.798561    28.168671
    1.901141    27.707113
    2.000000    26.550877
    2.197802    23.878172
    2.398082    19.861462
    2.500000    18.591726
    2.597403    17.747871
    2.801121    16.272533
    3.003003    13.392564
    3.205128    10.065166
    3.401361     8.615504
    3.496503     7.935330
    3.597122     7.853677
    3.802281     7.610910
    4.000000     7.276073
    4.201681     6.875266
    4.405286     6.433989
    4.608295     5.973242
    4.807692     5.511152
    5.000000     5.060121
    5.494505     4.126876
    5.988024     3.830609
    6.493506     3.328945
    6.993007     2.737653
    7.518797     2.308149
    8.000000     2.018263
    8.474576     1.882104
    9.009009     1.649413
    9.523809     1.493158
   10.000000     1.345193
