EVENT_NAME: L_AQUILA
EVENT_ID: IT-2009-0009
EVENT_DATE_YYYYMMDD: 20090406
EVENT_TIME_HHMMSS: 013240
EVENT_LATITUDE_DEGREE: 42.3420
EVENT_LONGITUDE_DEGREE: 13.3800
EVENT_DEPTH_KM: 8.3
HYPOCENTER_REFERENCE: INGV-CNT_Seismic_Bulletin
MAGNITUDE_W: 6.1
MAGNITUDE_W_REFERENCE: INGV-CNT_Seismic_Bulletin
MAGNITUDE_L: 
MAGNITUDE_L_REFERENCE: 
FOCAL_MECHANISM: Normal faulting
NETWORK: IT
STATION_CODE: CLN
STATION_NAME: 
STATION_LATITUDE_DEGREE: 42.085224
STATION_LONGITUDE_DEGREE: 13.520722
STATION_ELEVATION_M: 796
LOCATION: 
SENSOR_DEPTH_M: 0.0
VS30_M/S: 
SITE_CLASSIFICATION_EC8: B (inferred from geology)
MORPHOLOGIC_CLASSIFICATION: 
EPICENTRAL_DISTANCE_KM: 30.8
EARTHQUAKE_BACKAZIMUTH_DEGREE: 157.8
DATE_TIME_FIRST_SAMPLE_YYYYMMDD_HHMMSS: 
DATE_TIME_FIRST_SAMPLE_PRECISION: 
SAMPLING_INTERVAL_S: 
NDATA: 105
DURATION_S: 
STREAM: HNE
UNITS: cm
INSTRUMENT: sensor = Episensor FBA ES-T [Kinemetrics] | digitizer = Etna [Kinemetrics]
INSTRUMENT_ANALOG/DIGITAL: D
INSTRUMENTAL_FREQUENCY_HZ: 
INSTRUMENTAL_DAMPING: 
FULL_SCALE_G: 
N_BIT_DIGITAL_CONVERTER: 18
PGD_CM: -2.867631
TIME_PGD_S: 
BASELINE_CORRECTION: BASELINE REMOVED
FILTER_TYPE: BUTTERWORTH
FILTER_ORDER: 2
LOW_CUT_FREQUENCY_HZ: 0.050
HIGH_CUT_FREQUENCY_HZ: 40.000
LATE/NORMAL_TRIGGERED: NT
DATABASE_VERSION: 0.5
HEADER_FORMAT: DYNA 1.2
DATA_TYPE: DISPLACEMENT RESPONSE SPECTRUM
PROCESSING: manual (Paolucci et al., 2011)
DATA_TIMESTAMP_YYYYMMDD_HHMMSS: 20211011_155942.661
DATA_LICENSE: CC-BY3_0-IT (http://creativecommons.org/licenses/by/3.0/deed.en)
DATA_CITATION: Luzi L, Pacor F, Puglia R (2019). Italian Accelerometric Archive v 3.0 - Istituto Nazionale di Geofisica e Vulcanologia, Dipartimento della Protezione Civile Nazionale. doi: 10.13127/itaca.3.1
DATA_CREATOR: ITACA working group
ORIGINAL_DATA_MEDIATOR_CITATION: data obtained within the DPC-INGV data exchange agreements
ORIGINAL_DATA_MEDIATOR: Archive of Italian Department of Civil Protection
ORIGINAL_DATA_CREATOR_CITATION: Presidency Of Counsil Of Ministers-Civil Protection Department. (1972). Italian Strong Motion Network. Presidency of Counsil of Ministers - Civil Protection Department. https://doi.org/10.7914/SN/IT http://www.fdsn.org/networks/detail/IT/
ORIGINAL_DATA_CREATOR: network: IT (Italian Strong Motion Network (RAN)); owner: Presidency of Counsil of Ministers - Civil Protection Department (PCM - DPC)
USER1: 
USER2: 
USER3: 
USER4: 
USER5: 
    0.010000     0.000204
    0.020000     0.000828
    0.022000     0.000990
    0.025000     0.001378
    0.029000     0.002145
    0.030000     0.002227
    0.032000     0.002317
    0.035001     0.002774
    0.036000     0.002926
    0.040000     0.003686
    0.041999     0.004262
    0.044001     0.005151
    0.045000     0.005494
    0.046000     0.005699
    0.048001     0.006196
    0.050000     0.006617
    0.054999     0.007184
    0.059999     0.010136
    0.064998     0.015085
    0.067002     0.017109
    0.069999     0.018115
    0.075002     0.016685
    0.080000     0.019166
    0.084998     0.023752
    0.090001     0.033093
    0.095003     0.046169
    0.100000     0.057185
    0.109999     0.058275
    0.120005     0.056439
    0.130005     0.069274
    0.132996     0.075557
    0.139997     0.101460
    0.149993     0.133137
    0.160000     0.127566
    0.170010     0.117554
    0.179986     0.114484
    0.190006     0.129887
    0.200000     0.170476
    0.220022     0.319089
    0.239981     0.441541
    0.250000     0.474284
    0.260010     0.487959
    0.280034     0.493209
    0.290023     0.442004
    0.300030     0.420344
    0.320000     0.387103
    0.340020     0.333503
    0.350017     0.304573
    0.359971     0.284684
    0.379939     0.261466
    0.400000     0.252220
    0.419992     0.271515
    0.439947     0.302389
    0.450045     0.316870
    0.459982     0.328058
    0.480077     0.316093
    0.500000     0.325301
    0.550055     0.461101
    0.599880     0.496187
    0.650195     0.423547
    0.667111     0.434963
    0.699790     0.476017
    0.750188     0.398780
    0.800000     0.472745
    0.850340     0.633445
    0.900090     0.792320
    0.949668     0.861459
    1.000000     0.841164
    1.100110     0.877528
    1.200480     1.152070
    1.300390     1.258693
    1.400560     1.504991
    1.499250     1.454260
    1.600000     1.177416
    1.700680     1.143297
    1.798561     1.158559
    1.901141     1.155486
    2.000000     1.183434
    2.197802     1.197607
    2.398082     1.356040
    2.500000     1.509703
    2.597403     1.623447
    2.801121     2.127554
    3.003003     2.647537
    3.205128     3.103777
    3.401361     3.508503
    3.496503     3.698756
    3.597122     3.896571
    3.802281     4.443761
    4.000000     4.793056
    4.201681     5.211849
    4.405286     5.604007
    4.608295     5.957852
    4.807692     6.231558
    5.000000     6.383018
    5.494505     6.690068
    5.988024     6.477563
    6.493506     6.089824
    6.993007     6.167279
    7.518797     6.056228
    8.000000     6.010107
    8.474576     5.934088
    9.009009     5.745381
    9.523809     5.500019
   10.000000     5.228105
