EVENT_NAME: L_AQUILA
EVENT_ID: IT-2009-0009
EVENT_DATE_YYYYMMDD: 20090406
EVENT_TIME_HHMMSS: 013240
EVENT_LATITUDE_DEGREE: 42.3420
EVENT_LONGITUDE_DEGREE: 13.3800
EVENT_DEPTH_KM: 8.3
HYPOCENTER_REFERENCE: INGV-CNT_Seismic_Bulletin
MAGNITUDE_W: 6.1
MAGNITUDE_W_REFERENCE: INGV-CNT_Seismic_Bulletin
MAGNITUDE_L: 
MAGNITUDE_L_REFERENCE: 
FOCAL_MECHANISM: Normal faulting
NETWORK: IT
STATION_CODE: CLN
STATION_NAME: 
STATION_LATITUDE_DEGREE: 42.085224
STATION_LONGITUDE_DEGREE: 13.520722
STATION_ELEVATION_M: 796
LOCATION: 
SENSOR_DEPTH_M: 0.0
VS30_M/S: 
SITE_CLASSIFICATION_EC8: B (inferred from geology)
MORPHOLOGIC_CLASSIFICATION: 
EPICENTRAL_DISTANCE_KM: 30.8
EARTHQUAKE_BACKAZIMUTH_DEGREE: 157.8
DATE_TIME_FIRST_SAMPLE_YYYYMMDD_HHMMSS: 
DATE_TIME_FIRST_SAMPLE_PRECISION: 
SAMPLING_INTERVAL_S: 
NDATA: 105
DURATION_S: 
STREAM: HNE
UNITS: cm/s^2
INSTRUMENT: sensor = Episensor FBA ES-T [Kinemetrics] | digitizer = Etna [Kinemetrics]
INSTRUMENT_ANALOG/DIGITAL: D
INSTRUMENTAL_FREQUENCY_HZ: 
INSTRUMENTAL_DAMPING: 
FULL_SCALE_G: 
N_BIT_DIGITAL_CONVERTER: 18
PGA_CM/S^2: -79.785284
TIME_PGA_S: 
BASELINE_CORRECTION: BASELINE REMOVED
FILTER_TYPE: BUTTERWORTH
FILTER_ORDER: 2
LOW_CUT_FREQUENCY_HZ: 0.050
HIGH_CUT_FREQUENCY_HZ: 40.000
LATE/NORMAL_TRIGGERED: NT
DATABASE_VERSION: 0.5
HEADER_FORMAT: DYNA 1.2
DATA_TYPE: ACCELERATION RESPONSE SPECTRUM
PROCESSING: manual (Paolucci et al., 2011)
DATA_TIMESTAMP_YYYYMMDD_HHMMSS: 20211011_155942.520
DATA_LICENSE: CC-BY3_0-IT (http://creativecommons.org/licenses/by/3.0/deed.en)
DATA_CITATION: Luzi L, Pacor F, Puglia R (2019). Italian Accelerometric Archive v 3.0 - Istituto Nazionale di Geofisica e Vulcanologia, Dipartimento della Protezione Civile Nazionale. doi: 10.13127/itaca.3.1
DATA_CREATOR: ITACA working group
ORIGINAL_DATA_MEDIATOR_CITATION: data obtained within the DPC-INGV data exchange agreements
ORIGINAL_DATA_MEDIATOR: Archive of Italian Department of Civil Protection
ORIGINAL_DATA_CREATOR_CITATION: Presidency Of Counsil Of Ministers-Civil Protection Department. (1972). Italian Strong Motion Network. Presidency of Counsil of Ministers - Civil Protection Department. https://doi.org/10.7914/SN/IT http://www.fdsn.org/networks/detail/IT/
ORIGINAL_DATA_CREATOR: network: IT (Italian Strong Motion Network (RAN)); owner: Presidency of Counsil of Ministers - Civil Protection Department (PCM - DPC)
USER1: 
USER2: 
USER3: 
USER4: 
USER5: 
    0.010000    80.603828
    0.020000    81.815628
    0.022000    80.726158
    0.025000    87.203468
    0.029000   100.471535
    0.030000    97.805038
    0.032000    89.580612
    0.035001    89.559891
    0.036000    89.564201
    0.040000    90.886772
    0.041999    95.441086
    0.044001   105.021179
    0.045000   106.896957
    0.046000   106.806694
    0.048001   106.159225
    0.050000   105.380676
    0.054999    93.889046
    0.059999   112.142311
    0.064998   141.195190
    0.067002   149.517654
    0.069999   145.897537
    0.075002   117.157295
    0.080000   118.296577
    0.084998   130.094650
    0.090001   160.728088
    0.095003   203.305847
    0.100000   227.017532
    0.109999   191.536758
    0.120005   154.895966
    0.130005   162.033066
    0.132996   168.778320
    0.139997   205.944260
    0.149993   234.885101
    0.160000   197.382553
    0.170010   160.920319
    0.179986   140.088043
    0.190006   143.002899
    0.200000   169.396606
    0.220022   261.660828
    0.239981   304.285736
    0.250000   301.000427
    0.260010   286.099274
    0.280034   249.655579
    0.290023   208.816360
    0.300030   185.394821
    0.320000   150.210419
    0.340020   114.787521
    0.350017    98.920853
    0.359971    87.456978
    0.379939    72.194061
    0.400000    62.887997
    0.419992    61.421375
    0.439947    62.243397
    0.450045    62.497223
    0.459982    61.868549
    0.480077    54.763958
    0.500000    51.815632
    0.550055    60.407009
    0.599880    54.650242
    0.650195    39.845222
    0.667111    38.974651
    0.699790    38.653744
    0.750188    28.194296
    0.800000    29.307732
    0.850340    34.719193
    0.900090    38.769539
    0.949668    37.901386
    1.000000    33.412560
    1.100110    28.856333
    1.200480    31.821892
    1.300390    29.571709
    1.400560    30.461998
    1.499250    25.684443
    1.600000    18.346451
    1.700680    15.856021
    1.798561    14.204467
    1.901141    12.720180
    2.000000    11.797688
    2.197802     9.956790
    2.398082     9.383613
    2.500000     9.648957
    2.597403     9.581246
    2.801121    10.775459
    3.003003    11.668115
    3.205128    12.060723
    3.401361    12.060081
    3.496503    11.989489
    3.597122    11.921924
    3.802281    12.232554
    4.000000    11.889089
    4.201681    11.732862
    4.405286    11.535352
    4.608295    11.177352
    4.807692    10.741345
    5.000000    10.126473
    5.494505     8.795862
    5.988024     7.151291
    6.493506     5.780561
    6.993007     5.051128
    7.518797     4.348145
    8.000000     3.754910
    8.474576     3.295832
    9.009009     2.869204
    9.523809     2.479550
   10.000000     2.135798
