EVENT_NAME: L_AQUILA
EVENT_ID: IT-2009-0009
EVENT_DATE_YYYYMMDD: 20090406
EVENT_TIME_HHMMSS: 013240
EVENT_LATITUDE_DEGREE: 42.3420
EVENT_LONGITUDE_DEGREE: 13.3800
EVENT_DEPTH_KM: 8.3
HYPOCENTER_REFERENCE: INGV-CNT_Seismic_Bulletin
MAGNITUDE_W: 6.1
MAGNITUDE_W_REFERENCE: INGV-CNT_Seismic_Bulletin
MAGNITUDE_L: 
MAGNITUDE_L_REFERENCE: 
FOCAL_MECHANISM: Normal faulting
NETWORK: IT
STATION_CODE: CLN
STATION_NAME: 
STATION_LATITUDE_DEGREE: 42.085224
STATION_LONGITUDE_DEGREE: 13.520722
STATION_ELEVATION_M: 796
LOCATION: 
SENSOR_DEPTH_M: 0.0
VS30_M/S: 
SITE_CLASSIFICATION_EC8: B (inferred from geology)
MORPHOLOGIC_CLASSIFICATION: 
EPICENTRAL_DISTANCE_KM: 30.8
EARTHQUAKE_BACKAZIMUTH_DEGREE: 157.8
DATE_TIME_FIRST_SAMPLE_YYYYMMDD_HHMMSS: 20090406_013217.000
DATE_TIME_FIRST_SAMPLE_PRECISION: seconds
SAMPLING_INTERVAL_S: 0.005000
NDATA: 18000
DURATION_S: 90.000
STREAM: HNN
UNITS: cm
INSTRUMENT: sensor = Episensor FBA ES-T [Kinemetrics] | digitizer = Etna [Kinemetrics]
INSTRUMENT_ANALOG/DIGITAL: D
INSTRUMENTAL_FREQUENCY_HZ: 
INSTRUMENTAL_DAMPING: 
FULL_SCALE_G: 
N_BIT_DIGITAL_CONVERTER: 18
PGD_CM: 1.695051
TIME_PGD_S: 36.725000
BASELINE_CORRECTION: BASELINE REMOVED
FILTER_TYPE: BUTTERWORTH
FILTER_ORDER: 2
LOW_CUT_FREQUENCY_HZ: 0.050
HIGH_CUT_FREQUENCY_HZ: 40.000
LATE/NORMAL_TRIGGERED: NT
DATABASE_VERSION: 0.5
HEADER_FORMAT: DYNA 1.2
DATA_TYPE: DISPLACEMENT
PROCESSING: manual (Paolucci et al., 2011)
DATA_TIMESTAMP_YYYYMMDD_HHMMSS: 20211011_155941.754
DATA_LICENSE: CC-BY3_0-IT (http://creativecommons.org/licenses/by/3.0/deed.en)
DATA_CITATION: Luzi L, Pacor F, Puglia R (2019). Italian Accelerometric Archive v 3.0 - Istituto Nazionale di Geofisica e Vulcanologia, Dipartimento della Protezione Civile Nazionale. doi: 10.13127/itaca.3.1
DATA_CREATOR: ITACA working group
ORIGINAL_DATA_MEDIATOR_CITATION: data obtained within the DPC-INGV data exchange agreements
ORIGINAL_DATA_MEDIATOR: Archive of Italian Department of Civil Protection
ORIGINAL_DATA_CREATOR_CITATION: Presidency Of Counsil Of Ministers-Civil Protection Department. (1972). Italian Strong Motion Network. Presidency of Counsil of Ministers - Civil Protection Department. https://doi.org/10.7914/SN/IT http://www.fdsn.org/networks/detail/IT/
ORIGINAL_DATA_CREATOR: network: IT (Italian Strong Motion Network (RAN)); owner: Presidency of Counsil of Ministers - Civil Protection Department (PCM - DPC)
USER1: 
USER2: 
USER3: 
USER4: 
USER5: 
[...]
-2.089266e-01
-2.099467e-01
-2.109508e-01
-2.119401e-01
-2.128960e-01
-2.137912e-01
-2.146108e-01
-2.153622e-01
-2.160665e-01
-2.167385e-01
-2.173743e-01
-2.179579e-01
-2.184783e-01
-2.189437e-01
-2.193840e-01
-2.198409e-01
-2.203525e-01
-2.209353e-01
-2.215757e-01
-2.222362e-01
-2.228767e-01
-2.234754e-01
-2.240365e-01
-2.245818e-01
-2.251349e-01
-2.257043e-01
-2.262777e-01
-2.268305e-01
-2.273482e-01
-2.278484e-01
-2.283815e-01
-2.290040e-01
-2.297401e-01
-2.305682e-01
-2.314422e-01
-2.323212e-01
-2.331769e-01
-2.339875e-01
-2.347366e-01
-2.354209e-01
-2.360548e-01
-2.366701e-01
-2.373139e-01
-2.380369e-01
-2.388722e-01
-2.398186e-01
-2.408412e-01
-2.418876e-01
-2.429115e-01
-2.438926e-01
-2.448468e-01
-2.458205e-01
-2.468728e-01
-2.480515e-01
-2.493762e-01
-2.508267e-01
-2.523452e-01
-2.538574e-01
-2.553074e-01
-2.566814e-01
-2.580043e-01
-2.593151e-01
-2.606406e-01
-2.619760e-01
-2.632808e-01
-2.644934e-01
-2.655632e-01
-2.664902e-01
-2.673355e-01
-2.681838e-01
-2.690833e-01
-2.700161e-01
-2.709175e-01
-2.717238e-01
-2.724126e-01
-2.730135e-01
-2.735858e-01
-2.741843e-01
-2.748349e-01
-2.755281e-01
-2.762284e-01
-2.768963e-01
-2.775041e-01
-2.780340e-01
-2.784682e-01
-2.787905e-01
-2.790129e-01
-2.791986e-01
-2.794464e-01
-2.798357e-01
-2.803793e-01
-2.810255e-01
-2.817023e-01
-2.823619e-01
-2.829977e-01
-2.836392e-01
-2.843377e-01
-2.851474e-01
-2.861028e-01
-2.872010e-01
-2.884030e-01
-2.896549e-01
-2.909129e-01
-2.921554e-01
-2.933779e-01
-2.945810e-01
-2.957582e-01
-2.968894e-01
-2.979508e-01
-2.989332e-01
-2.998490e-01
-3.007211e-01
-3.015675e-01
-3.023958e-01
-3.032058e-01
-3.040016e-01
-3.048060e-01
-3.056651e-01
-3.066314e-01
-3.077390e-01
-3.089882e-01
-3.103575e-01
-3.118319e-01
-3.134189e-01
-3.151317e-01
-3.169602e-01
-3.188593e-01
-3.207580e-01
-3.225711e-01
-3.242118e-01
-3.256095e-01
-3.267423e-01
-3.276623e-01
-3.284845e-01
-3.293388e-01
-3.303265e-01
-3.315072e-01
-3.329032e-01
-3.345008e-01
-3.362520e-01
-3.380856e-01
-3.399310e-01
-3.417383e-01
-3.434783e-01
-3.451267e-01
-3.466583e-01
-3.480607e-01
-3.493532e-01
-3.505868e-01
-3.518214e-01
-3.530977e-01
-3.544269e-01
-3.558081e-01
-3.572502e-01
-3.587696e-01
-3.603645e-01
-3.619953e-01
-3.635923e-01
-3.650872e-01
-3.664484e-01
-3.676902e-01
-3.688463e-01
-3.699315e-01
-3.709234e-01
-3.717794e-01
-3.724755e-01
-3.730433e-01
-3.735735e-01
-3.741727e-01
-3.748943e-01
-3.756973e-01
-3.764699e-01
-3.771077e-01
-3.775796e-01
-3.779326e-01
-3.782453e-01
-3.785773e-01
-3.789539e-01
-3.793823e-01
-3.798752e-01
-3.804616e-01
-3.811802e-01
-3.820657e-01
-3.831368e-01
-3.843907e-01
-3.858086e-01
-3.873652e-01
-3.890362e-01
-3.907980e-01
-3.926177e-01
-3.944451e-01
-3.962287e-01
-3.979486e-01
-3.996321e-01
-4.013319e-01
-4.030919e-01
-4.049296e-01
-4.068352e-01
-4.087745e-01
-4.107058e-01
-4.126119e-01
-4.145167e-01
-4.164557e-01
-4.184254e-01
-4.203711e-01
-4.222203e-01
-4.239233e-01
-4.254673e-01
-4.268611e-01
-4.281078e-01
-4.291964e-01
-4.301168e-01
-4.308845e-01
-4.315440e-01
-4.321457e-01
-4.327156e-01
-4.332455e-01
-4.337080e-01
-4.340826e-01
-4.343716e-01
-4.345976e-01
-4.347851e-01
-4.349457e-01
-4.350769e-01
-4.351701e-01
-4.352148e-01
-4.351985e-01
-4.351071e-01
-4.349354e-01
-4.347066e-01
-4.344848e-01
-4.343639e-01
-4.344346e-01
-4.347484e-01
-4.352904e-01
-4.359830e-01
-4.367324e-01
-4.374875e-01
-4.382604e-01
-4.391072e-01
-4.401018e-01
-4.413150e-01
-4.427879e-01
-4.445064e-01
-4.463993e-01
-4.483636e-01
-4.502967e-01
-4.521269e-01
-4.538435e-01
-4.555106e-01
-4.572301e-01
-4.590657e-01
-4.609965e-01
-4.629378e-01
-4.648026e-01
-4.665574e-01
-4.682480e-01
-4.699752e-01
-4.718374e-01
-4.738810e-01
-4.760899e-01
-4.784043e-01
-4.807418e-01
-4.830115e-01
-4.851291e-01
-4.870371e-01
-4.887301e-01
-4.902645e-01
-4.917250e-01
-4.931560e-01
-4.945168e-01
-4.957101e-01
-4.966595e-01
-4.973729e-01
-4.979549e-01
-4.985627e-01
-4.993287e-01
-5.002953e-01
-5.014106e-01
-5.025799e-01
-5.037172e-01
-5.047554e-01
-5.056343e-01
-5.063122e-01
-5.068055e-01
-5.072042e-01
-5.076268e-01
-5.081577e-01
-5.088252e-01
-5.096204e-01
-5.105206e-01
-5.115017e-01
-5.125418e-01
-5.136251e-01
-5.147643e-01
-5.160248e-01
-5.175051e-01
-5.192606e-01
-5.212392e-01
-5.232978e-01
-5.252827e-01
-5.270923e-01
-5.286821e-01
-5.300425e-01
-5.311818e-01
-5.321200e-01
-5.328879e-01
-5.335296e-01
-5.341038e-01
-5.346689e-01
-5.352578e-01
-5.358759e-01
-5.365370e-01
-5.372931e-01
-5.382114e-01
-5.393131e-01
-5.405407e-01
-5.417926e-01
-5.430017e-01
-5.441872e-01
-5.454367e-01
-5.468314e-01
-5.483691e-01
-5.499404e-01
-5.513719e-01
-5.525015e-01
-5.532360e-01
-5.535768e-01
-5.536269e-01
-5.535663e-01
-5.535758e-01
-5.537466e-01
-5.540519e-01
-5.543947e-01
-5.546723e-01
-5.548117e-01
-5.547834e-01
-5.546084e-01
-5.543376e-01
-5.540024e-01
-5.535868e-01
-5.530583e-01
-5.524173e-01
-5.517026e-01
-5.509553e-01
-5.501837e-01
-5.493550e-01
-5.484009e-01
-5.472234e-01
-5.457207e-01
-5.438456e-01
-5.416608e-01
-5.393341e-01
-5.370650e-01
-5.349943e-01
-5.331569e-01
-5.314816e-01
-5.298288e-01
-5.280561e-01
-5.260845e-01
-5.239250e-01
-5.216637e-01
-5.194288e-01
-5.173521e-01
-5.155311e-01
-5.139977e-01
-5.127057e-01
-5.115447e-01
-5.103858e-01
-5.091524e-01
-5.078684e-01
-5.066395e-01
-5.055803e-01
-5.047480e-01
-5.041298e-01
-5.036717e-01
-5.033023e-01
-5.029217e-01
-5.023786e-01
-5.014770e-01
-5.000361e-01
-4.979745e-01
-4.953475e-01
-4.922928e-01
-4.889370e-01
-4.853506e-01
-4.815611e-01
-4.775761e-01
-4.733958e-01
-4.690326e-01
-4.645375e-01
-4.600043e-01
-4.555301e-01
-4.511612e-01
-4.468771e-01
-4.426415e-01
-4.384713e-01
-4.344406e-01
-4.306111e-01
-4.269681e-01
-4.234166e-01
-4.198147e-01
-4.160201e-01
-4.119500e-01
-4.076363e-01
-4.032132e-01
-3.988309e-01
-3.945671e-01
-3.904006e-01
-3.862450e-01
-3.820162e-01
-3.776993e-01
-3.733698e-01
-3.691531e-01
-3.651512e-01
-3.613859e-01
-3.577910e-01
-3.542471e-01
-3.506272e-01
-3.468333e-01
-3.428331e-01
-3.386769e-01
-3.344694e-01
-3.303118e-01
-3.262675e-01
-3.223723e-01
-3.186669e-01
-3.152162e-01
-3.120790e-01
-3.092399e-01
-3.065867e-01
-3.039873e-01
-3.013902e-01
-2.988360e-01
-2.963826e-01
-2.940408e-01
-2.917728e-01
-2.895280e-01
-2.872896e-01
-2.851071e-01
-2.830803e-01
-2.813081e-01
-2.798554e-01
-2.787541e-01
-2.780008e-01
-2.775246e-01
-2.771690e-01
-2.767285e-01
-2.760119e-01
-2.748898e-01
-2.733398e-01
-2.714684e-01
-2.694458e-01
-2.673805e-01
-2.652617e-01
-2.630243e-01
-2.606416e-01
-2.581468e-01
-2.555982e-01
-2.530508e-01
-2.505463e-01
-2.480949e-01
-2.456398e-01
-2.430434e-01
-2.401427e-01
-2.368505e-01
-2.332292e-01
-2.294704e-01
-2.257834e-01
-2.222764e-01
-2.189109e-01
-2.155446e-01
-2.120191e-01
-2.082430e-01
-2.042348e-01
-2.001032e-01
-1.959662e-01
-1.918654e-01
-1.877426e-01
-1.834912e-01
-1.790389e-01
-1.744127e-01
-1.697466e-01
-1.652265e-01
-1.610098e-01
-1.571667e-01
-1.536655e-01
-1.503987e-01
-1.472352e-01
-1.440701e-01
-1.408504e-01
-1.375769e-01
-1.342953e-01
-1.310851e-01
-1.280447e-01
-1.252603e-01
-1.227592e-01
-1.204690e-01
-1.182168e-01
-1.157838e-01
-1.129829e-01
-1.097161e-01
-1.059898e-01
-1.018987e-01
-9.758820e-02
-9.320690e-02
-8.886428e-02
-8.459680e-02
-8.034863e-02
-7.599045e-02
-7.138324e-02
-6.645362e-02
-6.123511e-02
-5.585156e-02
-5.045512e-02
-4.516266e-02
-4.002807e-02
-3.504725e-02
-3.017447e-02
-2.534141e-02
-2.047542e-02
-1.551200e-02
-1.040257e-02
-5.124838e-03
3.019311e-04
5.815695e-03
1.134732e-02
1.687401e-02
2.243311e-02
2.807316e-02
3.379207e-02
3.953131e-02
4.523574e-02
5.092261e-02
5.670452e-02
6.274789e-02
6.917876e-02
7.599253e-02
8.304839e-02
9.015415e-02
9.715432e-02
1.039612e-01
1.105513e-01
1.169543e-01
1.232196e-01
1.293594e-01
1.353288e-01
1.410981e-01
1.467523e-01
1.524905e-01
1.585052e-01
1.648553e-01
1.714498e-01
1.781398e-01
1.848266e-01
1.915123e-01
1.982742e-01
2.051801e-01
2.122113e-01
2.192712e-01
2.262636e-01
2.331440e-01
2.399004e-01
2.465079e-01
2.529165e-01
2.590737e-01
2.649564e-01
2.705939e-01
2.760619e-01
2.814294e-01
2.867019e-01
2.918368e-01
2.968255e-01
3.017455e-01
3.067270e-01
3.118930e-01
3.173306e-01
3.230934e-01
3.292058e-01
3.356402e-01
3.422821e-01
3.489472e-01
3.554748e-01
3.618334e-01
3.681526e-01
3.746452e-01
3.814765e-01
3.886643e-01
3.960715e-01
4.034916e-01
4.107711e-01
4.178862e-01
4.249235e-01
4.319847e-01
4.390989e-01
4.462074e-01
4.532140e-01
4.600557e-01
4.667481e-01
4.733709e-01
4.800047e-01
4.866899e-01
4.934500e-01
5.003303e-01
5.073812e-01
5.146126e-01
5.219941e-01
5.295014e-01
5.371402e-01
5.449232e-01
5.528453e-01
5.608872e-01
5.690274e-01
5.772405e-01
5.854879e-01
5.937035e-01
6.017784e-01
6.095788e-01
6.170109e-01
6.240792e-01
6.308768e-01
6.375202e-01
6.440837e-01
6.505656e-01
6.568897e-01
6.629444e-01
6.686566e-01
6.740607e-01
6.793079e-01
6.846045e-01
6.901227e-01
6.959269e-01
7.019413e-01
7.079895e-01
7.138870e-01
7.195105e-01
7.248066e-01
7.297802e-01
7.344885e-01
7.390113e-01
7.433907e-01
7.475952e-01
7.515483e-01
7.551792e-01
7.584399e-01
7.612994e-01
7.637547e-01
7.658554e-01
7.677133e-01
7.694967e-01
7.714103e-01
7.736202e-01
7.761329e-01
7.787588e-01
7.812590e-01
7.835506e-01
7.857579e-01
7.880774e-01
7.906314e-01
7.934403e-01
7.964776e-01
7.997038e-01
8.030560e-01
8.064342e-01
8.097125e-01
8.127570e-01
8.154474e-01
8.177177e-01
8.195988e-01
8.212140e-01
8.227219e-01
8.242600e-01
8.259259e-01
8.277762e-01
8.298241e-01
8.320628e-01
8.345182e-01
8.372742e-01
8.404384e-01
8.440748e-01
8.481503e-01
8.525321e-01
8.570358e-01
8.614895e-01
8.657791e-01
8.698685e-01
8.738020e-01
8.776958e-01
8.817105e-01
8.859978e-01
8.906374e-01
8.956105e-01
9.008352e-01
9.062368e-01
9.117937e-01
9.175328e-01
9.235005e-01
9.297344e-01
9.362353e-01
9.429438e-01
9.497384e-01
9.564596e-01
9.629532e-01
9.691005e-01
9.748218e-01
9.800796e-01
9.848854e-01
9.892866e-01
9.933394e-01
9.971023e-01
1.000650e+00
1.004072e+00
1.007442e+00
1.010798e+00
1.014169e+00
1.017615e+00
1.021218e+00
1.025038e+00
1.029073e+00
1.033247e+00
1.037436e+00
1.041518e+00
1.045402e+00
1.049055e+00
1.052521e+00
1.055934e+00
1.059503e+00
1.063420e+00
1.067767e+00
1.072490e+00
1.077459e+00
1.082528e+00
1.087563e+00
1.092470e+00
1.097222e+00
1.101891e+00
1.106622e+00
1.111542e+00
1.116657e+00
1.121837e+00
1.126901e+00
1.131710e+00
1.136227e+00
1.140533e+00
1.144782e+00
1.149109e+00
1.153569e+00
1.158136e+00
1.162730e+00
1.167231e+00
1.171491e+00
1.175366e+00
1.178759e+00
1.181629e+00
1.183961e+00
1.185780e+00
1.187194e+00
1.188404e+00
1.189629e+00
1.191002e+00
1.192512e+00
1.194032e+00
1.195395e+00
1.196468e+00
1.197224e+00
1.197748e+00
1.198182e+00
1.198649e+00
1.199206e+00
1.199848e+00
1.200542e+00
1.201271e+00
1.202044e+00
1.202892e+00
1.203843e+00
1.204897e+00
1.206015e+00
1.207109e+00
1.208055e+00
1.208732e+00
1.209048e+00
1.208947e+00
1.208399e+00
1.207405e+00
1.206006e+00
1.204274e+00
1.202287e+00
1.200109e+00
1.197793e+00
1.195415e+00
1.193088e+00
1.190972e+00
1.189250e+00
1.188109e+00
1.187699e+00
1.188087e+00
1.189202e+00
1.190869e+00
1.192888e+00
1.195130e+00
1.197546e+00
1.200130e+00
1.202876e+00
1.205780e+00
1.208865e+00
1.212172e+00
1.215732e+00
1.219514e+00
1.223403e+00
1.227247e+00
1.230943e+00
1.234500e+00
1.238012e+00
1.241585e+00
1.245278e+00
1.249108e+00
1.253073e+00
1.257167e+00
1.261399e+00
1.265815e+00
1.270479e+00
1.275410e+00
1.280580e+00
1.285959e+00
1.291528e+00
1.297228e+00
1.302946e+00
1.308578e+00
1.314078e+00
1.319432e+00
1.324596e+00
1.329494e+00
1.334056e+00
1.338247e+00
1.342073e+00
1.345600e+00
1.348968e+00
1.352347e+00
1.355860e+00
1.359554e+00
1.363425e+00
1.367465e+00
1.371665e+00
1.376001e+00
1.380438e+00
1.384955e+00
1.389544e+00
1.394208e+00
1.398947e+00
1.403761e+00
1.408643e+00
1.413591e+00
1.418612e+00
1.423735e+00
1.428983e+00
1.434334e+00
1.439739e+00
1.445176e+00
1.450704e+00
1.456428e+00
1.462398e+00
1.468543e+00
1.474701e+00
1.480722e+00
1.486564e+00
1.492294e+00
1.498015e+00
1.503795e+00
1.509615e+00
1.515384e+00
1.521004e+00
1.526442e+00
1.531737e+00
1.536981e+00
1.542292e+00
1.547795e+00
1.553578e+00
1.559649e+00
1.565928e+00
1.572283e+00
1.578607e+00
1.584859e+00
1.591065e+00
1.597285e+00
1.603583e+00
1.609989e+00
1.616476e+00
1.622948e+00
1.629269e+00
1.635298e+00
1.640957e+00
1.646265e+00
1.651337e+00
1.656300e+00
1.661205e+00
1.665995e+00
1.670569e+00
1.674846e+00
1.678794e+00
1.682410e+00
1.685681e+00
1.688576e+00
1.691044e+00
1.693015e+00
1.694394e+00
1.695051e+00
1.694803e+00
1.693431e+00
1.690750e+00
1.686709e+00
1.681412e+00
1.675037e+00
1.667721e+00
1.659516e+00
1.650422e+00
1.640456e+00
1.629674e+00
1.618175e+00
1.606096e+00
1.593575e+00
1.580704e+00
1.567503e+00
1.553954e+00
1.540048e+00
1.525794e+00
1.511187e+00
1.496174e+00
1.480659e+00
1.464530e+00
1.447702e+00
1.430157e+00
1.411968e+00
1.393258e+00
1.374138e+00
1.354653e+00
1.334786e+00
1.314484e+00
1.293694e+00
1.272388e+00
1.250574e+00
1.228279e+00
1.205512e+00
1.182243e+00
1.158427e+00
1.134050e+00
1.109160e+00
1.083856e+00
1.058253e+00
1.032442e+00
1.006476e+00
9.803588e-01
9.540586e-01
9.275099e-01
9.006108e-01
8.732176e-01
8.451636e-01
8.163085e-01
7.865877e-01
7.560321e-01
7.247482e-01
6.928723e-01
6.605256e-01
6.278027e-01
5.947985e-01
5.616471e-01
5.285339e-01
4.956697e-01
4.632441e-01
4.313975e-01
4.002299e-01
3.698207e-01
3.402311e-01
3.114936e-01
2.836030e-01
2.565081e-01
2.301133e-01
2.042898e-01
1.788900e-01
1.537662e-01
1.288054e-01
1.039679e-01
7.929765e-02
5.488996e-02
3.084369e-02
7.247200e-03
-1.580031e-02
-3.817280e-02
-5.973417e-02
-8.038424e-02
-1.001117e-01
-1.190222e-01
-1.373144e-01
-1.552087e-01
-1.728715e-01
-1.903830e-01
-2.077573e-01
-2.249815e-01
-2.420435e-01
-2.589508e-01
-2.757419e-01
-2.924706e-01
-3.091673e-01
-3.258020e-01
-3.422712e-01
-3.584152e-01
-3.740643e-01
-3.890876e-01
-4.034005e-01
-4.169281e-01
-4.295577e-01
-4.411156e-01
-4.513686e-01
-4.600419e-01
-4.668527e-01
-4.715668e-01
-4.740693e-01
-4.744103e-01
-4.727723e-01
-4.693597e-01
-4.643012e-01
-4.576423e-01
-4.494115e-01
-4.396813e-01
-4.285685e-01
-4.161839e-01
-4.025916e-01
-3.878180e-01
-3.718840e-01
-3.548197e-01
-3.366578e-01
-3.174212e-01
-2.971105e-01
-2.757110e-01
-2.532371e-01
-2.297915e-01
-2.055862e-01
-1.809042e-01
-1.560410e-01
-1.312755e-01
-1.068608e-01
-8.300408e-02
-5.984601e-02
-3.746664e-02
-1.589122e-02
4.929627e-03
2.512388e-02
4.483895e-02
6.415610e-02
8.305890e-02
1.014799e-01
1.193739e-01
1.367599e-01
1.537284e-01
1.704309e-01
1.870237e-01
2.035507e-01
2.198490e-01
2.355803e-01
2.503693e-01
2.639362e-01
2.761510e-01
2.870433e-01
2.968180e-01
3.058395e-01
3.145144e-01
3.231256e-01
3.317575e-01
3.403527e-01
3.488192e-01
3.571024e-01
3.652016e-01
3.731566e-01
3.810382e-01
3.889589e-01
3.970773e-01
4.055713e-01
4.145971e-01
4.242616e-01
4.346163e-01
4.456612e-01
4.573311e-01
4.694554e-01
4.817539e-01
4.939278e-01
5.057807e-01
5.172483e-01
5.283256e-01
5.389990e-01
5.492602e-01
5.591623e-01
5.688394e-01
5.784697e-01
5.882344e-01
5.983119e-01
6.088726e-01
6.200404e-01
6.318423e-01
6.441965e-01
6.569622e-01
6.700170e-01
6.833164e-01
6.969192e-01
7.109635e-01
7.256048e-01
7.409531e-01
7.570317e-01
7.737586e-01
7.909539e-01
8.083744e-01
8.257607e-01
8.428746e-01
8.595110e-01
8.754860e-01
8.906231e-01
9.047689e-01
9.178255e-01
9.297604e-01
9.405930e-01
9.503749e-01
9.591490e-01
9.668916e-01
9.734878e-01
9.787542e-01
9.824771e-01
9.844530e-01
9.845641e-01
9.828802e-01
9.797016e-01
9.754879e-01
9.707185e-01
9.657825e-01
9.609428e-01
9.563488e-01
9.520672e-01
9.481253e-01
9.445611e-01
9.414304e-01
9.387262e-01
9.362980e-01
9.339087e-01
9.313823e-01
9.286623e-01
9.257535e-01
9.226589e-01
9.193809e-01
9.159646e-01
9.125181e-01
9.091745e-01
9.060236e-01
9.030735e-01
9.002673e-01
8.975351e-01
8.948440e-01
8.922220e-01
8.897506e-01
8.875345e-01
8.856714e-01
8.842373e-01
8.832678e-01
8.827197e-01
8.824459e-01
8.822314e-01
8.818840e-01
8.813130e-01
8.805374e-01
8.796160e-01
8.785530e-01
8.772482e-01
8.755064e-01
8.730754e-01
8.697139e-01
8.653133e-01
8.600142e-01
8.541938e-01
8.483104e-01
8.427557e-01
8.378251e-01
8.337422e-01
8.306380e-01
8.285045e-01
8.271997e-01
8.265351e-01
8.263918e-01
8.267697e-01
8.277482e-01
8.294315e-01
8.319320e-01
8.353475e-01
8.396878e-01
8.448064e-01
8.504301e-01
8.562699e-01
8.621018e-01
8.677693e-01
8.731578e-01
8.781924e-01
8.828437e-01
8.871143e-01
8.910084e-01
8.944985e-01
8.974981e-01
8.998559e-01
9.013999e-01
9.020265e-01
9.017615e-01
9.007252e-01
8.990316e-01
8.967182e-01
8.937588e-01
8.901361e-01
8.859083e-01
8.812139e-01
8.762155e-01
8.710435e-01
8.657784e-01
8.604578e-01
8.550840e-01
8.496433e-01
8.441330e-01
8.385754e-01
8.330114e-01
8.274859e-01
8.220401e-01
8.167187e-01
8.115748e-01
8.066575e-01
8.020027e-01
7.976411e-01
7.936126e-01
7.899757e-01
7.868070e-01
7.841876e-01
7.821778e-01
7.807902e-01
7.799770e-01
7.796463e-01
7.796980e-01
7.800516e-01
7.806544e-01
7.814758e-01
7.825022e-01
7.837479e-01
7.852774e-01
7.871968e-01
7.895972e-01
7.924900e-01
7.957868e-01
7.993329e-01
8.029673e-01
8.065744e-01
8.100892e-01
8.134590e-01
8.166106e-01
8.194532e-01
8.219016e-01
8.239034e-01
8.254487e-01
8.265504e-01
8.272042e-01
8.273563e-01
8.268960e-01
8.256648e-01
8.234789e-01
8.201830e-01
8.157278e-01
8.102154e-01
8.038609e-01
7.968928e-01
7.894719e-01
7.816791e-01
7.735546e-01
7.651343e-01
7.564561e-01
7.475375e-01
7.383529e-01
7.288335e-01
7.188915e-01
7.084540e-01
6.974897e-01
6.860160e-01
6.740891e-01
6.617926e-01
6.492379e-01
6.365661e-01
6.239398e-01
6.115250e-01
5.994689e-01
5.878794e-01
5.768079e-01
5.662346e-01
5.560602e-01
5.461223e-01
5.362442e-01
5.262904e-01
5.161926e-01
5.059354e-01
4.955228e-01
4.849429e-01
4.741477e-01
4.630645e-01
4.516322e-01
4.398321e-01
4.276913e-01
4.152576e-01
4.025653e-01
3.896223e-01
3.764255e-01
