EVENT_NAME: L_AQUILA
EVENT_ID: IT-2009-0009
EVENT_DATE_YYYYMMDD: 20090406
EVENT_TIME_HHMMSS: 013240
EVENT_LATITUDE_DEGREE: 42.3420
EVENT_LONGITUDE_DEGREE: 13.3800
EVENT_DEPTH_KM: 8.3
HYPOCENTER_REFERENCE: INGV-CNT_Seismic_Bulletin
MAGNITUDE_W: 6.1
MAGNITUDE_W_REFERENCE: INGV-CNT_Seismic_Bulletin
MAGNITUDE_L: 
MAGNITUDE_L_REFERENCE: 
FOCAL_MECHANISM: Normal faulting
NETWORK: IT
STATION_CODE: CLN
STATION_NAME: 
STATION_LATITUDE_DEGREE: 42.085224
STATION_LONGITUDE_DEGREE: 13.520722
STATION_ELEVATION_M: 796
LOCATION: 
SENSOR_DEPTH_M: 0.0
VS30_M/S: 
SITE_CLASSIFICATION_EC8: B (inferred from geology)
MORPHOLOGIC_CLASSIFICATION: 
EPICENTRAL_DISTANCE_KM: 30.8
EARTHQUAKE_BACKAZIMUTH_DEGREE: 157.8
DATE_TIME_FIRST_SAMPLE_YYYYMMDD_HHMMSS: 20090406_013217.000
DATE_TIME_FIRST_SAMPLE_PRECISION: seconds
SAMPLING_INTERVAL_S: 0.005000
NDATA: 18000
DURATION_S: 90.000
STREAM: HNE
UNITS: cm
INSTRUMENT: sensor = Episensor FBA ES-T [Kinemetrics] | digitizer = Etna [Kinemetrics]
INSTRUMENT_ANALOG/DIGITAL: D
INSTRUMENTAL_FREQUENCY_HZ: 
INSTRUMENTAL_DAMPING: 
FULL_SCALE_G: 
N_BIT_DIGITAL_CONVERTER: 18
PGD_CM: -2.867631
TIME_PGD_S: 37.925000
BASELINE_CORRECTION: BASELINE REMOVED
FILTER_TYPE: BUTTERWORTH
FILTER_ORDER: 2
LOW_CUT_FREQUENCY_HZ: 0.050
HIGH_CUT_FREQUENCY_HZ: 40.000
LATE/NORMAL_TRIGGERED: NT
DATABASE_VERSION: 0.5
HEADER_FORMAT: DYNA 1.2
DATA_TYPE: DISPLACEMENT
PROCESSING: manual (Paolucci et al., 2011)
DATA_TIMESTAMP_YYYYMMDD_HHMMSS: 20211011_155941.238
DATA_LICENSE: CC-BY3_0-IT (http://creativecommons.org/licenses/by/3.0/deed.en)
DATA_CITATION: Luzi L, Pacor F, Puglia R (2019). Italian Accelerometric Archive v 3.0 - Istituto Nazionale di Geofisica e Vulcanologia, Dipartimento della Protezione Civile Nazionale. doi: 10.13127/itaca.3.1
DATA_CREATOR: ITACA working group
ORIGINAL_DATA_MEDIATOR_CITATION: data obtained within the DPC-INGV data exchange agreements
ORIGINAL_DATA_MEDIATOR: Archive of Italian Department of Civil Protection
ORIGINAL_DATA_CREATOR_CITATION: Presidency Of Counsil Of Ministers-Civil Protection Department. (1972). Italian Strong Motion Network. Presidency of Counsil of Ministers - Civil Protection Department. https://doi.org/10.7914/SN/IT http://www.fdsn.org/networks/detail/IT/
ORIGINAL_DATA_CREATOR: network: IT (Italian Strong Motion Network (RAN)); owner: Presidency of Counsil of Ministers - Civil Protection Department (PCM - DPC)
USER1: 
USER2: 
USER3: 
USER4: 
USER5: 
[...]
5.570297e-01
5.591402e-01
5.612166e-01
5.632843e-01
5.653638e-01
5.674465e-01
5.694844e-01
5.714098e-01
5.731805e-01
5.748182e-01
5.764051e-01
5.780407e-01
5.797955e-01
5.817020e-01
5.837767e-01
5.860264e-01
5.884291e-01
5.909295e-01
5.934710e-01
5.960331e-01
5.986321e-01
6.012977e-01
6.040580e-01
6.069337e-01
6.099222e-01
6.129813e-01
6.160469e-01
6.190846e-01
6.221187e-01
6.252109e-01
6.284189e-01
6.317689e-01
6.352501e-01
6.388262e-01
6.424546e-01
6.460996e-01
6.497357e-01
6.533490e-01
6.569403e-01
6.605211e-01
6.640999e-01
6.676646e-01
6.711728e-01
6.745573e-01
6.777547e-01
6.807464e-01
6.835755e-01
6.863106e-01
6.889956e-01
6.916378e-01
6.942328e-01
6.967806e-01
6.992868e-01
7.017677e-01
7.042616e-01
7.068244e-01
7.095134e-01
7.123709e-01
7.154023e-01
7.185558e-01
7.217281e-01
7.248126e-01
7.277546e-01
7.305677e-01
7.333072e-01
7.360314e-01
7.387833e-01
7.416008e-01
7.445374e-01
7.476503e-01
7.509522e-01
7.543769e-01
7.578116e-01
7.611631e-01
7.643965e-01
7.675265e-01
7.705935e-01
7.736479e-01
7.767440e-01
7.799259e-01
7.832098e-01
7.865796e-01
7.899954e-01
7.934116e-01
7.967993e-01
8.001528e-01
8.034725e-01
8.067499e-01
8.099782e-01
8.131808e-01
8.164267e-01
8.198054e-01
8.233663e-01
8.270758e-01
8.308419e-01
8.345849e-01
8.382765e-01
8.419202e-01
8.455118e-01
8.490240e-01
8.524135e-01
8.556367e-01
8.586780e-01
8.615716e-01
8.643828e-01
8.671580e-01
8.699029e-01
8.726130e-01
8.753103e-01
8.780435e-01
8.808652e-01
8.838155e-01
8.869110e-01
8.901385e-01
8.934691e-01
8.968814e-01
9.003547e-01
9.038353e-01
9.072362e-01
9.104866e-01
9.135737e-01
9.165232e-01
9.193498e-01
9.220412e-01
9.245893e-01
9.270247e-01
9.294145e-01
9.318182e-01
9.342348e-01
9.365939e-01
9.388128e-01
9.408749e-01
9.428563e-01
9.448732e-01
9.470007e-01
9.492332e-01
9.515038e-01
9.537368e-01
9.558981e-01
9.580143e-01
9.601483e-01
9.623658e-01
9.647291e-01
9.673060e-01
9.701548e-01
9.732790e-01
9.766029e-01
9.799976e-01
9.833367e-01
9.865412e-01
9.895948e-01
9.925221e-01
9.953491e-01
9.980858e-01
1.000747e+00
1.003374e+00
1.006021e+00
1.008711e+00
1.011419e+00
1.014104e+00
1.016740e+00
1.019341e+00
1.021930e+00
1.024527e+00
1.027142e+00
1.029786e+00
1.032494e+00
1.035342e+00
1.038443e+00
1.041899e+00
1.045722e+00
1.049799e+00
1.053939e+00
1.057965e+00
1.061787e+00
1.065365e+00
1.068641e+00
1.071532e+00
1.074007e+00
1.076144e+00
1.078078e+00
1.079902e+00
1.081645e+00
1.083333e+00
1.085009e+00
1.086683e+00
1.088315e+00
1.089880e+00
1.091429e+00
1.093071e+00
1.094888e+00
1.096906e+00
1.099134e+00
1.101604e+00
1.104366e+00
1.107456e+00
1.110889e+00
1.114642e+00
1.118640e+00
1.122756e+00
1.126847e+00
1.130777e+00
1.134457e+00
1.137857e+00
1.141018e+00
1.144034e+00
1.147017e+00
1.150047e+00
1.153141e+00
1.156272e+00
1.159418e+00
1.162608e+00
1.165912e+00
1.169384e+00
1.173018e+00
1.176764e+00
1.180566e+00
1.184385e+00
1.188185e+00
1.191931e+00
1.195605e+00
1.199226e+00
1.202832e+00
1.206440e+00
1.210056e+00
1.213693e+00
1.217345e+00
1.220945e+00
1.224388e+00
1.227614e+00
1.230634e+00
1.233488e+00
1.236185e+00
1.238729e+00
1.241155e+00
1.243524e+00
1.245877e+00
1.248231e+00
1.250584e+00
1.252916e+00
1.255191e+00
1.257372e+00
1.259438e+00
1.261382e+00
1.263194e+00
1.264835e+00
1.266252e+00
1.267419e+00
1.268374e+00
1.269217e+00
1.270051e+00
1.270923e+00
1.271793e+00
1.272545e+00
1.273049e+00
1.273228e+00
1.273091e+00
1.272726e+00
1.272246e+00
1.271760e+00
1.271346e+00
1.271037e+00
1.270817e+00
1.270635e+00
1.270442e+00
1.270226e+00
1.270006e+00
1.269795e+00
1.269570e+00
1.269294e+00
1.268968e+00
1.268657e+00
1.268443e+00
1.268365e+00
1.268400e+00
1.268488e+00
1.268575e+00
1.268635e+00
1.268641e+00
1.268530e+00
1.268221e+00
1.267675e+00
1.266943e+00
1.266149e+00
1.265416e+00
1.264789e+00
1.264219e+00
1.263613e+00
1.262915e+00
1.262138e+00
1.261333e+00
1.260543e+00
1.259788e+00
1.259095e+00
1.258514e+00
1.258096e+00
1.257851e+00
1.257737e+00
1.257694e+00
1.257650e+00
1.257513e+00
1.257178e+00
1.256600e+00
1.255839e+00
1.255014e+00
1.254213e+00
1.253447e+00
1.252697e+00
1.251956e+00
1.251235e+00
1.250552e+00
1.249930e+00
1.249402e+00
1.248976e+00
1.248617e+00
1.248275e+00
1.247914e+00
1.247527e+00
1.247137e+00
1.246820e+00
1.246684e+00
1.246821e+00
1.247267e+00
1.248023e+00
1.249074e+00
1.250390e+00
1.251904e+00
1.253529e+00
1.255188e+00
1.256837e+00
1.258455e+00
1.260031e+00
1.261564e+00
1.263091e+00
1.264687e+00
1.266427e+00
1.268321e+00
1.270290e+00
1.272204e+00
1.273954e+00
1.275480e+00
1.276769e+00
1.277858e+00
1.278821e+00
1.279710e+00
1.280502e+00
1.281110e+00
1.281485e+00
1.281677e+00
1.281816e+00
1.282013e+00
1.282305e+00
1.282677e+00
1.283112e+00
1.283598e+00
1.284072e+00
1.284394e+00
1.284420e+00
1.284122e+00
1.283629e+00
1.283157e+00
1.282886e+00
1.282881e+00
1.283107e+00
1.283475e+00
1.283910e+00
1.284400e+00
1.284972e+00
1.285612e+00
1.286216e+00
1.286654e+00
1.286883e+00
1.286959e+00
1.286942e+00
1.286824e+00
1.286543e+00
1.286058e+00
1.285420e+00
1.284772e+00
1.284272e+00
1.283981e+00
1.283817e+00
1.283611e+00
1.283219e+00
1.282598e+00
1.281799e+00
1.280903e+00
1.279953e+00
1.278942e+00
1.277850e+00
1.276676e+00
1.275426e+00
1.274092e+00
1.272670e+00
1.271174e+00
1.269612e+00
1.267951e+00
1.266130e+00
1.264138e+00
1.262034e+00
1.259890e+00
1.257735e+00
1.255537e+00
1.253238e+00
1.250799e+00
1.248243e+00
1.245637e+00
1.243027e+00
1.240416e+00
1.237792e+00
1.235173e+00
1.232591e+00
1.230059e+00
1.227570e+00
1.225132e+00
1.222753e+00
1.220395e+00
1.217962e+00
1.215355e+00
1.212509e+00
1.209395e+00
1.206007e+00
1.202341e+00
1.198406e+00
1.194233e+00
1.189903e+00
1.185525e+00
1.181195e+00
1.176967e+00
1.172872e+00
1.168945e+00
1.165236e+00
1.161774e+00
1.158534e+00
1.155460e+00
1.152525e+00
1.149737e+00
1.147095e+00
1.144528e+00
1.141889e+00
1.139046e+00
1.135974e+00
1.132758e+00
1.129515e+00
1.126308e+00
1.123116e+00
1.119853e+00
1.116454e+00
1.112927e+00
1.109347e+00
1.105783e+00
1.102232e+00
1.098636e+00
1.094958e+00
1.091228e+00
1.087513e+00
1.083867e+00
1.080307e+00
1.076803e+00
1.073273e+00
1.069581e+00
1.065580e+00
1.061198e+00
1.056479e+00
1.051515e+00
1.046359e+00
1.040994e+00
1.035398e+00
1.029590e+00
1.023626e+00
1.017566e+00
1.011451e+00
1.005302e+00
9.991005e-01
9.928003e-01
9.863612e-01
9.798009e-01
9.732009e-01
9.666512e-01
9.601893e-01
9.538069e-01
9.475236e-01
9.414307e-01
9.356393e-01
9.301954e-01
9.250665e-01
9.202010e-01
9.155807e-01
9.112088e-01
9.070697e-01
9.031237e-01
8.993312e-01
8.956638e-01
8.920912e-01
8.885591e-01
8.849805e-01
8.812575e-01
8.773092e-01
8.730734e-01
8.684892e-01
8.634963e-01
8.580628e-01
8.522173e-01
8.460467e-01
8.396584e-01
8.331399e-01
8.265408e-01
8.198753e-01
8.131355e-01
8.063166e-01
7.994442e-01
7.925737e-01
7.857521e-01
7.789848e-01
7.722481e-01
7.655296e-01
7.588458e-01
7.522283e-01
7.456964e-01
7.392477e-01
7.328772e-01
7.265989e-01
7.204308e-01
7.143497e-01
7.082738e-01
7.020981e-01
6.957366e-01
6.891367e-01
6.822752e-01
6.751570e-01
6.678229e-01
6.603433e-01
6.527847e-01
6.451708e-01
6.374746e-01
6.296489e-01
6.216578e-01
6.134756e-01
6.050881e-01
5.965186e-01
5.878391e-01
5.791335e-01
5.704434e-01
5.617559e-01
5.530489e-01
5.443367e-01
5.356599e-01
5.270355e-01
5.184264e-01
5.097627e-01
5.009952e-01
4.921231e-01
4.831599e-01
4.740709e-01
4.647555e-01
4.550996e-01
4.450371e-01
4.345671e-01
4.237415e-01
4.126567e-01
4.014404e-01
3.902109e-01
3.790411e-01
3.679566e-01
3.569478e-01
3.459785e-01
3.350143e-01
3.240687e-01
3.132200e-01
3.025838e-01
2.922646e-01
2.823154e-01
2.727326e-01
2.634925e-01
2.545885e-01
2.460173e-01
2.377413e-01
2.296871e-01
2.217840e-01
2.139931e-01
2.063005e-01
1.986868e-01
1.910985e-01
1.834350e-01
1.755622e-01
1.673661e-01
1.588216e-01
1.500103e-01
1.410675e-01
1.321159e-01
1.232408e-01
1.144926e-01
1.058911e-01
9.744205e-02
8.916505e-02
8.109596e-02
7.325426e-02
6.562844e-02
5.821603e-02
5.106135e-02
4.422706e-02
3.773963e-02
3.158510e-02
2.575308e-02
2.026560e-02
1.515524e-02
1.041387e-02
5.968266e-03
1.719795e-03
-2.391878e-03
-6.370997e-03
-1.019570e-02
-1.385541e-02
-1.737532e-02
-2.081485e-02
-2.423156e-02
-2.763302e-02
-3.095948e-02
-3.412491e-02
-3.709703e-02
-3.994499e-02
-4.279581e-02
-4.573471e-02
-4.874968e-02
-5.177010e-02
-5.474692e-02
-5.768716e-02
-6.062290e-02
-6.357004e-02
-6.652524e-02
-6.949309e-02
-7.251059e-02
-7.564839e-02
-7.898448e-02
-8.257263e-02
-8.644337e-02
-9.063053e-02
-9.517371e-02
-1.000773e-01
-1.052683e-01
-1.106060e-01
-1.159421e-01
-1.211786e-01
-1.262799e-01
-1.312497e-01
-1.361102e-01
-1.408870e-01
-1.455942e-01
-1.502347e-01
-1.548157e-01
-1.593518e-01
-1.638537e-01
-1.683216e-01
-1.727603e-01
-1.772026e-01
-1.817111e-01
-1.863543e-01
-1.911779e-01
-1.961933e-01
-2.013917e-01
-2.067766e-01
-2.123790e-01
-2.182373e-01
-2.243672e-01
-2.307574e-01
-2.373864e-01
-2.442293e-01
-2.512482e-01
-2.583837e-01
-2.655705e-01
-2.727737e-01
-2.800198e-01
-2.873777e-01
-2.949009e-01
-3.025923e-01
-3.104284e-01
-3.184025e-01
-3.265287e-01
-3.348105e-01
-3.432254e-01
-3.517414e-01
-3.603350e-01
-3.690005e-01
-3.777529e-01
-3.866171e-01
-3.956039e-01
-4.046945e-01
-4.138467e-01
-4.230032e-01
-4.320873e-01
-4.410042e-01
-4.496633e-01
-4.580058e-01
-4.660094e-01
-4.736685e-01
-4.809774e-01
-4.879382e-01
-4.945764e-01
-5.009402e-01
-5.070859e-01
-5.130717e-01
-5.189626e-01
-5.248281e-01
-5.307154e-01
-5.366233e-01
-5.425157e-01
-5.483688e-01
-5.541930e-01
-5.600057e-01
-5.658054e-01
-5.715892e-01
-5.773862e-01
-5.832597e-01
-5.892793e-01
-5.954994e-01
-6.019571e-01
-6.086776e-01
-6.156821e-01
-6.229991e-01
-6.306654e-01
-6.387094e-01
-6.471263e-01
-6.558811e-01
-6.649414e-01
-6.743004e-01
-6.839584e-01
-6.938811e-01
-7.039772e-01
-7.141223e-01
-7.242108e-01
-7.341896e-01
-7.440440e-01
-7.537582e-01
-7.633059e-01
-7.726944e-01
-7.820143e-01
-7.914243e-01
-8.010675e-01
-8.109968e-01
-8.211826e-01
-8.315864e-01
-8.422292e-01
-8.532011e-01
-8.646189e-01
-8.765690e-01
-8.890744e-01
-9.021084e-01
-9.156396e-01
-9.296708e-01
-9.442415e-01
-9.594043e-01
-9.751999e-01
-9.916424e-01
-1.008712e+00
-1.026361e+00
-1.044537e+00
-1.063221e+00
-1.082434e+00
-1.102209e+00
-1.122547e+00
-1.143388e+00
-1.164612e+00
-1.186068e+00
-1.207610e+00
-1.229090e+00
-1.250338e+00
-1.271136e+00
-1.291234e+00
-1.310404e+00
-1.328499e+00
-1.345499e+00
-1.361499e+00
-1.376652e+00
-1.391108e+00
-1.404986e+00
-1.418405e+00
-1.431504e+00
-1.444456e+00
-1.457453e+00
-1.470683e+00
-1.484304e+00
-1.498415e+00
-1.513028e+00
-1.528055e+00
-1.543347e+00
-1.558748e+00
-1.574154e+00
-1.589515e+00
-1.604797e+00
-1.619950e+00
-1.634923e+00
-1.649694e+00
-1.664294e+00
-1.678797e+00
-1.693296e+00
-1.707883e+00
-1.722659e+00
-1.737750e+00
-1.753314e+00
-1.769521e+00
-1.786520e+00
-1.804420e+00
-1.823285e+00
-1.843132e+00
-1.863896e+00
-1.885415e+00
-1.907443e+00
-1.929711e+00
-1.951983e+00
-1.974063e+00
-1.995755e+00
-2.016829e+00
-2.037085e+00
-2.056472e+00
-2.075117e+00
-2.093215e+00
-2.110879e+00
-2.128091e+00
-2.144783e+00
-2.160889e+00
-2.176341e+00
-2.191034e+00
-2.204829e+00
-2.217575e+00
-2.229118e+00
-2.239323e+00
-2.248079e+00
-2.255283e+00
-2.260811e+00
-2.264561e+00
-2.266554e+00
-2.267009e+00
-2.266293e+00
-2.264763e+00
-2.262691e+00
-2.260317e+00
-2.257934e+00
-2.255874e+00
-2.254432e+00
-2.253825e+00
-2.254226e+00
-2.255838e+00
-2.258911e+00
-2.263682e+00
-2.270337e+00
-2.278987e+00
-2.289631e+00
-2.302122e+00
-2.316178e+00
-2.331441e+00
-2.347549e+00
-2.364216e+00
-2.381261e+00
-2.398573e+00
-2.416064e+00
-2.433661e+00
-2.451335e+00
-2.469115e+00
-2.487060e+00
-2.505190e+00
-2.523439e+00
-2.541675e+00
-2.559778e+00
-2.577698e+00
-2.595399e+00
-2.612769e+00
-2.629608e+00
-2.645750e+00
-2.661134e+00
-2.675771e+00
-2.689659e+00
-2.702778e+00
-2.715120e+00
-2.726683e+00
-2.737410e+00
-2.747156e+00
-2.755712e+00
-2.762849e+00
-2.768365e+00
-2.772117e+00
-2.774030e+00
-2.774117e+00
-2.772506e+00
-2.769455e+00
-2.765293e+00
-2.760313e+00
-2.754720e+00
-2.748666e+00
-2.742314e+00
-2.735862e+00
-2.729503e+00
-2.723391e+00
-2.717614e+00
-2.712217e+00
-2.707251e+00
-2.702841e+00
-2.699217e+00
-2.696677e+00
-2.695497e+00
-2.695874e+00
-2.697915e+00
-2.701662e+00
-2.707089e+00
-2.714076e+00
-2.722442e+00
-2.731979e+00
-2.742473e+00
-2.753698e+00
-2.765443e+00
-2.777517e+00
-2.789722e+00
-2.801815e+00
-2.813498e+00
-2.824414e+00
-2.834196e+00
-2.842580e+00
-2.849518e+00
-2.855160e+00
-2.859718e+00
-2.863314e+00
-2.865915e+00
-2.867394e+00
-2.867631e+00
-2.866580e+00
-2.864280e+00
-2.860853e+00
-2.856477e+00
-2.851373e+00
-2.845786e+00
-2.839928e+00
-2.833906e+00
-2.827700e+00
-2.821241e+00
-2.814477e+00
-2.807388e+00
-2.799990e+00
-2.792334e+00
-2.784507e+00
-2.776604e+00
-2.768689e+00
-2.760770e+00
-2.752816e+00
-2.744797e+00
-2.736712e+00
-2.728588e+00
-2.720494e+00
-2.712562e+00
-2.704985e+00
-2.697961e+00
-2.691634e+00
-2.686049e+00
-2.681160e+00
-2.676882e+00
-2.673134e+00
-2.669865e+00
-2.667078e+00
-2.664838e+00
-2.663257e+00
-2.662457e+00
-2.662524e+00
-2.663462e+00
-2.665187e+00
-2.667561e+00
-2.670429e+00
-2.673671e+00
-2.677220e+00
-2.681056e+00
-2.685148e+00
-2.689409e+00
-2.693692e+00
-2.697816e+00
-2.701591e+00
-2.704812e+00
-2.707290e+00
-2.708903e+00
-2.709622e+00
-2.709486e+00
-2.708578e+00
-2.706997e+00
-2.704856e+00
-2.702250e+00
-2.699222e+00
-2.695762e+00
-2.691817e+00
-2.687306e+00
-2.682159e+00
-2.676374e+00
-2.670074e+00
-2.663486e+00
-2.656873e+00
-2.650436e+00
-2.644246e+00
-2.638252e+00
-2.632342e+00
-2.626426e+00
-2.620499e+00
-2.614626e+00
-2.608869e+00
-2.603238e+00
-2.597711e+00
-2.592323e+00
-2.587199e+00
-2.582532e+00
-2.578536e+00
-2.575393e+00
-2.573206e+00
-2.571948e+00
-2.571468e+00
-2.571551e+00
-2.571981e+00
-2.572568e+00
-2.573160e+00
-2.573660e+00
-2.574038e+00
-2.574331e+00
-2.574636e+00
-2.575092e+00
-2.575835e+00
-2.576938e+00
-2.578401e+00
-2.580201e+00
-2.582330e+00
-2.584779e+00
-2.587507e+00
-2.590433e+00
-2.593448e+00
-2.596421e+00
-2.599193e+00
-2.601591e+00
-2.603443e+00
-2.604571e+00
-2.604791e+00
-2.603935e+00
-2.601865e+00
-2.598467e+00
-2.593648e+00
-2.587363e+00
-2.579628e+00
-2.570508e+00
-2.560089e+00
-2.548476e+00
-2.535813e+00
-2.522305e+00
-2.508186e+00
-2.493651e+00
-2.478803e+00
-2.463667e+00
-2.448258e+00
-2.432677e+00
-2.417137e+00
-2.401908e+00
-2.387211e+00
-2.373154e+00
-2.359757e+00
-2.347023e+00
-2.334991e+00
-2.323743e+00
-2.313372e+00
-2.303937e+00
-2.295446e+00
-2.287834e+00
-2.280979e+00
-2.274731e+00
-2.268938e+00
-2.263475e+00
-2.258256e+00
-2.253243e+00
-2.248447e+00
-2.243893e+00
-2.239589e+00
-2.235527e+00
-2.231698e+00
-2.228106e+00
-2.224766e+00
-2.221701e+00
-2.218922e+00
-2.216413e+00
-2.214113e+00
-2.211904e+00
-2.209634e+00
-2.207149e+00
-2.204307e+00
-2.200984e+00
-2.197086e+00
-2.192555e+00
-2.187361e+00
-2.181492e+00
-2.174956e+00
-2.167796e+00
-2.160104e+00
-2.151995e+00
-2.143584e+00
-2.134976e+00
-2.126278e+00
-2.117586e+00
-2.108984e+00
-2.100542e+00
-2.092298e+00
-2.084247e+00
-2.076380e+00
-2.068701e+00
-2.061217e+00
-2.053889e+00
-2.046612e+00
-2.039222e+00
-2.031540e+00
-2.023434e+00
-2.014851e+00
-2.005831e+00
-1.996493e+00
-1.986997e+00
-1.977523e+00
-1.968251e+00
-1.959323e+00
-1.950817e+00
-1.942741e+00
-1.935075e+00
-1.927813e+00
-1.920987e+00
-1.914652e+00
-1.908837e+00
-1.903513e+00
-1.898593e+00
-1.893959e+00
-1.889473e+00
-1.884983e+00
-1.880328e+00
-1.875368e+00
-1.870013e+00
-1.864225e+00
-1.857996e+00
-1.851320e+00
-1.844183e+00
-1.836574e+00
-1.828494e+00
-1.819955e+00
-1.810956e+00
-1.801496e+00
-1.791612e+00
-1.781399e+00
-1.770975e+00
-1.760404e+00
-1.749656e+00
-1.738616e+00
-1.727115e+00
-1.714980e+00
-1.702085e+00
-1.688399e+00
-1.673972e+00
-1.658896e+00
-1.643265e+00
-1.627180e+00
-1.610747e+00
-1.594076e+00
-1.577239e+00
-1.560248e+00
-1.543056e+00
-1.525599e+00
-1.507849e+00
-1.489832e+00
-1.471611e+00
-1.453254e+00
-1.434833e+00
-1.416405e+00
-1.398003e+00
-1.379625e+00
-1.361252e+00
-1.342877e+00
-1.324525e+00
-1.306222e+00
-1.287952e+00
-1.269623e+00
-1.251089e+00
-1.232205e+00
-1.212898e+00
-1.193190e+00
-1.173177e+00
-1.153008e+00
-1.132855e+00
-1.112870e+00
-1.093140e+00
-1.073699e+00
-1.054560e+00
-1.035741e+00
-1.017240e+00
-9.990237e-01
-9.810258e-01
-9.631740e-01
-9.454355e-01
-9.278279e-01
-9.103813e-01
-8.930891e-01
-8.758910e-01
-8.586890e-01
-8.413711e-01
-8.238113e-01
-8.058533e-01
-7.873202e-01
-7.680591e-01
-7.479986e-01
-7.271804e-01
-7.057349e-01
-6.838065e-01
-6.614969e-01
-6.388566e-01
-6.159101e-01
-5.926932e-01
-5.692699e-01
-5.457165e-01
-5.220910e-01
-4.984095e-01
-4.746459e-01
-4.507603e-01
-4.267365e-01
-4.025904e-01
-3.783538e-01
-3.540665e-01
-3.297809e-01
-3.055670e-01
-2.815214e-01
-2.577649e-01
-2.344184e-01
-2.115673e-01
-1.892371e-01
-1.673920e-01
-1.459679e-01
-1.249153e-01
-1.042220e-01
-8.391161e-02
-6.402974e-02
-4.462810e-02
-2.574671e-02
-7.404457e-03
1.039175e-02
2.763970e-02
4.434874e-02
6.054046e-02
7.623378e-02
9.142615e-02
1.060829e-01
1.201457e-01
1.335526e-01
1.462487e-01
1.581942e-01
1.693815e-01
1.798552e-01
1.897085e-01
1.990490e-01
2.079673e-01
2.165434e-01
2.248746e-01
2.330888e-01
2.413336e-01
2.497638e-01
2.585383e-01
2.678166e-01
2.777451e-01
2.884447e-01
3.000041e-01
3.124651e-01
3.257914e-01
3.398521e-01
3.544552e-01
3.694189e-01
3.846335e-01
4.000782e-01
4.157920e-01
4.318257e-01
4.482004e-01
4.648878e-01
4.818136e-01
4.988790e-01
5.159860e-01
5.330584e-01
5.500487e-01
5.669312e-01
5.836908e-01
6.003108e-01
6.167638e-01
6.330159e-01
6.490392e-01
6.648108e-01
6.802970e-01
6.954481e-01
7.102126e-01
7.245558e-01
7.384718e-01
7.519765e-01
7.650857e-01
7.778084e-01
7.901595e-01
8.021723e-01
8.138920e-01
8.253583e-01
8.365960e-01
8.476287e-01
8.585014e-01
8.692739e-01
8.799863e-01
8.906341e-01
9.011770e-01
9.115711e-01
9.217951e-01
9.318473e-01
