EVENT_NAME: L_AQUILA
EVENT_ID: IT-2009-0009
EVENT_DATE_YYYYMMDD: 20090406
EVENT_TIME_HHMMSS: 013240
EVENT_LATITUDE_DEGREE: 42.3420
EVENT_LONGITUDE_DEGREE: 13.3800
EVENT_DEPTH_KM: 8.3
HYPOCENTER_REFERENCE: INGV-CNT_Seismic_Bulletin
MAGNITUDE_W: 6.1
MAGNITUDE_W_REFERENCE: INGV-CNT_Seismic_Bulletin
MAGNITUDE_L: 
MAGNITUDE_L_REFERENCE: 
FOCAL_MECHANISM: Normal faulting
NETWORK: IT
STATION_CODE: CLN
STATION_NAME: 
STATION_LATITUDE_DEGREE: 42.085224
STATION_LONGITUDE_DEGREE: 13.520722
STATION_ELEVATION_M: 796
LOCATION: 
SENSOR_DEPTH_M: 0.0
VS30_M/S: 
SITE_CLASSIFICATION_EC8: B (inferred from geology)
MORPHOLOGIC_CLASSIFICATION: 
EPICENTRAL_DISTANCE_KM: 30.8
EARTHQUAKE_BACKAZIMUTH_DEGREE: 157.8
DATE_TIME_FIRST_SAMPLE_YYYYMMDD_HHMMSS: 20090406_013217.000
DATE_TIME_FIRST_SAMPLE_PRECISION: seconds
SAMPLING_INTERVAL_S: 0.005000
NDATA: 18000
DURATION_S: 90.000
STREAM: HNN
UNITS: cm/s
INSTRUMENT: sensor = Episensor FBA ES-T [Kinemetrics] | digitizer = Etna [Kinemetrics]
INSTRUMENT_ANALOG/DIGITAL: D
INSTRUMENTAL_FREQUENCY_HZ: 
INSTRUMENTAL_DAMPING: 
FULL_SCALE_G: 
N_BIT_DIGITAL_CONVERTER: 18
PGV_CM/S: -6.630280
TIME_PGV_S: 37.020000
BASELINE_CORRECTION: BASELINE REMOVED
FILTER_TYPE: BUTTERWORTH
FILTER_ORDER: 2
LOW_CUT_FREQUENCY_HZ: 0.050
HIGH_CUT_FREQUENCY_HZ: 40.000
LATE/NORMAL_TRIGGERED: NT
DATABASE_VERSION: 0.5
HEADER_FORMAT: DYNA 1.2
DATA_TYPE: VELOCITY
PROCESSING: manual (Paolucci et al., 2011)
DATA_TIMESTAMP_YYYYMMDD_HHMMSS: 20211011_155941.891
DATA_LICENSE: CC-BY3_0-IT (http://creativecommons.org/licenses/by/3.0/deed.en)
DATA_CITATION: Luzi L, Pacor F, Puglia R (2019). Italian Accelerometric Archive v 3.0 - Istituto Nazionale di Geofisica e Vulcanologia, Dipartimento della Protezione Civile Nazionale. doi: 10.13127/itaca.3.1
DATA_CREATOR: ITACA working group
ORIGINAL_DATA_MEDIATOR_CITATION: data obtained within the DPC-INGV data exchange agreements
ORIGINAL_DATA_MEDIATOR: Archive of Italian Department of Civil Protection
ORIGINAL_DATA_CREATOR_CITATION: Presidency Of Counsil Of Ministers-Civil Protection Department. (1972). Italian Strong Motion Network. Presidency of Counsil of Ministers - Civil Protection Department. https://doi.org/10.7914/SN/IT http://www.fdsn.org/networks/detail/IT/
ORIGINAL_DATA_CREATOR: network: IT (Italian Strong Motion Network (RAN)); owner: Presidency of Counsil of Ministers - Civil Protection Department (PCM - DPC)
USER1: 
USER2: 
USER3: 
USER4: 
USER5: 
[...]
-0.028488
-0.027322
-0.023656
-0.018912
-0.014523
-0.010701
-0.006356
-0.000289
0.007460
0.015226
0.020622
0.022180
0.020148
0.015429
0.008373
-0.000432
-0.008888
-0.014675
-0.017990
-0.021617
-0.027721
-0.035276
-0.040904
-0.041885
-0.038635
-0.034939
-0.035524
-0.042616
-0.054549
-0.067289
-0.076969
-0.081615
-0.081475
-0.078259
-0.074183
-0.071229
-0.070569
-0.072158
-0.074576
-0.075310
-0.072247
-0.065844
-0.059268
-0.055442
-0.054181
-0.052886
-0.049944
-0.046745
-0.046038
-0.049039
-0.054939
-0.062671
-0.071861
-0.081947
-0.091535
-0.099366
-0.105441
-0.110673
-0.115612
-0.119732
-0.121742
-0.120270
-0.114380
-0.104025
-0.090178
-0.074269
-0.057558
-0.041392
-0.027671
-0.018121
-0.012722
-0.009408
-0.005852
-0.001461
0.002467
0.004332
0.003652
0.000586
-0.005531
-0.015958
-0.030351
-0.045585
-0.057479
-0.063886
-0.066393
-0.069258
-0.076367
-0.088555
-0.103363
-0.117002
-0.126673
-0.132137
-0.135723
-0.140186
-0.146087
-0.151627
-0.154856
-0.155353
-0.153706
-0.150025
-0.143911
-0.135958
-0.127977
-0.120889
-0.113234
-0.102383
-0.086752
-0.067010
-0.046123
-0.028495
-0.018390
-0.018102
-0.026428
-0.038538
-0.048505
-0.053208
-0.054053
-0.055159
-0.060351
-0.071162
-0.085946
-0.100457
-0.110455
-0.114420
-0.113817
-0.111303
-0.109175
-0.108670
-0.109545
-0.110452
-0.110297
-0.108913
-0.106057
-0.100354
-0.090140
-0.075679
-0.060504
-0.049529
-0.044416
-0.041266
-0.034249
-0.021216
-0.005382
0.007741
0.014759
0.016477
0.016250
0.016306
0.015272
0.008847
-0.006828
-0.031579
-0.060404
-0.086580
-0.105980
-0.118524
-0.126093
-0.129831
-0.129194
-0.122886
-0.110586
-0.093874
-0.075834
-0.060264
-0.050591
-0.047735
-0.048417
-0.046515
-0.037293
-0.021351
-0.004671
0.005946
0.008009
0.004155
-0.001115
-0.004711
-0.005859
-0.005318
-0.004119
-0.002677
-0.000944
0.000894
0.002328
0.003201
0.004175
0.006074
0.008668
0.010825
0.012346
0.015181
0.022319
0.035544
0.053792
0.073022
0.088484
0.098351
0.104934
0.111991
0.121422
0.132474
0.142988
0.150648
0.153382
0.149737
0.139768
0.125468
0.109520
0.093380
0.076941
0.059556
0.040602
0.019870
-0.001371
-0.020288
-0.034405
-0.043122
-0.047101
-0.047144
-0.044184
-0.039677
-0.035524
-0.033620
-0.035054
-0.039176
-0.043739
-0.046640
-0.047627
-0.048272
-0.050948
-0.058041
-0.070581
-0.086129
-0.098463
-0.101011
-0.092271
-0.078404
-0.069376
-0.071486
-0.083676
-0.100687
-0.118566
-0.136824
-0.156660
-0.178331
-0.199901
-0.218110
-0.230878
-0.238802
-0.243742
-0.246447
-0.246283
-0.242789
-0.236326
-0.227490
-0.217305
-0.207871
-0.201039
-0.196133
-0.190376
-0.181769
-0.170566
-0.158172
-0.145977
-0.135724
-0.130188
-0.131906
-0.140375
-0.151322
-0.159647
-0.162841
-0.161339
-0.156356
-0.148309
-0.137336
-0.124566
-0.112240
-0.102800
-0.098512
-0.101716
-0.113875
-0.133269
-0.154368
-0.170752
-0.179302
-0.181848
-0.182958
-0.185883
-0.190008
-0.191780
-0.187820
-0.176810
-0.159332
-0.138040
-0.118240
-0.105855
-0.103275
-0.107964
-0.115369
-0.121989
-0.125571
-0.124616
-0.119821
-0.115400
-0.117173
-0.128621
-0.148433
-0.170860
-0.188506
-0.196690
-0.196881
-0.196571
-0.205556
-0.230539
-0.270795
-0.317762
-0.359261
-0.385243
-0.390926
-0.376617
-0.346804
-0.309643
-0.274899
-0.249634
-0.234720
-0.225753
-0.217897
-0.210018
-0.204025
-0.200811
-0.197866
-0.191173
-0.179050
-0.163914
-0.150278
-0.140861
-0.134392
-0.127167
-0.116717
-0.104073
-0.093089
-0.088051
-0.091392
-0.102312
-0.116572
-0.128075
-0.132102
-0.128104
-0.119742
-0.112203
-0.109072
-0.110610
-0.113892
-0.114681
-0.110548
-0.103547
-0.100036
-0.106627
-0.124491
-0.147227
-0.165618
-0.174801
-0.175788
-0.171154
-0.162114
-0.149815
-0.136872
-0.126776
-0.123061
-0.128763
-0.144601
-0.167058
-0.189282
-0.204513
-0.209287
-0.204778
-0.196222
-0.190824
-0.194755
-0.210445
-0.235750
-0.264928
-0.290108
-0.303707
-0.302442
-0.289996
-0.274804
-0.264563
-0.262173
-0.265101
-0.267072
-0.260972
-0.242506
-0.213969
-0.185393
-0.169060
-0.169655
-0.179906
-0.186560
-0.180291
-0.161252
-0.137761
-0.120186
-0.114459
-0.119689
-0.130130
-0.138630
-0.140069
-0.133584
-0.121542
-0.105999
-0.086826
-0.064462
-0.044483
-0.037143
-0.049552
-0.077857
-0.108719
-0.129241
-0.135367
-0.131914
-0.127158
-0.128300
-0.139700
-0.161950
-0.191082
-0.219639
-0.240402
-0.250368
-0.251604
-0.248499
-0.244499
-0.240631
-0.235427
-0.226244
-0.212290
-0.196475
-0.183159
-0.174414
-0.169292
-0.165654
-0.162006
-0.159144
-0.160887
-0.171815
-0.193273
-0.221504
-0.249853
-0.273857
-0.294870
-0.317401
-0.342571
-0.365693
-0.379833
-0.379724
-0.362636
-0.328136
-0.279542
-0.226543
-0.184008
-0.164450
-0.170853
-0.197530
-0.236158
-0.279200
-0.319519
-0.350222
-0.366721
-0.369092
-0.361464
-0.347984
-0.329691
-0.306313
-0.280475
-0.258510
-0.246720
-0.246925
-0.255257
-0.265836
-0.276238
-0.288430
-0.303880
-0.318977
-0.326166
-0.319388
-0.298977
-0.272244
-0.248362
-0.231229
-0.217023
-0.198385
-0.171202
-0.139222
-0.113553
-0.106050
-0.119829
-0.144330
-0.160589
-0.154532
-0.127559
-0.094372
-0.070613
-0.062526
-0.066407
-0.075326
-0.085663
-0.098590
-0.117284
-0.143712
-0.177110
-0.214205
-0.250784
-0.283594
-0.311315
-0.334192
-0.352372
-0.363933
-0.365485
-0.356723
-0.343978
-0.336691
-0.339968
-0.351999
-0.367543
-0.381103
-0.387871
-0.386267
-0.381208
-0.380969
-0.387786
-0.393939
-0.389152
-0.369843
-0.340587
-0.308814
-0.278745
-0.249354
-0.217707
-0.184089
-0.153534
-0.131901
-0.120340
-0.113984
-0.105973
-0.092516
-0.074919
-0.057802
-0.045186
-0.037505
-0.032121
-0.026245
-0.018629
-0.008946
0.003265
0.018282
0.034331
0.045768
0.044357
0.024181
-0.014151
-0.062752
-0.108395
-0.138516
-0.149896
-0.151016
-0.154569
-0.169363
-0.198930
-0.242637
-0.294575
-0.343695
-0.378587
-0.392856
-0.386626
-0.366039
-0.343320
-0.333425
-0.343896
-0.367127
-0.386154
-0.388268
-0.372942
-0.350973
-0.338109
-0.345449
-0.372443
-0.408710
-0.441786
-0.462882
-0.467489
-0.453951
-0.423505
-0.381603
-0.338616
-0.306872
-0.292100
-0.286205
-0.272164
-0.238657
-0.189864
-0.142695
-0.116399
-0.121555
-0.153193
-0.193326
-0.223065
-0.233856
-0.227451
-0.207645
-0.175785
-0.135574
-0.098675
-0.079739
-0.084516
-0.106177
-0.133506
-0.159038
-0.180028
-0.196229
-0.208015
-0.216671
-0.227836
-0.252104
-0.296051
-0.351100
-0.395722
-0.411727
-0.396980
-0.361904
-0.317970
-0.272080
-0.227851
-0.187652
-0.153580
-0.128338
-0.114836
-0.113020
-0.117778
-0.123626
-0.132213
-0.151225
-0.183656
-0.220346
-0.245509
-0.250394
-0.241810
-0.237098
-0.249910
-0.278925
-0.307541
-0.314264
-0.286299
-0.225934
-0.146895
-0.068148
-0.010019
0.012107
-0.001897
-0.034159
-0.061067
-0.068549
-0.055519
-0.027883
0.005648
0.035014
0.054163
0.067025
0.083127
0.105698
0.128202
0.142941
0.149464
0.154317
0.165729
0.190823
0.235497
0.300545
0.375020
0.436965
0.465333
0.453836
0.414125
0.367491
0.335057
0.330564
0.354536
0.394320
0.431903
0.452246
0.446991
0.415339
0.364192
0.306691
0.258404
0.232201
0.231765
0.246683
0.256804
0.245773
0.211849
0.166460
0.123646
0.091613
0.073881
0.076115
0.108632
0.180310
0.288175
0.412327
0.525392
0.610943
0.671165
0.717275
0.757898
0.797009
0.836057
0.872648
0.899011
0.906648
0.894828
0.873777
0.856823
0.847123
0.834044
0.806139
0.765900
0.728592
0.710313
0.720372
0.758932
0.814008
0.862752
0.884618
0.876460
0.852760
0.833293
0.831115
0.845758
0.863395
0.865897
0.843331
0.800384
0.753059
0.718989
0.708766
0.723991
0.758766
0.800042
0.831237
0.841512
0.831525
0.808846
0.779040
0.741080
0.690141
0.627438
0.567823
0.530638
0.519881
0.519434
0.510841
0.490678
0.468357
0.453596
0.448960
0.447675
0.436497
0.405362
0.354439
0.290549
0.220250
0.150663
0.095239
0.071135
0.088084
0.143326
0.224420
0.309996
0.374290
0.404514
0.413058
0.423771
0.447480
0.476534
0.498967
0.509710
0.509482
0.500911
0.490260
0.491039
0.519274
0.580128
0.658458
0.724257
0.751750
0.737404
0.701406
0.673087
0.673268
0.705092
0.755218
0.801641
0.826326
0.827402
0.820163
0.824552
0.850292
0.890458
0.925235
0.933220
0.904017
0.843348
0.768612
0.700237
0.653360
0.632695
0.633025
0.643954
0.654689
0.656314
0.642040
0.608082
0.556877
0.500224
0.458054
0.450422
0.486604
0.560175
0.653371
0.745258
0.818214
0.862105
0.876260
0.868523
0.853496
0.849635
0.871637
0.921441
0.985924
1.043703
1.076709
1.079287
1.058493
1.026917
0.996164
0.974557
0.966611
0.973199
0.992683
1.021886
1.055547
1.085354
1.102753
1.106324
1.105338
1.111820
1.128011
1.143782
1.147849
1.140884
1.137374
1.156382
1.208673
1.286174
1.362754
1.411172
1.421153
1.400034
1.361375
1.318024
1.280603
1.253059
1.227954
1.193889
1.153858
1.130832
1.147648
1.202926
1.270025
1.318910
1.337990
1.337356
1.337143
1.352389
1.381182
1.406225
1.411989
1.398475
1.376075
1.351285
1.321513
1.281703
1.231442
1.176543
1.127511
1.093599
1.073490
1.054508
1.026972
0.997753
0.983992
0.996292
1.033207
1.087524
1.152547
1.222486
1.286892
1.328374
1.333024
1.305504
1.271737
1.263822
1.298522
1.366259
1.437567
1.481438
1.484031
1.455899
1.423010
1.407458
1.412244
1.422833
1.421704
1.401333
1.368333
1.338476
1.324554
1.326769
1.337044
1.352027
1.376045
1.410178
1.446287
1.476301
1.501457
1.527755
1.556612
1.584418
1.608375
1.628036
1.642620
1.649496
1.643115
1.614968
1.560085
1.486423
1.413654
1.359533
1.328677
1.312695
1.296391
1.264807
1.210941
1.142448
1.080820
1.049442
1.059304
1.103641
1.160851
1.202885
1.209632
1.179508
1.124695
1.059211
0.994728
0.941658
0.904555
0.875879
0.840916
0.790620
0.726164
0.652143
0.571899
0.491054
0.420149
0.371579
0.356688
0.382722
0.441971
0.502534
0.525197
0.500022
0.458330
0.441454
0.463903
0.510803
0.561787
0.607442
0.645258
0.670432
0.675632
0.655661
0.608909
0.538078
0.454068
0.376219
0.323022
0.301590
0.307617
0.333173
0.370077
0.409570
0.447739
0.491089
0.551187
0.632844
0.727290
0.815094
0.876352
0.900752
0.890737
0.857914
0.817875
0.786712
0.778755
0.802949
0.857451
0.927912
0.994625
1.044951
1.080322
1.111379
1.147819
1.193540
1.246783
1.300167
1.341713
1.358908
1.344238
1.298730
1.229448
1.144265
1.051565
0.961167
0.880233
0.810549
0.752580
0.709562
0.684418
0.673969
0.671148
0.674239
0.689190
0.720635
0.764050
0.806927
0.834754
0.837948
0.816232
0.776816
0.730728
0.693052
0.682679
0.713844
0.783450
0.869279
0.944630
0.993854
1.013687
1.007030
0.981344
0.950521
0.933761
0.946182
0.984062
1.022909
1.036018
1.012907
0.961781
0.903293
0.861275
0.849810
0.865347
0.892038
0.913472
0.918720
0.900186
0.852019
0.774974
0.678676
0.573873
0.466423
0.363843
0.282821
0.241936
0.245042
0.274547
0.301963
0.304155
0.272466
0.214585
0.151211
0.104891
0.086864
0.093305
0.111362
0.128374
0.138935
0.145691
0.154619
0.169681
0.190124
0.210830
0.223597
0.218708
0.189232
0.135377
0.063238
-0.020226
-0.109573
-0.198766
-0.279821
-0.346361
-0.397361
-0.435695
-0.463063
-0.475775
-0.465338
-0.423187
-0.344316
-0.228333
-0.081854
0.077450
0.223129
0.333253
0.403896
0.448315
0.483217
0.516791
0.549180
0.580932
0.616861
0.661468
0.712083
0.756310
0.777781
0.768766
0.739257
0.711360
0.702494
0.714567
0.738595
0.765997
0.793048
0.818796
0.846281
0.883289
0.932827
0.986244
1.033897
1.075873
1.113813
1.139873
1.143663
1.126492
1.099993
1.070632
1.032884
0.979657
0.912376
0.838122
0.765154
0.705471
0.673603
0.675723
0.702748
0.738730
0.774199
0.808064
0.840003
0.867080
0.887521
0.903328
0.917849
0.932744
0.947911
0.962708
0.976489
0.989458
1.004275
1.024674
1.049470
1.070341
1.080869
1.087359
1.105660
1.144725
1.194057
1.229120
1.231415
1.204206
1.168555
1.145877
1.144273
1.156048
1.164035
1.153654
1.124029
1.087520
1.059043
1.048797
1.062348
1.100564
1.156478
1.214297
1.255764
1.271081
1.264713
1.250388
1.241147
1.244041
1.259584
1.281341
1.297292
1.294466
1.264060
1.205956
1.131668
1.061636
1.014336
0.992681
0.980932
0.958148
0.914713
0.855344
0.789744
0.723133
0.654211
0.578941
0.493559
0.394204
0.275881
0.131369
-0.049523
-0.274437
-0.536168
-0.808221
-1.059381
-1.274996
-1.463145
-1.641157
-1.818649
-1.993187
-2.156511
-2.299745
-2.415833
-2.504199
-2.574257
-2.640141
-2.709789
-2.781262
-2.850757
-2.921416
-3.002607
-3.103034
-3.225737
-3.365650
-3.508863
-3.637829
-3.741973
-3.824131
-3.896935
-3.973444
-4.060442
-4.157948
-4.261166
-4.362889
-4.459016
-4.553330
-4.653770
-4.763290
-4.875403
-4.977957
-5.060722
-5.120672
-5.162098
-5.193334
-5.223398
-5.260030
-5.309740
-5.379822
-5.478646
-5.610790
-5.771026
-5.944155
-6.111122
-6.256780
-6.375184
-6.469328
-6.544592
-6.600835
-6.630280
-6.622641
-6.572843
-6.485114
-6.369321
-6.233524
-6.081830
-5.917931
-5.747493
-5.578132
-5.418978
-5.278962
-5.164684
-5.079958
-5.024761
-4.992158
-4.967516
-4.934044
-4.881537
-4.809254
-4.719299
-4.609503
-4.474497
-4.312275
-4.130015
-3.945500
-3.782099
-3.658430
-3.578862
-3.532562
-3.502288
-3.474864
-3.444850
-3.412388
-3.381470
-3.358213
-3.345741
-3.339336
-3.326943
-3.293846
-3.228795
-3.129833
-3.004647
-2.862590
-2.705517
-2.525922
-2.311576
-2.050605
-1.734649
-1.362160
-0.942832
-0.500492
-0.068200
0.327609
0.682511
1.011699
1.331774
1.646159
1.946054
2.222560
2.476907
2.718457
2.954726
3.186795
3.412875
3.632373
3.847314
4.062151
4.279901
4.494774
4.689125
4.841053
4.936409
4.972643
4.953097
4.882926
4.771353
4.631615
4.475873
4.315084
4.164169
4.038850
3.943015
3.863429
3.780559
3.684203
3.578800
3.477192
3.393704
3.340504
3.318554
3.305397
3.259665
3.146259
2.957808
2.713373
2.442971
2.178462
1.954931
1.804303
1.734976
1.722249
1.726369
1.719039
1.693314
1.656625
1.619850
1.590998
1.576312
1.584153
1.623681
1.698789
1.805153
1.932906
2.070937
2.208980
2.333984
2.424856
2.459709
2.434779
2.370573
2.293529
2.215455
2.134686
2.052241
1.980413
1.935424
1.926052
1.952951
2.015500
2.112133
2.233570
2.360382
2.470835
2.553141
2.610946
2.659891
2.720550
2.808870
2.928267
3.069648
3.215732
3.345377
3.439043
3.484102
3.477266
3.422775
3.327288
3.194994
3.027420
2.829161
2.611330
2.386975
2.166512
1.956393
1.754809
1.548529
1.319241
1.053280
0.744570
0.395175
0.022238
-0.336794
-0.635720
-0.842738
-0.953886
-0.987192
-0.967945
-0.918797
-0.856312
-0.788376
-0.712839
-0.626159
-0.540830
-0.485636
-0.477855
-0.505293
-0.543992
-0.581756
-0.618931
-0.655590
-0.683273
-0.689295
-0.668714
-0.630187
-0.590022
-0.561233
-0.546436
-0.538225
-0.524404
-0.494269
-0.443222
-0.372628
-0.286818
-0.193896
-0.109617
-0.054763
-0.042895
-0.069495
-0.114203
-0.155120
-0.184280
-0.212587
-0.260964
-0.348368
-0.486196
-0.672294
-0.880130
-1.059822
-1.164069
-1.176676
-1.110955
-0.986103
-0.816580
-0.620845
-0.426705
-0.260966
-0.132904
-0.028670
0.075574
0.195709
0.336668
0.500086
0.683102
0.868063
1.023710
1.124750
1.167956
1.166385
1.133493
1.077701
1.006930
0.930260
0.854116
0.778824
0.698026
0.599914
0.471553
0.308801
0.125317
-0.053000
-0.207262
-0.338707
-0.462681
-0.591888
-0.724542
-0.845547
-0.938884
-0.999674
-1.034419
-1.053006
-1.064118
-1.074764
-1.088147
-1.102051
-1.111527
-1.112801
-1.105091
-1.089172
-1.064283
-1.028772
-0.983456
-0.930967
-0.872320
-0.805699
-0.727383
-0.633731
-0.523882
-0.401960
-0.277516
-0.162639
-0.066139
0.010332
0.070726
0.120558
0.164277
0.205274
0.249153
0.305890
0.383881
0.480091
0.578552
0.659364
0.709216
0.726874
0.721423
0.702970
0.673942
0.630322
0.568519
0.489696
0.400356
0.309052
0.220339
0.130763
0.030424
-0.092067
-0.246246
-0.437171
-0.659188
-0.891038
-1.102473
-1.270907
-1.393613
-1.484189
-1.558551
-1.624909
-1.684054
-1.735644
-1.783718
-1.836914
-1.903883
-1.988397
-2.087495
-2.192877
-2.294732
-2.385379
-2.459302
-2.510939
-2.534357
-2.525261
-2.482967
-2.411217
-2.317902
-2.214299
-2.114661
-2.034876
-1.987571
-1.975627
-1.990755
-2.019563
-2.051437
-2.082524
-2.115974
-2.159040
-2.216658
-2.286455
-2.360007
-2.428162
-2.486741
-2.538475
-2.588590
-2.639368
-2.689197
-2.733343
-2.764448
-2.775560
-2.765227
-2.739737
-2.710371
-2.688006
-2.677702
-2.675852
-2.672801
-2.659921
-2.634974
-2.601791
-2.568652
-2.548774
-2.557306
-2.603428
-2.686650
-2.800314
-2.935315
-3.080471
-3.223069
-3.353201
-3.469085
-3.577386
-3.688853
-3.814029
-3.958789
-4.118194
-4.274706
-4.406043
-4.496395
-4.542168
-4.551260
-4.537648
-4.513196
-4.481979
-4.441647
-4.390109
-4.330379
-4.268742
-4.209167
-4.149493
-4.082350
-4.000847
-3.903633
-3.792903
-3.668040
-3.523062
-3.350598
-3.149032
-2.926087
-2.695163
-2.469486
-2.257581
-2.059252
-1.866852
-1.673007
-1.475770
-1.276584
-1.077008
-0.880292
-0.694404
-0.529977
-0.394996
-0.292609
-0.223947
-0.191824
-0.199009
-0.241398
-0.304444
-0.367733
-0.414894
-0.442027
-0.458382
-0.479355
-0.516749
-0.571789
-0.635455
-0.695127
-0.742033
-0.775555
-0.802190
-0.829554
-0.861000
-0.895396
-0.930409
-0.966377
-1.009304
-1.069979
-1.157446
-1.272037
-1.404886
-1.541930
-1.666647
-1.762750
-1.819607
-1.836788
-1.823557
-1.794855
-1.767047
-1.754531
-1.767296
-1.808601
-1.873480
-1.951865
-2.035106
-2.120272
-2.211843
-2.320849
-2.458664
-2.628499
-2.820922
-3.016017
-3.191645
-3.332070
-3.430352
-3.486105
-3.503701
-3.492683
-3.468471
-3.448723
-3.445476
-3.459187
-3.479373
-3.491572
-3.484842
-3.454623
-3.402168
-3.332556
-3.251867
-3.165222
-3.076348
-2.988108
-2.902855
-2.821585
-2.743796
-2.668596
-2.593771
-2.513827
-2.421577
-2.311836
-2.183430
-2.041280
-1.897795
-1.767094
-1.655277
-1.558841
-1.471263
-1.387560
-1.303670
-1.213835
-1.111465
-0.995887
-0.875815
-0.763175
-0.666707
-0.592051
-0.542094
-0.514183
-0.499820
-0.489445
-0.476289
-0.455695
-0.423842
-0.377845
-0.316495
-0.241766
-0.159022
-0.075043
0.004412
0.077050
0.144457
0.209174
0.273182
0.339657
0.411552
0.485607
0.550923
0.597048
0.623152
0.638106
0.652924
0.674488
0.704896
0.742886
0.783692
0.819577
0.842896
0.848341
0.833935
0.803364
0.766310
0.733154
0.709197
0.693393
0.679586
0.658964
0.624804
0.577346
0.525127
0.481548
0.458161
