EVENT_NAME: L_AQUILA
EVENT_ID: IT-2009-0009
EVENT_DATE_YYYYMMDD: 20090406
EVENT_TIME_HHMMSS: 013240
EVENT_LATITUDE_DEGREE: 42.3420
EVENT_LONGITUDE_DEGREE: 13.3800
EVENT_DEPTH_KM: 8.3
HYPOCENTER_REFERENCE: INGV-CNT_Seismic_Bulletin
MAGNITUDE_W: 6.1
MAGNITUDE_W_REFERENCE: INGV-CNT_Seismic_Bulletin
MAGNITUDE_L: 
MAGNITUDE_L_REFERENCE: 
FOCAL_MECHANISM: Normal faulting
NETWORK: IT
STATION_CODE: CLN
STATION_NAME: 
STATION_LATITUDE_DEGREE: 42.085224
STATION_LONGITUDE_DEGREE: 13.520722
STATION_ELEVATION_M: 796
LOCATION: 
SENSOR_DEPTH_M: 0.0
VS30_M/S: 
SITE_CLASSIFICATION_EC8: B (inferred from geology)
MORPHOLOGIC_CLASSIFICATION: 
EPICENTRAL_DISTANCE_KM: 30.8
EARTHQUAKE_BACKAZIMUTH_DEGREE: 157.8
DATE_TIME_FIRST_SAMPLE_YYYYMMDD_HHMMSS: 
DATE_TIME_FIRST_SAMPLE_PRECISION: 
SAMPLING_INTERVAL_S: 
NDATA: 105
DURATION_S: 
STREAM: HNZ
UNITS: cm/s^2
INSTRUMENT: sensor = Episensor FBA ES-T [Kinemetrics] | digitizer = Etna [Kinemetrics]
INSTRUMENT_ANALOG/DIGITAL: D
INSTRUMENTAL_FREQUENCY_HZ: 
INSTRUMENTAL_DAMPING: 
FULL_SCALE_G: 
N_BIT_DIGITAL_CONVERTER: 18
PGA_CM/S^2: 43.934682
TIME_PGA_S: 
BASELINE_CORRECTION: BASELINE REMOVED
FILTER_TYPE: BUTTERWORTH
FILTER_ORDER: 2
LOW_CUT_FREQUENCY_HZ: 0.050
HIGH_CUT_FREQUENCY_HZ: 40.000
LATE/NORMAL_TRIGGERED: NT
DATABASE_VERSION: 0.5
HEADER_FORMAT: DYNA 1.2
DATA_TYPE: ACCELERATION RESPONSE SPECTRUM
PROCESSING: manual (Paolucci et al., 2011)
DATA_TIMESTAMP_YYYYMMDD_HHMMSS: 20211011_155943.091
DATA_LICENSE: CC-BY3_0-IT (http://creativecommons.org/licenses/by/3.0/deed.en)
DATA_CITATION: Luzi L, Pacor F, Puglia R (2019). Italian Accelerometric Archive v 3.0 - Istituto Nazionale di Geofisica e Vulcanologia, Dipartimento della Protezione Civile Nazionale. doi: 10.13127/itaca.3.1
DATA_CREATOR: ITACA working group
ORIGINAL_DATA_MEDIATOR_CITATION: data obtained within the DPC-INGV data exchange agreements
ORIGINAL_DATA_MEDIATOR: Archive of Italian Department of Civil Protection
ORIGINAL_DATA_CREATOR_CITATION: Presidency Of Counsil Of Ministers-Civil Protection Department. (1972). Italian Strong Motion Network. Presidency of Counsil of Ministers - Civil Protection Department. https://doi.org/10.7914/SN/IT http://www.fdsn.org/networks/detail/IT/
ORIGINAL_DATA_CREATOR: network: IT (Italian Strong Motion Network (RAN)); owner: Presidency of Counsil of Ministers - Civil Protection Department (PCM - DPC)
USER1: 
USER2: 
USER3: 
USER4: 
USER5: 
    0.010000    44.359192
    0.020000    45.641319
    0.022000    45.874207
    0.025000    46.578575
    0.029000    46.332684
    0.030000    48.824219
    0.032000    50.262451
    0.035001    61.376873
    0.036000    62.595768
    0.040000    61.319382
    0.041999    60.670830
    0.044001    57.170475
    0.045000    59.806004
    0.046000    63.565983
    0.048001    65.435753
    0.050000    59.512341
    0.054999    62.057819
    0.059999    61.429203
    0.064998    69.891411
    0.067002    71.434883
    0.069999    70.757126
    0.075002    80.658409
    0.080000    98.534248
    0.084998   108.043999
    0.090001   113.923019
    0.095003   127.064392
    0.100000   129.625610
    0.109999   101.809723
    0.120005    91.017746
    0.130005   106.863152
    0.132996   104.814964
    0.139997   116.651962
    0.149993   128.702499
    0.160000   115.172653
    0.170010    92.153229
    0.179986    88.580574
    0.190006    93.648407
    0.200000    87.263885
    0.220022   103.000572
    0.239981   127.179596
    0.250000   115.597237
    0.260010   110.121254
    0.280034   103.421913
    0.290023    92.880486
    0.300030    82.343071
    0.320000    73.437645
    0.340020    80.339928
    0.350017    84.328896
    0.359971    88.107979
    0.379939    76.440102
    0.400000    61.524029
    0.419992    52.792236
    0.439947    60.783939
    0.450045    61.834721
    0.459982    61.554703
    0.480077    60.568291
    0.500000    57.826149
    0.550055    51.007759
    0.599880    51.016842
    0.650195    47.078320
    0.667111    46.992111
    0.699790    47.161995
    0.750188    47.019215
    0.800000    46.893391
    0.850340    43.865734
    0.900090    41.446598
    0.949668    41.195530
    1.000000    41.086720
    1.100110    48.794003
    1.200480    53.498322
    1.300390    52.480221
    1.400560    50.538467
    1.499250    46.495251
    1.600000    41.707520
    1.700680    40.038006
    1.798561    38.259434
    1.901141    35.596134
    2.000000    34.280258
    2.197802    30.836275
    2.398082    25.770370
    2.500000    23.015526
    2.597403    20.713375
    2.801121    17.752228
    3.003003    15.814182
    3.205128    14.143046
    3.401361    12.534262
    3.496503    11.753464
    3.597122    11.002266
    3.802281     9.611197
    4.000000     8.381246
    4.201681     7.314566
    4.405286     6.403391
    4.608295     5.631737
    4.807692     5.106230
    5.000000     4.651570
    5.494505     3.641390
    5.988024     2.809521
    6.493506     2.254697
    6.993007     1.911065
    7.518797     1.650194
    8.000000     1.444273
    8.474576     1.277327
    9.009009     1.139240
    9.523809     1.022887
   10.000000     0.923388
