EVENT_NAME: L_AQUILA
EVENT_ID: IT-2009-0009
EVENT_DATE_YYYYMMDD: 20090406
EVENT_TIME_HHMMSS: 013240
EVENT_LATITUDE_DEGREE: 42.3420
EVENT_LONGITUDE_DEGREE: 13.3800
EVENT_DEPTH_KM: 8.3
HYPOCENTER_REFERENCE: INGV-CNT_Seismic_Bulletin
MAGNITUDE_W: 6.1
MAGNITUDE_W_REFERENCE: INGV-CNT_Seismic_Bulletin
MAGNITUDE_L: 
MAGNITUDE_L_REFERENCE: 
FOCAL_MECHANISM: Normal faulting
NETWORK: IT
STATION_CODE: CLN
STATION_NAME: 
STATION_LATITUDE_DEGREE: 42.085224
STATION_LONGITUDE_DEGREE: 13.520722
STATION_ELEVATION_M: 796
LOCATION: 
SENSOR_DEPTH_M: 0.0
VS30_M/S: 
SITE_CLASSIFICATION_EC8: B (inferred from geology)
MORPHOLOGIC_CLASSIFICATION: 
EPICENTRAL_DISTANCE_KM: 30.8
EARTHQUAKE_BACKAZIMUTH_DEGREE: 157.8
DATE_TIME_FIRST_SAMPLE_YYYYMMDD_HHMMSS: 20090406_013217.000
DATE_TIME_FIRST_SAMPLE_PRECISION: seconds
SAMPLING_INTERVAL_S: 0.005000
NDATA: 18000
DURATION_S: 90.000
STREAM: HNE
UNITS: cm/s^2
INSTRUMENT: sensor = Episensor FBA ES-T [Kinemetrics] | digitizer = Etna [Kinemetrics]
INSTRUMENT_ANALOG/DIGITAL: D
INSTRUMENTAL_FREQUENCY_HZ: 
INSTRUMENTAL_DAMPING: 
FULL_SCALE_G: 
N_BIT_DIGITAL_CONVERTER: 18
PGA_CM/S^2: -79.785286
TIME_PGA_S: 37.540000
BASELINE_CORRECTION: BASELINE REMOVED
FILTER_TYPE: BUTTERWORTH
FILTER_ORDER: 2
LOW_CUT_FREQUENCY_HZ: 0.050
HIGH_CUT_FREQUENCY_HZ: 40.000
LATE/NORMAL_TRIGGERED: NT
DATABASE_VERSION: 0.5
HEADER_FORMAT: DYNA 1.2
DATA_TYPE: ACCELERATION
PROCESSING: manual (Paolucci et al., 2011)
DATA_TIMESTAMP_YYYYMMDD_HHMMSS: 20211011_155941.114
DATA_LICENSE: CC-BY3_0-IT (http://creativecommons.org/licenses/by/3.0/deed.en)
DATA_CITATION: Luzi L, Pacor F, Puglia R (2019). Italian Accelerometric Archive v 3.0 - Istituto Nazionale di Geofisica e Vulcanologia, Dipartimento della Protezione Civile Nazionale. doi: 10.13127/itaca.3.1
DATA_CREATOR: ITACA working group
ORIGINAL_DATA_MEDIATOR_CITATION: data obtained within the DPC-INGV data exchange agreements
ORIGINAL_DATA_MEDIATOR: Archive of Italian Department of Civil Protection
ORIGINAL_DATA_CREATOR_CITATION: Presidency Of Counsil Of Ministers-Civil Protection Department. (1972). Italian Strong Motion Network. Presidency of Counsil of Ministers - Civil Protection Department. https://doi.org/10.7914/SN/IT http://www.fdsn.org/networks/detail/IT/
ORIGINAL_DATA_CREATOR: network: IT (Italian Strong Motion Network (RAN)); owner: Presidency of Counsil of Ministers - Civil Protection Department (PCM - DPC)
USER1: 
USER2: 
USER3: 
USER4: 
USER5: 
[...]
-0.316804
0.069968
-0.391701
-0.874863
-0.714080
-0.122513
0.241994
0.154512
-0.009586
0.191444
0.787603
1.402628
1.644464
1.434057
0.940697
0.326487
-0.349093
-1.012449
-1.438154
-1.342050
-0.663270
0.309691
1.122859
1.441608
1.227879
0.799498
0.604471
0.689899
0.540034
-0.284351
-1.427475
-1.972197
-1.453106
-0.386834
0.278242
0.147809
-0.268932
-0.319823
-0.105393
-0.217787
-0.704181
-0.810996
0.020362
1.347465
2.295667
2.542207
2.394587
2.202297
1.986164
1.557190
0.841834
0.054178
-0.476165
-0.621147
-0.532988
-0.476546
-0.631779
-0.955665
-1.210561
-1.194132
-0.953414
-0.797655
-1.034809
-1.545151
-1.766403
-1.298920
-0.356551
0.424609
0.453458
-0.365094
-1.474222
-2.141342
-2.048971
-1.298290
-0.151786
1.024862
1.823919
2.055833
1.897771
1.632369
1.342676
0.924313
0.321009
-0.190227
-0.119758
0.668600
1.798288
2.822643
3.458816
3.412639
2.488448
1.021600
-0.227464
-0.810930
-0.975366
-1.159334
-1.319168
-1.019602
-0.081586
1.156845
2.162390
2.578731
2.357521
1.697877
0.917605
0.333151
0.131779
0.288867
0.605641
0.822199
0.767256
0.523122
0.477886
1.018689
1.989445
2.699849
2.678319
2.147114
1.596488
1.128825
0.484024
-0.369316
-1.011471
-1.038863
-0.587335
-0.261948
-0.558223
-1.439179
-2.417924
-2.967477
-2.897804
-2.346581
-1.513177
-0.576219
0.250927
0.821129
1.164850
1.355275
1.386593
1.336965
1.404581
1.525829
1.218220
0.103430
-1.559223
-3.055279
-3.867382
-4.016798
-3.793831
-3.336983
-2.608786
-1.758644
-1.237540
-1.304455
-1.621096
-1.546146
-0.675014
0.908118
2.670899
3.910903
4.164937
3.460331
2.199340
0.796968
-0.468449
-1.254274
-1.212750
-0.568248
-0.303220
-1.196808
-2.704882
-3.361606
-2.381121
-0.375063
1.516046
2.681812
3.142230
3.081896
2.652699
2.044674
1.458129
1.018090
0.767458
0.744464
1.045488
1.657188
2.196785
2.082208
1.095981
-0.381548
-1.758015
-2.610220
-2.624414
-1.690592
-0.397440
0.151251
-0.479258
-1.468113
-1.733375
-1.088877
-0.044040
1.017086
2.006433
2.873635
3.503879
3.690236
3.165888
1.941603
0.568141
-0.331756
-0.701381
-0.843776
-0.847370
-0.676415
-0.550862
-0.722912
-1.079691
-1.396366
-1.707374
-2.081263
-2.325236
-2.152362
-1.523137
-0.781509
-0.444322
-0.740680
-1.333918
-1.589266
-1.143563
-0.195731
0.768910
1.487598
2.033505
2.485385
2.709362
2.559984
2.246984
2.281368
2.784203
3.056426
2.300286
0.605916
-1.192181
-2.351044
-2.546087
-1.800423
-0.579376
0.357112
0.680556
0.857461
1.400172
1.990103
1.785016
0.527017
-1.050618
-1.914189
-1.526327
-0.095509
1.615473
2.763772
2.888970
1.991317
0.391207
-1.302354
-2.323128
-2.252791
-1.501085
-0.924955
-0.780959
-0.471582
0.519053
1.825053
2.507176
2.004063
0.691526
-0.437209
-0.709752
-0.393790
-0.219929
-0.496368
-0.960816
-1.240569
-1.103339
-0.336852
1.180363
3.005840
4.052452
3.470686
1.609789
-0.178112
-0.798389
-0.328895
0.394187
0.828378
1.142008
1.693721
2.413380
2.840139
2.526547
1.357491
-0.294722
-1.744995
-2.441838
-2.311264
-1.751482
-1.251270
-0.921311
-0.445603
0.421059
1.405853
1.921732
1.691349
1.123275
1.040076
1.916135
3.353954
4.395475
4.354715
3.300746
1.892954
0.891658
0.553390
0.395768
-0.180354
-1.189165
-2.264095
-3.222459
-3.972664
-4.122483
-3.299141
-1.886843
-0.984714
-1.371160
-2.607957
-3.424345
-3.000062
-1.688669
-0.558795
-0.302654
-0.511673
-0.138597
1.330426
3.326391
4.698126
4.669693
3.424268
1.812373
0.514968
-0.311283
-0.541807
0.097999
1.308663
1.949465
1.155290
-0.548258
-1.860927
-2.181083
-1.870490
-1.481049
-1.319053
-1.488070
-1.862904
-2.060303
-1.791441
-1.131560
-0.263690
0.573676
0.915622
0.577428
0.233339
0.761075
1.935475
2.437187
1.506840
-0.081366
-1.245159
-2.030933
-3.035367
-3.964694
-3.712047
-1.848782
0.710985
2.728117
3.676251
3.658082
3.037022
2.351523
1.952854
1.578439
0.780815
-0.268474
-0.866341
-0.617805
0.209049
1.157267
1.961487
2.422551
2.472414
2.544088
3.263613
4.353783
4.484292
2.828350
0.131940
-2.227707
-3.481244
-3.503261
-2.498106
-0.992136
0.455678
1.675641
2.637005
2.936361
1.971552
-0.281513
-2.757845
-3.859858
-2.899463
-0.973859
0.020433
-0.583136
-1.624151
-1.747929
-1.069968
-0.739643
-1.206033
-1.687994
-1.361430
-0.349017
0.471767
0.125580
-1.789610
-4.499031
-6.188050
-5.323188
-2.029431
1.948554
4.764848
6.070401
6.727754
6.999422
6.123516
3.904800
1.644635
0.821963
1.476892
2.663635
3.788864
4.616738
4.513981
2.819221
0.262325
-1.115365
-0.145783
2.324774
4.632560
5.680434
5.249309
3.794576
2.089131
0.667386
-0.356856
-0.912735
-0.881583
-0.416684
-0.079456
-0.565288
-2.262739
-4.943798
-7.489146
-8.224627
-6.504469
-3.757228
-2.009115
-1.707432
-1.890344
-1.885281
-1.668724
-1.007449
0.517015
2.754142
5.053187
6.734990
6.960287
4.880826
0.754112
-3.511381
-5.702733
-5.153472
-2.945549
-0.610691
1.104779
2.628582
4.759858
7.057159
7.553081
4.916646
0.397828
-3.324485
-4.728207
-4.130993
-2.524706
-0.504328
1.672599
3.430448
4.075872
3.438921
1.841467
0.012885
-1.137390
-1.368236
-1.352318
-1.691654
-1.965860
-1.027586
1.732836
5.311001
7.292456
5.937432
2.267923
-0.923659
-2.057920
-1.916778
-2.081388
-3.175395
-4.912859
-6.649135
-7.275845
-5.907988
-3.294957
-1.439876
-1.213747
-1.390773
-0.512457
1.434183
3.543959
5.140866
5.807839
5.283535
4.120876
3.268799
2.437275
0.296314
-3.189119
-6.020054
-6.534884
-5.499736
-4.918087
-5.409135
-5.730230
-4.509321
-1.824437
0.558276
0.514691
-2.297893
-5.608925
-6.273366
-3.227784
1.418644
4.426855
4.199089
1.524076
-1.507365
-2.863604
-1.804859
0.709694
3.342160
5.831008
8.545868
10.873049
11.020907
7.982659
2.835166
-2.227531
-5.380817
-6.034979
-5.055579
-4.010878
-3.610614
-3.027251
-1.351164
0.781100
1.721175
0.759870
-0.990388
-1.889473
-1.458950
-0.449650
0.318300
0.718446
1.182925
2.523021
5.594042
10.167352
14.166761
14.666739
10.200890
2.477287
-4.533671
-8.181319
-9.723051
-12.089800
-15.427515
-16.629053
-13.510915
-8.112158
-4.412901
-3.242858
-2.199500
-0.488509
-0.079277
-1.662354
-2.689967
-0.605789
3.675795
7.016069
8.047958
8.369303
9.704743
11.669238
13.140373
13.692078
12.814760
9.778707
4.766440
-1.053756
-6.376980
-10.043429
-11.182034
-9.586545
-5.806016
-1.295984
1.885687
2.569453
1.468266
0.599604
1.740861
4.571768
6.718350
6.480683
4.480409
2.273238
0.628508
-0.737621
-2.160286
-2.888319
-2.089483
-0.636011
0.086036
0.325378
0.849532
0.598104
-2.104702
-6.249251
-8.698760
-8.208581
-6.702488
-6.221004
-6.134274
-4.717524
-2.322166
-0.593737
0.040472
-0.048155
-0.861200
-2.284535
-3.718725
-4.605560
-4.898713
-5.311177
-6.779690
-8.977722
-10.040900
-8.417243
-4.507225
-0.380071
1.545931
-0.106276
-4.703868
-9.910652
-13.027073
-12.585562
-9.180914
-4.560184
-0.249258
2.855713
4.216335
3.567970
1.509248
-0.420992
-0.933975
-0.169014
0.363525
-0.547951
-2.053719
-1.968422
0.569555
3.875656
5.469107
4.499184
2.100730
0.001792
-1.090029
-2.183289
-4.655153
-7.940781
-9.488365
-7.413625
-2.477645
2.415031
4.255920
2.268120
-1.418338
-3.689750
-3.172432
-1.093655
0.587567
1.407175
2.446814
4.487667
6.551232
6.900750
5.257878
2.805114
0.007694
-3.772505
-7.902363
-9.697543
-7.334737
-2.547628
0.918995
1.438000
0.626317
0.372163
0.809318
1.473914
2.486147
3.732417
4.074348
2.720166
0.643406
-0.737264
-1.069961
-0.077187
2.897159
7.245114
10.878572
12.409067
12.381975
11.824769
10.565993
7.941041
4.419190
1.381171
-0.400672
-1.238461
-1.708525
-1.679396
-0.270182
2.751250
5.773315
6.195110
2.941349
-2.177200
-6.522103
-8.990702
-9.503449
-7.973716
-5.041952
-2.948409
-3.929850
-7.288403
-9.369015
-7.298162
-2.152456
2.345622
3.821827
3.162946
2.535406
2.051738
-0.504582
-6.089557
-11.801580
-12.993572
-7.788360
0.877547
7.982929
10.668577
9.226821
5.682099
2.710670
2.180500
3.264709
2.716460
-1.434245
-6.619287
-8.372882
-6.129816
-3.684200
-4.066811
-6.549038
-8.124058
-6.113333
-0.396773
5.880547
8.379664
5.097999
-1.691454
-7.438679
-9.165924
-7.122079
-3.885248
-2.149078
-2.454985
-3.228338
-3.256984
-3.060528
-3.349070
-3.548006
-2.966279
-2.595747
-4.002209
-6.360441
-6.848830
-4.520610
-1.564295
-0.450655
-1.689017
-4.084311
-5.582008
-4.656051
-2.052031
-0.133841
-0.035806
-0.487854
0.146639
1.490129
2.007198
1.745570
2.006740
2.372030
0.828184
-2.966904
-7.000986
-9.556249
-10.671058
-11.029415
-11.059063
-10.807211
-9.497018
-6.290777
-1.896683
1.899682
4.107287
5.294474
6.727784
8.710052
9.873242
8.881436
6.672625
5.510995
5.907501
5.864999
2.955369
-2.861356
-8.155213
-9.151299
-5.762075
-1.114360
1.493055
0.544669
-2.799871
-5.478996
-5.095980
-2.087553
0.610798
0.505603
-1.782992
-3.274760
-2.113130
0.616128
2.798011
3.400650
2.230887
-1.024489
-6.474155
-12.363616
-15.230631
-13.509454
-9.746648
-7.732653
-8.330816
-9.262180
-8.473144
-6.228108
-3.863683
-2.149946
-1.418020
-2.067576
-3.954534
-5.556549
-4.849789
-1.585808
2.013212
3.510123
3.178554
3.962898
7.622300
12.054325
13.902574
12.597929
10.536846
9.809920
9.932880
9.312725
7.726999
6.137926
5.002872
3.795226
1.616426
-1.857904
-5.777043
-9.013355
-11.499170
-13.931669
-16.354286
-17.621614
-16.478004
-13.005628
-8.708157
-5.207689
-3.221868
-2.658019
-2.972575
-3.163493
-2.140855
0.075195
1.959397
2.168785
1.227191
0.722971
1.393016
2.648897
3.426101
3.327906
3.126598
3.689902
4.407431
3.478347
0.209330
-3.992968
-7.431180
-9.536040
-10.464850
-10.267081
-8.637629
-5.816941
-3.162668
-2.210071
-3.294718
-5.177096
-6.616759
-7.642303
-8.214346
-7.280115
-4.398699
-1.045431
0.618673
0.105876
-0.780016
-0.205938
1.414384
2.095058
0.611558
-2.181939
-4.153367
-4.184726
-3.641624
-5.035878
-9.051341
-13.621281
-16.266588
-16.297489
-14.225665
-10.366081
-5.264051
-0.523717
2.385906
3.412997
3.029909
1.575146
0.207939
0.743230
3.875342
8.501458
12.678656
14.801178
14.653251
13.710422
13.440894
13.317530
11.804869
8.870103
6.044617
4.490694
3.932279
3.154113
1.016716
-3.008118
-8.375638
-12.929013
-13.935016
-10.670696
-5.262987
-0.353095
3.062227
5.077208
5.866761
6.097979
6.881613
8.316630
9.095911
8.634757
8.536717
10.308939
12.815703
13.874222
13.316306
12.900031
13.782175
15.084335
14.759677
11.830702
7.885289
5.471948
5.302154
6.176474
6.599995
5.591900
3.215296
0.912744
0.609785
3.000309
6.441111
7.732161
4.966549
-0.114141
-3.523520
-3.042784
-0.218042
1.744055
1.463395
0.180095
-0.456561
-0.321754
-0.506397
-1.986038
-4.811852
-7.931580
-10.082562
-11.303579
-12.656645
-14.240783
-14.417291
-11.495130
-5.866445
0.062121
3.981804
5.410933
5.259698
4.371067
3.346251
2.787145
2.665832
2.383762
1.791281
1.369301
1.363291
1.165865
-0.144853
-2.649848
-5.384128
-7.217807
-7.670276
-7.322231
-7.458456
-8.701673
-10.235831
-10.863362
-10.411950
-9.549479
-8.560799
-7.034987
-4.670535
-2.044774
-0.659355
-1.717809
-4.471394
-6.607964
-6.732704
-5.787391
-5.517021
-6.085403
-6.222725
-5.328843
-4.040435
-3.101797
-2.878793
-3.478165
-4.470296
-4.900593
-4.153672
-2.466455
-0.172573
2.898212
6.691099
10.307517
12.665339
13.556608
13.778461
14.007652
13.926132
12.900929
10.979901
8.722793
6.395667
3.792836
1.020247
-0.874664
-0.822246
0.622059
1.568938
1.155308
0.461398
0.518802
0.636720
-0.526910
-3.061114
-5.843489
-8.018899
-9.506987
-10.509439
-11.362217
-12.496077
-13.977237
-15.103286
-14.919293
-13.515261
-12.217782
-11.948757
-11.963107
-10.583815
-6.936972
-1.963015
2.264166
4.389732
4.976067
5.609379
6.659215
6.365918
2.746178
-3.604697
-9.325609
-11.446395
-10.260063
-8.722581
-9.556929
-13.165504
-17.834513
-21.289862
-22.217440
-21.137316
-19.893127
-20.000677
-21.577091
-23.684149
-25.312382
-25.876371
-25.092499
-23.143560
-21.101097
-20.335028
-21.157436
-22.461056
-22.532463
-20.122648
-15.296232
-9.316810
-3.398810
2.443339
9.286585
18.005098
27.997017
37.155228
42.955776
43.794613
40.020931
33.877541
27.909443
23.062639
18.422546
12.771371
5.853927
-1.788611
-9.301996
-15.642622
-19.611410
-20.052992
-16.610413
-10.555575
-4.387112
-0.193109
1.819743
3.162781
5.116162
7.228897
8.079783
6.849635
3.870283
0.165384
-3.546894
-7.539025
-12.588931
-18.922407
-25.730173
-31.691069
-36.013508
-38.640079
-39.246834
-36.707973
-30.160940
-20.367025
-9.614001
-0.151776
7.644865
15.538213
24.729643
32.722050
34.794498
29.642736
21.852226
17.421930
18.014057
20.852459
23.415482
26.161282
30.372190
35.895351
41.984982
48.114792
53.534817
57.907459
62.127983
67.025383
71.115616
70.312828
61.477947
46.856495
32.544682
21.709557
12.044016
0.378976
-12.903405
-24.756351
-33.364796
-40.316162
-48.489925
-58.383739
-67.943336
-75.365067
-79.785286
-79.770378
-73.886383
-62.617111
-48.239719
-33.816490
-22.376528
-15.112516
-10.661265
-7.150554
-4.259908
-3.080368
-4.268039
-6.567948
-7.386585
-4.787108
0.532234
5.316265
7.341777
8.704199
13.303759
21.183477
27.926283
30.288723
29.901510
29.946083
30.783016
31.045462
31.170349
33.465015
39.223804
47.594460
56.753231
64.841599
70.592567
73.531845
73.049675
67.898445
57.607868
44.475937
32.699795
24.506115
18.441355
11.900022
4.055716
-3.783711
-9.844810
-13.402919
-15.178438
-17.252171
-22.251272
-31.452888
-43.321861
-54.436832
-62.252239
-66.580002
-68.259338
-67.139534
-62.470985
-55.093716
-46.877136
-38.269413
-29.244122
-20.792450
-13.189256
-5.197781
4.453839
16.410162
30.672955
45.372700
55.880779
57.865276
51.870277
43.344151
38.468967
39.791080
44.899364
49.640961
51.562565
49.940540
45.088921
37.953617
29.139368
19.316572
10.791450
6.624968
7.322624
10.117485
12.235095
12.956543
12.377344
10.324708
6.862261
3.008051
0.469782
0.183537
1.401896
2.572215
2.681870
1.540851
-1.209955
-6.487609
-14.163045
-22.161406
-27.863981
-29.659351
-27.857176
-24.432726
-21.209160
-19.177210
-19.250854
-21.879866
-26.369781
-31.257158
-34.654602
-34.839455
-31.515305
-25.917225
-19.794283
-14.907868
-12.336993
-11.459633
-10.229239
-6.769613
-0.862299
6.309000
13.997642
22.166281
29.720909
34.579498
35.788963
34.145721
30.941982
26.879965
22.398783
18.632620
16.863216
17.284079
19.396204
22.614386
25.488916
25.479313
20.638874
11.481711
0.997904
-6.997190
-9.919265
-7.840930
-3.319656
0.206044
0.444751
-2.134840
-4.684849
-5.000243
-4.207600
-5.516820
-10.563530
-18.308874
-26.799976
-34.143002
-38.218655
-37.184959
-31.129210
-22.501839
-13.881942
-6.286991
-0.179947
3.683952
4.855355
3.396370
-0.468892
-6.049114
-11.465609
-14.398173
-14.423760
-13.467522
-13.128132
-12.826511
-11.173979
-7.903311
-3.575179
1.699611
8.042104
14.942402
21.846836
28.961050
36.319584
43.045776
48.544456
53.133930
56.817509
58.669659
58.001347
55.388195
51.932705
47.798191
41.993053
33.807053
24.429390
16.631891
12.502215
11.570056
10.875209
6.900918
-1.647534
-12.433036
-21.260792
-25.621880
-26.415764
-26.498219
-28.084198
-31.376104
-35.032700
-37.496387
-37.709667
-35.188576
-30.306007
-24.228151
-18.217373
-13.203854
-9.757033
-8.265798
-8.653331
-9.692681
-10.005427
-9.641059
-9.356749
-9.474368
-10.078777
-10.971890
-11.474458
-10.813553
-8.311474
-3.663276
2.417487
8.627091
14.289862
19.225658
22.991312
25.317339
26.526875
27.010754
26.690889
24.916437
21.301888
16.669973
12.126180
7.821611
3.627351
-0.218801
-3.627790
-6.417677
-7.867568
-7.787445
-7.318695
-7.528240
-7.760428
-6.289272
-2.040942
4.554047
11.635259
16.981873
19.097607
17.466465
12.737033
6.289410
-0.881311
-8.036129
-13.807230
-16.847351
-17.220514
-16.402666
-16.158184
-17.433714
-19.623894
-20.840117
-19.616158
-16.154579
-11.428418
-5.953469
0.171185
6.598227
12.220831
15.805510
17.281433
17.650961
17.902899
18.425686
18.892479
18.797558
18.399771
18.387228
18.432171
16.989834
13.146301
8.440097
5.862538
7.077029
11.701403
18.424351
25.394335
30.346891
31.673462
29.635300
25.985224
22.138166
18.226271
13.884977
9.534064
6.598090
6.194826
8.050217
10.584931
11.733967
10.638468
8.200762
5.416795
2.609092
0.225654
-1.036900
-0.941064
-0.179936
0.027556
-0.889057
-1.965296
-1.291728
2.322246
8.222528
13.982920
16.909866
16.057320
12.191611
6.264356
-0.657879
-6.703415
-10.234165
-11.524363
-12.130371
-12.740029
-12.743778
-11.404823
-8.719712
-5.846105
-4.531954
-5.238914
-6.434948
-6.180789
-3.762402
0.157572
4.634700
9.678506
15.922970
23.009996
29.114222
31.981623
30.301916
25.096506
19.314341
15.248630
13.229677
12.242596
10.819023
8.257546
5.203463
2.884536
2.236618
3.288403
4.876948
5.527661
4.892571
3.621336
2.027560
-0.065944
-2.873203
-6.725927
-11.568829
-16.397118
-19.820637
-20.829222
-19.407286
-16.843613
-14.854282
-14.373069
-15.318917
-17.139603
-19.208958
-20.809757
-21.565912
-21.841541
-21.930788
-21.556019
-20.692646
-19.936314
-20.037960
-21.426174
-23.754456
-26.237673
-28.431793
-30.027029
-30.323856
-28.546328
-24.816805
-20.509878
-16.887190
-13.691246
-9.792005
-4.683022
1.224040
7.416486
13.773843
20.147961
26.009783
30.844175
34.395168
36.061089
34.610302
29.380310
21.694010
14.421759
10.039039
9.202791
10.764780
12.793124
13.642373
12.505914
9.540814
5.580091
1.663628
-1.380506
-3.286919
-4.312750
-4.913612
-5.585488
-6.680767
-8.034725
-9.149799
-10.068802
-11.418671
-13.401889
-15.466271
-16.850094
-17.087008
-16.457314
-15.812264
-15.465845
-14.861276
-13.531503
-11.726037
-10.136414
-9.144280
-8.195373
-6.406064
-4.005491
-2.400034
-2.590014
-4.194769
-5.948610
-6.804974
-6.873161
-7.106126
-8.157355
-10.266738
-13.562140
-17.567913
-21.257872
-24.059776
-25.891035
-26.385075
-25.238356
-22.811039
-19.784719
-16.903271
-14.626214
-12.596711
-10.245522
-7.524263
-4.472750
-1.127062
1.939604
4.050493
5.256158
6.032348
6.508108
6.363712
5.243915
3.148237
0.315446
-3.046789
-6.330919
-8.342851
-8.403122
-7.192157
-6.022697
-5.621749
-5.775638
-5.936631
-5.853710
-5.425979
-4.331966
-2.372139
-0.072166
1.613781
2.073854
1.118371
-1.187694
-4.277828
-6.951525
-7.932596
-6.816406
-4.347476
-1.589631
0.951431
3.219849
5.159911
6.860481
8.677951
10.758325
12.752133
14.198109
14.912691
14.821257
