EVENT_NAME: L_AQUILA
EVENT_ID: IT-2009-0009
EVENT_DATE_YYYYMMDD: 20090406
EVENT_TIME_HHMMSS: 013240
EVENT_LATITUDE_DEGREE: 42.3420
EVENT_LONGITUDE_DEGREE: 13.3800
EVENT_DEPTH_KM: 8.3
HYPOCENTER_REFERENCE: INGV-CNT_Seismic_Bulletin
MAGNITUDE_W: 6.1
MAGNITUDE_W_REFERENCE: INGV-CNT_Seismic_Bulletin
MAGNITUDE_L: 
MAGNITUDE_L_REFERENCE: 
FOCAL_MECHANISM: Normal faulting
NETWORK: IT
STATION_CODE: CLN
STATION_NAME: 
STATION_LATITUDE_DEGREE: 42.085224
STATION_LONGITUDE_DEGREE: 13.520722
STATION_ELEVATION_M: 796
LOCATION: 
SENSOR_DEPTH_M: 0.0
VS30_M/S: 
SITE_CLASSIFICATION_EC8: B (inferred from geology)
MORPHOLOGIC_CLASSIFICATION: 
EPICENTRAL_DISTANCE_KM: 30.8
EARTHQUAKE_BACKAZIMUTH_DEGREE: 157.8
DATE_TIME_FIRST_SAMPLE_YYYYMMDD_HHMMSS: 20090406_013217.000
DATE_TIME_FIRST_SAMPLE_PRECISION: seconds
SAMPLING_INTERVAL_S: 0.005000
NDATA: 18000
DURATION_S: 90.000
STREAM: HNZ
UNITS: cm/s^2
INSTRUMENT: sensor = Episensor FBA ES-T [Kinemetrics] | digitizer = Etna [Kinemetrics]
INSTRUMENT_ANALOG/DIGITAL: D
INSTRUMENTAL_FREQUENCY_HZ: 
INSTRUMENTAL_DAMPING: 
FULL_SCALE_G: 
N_BIT_DIGITAL_CONVERTER: 18
PGA_CM/S^2: 43.934681
TIME_PGA_S: 37.500000
BASELINE_CORRECTION: BASELINE REMOVED
FILTER_TYPE: BUTTERWORTH
FILTER_ORDER: 2
LOW_CUT_FREQUENCY_HZ: 0.050
HIGH_CUT_FREQUENCY_HZ: 40.000
LATE/NORMAL_TRIGGERED: NT
DATABASE_VERSION: 0.5
HEADER_FORMAT: DYNA 1.2
DATA_TYPE: ACCELERATION
PROCESSING: manual (Paolucci et al., 2011)
DATA_TIMESTAMP_YYYYMMDD_HHMMSS: 20211011_155942.140
DATA_LICENSE: CC-BY3_0-IT (http://creativecommons.org/licenses/by/3.0/deed.en)
DATA_CITATION: Luzi L, Pacor F, Puglia R (2019). Italian Accelerometric Archive v 3.0 - Istituto Nazionale di Geofisica e Vulcanologia, Dipartimento della Protezione Civile Nazionale. doi: 10.13127/itaca.3.1
DATA_CREATOR: ITACA working group
ORIGINAL_DATA_MEDIATOR_CITATION: data obtained within the DPC-INGV data exchange agreements
ORIGINAL_DATA_MEDIATOR: Archive of Italian Department of Civil Protection
ORIGINAL_DATA_CREATOR_CITATION: Presidency Of Counsil Of Ministers-Civil Protection Department. (1972). Italian Strong Motion Network. Presidency of Counsil of Ministers - Civil Protection Department. https://doi.org/10.7914/SN/IT http://www.fdsn.org/networks/detail/IT/
ORIGINAL_DATA_CREATOR: network: IT (Italian Strong Motion Network (RAN)); owner: Presidency of Counsil of Ministers - Civil Protection Department (PCM - DPC)
USER1: 
USER2: 
USER3: 
USER4: 
USER5: 
[...]
0.480005
0.786705
0.863496
0.561493
0.096639
-0.156102
0.007733
0.409028
0.646607
0.558553
0.406861
0.469811
0.601384
0.447506
0.009473
-0.347484
-0.464075
-0.644666
-1.222955
-2.060662
-2.634885
-2.594913
-2.143301
-1.800366
-1.826774
-1.982628
-1.824649
-1.141466
-0.127539
0.792907
1.283091
1.282692
1.032079
0.939298
1.229700
1.675134
1.826782
1.516422
0.962868
0.363603
-0.377314
-1.317827
-2.061346
-2.025920
-1.198482
-0.330993
-0.141449
-0.484697
-0.598815
-0.099326
0.579600
0.782191
0.372089
-0.251624
-0.650053
-0.724975
-0.688170
-0.714223
-0.700015
-0.438663
0.055300
0.522999
0.735388
0.676529
0.475832
0.285001
0.160933
-0.087098
-0.783255
-1.867931
-2.660020
-2.471610
-1.399247
-0.273780
0.065577
-0.684008
-2.184214
-3.631014
-4.191572
-3.519489
-1.952862
-0.291508
0.665282
0.609392
-0.066321
-0.562626
-0.301041
0.606429
1.510601
1.882164
1.754399
1.521500
1.451536
1.531060
1.702384
1.977570
2.225336
2.141427
1.681570
1.277551
1.296206
1.472618
1.238841
0.504665
-0.247121
-0.602233
-0.594290
-0.409356
-0.057021
0.502002
1.098322
1.438538
1.473479
1.531085
1.909821
2.418680
2.547799
2.105779
1.526048
1.449693
2.037163
2.795237
3.116238
2.935912
2.814612
3.288422
4.137092
4.483617
3.716376
2.174546
0.795125
0.137771
-0.059181
-0.319175
-0.728421
-1.037581
-1.208067
-1.473732
-1.896284
-2.164586
-1.957634
-1.356649
-0.720545
-0.249352
0.088678
0.284389
0.244166
0.033371
-0.060862
0.169258
0.559971
0.695925
0.295760
-0.611673
-1.805165
-2.970000
-3.722680
-3.791645
-3.278492
-2.585112
-1.957226
-1.234776
-0.179425
1.092517
2.137580
2.541403
2.159779
1.147589
-0.130614
-1.317334
-2.249417
-2.855656
-2.938875
-2.294120
-1.137015
-0.213988
-0.186649
-0.865883
-1.321543
-0.895086
0.127042
0.997031
1.355157
1.373802
1.362164
1.523579
1.907857
2.345568
2.574824
2.618696
2.850161
3.484106
4.165057
4.292140
3.703250
2.826365
2.162129
1.845792
1.738792
1.688618
1.542954
1.056109
0.035896
-1.339877
-2.483596
-2.842703
-2.432787
-1.815796
-1.498522
-1.482489
-1.425330
-1.102014
-0.717080
-0.828420
-1.817171
-3.353712
-4.569842
-4.828780
-4.216241
-3.304861
-2.601726
-2.285830
-2.287258
-2.377088
-2.249156
-1.712244
-0.817659
0.205257
1.075369
1.542257
1.454398
0.842057
-0.055764
-0.868013
-1.240464
-1.065057
-0.657439
-0.552666
-0.967263
-1.527093
-1.648451
-1.183311
-0.536658
-0.048022
0.480492
1.339605
2.292551
2.820474
2.723605
2.106837
1.078268
-0.121326
-0.916302
-0.797000
0.084657
1.050009
1.618260
1.803073
1.711033
1.219630
0.269482
-0.686976
-0.832158
0.322321
2.488577
4.791498
6.222049
6.073474
4.364083
1.965595
0.107162
-0.479427
-0.042246
0.525628
0.473180
-0.296052
-1.261309
-1.683601
-1.141783
0.096800
1.301108
1.974531
2.194666
2.208068
1.899125
0.842144
-1.169389
-3.790301
-6.305748
-7.986702
-8.302564
-7.166490
-5.228738
-3.644009
-3.129761
-3.216281
-2.655271
-0.719306
2.002890
4.291059
5.634948
6.520037
7.409965
7.965835
7.514797
5.908390
3.663481
1.518314
-0.019075
-0.910543
-1.510312
-2.196622
-3.066580
-3.974850
-4.724759
-5.162738
-5.283994
-5.336710
-5.579690
-5.803713
-5.356371
-3.879500
-1.894517
-0.472461
-0.301870
-1.016889
-1.405180
-0.432311
1.837412
4.313479
5.731414
5.506736
4.090845
2.551793
1.703507
1.713969
2.362685
3.237409
3.755501
3.478898
2.593631
1.933748
2.319104
3.681738
4.910921
4.835778
3.375119
1.507264
0.192197
-0.420463
-0.834207
-1.559357
-2.637911
-3.682169
-4.295440
-4.335493
-3.770385
-2.565067
-0.952599
0.370024
0.749957
0.395911
0.282351
0.990994
2.021085
2.416722
1.617569
-0.385410
-3.116759
-5.598965
-6.736547
-6.064421
-4.099016
-1.997221
-0.874331
-1.123993
-2.076085
-2.456312
-1.593936
-0.187276
0.505991
0.122064
-0.681383
-1.334180
-1.836296
-2.190131
-2.095944
-1.320794
0.059868
1.773188
3.443288
4.644406
5.065748
4.713323
3.883246
2.838377
1.690640
0.741142
0.513344
1.131437
2.099353
2.971616
3.741254
4.407672
4.874201
5.469243
6.702180
8.108640
8.201484
6.230047
3.285905
0.849001
-1.153573
-3.799443
-7.116082
-9.789704
-10.800173
-10.362415
-9.312028
-8.263661
-7.385504
-6.540412
-5.519147
-4.385651
-3.656989
-3.864423
-4.832012
-5.596054
-5.214244
-3.721145
-2.182472
-1.563260
-1.587359
-1.008066
0.990873
3.925862
6.542833
7.878952
7.700720
6.343430
4.567665
3.384574
3.480861
4.564514
5.441221
5.087897
3.605446
1.758743
0.006708
-1.393280
-1.971145
-1.541808
-0.632972
0.197174
0.956364
1.550008
1.154361
-0.851938
-3.552545
-4.819357
-3.196025
0.693661
4.691123
6.951744
7.219984
6.523177
5.867882
5.331819
4.466242
3.279145
2.307924
1.769613
1.083302
-0.575892
-3.343430
-6.383345
-8.322824
-7.961282
-5.274395
-1.948067
-0.115746
-0.310011
-1.306584
-1.909991
-1.935885
-1.461589
-0.321798
1.326435
2.846481
3.748382
3.864161
3.091341
1.634543
0.330297
0.126885
1.091060
2.294735
3.014603
3.666569
5.027237
6.809076
7.565933
6.106618
2.843922
-0.345982
-1.689229
-1.143737
-0.498668
-1.563074
-4.212011
-6.658925
-7.648713
-7.555874
-7.135796
-6.186543
-4.065425
-1.085237
1.344181
2.099430
1.346340
0.131953
-0.395370
0.571758
2.932768
5.226447
5.468858
3.025359
-0.686419
-3.641876
-4.842765
-4.348427
-2.652135
-0.641035
0.582138
0.487796
-0.631700
-2.292500
-4.029355
-4.835908
-3.430166
0.173834
4.079857
6.078267
5.262489
2.055706
-2.401333
-6.404727
-8.046846
-6.613529
-3.668881
-1.767013
-1.944810
-3.287760
-4.619039
-5.470967
-5.550549
-4.319998
-1.658990
1.327281
2.755668
1.408771
-2.238298
-6.073568
-7.561330
-5.651357
-1.760905
1.288292
1.564301
-0.418321
-2.516225
-3.281838
-3.029898
-2.786827
-2.733442
-1.795844
1.201333
5.898886
10.097210
11.512482
9.961583
7.379017
5.558104
4.358986
2.377951
-0.896339
-4.100860
-5.569779
-5.543809
-5.903340
-7.625001
-9.456874
-9.609718
-8.086827
-6.481126
-5.761413
-5.357121
-4.494591
-3.288857
-2.032471
-0.261975
2.691730
6.461110
9.408898
9.777841
7.317120
3.797848
1.456088
0.923142
1.177207
1.124127
0.218789
-2.111372
-6.148239
-10.520318
-12.172504
-8.822826
-1.555059
5.745502
9.675486
9.536917
6.662819
2.677453
-1.085720
-3.243898
-2.864644
-0.754859
0.737746
0.082057
-1.796878
-2.860574
-2.160788
-0.077260
2.607148
4.940771
5.806544
4.696713
2.536130
1.108316
1.061028
0.834172
-1.370547
-4.757072
-6.447779
-4.825600
-1.096572
2.384860
4.104006
3.816997
2.222619
0.437183
-0.690929
-0.818447
0.117095
1.707883
2.605928
1.146850
-2.941894
-7.944177
-11.635019
-12.774021
-11.061308
-6.961608
-2.369942
-0.148065
-1.568935
-4.823450
-7.122628
-7.604374
-7.210396
-6.567997
-5.389866
-3.873666
-3.471370
-5.398281
-8.837142
-11.538707
-11.991192
-10.287434
-7.172794
-3.295392
0.446011
2.817611
3.086382
1.657485
-0.235139
-1.362549
-1.257910
-0.446181
-0.003288
-0.720748
-2.311772
-3.600067
-3.888505
-3.670240
-3.633866
-3.529158
-2.365979
0.508762
4.504098
7.794117
8.691384
7.272912
5.204644
3.972030
3.744971
3.974671
4.665915
6.423852
9.012014
10.564378
8.910882
3.683809
-2.922867
-7.508131
-7.979210
-4.979785
-0.893017
2.189701
3.630861
4.206415
5.095071
6.462203
7.077283
5.719668
2.745076
-0.220724
-1.901491
-2.142911
-1.193534
0.903435
3.599840
5.257241
4.590925
2.777197
2.811596
6.066850
10.242578
11.509368
8.505152
3.601116
0.347805
0.472043
3.164627
6.157517
7.208808
5.318088
1.355540
-2.395395
-3.935357
-3.107658
-1.415621
-0.729298
-2.410268
-6.543570
-10.918584
-11.770778
-7.320757
-0.526110
3.170755
1.119223
-4.601248
-10.266183
-13.699177
-14.247850
-11.810896
-7.051947
-1.487264
3.492792
7.332870
9.987054
11.525159
12.140279
12.220432
12.336893
12.781439
12.999864
11.906596
8.812966
4.118159
-0.720012
-4.264458
-6.367267
-7.693083
-7.788890
-4.872426
1.634386
9.150040
13.494883
12.643694
8.756009
6.245780
7.750549
12.001812
15.421793
15.295017
11.405191
5.779720
1.575605
1.087315
3.787075
6.671598
7.032691
4.931042
2.804823
2.690076
4.394057
6.383131
7.289516
6.438519
4.270044
2.244568
1.197426
0.127067
-2.306898
-5.479316
-7.281406
-6.831789
-5.512617
-5.057600
-5.380031
-4.937493
-2.936308
-0.234572
1.881506
2.980238
3.528108
4.179871
5.181578
6.305562
7.077504
6.800370
4.578113
-0.027440
-6.133311
-11.608575
-14.247126
-13.203621
-9.616782
-5.711806
-3.061886
-1.591002
0.023499
3.000313
7.115704
10.760514
12.714811
13.454220
13.936160
13.785054
12.121068
9.495439
7.111167
4.648503
0.811525
-4.059475
-7.438716
-7.111806
-3.640181
0.016453
1.224277
-0.019021
-1.296502
-0.321620
2.602776
4.940896
4.905967
3.772305
4.688779
8.977742
14.253589
16.799543
15.162264
10.886852
6.599903
4.081381
3.619806
4.325531
4.786532
3.945744
1.769986
-1.220651
-4.992465
-9.770923
-14.699037
-17.762608
-17.557987
-14.595374
-10.726345
-7.599464
-5.582732
-4.025813
-2.370888
-0.523185
1.938139
5.896324
11.000203
14.461084
13.089130
6.827425
-0.682677
-5.520155
-6.910832
-6.939789
-7.562579
-8.588545
-8.373204
-5.861696
-1.712154
2.312141
4.638738
4.717479
3.297960
2.221069
3.325915
6.616263
9.565153
9.452130
6.623648
4.079783
3.580939
3.817907
3.028857
1.708680
1.437072
2.263295
3.048009
3.747169
5.485308
8.440752
10.880971
10.624984
7.333827
3.112944
0.511012
0.182056
0.814853
0.767840
-0.639251
-2.869719
-4.605995
-4.428938
-1.500086
3.893278
10.329854
15.812810
18.504152
17.725163
14.589701
10.862221
7.338680
4.298563
2.626948
2.968051
4.398146
5.239163
4.930155
4.357216
4.567099
5.632969
6.721400
6.866085
5.575888
3.200179
0.976147
0.397693
2.009021
4.487389
5.353903
2.992575
-2.199323
-8.151154
-11.990705
-11.630913
-7.760827
-3.553843
-1.551050
-1.611840
-2.129940
-2.048670
-1.309375
-0.075554
1.988733
5.413699
9.797022
13.385769
14.234678
12.015164
8.631527
6.629184
6.878889
8.159795
8.887311
8.551536
7.332437
5.256145
2.358840
-1.013459
-4.540740
-7.942970
-10.521439
-11.338310
-10.114781
-7.800498
-5.934608
-5.137536
-4.513449
-2.947096
-0.718976
0.624122
-0.025018
-2.025557
-3.397256
-2.472713
0.608797
3.852244
5.060797
3.821513
1.810346
0.982285
1.661081
2.574659
2.323802
0.449760
-2.570848
-5.865021
-8.562212
-9.931662
-9.821579
-9.182745
-9.193208
-9.528035
-8.845461
-7.216661
-6.178931
-6.022762
-5.053483
-2.238834
0.896009
1.863598
0.080788
-2.502806
-3.657815
-3.170256
-2.437001
-2.656330
-4.165342
-6.418820
-7.904929
-7.280280
-5.151987
-3.804468
-4.786675
-7.319320
-9.221263
-9.039151
-7.157150
-5.080105
-3.921594
-3.581013
-3.257914
-2.738517
-2.930042
-4.760964
-7.611919
-9.284422
-7.900702
-3.879223
0.137473
1.393881
-0.804326
-4.486828
-6.306285
-4.025298
1.598924
7.284176
9.770551
8.210069
4.384641
0.986199
-0.154902
1.264723
4.196507
6.780404
7.272134
5.130719
1.369962
-2.109700
-3.466462
-1.747838
2.402619
6.690930
8.292446
5.708251
-0.041553
-6.131133
-10.132950
-11.585304
-11.387604
-10.206326
-8.162661
-5.876253
-4.930495
-6.679715
-10.572819
-14.206667
-15.599614
-15.202747
-15.203853
-17.141006
-20.642164
-24.156078
-26.392817
-27.178158
-27.333218
-27.750374
-28.324505
-27.843599
-25.178055
-20.603754
-15.955293
-13.425287
-13.886239
-16.254347
-18.609905
-19.729721
-19.453493
-18.237204
-16.859842
-16.120203
-16.318378
-17.173975
-18.375860
-19.921986
-21.705948
-23.095554
-23.434822
-22.799709
-21.682217
-20.106894
-17.820980
-15.387194
-14.186661
-14.816887
-15.986073
-15.490538
-12.216810
-7.110842
-2.266702
0.686644
1.167486
-0.615637
-3.696222
-6.659561
-8.788091
-10.796661
-14.012264
-18.844685
-24.255720
-28.702541
-31.343073
-32.289143
-32.086582
-31.049013
-28.652756
-23.676769
-15.736430
-6.667888
0.560896
4.445721
5.773870
6.043103
5.841219
4.771623
2.391432
-0.979450
-4.263249
-6.357922
-6.905596
-6.533380
-6.351400
-6.988542
-8.198030
-9.569830
-11.307156
-13.879671
-17.069998
-19.931112
-21.850496
-23.248232
-24.980602
-27.249983
-29.144768
-29.118280
-26.238094
-21.378323
-16.935850
-15.011263
-15.978801
-18.696636
-21.530485
-23.061411
-22.268148
-18.541340
-11.896023
-3.265973
5.591025
12.770975
17.215122
19.397875
20.993773
23.618589
27.735416
32.401691
35.723118
35.918499
32.630489
27.330067
22.178663
18.515682
16.435989
15.289506
14.287196
13.095523
12.310906
13.276959
17.083040
23.390823
30.185534
35.074883
37.157352
37.489510
37.589836
37.635921
36.282291
32.161636
25.341820
17.291845
9.730601
3.698417
-0.623354
-3.674202
-5.976493
-7.517736
-7.815972
-6.660429
-4.390360
-1.343259
2.463992
6.757261
10.361952
11.632458
9.875416
6.157985
2.234236
-1.147005
-4.450062
-8.117679
-11.420756
-12.418794
-9.230844
-1.783755
7.740870
16.332956
21.980524
24.578325
25.646011
27.026848
29.532898
32.903297
36.770748
40.767693
43.710926
43.934681
41.124683
37.168739
34.194447
31.878222
27.822058
20.689754
11.947259
4.541541
0.484924
-0.646387
-1.177028
-2.954019
-5.570950
-7.337114
-7.546280
-7.075722
-6.935249
-6.689052
-4.533695
0.729984
7.902943
14.301889
18.530207
21.455250
24.248577
26.559645
27.399513
27.027971
26.707514
26.667171
25.546736
22.287491
17.614986
13.253321
10.433395
9.412229
9.815295
11.114529
13.050914
15.661768
18.708395
21.214226
21.874008
20.318853
18.087124
17.497616
19.053188
20.875713
21.184128
20.454845
20.639673
22.666376
25.181786
25.890938
23.783211
19.710695
15.150723
10.924186
7.033657
3.294703
-0.279780
-3.794939
-7.815703
-13.017879
-19.320910
-25.457809
-29.872944
-32.191978
-33.436829
-34.857964
-36.827255
-38.613880
-38.854836
-36.277084
-30.450375
-22.220625
-13.312820
-5.310685
0.891787
4.662479
5.481411
3.829345
1.585734
0.787499
1.928955
3.816596
5.363200
7.033021
9.914701
13.901228
17.594988
19.759476
20.025236
18.174580
13.928471
8.014196
2.479041
-0.798925
-1.680533
-1.711767
-2.598505
-4.747053
-7.248698
-8.958189
-9.405885
-8.844645
-7.588787
-5.687684
-3.301127
-0.874127
1.057871
1.997826
1.560244
-0.489983
-3.873533
-7.322349
-9.293745
-9.286994
-7.896088
-5.988796
-4.334252
-3.660652
-4.648740
-7.621441
-12.065312
-16.792871
-20.912136
-24.331001
-27.292334
-29.819864
-31.619341
-32.497608
-32.802883
-33.014915
-32.957172
-31.805740
-28.845997
-24.228935
-19.078793
-14.782978
-12.187825
-11.257431
-11.123970
-10.703405
-9.606941
-8.307122
-7.404490
-6.933440
-6.422501
-5.517877
-4.308600
-2.987661
-1.511107
0.191007
1.912536
3.437604
4.984942
7.014856
9.617539
12.301790
14.420624
15.757806
16.712830
17.986038
19.917383
21.895784
22.472363
20.318687
15.460991
9.599690
4.856779
2.189624
1.108967
0.540026
-0.424418
-2.245430
-4.727147
-7.089590
-8.722699
-9.812903
-10.880687
-11.935417
-12.431855
-11.901980
-10.494977
-8.978732
-8.136766
-8.198162
-9.009467
-10.444674
-12.376986
-14.566538
-16.679064
-18.180050
-18.373379
-16.919687
-14.242388
-11.019258
-7.368860
-3.046010
1.684283
5.912782
8.916107
10.822647
12.239866
13.331977
13.506977
12.196954
9.872823
7.951115
7.587923
8.671436
9.969420
10.191563
8.926537
6.619549
3.903279
1.253960
-0.864238
-1.953733
-1.755960
-0.511652
1.116491
2.383957
2.782204
2.225175
1.210563
0.873019
2.398392
5.825682
9.529798
11.277198
9.929108
6.191957
1.858407
-1.599159
-3.781245
-5.018165
-5.683318
-5.977398
-6.050996
-6.071233
-6.141990
-6.062114
-5.331138
-3.759241
-1.976024
-1.070837
-1.684708
-3.421583
-5.139756
-5.787876
-4.940745
-2.744711
0.356139
3.718027
6.426404
7.404662
5.916830
2.059617
-3.210647
-8.373136
-11.863655
-12.916208
-12.161207
-11.036266
-10.452950
-10.287656
-10.031324
-9.590515
-9.248732
-8.915348
-7.920779
-5.703790
-2.398344
1.136498
3.703717
4.601234
4.241947
3.630580
3.320581
3.179704
2.926092
2.518729
2.195044
2.367332
3.240367
4.416453
5.157004
5.133292
4.862701
5.332269
7.042405
9.529515
11.997200
14.140143
16.107239
18.029055
20.009146
22.304592
24.903753
26.957933
27.261299
25.324804
21.565445
16.780146
11.860354
7.679808
4.787272
3.100516
2.086904
1.377024
1.178022
1.987074
3.718942
5.288272
5.425269
3.884791
1.812146
0.918318
2.108318
4.910883
8.147378
10.854069
12.609208
13.307107
13.027278
12.225708
11.640487
11.781000
12.640007
13.856043
14.937816
15.431972
15.198957
14.511166
13.776246
13.251457
12.886990
12.281605
10.923261
8.583694
5.509908
2.231164
-0.856022
-3.668046
-6.177618
-8.068967
-8.855673
-8.557759
-8.149951
-9.042792
-12.131596
-17.223679
-22.909378
-27.128195
-28.498421
-27.146950
-24.106003
-20.313148
-16.301531
-12.351387
-8.711549
-5.683150
-3.570790
-2.590656
-2.594829
-2.976798
-3.179786
-3.238997
-3.616813
-4.625591
-6.228939
-8.108432
-9.599589
-9.857201
-8.325649
-5.073777
-0.848066
3.211926
6.104751
7.493417
7.975485
8.589407
9.756912
10.883270
11.053870
10.039178
8.634546
7.967283
8.611969
10.420970
12.846296
15.266361
17.049114
17.539822
16.485821
14.485062
12.678831
11.985227
12.635755
14.258700
16.238173
17.952791
18.916939
19.008497
18.574516
18.170919
18.030224
17.702501
16.309231
13.345520
9.377565
5.802281
3.794759
3.648777
5.032272
7.433837
10.200252
12.371627
12.867057
11.172774
7.890882
4.478664
2.355405
2.122659
3.376716
5.001854
5.743938
4.917213
2.801274
0.366105
-1.432176
-2.190255
-2.082188
-1.522994
-0.947781
-0.928933
-2.140991
-4.847444
-8.546872
-12.273305
-15.142257
-16.636675
-16.596186
-15.179786
-12.904723
-10.501545
-8.530784
-7.124771
-6.070007
-5.052641
-3.825059
-2.261378
-0.430344
1.298054
2.363513
2.372341
1.306964
-0.532744
-2.650320
-4.549012
-6.031451
-7.277303
-8.541520
-9.853673
-11.040917
-11.944078
-12.483062
-12.532399
-11.956570
-10.842385
-9.595902
-8.731118
-8.441551
-8.383919
-8.001817
-7.032283
-5.651756
-4.240164
-3.177284
-2.818222
-3.357231
-4.582519
-5.876472
-6.491734
-5.930593
-4.315773
-2.351056
-0.753953
0.136604
0.343740
0.294151
0.651706
1.654982
2.828011
3.525904
3.524777
3.031925
2.338048
1.658549
1.268845
1.505740
2.517706
4.107813
5.835774
7.234911
7.993495
8.066312
7.617477
6.770478
5.448235
3.510751
1.008473
-1.795780
-4.642999
-7.348181
-9.608103
-10.912881
-10.817697
-9.273247
-6.617321
-3.365500
-0.112540
2.497317
3.904142
3.888465
2.751332
1.104187
-0.628703
-2.392752
-4.200469
-5.879909
-7.228445
-8.295078
