EVENT_NAME: L_AQUILA
EVENT_ID: IT-2009-0009
EVENT_DATE_YYYYMMDD: 20090406
EVENT_TIME_HHMMSS: 013240
EVENT_LATITUDE_DEGREE: 42.3420
EVENT_LONGITUDE_DEGREE: 13.3800
EVENT_DEPTH_KM: 8.3
HYPOCENTER_REFERENCE: INGV-CNT_Seismic_Bulletin
MAGNITUDE_W: 6.1
MAGNITUDE_W_REFERENCE: INGV-CNT_Seismic_Bulletin
MAGNITUDE_L: 
MAGNITUDE_L_REFERENCE: 
FOCAL_MECHANISM: Normal faulting
NETWORK: IT
STATION_CODE: CLN
STATION_NAME: 
STATION_LATITUDE_DEGREE: 42.085224
STATION_LONGITUDE_DEGREE: 13.520722
STATION_ELEVATION_M: 796
LOCATION: 
SENSOR_DEPTH_M: 0.0
VS30_M/S: 
SITE_CLASSIFICATION_EC8: B (inferred from geology)
MORPHOLOGIC_CLASSIFICATION: 
EPICENTRAL_DISTANCE_KM: 30.8
EARTHQUAKE_BACKAZIMUTH_DEGREE: 157.8
DATE_TIME_FIRST_SAMPLE_YYYYMMDD_HHMMSS: 20090406_013217.000
DATE_TIME_FIRST_SAMPLE_PRECISION: seconds
SAMPLING_INTERVAL_S: 0.005000
NDATA: 18000
DURATION_S: 90.000
STREAM: HNE
UNITS: cm/s
INSTRUMENT: sensor = Episensor FBA ES-T [Kinemetrics] | digitizer = Etna [Kinemetrics]
INSTRUMENT_ANALOG/DIGITAL: D
INSTRUMENTAL_FREQUENCY_HZ: 
INSTRUMENTAL_DAMPING: 
FULL_SCALE_G: 
N_BIT_DIGITAL_CONVERTER: 18
PGV_CM/S: 4.857461
TIME_PGV_S: 39.395000
BASELINE_CORRECTION: BASELINE REMOVED
FILTER_TYPE: BUTTERWORTH
FILTER_ORDER: 2
LOW_CUT_FREQUENCY_HZ: 0.050
HIGH_CUT_FREQUENCY_HZ: 40.000
LATE/NORMAL_TRIGGERED: NT
DATABASE_VERSION: 0.5
HEADER_FORMAT: DYNA 1.2
DATA_TYPE: VELOCITY
PROCESSING: manual (Paolucci et al., 2011)
DATA_TIMESTAMP_YYYYMMDD_HHMMSS: 20211011_155941.379
DATA_LICENSE: CC-BY3_0-IT (http://creativecommons.org/licenses/by/3.0/deed.en)
DATA_CITATION: Luzi L, Pacor F, Puglia R (2019). Italian Accelerometric Archive v 3.0 - Istituto Nazionale di Geofisica e Vulcanologia, Dipartimento della Protezione Civile Nazionale. doi: 10.13127/itaca.3.1
DATA_CREATOR: ITACA working group
ORIGINAL_DATA_MEDIATOR_CITATION: data obtained within the DPC-INGV data exchange agreements
ORIGINAL_DATA_MEDIATOR: Archive of Italian Department of Civil Protection
ORIGINAL_DATA_CREATOR_CITATION: Presidency Of Counsil Of Ministers-Civil Protection Department. (1972). Italian Strong Motion Network. Presidency of Counsil of Ministers - Civil Protection Department. https://doi.org/10.7914/SN/IT http://www.fdsn.org/networks/detail/IT/
ORIGINAL_DATA_CREATOR: network: IT (Italian Strong Motion Network (RAN)); owner: Presidency of Counsil of Ministers - Civil Protection Department (PCM - DPC)
USER1: 
USER2: 
USER3: 
USER4: 
USER5: 
[...]
0.405783
0.414845
0.417420
0.415864
0.413155
0.413645
0.420188
0.429935
0.435712
0.432970
0.423666
0.412760
0.403408
0.396003
0.389407
0.381967
0.372653
0.362351
0.353394
0.347736
0.346418
0.349286
0.353864
0.356751
0.357918
0.361723
0.371401
0.383587
0.391121
0.390714
0.384488
0.374334
0.359157
0.339333
0.320773
0.311529
0.315084
0.328725
0.347106
0.365396
0.380581
0.392339
0.402103
0.409995
0.413900
0.412557
0.408225
0.405136
0.406182
0.411968
0.421775
0.433888
0.446250
0.458971
0.475289
0.497058
0.519479
0.533621
0.534281
0.523142
0.505736
0.488220
0.475729
0.470768
0.473047
0.481425
0.494610
0.509292
0.519149
0.517742
0.503953
0.484653
0.470156
0.465287
0.465389
0.462473
0.454353
0.445613
0.440263
0.436565
0.430535
0.422095
0.415288
0.413542
0.415901
0.416529
0.407581
0.385086
0.354146
0.327530
0.317383
0.327125
0.350950
0.381302
0.414940
0.449938
0.480555
0.500079
0.508302
0.512412
0.519797
0.533115
0.552059
0.575143
0.597713
0.611809
0.613120
0.607544
0.606815
0.618438
0.641601
0.670003
0.696250
0.715223
0.725669
0.729005
0.727221
0.722658
0.718250
0.716166
0.715769
0.712942
0.701629
0.676910
0.639464
0.598341
0.565819
0.547032
0.536987
0.528450
0.518998
0.509572
0.501228
0.496191
0.498776
0.512547
0.537812
0.571487
0.606289
0.630693
0.634464
0.616907
0.588393
0.562626
0.547898
0.544844
0.550368
0.563511
0.587310
0.622596
0.660362
0.684945
0.686934
0.670312
0.646671
0.626016
0.613392
0.610870
0.619233
0.636386
0.656765
0.673960
0.683167
0.683231
0.677544
0.670703
0.663942
0.655483
0.645654
0.640516
0.649180
0.675735
0.712198
0.741885
0.753224
0.748606
0.738317
0.728733
0.718326
0.702449
0.677884
0.644639
0.608260
0.578720
0.562245
0.555045
0.548977
0.542023
0.539461
0.546631
0.564351
0.590056
0.619095
0.645512
0.666117
0.682461
0.694647
0.696129
0.680183
0.650083
0.617408
0.589910
0.565319
0.538274
0.509623
0.487076
0.477954
0.480745
0.483319
0.471829
0.443785
0.412418
0.396279
0.403372
0.425506
0.446502
0.454122
0.446585
0.432267
0.423243
0.426791
0.443502
0.472657
0.515387
0.569752
0.624856
0.664770
0.678945
0.667808
0.640904
0.610729
0.585451
0.565397
0.547344
0.532207
0.525451
0.529357
0.537963
0.541762
0.536810
0.527363
0.520068
0.517820
0.519411
0.523004
0.528918
0.541533
0.569504
0.620340
0.691174
0.764508
0.815512
0.827899
0.805230
0.764324
0.715708
0.655259
0.578122
0.494977
0.427422
0.386861
0.364797
0.348582
0.337585
0.335142
0.334746
0.326434
0.312984
0.309955
0.328334
0.363415
0.403655
0.445501
0.494025
0.552371
0.618073
0.686533
0.750607
0.799501
0.823333
0.818064
0.786179
0.735962
0.680052
0.632119
0.603089
0.596609
0.606038
0.618885
0.626226
0.629224
0.637928
0.660787
0.694379
0.726782
0.749184
0.760551
0.763693
0.760005
0.749204
0.734762
0.724315
0.721135
0.721565
0.723192
0.727439
0.730430
0.719906
0.688660
0.645166
0.604123
0.570611
0.539506
0.508835
0.485247
0.473636
0.470667
0.470870
0.470629
0.466323
0.454900
0.436307
0.413279
0.388785
0.362229
0.328331
0.283442
0.233238
0.191152
0.168616
0.166715
0.174445
0.173913
0.150394
0.100841
0.035706
-0.027222
-0.073127
-0.095928
-0.097174
-0.082896
-0.061814
-0.043974
-0.036428
-0.038533
-0.043203
-0.044048
-0.042230
-0.044970
-0.055238
-0.065080
-0.062233
-0.042854
-0.015509
0.006987
0.017491
0.017500
0.012049
0.001133
-0.022143
-0.061847
-0.109288
-0.146357
-0.158745
-0.146670
-0.125390
-0.114049
-0.121141
-0.139590
-0.155452
-0.160920
-0.157982
-0.150947
-0.138713
-0.116274
-0.083518
-0.049014
-0.022725
-0.008699
-0.008661
-0.027523
-0.067035
-0.115523
-0.152197
-0.164935
-0.160340
-0.153150
-0.150018
-0.148157
-0.144111
-0.136741
-0.124310
-0.105648
-0.085277
-0.071676
-0.068459
-0.072145
-0.077495
-0.077881
-0.063395
-0.027169
0.027223
0.089269
0.151179
0.210302
0.263132
0.302838
0.324934
0.331839
0.329836
0.323644
0.315101
0.306704
0.305353
0.319109
0.347976
0.378952
0.393658
0.382772
0.350162
0.305208
0.257691
0.217823
0.192613
0.177871
0.158221
0.121779
0.074934
0.038444
0.027681
0.039409
0.058519
0.074333
0.087010
0.097269
0.094746
0.064298
0.005290
-0.059677
-0.098619
-0.094232
-0.054317
-0.000974
0.045160
0.073571
0.087124
0.098026
0.114350
0.127932
0.120761
0.087665
0.045800
0.015151
-0.003270
-0.023604
-0.056349
-0.096969
-0.127536
-0.129520
-0.100117
-0.058219
-0.032729
-0.041186
-0.078380
-0.124209
-0.159820
-0.179246
-0.189991
-0.202266
-0.218408
-0.234693
-0.249995
-0.266741
-0.284481
-0.299312
-0.312291
-0.332302
-0.364104
-0.398348
-0.420951
-0.428773
-0.431026
-0.439471
-0.459893
-0.487803
-0.511083
-0.521343
-0.522012
-0.522191
-0.524631
-0.523897
-0.516447
-0.506411
-0.497683
-0.487649
-0.475789
-0.471648
-0.486483
-0.521488
-0.569269
-0.622624
-0.677771
-0.733067
-0.787103
-0.834588
-0.866042
-0.875525
-0.866027
-0.845490
-0.819018
-0.785379
-0.741829
-0.692462
-0.648055
-0.614692
-0.587137
-0.557600
-0.528275
-0.513498
-0.527805
-0.568581
-0.614337
-0.643148
-0.648719
-0.641254
-0.638531
-0.652530
-0.679925
-0.705405
-0.715843
-0.712789
-0.710261
-0.719176
-0.735549
-0.746115
-0.743034
-0.729044
-0.712041
-0.700887
-0.706009
-0.738380
-0.800198
-0.876351
-0.943898
-0.992632
-1.031295
-1.072949
-1.119260
-1.161626
-1.192766
-1.212085
-1.222834
-1.229924
-1.240262
-1.260035
-1.287818
-1.312067
-1.319996
-1.309930
-1.292379
-1.276486
-1.256672
-1.218560
-1.158289
-1.088776
-1.025786
-0.973102
-0.924052
-0.874388
-0.827824
-0.789189
-0.758500
-0.733485
-0.714509
-0.706427
-0.715717
-0.744602
-0.789669
-0.847164
-0.916823
-0.998594
-1.086702
-1.169092
-1.234120
-1.277661
-1.303700
-1.319809
-1.333099
-1.347962
-1.363779
-1.374484
-1.374108
-1.364311
-1.353467
-1.347331
-1.343716
-1.336751
-1.323506
-1.306376
-1.289736
-1.274103
-1.255654
-1.233617
-1.216225
-1.215178
-1.235143
-1.272299
-1.319979
-1.372304
-1.423639
-1.466827
-1.495912
-1.511725
-1.522776
-1.539249
-1.565135
-1.598218
-1.636430
-1.677502
-1.713902
-1.735896
-1.741123
-1.738030
-1.737500
-1.741400
-1.742430
-1.735358
-1.724883
-1.721825
-1.732735
-1.753501
-1.774425
-1.792633
-1.817813
-1.863069
-1.931176
-2.012509
-2.093996
-2.165124
-2.216955
-2.243275
-2.245894
-2.233964
-2.216899
-2.201750
-2.193874
-2.192834
-2.189118
-2.169741
-2.127234
-2.063841
-1.989835
-1.916569
-1.848016
-1.780812
-1.714224
-1.655200
-1.610849
-1.580626
-1.558173
-1.538512
-1.522741
-1.517657
-1.532698
-1.574576
-1.639221
-1.708896
-1.762250
-1.788565
-1.790330
-1.775019
-1.749633
-1.720299
-1.689809
-1.655401
-1.613818
-1.568339
-1.525165
-1.482481
-1.430936
-1.366858
-1.297487
-1.230905
-1.166405
-1.097494
-1.022073
-0.948274
-0.889121
-0.849694
-0.822335
-0.795824
-0.764941
-0.731941
-0.703982
-0.687905
-0.683342
-0.680293
-0.665291
-0.633086
-0.594425
-0.569592
-0.570163
-0.587780
-0.602994
-0.604085
-0.595364
-0.588047
-0.587147
-0.589430
-0.591038
-0.593570
-0.603501
-0.627560
-0.667218
-0.717631
-0.774148
-0.837432
-0.908636
-0.980722
-1.038198
-1.067530
-1.067219
-1.047310
-1.020256
-0.993957
-0.972102
-0.955371
-0.941435
-0.928106
-0.916187
-0.907230
-0.900384
-0.893568
-0.887738
-0.888462
-0.901712
-0.928632
-0.964721
-1.003073
-1.039684
-1.076976
-1.120485
-1.171664
-1.225981
-1.278040
-1.325788
-1.368592
-1.403767
-1.427119
-1.437343
-1.440640
-1.449229
-1.471586
-1.504626
-1.538289
-1.567226
-1.594811
-1.625238
-1.656352
-1.682996
-1.703198
-1.718707
-1.733101
-1.750492
-1.772844
-1.797347
-1.818115
-1.830447
-1.831310
-1.816819
-1.783364
-1.731826
-1.668499
-1.600716
-1.531824
-1.461786
-1.392155
-1.327650
-1.272751
-1.229137
-1.197159
-1.178194
-1.173093
-1.177466
-1.181578
-1.178467
-1.170623
-1.164846
-1.162539
-1.159945
-1.156762
-1.159396
-1.174702
-1.203919
-1.244014
-1.291549
-1.344096
-1.400907
-1.463387
-1.533273
-1.608790
-1.683386
-1.750963
-1.812051
-1.871795
-1.931611
-1.984530
-2.019215
-2.029030
-2.017709
-1.995760
-1.970880
-1.942833
-1.909537
-1.877707
-1.863977
-1.882000
-1.928628
-1.985860
-2.037160
-2.080773
-2.128558
-2.194385
-2.283558
-2.390007
-2.501095
-2.606781
-2.706247
-2.806250
-2.914136
-3.032556
-3.159118
-3.288500
-3.413963
-3.529680
-3.635186
-3.736861
-3.842648
-3.954953
-4.067616
-4.168229
-4.244710
-4.291294
-4.308288
-4.296072
-4.249639
-4.159613
-4.019628
-3.833852
-3.619073
-3.400100
-3.199995
-3.030608
-2.891060
-2.775747
-2.683634
-2.619778
-2.590508
-2.599451
-2.645961
-2.724174
-2.822231
-2.922496
-3.005548
-3.058326
-3.080262
-3.081227
-3.072128
-3.056315
-3.030734
-2.994589
-2.954190
-2.919942
-2.900591
-2.899764
-2.917498
-2.955193
-3.018138
-3.112750
-3.241401
-3.399856
-3.579924
-3.773124
-3.969358
-4.152898
-4.303703
-4.405538
-4.453608
-4.454367
-4.416143
-4.338452
-4.214803
-4.051193
-3.877221
-3.729007
-3.619746
-3.532636
-3.442566
-3.338304
-3.221226
-3.090420
-2.938559
-2.759082
-2.549157
-2.308583
-2.040909
-1.751372
-1.440732
-1.105605
-0.750027
-0.398463
-0.091073
0.143209
0.305933
0.414481
0.474701
0.476596
0.412078
0.288297
0.121473
-0.080108
-0.322558
-0.614476
-0.954193
-1.331018
-1.729945
-2.128797
-2.498229
-2.811314
-3.052513
-3.221595
-3.333478
-3.409041
-3.462347
-3.498100
-3.519399
-3.534801
-3.556141
-3.588981
-3.625914
-3.649849
-3.647188
-3.620607
-3.583898
-3.540377
-3.473858
-3.367941
-3.228309
-3.076866
-2.927358
-2.777628
-2.623713
-2.468485
-2.312634
-2.145309
-1.949190
-1.711217
-1.427451
-1.103243
-0.750280
-0.382621
-0.017373
0.322119
0.610159
0.832538
0.996037
1.118568
1.210775
1.270275
1.290553
1.271635
1.222411
1.155396
1.079504
0.993243
0.881987
0.724722
0.508113
0.235929
-0.075332
-0.408232
-0.749529
-1.085227
-1.397582
-1.673050
-1.907436
-2.098783
-2.245003
-2.348966
-2.414912
-2.440901
-2.418632
-2.336581
-2.183216
-1.956353
-1.676949
-1.387622
-1.128271
-0.911550
-0.719205
-0.520250
-0.295753
-0.047548
0.210264
0.459967
0.685412
0.875180
1.020877
1.117460
1.171417
1.204542
1.241155
1.291742
1.352918
1.417700
1.479587
1.531211
1.565522
1.580562
1.582911
1.583829
1.590838
1.603699
1.617109
1.624813
1.618763
1.586325
1.515510
1.404703
1.265383
1.117086
0.977800
0.855637
0.749591
0.653705
0.557451
0.448051
0.316202
0.159917
-0.013356
-0.187554
-0.345130
-0.474716
-0.573688
-0.648227
-0.709912
-0.767210
-0.818356
-0.852204
-0.856516
-0.824971
-0.754983
-0.644151
-0.495547
-0.322649
-0.143705
0.027024
0.181734
0.316134
0.428128
0.521291
0.605607
0.692027
0.789008
0.902080
1.029525
1.156921
1.260116
1.317524
1.322514
1.287528
1.237932
1.198727
1.182129
1.183159
1.185383
1.174708
1.151284
1.126283
1.105245
1.077661
1.024843
0.933299
0.799299
0.628584
0.437491
0.251566
0.095920
-0.016589
-0.085999
-0.117434
-0.118334
-0.099914
-0.075637
-0.058655
-0.061000
-0.091245
-0.148573
-0.220564
-0.292683
-0.360021
-0.425661
-0.489794
-0.545664
-0.585180
-0.603056
-0.594558
-0.554348
-0.479636
-0.370402
-0.225596
-0.043998
0.171231
0.413953
0.679622
0.963710
1.257058
1.547065
1.824006
2.083670
2.322660
2.532626
2.701661
2.823808
2.906967
2.969478
3.027329
3.081705
3.116209
3.107972
3.045807
2.939503
2.811393
2.679314
2.546823
2.406402
2.249522
2.074358
1.886876
1.698328
1.522385
1.370855
1.249714
1.158627
1.092608
1.043823
1.002494
0.959227
0.910764
0.860737
0.812532
0.765748
0.718376
0.667982
0.613123
0.555750
0.501683
0.460125
0.441809
0.453896
0.497032
0.568481
0.664609
0.779566
0.906153
1.038787
1.173841
1.307295
1.431877
1.538387
1.621737
1.682368
1.721476
1.739612
1.738518
1.720379
1.688291
1.648953
1.610016
1.573423
1.535781
1.496979
1.465533
1.455328
1.478098
1.536275
1.621184
1.716672
1.804004
1.867690
1.899137
1.894730
1.854549
1.785513
1.701276
1.615174
1.533161
1.452370
1.365201
1.267082
1.162881
1.064800
0.984027
0.926885
0.897118
0.897974
0.930965
0.992069
1.071097
1.157504
1.245759
1.335273
1.427402
1.521864
1.615852
1.707851
1.799787
1.891948
1.976897
2.042628
2.084829
2.114141
2.149527
2.208034
2.300155
2.427127
2.578861
2.737229
2.885405
3.015331
3.126022
3.217154
3.286578
3.334249
3.367239
3.398213
3.438464
3.491389
3.550059
3.603251
3.644255
3.671339
3.684385
3.685513
3.680328
3.675623
3.674723
3.674861
3.670416
3.660589
3.654131
3.665742
3.706855
3.776769
3.861318
3.941605
4.002563
4.033885
4.030596
3.997078
3.945908
3.888286
3.827634
3.763934
3.700215
3.643191
3.599592
3.570362
3.547702
3.521507
3.489333
3.458429
3.439617
3.440405
3.463578
3.511971
3.591585
3.706635
3.852207
4.012115
4.163624
4.289107
4.385678
4.461922
4.528070
4.589283
4.643378
4.684666
4.710683
4.725106
4.736289
4.752731
4.777116
4.804754
4.829217
4.847323
4.857461
4.857132
4.842766
4.809136
4.751292
4.669306
4.570203
4.466057
4.369020
4.284802
4.210531
4.138666
4.062071
3.976373
3.880328
3.776279
3.668450
3.559242
3.449588
3.341808
3.238345
3.138663
3.038474
2.931343
2.812570
2.681382
2.539223
2.389088
2.237469
2.094737
1.970653
1.868104
1.783668
1.715211
1.666251
1.642836
1.648957
1.686039
1.754908
1.855648
1.985697
2.139918
2.311894
2.492199
2.665251
2.812152
2.920622
2.992731
3.042926
3.088940
3.142764
3.206730
3.274941
3.337471
3.385175
3.413076
3.421394
3.414491
3.398057
3.376493
3.351925
3.323997
3.290594
3.250420
3.204671
3.154327
3.097234
3.030224
2.952893
2.868642
2.783207
2.700921
2.621859
2.544530
2.470224
2.402566
2.343936
2.293254
2.247533
2.206556
2.174525
2.154498
2.142498
2.129548
2.108574
2.078831
2.044806
2.010440
1.974909
1.934123
1.882789
1.814978
1.727139
1.620849
1.500550
1.371095
1.239170
1.112978
0.998923
0.899999
0.815483
0.742352
0.679368
0.628141
0.590519
0.568156
0.562520
0.572218
0.592471
0.618752
0.648913
0.681454
0.713273
0.739492
0.755233
0.756811
0.741577
0.709922
0.668208
0.626192
0.590231
0.560118
0.532009
0.503131
0.473448
0.444179
0.417049
0.395389
0.383529
0.383168
0.391237
0.401606
0.407198
0.401260
0.379870
0.345113
0.305450
0.271368
0.249630
0.241682
0.246439
0.262539
0.288338
0.322641
0.366030
0.419822
0.483583
0.554573
0.629137
0.703243
0.771838
0.830818
0.880919
0.926044
0.967666
1.005127
1.039994
1.076716
1.120838
1.177196
1.246818
1.324539
1.401419
1.470373
1.529078
1.578158
1.618304
1.650484
1.677736
1.703615
1.729093
1.753850
1.780390
1.814352
1.860031
1.916215
1.976432
2.033053
2.080671
2.116314
2.139617
2.153039
2.158739
2.154854
2.136922
2.103682
2.060331
2.014452
1.969636
1.925416
1.881494
1.839005
1.799973
1.767640
1.745147
1.733127
1.729136
1.728267
1.724666
1.713728
1.692838
1.660831
1.617399
1.561703
1.492059
1.408514
1.314210
1.212998
1.107755
1.001941
0.900709
0.808474
0.726223
0.652997
0.588878
0.535180
0.493343
0.464458
0.448262
0.441949
0.440574
0.439146
0.434742
0.426797
0.415707
0.401477
0.382653
0.355824
0.317677
0.267996
0.209252
0.143846
0.073134
-0.001820
-0.080084
-0.161137
-0.243947
-0.325807
-0.402793
-0.471311
-0.530069
-0.580517
-0.624174
-0.661093
-0.691646
-0.717500
-0.740720
-0.763055
-0.785407
-0.807995
-0.831308
-0.855601
-0.879952
-0.903877
-0.929431
-0.960893
-1.002869
-1.057524
-1.122984
-1.195681
-1.272765
-1.351152
-1.427687
-1.500949
-1.571600
-1.642042
-1.714995
-1.791800
-1.872556
-1.956347
-2.041096
-2.123970
-2.201848
-2.272220
-2.333923
-2.387689
-2.437051
-2.486778
-2.538785
-2.590884
-2.639855
-2.684396
-2.725461
-2.765322
-2.805294
-2.843062
-2.873458
-2.892251
-2.898573
-2.894137
-2.880704
-2.859233
-2.831602
-2.801122
-2.771165
-2.744485
-2.722081
-2.701106
-2.674895
-2.636120
-2.580721
-2.509145
-2.423996
-2.327966
-2.224557
-2.118633
-2.014703
-1.915721
-1.823481
-1.738066
-1.657006
-1.577387
-1.499546
-1.427517
-1.365588
-1.315211
-1.275308
-1.244690
-1.223193
-1.211197
-1.209923
-1.221077
-1.244430
-1.277095
-1.315544
-1.356661
-1.397853
-1.437967
-1.477646
-1.518475
-1.561364
-1.605089
-1.648427
-1.694008
-1.746936
-1.810253
-1.883436
-1.962152
-2.038469
-2.104663
-2.157654
-2.198948
-2.231046
-2.254275
-2.267021
-2.269014
-2.263238
-2.253804
-2.242917
-2.229765
-2.210810
-2.181812
-2.141361
-2.092663
-2.041535
-1.992919
-1.949382
-1.911529
-1.878530
-1.848913
-1.821641
-1.796755
-1.775301
-1.758511
-1.747752
-1.744955
-1.750905
-1.763062
-1.776510
-1.786669
-1.790223
-1.785128
-1.771705
-1.752663
-1.730608
-1.705328
-1.674338
-1.636145
-1.590625
-1.536707
-1.472774
-1.398735
-1.316305
-1.228622
-1.140219
-1.056240
-0.980714
-0.914852
-0.856987
-0.804406
-0.754718
-0.706249
-0.659054
-0.615581
-0.579129
-0.551754
-0.534403
-0.527942
-0.532457
-0.546141
-0.566209
-0.590975
-0.621034
-0.658666
-0.706275
-0.765442
-0.836031
-0.914714
-0.995719
-1.073415
-1.142701
-1.198456
-1.236912
-1.257705
-1.264709
-1.264363
-1.262365
-1.261560
-1.261288
-1.257649
-1.246166
-1.225470
-1.197499
-1.165010
-1.130651
-1.097302
-1.067613
-1.043026
-1.023436
-1.008073
-0.996222
-0.986952
-0.979740
-0.975514
-0.974952
-0.976128
-0.975559
-0.971135
-0.964254
-0.959206
-0.959816
-0.966997
-0.978681
-0.991497
-1.003332
-1.014139
-1.024922
-1.036721
-1.049317
-1.060602
-1.068201
-1.071304
-1.070724
-1.067793
-1.062760
-1.054414
-1.041794
-1.025378
-1.006414
-0.985873
-0.964129
-0.941817
-0.920816
-0.903474
-0.891033
-0.883669
-0.881457
-0.884376
-0.892201
-0.904647
-0.920816
-0.938950
-0.957301
-0.975044
-0.992534
-1.010984
-1.031849
-1.056204
-1.083908
-1.112984
-1.140474
-1.163692
-1.180242
-1.188155
-1.186438
-1.175377
-1.156954
-1.134148
-1.109519
-1.085320
-1.063744
-1.045736
-1.030539
-1.016894
-1.004116
-0.991959
-0.979911
-0.966838
-0.951267
-0.931767
-0.907048
-0.877145
-0.845284
-0.816462
-0.793613
-0.776378
-0.762515
-0.749517
-0.736004
-0.722226
-0.708915
-0.695438
-0.679787
-0.660393
-0.636518
-0.607021
-0.570219
-0.525168
-0.472359
-0.413076
-0.348755
-0.280928
-0.211083
-0.140983
-0.073806
-0.014445
0.032257
0.064245
0.083274
0.092898
0.095847
0.093514
0.086653
0.075626
0.060519
0.041846
0.021471
0.002349
-0.013077
-0.023970
-0.030571
-0.033323
-0.033011
-0.030973
-0.027906
-0.023175
-0.016080
-0.006214
0.007565
0.026192
0.048470
0.071864
0.094886
