EVENT_NAME: L_AQUILA
EVENT_ID: IT-2009-0009
EVENT_DATE_YYYYMMDD: 20090406
EVENT_TIME_HHMMSS: 013240
EVENT_LATITUDE_DEGREE: 42.3420
EVENT_LONGITUDE_DEGREE: 13.3800
EVENT_DEPTH_KM: 8.3
HYPOCENTER_REFERENCE: INGV-CNT_Seismic_Bulletin
MAGNITUDE_W: 6.1
MAGNITUDE_W_REFERENCE: INGV-CNT_Seismic_Bulletin
MAGNITUDE_L: 
MAGNITUDE_L_REFERENCE: 
FOCAL_MECHANISM: Normal faulting
NETWORK: IT
STATION_CODE: CLN
STATION_NAME: 
STATION_LATITUDE_DEGREE: 42.085224
STATION_LONGITUDE_DEGREE: 13.520722
STATION_ELEVATION_M: 796
LOCATION: 
SENSOR_DEPTH_M: 0.0
VS30_M/S: 
SITE_CLASSIFICATION_EC8: B (inferred from geology)
MORPHOLOGIC_CLASSIFICATION: 
EPICENTRAL_DISTANCE_KM: 30.8
EARTHQUAKE_BACKAZIMUTH_DEGREE: 157.8
DATE_TIME_FIRST_SAMPLE_YYYYMMDD_HHMMSS: 20090406_013217.000
DATE_TIME_FIRST_SAMPLE_PRECISION: seconds
SAMPLING_INTERVAL_S: 0.005000
NDATA: 18000
DURATION_S: 90.000
STREAM: HNZ
UNITS: cm/s
INSTRUMENT: sensor = Episensor FBA ES-T [Kinemetrics] | digitizer = Etna [Kinemetrics]
INSTRUMENT_ANALOG/DIGITAL: D
INSTRUMENTAL_FREQUENCY_HZ: 
INSTRUMENTAL_DAMPING: 
FULL_SCALE_G: 
N_BIT_DIGITAL_CONVERTER: 18
PGV_CM/S: -7.048114
TIME_PGV_S: 37.160000
BASELINE_CORRECTION: BASELINE REMOVED
FILTER_TYPE: BUTTERWORTH
FILTER_ORDER: 2
LOW_CUT_FREQUENCY_HZ: 0.050
HIGH_CUT_FREQUENCY_HZ: 40.000
LATE/NORMAL_TRIGGERED: NT
DATABASE_VERSION: 0.5
HEADER_FORMAT: DYNA 1.2
DATA_TYPE: VELOCITY
PROCESSING: manual (Paolucci et al., 2011)
DATA_TIMESTAMP_YYYYMMDD_HHMMSS: 20211011_155942.396
DATA_LICENSE: CC-BY3_0-IT (http://creativecommons.org/licenses/by/3.0/deed.en)
DATA_CITATION: Luzi L, Pacor F, Puglia R (2019). Italian Accelerometric Archive v 3.0 - Istituto Nazionale di Geofisica e Vulcanologia, Dipartimento della Protezione Civile Nazionale. doi: 10.13127/itaca.3.1
DATA_CREATOR: ITACA working group
ORIGINAL_DATA_MEDIATOR_CITATION: data obtained within the DPC-INGV data exchange agreements
ORIGINAL_DATA_MEDIATOR: Archive of Italian Department of Civil Protection
ORIGINAL_DATA_CREATOR_CITATION: Presidency Of Counsil Of Ministers-Civil Protection Department. (1972). Italian Strong Motion Network. Presidency of Counsil of Ministers - Civil Protection Department. https://doi.org/10.7914/SN/IT http://www.fdsn.org/networks/detail/IT/
ORIGINAL_DATA_CREATOR: network: IT (Italian Strong Motion Network (RAN)); owner: Presidency of Counsil of Ministers - Civil Protection Department (PCM - DPC)
USER1: 
USER2: 
USER3: 
USER4: 
USER5: 
[...]
0.014602
0.007615
0.001500
-0.003295
-0.006893
-0.009361
-0.010494
-0.010332
-0.009728
-0.009943
-0.011349
-0.012670
-0.011941
-0.008603
-0.004449
-0.002040
-0.002134
-0.002978
-0.001937
0.002571
0.010313
0.019491
0.027769
0.033840
0.038317
0.042887
0.048548
0.054751
0.060018
0.063166
0.063912
0.062586
0.059701
0.055927
0.052167
0.049271
0.047467
0.046165
0.044615
0.042972
0.042428
0.043928
0.047022
0.050515
0.054068
0.058539
0.064692
0.072118
0.079641
0.086307
0.091862
0.096592
0.100742
0.103839
0.104712
0.102482
0.097492
0.091113
0.084736
0.079083
0.074196
0.069606
0.064440
0.057675
0.048662
0.037810
0.026970
0.018681
0.014338
0.013222
0.013839
0.015856
0.019999
0.026289
0.033390
0.040011
0.046253
0.052887
0.059568
0.064476
0.065871
0.063708
0.059717
0.056244
0.055098
0.056925
0.060946
0.065320
0.068364
0.069712
0.070262
0.071050
0.072408
0.074178
0.076240
0.078437
0.080154
0.080177
0.077235
0.071190
0.063686
0.057048
0.052424
0.049278
0.046334
0.042627
0.038293
0.035010
0.035144
0.039548
0.046273
0.052080
0.055316
0.057054
0.059454
0.063388
0.067705
0.070513
0.070996
0.070216
0.070254
0.072299
0.075532
0.078325
0.080359
0.082708
0.085715
0.087953
0.088000
0.086263
0.083942
0.080719
0.074604
0.064301
0.051127
0.038152
0.027436
0.018434
0.009300
-0.000613
-0.009737
-0.015444
-0.016082
-0.012117
-0.005702
0.000712
0.005872
0.010569
0.016717
0.025093
0.034227
0.041809
0.046623
0.048441
0.046555
0.039966
0.029659
0.019529
0.013537
0.011882
0.011175
0.008751
0.005757
0.005261
0.008159
0.012069
0.013930
0.012672
0.009422
0.005797
0.002356
-0.001215
-0.004715
-0.006909
-0.006632
-0.004017
-0.000340
0.003042
0.005422
0.006847
0.007651
0.007216
0.003299
-0.006040
-0.019340
-0.031698
-0.038695
-0.040064
-0.039736
-0.043156
-0.054077
-0.072232
-0.093190
-0.110787
-0.120551
-0.122009
-0.118683
-0.115636
-0.115967
-0.118780
-0.120286
-0.117253
-0.109700
-0.100290
-0.091518
-0.083910
-0.076652
-0.068997
-0.060485
-0.050597
-0.039471
-0.028764
-0.020356
-0.013968
-0.007487
-0.000124
0.006070
0.008594
0.007358
0.004347
0.001376
-0.000671
-0.000956
0.001554
0.007045
0.014238
0.021605
0.029261
0.038810
0.050903
0.063642
0.074171
0.081801
0.089050
0.099236
0.113212
0.128793
0.143473
0.157546
0.173988
0.194673
0.217091
0.235673
0.246546
0.250522
0.251210
0.250915
0.249319
0.245677
0.240489
0.234448
0.227080
0.217598
0.206775
0.196987
0.190204
0.186601
0.185354
0.185798
0.187220
0.188441
0.188607
0.188303
0.189149
0.191949
0.195429
0.196908
0.193849
0.184823
0.169973
0.151360
0.132402
0.116009
0.103084
0.093298
0.087124
0.086227
0.091689
0.102377
0.115084
0.125883
0.131621
0.130968
0.124381
0.113134
0.098856
0.084162
0.072691
0.067006
0.065936
0.065003
0.060673
0.054066
0.049590
0.050225
0.055211
0.061986
0.068855
0.075666
0.083284
0.092823
0.104551
0.117425
0.130519
0.144770
0.162190
0.183015
0.204476
0.222992
0.237124
0.247935
0.257164
0.265858
0.274301
0.282016
0.287296
0.287476
0.280776
0.268358
0.254145
0.241981
0.232902
0.225409
0.217997
0.210870
0.205360
0.201775
0.197633
0.188547
0.171778
0.148929
0.124785
0.103704
0.087179
0.074171
0.062742
0.051305
0.039420
0.028174
0.019613
0.015525
0.016551
0.021928
0.029639
0.036911
0.041121
0.040843
0.036502
0.030300
0.024975
0.021688
0.018924
0.014088
0.006453
-0.001790
-0.007706
-0.010390
-0.010630
-0.008227
-0.001529
0.009934
0.024036
0.037654
0.048188
0.053580
0.052973
0.048391
0.044406
0.044830
0.050080
0.058171
0.067186
0.075742
0.081840
0.083187
0.079752
0.075591
0.077203
0.089646
0.113603
0.144714
0.175081
0.196901
0.206729
0.207265
0.204868
0.204657
0.207285
0.209651
0.208171
0.201864
0.193446
0.187737
0.188221
0.194727
0.204599
0.215573
0.226613
0.236109
0.240319
0.234472
0.215521
0.183992
0.144059
0.102546
0.066713
0.040570
0.022350
0.006701
-0.009381
-0.022657
-0.026253
-0.016239
0.005216
0.033391
0.065991
0.103041
0.142870
0.180444
0.209986
0.228304
0.235895
0.235800
0.231247
0.223696
0.212712
0.197380
0.177505
0.153881
0.128068
0.101648
0.074964
0.047066
0.018047
-0.008735
-0.028132
-0.037605
-0.039967
-0.041476
-0.046561
-0.053587
-0.055748
-0.046561
-0.024994
0.003663
0.031197
0.051651
0.064410
0.072928
0.081498
0.093311
0.109498
0.128275
0.145670
0.158638
0.168307
0.179902
0.198311
0.222866
0.247045
0.263920
0.271456
0.272417
0.270315
0.266144
0.258347
0.245158
0.226747
0.205270
0.183592
0.164740
0.151915
0.147152
0.149002
0.152752
0.154731
0.156143
0.161098
0.171204
0.183287
0.191375
0.189448
0.173864
0.145869
0.112187
0.081865
0.061369
0.051383
0.047012
0.041392
0.031011
0.018730
0.010760
0.009824
0.012354
0.012964
0.009557
0.002886
-0.006295
-0.017246
-0.027726
-0.034330
-0.034030
-0.025164
-0.007948
0.015274
0.040603
0.064169
0.083586
0.097778
0.106231
0.109937
0.112503
0.118160
0.128657
0.143515
0.162222
0.184260
0.208631
0.235977
0.269488
0.310031
0.351039
0.382189
0.398618
0.402863
0.397096
0.378098
0.342518
0.293569
0.239569
0.187756
0.141196
0.099878
0.062950
0.030248
0.002653
-0.019276
-0.037561
-0.056883
-0.081043
-0.109023
-0.135094
-0.153700
-0.164612
-0.172429
-0.180365
-0.185406
-0.180451
-0.160822
-0.128108
-0.088713
-0.050210
-0.018492
0.004346
0.021269
0.038673
0.061496
0.088702
0.114141
0.132169
0.140962
0.140996
0.134029
0.124174
0.116465
0.113300
0.114286
0.119067
0.126817
0.132589
0.128330
0.110567
0.086470
0.070490
0.073958
0.097414
0.132173
0.168273
0.200888
0.230228
0.256887
0.279218
0.295614
0.307153
0.316002
0.321418
0.318539
0.301821
0.269905
0.228291
0.188484
0.162112
0.152372
0.151793
0.150243
0.143710
0.134160
0.124481
0.117173
0.115564
0.122196
0.136428
0.155170
0.174491
0.189948
0.198121
0.199772
0.200406
0.205862
0.217335
0.232408
0.250741
0.275878
0.309923
0.347753
0.378286
0.392505
0.390775
0.382329
0.376611
0.374117
0.366302
0.345242
0.311947
0.273704
0.235924
0.200245
0.169312
0.148985
0.143559
0.150280
0.160777
0.167509
0.168169
0.166192
0.169051
0.183714
0.209847
0.237191
0.252318
0.248886
0.230676
0.206462
0.184720
0.171460
0.168255
0.171165
0.173604
0.170446
0.158983
0.138836
0.114657
0.097506
0.098375
0.118774
0.149166
0.175478
0.185757
0.173750
0.141727
0.101492
0.068425
0.050080
0.041245
0.031521
0.015082
-0.008013
-0.035368
-0.063120
-0.084720
-0.093015
-0.086379
-0.072601
-0.065557
-0.076748
-0.107116
-0.144923
-0.173180
-0.181984
-0.175543
-0.167721
-0.169813
-0.182394
-0.198803
-0.213953
-0.227887
-0.241554
-0.250533
-0.244526
-0.215032
-0.164546
-0.106984
-0.057176
-0.020281
0.007510
0.029305
0.041195
0.036713
0.016209
-0.011640
-0.039359
-0.068876
-0.107001
-0.154285
-0.202334
-0.242768
-0.275174
-0.303981
-0.330766
-0.353239
-0.369684
-0.379846
-0.381156
-0.367697
-0.335392
-0.288347
-0.239458
-0.202872
-0.183883
-0.176603
-0.171987
-0.166101
-0.160480
-0.159386
-0.169943
-0.200684
-0.253286
-0.314149
-0.358263
-0.366038
-0.337310
-0.288933
-0.241248
-0.207934
-0.194547
-0.199976
-0.216195
-0.230518
-0.234293
-0.230604
-0.230194
-0.239178
-0.253481
-0.264285
-0.264671
-0.251635
-0.226932
-0.197899
-0.174415
-0.161735
-0.156193
-0.150888
-0.146717
-0.153570
-0.177355
-0.209594
-0.233722
-0.239205
-0.227281
-0.206761
-0.187676
-0.176563
-0.174377
-0.177831
-0.181923
-0.181338
-0.172799
-0.159769
-0.154035
-0.168744
-0.208465
-0.266640
-0.330510
-0.385817
-0.420625
-0.432475
-0.433215
-0.441060
-0.465177
-0.500790
-0.538812
-0.574864
-0.607704
-0.634653
-0.654021
-0.671378
-0.698370
-0.742555
-0.800249
-0.860205
-0.911642
-0.947506
-0.963983
-0.961753
-0.947665
-0.932233
-0.923946
-0.925121
-0.931934
-0.938224
-0.940454
-0.940471
-0.944075
-0.955633
-0.973634
-0.993076
-1.011428
-1.029597
-1.047243
-1.059073
-1.056529
-1.034008
-0.995038
-0.951581
-0.915216
-0.889193
-0.869333
-0.850608
-0.830735
-0.807405
-0.775286
-0.730226
-0.677404
-0.632849
-0.614430
-0.629045
-0.666585
-0.706481
-0.731380
-0.735845
-0.724897
-0.706743
-0.685711
-0.660235
-0.627924
-0.592538
-0.563939
-0.550214
-0.551318
-0.560825
-0.571540
-0.577507
-0.572990
-0.554991
-0.528705
-0.505750
-0.491864
-0.477806
-0.447472
-0.396259
-0.338712
-0.296186
-0.278181
-0.276442
-0.274082
-0.258258
-0.227471
-0.191427
-0.164836
-0.158059
-0.170036
-0.189712
-0.205251
-0.212329
-0.215975
-0.228027
-0.260744
-0.315337
-0.374191
-0.410795
-0.413426
-0.397572
-0.391976
-0.414982
-0.466313
-0.534809
-0.606048
-0.665103
-0.700362
-0.707799
-0.690335
-0.653670
-0.603735
-0.546109
-0.485408
-0.424306
-0.362621
-0.298714
-0.233715
-0.174182
-0.130117
-0.109526
-0.113126
-0.134448
-0.166285
-0.204750
-0.243695
-0.268057
-0.259885
-0.214135
-0.146660
-0.083442
-0.039662
-0.008433
0.030320
0.090329
0.167438
0.243913
0.300939
0.329838
0.337716
0.343152
0.362088
0.395446
0.430609
0.455264
0.469288
0.482739
0.504709
0.536625
0.573072
0.605265
0.626615
0.637838
0.643825
0.644460
0.632926
0.605529
0.569122
0.534963
0.507400
0.482112
0.455212
0.430525
0.415843
0.414670
0.424078
0.438979
0.456620
0.477519
0.503427
0.534955
0.570342
0.604344
0.627234
0.627097
0.596431
0.538388
0.467152
0.401134
0.353050
0.324491
0.309182
0.301227
0.301344
0.316346
0.351924
0.405727
0.469301
0.536572
0.606253
0.675178
0.735783
0.783261
0.818816
0.842059
0.846117
0.825819
0.788626
0.753067
0.734866
0.734948
0.741069
0.740974
0.734492
0.732884
0.745898
0.770602
0.795132
0.813993
0.837437
0.882326
0.953594
1.037592
1.113403
1.167837
1.200837
1.221244
1.239343
1.260970
1.284903
1.304632
1.313482
1.307378
1.282416
1.233561
1.160066
1.071253
0.983463
0.910486
0.856855
0.818857
0.790944
0.770815
0.758960
0.756344
0.766035
0.795517
0.850518
0.922823
0.988269
1.022406
1.018992
0.991392
0.956838
0.922139
0.884326
0.841383
0.799517
0.770208
0.761648
0.773208
0.796402
0.819989
0.836479
0.847585
0.864214
0.897296
0.945121
0.992382
1.025500
1.045899
1.063804
1.082893
1.098038
1.106581
1.113766
1.125083
1.140323
1.159059
1.186485
1.228689
1.283094
1.336219
1.372888
1.388453
1.391008
1.391918
1.395992
1.399831
1.396635
1.382287
1.359257
1.337112
1.329612
1.349078
1.400727
1.479791
1.572312
1.660938
1.733886
1.788197
1.824891
1.846384
1.859518
1.874359
1.896349
1.922545
1.947196
1.968982
1.991818
2.019982
2.053589
2.087920
2.115799
2.131800
2.136681
2.138669
2.148714
2.171151
2.197921
2.212884
2.201887
2.161131
2.101178
2.043023
2.004219
1.986450
1.978695
1.970635
1.959986
1.949742
1.943196
1.942818
1.952761
1.979830
2.028815
2.095744
2.166917
2.226993
2.270151
2.303297
2.337691
2.378490
2.422927
2.465684
2.502346
2.528627
2.540421
2.535354
2.512650
2.472936
2.420328
2.363637
2.313063
2.274060
2.244387
2.218700
2.196132
2.181397
2.177802
2.180923
2.180798
2.170670
2.153684
2.141320
2.144364
2.163625
2.188929
2.208037
2.217088
2.222000
2.230305
2.243179
2.254798
2.257046
2.244192
2.214867
2.172056
2.122398
2.073290
2.027376
1.981410
1.933770
1.889543
1.853459
1.822565
1.792451
1.767183
1.755989
1.760469
1.769787
1.770191
1.757677
1.739388
1.723537
1.711352
1.698070
1.677243
1.645149
1.605625
1.569223
1.543463
1.524441
1.500508
1.463911
1.417805
1.372609
1.336823
1.311423
1.291815
1.273910
1.257620
1.243928
1.229277
1.205472
1.167413
1.120991
1.081487
1.062091
1.062779
1.069748
1.065726
1.043292
1.011761
0.991634
0.999629
1.036050
1.084902
1.125953
1.147876
1.152807
1.152033
1.158356
1.179339
1.213241
1.249601
1.275255
1.282105
1.271556
1.254224
1.245485
1.257498
1.290953
1.332415
1.360956
1.360748
1.330093
1.279428
1.221501
1.164563
1.113532
1.072718
1.043337
1.018685
0.985286
0.932422
0.861389
0.783391
0.707377
0.631358
0.545652
0.442442
0.321661
0.189697
0.053806
-0.082860
-0.221612
-0.363234
-0.502452
-0.628342
-0.731361
-0.811138
-0.878264
-0.947695
-1.028967
-1.122016
-1.220665
-1.317933
-1.409119
-1.493418
-1.574019
-1.655611
-1.741481
-1.833360
-1.932970
-2.041500
-2.156977
-2.274151
-2.388150
-2.496561
-2.597095
-2.686200
-2.763136
-2.834070
-2.908154
-2.988084
-3.065537
-3.126621
-3.162175
-3.173509
-3.170076
-3.164238
-3.167316
-3.185798
-3.219095
-3.263036
-3.317019
-3.387080
-3.481304
-3.602582
-3.746095
-3.902811
-4.064256
-4.224689
-4.379934
-4.523198
-4.641582
-4.720264
-4.753603
-4.750799
-4.728570
-4.699701
-4.669486
-4.640279
-4.616421
-4.604464
-4.609361
-4.630678
-4.662467
-4.696995
-4.729662
-4.761419
-4.796362
-4.837352
-4.885201
-4.941737
-5.011135
-5.096485
-5.196141
-5.305393
-5.421634
-5.546537
-5.682787
-5.828511
-5.974103
-6.105293
-6.212185
-6.296864
-6.371920
-6.451814
-6.545297
-6.652950
-6.768257
-6.879598
-6.972304
-7.031785
-7.048114
-7.020159
-6.956304
-6.870229
-6.773239
-6.668271
-6.550178
-6.411500
-6.249492
-6.070876
-5.891284
-5.728131
-5.591481
-5.480588
-5.388009
-5.305829
-5.229382
-5.157946
-5.092468
-5.030914
-4.964529
-4.879114
-4.762160
-4.611232
-4.435858
-4.250071
-4.062623
-3.874674
-3.686495
-3.505083
-3.344275
-3.217566
-3.131107
-3.082454
-3.063961
-3.067078
-3.085449
-3.115332
-3.152920
-3.192000
-3.225302
-3.247254
-3.253970
-3.241651
-3.207864
-3.156054
-3.097892
-3.048515
-3.017725
-3.006554
-3.012289
-3.034539
-3.075128
-3.132232
-3.194325
-3.240480
-3.249398
-3.210694
-3.129029
-3.019127
-2.896235
-2.768005
-2.632871
-2.485206
-2.320690
-2.136836
-1.932998
-1.714443
-1.494770
-1.289146
-1.103302
-0.932330
-0.772939
-0.633829
-0.530380
-0.470644
-0.447936
-0.445511
-0.448743
-0.454629
-0.469399
-0.497253
-0.533939
-0.571670
-0.607049
-0.641725
-0.675170
-0.697839
-0.694189
-0.654674
-0.583165
-0.490514
-0.383238
-0.261995
-0.129196
0.007801
0.142941
0.276479
0.409814
0.537548
0.648986
0.737060
0.803327
0.855494
0.902555
0.951632
1.007204
1.072459
1.150768
1.244310
1.350381
1.459751
1.561345
1.651781
1.739269
1.834535
1.938913
2.044834
2.147108
2.250307
2.363638
2.489547
2.619002
2.737918
2.836472
2.912225
2.966846
3.002014
3.018488
3.017089
2.998114
2.959036
2.893946
2.797342
2.670053
2.520688
2.359728
2.192544
2.018254
1.834118
1.641049
1.446774
1.265389
1.113137
1.002034
0.935470
0.908917
0.913375
0.936688
0.964095
0.983242
0.991170
0.995108
1.004753
1.023836
1.050652
1.085817
1.135390
1.204896
1.292871
1.391669
1.491795
1.582668
1.652310
1.692381
1.704776
1.700782
1.692379
1.683820
1.670828
1.647092
1.610849
1.566058
1.519028
1.474805
1.436861
1.408423
1.391917
1.387547
1.392836
1.402825
1.410626
1.408176
1.388809
1.352197
1.305728
1.259293
1.219813
1.189869
1.168198
1.149894
1.126651
1.088543
1.028217
0.944253
0.839692
0.718037
0.581575
0.432476
0.274379
0.111891
-0.052123
-0.217198
-0.381984
-0.541012
-0.685242
-0.806387
-0.901781
-0.975696
-1.036635
-1.092922
-1.148542
-1.202059
-1.250094
-1.291629
-1.328652
-1.363319
-1.395432
-1.423021
-1.444564
-1.459502
-1.467058
-1.466103
-1.456540
-1.439352
-1.414427
-1.379353
-1.331265
-1.269756
-1.197653
-1.118864
-1.035300
-0.945370
-0.845783
-0.736304
-0.623942
-0.522349
-0.445044
-0.397045
-0.372762
-0.361813
-0.356269
-0.353568
-0.355691
-0.366918
-0.390553
-0.426001
-0.469615
-0.518679
-0.573083
-0.632760
-0.694919
-0.754429
-0.806904
-0.851798
-0.892481
-0.933472
-0.978520
-1.030743
-1.092628
-1.165461
-1.248856
-1.339756
-1.431623
-1.516222
-1.587433
-1.642530
-1.679374
-1.694604
-1.686183
-1.656619
-1.612038
-1.557925
-1.496726
-1.430066
-1.362531
-1.301546
-1.252182
-1.212426
-1.174487
-1.131130
-1.081283
-1.030325
-0.985692
-0.952594
-0.933078
-0.926808
-0.931129
-0.940898
-0.949678
-0.952236
-0.946654
-0.934734
-0.920823
-0.909697
-0.903644
-0.899279
-0.887287
-0.858159
-0.810510
-0.754124
-0.704478
-0.673518
-0.664226
-0.672222
-0.691128
-0.716219
-0.744636
-0.774523
-0.804778
-0.835134
-0.865844
-0.896154
-0.922810
-0.941606
-0.951486
-0.956841
-0.965264
-0.982372
-1.008071
-1.037010
-1.061714
-1.075437
-1.073657
-1.055067
-1.022935
-0.985911
-0.956327
-0.946029
-0.962082
-1.003948
-1.063266
-1.127847
-1.188653
-1.243835
-1.296099
-1.347538
-1.397694
-1.445647
-1.491891
-1.536467
-1.576071
-1.604590
-1.616582
-1.610899
-1.592381
-1.569375
-1.548165
-1.530012
-1.513409
-1.497511
-1.482880
-1.470286
-1.459311
-1.447475
-1.431273
-1.409190
-1.383405
-1.357739
-1.333425
-1.306764
-1.271552
-1.223905
-1.163919
-1.093218
-1.012682
-0.922536
-0.822491
-0.710968
-0.586449
-0.451659
-0.315353
-0.188729
-0.080901
0.002999
0.062301
0.100700
0.124636
0.140139
0.150574
0.157459
0.163349
0.173284
0.191879
0.218320
0.245447
0.264870
0.273931
0.278523
0.289064
0.313619
0.354356
0.408626
0.471672
0.538208
0.603344
0.664473
0.722675
0.781580
0.844780
0.914060
0.988749
1.065909
1.141904
1.214460
1.283341
1.349598
1.414033
1.475441
1.530058
1.572976
1.600526
1.611681
1.607401
1.589061
1.558173
1.517828
1.473550
1.430761
1.390011
1.344797
1.284139
1.198021
1.083474
0.947833
0.805341
0.669606
0.549076
0.447510
0.366003
0.304246
0.260688
0.232272
0.214418
0.201465
0.188491
0.173607
0.157708
0.141513
0.123429
0.100301
0.069156
0.028614
-0.019384
-0.068670
-0.110298
-0.135667
-0.139907
-0.123848
-0.093324
-0.055857
-0.015979
0.026968
0.075752
0.130169
0.185438
0.235634
0.278807
0.318643
0.361703
0.413808
0.478039
0.554371
0.639617
0.727316
0.809745
0.882170
0.945564
1.005490
1.068669
1.139963
1.221154
1.310917
1.405502
1.500545
1.593417
1.684272
1.774423
1.862935
1.944482
2.011209
2.058097
2.087108
2.106082
2.124326
2.149487
2.186657
2.237658
2.299516
2.363851
2.419715
2.459170
2.481563
2.493340
2.503953
2.520837
2.545846
2.574566
2.599152
2.613158
2.614989
2.607828
2.596877
2.586466
2.578851
2.574112
2.569467
2.558762
2.534525
2.491791
2.430424
2.354713
2.271529
2.188548
2.112650
2.048126
1.995618
1.952964
1.917340
1.886990
1.861727
1.842602
1.831295
1.829143
1.835634
1.847451
1.859313
1.865848
1.863184
1.849932
1.827187
1.797030
1.760643
1.717936
1.668668
1.613463
1.553743
1.491327
1.428665
1.368882
1.314670
1.266691
1.223035
1.180828
1.138908
1.098899
1.063738
1.035479
1.014278
0.998391
0.984300
0.967514
0.944602
0.915219
0.882761
0.853108
