EVENT_NAME: L_AQUILA
EVENT_ID: IT-2009-0009
EVENT_DATE_YYYYMMDD: 20090406
EVENT_TIME_HHMMSS: 013240
EVENT_LATITUDE_DEGREE: 42.3420
EVENT_LONGITUDE_DEGREE: 13.3800
EVENT_DEPTH_KM: 8.3
HYPOCENTER_REFERENCE: INGV-CNT_Seismic_Bulletin
MAGNITUDE_W: 6.1
MAGNITUDE_W_REFERENCE: INGV-CNT_Seismic_Bulletin
MAGNITUDE_L: 
MAGNITUDE_L_REFERENCE: 
FOCAL_MECHANISM: Normal faulting
NETWORK: IT
STATION_CODE: CLN
STATION_NAME: 
STATION_LATITUDE_DEGREE: 42.085224
STATION_LONGITUDE_DEGREE: 13.520722
STATION_ELEVATION_M: 796
LOCATION: 
SENSOR_DEPTH_M: 0.0
VS30_M/S: 
SITE_CLASSIFICATION_EC8: B (inferred from geology)
MORPHOLOGIC_CLASSIFICATION: 
EPICENTRAL_DISTANCE_KM: 30.8
EARTHQUAKE_BACKAZIMUTH_DEGREE: 157.8
DATE_TIME_FIRST_SAMPLE_YYYYMMDD_HHMMSS: 20090406_013218.000
DATE_TIME_FIRST_SAMPLE_PRECISION: seconds
SAMPLING_INTERVAL_S: 0.005000
NDATA: 17800
DURATION_S: 89.000
STREAM: HNN
UNITS: cm/s^2
INSTRUMENT: sensor = Episensor FBA ES-T [Kinemetrics] | digitizer = Etna [Kinemetrics]
INSTRUMENT_ANALOG/DIGITAL: D
INSTRUMENTAL_FREQUENCY_HZ: 
INSTRUMENTAL_DAMPING: 
FULL_SCALE_G: 
N_BIT_DIGITAL_CONVERTER: 18
PGA_CM/S^2: 89.381271
TIME_PGA_S: 36.275000
BASELINE_CORRECTION: BASELINE NOT REMOVED
FILTER_TYPE: 
FILTER_ORDER: 
LOW_CUT_FREQUENCY_HZ: 
HIGH_CUT_FREQUENCY_HZ: 
LATE/NORMAL_TRIGGERED: NT
DATABASE_VERSION: 0.5
HEADER_FORMAT: DYNA 1.2
DATA_TYPE: ACCELERATION
PROCESSING: converted to cm/s^2
DATA_TIMESTAMP_YYYYMMDD_HHMMSS: 20211011_155941.504
DATA_LICENSE: CC-BY3_0-IT (http://creativecommons.org/licenses/by/3.0/deed.en)
DATA_CITATION: Luzi L, Pacor F, Puglia R (2019). Italian Accelerometric Archive v 3.0 - Istituto Nazionale di Geofisica e Vulcanologia, Dipartimento della Protezione Civile Nazionale. doi: 10.13127/itaca.3.1
DATA_CREATOR: ITACA working group
ORIGINAL_DATA_MEDIATOR_CITATION: data obtained within the DPC-INGV data exchange agreements
ORIGINAL_DATA_MEDIATOR: Archive of Italian Department of Civil Protection
ORIGINAL_DATA_CREATOR_CITATION: Presidency Of Counsil Of Ministers-Civil Protection Department. (1972). Italian Strong Motion Network. Presidency of Counsil of Ministers - Civil Protection Department. https://doi.org/10.7914/SN/IT http://www.fdsn.org/networks/detail/IT/
ORIGINAL_DATA_CREATOR: network: IT (Italian Strong Motion Network (RAN)); owner: Presidency of Counsil of Ministers - Civil Protection Department (PCM - DPC)
USER1: 
USER2: 
USER3: 
USER4: 
USER5: 
[...]
0.896927
0.504901
0.746472
0.977763
0.949260
0.341830
-0.345501
-0.621181
-0.969285
-1.953321
-3.048097
-3.249951
-2.492065
-1.203379
-0.298775
-0.374003
-1.396355
-2.645324
-3.048097
-2.770549
-2.029951
-0.942651
-0.433344
-0.899664
-1.422054
-1.204313
-0.581931
0.058207
0.390424
0.517517
1.126349
1.869283
1.771627
1.222603
1.377264
2.173933
3.117318
3.975196
4.289658
3.611673
2.082818
0.172684
-1.797259
-2.755129
-2.121533
-0.734256
0.076430
-0.226818
-0.977228
-2.083685
-3.162575
-3.139212
-1.979488
-0.581931
0.194178
0.445560
0.514247
0.137640
-0.338492
-0.252050
0.146985
0.434345
0.485744
0.963745
1.982358
2.847713
3.463086
2.565491
0.593680
0.169413
1.378199
2.854254
3.462152
2.775288
1.276338
0.062879
-0.186167
0.048394
0.021294
-1.036102
-3.041556
-5.138124
-6.161410
-5.294654
-3.627025
-2.346749
-1.480928
-0.809484
0.018490
1.158122
2.566892
3.420566
3.516353
3.296276
2.152439
0.473595
-0.412785
0.118950
1.761814
3.529436
3.806985
2.105246
0.092783
-0.972088
-1.014141
-0.651085
-0.193643
0.225016
0.209597
0.186701
0.377341
0.412385
0.351642
0.163806
0.035311
0.361455
0.712362
0.577793
0.170815
0.393695
1.412309
2.584182
3.695779
4.216300
3.255625
1.629582
1.102986
1.430532
2.000114
2.327659
2.039831
1.546410
0.614706
-0.643609
-2.043969
-3.098094
-3.179396
-3.035482
-3.301349
-3.583570
-3.609269
-4.041479
-4.494248
-3.929338
-2.677098
-1.607086
-0.886114
-0.045991
0.645078
0.900666
0.855342
0.474063
-0.236163
-0.969752
-1.079089
-0.529131
-0.040851
-0.175888
-0.548289
-1.154317
-2.432724
-3.326581
-2.801855
-0.822100
1.981424
3.456077
2.057586
-0.762758
-2.879886
-3.504137
-3.298546
-3.528902
-3.933076
-4.275106
-4.569943
-3.800843
-2.388802
-1.346826
-0.971621
-0.780047
0.007276
0.864687
1.301102
1.550616
2.115526
2.246357
1.305307
0.652554
1.058129
1.934231
2.322987
2.408494
2.354760
2.030018
1.444082
-0.217006
-2.004252
-2.453750
-1.645868
-0.402973
0.415656
0.911880
1.475388
2.204304
2.669222
2.516430
1.774430
0.837120
-0.354846
-2.330863
-4.105960
-4.530227
-3.393398
-1.516906
-0.243639
-0.036179
-0.637534
-1.119740
-0.498760
0.982902
2.235610
3.251887
4.326571
4.430302
2.602872
0.160535
-1.185623
-1.375796
-1.114133
-0.914616
-0.039917
1.136629
1.218398
-0.238500
-2.389269
-3.989147
-4.787684
-3.814394
-1.546343
0.137640
0.378276
-1.519710
-4.923187
-8.325263
-9.829821
-8.433199
-5.061962
-1.017879
2.747253
5.992799
7.768831
7.225883
5.010631
2.617356
1.436606
1.646870
1.998712
1.359509
0.474529
0.278283
1.209052
2.600068
3.285062
2.935089
1.746862
0.986640
1.319325
2.181409
2.693519
2.313641
1.046916
-0.624451
-2.213582
-3.083609
-2.497672
-0.817894
1.027758
1.864143
1.558092
0.635733
-0.396899
-0.817894
-0.374003
0.809551
1.616966
1.102986
-1.024888
-3.897565
-5.272226
-3.771874
-1.194034
-0.024965
0.615641
1.666027
2.643990
2.686977
1.833304
0.907206
-0.867423
-3.278454
-4.751238
-4.601717
-3.093888
-0.920690
1.013274
1.845453
1.279609
-0.722107
-3.307423
-5.094203
-5.807699
-5.341380
-3.035014
0.438084
2.952378
3.236468
1.984227
0.409114
-0.717902
-0.582866
1.074017
3.429911
5.845614
6.689474
3.657464
-0.763693
-2.715880
-1.588863
1.409972
4.109766
5.216223
3.643914
0.793664
-1.085164
-2.257036
-1.947247
-0.202054
1.592201
2.632776
2.904250
3.391129
4.307413
4.622810
2.236545
-2.611682
-6.486619
-6.816967
-3.897098
-0.727714
0.874967
0.937111
-0.245508
-2.122000
-4.455466
-6.089921
-5.981985
-4.256416
-1.714087
0.016621
0.554430
0.813756
0.830110
0.795066
1.550616
3.008915
3.606533
2.586051
1.486135
1.070279
0.674047
0.494155
0.738061
0.040918
-2.132280
-4.403601
-5.904421
-6.126833
-4.665730
-3.439656
-4.368090
-5.546504
-4.847025
-2.722421
0.066617
3.414959
6.632470
9.470103
11.255480
9.240213
3.656529
-1.933230
-5.427354
-7.476263
-8.614026
-8.188358
-6.359059
-3.355551
-0.116079
1.863676
2.520635
3.178996
4.627483
5.556851
4.607858
2.486525
-0.179626
-2.282736
-2.186949
-1.588863
-2.043034
-3.208833
-3.522360
-1.591200
1.176345
4.340122
6.074568
4.820458
3.114515
2.388869
3.492522
5.430692
6.633404
5.938130
1.806204
-2.983149
-5.749292
-4.274172
1.505759
6.403048
7.322604
4.619071
1.063270
-1.176745
-1.857067
-1.720629
-2.439265
-3.727017
-5.236715
-6.813230
-7.546351
-7.348702
-6.544091
-5.482491
-4.416217
-3.504605
-2.658408
-0.858545
2.045905
3.330853
1.588931
-1.206650
-2.607477
-2.829890
-2.839235
-1.829032
0.235296
2.060390
0.603492
-2.353758
-1.927155
1.092240
4.256483
6.182504
6.583408
5.704036
5.435365
6.275020
6.891795
6.707230
4.358345
1.921615
0.989444
1.440812
2.910325
3.653726
3.745307
2.472508
1.150646
1.084764
1.209988
1.682381
1.866012
2.344947
2.877150
3.036951
2.828088
0.038582
-4.291460
-7.599618
-9.767209
-10.033080
-6.428679
-1.342153
0.400237
-0.973490
-3.267240
-5.630610
-8.468243
-10.923190
-10.247550
-6.879580
-2.698591
1.170738
3.824741
5.308739
3.112178
-2.794379
-5.919840
-3.995688
-0.130564
3.135541
4.962971
3.371037
-1.869216
-6.003946
-7.550089
-6.582873
-3.879809
-1.121142
2.638383
6.097930
8.197303
9.150501
7.280550
2.673894
-0.198316
2.172998
7.176353
10.391990
9.876614
5.757770
-0.926765
-7.310855
-9.015397
-5.717519
-1.377665
1.723500
3.462620
5.510593
8.376728
8.622503
4.197609
-2.109852
-4.933000
-4.968978
-5.159151
-4.140070
-2.987822
-2.723356
-2.246290
-1.615497
-3.570955
-8.862138
-12.448310
-10.097090
-2.578507
4.171443
6.981040
8.439341
9.164986
8.841179
7.981899
6.673121
5.253603
3.156568
0.110539
-1.928090
-1.217864
-0.584735
-3.193881
-6.932847
-8.403295
-5.686680
-0.648748
2.841638
1.652011
-2.743448
-6.190847
-6.916960
-1.715022
6.186709
12.467070
15.858400
15.476180
12.820780
5.012033
-4.024191
-7.703348
-5.422682
-0.505769
2.614086
5.200336
6.927774
6.814699
3.730823
0.934775
3.124327
5.542366
5.021846
2.776690
0.769367
0.725912
2.729965
4.938207
7.935174
13.063290
15.656080
13.438490
6.052140
-3.458814
-8.392080
-9.172395
-7.213666
-1.149177
5.743285
8.329068
7.508104
4.105560
-1.126282
-6.139917
-10.698910
-11.644170
-9.740576
-6.087584
0.113810
4.089674
2.812669
-2.435995
-7.643073
-9.712073
-8.429928
-5.612854
-3.376110
-0.069821
5.957755
13.670250
21.807480
26.760830
23.253160
15.686920
11.235390
9.458889
8.618766
7.516982
7.341294
7.726311
5.908693
1.876759
-2.805593
-5.337174
-4.025126
-0.873030
-0.871629
-6.139450
-9.481250
-7.393559
-3.522360
1.810409
7.081967
11.821790
11.664330
3.804649
-2.834562
-4.993743
-4.281180
-0.687998
3.492991
4.543377
0.735725
-4.801702
-9.065393
-10.309220
-6.719779
-1.480461
2.569697
6.859555
9.179938
6.816100
1.471650
-2.807462
-4.515275
-5.985723
-7.247309
-8.855129
-12.960420
-14.276210
-7.865018
-0.357649
1.535664
-2.357963
-5.720323
-3.966251
-3.055106
-1.624842
1.103454
-1.736516
-6.788932
-10.834420
-12.937530
-12.913700
-13.935110
-12.579610
-5.158683
4.513006
10.789630
15.181810
18.932461
14.661290
4.526556
-0.728182
1.944978
6.697885
6.365667
3.743438
1.983761
-0.132900
-0.964145
-2.138821
-1.351966
5.284909
12.176900
16.864401
14.907540
5.049413
-3.727952
-8.419648
-6.194118
0.585268
6.388096
10.649450
10.330780
5.132116
-0.886581
-2.524773
0.803477
5.291451
8.512232
8.002458
1.848256
-6.448771
-12.475880
-15.379400
-14.072950
-9.321448
-3.724681
0.286227
2.211780
2.187950
0.057739
-2.466834
-6.573528
-10.347070
-11.448390
-9.639181
-1.678109
7.659494
15.144430
19.055820
18.140471
15.197230
8.343554
2.581378
-1.058530
-3.794769
-1.361778
4.160229
10.477970
13.514650
12.109150
6.826847
-0.491284
-4.390051
-6.197389
-6.312334
-4.290993
-1.561763
1.448754
3.811190
5.691887
6.609574
6.568923
4.173779
-0.051131
-1.312716
1.033366
4.105093
4.370493
0.688532
-2.266849
-1.109928
3.112178
9.837831
16.805519
17.225580
9.184143
0.544618
-4.236324
-7.345899
-9.025209
-8.167799
-5.598370
-3.187339
-5.481556
-10.388660
-6.539419
3.574292
12.479680
15.526650
9.240681
2.703799
-0.332418
-1.137029
2.546334
7.516982
6.406786
0.099325
-3.855979
-4.904964
-4.072318
-5.283440
-8.636455
-9.693851
-11.089070
-10.869460
-7.151521
-3.069591
-1.901456
-6.282429
-8.121541
-2.318247
3.256560
7.263729
11.323700
12.451650
13.039920
13.909480
9.591589
1.032431
-6.352050
-8.519174
-2.182743
7.579594
14.343090
15.685980
9.092094
-0.123555
-6.645953
-8.079955
-2.820545
2.360367
2.617356
-0.209530
-4.094279
-7.404306
-7.074892
-2.472908
1.863676
2.515495
1.497816
3.826610
8.268326
8.211788
5.130248
4.076122
5.310608
6.745078
5.416207
4.130325
4.268165
2.857525
0.953465
-1.049652
-4.504528
-10.795640
-16.277929
-15.350430
-10.278850
-5.905355
-3.025202
-2.839702
-6.000675
-10.379310
-14.585060
-13.712700
-6.145524
2.408961
8.625308
12.368010
9.846709
0.426870
-7.276278
-10.909180
-12.448780
-13.163210
-11.900220
-6.927239
-4.411544
-6.690342
-11.075520
-13.559910
-13.830450
-15.880290
-16.781630
-14.392560
-9.347615
-3.278454
3.174323
12.365680
15.985020
5.997471
-8.350028
-11.646970
-2.728029
6.838529
10.520490
9.060788
8.161325
7.991244
5.506855
1.023553
-4.558262
-8.674302
-13.754750
-17.786221
-16.373249
-10.808720
-3.131269
1.436606
3.955572
8.172071
8.910333
6.714239
7.884243
11.627880
16.439190
19.578671
18.183451
12.428750
4.327039
-2.203770
-6.741272
-8.119205
-6.175428
-2.166389
4.502259
11.346590
14.918280
13.963680
9.629436
5.929252
6.192316
7.702014
8.774829
10.597590
11.075590
8.378130
3.804649
-2.833161
-10.269040
-13.521590
-16.275120
-19.589350
-18.304411
-15.667690
-13.551500
-11.764250
-9.529844
-4.975520
-1.015543
-0.133367
-0.614639
2.240750
7.031504
8.667360
8.822021
6.284832
0.107268
-4.813850
-7.661295
-8.888305
-7.938844
-3.341066
5.776927
15.150510
18.731079
14.542610
8.739785
4.508333
-1.249170
-5.327829
-5.967967
-5.000751
1.502489
9.822412
9.234139
1.692661
-4.974118
-10.052230
-12.900150
-9.274723
-1.536064
3.915855
5.665253
3.924733
0.382481
-3.027071
-8.845784
-16.556881
-20.225750
-19.998671
-20.434620
-21.154650
-17.806311
-8.704674
1.540336
7.176353
5.662450
0.049329
-5.861901
-12.269820
-14.164540
-9.016799
-3.139212
1.522581
4.289191
3.320106
1.565101
1.197839
1.512768
3.042557
4.407873
3.754184
2.793044
-0.266535
-6.338500
-11.167570
-14.597680
-16.597059
-17.305420
-18.467951
-16.705000
-12.858560
-10.176520
-7.230955
-5.446979
-3.207898
1.990302
8.476254
15.806070
22.683109
28.915340
32.890270
30.418501
21.758410
12.927780
8.073013
6.942726
7.830976
6.642749
5.629275
7.011879
8.452891
10.405550
9.640183
5.112493
-1.939771
-7.647278
-6.270748
-1.231881
3.372439
5.151742
4.538704
5.453588
6.317073
4.427498
5.570401
11.670870
12.343710
7.918819
6.902542
8.487935
6.952538
0.503500
-5.175505
-6.095060
-4.516209
-6.305325
-11.781070
-14.205190
-13.866890
-14.363590
-13.163680
-7.261793
1.225407
6.827314
7.045522
5.945606
6.656300
6.983845
5.593297
3.692508
2.848180
3.048632
3.078536
2.939294
2.923408
2.868738
2.816874
2.360367
3.328050
5.835334
5.326962
1.892178
-0.177757
2.667821
8.133757
11.208750
8.572508
-0.214670
-6.988917
-7.755214
-4.515275
0.037648
2.681370
2.765476
-1.989300
-7.437948
-7.550089
-5.199335
-2.172931
2.434193
7.316062
11.453600
12.480620
8.651006
2.721087
-2.287408
-3.111644
-1.294493
0.067085
3.057977
4.938674
3.148624
-0.358117
-5.776860
-11.717530
-15.378930
-15.075210
-10.131200
-3.179396
-0.769300
-4.845156
-9.571429
-12.390370
-13.319740
-12.801090
-13.575800
-15.398090
-17.110100
-19.739811
-24.015650
-29.049841
-34.979759
-44.118778
-53.639549
-56.234211
-50.608471
-41.955860
-36.235741
-35.584389
-36.505348
-35.075550
-32.319691
-29.132549
-23.790899
-17.408211
-12.987060
-12.746890
-14.907470
-15.126140
-13.639810
-13.450570
-16.125601
-20.323410
-24.099760
-28.119070
-29.742319
-26.186510
-20.505640
-15.825620
-14.061740
-15.555080
-17.776409
-19.173500
-20.994850
-21.255110
-18.752970
-18.041809
-19.951481
-22.202240
-23.009190
-20.827579
-16.518560
-11.729680
-8.142099
-6.267010
-5.890871
-7.565976
-10.267640
-13.634200
-19.161350
-26.524799
-32.574341
-34.976490
-33.764431
-29.218519
-23.297010
-18.174040
-14.935500
-11.808640
-6.221219
1.049720
10.090620
18.465679
23.171391
26.469271
30.325979
33.034649
33.758900
33.999069
32.168831
27.753281
22.741980
17.330721
11.191930
6.144656
4.320964
6.098399
11.297060
15.259850
17.409210
21.630390
26.662710
32.213219
36.738110
37.381519
33.452381
24.799770
15.188360
8.484664
5.821317
6.075970
5.934859
6.144189
6.737134
5.056889
2.300558
0.874967
2.382328
6.150263
12.582010
20.609900
25.706711
28.362110
30.947430
35.566700
42.944180
51.981331
62.908531
74.275421
83.681709
89.381271
88.110809
78.924599
69.137016
65.009308
64.278519
63.624371
60.935791
55.112869
49.617962
48.086769
47.964821
46.486431
45.047279
44.096420
42.892311
42.306370
43.046501
43.496941
39.957489
30.617550
18.223169
6.724986
-3.229392
-13.728590
-23.354019
-28.142900
-29.960051
-32.241192
-31.691231
-25.614130
-18.137131
-14.748140
-16.322321
-20.030910
-21.820959
-19.791210
-16.834890
-12.418870
-4.619005
-0.169346
-7.587470
-23.395611
-38.861710
-49.921612
-52.999409
-52.331242
-47.282089
-31.245001
-12.124510
-0.245976
0.796936
-2.431322
-5.409599
-8.081824
-7.067883
-5.232977
-3.040154
0.891788
7.578192
15.630380
21.197710
25.778200
27.773371
26.395439
25.019381
20.297310
7.849199
-6.883317
-14.917280
-14.778970
-13.952870
-15.767680
-17.088610
-15.648530
-9.003716
-0.550625
5.122304
11.556390
19.337099
24.476900
26.500570
22.559290
15.409830
11.806840
9.352822
10.851310
18.410540
24.181129
27.903271
29.967131
25.944071
18.885269
9.113587
-2.107983
-10.782550
-19.619261
-25.970640
-32.456131
-40.970890
-43.830959
-44.142151
-44.695839
-42.778229
-39.671459
-40.202259
-46.104610
-53.719452
-61.256260
-68.634659
-75.376213
-73.917427
-60.445099
-40.885849
-20.885521
-6.403915
3.597188
10.124260
12.541830
13.893130
13.357660
15.539730
20.649151
13.663710
-1.879028
-7.413651
-6.480545
-7.010878
-6.752954
-7.421127
-6.979105
-1.482797
4.751305
8.246365
8.606150
5.512929
2.502879
1.572577
2.213649
6.014760
10.791960
14.026760
16.551340
18.413340
17.897030
11.927390
2.066931
-6.298783
-9.880284
-8.716355
-5.115229
-4.341924
-10.092890
-17.769871
-26.210810
-36.530579
-43.269321
-39.193459
-20.362659
0.654423
13.281960
23.430250
33.379490
40.134571
39.850491
33.854679
24.778280
18.632481
21.253309
25.299730
28.104660
31.341320
35.937229
39.121571
32.602440
19.275890
6.947866
-0.374003
-5.516600
-11.381570
-14.568240
-15.477990
-15.234550
-14.935040
-16.248949
-19.186110
-24.520281
-32.650970
-38.579021
-36.697392
-30.102100
-25.006229
-24.255819
-25.852421
-27.313061
-25.469740
-18.431030
-11.148410
-6.868366
-4.223241
-1.887906
-1.655681
-3.320039
-2.913528
-1.826696
-0.602490
2.239348
3.209367
4.072385
7.503898
9.505147
10.215370
11.806370
13.247850
15.378530
18.730610
21.822430
24.444189
25.314220
23.376980
19.017500
14.849600
12.231570
9.712607
8.887437
8.870616
8.329535
10.233130
15.528520
20.113211
20.285160
16.210711
10.138740
3.064986
-2.434593
-3.026136
-5.055888
-9.090158
-11.904900
-16.081680
-18.317961
-18.482901
-17.783421
-17.297470
-19.976240
-24.792231
-30.427780
-37.323978
-44.862652
-47.590481
-43.260441
-33.446239
-23.104971
-17.734819
-15.083160
-13.672520
-12.288040
-10.276050
-9.295282
-10.230730
-13.494960
-16.897499
-19.979040
-21.557430
-20.228559
-17.841360
-14.786450
-10.594720
-4.722268
1.787981
8.401960
14.511310
18.607250
20.652889
20.079571
16.610680
9.613082
1.841715
-3.589177
-5.892739
-6.118890
-6.534746
-6.095995
-7.978561
-12.089930
-14.064540
-14.985030
-14.135100
-11.185320
-9.688243
-10.434910
-10.251280
-9.663946
-9.085018
-6.600162
-2.486458
2.430922
5.332569
6.072699
4.848961
1.844986
-0.077297
0.074561
2.790241
5.493304
6.121761
6.449773
5.094270
-1.507561
-9.940093
-16.694250
-22.713881
-26.799549
-29.271790
-29.146570
-25.977180
-22.663420
-21.513510
-22.446609
-24.410009
-28.504560
-32.577610
-32.252399
-26.287439
-17.928730
-9.172395
-1.038438
3.008915
4.800834
5.796553
7.437548
10.755990
12.303060
12.476410
11.996540
11.568540
12.796950
16.485451
20.267410
22.084560
24.744169
28.651340
33.831322
40.895729
45.265961
45.580891
45.970112
42.580650
38.458542
38.481899
38.858971
40.049541
39.598640
39.268291
39.743481
37.626820
32.972511
26.793539
20.124889
13.536610
7.393626
-1.261786
-8.916807
-12.938930
-13.557110
-9.266780
-4.882069
-2.939227
-3.515351
-7.554294
-11.645100
-12.981920
-12.197860
-9.460223
-6.185708
-4.819924
-5.699296
-6.527738
-6.924903
-7.303379
-7.260859
-8.201908
-11.365680
-17.590910
-23.581570
-26.380421
-27.342030
-25.417410
-19.594490
-11.235790
-3.051368
2.699126
5.963829
5.718053
2.358965
-2.117795
-8.297695
-13.887450
-15.553680
-16.526970
-17.546520
-17.695110
-21.129419
-27.540150
-33.900410
-38.892551
-39.968170
-34.917622
-27.663031
-19.924841
-10.735360
-4.072785
2.340275
5.749360
3.921462
0.992715
-3.389660
-4.665263
-2.251897
1.393151
5.992799
10.831680
14.025830
15.950910
17.629761
17.328381
17.978331
17.226990
15.764010
15.791580
15.329000
14.984630
15.278070
18.792290
21.972420
25.060961
28.729380
29.867611
26.335630
21.043980
19.640350
17.463421
16.786831
17.423229
17.012520
19.829121
24.098890
24.753510
21.741590
19.402050
15.286480
10.180330
5.179777
2.192155
2.843040
2.476714
3.932209
6.742742
8.779968
12.241390
15.339280
16.438730
16.944759
16.279860
13.997790
13.218880
13.517920
12.884790
12.525010
14.079100
15.568700
13.930510
9.108915
4.465813
2.694921
3.025269
4.681684
5.904488
7.351106
8.720160
7.284756
4.364419
1.393618
-2.446274
-6.755290
-7.942115
-6.297381
-4.753107
-3.258362
-2.348618
-3.775145
-6.811828
-9.567225
-10.936280
-8.975214
-4.983463
-0.006742
3.447199
2.103844
-2.157979
-8.856531
-13.651960
-13.384220
-11.003560
-5.760507
1.597808
6.343707
9.148632
10.882610
7.214200
3.709329
5.128379
5.999808
6.805354
9.029949
9.456552
8.315986
8.589796
8.018811
5.552646
4.563002
4.400865
3.022466
