EVENT_NAME: L_AQUILA
EVENT_ID: IT-2009-0009
EVENT_DATE_YYYYMMDD: 20090406
EVENT_TIME_HHMMSS: 013240
EVENT_LATITUDE_DEGREE: 42.3420
EVENT_LONGITUDE_DEGREE: 13.3800
EVENT_DEPTH_KM: 8.3
HYPOCENTER_REFERENCE: INGV-CNT_Seismic_Bulletin
MAGNITUDE_W: 6.1
MAGNITUDE_W_REFERENCE: INGV-CNT_Seismic_Bulletin
MAGNITUDE_L: 
MAGNITUDE_L_REFERENCE: 
FOCAL_MECHANISM: Normal faulting
NETWORK: IT
STATION_CODE: CLN
STATION_NAME: 
STATION_LATITUDE_DEGREE: 42.085224
STATION_LONGITUDE_DEGREE: 13.520722
STATION_ELEVATION_M: 796
LOCATION: 
SENSOR_DEPTH_M: 0.0
VS30_M/S: 
SITE_CLASSIFICATION_EC8: B (inferred from geology)
MORPHOLOGIC_CLASSIFICATION: 
EPICENTRAL_DISTANCE_KM: 30.8
EARTHQUAKE_BACKAZIMUTH_DEGREE: 157.8
DATE_TIME_FIRST_SAMPLE_YYYYMMDD_HHMMSS: 20090406_013217.000
DATE_TIME_FIRST_SAMPLE_PRECISION: seconds
SAMPLING_INTERVAL_S: 0.005000
NDATA: 18000
DURATION_S: 90.000
STREAM: HNN
UNITS: cm/s^2
INSTRUMENT: sensor = Episensor FBA ES-T [Kinemetrics] | digitizer = Etna [Kinemetrics]
INSTRUMENT_ANALOG/DIGITAL: D
INSTRUMENTAL_FREQUENCY_HZ: 
INSTRUMENTAL_DAMPING: 
FULL_SCALE_G: 
N_BIT_DIGITAL_CONVERTER: 18
PGA_CM/S^2: 88.467995
TIME_PGA_S: 37.275000
BASELINE_CORRECTION: BASELINE REMOVED
FILTER_TYPE: BUTTERWORTH
FILTER_ORDER: 2
LOW_CUT_FREQUENCY_HZ: 0.050
HIGH_CUT_FREQUENCY_HZ: 40.000
LATE/NORMAL_TRIGGERED: NT
DATABASE_VERSION: 0.5
HEADER_FORMAT: DYNA 1.2
DATA_TYPE: ACCELERATION
PROCESSING: manual (Paolucci et al., 2011)
DATA_TIMESTAMP_YYYYMMDD_HHMMSS: 20211011_155941.627
DATA_LICENSE: CC-BY3_0-IT (http://creativecommons.org/licenses/by/3.0/deed.en)
DATA_CITATION: Luzi L, Pacor F, Puglia R (2019). Italian Accelerometric Archive v 3.0 - Istituto Nazionale di Geofisica e Vulcanologia, Dipartimento della Protezione Civile Nazionale. doi: 10.13127/itaca.3.1
DATA_CREATOR: ITACA working group
ORIGINAL_DATA_MEDIATOR_CITATION: data obtained within the DPC-INGV data exchange agreements
ORIGINAL_DATA_MEDIATOR: Archive of Italian Department of Civil Protection
ORIGINAL_DATA_CREATOR_CITATION: Presidency Of Counsil Of Ministers-Civil Protection Department. (1972). Italian Strong Motion Network. Presidency of Counsil of Ministers - Civil Protection Department. https://doi.org/10.7914/SN/IT http://www.fdsn.org/networks/detail/IT/
ORIGINAL_DATA_CREATOR: network: IT (Italian Strong Motion Network (RAN)); owner: Presidency of Counsil of Ministers - Civil Protection Department (PCM - DPC)
USER1: 
USER2: 
USER3: 
USER4: 
USER5: 
[...]
1.079707
0.662829
0.711284
0.878141
0.785584
0.373054
-0.136106
-0.613140
-1.223470
-2.085416
-2.878603
-3.046779
-2.378749
-1.281460
-0.501426
-0.572975
-1.421805
-2.437533
-2.961660
-2.727636
-1.934374
-1.092666
-0.717225
-0.892669
-1.180153
-1.108026
-0.645717
-0.099524
0.329476
0.736252
1.222746
1.590573
1.596278
1.417629
1.530907
2.170223
3.126178
3.948369
4.177446
3.525528
2.021076
0.057556
-1.665158
-2.422036
-1.993465
-0.940452
-0.168994
-0.221321
-1.038328
-2.162289
-2.956704
-2.902274
-1.999510
-0.793031
0.120538
0.502829
0.425707
0.100986
-0.175123
-0.181446
0.031191
0.276659
0.571237
1.140580
2.042845
2.892094
3.035166
2.194971
1.022643
0.629811
1.403514
2.606684
3.166746
2.624560
1.403526
0.343727
-0.045519
0.011239
-0.206823
-1.285005
-3.134920
-4.950156
-5.765151
-5.235061
-3.880043
-2.508879
-1.513739
-0.747633
0.127502
1.261503
2.460096
3.342381
3.607892
3.113973
1.934721
0.571239
-0.136463
0.380454
1.844344
3.188487
3.335907
2.123429
0.412544
-0.770786
-1.054048
-0.719227
-0.229557
0.108187
0.239882
0.288425
0.346560
0.367526
0.286869
0.174524
0.194791
0.379794
0.518964
0.431256
0.304210
0.566974
1.427754
2.644985
3.649457
3.846142
3.092311
1.973367
1.316754
1.411333
1.886174
2.210321
2.102797
1.531995
0.546976
-0.729145
-1.993797
-2.859913
-3.189694
-3.227864
-3.287830
-3.477027
-3.790749
-4.146490
-4.248142
-3.783510
-2.823329
-1.743369
-0.795831
-0.008634
0.592010
0.901374
0.830726
0.380695
-0.286843
-0.824382
-0.912586
-0.580169
-0.197485
-0.128922
-0.535213
-1.418635
-2.508032
-3.109551
-2.466679
-0.509637
1.748031
2.773412
1.805465
-0.422002
-2.437943
-3.402293
-3.575726
-3.651607
-3.967139
-4.334216
-4.313919
-3.641847
-2.553612
-1.584748
-0.988155
-0.540877
0.032800
0.698825
1.292512
1.767232
2.037039
1.886829
1.366333
0.981163
1.151495
1.721281
2.240720
2.478633
2.439153
2.050577
1.107120
-0.343509
-1.693897
-2.189371
-1.665014
-0.638805
0.300519
0.996461
1.609349
2.194631
2.554072
2.465266
1.887840
0.857641
-0.640818
-2.431693
-3.878779
-4.219846
-3.276888
-1.709946
-0.509194
-0.221952
-0.585111
-0.824874
-0.354399
0.791901
2.202039
3.495659
4.258319
3.959965
2.477153
0.515984
-0.937953
-1.480892
-1.324022
-0.716405
0.190924
0.959153
0.884168
-0.354730
-2.289577
-3.962308
-4.485527
-3.529094
-1.636760
-0.038213
0.062054
-1.797050
-4.996700
-8.051111
-9.393492
-8.299776
-5.196326
-1.136586
2.861822
5.962480
7.432277
6.948713
5.053076
2.982834
1.793381
1.571079
1.575887
1.198567
0.642901
0.588934
1.338599
2.424567
3.027198
2.727177
1.883407
1.293840
1.444989
2.090004
2.528812
2.196746
1.007657
-0.668130
-2.184057
-2.851972
-2.300674
-0.805315
0.799491
1.672526
1.507750
0.626249
-0.307728
-0.656409
-0.157676
0.826454
1.400205
0.702340
-1.318315
-3.572821
-4.547027
-3.678302
-1.836658
-0.197302
0.926762
1.808027
2.459719
2.588603
2.019218
0.743070
-1.140431
-3.167643
-4.491333
-4.444850
-3.046238
-0.954674
0.901654
1.711254
1.079546
-0.786166
-3.137867
-5.061116
-5.835614
-5.036011
-2.719716
0.252986
2.489188
3.038393
2.048268
0.477915
-0.585533
-0.394188
1.219954
3.693173
5.707454
5.715268
3.266559
-0.119049
-2.050304
-1.330669
1.253840
3.807774
4.698226
3.514965
1.145357
-1.045914
-2.088289
-1.700080
-0.287789
1.297084
2.408333
3.108651
3.834682
4.472775
3.995837
1.467818
-2.481706
-5.661016
-6.172452
-4.104400
-1.225153
0.690526
0.951214
-0.228326
-2.279958
-4.450108
-5.826296
-5.711383
-4.152632
-1.993249
-0.247083
0.620915
0.800068
0.773467
1.040790
1.836604
2.790831
3.162951
2.663246
1.748992
1.024533
0.727550
0.729576
0.572336
-0.348500
-2.185704
-4.291493
-5.646307
-5.669721
-4.800799
-4.202526
-4.506191
-5.034112
-4.624358
-2.827945
0.021745
3.417553
6.900097
9.718649
10.599853
8.507041
3.911531
-1.280535
-5.335490
-7.725483
-8.608391
-8.063905
-6.140633
-3.299715
-0.474159
1.525553
2.696074
3.658596
4.675482
5.167557
4.393186
2.357920
-0.041051
-1.666274
-2.115790
-2.080448
-2.438449
-3.089958
-3.019362
-1.437805
1.355622
4.082040
5.346568
4.776522
3.426494
2.841185
3.727720
5.436665
6.395920
5.133829
1.500508
-2.755847
-4.900092
-3.251770
1.211417
5.394445
6.637465
4.751772
1.617495
-0.776278
-1.783775
-2.067445
-2.585256
-3.738802
-5.285640
-6.679701
-7.418937
-7.315848
-6.561912
-5.544160
-4.575449
-3.636074
-2.312204
-0.310333
1.752388
2.548932
1.457383
-0.655228
-2.406318
-3.108713
-2.712150
-1.353525
0.320871
1.011788
0.047765
-1.363360
-1.230715
0.957525
3.861724
5.851313
6.354524
6.013738
5.878222
6.329418
6.723535
6.111146
4.326513
2.312186
1.271203
1.602231
2.691439
3.519332
3.423467
2.523120
1.536247
1.076727
1.175283
1.523119
1.936569
2.442360
3.003376
3.209741
2.287406
-0.282226
-4.035171
-7.666497
-9.720122
-9.128502
-6.024344
-2.275883
-0.224078
-0.710576
-2.958808
-5.913404
-8.741296
-10.387734
-9.824044
-6.978258
-2.853788
1.245989
4.117346
4.543703
1.979174
-2.094208
-4.646237
-3.805377
-0.422832
3.065082
4.393849
2.572805
-1.467900
-5.398895
-7.253343
-6.615259
-4.219257
-0.921385
2.707620
6.089234
8.380414
8.597440
6.348770
2.954384
1.179084
2.808182
6.701327
9.758690
9.433830
5.259086
-1.031108
-6.327702
-8.026505
-5.947799
-2.158315
1.280970
3.961183
6.372160
8.042187
7.379690
3.787213
-0.955408
-4.332156
-5.465851
-5.106258
-4.198120
-3.240173
-2.357145
-1.731210
-2.232994
-4.853678
-8.789439
-11.009730
-8.924434
-3.201022
2.949389
7.015248
8.786790
9.178033
8.845881
8.039665
6.814548
5.048262
2.700417
0.363205
-0.951587
-1.169600
-1.717302
-3.802403
-6.486350
-7.338025
-5.032560
-0.976944
1.716779
0.942495
-2.562463
-5.802921
-5.723369
-1.344436
5.592866
12.073124
15.807667
15.749404
11.625781
4.425342
-2.800779
-6.452407
-5.381719
-1.496422
2.606072
5.527168
6.706140
5.873296
3.829735
2.572459
3.220358
4.514125
4.500990
2.947647
1.304620
0.970742
2.282390
5.018611
8.934919
13.009497
14.895067
12.388970
5.673686
-2.299421
-7.942270
-9.326724
-6.486808
-0.898621
4.794444
7.956847
7.516599
4.068413
-1.050874
-6.330522
-10.229309
-11.500251
-9.657362
-5.240521
-0.087324
2.983575
2.024235
-2.206141
-6.784766
-9.077835
-8.562905
-6.406562
-3.546264
0.446733
6.503490
14.335560
21.572922
24.830383
22.613060
17.110138
12.044405
9.222126
8.124472
7.822189
7.809587
7.318193
5.272649
1.527444
-2.364077
-4.210167
-3.390783
-1.940015
-2.615809
-5.580876
-8.047935
-7.461543
-3.655743
2.011815
7.711836
11.015264
9.748711
4.373300
-1.631662
-4.739922
-3.893322
-0.435677
2.928511
3.527565
0.500357
-4.513261
-8.589363
-9.465015
-6.814017
-2.044642
3.044976
6.955163
8.255047
6.239084
2.054880
-1.997224
-4.535831
-5.961282
-7.592031
-10.187816
-12.540435
-11.923038
-7.437062
-2.151416
-0.089316
-1.718714
-4.032562
-4.464273
-2.952154
-0.927213
-0.256891
-2.235644
-6.227015
-10.184598
-12.778061
-14.059801
-13.917378
-11.084817
-4.820765
3.389866
11.048459
16.218618
17.115196
12.858840
6.044842
1.708863
2.142513
4.741797
5.810765
4.486750
2.148501
-0.045502
-1.714202
-2.130193
0.155649
5.647141
12.170750
15.665978
13.159723
5.498753
-2.869221
-7.199703
-5.663829
0.036283
6.364869
10.025189
9.284627
4.937009
0.215041
-1.447728
0.877777
5.147996
8.033202
6.955484
1.597007
-5.840646
-12.133842
-14.947270
-13.674955
-9.375438
-4.132830
0.065965
2.185765
2.146946
0.325005
-2.854765
-6.791580
-10.241087
-11.330454
-8.434146
-1.526260
7.236277
14.714272
18.639126
18.377483
14.591203
8.778249
2.830951
-1.547429
-3.005464
-0.772119
4.400327
9.960741
12.896712
11.555827
6.601214
0.515609
-4.158779
-6.315313
-6.150610
-4.321331
-1.589206
1.317619
3.896679
5.840719
6.732062
5.961476
3.479769
0.714310
-0.197238
1.296320
3.238290
3.154138
0.813406
-1.392898
-0.701991
3.801506
10.458274
15.500167
15.316014
9.683620
1.996046
-4.223644
-7.731818
-8.670263
-7.484276
-5.508631
-5.021009
-6.813095
-8.006186
-4.605254
3.363181
11.055772
13.419703
9.777040
3.816026
-0.126930
-0.042582
3.049292
5.758475
5.008661
1.152797
-2.702794
-4.479962
-4.958068
-5.954375
-7.961898
-10.052350
-10.979661
-9.806544
-6.782247
-4.021959
-3.796351
-5.507137
-5.843905
-2.752185
2.460013
7.383142
10.863225
13.004772
13.987735
12.881142
8.296421
0.930083
-5.504080
-6.753323
-1.583003
6.939839
13.547448
14.261669
8.774184
0.518570
-5.626389
-6.577714
-3.110402
0.957071
2.117831
-0.225842
-4.074114
-6.599986
-5.971527
-2.784277
0.442915
2.055002
2.996574
4.803617
6.826743
7.221646
6.002859
5.031124
5.259780
5.771219
5.561387
4.791239
3.932270
2.916715
1.375322
-1.276307
-5.629314
-10.976576
-14.732431
-14.553785
-10.824277
-6.171101
-3.196523
-3.260742
-6.316877
-10.773030
-13.698746
-12.325536
-6.275532
1.972314
8.867402
11.442112
8.406640
1.349409
-6.024795
-10.962522
-13.096900
-12.896420
-10.614060
-7.420634
-5.735171
-6.992586
-10.059237
-12.891214
-14.804145
-16.048861
-16.168936
-14.181064
-9.714013
-2.978139
5.206697
11.849815
12.112626
4.532642
-5.035100
-8.338318
-3.375286
4.489951
9.379906
10.196922
9.130962
7.563207
5.034729
1.039953
-3.994134
-9.350383
-14.166147
-16.802061
-15.569850
-10.639354
-4.286436
1.205471
5.111110
7.380925
7.898563
7.633721
8.670124
12.019424
16.331549
18.889145
17.560835
12.251631
4.880001
-2.003072
-6.564606
-8.007883
-6.232575
-1.591281
4.838640
10.900415
14.092193
13.342725
10.065108
7.074354
6.211336
7.287984
9.144109
10.648583
10.676891
8.309296
3.438812
-2.933950
-9.101616
-13.856324
-17.036602
-18.540014
-18.079649
-16.186802
-13.936782
-11.593825
-8.603524
-5.028807
-2.089804
-0.564163
0.618213
2.990189
6.288892
8.683030
8.575430
5.565405
0.638799
-4.343222
-7.883228
-9.217458
-7.535265
-2.074711
6.233032
13.921241
17.165813
15.070181
9.844835
3.966500
-1.331284
-5.137154
-6.164666
-3.351937
2.484161
7.576017
7.769283
2.621827
-4.622211
-10.225170
-11.697584
-8.403676
-2.292914
3.107401
5.338118
4.286819
1.049660
-3.706791
-9.633340
-15.409043
-19.259630
-20.960642
-21.489878
-20.516159
-16.204269
-8.177096
0.621183
5.901043
5.483238
0.438455
-6.337808
-11.576291
-12.674747
-9.264029
-3.605326
1.288209
3.611402
3.402329
2.112226
1.351156
1.785523
3.012570
4.088426
4.141249
2.553333
-0.977778
-5.895109
-10.771060
-14.427680
-16.692867
-17.869377
-17.838642
-16.210987
-13.308041
-10.199988
-7.666862
-5.473545
-2.542291
2.087321
8.430124
15.774294
23.196585
29.295746
31.860874
29.135830
22.024742
14.128583
8.883872
6.980410
6.714837
6.477731
6.350295
7.185928
8.921325
10.123076
8.845389
4.294184
-1.803097
-5.901663
-5.579366
-1.773209
2.414518
4.805587
5.480361
5.410205
5.149558
5.497071
7.401704
9.907578
10.683281
9.530754
8.395185
7.587942
5.212027
0.757886
-3.434114
-5.299732
-5.872322
-7.549591
-10.645282
-13.456216
-14.850921
-14.593567
-11.936603
-6.373553
0.424009
5.404960
7.196358
7.093763
6.773023
6.387897
5.415335
4.088227
3.161331
2.904167
2.979036
3.033358
2.959453
2.756249
2.593894
2.963257
4.079810
4.959209
4.174133
2.105623
1.298141
3.660219
7.812966
9.866312
7.012584
0.459120
-5.441787
-7.130360
-4.535467
-0.320942
2.355057
1.597447
-2.076291
-5.924848
-7.301960
-5.695351
-2.049078
2.710117
7.643135
11.182801
11.563821
8.293409
3.063481
-1.273635
-2.865059
-1.848149
0.578882
3.108446
4.351506
3.190079
-0.565079
-6.081155
-11.620986
-14.857556
-14.006299
-9.459988
-4.331065
-2.349790
-4.556718
-8.687042
-11.873902
-13.119900
-13.322207
-13.784423
-15.053982
-17.076424
-19.871040
-23.664591
-28.902321
-36.178410
-44.982903
-52.346222
-54.410454
-50.232059
-43.123047
-37.629810
-35.602333
-35.498425
-34.907532
-32.664948
-28.646715
-23.217699
-17.673050
-14.011681
-13.176689
-13.929631
-14.294705
-13.899017
-14.131776
-16.238098
-20.085478
-24.540577
-27.982700
-28.642479
-25.793299
-20.828726
-16.431576
-14.560759
-15.301831
-17.399639
-19.501162
-20.643570
-20.344660
-19.225504
-18.862675
-20.087952
-21.903980
-22.422754
-20.510750
-16.553024
-11.990055
-8.285051
-6.247166
-6.012980
-7.326289
-9.941971
-14.016366
-19.764978
-26.428749
-32.047222
-34.625751
-33.393330
-29.131611
-23.680826
-18.828812
-15.052910
-11.248559
-5.888877
1.527787
9.959583
17.545689
23.158619
27.159451
30.338797
32.779804
34.087543
33.872334
31.830626
28.003292
22.855562
16.945196
11.039387
6.520668
4.928465
6.694284
10.501500
14.456595
17.991018
21.959185
27.001186
32.444420
36.452019
36.902836
32.680218
24.733788
15.913655
9.259949
6.054924
5.484748
6.002889
6.492398
6.183597
4.651407
2.494225
1.281113
2.478501
6.619387
13.010311
19.792416
25.037109
28.411518
31.414520
35.919029
42.869232
52.194180
63.191154
74.497887
83.865501
88.467995
86.458344
79.161934
70.980354
65.837570
64.015129
62.876827
59.979012
55.301174
50.869568
48.309921
47.253891
46.413689
45.215946
43.899616
42.988232
42.967430
43.549915
42.974720
38.870136
30.385605
19.071150
7.246769
-3.909118
-14.034250
-22.314501
-27.947590
-31.148363
-32.157814
-30.183086
-25.063745
-19.167011
-15.917178
-16.574018
-19.271315
-21.080557
-20.321562
-16.697569
-10.640015
-4.390032
-2.631306
-9.146501
-22.681204
-37.690247
-48.886967
-54.080349
-52.901844
-44.706215
-30.125645
-13.865266
-2.545532
0.824046
-1.466015
-5.145009
-7.337689
-7.355120
-5.770241
-2.937274
1.568182
7.905695
15.021580
21.272755
25.550514
27.606190
27.608744
25.000834
18.174210
6.970613
-4.986012
-12.841207
-15.408770
-15.614788
-16.153772
-16.489054
-14.365551
-8.997704
-1.874478
5.379841
12.509831
19.326616
24.287365
25.362419
22.090494
16.461256
11.561085
9.788984
12.131765
17.664028
23.879305
28.276232
29.216793
25.929071
18.733170
9.011728
-1.367166
-10.898121
-19.097530
-26.458687
-33.514778
-39.651924
-43.566212
-44.870934
-44.092613
-42.023872
-40.316746
-41.255966
-45.857708
-53.192036
-61.742065
-69.878929
-74.587387
-71.806496
-59.785297
-41.403465
-22.229704
-6.661164
3.849445
9.829566
12.496970
13.587249
15.107307
17.336193
17.065605
11.038903
1.556104
-5.487551
-7.739673
-7.552818
-7.434973
-7.331967
-5.536477
-1.204404
4.116098
7.705384
8.033031
5.757899
2.959423
1.642114
2.764161
6.026977
10.209395
14.118849
17.162033
18.584463
16.855659
10.970900
2.373474
-5.319931
-8.941557
-8.183336
-5.832052
-5.661405
-9.675368
-17.480803
-27.565578
-37.219666
-41.567223
-35.938427
-20.849331
-2.521357
13.144222
24.970282
33.904579
39.147022
38.827965
33.147755
25.612473
20.846743
20.848972
24.026964
28.191706
32.683559
36.603233
36.992180
31.129511
20.207928
8.641187
-0.314187
-6.578370
-11.158458
-14.154200
-15.333904
-15.228848
-15.058465
-16.159582
-19.622272
-25.672293
-32.550404
-36.696728
-35.663521
-30.852322
-26.289076
-24.794786
-25.841291
-26.530836
-24.201061
-18.667259
-12.158062
-6.949045
-3.717289
-2.222501
-2.129255
-2.676445
-2.780938
-1.895181
-0.254853
1.541976
3.183963
4.977791
7.102080
9.063203
10.497785
11.729453
13.324187
15.663287
18.730442
21.969755
24.384424
24.888750
22.975439
19.299908
15.294306
12.078748
9.966441
8.743745
8.199315
8.775896
11.347419
15.598231
19.241850
19.692204
16.162405
9.970453
3.531708
-1.090202
-3.690626
-5.805644
-8.723954
-12.360579
-15.764721
-17.867987
-18.260735
-17.742573
-17.915173
-20.067913
-24.498135
-30.835800
-38.185112
-44.403305
-46.369949
-42.287025
-33.686825
-24.541197
-18.115225
-14.872386
-13.271724
-11.828833
-10.318145
-9.614634
-10.639261
-13.393906
-16.902645
-19.819712
-21.076351
-20.371101
-18.129238
-14.784601
-10.327499
-4.683501
1.819143
8.458707
14.350126
18.662943
20.720600
19.927643
15.957017
9.460891
2.388808
-3.025616
-5.761528
-6.374891
-6.217400
-6.689858
-8.613356
-11.523570
-13.959403
-14.710243
-13.631173
-11.715637
-10.346863
-10.022923
-10.155632
-9.965773
-8.829303
-6.220899
-2.222392
2.066543
5.098018
5.873194
4.473047
2.060777
0.369902
0.610317
2.575870
4.989464
6.636550
6.627903
3.975442
-1.706358
-9.224272
-16.644520
-22.732758
-27.000265
-29.031149
-28.519634
-26.026407
-23.176687
-21.660364
-22.293385
-25.035107
-28.952053
-31.881048
-31.302347
-26.267412
-18.070349
-9.154526
-1.818549
2.722492
4.890317
6.243432
8.066354
10.307749
11.945894
12.327506
11.914980
11.934706
13.428650
16.300678
19.442783
22.146021
24.972446
28.995573
34.492874
40.313221
44.588905
46.184933
45.135338
42.381088
39.665775
38.479988
38.769062
39.447231
39.837273
39.915260
39.343231
37.177498
32.885361
26.996355
20.477394
13.732379
6.424434
-1.436833
-8.477906
-12.609248
-12.657781
-9.432066
-5.426656
-3.271070
-4.194644
-7.478679
-11.008097
-12.733101
-11.934419
-9.381173
-6.704484
-5.326877
-5.472847
-6.289257
-6.879128
-7.002655
-7.193666
-8.585220
-12.135042
-17.493399
-22.918337
-26.569740
-27.408798
-24.943457
-19.220459
-11.371380
-3.436230
2.646073
5.740482
5.561654
2.503213
-2.553119
-8.261046
-12.975797
-15.677003
-16.648209
-17.033077
-18.314215
-21.801296
-27.562969
-33.967037
-38.484451
-39.019142
-35.125603
-28.084879
-19.656349
-11.150730
-3.519198
2.203567
4.842572
3.949533
0.649360
-2.742281
-4.037029
-2.439832
1.345914
6.043906
10.491024
13.922401
16.137772
17.329006
17.774746
17.648048
17.050545
16.254042
15.557790
15.039970
14.964932
15.988808
18.450132
21.948172
25.681194
28.429981
28.697001
26.140179
22.363438
19.287140
17.515615
16.740582
16.777925
17.967163
20.474010
23.115520
24.014498
22.527849
19.293718
14.931215
9.991301
5.582244
2.872500
2.075057
2.631153
4.118893
6.370533
9.199398
12.270087
14.945776
16.548861
16.795622
15.891072
14.527702
13.481404
12.943272
12.801713
13.294974
14.378888
14.811007
13.063171
9.225096
5.220707
2.990923
2.963526
4.312876
6.081536
7.598089
8.161086
7.177137
4.663748
1.088903
-2.881141
-6.114138
-7.410927
-6.631116
-4.791412
-3.160891
-2.761370
-4.124247
-6.832103
-9.491675
-10.443629
-8.715924
-4.677314
-0.081486
2.638580
1.729975
-2.677796
-8.468061
-12.742173
-13.583469
-10.791762
-5.375204
0.952701
6.320744
9.366600
9.488067
7.394089
5.224393
4.694755
5.690140
7.243605
8.552440
9.120147
8.984761
8.412194
7.384888
6.048106
4.914574
4.071320
