EVENT_NAME: L_AQUILA
EVENT_ID: IT-2009-0009
EVENT_DATE_YYYYMMDD: 20090406
EVENT_TIME_HHMMSS: 013240
EVENT_LATITUDE_DEGREE: 42.3420
EVENT_LONGITUDE_DEGREE: 13.3800
EVENT_DEPTH_KM: 8.3
HYPOCENTER_REFERENCE: INGV-CNT_Seismic_Bulletin
MAGNITUDE_W: 6.1
MAGNITUDE_W_REFERENCE: INGV-CNT_Seismic_Bulletin
MAGNITUDE_L: 
MAGNITUDE_L_REFERENCE: 
FOCAL_MECHANISM: Normal faulting
NETWORK: IT
STATION_CODE: CLN
STATION_NAME: 
STATION_LATITUDE_DEGREE: 42.085224
STATION_LONGITUDE_DEGREE: 13.520722
STATION_ELEVATION_M: 796
LOCATION: 
SENSOR_DEPTH_M: 0.0
VS30_M/S: 
SITE_CLASSIFICATION_EC8: B (inferred from geology)
MORPHOLOGIC_CLASSIFICATION: 
EPICENTRAL_DISTANCE_KM: 30.8
EARTHQUAKE_BACKAZIMUTH_DEGREE: 157.8
DATE_TIME_FIRST_SAMPLE_YYYYMMDD_HHMMSS: 20090406_013217.000
DATE_TIME_FIRST_SAMPLE_PRECISION: seconds
SAMPLING_INTERVAL_S: 0.005000
NDATA: 18000
DURATION_S: 90.000
STREAM: HNZ
UNITS: cm
INSTRUMENT: sensor = Episensor FBA ES-T [Kinemetrics] | digitizer = Etna [Kinemetrics]
INSTRUMENT_ANALOG/DIGITAL: D
INSTRUMENTAL_FREQUENCY_HZ: 
INSTRUMENTAL_DAMPING: 
FULL_SCALE_G: 
N_BIT_DIGITAL_CONVERTER: 18
PGD_CM: 1.863656
TIME_PGD_S: 36.700000
BASELINE_CORRECTION: BASELINE REMOVED
FILTER_TYPE: BUTTERWORTH
FILTER_ORDER: 2
LOW_CUT_FREQUENCY_HZ: 0.050
HIGH_CUT_FREQUENCY_HZ: 40.000
LATE/NORMAL_TRIGGERED: NT
DATABASE_VERSION: 0.5
HEADER_FORMAT: DYNA 1.2
DATA_TYPE: DISPLACEMENT
PROCESSING: manual (Paolucci et al., 2011)
DATA_TIMESTAMP_YYYYMMDD_HHMMSS: 20211011_155942.261
DATA_LICENSE: CC-BY3_0-IT (http://creativecommons.org/licenses/by/3.0/deed.en)
DATA_CITATION: Luzi L, Pacor F, Puglia R (2019). Italian Accelerometric Archive v 3.0 - Istituto Nazionale di Geofisica e Vulcanologia, Dipartimento della Protezione Civile Nazionale. doi: 10.13127/itaca.3.1
DATA_CREATOR: ITACA working group
ORIGINAL_DATA_MEDIATOR_CITATION: data obtained within the DPC-INGV data exchange agreements
ORIGINAL_DATA_MEDIATOR: Archive of Italian Department of Civil Protection
ORIGINAL_DATA_CREATOR_CITATION: Presidency Of Counsil Of Ministers-Civil Protection Department. (1972). Italian Strong Motion Network. Presidency of Counsil of Ministers - Civil Protection Department. https://doi.org/10.7914/SN/IT http://www.fdsn.org/networks/detail/IT/
ORIGINAL_DATA_CREATOR: network: IT (Italian Strong Motion Network (RAN)); owner: Presidency of Counsil of Ministers - Civil Protection Department (PCM - DPC)
USER1: 
USER2: 
USER3: 
USER4: 
USER5: 
[...]
4.047716e-02
4.072829e-02
4.100434e-02
4.131427e-02
4.165855e-02
4.203688e-02
4.245330e-02
4.291742e-02
4.344017e-02
4.402730e-02
4.467989e-02
4.540374e-02
4.621469e-02
4.712977e-02
4.815215e-02
4.926711e-02
5.045273e-02
5.169240e-02
5.297822e-02
5.430751e-02
5.567902e-02
5.708909e-02
5.852557e-02
5.996295e-02
6.136683e-02
6.270862e-02
6.397935e-02
6.518925e-02
6.635376e-02
6.748081e-02
6.857079e-02
6.962514e-02
7.065194e-02
7.166081e-02
7.264898e-02
7.359171e-02
7.445060e-02
7.519524e-02
7.581917e-02
7.633769e-02
7.677359e-02
7.714444e-02
7.745815e-02
7.771468e-02
7.791178e-02
7.805265e-02
7.815071e-02
7.822833e-02
7.831109e-02
7.842073e-02
7.856892e-02
7.875348e-02
7.895909e-02
7.916330e-02
7.934581e-02
7.949731e-02
7.962219e-02
7.973062e-02
7.982525e-02
7.989569e-02
7.992795e-02
7.991900e-02
7.988047e-02
7.982852e-02
7.977537e-02
7.973424e-02
7.972659e-02
7.977626e-02
7.989644e-02
8.008471e-02
8.032565e-02
8.059355e-02
8.085841e-02
8.110037e-02
8.132240e-02
8.154655e-02
8.179695e-02
8.208780e-02
8.242373e-02
8.280244e-02
8.321164e-02
8.362758e-02
8.402634e-02
8.440429e-02
8.479031e-02
8.523854e-02
8.580656e-02
8.653012e-02
8.740553e-02
8.839004e-02
8.942368e-02
9.046001e-02
9.148435e-02
9.250763e-02
9.354406e-02
9.459231e-02
9.563317e-02
9.664249e-02
9.760972e-02
9.854840e-02
9.948951e-02
1.004631e-01
1.014861e-01
1.025640e-01
1.036971e-01
1.048776e-01
1.060792e-01
1.072516e-01
1.083292e-01
1.092491e-01
1.099694e-01
1.104822e-01
1.108157e-01
1.110186e-01
1.111303e-01
1.111638e-01
1.111169e-01
1.110036e-01
1.108724e-01
1.107912e-01
1.108173e-01
1.109842e-01
1.113142e-01
1.118294e-01
1.125437e-01
1.134460e-01
1.144959e-01
1.156374e-01
1.168169e-01
1.179959e-01
1.191521e-01
1.202706e-01
1.213341e-01
1.223210e-01
1.232086e-01
1.239780e-01
1.246183e-01
1.251266e-01
1.255014e-01
1.257367e-01
1.258269e-01
1.257833e-01
1.256426e-01
1.254546e-01
1.252548e-01
1.250474e-01
1.248146e-01
1.245466e-01
1.242679e-01
1.240351e-01
1.239101e-01
1.239284e-01
1.240844e-01
1.243427e-01
1.246647e-01
1.250294e-01
1.254368e-01
1.259034e-01
1.264509e-01
1.270923e-01
1.278206e-01
1.286138e-01
1.294553e-01
1.303549e-01
1.313464e-01
1.324607e-01
1.336960e-01
1.350156e-01
1.363728e-01
1.377349e-01
1.390865e-01
1.404172e-01
1.417090e-01
1.429348e-01
1.440685e-01
1.450948e-01
1.460128e-01
1.468365e-01
1.475961e-01
1.483318e-01
1.490769e-01
1.498406e-01
1.506143e-01
1.513950e-01
1.522005e-01
1.530565e-01
1.539729e-01
1.549298e-01
1.558770e-01
1.567464e-01
1.574757e-01
1.580366e-01
1.584460e-01
1.587528e-01
1.590097e-01
1.592448e-01
1.594518e-01
1.596068e-01
1.597005e-01
1.597543e-01
1.598034e-01
1.598651e-01
1.599300e-01
1.599777e-01
1.599922e-01
1.599607e-01
1.598745e-01
1.597358e-01
1.595642e-01
1.593940e-01
1.592682e-01
1.592285e-01
1.593049e-01
1.595079e-01
1.598287e-01
1.602466e-01
1.607355e-01
1.612667e-01
1.618164e-01
1.623789e-01
1.629697e-01
1.636130e-01
1.643306e-01
1.651417e-01
1.660630e-01
1.671061e-01
1.682860e-01
1.696334e-01
1.711836e-01
1.729388e-01
1.748497e-01
1.768428e-01
1.788571e-01
1.808426e-01
1.827331e-01
1.844457e-01
1.859135e-01
1.871114e-01
1.880502e-01
1.887562e-01
1.892555e-01
1.895703e-01
1.897215e-01
1.897348e-01
1.896384e-01
1.894506e-01
1.891662e-01
1.887610e-01
1.882159e-01
1.875404e-01
1.867719e-01
1.859488e-01
1.850867e-01
1.841849e-01
1.832578e-01
1.823556e-01
1.815515e-01
1.809109e-01
1.804674e-01
1.802163e-01
1.801239e-01
1.801456e-01
1.802519e-01
1.804453e-01
1.807528e-01
1.811963e-01
1.817670e-01
1.824278e-01
1.831327e-01
1.838376e-01
1.845078e-01
1.851286e-01
1.857110e-01
1.862775e-01
1.868489e-01
1.874442e-01
1.880783e-01
1.887413e-01
1.893829e-01
1.899358e-01
1.903681e-01
1.907206e-01
1.910903e-01
1.915774e-01
1.922383e-01
1.930796e-01
1.940841e-01
1.952352e-01
1.965197e-01
1.979157e-01
1.993938e-01
2.009296e-01
2.025096e-01
2.041167e-01
2.057094e-01
2.072185e-01
2.085680e-01
2.097095e-01
2.106519e-01
2.114624e-01
2.122243e-01
2.129833e-01
2.137345e-01
2.144530e-01
2.151238e-01
2.157462e-01
2.163321e-01
2.169099e-01
2.175209e-01
2.182030e-01
2.189789e-01
2.198513e-01
2.208011e-01
2.217917e-01
2.227906e-01
2.237926e-01
2.248219e-01
2.259086e-01
2.270706e-01
2.283243e-01
2.297037e-01
2.312533e-01
2.329921e-01
2.348835e-01
2.368460e-01
2.387999e-01
2.407116e-01
2.425946e-01
2.444652e-01
2.462967e-01
2.480229e-01
2.495827e-01
2.509512e-01
2.521308e-01
2.531320e-01
2.539786e-01
2.547235e-01
2.554413e-01
2.561927e-01
2.569966e-01
2.578341e-01
2.586750e-01
2.595059e-01
2.603512e-01
2.612698e-01
2.623190e-01
2.635049e-01
2.647665e-01
2.660110e-01
2.671643e-01
2.681967e-01
2.691203e-01
2.699776e-01
2.708188e-01
2.716747e-01
2.725427e-01
2.733949e-01
2.741898e-01
2.748840e-01
2.754573e-01
2.759448e-01
2.764367e-01
2.770306e-01
2.777764e-01
2.786538e-01
2.795826e-01
2.804513e-01
2.811600e-01
2.816674e-01
2.820095e-01
2.822599e-01
2.824662e-01
2.826238e-01
2.826992e-01
2.826591e-01
2.824823e-01
2.821667e-01
2.817431e-01
2.812780e-01
2.808461e-01
2.804831e-01
2.801553e-01
2.797716e-01
2.792360e-01
2.785114e-01
2.776455e-01
2.767356e-01
2.758579e-01
2.750192e-01
2.741702e-01
2.732582e-01
2.722642e-01
2.711944e-01
2.700550e-01
2.688472e-01
2.675946e-01
2.663719e-01
2.652968e-01
2.644740e-01
2.639391e-01
2.636532e-01
2.635518e-01
2.635894e-01
2.637359e-01
2.639419e-01
2.641255e-01
2.642065e-01
2.641483e-01
2.639515e-01
2.636071e-01
2.630721e-01
2.623007e-01
2.612890e-01
2.600752e-01
2.586993e-01
2.571794e-01
2.555256e-01
2.537594e-01
2.519110e-01
2.500117e-01
2.481060e-01
2.462675e-01
2.445905e-01
2.431488e-01
2.419515e-01
2.409371e-01
2.400177e-01
2.391347e-01
2.382748e-01
2.374443e-01
2.366419e-01
2.358449e-01
2.349952e-01
2.339918e-01
2.327254e-01
2.311546e-01
2.293633e-01
2.275331e-01
2.258466e-01
2.244019e-01
2.231956e-01
2.221560e-01
2.211832e-01
2.201834e-01
2.191024e-01
2.179498e-01
2.167783e-01
2.156253e-01
2.144743e-01
2.132785e-01
2.120110e-01
2.106896e-01
2.093663e-01
2.081081e-01
2.069734e-01
2.059839e-01
2.051119e-01
2.043032e-01
2.035222e-01
2.027678e-01
2.020342e-01
2.012663e-01
2.003796e-01
1.993316e-01
1.981630e-01
1.969670e-01
1.958306e-01
1.947968e-01
1.938584e-01
1.929756e-01
1.921037e-01
1.912145e-01
1.903049e-01
1.893982e-01
1.885342e-01
1.877354e-01
1.869652e-01
1.861215e-01
1.850792e-01
1.837460e-01
1.820934e-01
1.801643e-01
1.780612e-01
1.758988e-01
1.737328e-01
1.715275e-01
1.692016e-01
1.666976e-01
1.640036e-01
1.611293e-01
1.580907e-01
1.549175e-01
1.516474e-01
1.482905e-01
1.447986e-01
1.410858e-01
1.370846e-01
1.327836e-01
1.282254e-01
1.234878e-01
1.186679e-01
1.138592e-01
1.091208e-01
1.044597e-01
9.983994e-02
9.521433e-02
9.055466e-02
8.586354e-02
8.116127e-02
7.645892e-02
7.173854e-02
6.696038e-02
6.209221e-02
5.712683e-02
5.206969e-02
4.692170e-02
4.168549e-02
3.639013e-02
3.110748e-02
2.593744e-02
2.096225e-02
1.620435e-02
1.162827e-02
7.182305e-03
2.835641e-03
-1.417399e-03
-5.571072e-03
-9.608097e-03
-1.348453e-02
-1.713565e-02
-2.052267e-02
-2.368692e-02
-2.675907e-02
-2.990430e-02
-3.323722e-02
-3.676963e-02
-4.042653e-02
-4.410576e-02
-4.773024e-02
-5.126396e-02
-5.469251e-02
-5.799368e-02
-6.113330e-02
-6.409599e-02
-6.691569e-02
-6.966676e-02
-7.242335e-02
-7.522747e-02
-7.808517e-02
-8.097271e-02
-8.383766e-02
-8.661261e-02
-8.925614e-02
-9.178489e-02
-9.424421e-02
-9.663324e-02
-9.887060e-02
-1.008519e-01
-1.025455e-01
-1.040264e-01
-1.054173e-01
-1.067995e-01
-1.081699e-01
-1.094612e-01
-1.105986e-01
-1.115557e-01
-1.123799e-01
-1.131702e-01
-1.140203e-01
-1.149689e-01
-1.159952e-01
-1.170568e-01
-1.181367e-01
-1.192768e-01
-1.205805e-01
-1.221572e-01
-1.240282e-01
-1.260822e-01
-1.281493e-01
-1.301371e-01
-1.320970e-01
-1.341719e-01
-1.365035e-01
-1.391775e-01
-1.422078e-01
-1.455333e-01
-1.490351e-01
-1.525741e-01
-1.560258e-01
-1.592941e-01
-1.623128e-01
-1.650433e-01
-1.674704e-01
-1.695919e-01
-1.714050e-01
-1.728986e-01
-1.740672e-01
-1.749381e-01
-1.755886e-01
-1.761363e-01
-1.767019e-01
-1.773742e-01
-1.782056e-01
-1.792293e-01
-1.804478e-01
-1.817881e-01
-1.830875e-01
-1.841582e-01
-1.848915e-01
-1.853087e-01
-1.855070e-01
-1.855492e-01
-1.853976e-01
-1.849459e-01
-1.841087e-01
-1.828892e-01
-1.813845e-01
-1.797353e-01
-1.780467e-01
-1.763309e-01
-1.745205e-01
-1.725433e-01
-1.703902e-01
-1.681139e-01
-1.657675e-01
-1.633538e-01
-1.608302e-01
-1.581471e-01
-1.552817e-01
-1.522554e-01
-1.491223e-01
-1.459331e-01
-1.427140e-01
-1.394917e-01
-1.363271e-01
-1.332994e-01
-1.304538e-01
-1.277790e-01
-1.252420e-01
-1.228315e-01
-1.205554e-01
-1.184028e-01
-1.163236e-01
-1.142502e-01
-1.121298e-01
-1.099349e-01
-1.076518e-01
-1.052642e-01
-1.027471e-01
-1.000723e-01
-9.722061e-02
-9.419889e-02
-9.106272e-02
-8.792723e-02
-8.494508e-02
-8.225314e-02
-7.991738e-02
-7.791171e-02
-7.614646e-02
-7.452400e-02
-7.297809e-02
-7.147196e-02
-6.996524e-02
-6.838351e-02
-6.662389e-02
-6.459525e-02
-6.224875e-02
-5.956589e-02
-5.653462e-02
-5.315873e-02
-4.947982e-02
-4.556351e-02
-4.146943e-02
-3.725914e-02
-3.302855e-02
-2.889946e-02
-2.495633e-02
-2.119100e-02
-1.751667e-02
-1.384193e-02
-1.013658e-02
-6.431708e-03
-2.759249e-03
9.051689e-04
4.634657e-03
8.487667e-03
1.246333e-02
1.653329e-02
2.072048e-02
2.513211e-02
2.990008e-02
3.508804e-02
4.065505e-02
4.649424e-02
5.249842e-02
5.860464e-02
6.480135e-02
7.110621e-02
7.753072e-02
8.405388e-02
9.062129e-02
9.715818e-02
1.035703e-01
1.097381e-01
1.155384e-01
1.208947e-01
1.258120e-01
1.303644e-01
1.346487e-01
1.387430e-01
1.426977e-01
1.465518e-01
1.503466e-01
1.541283e-01
1.579585e-01
1.619360e-01
1.661886e-01
1.708028e-01
1.757441e-01
1.808561e-01
1.859511e-01
1.909080e-01
1.956922e-01
2.003029e-01
2.047246e-01
2.089315e-01
2.129291e-01
2.167801e-01
2.205883e-01
2.244544e-01
2.284364e-01
2.325363e-01
2.367187e-01
2.409567e-01
2.452777e-01
2.497642e-01
2.544898e-01
2.594517e-01
2.645792e-01
2.698087e-01
2.751277e-01
2.805422e-01
2.860324e-01
2.915653e-01
2.971341e-01
3.027595e-01
3.084612e-01
3.142564e-01
3.201889e-01
3.263323e-01
3.327478e-01
3.394289e-01
3.462933e-01
3.532356e-01
3.601906e-01
3.671502e-01
3.741302e-01
3.811293e-01
3.881125e-01
3.950239e-01
4.018202e-01
4.085058e-01
4.151538e-01
4.218992e-01
4.289029e-01
4.363018e-01
4.441634e-01
4.524681e-01
4.611375e-01
4.700785e-01
4.792029e-01
4.884349e-01
4.977325e-01
5.071042e-01
5.165860e-01
5.261987e-01
5.359347e-01
5.457796e-01
5.557387e-01
5.658386e-01
5.761066e-01
5.865462e-01
5.971252e-01
6.077842e-01
6.184676e-01
6.291609e-01
6.399045e-01
6.507602e-01
6.617498e-01
6.728143e-01
6.838237e-01
6.946293e-01
7.051352e-01
7.153504e-01
7.253714e-01
7.353037e-01
7.451972e-01
7.550503e-01
7.648503e-01
7.745990e-01
7.843150e-01
7.940291e-01
8.037929e-01
8.136920e-01
8.238361e-01
8.343148e-01
8.451494e-01
8.562844e-01
8.676351e-01
8.791516e-01
8.908401e-01
9.027325e-01
9.148471e-01
9.271756e-01
9.396873e-01
9.523304e-01
9.650325e-01
9.777093e-01
9.902726e-01
1.002637e+00
1.014739e+00
1.026557e+00
1.038122e+00
1.049493e+00
1.060715e+00
1.071808e+00
1.082789e+00
1.093696e+00
1.104585e+00
1.115489e+00
1.126393e+00
1.137247e+00
1.148015e+00
1.158722e+00
1.169444e+00
1.180262e+00
1.191206e+00
1.202247e+00
1.213332e+00
1.224442e+00
1.235593e+00
1.246809e+00
1.258083e+00
1.269369e+00
1.280590e+00
1.291664e+00
1.302524e+00
1.313136e+00
1.323503e+00
1.333639e+00
1.343547e+00
1.353215e+00
1.362663e+00
1.371930e+00
1.381043e+00
1.390005e+00
1.398841e+00
1.407621e+00
1.416424e+00
1.425273e+00
1.434124e+00
1.442912e+00
1.451609e+00
1.460227e+00
1.468783e+00
1.477274e+00
1.485660e+00
1.493886e+00
1.501914e+00
1.509760e+00
1.517477e+00
1.525099e+00
1.532602e+00
1.539922e+00
1.547011e+00
1.553874e+00
1.560558e+00
1.567115e+00
1.573574e+00
1.579943e+00
1.586232e+00
1.592451e+00
1.598598e+00
1.604625e+00
1.610462e+00
1.616067e+00
1.621474e+00
1.626785e+00
1.632099e+00
1.637447e+00
1.642776e+00
1.647993e+00
1.653051e+00
1.658010e+00
1.663008e+00
1.668188e+00
1.673612e+00
1.679242e+00
1.684982e+00
1.690746e+00
1.696506e+00
1.702298e+00
1.708194e+00
1.714260e+00
1.720508e+00
1.726885e+00
1.733295e+00
1.739653e+00
1.745924e+00
1.752152e+00
1.758439e+00
1.764894e+00
1.771556e+00
1.778361e+00
1.785164e+00
1.791815e+00
1.798212e+00
1.804320e+00
1.810142e+00
1.815710e+00
1.821074e+00
1.826290e+00
1.831384e+00
1.836310e+00
1.840972e+00
1.845279e+00
1.849196e+00
1.852733e+00
1.855890e+00
1.858618e+00
1.860830e+00
1.862439e+00
1.863387e+00
1.863656e+00
1.863242e+00
1.862134e+00
1.860318e+00
1.857805e+00
1.854664e+00
1.851007e+00
1.846951e+00
1.842560e+00
1.837821e+00
1.832676e+00
1.827066e+00
1.820963e+00
1.814373e+00
1.807328e+00
1.799861e+00
1.791991e+00
1.783713e+00
1.775005e+00
1.765838e+00
1.756174e+00
1.745966e+00
1.735181e+00
1.723810e+00
1.711870e+00
1.699387e+00
1.686401e+00
1.672970e+00
1.659155e+00
1.644984e+00
1.630444e+00
1.615503e+00
1.600175e+00
1.584542e+00
1.568731e+00
1.552864e+00
1.537014e+00
1.521192e+00
1.505356e+00
1.489427e+00
1.473331e+00
1.457016e+00
1.440431e+00
1.423496e+00
1.406089e+00
1.388076e+00
1.369346e+00
1.349832e+00
1.329510e+00
1.308387e+00
1.286487e+00
1.263871e+00
1.240663e+00
1.217062e+00
1.193294e+00
1.169540e+00
1.145897e+00
1.122399e+00
1.099051e+00
1.075850e+00
1.052768e+00
1.029745e+00
1.006699e+00
9.835452e-01
9.602329e-01
9.367479e-01
9.130996e-01
8.892925e-01
8.653107e-01
8.411240e-01
8.166980e-01
7.919893e-01
7.669336e-01
7.414512e-01
7.154705e-01
6.889435e-01
6.618353e-01
6.341026e-01
6.056887e-01
5.765461e-01
5.466756e-01
5.161492e-01
4.850882e-01
4.536039e-01
4.217443e-01
3.894852e-01
3.567588e-01
3.234940e-01
2.896527e-01
2.552547e-01
2.203932e-01
1.852343e-01
1.499937e-01
1.148929e-01
8.011140e-02
4.576026e-02
1.189406e-02
-2.144729e-02
-5.419818e-02
-8.625568e-02
-1.175031e-01
-1.478575e-01
-1.773139e-01
-2.059546e-01
-2.339120e-01
-2.613149e-01
-2.882550e-01
-3.147841e-01
-3.409311e-01
-3.667208e-01
-3.921831e-01
-4.173377e-01
-4.421603e-01
-4.665559e-01
-4.903667e-01
-5.134229e-01
-5.356022e-01
-5.568525e-01
-5.771656e-01
-5.965390e-01
-6.149715e-01
-6.324969e-01
-6.492183e-01
-6.653061e-01
-6.809616e-01
-6.963739e-01
-7.116937e-01
-7.270291e-01
-7.424563e-01
-7.580330e-01
-7.737976e-01
-7.897576e-01
-8.058841e-01
-8.221204e-01
-8.383902e-01
-8.545985e-01
-8.706378e-01
-8.864181e-01
-9.019075e-01
-9.171501e-01
-9.322387e-01
-9.472715e-01
-9.623330e-01
-9.775056e-01
-9.928813e-01
-1.008542e+00
-1.024514e+00
-1.040716e+00
-1.056963e+00
-1.073017e+00
-1.088662e+00
-1.103758e+00
-1.118239e+00
-1.132079e+00
-1.145243e+00
-1.157669e+00
-1.169273e+00
-1.179957e+00
-1.189622e+00
-1.198194e+00
-1.205668e+00
-1.212114e+00
-1.217630e+00
-1.222292e+00
-1.226157e+00
-1.229326e+00
-1.231978e+00
-1.234331e+00
-1.236571e+00
-1.238798e+00
-1.241042e+00
-1.243315e+00
-1.245662e+00
-1.248148e+00
-1.250818e+00
-1.253676e+00
-1.256711e+00
-1.259920e+00
-1.263296e+00
-1.266785e+00
-1.270256e+00
-1.273529e+00
-1.276445e+00
-1.278898e+00
-1.280814e+00
-1.282124e+00
-1.282770e+00
-1.282731e+00
-1.282016e+00
-1.280634e+00
-1.278585e+00
-1.275897e+00
-1.272652e+00
-1.268967e+00
-1.264950e+00
-1.260673e+00
-1.256160e+00
-1.251402e+00
-1.246366e+00
-1.241004e+00
-1.235250e+00
-1.229028e+00
-1.222276e+00
-1.214977e+00
-1.207171e+00
-1.198912e+00
-1.190215e+00
-1.181043e+00
-1.171348e+00
-1.161124e+00
-1.150389e+00
-1.139137e+00
-1.127319e+00
-1.114871e+00
-1.101776e+00
-1.088086e+00
-1.073904e+00
-1.059343e+00
-1.044509e+00
-1.029499e+00
-1.014406e+00
-9.993208e-01
-9.843302e-01
-9.695350e-01
-9.550653e-01
-9.410786e-01
-9.277283e-01
-9.151249e-01
-9.033263e-01
-8.923635e-01
-8.822723e-01
-8.731017e-01
-8.648964e-01
-8.576626e-01
-8.513356e-01
-8.457699e-01
-8.407598e-01
-8.360824e-01
-8.315378e-01
-8.269709e-01
-8.222875e-01
-8.174670e-01
-8.125508e-01
-8.075950e-01
-8.026194e-01
-7.975957e-01
-7.924765e-01
-7.872232e-01
-7.817942e-01
-7.761172e-01
-7.700927e-01
-7.636284e-01
-7.566700e-01
-7.492111e-01
-7.412977e-01
-7.330362e-01
-7.245743e-01
-7.160504e-01
-7.075465e-01
-6.990846e-01
-6.906655e-01
-6.823113e-01
-6.740759e-01
-6.660216e-01
-6.581913e-01
-6.505962e-01
-6.432222e-01
-6.360379e-01
-6.289958e-01
-6.220362e-01
-6.150984e-01
-6.081343e-01
-6.011201e-01
-5.940670e-01
-5.870261e-01
-5.800821e-01
-5.733211e-01
-5.667924e-01
-5.604960e-01
-5.543969e-01
-5.484476e-01
-5.426066e-01
-5.368571e-01
-5.312239e-01
-5.257811e-01
-5.206401e-01
-5.159188e-01
-5.117203e-01
-5.081301e-01
-5.052223e-01
-5.030599e-01
-5.016880e-01
-5.011285e-01
-5.013892e-01
-5.024751e-01
-5.043851e-01
-5.070901e-01
-5.105163e-01
-5.145483e-01
-5.190572e-01
-5.239357e-01
-5.291188e-01
-5.345834e-01
-5.403262e-01
-5.463365e-01
-5.525869e-01
-5.590451e-01
-5.656883e-01
-5.725049e-01
-5.794821e-01
-5.865972e-01
-5.938200e-01
-6.011175e-01
-6.084528e-01
-6.157833e-01
-6.230660e-01
-6.302628e-01
-6.373349e-01
-6.442317e-01
-6.508880e-01
-6.572368e-01
-6.632251e-01
-6.688194e-01
-6.739959e-01
-6.787227e-01
-6.829516e-01
-6.866332e-01
-6.897529e-01
-6.923646e-01
-6.945898e-01
-6.965751e-01
-6.984389e-01
-7.002479e-01
-7.020293e-01
-7.037971e-01
-7.055756e-01
-7.074102e-01
-7.093629e-01
-7.114929e-01
-7.138410e-01
-7.164344e-01
-7.192998e-01
-7.224636e-01
-7.259382e-01
-7.297104e-01
-7.337449e-01
-7.380039e-01
-7.424663e-01
-7.471337e-01
-7.520262e-01
-7.571800e-01
-7.626431e-01
-7.684704e-01
-7.747147e-01
-7.814135e-01
-7.885716e-01
-7.961527e-01
-8.040899e-01
-8.123025e-01
-8.206994e-01
-8.291724e-01
-8.376033e-01
-8.458864e-01
-8.539466e-01
-8.617362e-01
-8.692198e-01
-8.763702e-01
-8.831828e-01
-8.896906e-01
-8.959515e-01
-9.020136e-01
-9.078860e-01
-9.135417e-01
-9.189481e-01
-9.240997e-01
-9.290282e-01
-9.337912e-01
-9.384565e-01
-9.430906e-01
-9.477462e-01
-9.524507e-01
-9.571991e-01
-9.619603e-01
-9.666936e-01
