EVENT_NAME: L_AQUILA
EVENT_ID: IT-2009-0009
EVENT_DATE_YYYYMMDD: 20090406
EVENT_TIME_HHMMSS: 013240
EVENT_LATITUDE_DEGREE: 42.3420
EVENT_LONGITUDE_DEGREE: 13.3800
EVENT_DEPTH_KM: 8.3
HYPOCENTER_REFERENCE: INGV-CNT_Seismic_Bulletin
MAGNITUDE_W: 6.1
MAGNITUDE_W_REFERENCE: INGV-CNT_Seismic_Bulletin
MAGNITUDE_L: 
MAGNITUDE_L_REFERENCE: 
FOCAL_MECHANISM: Normal faulting
NETWORK: IT
STATION_CODE: CLN
STATION_NAME: 
STATION_LATITUDE_DEGREE: 42.085224
STATION_LONGITUDE_DEGREE: 13.520722
STATION_ELEVATION_M: 796
LOCATION: 
SENSOR_DEPTH_M: 0.0
VS30_M/S: 
SITE_CLASSIFICATION_EC8: B (inferred from geology)
MORPHOLOGIC_CLASSIFICATION: 
EPICENTRAL_DISTANCE_KM: 30.8
EARTHQUAKE_BACKAZIMUTH_DEGREE: 157.8
DATE_TIME_FIRST_SAMPLE_YYYYMMDD_HHMMSS: 20090406_013218.000
DATE_TIME_FIRST_SAMPLE_PRECISION: seconds
SAMPLING_INTERVAL_S: 0.005000
NDATA: 17800
DURATION_S: 89.000
STREAM: HNZ
UNITS: cm/s^2
INSTRUMENT: sensor = Episensor FBA ES-T [Kinemetrics] | digitizer = Etna [Kinemetrics]
INSTRUMENT_ANALOG/DIGITAL: D
INSTRUMENTAL_FREQUENCY_HZ: 
INSTRUMENTAL_DAMPING: 
FULL_SCALE_G: 
N_BIT_DIGITAL_CONVERTER: 18
PGA_CM/S^2: 45.015598
TIME_PGA_S: 36.500000
BASELINE_CORRECTION: BASELINE NOT REMOVED
FILTER_TYPE: 
FILTER_ORDER: 
LOW_CUT_FREQUENCY_HZ: 
HIGH_CUT_FREQUENCY_HZ: 
LATE/NORMAL_TRIGGERED: NT
DATABASE_VERSION: 0.5
HEADER_FORMAT: DYNA 1.2
DATA_TYPE: ACCELERATION
PROCESSING: converted to cm/s^2
DATA_TIMESTAMP_YYYYMMDD_HHMMSS: 20211011_155942.017
DATA_LICENSE: CC-BY3_0-IT (http://creativecommons.org/licenses/by/3.0/deed.en)
DATA_CITATION: Luzi L, Pacor F, Puglia R (2019). Italian Accelerometric Archive v 3.0 - Istituto Nazionale di Geofisica e Vulcanologia, Dipartimento della Protezione Civile Nazionale. doi: 10.13127/itaca.3.1
DATA_CREATOR: ITACA working group
ORIGINAL_DATA_MEDIATOR_CITATION: data obtained within the DPC-INGV data exchange agreements
ORIGINAL_DATA_MEDIATOR: Archive of Italian Department of Civil Protection
ORIGINAL_DATA_CREATOR_CITATION: Presidency Of Counsil Of Ministers-Civil Protection Department. (1972). Italian Strong Motion Network. Presidency of Counsil of Ministers - Civil Protection Department. https://doi.org/10.7914/SN/IT http://www.fdsn.org/networks/detail/IT/
ORIGINAL_DATA_CREATOR: network: IT (Italian Strong Motion Network (RAN)); owner: Presidency of Counsil of Ministers - Civil Protection Department (PCM - DPC)
USER1: 
USER2: 
USER3: 
USER4: 
USER5: 
[...]
0.168107
0.437181
0.888906
0.999619
0.575921
0.068138
-0.299970
-0.142543
0.506784
0.872557
0.577790
0.159698
0.303578
0.825842
0.672153
-0.144411
-0.601276
-0.485425
-0.408346
-1.074958
-2.135370
-2.863178
-2.771617
-1.991023
-1.592551
-1.799028
-2.073707
-1.977009
-1.229115
-0.072471
0.882367
1.313072
1.380340
1.021108
0.687568
1.129017
1.810578
2.016587
1.504600
0.714663
0.348891
-0.132266
-1.171656
-2.273177
-2.444618
-1.211830
0.098035
0.133071
-0.689098
-1.020769
-0.168703
0.894045
0.937489
0.323665
-0.364902
-0.806351
-0.706383
-0.534008
-0.667610
-0.830175
-0.558766
0.082152
0.632913
0.749699
0.631512
0.517062
0.196135
-0.010342
0.015819
-0.442448
-1.806503
-3.062179
-2.767413
-1.295449
-0.094894
0.179785
-0.526066
-2.144713
-3.819417
-4.420161
-3.624151
-1.986351
-0.171038
0.930950
0.708123
-0.110310
-0.820365
-0.564372
0.707655
1.734901
2.015186
1.643340
1.349975
1.481709
1.632129
1.652216
1.770403
2.298741
2.457102
1.677909
0.911330
1.106128
1.752652
1.529825
0.390933
-0.523263
-0.616224
-0.431704
-0.405543
-0.181783
0.414290
1.163119
1.644275
1.501329
1.256080
1.739105
2.566413
2.795313
2.214655
1.313072
1.145368
2.018456
2.988242
3.367562
2.989177
2.468781
2.956477
4.250927
4.877831
3.960365
1.996033
0.376452
0.042912
0.246120
-0.161695
-0.927808
-1.217436
-1.099249
-1.283303
-1.887318
-2.370810
-2.130699
-1.205291
-0.576517
-0.374712
0.010680
0.354029
0.366175
0.016286
-0.244847
0.051788
0.632913
0.842660
0.284892
-0.635844
-1.741102
-2.972488
-3.856788
-3.980114
-3.216804
-2.345117
-1.946644
-1.429052
-0.319123
1.146769
2.232874
2.567814
2.242217
1.160784
-0.260263
-1.386542
-2.147516
-2.785165
-3.078997
-2.568877
-1.195948
0.140078
0.169041
-0.978259
-1.829392
-1.060009
0.422699
1.180403
1.292050
1.293452
1.395756
1.436397
1.769936
2.460840
2.803254
2.553801
2.552866
3.347475
4.357902
4.588203
3.651117
2.610325
2.093198
1.895131
1.771338
1.588218
1.500862
1.184140
0.204543
-1.317872
-2.708086
-3.121974
-2.375948
-1.564055
-1.422978
-1.551910
-1.556581
-1.261347
-0.757768
-0.514388
-1.563121
-3.518111
-4.849465
-5.005023
-4.134271
-3.148601
-2.613257
-2.276447
-2.202171
-2.446019
-2.360066
-1.739234
-0.842789
0.222295
1.067355
1.578875
1.530292
0.845462
-0.053318
-0.897911
-1.410366
-1.221640
-0.534942
-0.306509
-0.877824
-1.706534
-1.950382
-1.190809
-0.173841
0.046650
0.064402
1.200023
2.582296
2.923777
2.556136
2.088527
1.318677
-0.070136
-1.248268
-1.074491
0.251258
1.317276
1.578875
1.611108
1.672303
1.449477
0.474085
-0.834380
-1.162781
0.187260
2.504750
4.787673
6.400714
6.384364
4.484031
1.810110
-0.275678
-0.716660
0.075613
0.735684
0.642723
-0.256992
-1.319273
-1.925156
-1.416906
0.250791
1.574671
2.010982
1.990427
2.020324
2.007712
1.050538
-1.065615
-3.874540
-6.352261
-7.998468
-8.567448
-7.459387
-5.124611
-3.163082
-2.808989
-3.390113
-3.254642
-1.038521
2.405716
4.775527
5.572004
6.004111
7.281744
8.307588
7.691427
5.906478
3.603001
1.366793
-0.183184
-0.914729
-1.374864
-2.119020
-3.132718
-3.980581
-4.703717
-5.313337
-5.383408
-5.154975
-5.302592
-5.907541
-5.767398
-4.081484
-1.763992
-0.141608
0.035906
-1.043193
-1.889654
-0.788600
1.874109
4.465812
6.051759
5.804641
3.881418
2.218860
1.719485
1.738171
2.197371
3.212003
3.989328
3.704838
2.643492
1.650815
1.831132
3.593658
5.398695
5.287048
3.238163
1.127149
0.022358
-0.413018
-0.663873
-1.384206
-2.679123
-3.856788
-4.327667
-4.215086
-3.839504
-2.817397
-1.066549
0.692240
1.232256
0.182121
-0.329867
0.919271
2.329572
2.501014
1.595693
-0.154688
-2.984635
-5.860360
-7.092213
-6.207913
-4.106242
-1.836867
-0.530271
-0.857270
-2.185822
-3.136922
-1.927959
0.357299
1.018772
-0.116382
-1.136154
-1.152503
-1.590683
-2.351657
-2.241879
-1.301522
0.024227
1.709208
3.477807
4.689106
5.228655
4.695646
3.643175
2.929849
1.977815
0.558638
0.061131
1.233191
2.492138
2.832217
3.425020
4.712464
5.223516
5.033390
5.961601
8.344025
9.265228
6.435283
2.325835
0.195201
-0.399471
-3.017334
-7.565428
-10.368750
-10.855040
-10.205710
-9.184074
-8.244185
-7.335594
-6.573218
-5.779078
-4.494437
-3.359282
-3.539599
-4.843391
-5.905673
-5.720217
-3.755418
-1.593485
-1.159978
-1.782678
-1.628054
0.760443
4.151426
6.801054
7.931538
7.717587
6.562813
4.473754
3.070926
3.107364
4.458338
6.083525
5.430460
3.055044
1.658756
0.434377
-1.515006
-2.465172
-1.593952
-0.088355
0.189595
0.318060
1.505067
1.864766
-0.309780
-3.808673
-5.635198
-3.800264
0.922541
5.304800
7.349012
7.176170
6.055496
5.547246
5.699534
4.790943
3.018606
2.008646
1.568131
1.388748
-0.162630
-3.410668
-6.286860
-8.479157
-8.791208
-5.655284
-1.164182
0.768385
-0.607816
-2.040074
-1.785480
-1.511268
-1.747176
-0.744221
1.618582
3.069058
3.460990
3.930001
3.435765
1.724157
0.044782
-0.448520
1.109397
3.025614
3.170895
3.112970
4.518132
6.845434
8.216962
6.617468
2.835487
-0.934816
-2.489463
-1.227246
0.302176
-0.689098
-4.593004
-7.692957
-7.581778
-6.953939
-6.913765
-6.596108
-4.769583
-0.859605
2.003040
2.208583
1.216373
0.125597
-0.478885
0.001337
2.495875
5.723359
6.433414
3.167158
-1.409432
-3.948348
-4.637383
-4.487897
-3.033684
-0.320524
1.029516
0.341883
-0.850262
-2.138173
-3.427485
-5.340431
-4.539282
0.322730
4.684435
6.442290
5.194554
2.145051
-2.040540
-6.625538
-9.009830
-7.346338
-2.709954
-0.803082
-2.355861
-3.691420
-4.585997
-5.204960
-5.545039
-4.899449
-2.078846
1.672771
3.263389
1.776009
-1.834063
-6.574152
-8.578192
-5.995831
-1.628054
2.241282
2.395439
-1.041790
-3.285007
-3.401792
-2.738450
-2.212916
-2.615592
-2.370810
0.461939
5.644411
11.000660
12.497850
9.715086
6.507223
4.996486
4.739090
3.276469
-0.593802
-5.071357
-6.520432
-4.997082
-4.820969
-7.349141
-10.424340
-10.473390
-7.573370
-5.586147
-5.881848
-6.042545
-4.539282
-2.744990
-1.846209
-0.811490
2.263238
6.339518
9.780486
10.687210
7.585853
2.977031
0.626373
1.287379
1.663895
0.759509
-0.033231
-1.490247
-5.282038
-10.558870
-13.513550
-10.153860
-1.028244
6.898687
10.173350
9.377810
6.241419
3.000855
-0.933881
-3.896028
-3.748412
-0.572781
2.124497
0.425034
-2.665576
-3.324713
-1.896660
-0.090690
2.256698
5.107198
6.290936
5.195956
2.295471
-0.093493
0.619366
2.211853
-0.182250
-5.632862
-7.794795
-4.944295
-0.447119
2.551465
4.256532
4.129938
1.948385
0.214353
-0.663406
-0.741419
-0.302772
1.243468
3.141932
2.096002
-2.856170
-8.693576
-11.806140
-12.529280
-11.545940
-7.856457
-1.909274
1.466294
-1.193612
-6.072909
-7.943813
-6.996916
-6.675990
-6.780162
-6.172410
-4.078213
-2.291863
-4.856005
-9.343837
-12.283090
-12.089700
-9.793228
-7.488349
-3.589583
0.630577
3.271330
3.294688
1.575138
-0.342012
-1.886383
-1.253407
-0.478885
0.210617
0.016286
-2.684262
-4.294967
-3.881547
-3.167287
-3.349005
-3.757754
-2.628205
-0.019684
4.259336
8.673827
9.371737
6.954278
4.665282
3.645044
4.036509
4.561577
4.309787
5.550516
8.876566
11.203400
9.764136
4.137411
-3.260715
-8.735618
-8.490369
-4.543954
-0.612488
2.693943
3.797800
3.887958
4.377055
6.303549
7.981055
6.139582
2.507086
-0.827840
-2.009242
-1.666360
-1.313200
0.223696
3.333928
6.364744
5.721490
2.050689
1.187877
5.372534
11.257590
13.227060
8.647667
2.590238
-0.266802
0.058328
3.241900
6.498814
7.638640
5.962068
1.304663
-3.193446
-4.577588
-2.889804
-1.224444
-0.845124
-1.633659
-5.517945
-11.310040
-13.857830
-8.673021
0.892644
5.335631
1.314006
-5.906140
-10.584100
-13.245870
-14.674390
-12.257400
-6.980566
-0.957705
3.527792
7.062187
10.362080
11.248250
12.344160
12.401150
11.658400
12.754780
13.096260
12.178330
9.214777
4.277087
-1.287041
-5.017636
-5.714144
-6.675056
-8.246521
-6.276583
0.910863
9.876250
15.156820
13.508280
7.984793
4.706858
6.934191
12.635190
16.354570
15.549690
11.878890
5.868640
0.344219
0.154559
3.897301
7.719456
8.108585
4.646596
1.588218
2.352929
5.013303
6.190501
7.413478
7.322385
4.006611
1.231322
0.813697
1.203293
-1.322076
-6.376084
-8.293234
-6.912830
-4.722869
-4.131935
-6.041144
-5.795427
-2.813661
0.121859
2.186159
2.955543
3.359620
3.986992
5.183342
6.353066
6.828616
6.779566
5.108600
0.412889
-6.151856
-11.919660
-14.992520
-13.646210
-9.259751
-5.134889
-2.731443
-1.543968
-0.447586
2.232874
7.227555
11.688290
13.165400
12.376860
13.321890
15.054520
12.647800
8.329076
6.378291
5.611244
1.869905
-4.203407
-8.567914
-8.101707
-3.392449
0.966919
2.110483
0.061131
-2.421729
-1.365988
2.947601
6.149392
5.896201
3.110166
2.857443
8.479963
15.511380
17.871380
15.143740
10.597520
6.049891
3.866937
3.529660
4.179455
5.376740
4.216825
1.381274
-1.645806
-4.511721
-8.915001
-15.134530
-18.572689
-17.848160
-14.589370
-10.183290
-7.167890
-5.793091
-4.402877
-2.311950
0.151289
1.697529
4.552234
10.562010
15.707580
14.756010
6.847302
-2.201237
-6.599845
-6.597977
-5.965467
-7.077732
-8.902388
-9.088778
-6.209782
-1.458949
2.535582
4.929684
5.096921
3.420816
1.870839
2.097870
6.112488
11.068400
10.926850
5.840611
2.265106
3.580111
5.258085
3.617483
0.563776
0.540419
3.344205
3.751552
3.048971
4.763382
8.153431
11.503310
11.724260
7.555956
2.074045
-0.198600
0.390933
1.061749
1.158914
-0.443849
-2.925774
-4.654667
-4.770518
-1.930762
3.857127
10.375620
15.784660
19.379320
18.262850
13.537240
10.567150
8.210422
4.315860
1.684450
2.537917
5.155314
5.775678
4.841862
4.004276
4.099106
5.870041
6.756676
6.971094
6.072781
3.117174
0.966919
-0.303707
1.252343
5.094119
6.058299
3.252177
-2.041942
-7.884953
-12.946440
-13.136100
-7.193583
-2.169005
-1.295916
-2.162931
-2.408648
-2.105473
-1.118402
0.314789
1.536833
4.830650
9.694065
13.796040
15.205870
12.346030
7.840913
5.721957
6.885141
8.860683
9.119013
8.099710
7.331261
5.693928
2.133373
-1.254341
-4.148751
-7.815816
-10.741060
-11.723460
-10.544390
-7.454715
-5.137224
-5.056876
-5.193748
-3.519979
-0.538211
1.365391
0.396072
-2.117618
-3.966099
-3.238759
0.523602
4.465812
5.970010
3.931402
0.956642
0.414757
1.795629
2.976564
2.527173
0.560039
-2.701546
-5.877644
-8.442253
-10.460770
-10.343520
-8.373583
-8.156363
-10.555600
-10.058100
-6.277518
-4.900383
-6.456900
-6.436813
-2.567009
1.742375
2.903690
0.302176
-3.670398
-4.381389
-2.472647
-2.244681
-2.865513
-3.510636
-6.144849
-8.857076
-8.147954
-4.735015
-2.780026
-4.369709
-7.636434
-9.992230
-9.389150
-6.884802
-4.695775
-3.535861
-3.846044
-3.852584
-2.848229
-2.322694
-4.018419
-7.684082
-10.128170
-8.818302
-3.822687
0.889374
2.127300
-0.227095
-4.771451
-7.414074
-4.899916
1.599897
8.210890
10.726920
8.284698
3.990262
0.560039
-0.453659
1.061749
4.085092
7.169163
7.889963
5.241735
1.294386
-2.194230
-3.949283
-2.270375
2.130103
7.042099
9.176939
6.371752
-0.176177
-7.046900
-10.653700
-11.168490
-10.968090
-10.492070
-8.681430
-5.953321
-4.258063
-5.759924
-10.660710
-15.361560
-16.313129
-14.696350
-14.449230
-16.847071
-20.812170
-24.546499
-26.675739
-27.295630
-26.970501
-27.198469
-28.347170
-28.389681
-25.675591
-20.787411
-15.578780
-12.564780
-13.635000
-16.753639
-18.958549
-19.696640
-19.522390
-18.420870
-16.604620
-15.834770
-16.378059
-17.388491
-18.435820
-19.537340
-21.568010
-23.574850
-23.689770
-22.414000
-21.349850
-20.508530
-18.440029
-15.098090
-13.264090
-14.530050
-16.396280
-16.227640
-12.713800
-6.646560
-1.820984
0.566111
1.389215
-0.198600
-3.939005
-7.323915
-9.021042
-10.413590
-13.394890
-18.682470
-24.669359
-29.008181
-31.342489
-32.288910
-31.903061
-30.539471
-28.675100
-24.747379
-16.409361
-5.827193
1.561591
4.463477
5.253881
5.734102
5.883121
5.029653
2.750468
-1.026375
-4.514057
-6.591437
-7.201057
-6.320495
-5.871571
-6.947866
-8.568381
-9.801636
-10.927920
-13.445340
-17.235270
-20.449200
-22.003380
-22.902630
-24.667490
-26.994789
-29.165600
-29.755140
-26.951820
-21.201771
-16.121130
-14.672990
-15.949220
-18.787109
-21.680120
-23.045111
-22.382700
-18.788050
-12.179860
-3.313035
5.792495
13.231260
17.760201
19.272341
20.572399
23.314989
27.436119
32.335499
36.133831
36.674309
32.885792
26.826960
21.793510
18.474001
16.365320
15.369370
14.615870
13.420920
12.287640
12.882780
16.456409
23.115520
30.823830
35.879700
37.314301
36.893398
36.944790
37.668388
36.907421
32.680248
25.289129
16.995489
9.559995
3.581512
-0.780659
-3.384507
-5.643139
-7.717716
-8.126932
-6.607787
-4.035704
-1.417373
2.091797
6.491807
10.540060
12.531480
10.189700
5.503334
1.794228
-1.068418
-3.998799
-7.712111
-11.215670
-12.979140
-10.243080
-1.800897
8.106250
16.853479
22.558689
24.688391
25.259701
26.399530
29.830219
33.279129
36.229599
40.339039
44.139240
45.015598
41.492882
35.995560
32.969879
32.655029
29.131371
20.859690
11.769580
3.735202
-0.325662
-0.495702
-0.063128
-2.297935
-6.348056
-7.935404
-7.532261
-6.533043
-6.249022
-6.707755
-5.587082
-0.121054
8.686907
15.439440
18.592649
20.440660
23.893780
27.416960
28.015369
26.561159
25.632950
26.960100
26.589190
22.427420
17.328569
12.908000
10.410660
9.365197
9.837944
11.488360
12.886980
15.378710
18.588909
21.280121
22.678740
21.049351
17.272980
16.147631
19.369980
21.969620
21.748659
20.090309
19.583929
22.326050
25.863720
26.679810
23.808290
19.402210
14.867660
10.908170
7.337801
3.229288
-0.498505
-3.868934
-7.628025
-12.519930
-18.948271
-26.080130
-30.467529
-31.995550
-33.229271
-34.371429
-36.755730
-38.593460
-38.941952
-36.809448
-30.613741
-22.257509
-12.772660
-5.237193
0.425969
5.145971
6.133042
3.930935
1.075296
-0.017816
1.933436
4.841862
5.681315
6.297009
9.412378
14.058570
18.289940
19.665211
19.500771
18.701031
14.675670
7.931538
1.775542
-1.286106
-1.817714
-1.034317
-2.063897
-4.927945
-7.275800
-9.416245
-9.314875
-8.417027
-7.851319
-5.804770
-3.111229
-0.996478
1.141164
2.207649
1.221045
0.226033
-3.487746
-8.154027
-9.483513
-9.178936
-7.804137
-6.022458
-4.284223
-3.657786
-4.440248
-7.061849
-12.320000
-17.241341
-20.772930
-24.266220
-27.183519
-29.603319
-32.031052
-32.648151
-32.287041
-32.856491
-32.952721
-31.993210
-29.284260
-24.247070
-18.743670
-14.657110
-11.913120
-10.949870
-11.536600
-11.013400
-9.542840
-8.093765
-7.088476
-7.033820
-6.662443
-5.497391
-4.091761
-2.922037
-1.694855
0.106444
2.247823
3.603468
4.761046
6.898687
9.473106
12.593150
14.619610
15.815490
16.837130
17.501869
19.760040
21.835079
22.821220
21.165670
15.560430
9.121348
4.303714
2.233808
1.284109
0.579659
-0.256992
-1.920018
-4.642521
-7.621485
-8.801485
-9.442871
-10.652770
-11.991130
-12.591410
-12.088760
-10.607920
-8.534280
-7.998001
-8.414692
-8.901921
-10.311760
-12.456400
-14.479600
-16.468220
-18.245230
-18.652571
-17.197901
-13.715350
-10.763480
-7.731730
-3.237825
1.651749
6.470785
9.060620
10.652640
11.946160
13.172400
14.100150
12.583810
9.803376
7.478878
7.227088
8.712132
10.332650
10.610600
8.813035
6.515631
4.008481
1.318210
-0.859138
-2.132567
-1.856954
-0.474214
1.200023
2.532779
2.885938
2.452431
1.487315
0.534813
1.695661
5.660761
9.944453
11.980720
10.293410
5.998037
1.479374
-1.842472
-3.555014
-4.933083
-5.738435
-5.871104
-6.103274
-6.000969
-5.832798
-6.100471
-5.758056
-3.811475
-1.875639
-0.647990
-1.332353
-3.600794
-5.251674
-6.002371
-4.852735
-2.777223
0.318527
3.656723
6.392773
7.906780
5.991031
2.297807
-3.130850
-8.502515
-12.266740
-13.488790
-11.554350
-10.718170
-10.335110
-10.374820
-10.464040
-9.198089
-8.920139
-8.990678
-8.209149
-5.746844
-2.566075
1.139762
4.373785
4.801688
3.978117
3.327388
3.437166
3.351679
2.912098
2.678060
2.270245
2.061433
3.088678
4.677895
5.381411
5.479510
4.702654
4.858679
6.988379
9.873915
12.256340
13.935710
16.112591
18.217541
20.119270
21.909830
24.539829
27.577190
27.566919
25.207850
21.724840
16.753981
11.917190
7.458791
4.563912
3.319446
2.228670
1.660158
1.072961
1.424719
3.691291
5.765401
5.803707
4.274284
1.509271
0.266674
2.161401
4.965654
8.455671
10.961420
12.438060
13.610120
13.178940
12.146560
11.448650
11.735010
12.737960
13.771280
15.048450
15.725800
15.156350
14.466390
13.839950
13.038330
12.917810
12.403960
11.070730
8.791080
5.401031
2.146453
-0.886700
-3.492885
-6.000969
-8.127399
-9.275635
-8.763180
-7.725657
-8.900987
-11.745410
-16.813900
-23.088091
-27.788940
-28.775070
-26.690220
-24.195681
-20.093241
-16.270620
-12.534420
-8.405816
-5.912680
-3.380303
-2.287658
-2.620730
-3.160747
-3.444769
-2.969218
-3.444769
-4.719132
-6.024327
-7.886821
-9.833402
-9.874043
-8.515594
-5.260082
-0.617159
3.231156
6.507689
7.827833
7.676012
8.149693
9.785157
11.054850
11.536010
10.287800
8.132409
8.006281
8.455204
10.443360
13.070570
15.012480
17.183281
17.939119
16.719879
14.327180
12.540830
11.783120
12.659480
14.384640
16.121469
18.196051
19.031300
19.153690
18.550140
17.866249
17.964809
17.719561
16.753510
13.778290
9.226455
5.414110
3.719787
3.745947
5.025916
7.394792
10.029940
12.547370
13.319550
11.450050
7.920794
4.173849
2.118424
2.016587
3.268060
5.227254
6.092401
5.160452
2.804656
0.149421
-1.544435
-2.251222
-1.930762
-1.517342
-1.159043
-0.736747
-1.782678
-4.729409
-8.592206
-12.360640
-15.227960
-16.587811
-16.708799
-15.278880
-12.774990
-10.350530
-8.369846
-7.145935
-6.038341
-5.080700
-3.804468
-2.298869
-0.600809
1.485447
2.489335
2.458037
1.367727
-0.455995
-2.693138
-4.763043
-5.949117
-7.165555
-8.437582
-9.832000
-11.141870
-11.834640
-12.374190
-12.659140
-11.980390
-10.907830
-9.522753
-8.388999
-8.412824
-8.453465
-8.170844
-7.041295
-5.516543
-4.299638
-3.141127
-2.657635
-3.153739
-4.606084
-5.837003
-6.615728
-6.260233
-4.190795
-2.082116
-0.776454
0.196603
0.720736
0.080284
0.273213
1.757791
3.002257
3.730998
3.526857
2.922843
2.446825
1.779746
1.176199
1.447141
2.446825
4.161703
5.903675
7.282211
8.191736
7.996004
7.575576
6.744998
5.535568
3.697364
0.937022
-1.818181
-4.596274
-7.185174
-9.563394
-11.089550
-10.898950
-9.230789
-6.606853
-3.384974
-0.071537
2.567814
4.107515
4.078085
2.663112
0.899184
-0.555496
-2.252623
-4.158094
-5.936504
-7.399125
-8.105444
