EVENT_NAME: L_AQUILA
EVENT_ID: IT-2009-0009
EVENT_DATE_YYYYMMDD: 20090406
EVENT_TIME_HHMMSS: 013240
EVENT_LATITUDE_DEGREE: 42.3420
EVENT_LONGITUDE_DEGREE: 13.3800
EVENT_DEPTH_KM: 8.3
HYPOCENTER_REFERENCE: INGV-CNT_Seismic_Bulletin
MAGNITUDE_W: 6.1
MAGNITUDE_W_REFERENCE: INGV-CNT_Seismic_Bulletin
MAGNITUDE_L: 
MAGNITUDE_L_REFERENCE: 
FOCAL_MECHANISM: Normal faulting
NETWORK: IT
STATION_CODE: CLN
STATION_NAME: 
STATION_LATITUDE_DEGREE: 42.085224
STATION_LONGITUDE_DEGREE: 13.520722
STATION_ELEVATION_M: 796
LOCATION: 
SENSOR_DEPTH_M: 0.0
VS30_M/S: 
SITE_CLASSIFICATION_EC8: B (inferred from geology)
MORPHOLOGIC_CLASSIFICATION: 
EPICENTRAL_DISTANCE_KM: 30.8
EARTHQUAKE_BACKAZIMUTH_DEGREE: 157.8
DATE_TIME_FIRST_SAMPLE_YYYYMMDD_HHMMSS: 20090406_013218.000
DATE_TIME_FIRST_SAMPLE_PRECISION: seconds
SAMPLING_INTERVAL_S: 0.005000
NDATA: 17800
DURATION_S: 89.000
STREAM: HNE
UNITS: cm/s^2
INSTRUMENT: sensor = Episensor FBA ES-T [Kinemetrics] | digitizer = Etna [Kinemetrics]
INSTRUMENT_ANALOG/DIGITAL: D
INSTRUMENTAL_FREQUENCY_HZ: 
INSTRUMENTAL_DAMPING: 
FULL_SCALE_G: 
N_BIT_DIGITAL_CONVERTER: 18
PGA_CM/S^2: -81.188103
TIME_PGA_S: 36.545000
BASELINE_CORRECTION: BASELINE NOT REMOVED
FILTER_TYPE: 
FILTER_ORDER: 
LOW_CUT_FREQUENCY_HZ: 
HIGH_CUT_FREQUENCY_HZ: 
LATE/NORMAL_TRIGGERED: NT
DATABASE_VERSION: 0.5
HEADER_FORMAT: DYNA 1.2
DATA_TYPE: ACCELERATION
PROCESSING: converted to cm/s^2
DATA_TIMESTAMP_YYYYMMDD_HHMMSS: 20211011_155940.987
DATA_LICENSE: CC-BY3_0-IT (http://creativecommons.org/licenses/by/3.0/deed.en)
DATA_CITATION: Luzi L, Pacor F, Puglia R (2019). Italian Accelerometric Archive v 3.0 - Istituto Nazionale di Geofisica e Vulcanologia, Dipartimento della Protezione Civile Nazionale. doi: 10.13127/itaca.3.1
DATA_CREATOR: ITACA working group
ORIGINAL_DATA_MEDIATOR_CITATION: data obtained within the DPC-INGV data exchange agreements
ORIGINAL_DATA_MEDIATOR: Archive of Italian Department of Civil Protection
ORIGINAL_DATA_CREATOR_CITATION: Presidency Of Counsil Of Ministers-Civil Protection Department. (1972). Italian Strong Motion Network. Presidency of Counsil of Ministers - Civil Protection Department. https://doi.org/10.7914/SN/IT http://www.fdsn.org/networks/detail/IT/
ORIGINAL_DATA_CREATOR: network: IT (Italian Strong Motion Network (RAN)); owner: Presidency of Counsil of Ministers - Civil Protection Department (PCM - DPC)
USER1: 
USER2: 
USER3: 
USER4: 
USER5: 
[...]
-1.595957
0.042986
0.426748
-0.484452
-1.353532
-0.940286
0.189003
0.441256
0.101018
-0.184931
0.014438
0.758561
1.552292
1.717965
1.324375
0.921426
0.252651
-0.278063
-0.948710
-1.587065
-1.450876
-0.782101
0.394455
1.160106
1.461032
1.428272
0.582124
0.285879
0.672449
0.831569
0.079490
-1.729337
-2.414960
-1.566473
-0.282743
0.736097
0.239079
-0.783973
-0.573840
0.132374
0.218019
-0.724069
-1.502356
-0.107711
1.725921
2.449920
2.498592
2.170522
2.162098
1.980982
1.658060
0.921894
-0.123623
-0.571968
-0.655741
-0.532656
-0.453096
-0.532656
-1.006274
-1.345108
-1.243551
-1.083495
-0.678673
-0.743257
-1.670837
-2.116843
-1.354468
-0.362772
0.451552
0.763709
-0.269639
-1.841658
-2.237119
-1.989078
-1.427476
-0.156383
0.963078
2.052586
2.083006
1.622492
1.732941
1.176955
1.026258
0.596164
-0.496620
-0.370728
0.695381
1.963198
2.714809
3.276879
3.691061
2.709661
0.834377
-0.577117
-0.932330
-0.709093
-0.948710
-1.541668
-1.280991
-0.080099
1.191463
2.227151
2.638525
2.322155
1.698777
0.875093
0.208659
0.093998
0.240483
0.585868
0.888197
0.806297
0.641560
0.259671
0.597100
2.163970
3.004502
2.733061
1.940266
1.287403
1.314079
0.696317
-0.433908
-1.203771
-1.336216
-0.495216
-0.060910
-0.511128
-1.371316
-2.632113
-3.136151
-2.830546
-2.349440
-1.595021
-0.619705
0.365907
0.815657
1.013154
1.352455
1.551356
1.231711
1.057146
1.574756
1.477412
0.255459
-1.668965
-3.363600
-3.925670
-3.946730
-3.708517
-3.373896
-2.929294
-1.710617
-0.907994
-1.287543
-1.778009
-1.678793
-0.821882
0.782897
2.764885
4.017726
4.288231
3.434596
1.983322
0.861989
-0.332820
-1.442452
-1.666157
-0.655741
0.282135
-0.673057
-3.150191
-4.051562
-2.443040
-0.110051
1.770381
2.537904
3.061598
3.171111
2.579556
2.007658
1.413296
0.964482
0.792725
0.782897
0.828761
1.471796
2.346491
2.312795
1.139982
-0.613153
-1.807961
-2.425724
-2.949418
-2.165983
-0.118475
0.762305
-0.370260
-2.106079
-2.019966
-0.767125
-0.044998
0.947166
1.967410
2.871121
3.397624
3.621328
3.502456
2.020762
0.146414
-0.537804
-0.425484
-0.782101
-1.117659
-0.806905
-0.245303
-0.658549
-1.467256
-1.324048
-1.568344
-2.107483
-2.413556
-2.325572
-1.614677
-0.767125
-0.192887
-0.667909
-1.477552
-1.805622
-1.330600
-0.057166
0.925638
1.395979
1.895337
2.434008
2.779393
2.779861
2.158355
1.767105
2.622144
3.573124
2.582832
0.306939
-1.343236
-2.339612
-2.668617
-2.106547
-0.487728
0.850289
0.647176
0.415984
1.055274
2.261315
2.270675
0.454828
-1.278183
-2.118715
-1.718573
-0.179783
1.773657
2.920262
2.796241
2.095174
0.460444
-1.379272
-2.599821
-2.711673
-1.134507
-0.459648
-0.978662
-0.821414
0.174495
2.051650
2.791093
2.168183
0.702869
-1.039502
-0.876170
-0.106307
-0.041254
-0.561672
-1.124211
-1.220151
-1.039034
-0.472284
0.694445
3.055514
4.511468
3.831929
1.558376
-0.861662
-1.004870
-0.172295
0.670577
0.943890
0.741713
1.604708
2.472852
2.797177
2.717617
1.459160
-0.422208
-1.872078
-2.662533
-2.378456
-1.622165
-1.089579
-0.911738
-0.789589
0.291027
1.509704
2.099854
1.901421
0.960270
0.677597
1.661337
3.449104
4.727217
4.385575
3.330231
1.843857
0.385563
0.493204
0.768389
-0.076355
-1.419052
-2.462228
-2.930698
-3.885890
-4.530328
-3.633637
-1.869270
-0.492876
-0.982406
-2.923210
-3.927542
-3.182951
-1.692365
-0.099755
0.044858
-0.937478
-0.488196
1.099266
3.400899
5.097874
4.805373
3.407452
1.335139
0.529708
0.112718
-0.929522
-0.344052
1.218139
2.641332
1.634660
-1.265079
-2.207635
-2.043366
-1.830894
-1.458364
-1.391908
-1.334344
-1.785965
-2.526812
-1.695173
-0.909866
-0.746533
0.631732
1.347307
0.776813
-0.254195
0.033626
2.154142
3.314787
1.651040
-1.009550
-1.467256
-1.523416
-2.572209
-4.268715
-4.575725
-1.774265
1.117050
2.831341
3.516964
3.781853
3.156135
1.846197
1.812501
1.930438
1.016898
-0.469008
-1.269759
-0.629065
0.439384
1.020642
1.836837
2.631504
2.729317
2.260847
2.408267
4.562480
5.431560
2.845381
-0.410040
-2.347568
-3.384660
-3.744085
-2.678445
-0.656677
0.526432
1.311739
2.566452
2.994206
2.374103
0.019586
-3.080927
-4.560281
-3.441756
-0.427824
0.923766
-0.625321
-2.404664
-2.279707
-0.710497
0.033626
-1.464916
-2.215123
-1.432624
-0.468072
0.603184
0.331275
-1.255719
-4.510673
-7.003718
-5.749474
-2.260519
2.498124
5.695513
5.335619
6.008606
7.389212
6.740093
4.286359
0.507244
0.431896
2.133550
2.597808
3.666257
4.120687
4.960750
3.998538
-0.489132
-2.201083
-0.008494
2.482212
4.935478
5.668369
5.410032
3.809465
1.490516
1.038426
-0.413316
-1.109235
-0.887870
-0.754489
0.258267
-0.589285
-2.187511
-4.359508
-7.765158
-9.327816
-6.937262
-2.733669
-1.376464
-2.306851
-2.339612
-1.539328
-1.362892
-1.577705
0.280263
3.094358
4.872766
6.400792
7.225879
5.694109
0.913002
-4.288372
-6.402336
-5.091463
-2.704185
-0.374004
1.572416
2.101258
3.780917
7.138362
8.807258
5.666965
-0.681949
-3.933626
-4.650137
-4.218639
-1.924962
-1.042310
1.302847
4.254067
3.685445
3.502924
2.310923
-0.497088
-1.563665
-1.363828
-0.939350
-1.317963
-2.274091
-1.490656
1.198483
4.889614
8.852654
6.785957
1.176019
-1.570685
-2.663001
-0.981938
-1.779413
-3.899462
-4.130655
-6.724789
-7.819914
-6.875954
-2.899810
0.128630
-1.799537
-1.971294
-0.938414
1.787697
3.891366
4.328011
6.485968
5.818129
3.301683
2.429796
3.008246
1.614536
-3.495108
-7.263927
-7.182027
-4.653881
-3.973406
-5.861326
-6.051334
-5.079295
-2.357396
1.381003
1.304719
-1.750865
-6.359280
-7.807745
-3.412740
2.066626
5.390843
4.193227
1.460564
-1.509376
-4.051095
-1.805153
1.439036
3.448636
5.701129
7.376575
11.221680
12.379980
7.619000
2.926814
-2.636325
-5.937610
-6.162251
-5.243095
-2.751453
-3.758593
-3.986510
-1.577705
0.822209
2.858017
0.782897
-1.724657
-2.199679
-1.610933
0.136118
0.231123
0.569488
1.717965
2.013274
4.896165
9.770405
14.424680
15.835710
11.025120
2.442900
-6.603109
-9.301140
-7.915386
-10.659750
-15.804490
-18.485210
-15.011700
-6.399060
-1.787837
-5.227651
-4.158267
0.839057
1.326715
-1.242147
-4.911750
-1.528564
4.788993
8.218511
8.457192
6.239799
9.896766
12.869050
12.273750
13.440480
13.318330
10.319840
4.299931
-1.078815
-6.056483
-10.735570
-11.135710
-9.571645
-6.710749
-0.838262
2.850529
2.359595
1.938394
-0.056698
0.189003
5.163863
8.082790
6.377860
3.829121
2.394696
-0.117071
0.071534
-1.299711
-4.767138
-2.277367
0.665897
0.462784
-0.842942
-0.260279
2.283779
-0.500364
-7.911174
-10.031220
-8.147983
-5.613753
-4.692725
-8.432060
-5.523897
-0.322524
-1.087239
-0.432972
0.112718
-0.410976
-2.618541
-3.869510
-4.457320
-5.879578
-4.410052
-6.099071
-9.147635
-10.881110
-9.095219
-4.062795
-0.854174
2.733529
0.238143
-4.950126
-9.549181
-14.605010
-12.520520
-8.842498
-4.754034
0.318639
2.260847
4.547036
4.338307
0.978990
-0.627661
-1.564132
-0.496620
1.575224
0.045326
-2.680785
-3.056123
0.046262
4.971514
6.032474
4.365451
2.166779
-1.029674
-1.381144
-1.441984
-3.459540
-8.317867
-10.988750
-7.339276
-3.208223
3.311043
5.573364
2.125126
-1.534180
-5.340908
-3.161423
-0.231731
0.900365
1.678653
1.281787
4.029426
7.354579
7.791225
4.791801
1.490048
0.788981
-2.322296
-8.395088
-11.129160
-8.557016
-1.549624
3.007310
0.738905
-0.538272
0.527368
1.282723
1.589732
1.564460
3.564232
5.369316
3.067214
-0.872894
-0.454968
0.112250
-1.287075
2.171926
7.624148
11.802000
12.790420
11.178150
11.707000
11.201090
8.476380
3.934422
0.690701
0.054218
-1.644161
-0.747001
-1.905306
-1.496740
3.022754
5.131103
8.444556
3.116354
-4.016931
-5.884726
-9.217835
-9.112535
-9.036251
-5.666169
-1.385356
-2.830078
-7.241931
-11.411360
-8.384792
-1.203771
3.505264
4.500236
2.237447
0.906449
2.603892
1.451672
-5.522492
-12.771370
-14.812330
-8.996002
2.535564
9.208335
10.013770
10.097540
5.480232
1.764765
1.238731
2.782669
5.386631
-0.154043
-8.817225
-10.840400
-5.041387
-1.536988
-4.550920
-6.089243
-8.768554
-7.853610
-0.239687
5.948702
10.288020
6.298299
-3.300420
-7.978098
-9.891290
-7.453468
-2.910574
-1.174287
-2.601225
-4.656221
-3.039274
-2.156623
-3.263447
-4.299603
-4.049691
-1.217811
-2.336336
-7.788558
-8.539232
-4.102107
-0.440460
-0.421740
-1.659605
-3.361260
-6.973766
-5.602521
-1.111575
0.690233
0.478228
-1.819661
-0.681481
2.533692
3.318063
0.441724
0.380883
4.082310
1.759149
-3.299484
-8.167639
-9.525781
-9.814070
-12.049250
-10.247910
-10.125760
-10.999520
-6.456156
-1.394248
2.244935
4.615832
4.817073
6.084890
8.188559
11.096720
10.153700
5.016442
4.783377
6.047450
5.919686
4.799757
-1.956786
-10.847890
-10.064920
-4.680557
-1.645565
2.813089
1.333735
-3.364536
-5.988622
-6.601237
-1.748525
1.876617
1.455416
-1.939938
-5.360096
-1.992822
1.719837
2.432136
3.682169
1.686141
-0.721729
-4.559813
-13.332980
-17.400850
-13.773370
-8.459205
-6.120599
-8.804122
-10.702340
-8.472776
-5.662425
-3.755785
-2.519792
-1.316092
-1.562729
-3.322416
-6.239003
-6.236663
-1.336684
2.574408
5.217215
3.081722
1.188655
7.654100
13.387590
15.060700
12.592460
8.852185
9.484924
10.947430
9.973986
6.910913
5.956190
5.151227
3.365799
2.653033
-1.783157
-6.508104
-9.251532
-11.283600
-13.233290
-16.371710
-18.047159
-17.218330
-12.845790
-8.214908
-5.121415
-3.149723
-2.682657
-2.524004
-3.516168
-3.030382
0.054686
2.989994
2.777521
0.320979
0.455296
1.429676
2.433072
4.405700
3.284367
2.508420
3.128990
4.308355
5.531244
-0.526572
-4.825638
-6.701857
-10.539000
-9.263700
-10.628860
-9.713449
-4.982886
-3.707113
-0.928586
-3.043954
-6.807626
-6.107027
-6.654121
-8.594457
-8.318804
-4.482124
-0.699265
1.916865
0.309279
-2.363480
-0.422208
1.717497
2.785477
1.321567
-2.597949
-5.114395
-4.883202
-2.905894
-3.517572
-9.109727
-14.755230
-16.579969
-15.786240
-13.909090
-11.388900
-5.431232
0.868541
2.222003
2.619804
3.772025
2.257571
-0.547632
0.029882
3.969054
8.506332
12.889170
15.643360
15.036360
12.489960
12.570930
14.740120
12.378110
8.309772
5.817193
3.905874
4.340647
3.332103
0.882581
-2.227759
-7.799789
-13.575870
-15.478760
-10.640090
-4.060454
-0.103967
2.407331
5.467128
6.499072
5.556048
6.156027
8.137547
10.868340
8.879798
6.458356
10.137320
13.967910
14.841670
12.767490
12.000430
13.727360
14.865070
16.153481
12.749710
6.212655
4.983682
5.891138
5.950106
6.824333
6.289875
3.382648
0.589612
-0.102095
2.306243
6.532300
9.388047
6.162579
-1.177095
-4.847166
-3.857342
0.850289
3.081722
1.145130
-0.346860
-1.118127
0.232527
-0.395532
-1.874418
-3.878870
-9.083519
-10.572230
-10.637290
-12.063760
-13.711590
-15.681410
-12.098860
-5.680677
0.602248
5.074006
4.524104
5.183987
5.123614
2.682517
2.451324
3.136010
2.714341
1.614536
1.161042
0.966822
1.659932
0.476824
-2.951758
-5.390984
-7.413688
-8.215843
-7.062219
-6.588133
-8.623005
-10.737440
-11.331330
-10.017180
-9.018467
-8.906146
-7.054263
-5.036706
-2.377988
0.348123
-0.840134
-4.965102
-7.611185
-7.175007
-4.880394
-4.452640
-6.921818
-6.894674
-4.787261
-3.920990
-3.271403
-2.644281
-3.091691
-4.537817
-5.416256
-4.253271
-1.708745
-0.369792
2.321687
6.890790
10.405950
13.341730
13.591170
13.009910
14.054490
14.384900
13.121770
10.800950
8.500716
6.394708
4.370599
1.353859
-1.597361
-1.675517
1.112838
2.972210
0.889133
-0.560736
0.384627
1.241071
0.337827
-3.627553
-6.240875
-7.588721
-9.740594
-10.513730
-11.251300
-12.260780
-13.537020
-15.459580
-15.771270
-13.203340
-11.299510
-11.772190
-12.085750
-11.277510
-7.401520
-1.601573
2.961446
5.068858
4.466072
4.588688
6.513112
7.277827
4.238623
-3.709921
-10.932590
-12.132550
-10.085980
-7.749246
-8.756853
-13.375560
-17.771509
-21.927361
-22.893320
-20.652060
-19.463800
-19.553190
-21.652180
-23.957550
-25.196360
-25.810369
-25.384489
-23.646330
-20.331940
-19.807310
-21.238001
-22.239050
-23.076771
-20.551901
-15.214810
-8.791486
-2.937250
2.458812
8.792281
17.400240
28.172710
37.234631
43.554520
44.630932
40.078209
33.442410
26.974621
23.176319
19.176310
12.762340
5.895350
-1.588937
-9.354024
-15.494210
-19.525110
-20.751270
-17.034870
-10.306410
-3.862022
0.710825
1.831689
2.097514
4.930330
7.802925
8.274672
7.196395
3.923658
-0.408636
-3.647209
-7.198407
-12.306180
-18.524990
-25.943291
-32.222000
-35.728741
-38.095890
-39.134392
-37.424309
-30.634069
-20.257999
-9.216899
1.034682
7.939582
13.865890
23.144030
34.076550
37.875790
30.020380
19.729481
15.656460
18.334370
23.079910
23.434660
24.634609
30.793520
36.607510
41.277229
48.008030
54.816059
57.694729
61.534222
66.104729
70.289131
72.998863
63.924770
45.065239
29.529909
22.169180
14.048880
1.074930
-13.077920
-26.441240
-34.070610
-38.867630
-47.048771
-59.067051
-69.082298
-74.116127
-79.279587
-81.188103
-74.256523
-61.933102
-49.185200
-33.266109
-20.438650
-15.818530
-10.908260
-7.763753
-4.355764
-1.721849
-4.189155
-6.487512
-7.995414
-6.105623
0.379011
7.776249
8.745013
6.505624
11.223550
21.529421
31.146391
30.792580
27.466021
29.691370
31.744970
32.492828
30.305389
32.145580
40.098331
47.132401
56.822849
65.808479
70.136093
73.282013
73.025543
68.694183
59.438980
43.314442
30.727060
24.930861
18.975071
12.936440
4.152042
-4.520500
-9.713449
-13.900190
-15.504970
-16.846741
-21.278709
-30.430019
-43.760590
-55.626770
-62.301880
-66.156807
-67.291252
-67.737717
-64.512260
-52.498180
-46.452530
-40.850079
-27.315470
-20.210730
-13.850590
-4.971654
4.174974
16.796049
29.089991
44.373058
58.940090
59.288750
51.521320
43.201649
35.732342
39.335960
47.138481
49.122810
51.672489
51.052380
44.236401
37.736790
30.046120
20.259729
9.963222
4.426291
8.106659
11.669090
11.777670
12.731920
12.716010
10.374130
7.584836
2.883757
-0.635149
0.456232
1.498940
3.024158
3.047558
0.435171
-0.745129
-4.902858
-14.744470
-22.354179
-27.661320
-31.343559
-27.003309
-23.467560
-22.263390
-18.688789
-18.561960
-21.912390
-26.428600
-30.559660
-35.337959
-35.775539
-30.655130
-26.328920
-19.868620
-13.877260
-12.006660
-11.390300
-10.649450
-7.663601
-0.491004
7.611980
12.972940
21.234579
31.011141
35.015831
35.845131
34.076080
30.347509
27.634041
22.994730
17.470440
16.871870
18.019409
18.826241
22.154200
25.513050
26.537041
21.524740
11.487040
1.008942
-7.937850
-10.697660
-7.767498
-3.207287
1.064166
1.730601
-2.290004
-6.025126
-6.234791
-3.059398
-3.880274
-11.307000
-18.178671
-26.547010
-34.043461
-38.267651
-38.831589
-30.911131
-20.979660
-14.233410
-6.807626
0.465592
3.796361
4.789929
3.473440
-0.189143
-5.081167
-12.235040
-15.934130
-13.798170
-12.243940
-12.863570
-13.558550
-11.643020
-7.137567
-3.312119
1.106754
7.895590
15.809030
22.013800
27.801580
36.810619
44.006611
48.008499
52.754509
56.835480
59.458630
58.371929
54.751469
51.707119
47.613510
42.850651
34.767792
23.970051
15.917140
11.775320
11.299370
11.523540
8.326152
-0.735301
-13.213170
-22.554020
-26.098660
-25.939079
-25.774340
-27.534960
-31.359940
-35.480228
-37.191238
-37.864231
-35.863991
-29.695259
-24.333830
-18.151520
-12.643610
-10.551640
-7.247079
-7.891050
-11.385150
-9.807050
-8.726434
-9.977403
-9.256680
-9.486468
-11.321040
-11.402000
-10.494080
-8.776509
-4.198515
3.136946
9.163406
13.453580
19.528709
23.703760
24.792330
26.814569
26.808950
26.184641
26.172939
21.484489
15.671440
12.231160
8.697744
3.035858
-0.469008
-2.481416
-6.931646
-8.401172
-8.050638
-6.187991
-6.816518
-8.880406
-5.750410
-3.032254
4.431908
12.667800
16.444580
19.810921
17.982441
12.311190
5.837785
-0.030022
-7.780602
-14.722010
-16.995090
-17.316139
-16.038031
-15.836320
-16.740959
-19.431040
-22.114559
-19.563950
-15.432430
-11.739430
-5.588481
-0.139535
5.990822
13.324410
16.121189
16.961720
17.726440
17.756390
18.036720
19.456169
19.423880
17.641729
18.018471
18.409719
17.982441
14.451360
7.179547
5.020654
7.740213
11.242740
18.332970
25.486851
30.880569
32.777851
29.038509
25.461100
22.253420
18.213160
14.801890
9.484924
5.515332
6.757877
7.281103
10.672250
13.746550
9.536872
7.886230
6.085358
2.414351
0.446404
-1.559920
-1.047458
0.013970
0.518008
-0.108647
-2.559572
-1.714829
2.056798
7.478600
15.136510
17.897730
15.268490
12.233030
6.916997
-0.383832
-7.600421
-11.143660
-10.467400
-11.535850
-13.157010
-12.668410
-11.555500
-9.498169
-5.261816
-3.197459
-5.624049
-6.727129
-6.573157
-4.018802
0.781025
5.162927
9.296787
14.905790
23.675211
28.868160
32.429180
32.231220
23.869431
18.530930
15.770660
12.362670
12.721160
11.770180
7.854405
5.458236
2.655840
1.818585
3.057386
5.281331
6.648365
3.922722
3.508072
2.732125
-0.676801
-2.832886
-5.826694
-11.758150
-16.643150
-19.402491
-21.953569
-19.220440
-16.367029
-14.773490
-13.837950
-15.888730
-16.685270
-19.061790
-21.532841
-21.496330
-20.947830
-22.388340
-22.052320
-19.987961
-20.549561
-19.420740
-20.889330
-24.588421
-25.916140
-28.209351
-30.017710
-30.217550
-29.419140
-24.901051
-19.332760
-16.782150
-14.004090
-10.163670
-4.654349
1.699245
7.293739
13.585090
20.102480
26.450460
30.750460
33.882801
36.146992
35.418308
30.208981
21.225691
13.989910
9.513473
8.936426
11.242740
12.727710
14.142010
12.708990
9.391791
5.865865
1.274767
-1.455088
-3.200267
-4.341256
-4.871034
-5.541213
-6.123875
-8.371688
-9.727021
-9.514081
-11.048660
-13.608630
-15.360830
-16.879030
-17.760740
-16.034281
-15.058500
-15.928050
-14.993450
-13.560890
-11.864390
-9.577729
-8.769022
-8.688057
-7.180155
-3.591985
-1.635269
-2.690145
-3.924266
-6.344772
-7.599017
-6.044783
-6.961598
-8.657169
-9.788797
-13.115360
-17.832350
-21.934851
-23.269590
-25.730350
-27.352440
-24.616030
-22.890039
-20.231791
-15.988420
-14.508600
-13.382580
-9.885206
-7.132419
-5.109715
-1.189731
2.523864
4.231135
4.879317
6.054002
6.473800
6.429808
5.688493
2.698429
0.407560
-2.341016
-6.570349
-9.064331
-8.462481
-6.873614
-5.710629
-5.361968
-6.184715
-5.894554
-5.649789
-5.312360
-4.622993
-2.829610
0.589144
1.560716
1.988002
1.408147
-1.077879
-3.964046
-7.348168
-8.346416
-6.916670
-3.952346
-1.306263
0.605992
3.355971
5.466660
6.741029
8.387928
10.827620
12.915380
14.311430
14.785980
14.602060
14.548240
11.883900
