EVENT_NAME: L_AQUILA
EVENT_ID: IT-2009-0009
EVENT_DATE_YYYYMMDD: 20090406
EVENT_TIME_HHMMSS: 013240
EVENT_LATITUDE_DEGREE: 42.3420
EVENT_LONGITUDE_DEGREE: 13.3800
EVENT_DEPTH_KM: 8.3
HYPOCENTER_REFERENCE: INGV-CNT_Seismic_Bulletin
MAGNITUDE_W: 6.1
MAGNITUDE_W_REFERENCE: INGV-CNT_Seismic_Bulletin
MAGNITUDE_L: 
MAGNITUDE_L_REFERENCE: 
FOCAL_MECHANISM: Normal faulting
NETWORK: IT
STATION_CODE: SPC
STATION_NAME: 
STATION_LATITUDE_DEGREE: 42.743469
STATION_LONGITUDE_DEGREE: 12.739693
STATION_ELEVATION_M: 134
LOCATION: 
SENSOR_DEPTH_M: 0.0
VS30_M/S: 
SITE_CLASSIFICATION_EC8: C (inferred from geology)
MORPHOLOGIC_CLASSIFICATION: 
EPICENTRAL_DISTANCE_KM: 69.0
EARTHQUAKE_BACKAZIMUTH_DEGREE: 310.5
DATE_TIME_FIRST_SAMPLE_YYYYMMDD_HHMMSS: 20090406_013239.000
DATE_TIME_FIRST_SAMPLE_PRECISION: seconds
SAMPLING_INTERVAL_S: 0.005000
NDATA: 20000
DURATION_S: 100.000
STREAM: HNZ
UNITS: cm/s
INSTRUMENT: sensor = FBA-3 [Kinemetrics] | digitizer = Etna [Kinemetrics]
INSTRUMENT_ANALOG/DIGITAL: D
INSTRUMENTAL_FREQUENCY_HZ: 222.000
INSTRUMENTAL_DAMPING: 0.700000
FULL_SCALE_G: 1.0
N_BIT_DIGITAL_CONVERTER: 18
PGV_CM/S: 0.598387
TIME_PGV_S: 30.420000
BASELINE_CORRECTION: BASELINE REMOVED
FILTER_TYPE: BUTTERWORTH
FILTER_ORDER: 2
LOW_CUT_FREQUENCY_HZ: 0.100
HIGH_CUT_FREQUENCY_HZ: 40.000
LATE/NORMAL_TRIGGERED: NT
DATABASE_VERSION: 0.5
HEADER_FORMAT: DYNA 1.2
DATA_TYPE: VELOCITY
PROCESSING: manual (Paolucci et al., 2011)
DATA_TIMESTAMP_YYYYMMDD_HHMMSS: 20211011_160535.684
DATA_LICENSE: CC-BY3_0-IT (http://creativecommons.org/licenses/by/3.0/deed.en)
DATA_CITATION: Luzi L, Pacor F, Puglia R (2019). Italian Accelerometric Archive v 3.0 - Istituto Nazionale di Geofisica e Vulcanologia, Dipartimento della Protezione Civile Nazionale. doi: 10.13127/itaca.3.1
DATA_CREATOR: ITACA working group
ORIGINAL_DATA_MEDIATOR_CITATION: data obtained within the DPC-INGV data exchange agreements
ORIGINAL_DATA_MEDIATOR: Archive of Italian Department of Civil Protection
ORIGINAL_DATA_CREATOR_CITATION: Presidency Of Counsil Of Ministers-Civil Protection Department. (1972). Italian Strong Motion Network. Presidency of Counsil of Ministers - Civil Protection Department. https://doi.org/10.7914/SN/IT http://www.fdsn.org/networks/detail/IT/
ORIGINAL_DATA_CREATOR: network: IT (Italian Strong Motion Network (RAN)); owner: Presidency of Counsil of Ministers - Civil Protection Department (PCM - DPC)
USER1: 
USER2: 
USER3: 
USER4: 
USER5: 
[...]
-0.025206
-0.027109
-0.029521
-0.032369
-0.035315
-0.037915
-0.039790
-0.040739
-0.040758
-0.039988
-0.038618
-0.036822
-0.034703
-0.032251
-0.029353
-0.025931
-0.022140
-0.018428
-0.015348
-0.013274
-0.012259
-0.012105
-0.012572
-0.013519
-0.014877
-0.016484
-0.017971
-0.018814
-0.018551
-0.016983
-0.014211
-0.010501
-0.006176
-0.001571
0.003053
0.007585
0.011975
0.016082
0.019669
0.022504
0.024374
0.025070
0.024457
0.022523
0.019380
0.015245
0.010422
0.005254
0.000096
-0.004689
-0.008722
-0.011586
-0.012812
-0.011994
-0.008973
-0.003993
0.002286
0.009016
0.015535
0.021572
0.027087
0.031948
0.035810
0.038293
0.039209
0.038603
0.036655
0.033590
0.029613
0.024880
0.019522
0.013743
0.007898
0.002470
-0.002023
-0.005190
-0.006901
-0.007269
-0.006473
-0.004631
-0.001856
0.001655
0.005629
0.009771
0.013800
0.017483
0.020723
0.023600
0.026251
0.028674
0.030667
0.031924
0.032150
0.031101
0.028610
0.024724
0.019786
0.014332
0.008893
0.003932
-0.000164
-0.003204
-0.005273
-0.006602
-0.007327
-0.007414
-0.006780
-0.005464
-0.003713
-0.001978
-0.000799
-0.000612
-0.001609
-0.003714
-0.006640
-0.009962
-0.013283
-0.016420
-0.019413
-0.022381
-0.025358
-0.028240
-0.030867
-0.033163
-0.035198
-0.037041
-0.038520
-0.039167
-0.038501
-0.036411
-0.033318
-0.030010
-0.027262
-0.025489
-0.024606
-0.024099
-0.023282
-0.021712
-0.019406
-0.016768
-0.014337
-0.012486
-0.011367
-0.010995
-0.011242
-0.011862
-0.012712
-0.013944
-0.015944
-0.019100
-0.023634
-0.029538
-0.036508
-0.043916
-0.050964
-0.056992
-0.061651
-0.064812
-0.066344
-0.065952
-0.063205
-0.057785
-0.049760
-0.039680
-0.028473
-0.017229
-0.006917
0.001816
0.008680
0.013632
0.016748
0.018163
0.018027
0.016470
0.013563
0.009348
0.003978
-0.002142
-0.008386
-0.014117
-0.018901
-0.022642
-0.025608
-0.028248
-0.030912
-0.033723
-0.036667
-0.039695
-0.042739
-0.045689
-0.048388
-0.050638
-0.052196
-0.052749
-0.051943
-0.049496
-0.045331
-0.039587
-0.032565
-0.024668
-0.016315
-0.007877
0.000270
0.007653
0.013732
0.018048
0.020360
0.020644
0.019007
0.015583
0.010447
0.003553
-0.005204
-0.015794
-0.027882
-0.040766
-0.053503
-0.065159
-0.074991
-0.082522
-0.087620
-0.090512
-0.091662
-0.091586
-0.090724
-0.089394
-0.087813
-0.086180
-0.084785
-0.084032
-0.084331
-0.085872
-0.088457
-0.091536
-0.094438
-0.096668
-0.098072
-0.098767
-0.098917
-0.098638
-0.098032
-0.097185
-0.096092
-0.094621
-0.092542
-0.089585
-0.085470
-0.079961
-0.072993
-0.064803
-0.055852
-0.046620
-0.037498
-0.028789
-0.020698
-0.013371
-0.006963
-0.001619
0.002650
0.006045
0.008902
0.011585
0.014457
0.017871
0.022114
0.027313
0.033380
0.040063
0.047063
0.054136
0.061199
0.068363
0.075861
0.083885
0.092431
0.101281
0.110085
0.118395
0.125722
0.131623
0.135711
0.137608
0.136927
0.133340
0.126739
0.117375
0.105915
0.093418
0.081152
0.070240
0.061380
0.054866
0.050830
0.049449
0.050949
0.055422
0.062551
0.071508
0.081205
0.090707
0.099482
0.107360
0.114312
0.120271
0.125103
0.128684
0.130988
0.132123
0.132237
0.131406
0.129690
0.127258
0.124384
0.121340
0.118312
0.115364
0.112435
0.109403
0.106150
0.102588
0.098651
0.094337
0.089788
0.085293
0.081142
0.077433
0.074018
0.070653
0.067208
0.063737
0.060408
0.057387
0.054733
0.052346
0.050081
0.047997
0.046428
0.045762
0.046216
0.047828
0.050519
0.054066
0.058135
0.062384
0.066530
0.070419
0.074123
0.077872
0.081838
0.085912
0.089621
0.092255
0.093191
0.092175
0.089305
0.084913
0.079483
0.073539
0.067493
0.061587
0.055952
0.050719
0.046106
0.042395
0.039895
0.038900
0.039541
0.041620
0.044644
0.047979
0.051014
0.053272
0.054463
0.054429
0.053085
0.050420
0.046559
0.041815
0.036646
0.031511
0.026708
0.022335
0.018411
0.015079
0.012782
0.012235
0.014140
0.018852
0.026142
0.035191
0.044938
0.054588
0.063877
0.072911
0.081818
0.090486
0.098495
0.105240
0.110244
0.113444
0.115224
0.116190
0.116826
0.117270
0.117328
0.116698
0.115241
0.113135
0.110807
0.108760
0.107411
0.106900
0.106959
0.107017
0.106522
0.105249
0.103363
0.101250
0.099271
0.097611
0.096237
0.094931
0.093409
0.091485
0.089226
0.087020
0.085454
0.085021
0.085870
0.087811
0.090533
0.093887
0.097997
0.103165
0.109621
0.117240
0.125490
0.133719
0.141499
0.148720
0.155384
0.161337
0.166166
0.169335
0.170439
0.169441
0.166777
0.163250
0.159667
0.156479
0.153777
0.151563
0.149939
0.149081
0.149112
0.149997
0.151515
0.153306
0.154972
0.156187
0.156804
0.156848
0.156371
0.155308
0.153502
0.150783
0.147026
0.142189
0.136402
0.130006
0.123493
0.117353
0.111866
0.107073
0.102964
0.099584
0.096877
0.094581
0.092408
0.090301
0.088421
0.086962
0.086051
0.085763
0.086126
0.087133
0.088801
0.091283
0.094917
0.100150
0.107382
0.116751
0.127975
0.140332
0.152739
0.163942
0.172768
0.178411
0.180629
0.179624
0.175695
0.169008
0.159631
0.147685
0.133472
0.117549
0.100757
0.084083
0.068393
0.054234
0.041825
0.031179
0.022289
0.015325
0.010720
0.009026
0.010603
0.015380
0.022796
0.031915
0.041701
0.051279
0.060079
0.067794
0.074200
0.079061
0.082214
0.083691
0.083726
0.082653
0.080853
0.078750
0.076797
0.075416
0.074939
0.075569
0.077379
0.080349
0.084417
0.089506
0.095506
0.102255
0.109520
0.116909
0.123867
0.129926
0.134983
0.139301
0.143289
0.147253
0.151297
0.155413
0.159577
0.163754
0.167864
0.171780
0.175318
0.178272
0.180461
0.181790
0.182322
0.182358
0.182420
0.183038
0.184429
0.186386
0.188493
0.190388
0.191793
0.192380
0.191717
0.189376
0.185136
0.179155
0.171996
0.164433
0.157177
0.150708
0.145241
0.140742
0.137050
0.134086
0.131950
0.130807
0.130685
0.131396
0.132632
0.134161
0.135906
0.137894
0.140123
0.142483
0.144754
0.146649
0.147890
0.148276
0.147694
0.146105
0.143569
0.140219
0.136237
0.131925
0.127751
0.124209
0.121587
0.119850
0.118771
0.118173
0.118075
0.118636
0.119972
0.122040
0.124679
0.127731
0.131136
0.134903
0.139027
0.143461
0.148123
0.152896
0.157708
0.162679
0.168173
0.174646
0.182398
0.191430
0.201460
0.212035
0.222682
0.232991
0.242596
0.251145
0.258324
0.263858
0.267534
0.269252
0.269041
0.266949
0.262977
0.257175
0.249807
0.241425
0.232786
0.224677
0.217695
0.212026
0.207412
0.203331
0.199238
0.194790
0.190008
0.185266
0.181084
0.177824
0.175498
0.173792
0.172222
0.170316
0.167814
0.164797
0.161606
0.158629
0.156181
0.154517
0.153834
0.154238
0.155715
0.158114
0.161243
0.164979
0.169109
0.173204
0.176950
0.180378
0.183524
0.186160
0.188063
0.189272
0.189868
0.189733
0.188625
0.186303
0.182622
0.177658
0.171670
0.164924
0.157578
0.149675
0.141217
0.132306
0.123198
0.114234
0.105773
0.098118
0.091370
0.085351
0.079728
0.074186
0.068508
0.062601
0.056454
0.050031
0.043206
0.035826
0.027891
0.019676
0.011570
0.003875
-0.003162
-0.009318
-0.014510
-0.018748
-0.021945
-0.023901
-0.024482
-0.023720
-0.021803
-0.019038
-0.015811
-0.012576
-0.009817
-0.007919
-0.007034
-0.007119
-0.008108
-0.010040
-0.012994
-0.016902
-0.021462
-0.026264
-0.031034
-0.035795
-0.040865
-0.046687
-0.053573
-0.061524
-0.070242
-0.079239
-0.087920
-0.095703
-0.102139
-0.106974
-0.110185
-0.111932
-0.112449
-0.111990
-0.110873
-0.109493
-0.108263
-0.107589
-0.107864
-0.109373
-0.112169
-0.116091
-0.120917
-0.126431
-0.132338
-0.138247
-0.143839
-0.149039
-0.154032
-0.159148
-0.164684
-0.170780
-0.177367
-0.184149
-0.190671
-0.196477
-0.201224
-0.204658
-0.206517
-0.206535
-0.204594
-0.200802
-0.195391
-0.188622
-0.180791
-0.172255
-0.163475
-0.155026
-0.147479
-0.141264
-0.136660
-0.133863
-0.132987
-0.133969
-0.136527
-0.140229
-0.144601
-0.149199
-0.153645
-0.157670
-0.161164
-0.164178
-0.166859
-0.169378
-0.171861
-0.174329
-0.176665
-0.178623
-0.179857
-0.179958
-0.178577
-0.175609
-0.171310
-0.166191
-0.160796
-0.155549
-0.150785
-0.146796
-0.143803
-0.141930
-0.141220
-0.141667
-0.143215
-0.145703
-0.148846
-0.152333
-0.155936
-0.159495
-0.162797
-0.165469
-0.167012
-0.166967
-0.165098
-0.161448
-0.156248
-0.149828
-0.142619
-0.135118
-0.127834
-0.121285
-0.115997
-0.112443
-0.110970
-0.111692
-0.114458
-0.118924
-0.124644
-0.131142
-0.138013
-0.145003
-0.151965
-0.158804
-0.165495
-0.172091
-0.178595
-0.184864
-0.190674
-0.195911
-0.200685
-0.205316
-0.210239
-0.215875
-0.222467
-0.230020
-0.238333
-0.247077
-0.255844
-0.264191
-0.271691
-0.277939
-0.282484
-0.284842
-0.284661
-0.281920
-0.277005
-0.270616
-0.263584
-0.256675
-0.250445
-0.245210
-0.241208
-0.238830
-0.238575
-0.240766
-0.245381
-0.252097
-0.260333
-0.269386
-0.278712
-0.288140
-0.297789
-0.307755
-0.317886
-0.327784
-0.336934
-0.344845
-0.351168
-0.355787
-0.358860
-0.360729
-0.361825
-0.362637
-0.363642
-0.365141
-0.367186
-0.369630
-0.372293
-0.375088
-0.377964
-0.380797
-0.383410
-0.385617
-0.387188
-0.387841
-0.387298
-0.385372
-0.382017
-0.377307
-0.371375
-0.364299
-0.356029
-0.346458
-0.335608
-0.323807
-0.311775
-0.300537
-0.291141
-0.284290
-0.280185
-0.278655
-0.279344
-0.281823
-0.285663
-0.290446
-0.295729
-0.301057
-0.306022
-0.310287
-0.313581
-0.315684
-0.316426
-0.315759
-0.313861
-0.311093
-0.307850
-0.304460
-0.301129
-0.297879
-0.294551
-0.290962
-0.287059
-0.282916
-0.278633
-0.274263
-0.269782
-0.265070
-0.259914
-0.254109
-0.247639
-0.240751
-0.233906
-0.227650
-0.222444
-0.218499
-0.215751
-0.213965
-0.212887
-0.212329
-0.212151
-0.212204
-0.212305
-0.212290
-0.212024
-0.211336
-0.209964
-0.207574
-0.203875
-0.198757
-0.192339
-0.184884
-0.176667
-0.167939
-0.158979
-0.150126
-0.141781
-0.134370
-0.128193
-0.123257
-0.119288
-0.115928
-0.112945
-0.110325
-0.108206
-0.106711
-0.105832
-0.105352
-0.104886
-0.104103
-0.102881
-0.101262
-0.099351
-0.097235
-0.094939
-0.092462
-0.089802
-0.086984
-0.084090
-0.081270
-0.078718
-0.076589
-0.074908
-0.073562
-0.072386
-0.071274
-0.070257
-0.069513
-0.069293
-0.069852
-0.071420
-0.074150
-0.078061
-0.083060
-0.088992
-0.095591
-0.102453
-0.109132
-0.115270
-0.120708
-0.125499
-0.129755
-0.133474
-0.136563
-0.139042
-0.141023
-0.142510
-0.143501
-0.144210
-0.144953
-0.145992
-0.147569
-0.149865
-0.152993
-0.157068
-0.162129
-0.168077
-0.174778
-0.182166
-0.190211
-0.198830
-0.207806
-0.216791
-0.225420
-0.233381
-0.240384
-0.246176
-0.250629
-0.253725
-0.255482
-0.255951
-0.255228
-0.253434
-0.250775
-0.247601
-0.244360
-0.241506
-0.239370
-0.238045
-0.237442
-0.237442
-0.237895
-0.238552
-0.239071
-0.239094
-0.238251
-0.236127
-0.232282
-0.226359
-0.218238
-0.208125
-0.196518
-0.184144
-0.171837
-0.160352
-0.150263
-0.141958
-0.135681
-0.131606
-0.129836
-0.130307
-0.132708
-0.136538
-0.141229
-0.146240
-0.151142
-0.155727
-0.160021
-0.164185
-0.168338
-0.172441
-0.176322
-0.179737
-0.182409
-0.184101
-0.184691
-0.184161
-0.182502
-0.179625
-0.175440
-0.170062
-0.163912
-0.157591
-0.151680
-0.146590
-0.142471
-0.139202
-0.136479
-0.133971
-0.131460
-0.128908
-0.126414
-0.124070
-0.121862
-0.119678
-0.117424
-0.115134
-0.113006
-0.111310
-0.110276
-0.110036
-0.110619
-0.111950
-0.113856
-0.116122
-0.118549
-0.120954
-0.123118
-0.124823
-0.125968
-0.126614
-0.126916
-0.127028
-0.127033
-0.126957
-0.126856
-0.126852
-0.127065
-0.127582
-0.128481
-0.129789
-0.131419
-0.133200
-0.134999
-0.136777
-0.138570
-0.140444
-0.142477
-0.144800
-0.147556
-0.150810
-0.154564
-0.158873
-0.163842
-0.169548
-0.176045
-0.183376
-0.191482
-0.200134
-0.209005
-0.217814
-0.226437
-0.234809
-0.242749
-0.249943
-0.256073
-0.260833
-0.263926
-0.265213
-0.264836
-0.263097
-0.260257
-0.256463
-0.251795
-0.246340
-0.240259
-0.233796
-0.227173
-0.220463
-0.213598
-0.206507
-0.199173
-0.191552
-0.183567
-0.175154
-0.166229
-0.156623
-0.146211
-0.135095
-0.123610
-0.112193
-0.101306
-0.091366
-0.082691
-0.075491
-0.069829
-0.065625
-0.062701
-0.060795
-0.059543
-0.058495
-0.057132
-0.054866
-0.051094
-0.045364
-0.037545
-0.027820
-0.016573
-0.004325
0.008285
0.020793
0.033148
0.045249
0.056535
0.066624
0.075878
0.084730
0.092970
0.100239
0.106754
0.113025
0.119380
0.126055
0.133274
0.141173
0.149887
0.159502
0.169850
0.180658
0.191824
0.203362
0.215260
0.227436
0.239692
0.251812
0.263774
0.275693
0.287601
0.299498
0.311466
0.323610
0.336030
0.348859
0.362209
0.376072
0.390221
0.404196
0.417498
0.429828
0.441128
0.451508
0.461128
0.470087
0.478349
0.485754
0.492111
0.497361
0.501624
0.505122
0.508140
0.511000
0.513940
0.516998
0.520021
0.522813
0.525330
0.527680
0.530022
0.532556
0.535487
0.538858
0.542470
0.546018
0.549196
0.551727
0.553474
0.554586
0.555429
0.556422
0.557902
0.560053
0.562919
0.566452
0.570530
0.575028
0.579855
0.584841
0.589665
0.593876
0.596946
0.598387
0.597861
0.595189
0.590332
0.583429
0.574835
0.565037
0.554533
0.543767
0.533123
0.522965
0.513696
0.505693
0.499152
0.493976
0.489835
0.486396
0.483484
0.480920
0.478264
0.474834
0.470063
0.463801
0.456149
0.447101
0.436548
0.424548
0.411414
0.397529
0.383166
0.368520
0.353766
0.339034
0.324381
0.309813
0.295340
0.281030
0.267019
0.253414
0.240228
0.227451
0.215080
0.203011
0.191008
0.178901
0.166712
0.154562
0.142678
0.131440
0.121233
0.112420
0.105462
0.100821
0.098732
0.099060
0.101349
0.105071
0.109800
0.115173
0.120824
0.126383
0.131461
0.135688
0.138795
0.140646
0.141252
0.140767
0.139519
0.137955
0.136451
0.135203
0.134215
0.133323
0.132306
0.131035
0.129555
0.128078
0.126781
0.125586
0.124167
0.122117
0.119094
0.114944
0.109790
0.103957
0.097863
0.091917
0.086359
0.081270
0.076750
0.072987
0.070196
0.068585
0.068283
0.069221
0.071089
0.073497
0.076206
0.079142
0.082231
0.085315
0.088181
0.090563
0.092238
0.093139
0.093338
0.092950
0.092173
0.091267
0.090364
0.089381
0.088167
0.086622
0.084717
0.082445
0.079766
0.076657
0.073162
0.069290
0.064966
0.060159
0.054978
0.049618
0.044294
0.039222
0.034612
0.030649
0.027517
0.025386
0.024415
0.024738
0.026395
0.029285
0.033253
0.038127
0.043705
0.049800
0.056265
0.062919
0.069554
0.076015
0.082176
0.087885
0.092928
0.097077
0.100207
0.102279
0.103276
0.103261
0.102449
0.101143
0.099642
0.098223
0.097104
0.096393
0.096116
0.096261
0.096780
0.097607
0.098696
0.100036
0.101657
0.103631
0.106027
0.108926
0.112467
0.116774
0.121850
0.127595
0.133870
0.140523
0.147356
0.154132
0.160638
0.166754
0.172484
0.177934
0.183234
0.188451
0.193566
0.198490
0.203154
0.207590
0.211877
0.216041
0.220074
0.223999
0.227868
0.231774
0.235775
0.239766
0.243531
0.246897
0.249809
0.252336
0.254626
0.256838
0.259123
0.261602
0.264321
0.267234
0.270206
0.273026
0.275459
0.277314
0.278501
0.279031
0.278917
0.278104
0.276554
0.274326
0.271531
0.268319
0.264907
0.261514
0.258304
0.255420
0.253033
0.251293
0.250293
0.250093
0.250754
0.252345
0.254868
0.258185
0.262037
0.266118
0.270121
0.273763
0.276791
0.279015
0.280355
0.280874
0.280780
0.280380
0.280013
0.279993
0.280622
0.282204
0.284957
0.288915
0.293947
0.299824
0.306275
0.313092
0.320184
0.327393
0.334294
0.340412
0.345583
0.349824
0.352919
0.354441
0.354175
0.352249
0.348933
0.344489
0.339133
0.333029
0.326416
0.319645
0.312986
0.306556
0.300436
0.294685
0.289246
0.283902
0.278303
0.272083
0.264968
0.256712
0.247045
0.235835
0.223279
0.209792
0.195598
0.180576
0.164641
0.148001
0.130918
0.113513
0.095939
0.078543
0.061739
0.045820
0.030970
0.017405
0.005361
-0.005021
-0.013738
-0.020883
-0.026602
-0.031087
-0.034581
-0.037295
-0.039308
-0.040620
-0.041272
-0.041293
-0.040678
-0.039489
-0.037771
-0.035398
-0.032191
-0.028175
-0.023604
-0.018757
-0.013855
-0.009153
-0.004900
-0.001212
0.001875
0.004226
0.005540
0.005444
0.003646
0.000030
-0.005348
-0.012308
-0.020541
-0.029669
-0.039447
-0.049830
-0.060796
-0.072194
-0.083763
-0.095223
-0.106363
-0.117058
-0.127346
-0.137493
-0.147747
-0.158114
-0.168528
-0.179026
-0.189613
-0.200166
-0.210569
-0.220815
-0.230870
-0.240579
-0.249721
-0.258076
-0.265449
-0.271679
-0.276619
-0.280185
-0.282442
-0.283530
-0.283530
-0.282453
-0.280271
-0.276928
-0.272376
-0.266649
-0.259905
-0.252358
-0.244227
-0.235735
-0.227101
-0.218504
-0.210082
-0.201992
-0.194485
-0.187820
-0.182178
-0.177695
-0.174506
-0.172721
-0.172332
-0.173157
-0.174866
-0.177088
-0.179539
-0.182033
-0.184379
-0.186379
-0.187927
-0.188996
-0.189541
-0.189539
-0.189140
-0.188627
-0.188223
-0.188021
-0.188051
-0.188334
-0.188927
-0.189949
-0.191540
-0.193824
-0.196883
-0.200677
-0.205006
-0.209595
-0.214238
-0.218797
-0.223059
-0.226706
-0.229398
-0.230820
-0.230728
-0.229071
-0.226016
-0.221855
-0.216981
-0.211846
-0.206790
-0.201987
-0.197533
-0.193538
-0.190151
-0.187431
-0.185197
-0.183059
-0.180680
-0.177940
-0.174758
-0.170926
-0.166268
-0.160758
-0.154421
-0.147258
-0.139260
-0.130485
-0.121186
-0.111783
-0.102660
-0.094054
-0.086087
-0.078792
-0.072136
-0.066078
-0.060617
-0.055771
-0.051521
-0.047759
-0.044262
-0.040742
-0.036931
-0.032563
-0.027374
-0.021272
-0.014432
-0.007037
0.000982
0.009710
0.018954
0.028405
0.037892
0.047249
0.056195
0.064459
0.071785
0.077808
0.082221
0.085039
0.086515
0.086878
0.086284
0.084884
0.082846
0.080350
0.077576
0.074714
0.071970
0.069524
0.067514
0.066125
0.065632
0.066244
0.067950
0.070620
0.074173
0.078569
0.083597
0.088774
0.093667
0.098191
0.102439
0.106397
0.109933
0.112892
0.115142
0.116622
0.117413
0.117648
0.117395
0.116735
0.115775
0.114485
0.112676
0.110165
0.106921
0.103098
0.098983
0.094890
0.091074
0.087685
0.084750
0.082165
0.079760
0.077348
0.074746
0.071808
0.068438
0.064619
0.060480
0.056263
0.052102
0.047891
0.043406
0.038536
0.033320
0.027770
0.021773
0.015159
0.007787
-0.000387
-0.009315
-0.018985
-0.029440
-0.040619
-0.052294
-0.064216
-0.076230
-0.088266
-0.100250
-0.111994
-0.123239
-0.133762
-0.143367
-0.151873
-0.159186
-0.165334
-0.170390
-0.174447
-0.177631
-0.180084
-0.181958
-0.183513
-0.185055
-0.186710
-0.188464
-0.190405
-0.192817
-0.196088
-0.200537
-0.206227
-0.213049
-0.220992
-0.230204
-0.240734
-0.252409
-0.265017
-0.278400
-0.292308
-0.306307
-0.319898
-0.332647
-0.344184
-0.354207
-0.362510
-0.368983
