EVENT_NAME: L_AQUILA
EVENT_ID: IT-2009-0009
EVENT_DATE_YYYYMMDD: 20090406
EVENT_TIME_HHMMSS: 013240
EVENT_LATITUDE_DEGREE: 42.3420
EVENT_LONGITUDE_DEGREE: 13.3800
EVENT_DEPTH_KM: 8.3
HYPOCENTER_REFERENCE: INGV-CNT_Seismic_Bulletin
MAGNITUDE_W: 6.1
MAGNITUDE_W_REFERENCE: INGV-CNT_Seismic_Bulletin
MAGNITUDE_L: 
MAGNITUDE_L_REFERENCE: 
FOCAL_MECHANISM: Normal faulting
NETWORK: IT
STATION_CODE: SPC
STATION_NAME: 
STATION_LATITUDE_DEGREE: 42.743469
STATION_LONGITUDE_DEGREE: 12.739693
STATION_ELEVATION_M: 134
LOCATION: 
SENSOR_DEPTH_M: 0.0
VS30_M/S: 
SITE_CLASSIFICATION_EC8: C (inferred from geology)
MORPHOLOGIC_CLASSIFICATION: 
EPICENTRAL_DISTANCE_KM: 69.0
EARTHQUAKE_BACKAZIMUTH_DEGREE: 310.5
DATE_TIME_FIRST_SAMPLE_YYYYMMDD_HHMMSS: 20090406_013239.000
DATE_TIME_FIRST_SAMPLE_PRECISION: seconds
SAMPLING_INTERVAL_S: 0.005000
NDATA: 20000
DURATION_S: 100.000
STREAM: HNN
UNITS: cm/s^2
INSTRUMENT: sensor = FBA-3 [Kinemetrics] | digitizer = Etna [Kinemetrics]
INSTRUMENT_ANALOG/DIGITAL: D
INSTRUMENTAL_FREQUENCY_HZ: 212.000
INSTRUMENTAL_DAMPING: 0.700000
FULL_SCALE_G: 1.0
N_BIT_DIGITAL_CONVERTER: 18
PGA_CM/S^2: 5.950571
TIME_PGA_S: 32.685000
BASELINE_CORRECTION: BASELINE REMOVED
FILTER_TYPE: BUTTERWORTH
FILTER_ORDER: 2
LOW_CUT_FREQUENCY_HZ: 0.100
HIGH_CUT_FREQUENCY_HZ: 40.000
LATE/NORMAL_TRIGGERED: NT
DATABASE_VERSION: 0.5
HEADER_FORMAT: DYNA 1.2
DATA_TYPE: ACCELERATION
PROCESSING: manual (Paolucci et al., 2011)
DATA_TIMESTAMP_YYYYMMDD_HHMMSS: 20211011_160534.881
DATA_LICENSE: CC-BY3_0-IT (http://creativecommons.org/licenses/by/3.0/deed.en)
DATA_CITATION: Luzi L, Pacor F, Puglia R (2019). Italian Accelerometric Archive v 3.0 - Istituto Nazionale di Geofisica e Vulcanologia, Dipartimento della Protezione Civile Nazionale. doi: 10.13127/itaca.3.1
DATA_CREATOR: ITACA working group
ORIGINAL_DATA_MEDIATOR_CITATION: data obtained within the DPC-INGV data exchange agreements
ORIGINAL_DATA_MEDIATOR: Archive of Italian Department of Civil Protection
ORIGINAL_DATA_CREATOR_CITATION: Presidency Of Counsil Of Ministers-Civil Protection Department. (1972). Italian Strong Motion Network. Presidency of Counsil of Ministers - Civil Protection Department. https://doi.org/10.7914/SN/IT http://www.fdsn.org/networks/detail/IT/
ORIGINAL_DATA_CREATOR: network: IT (Italian Strong Motion Network (RAN)); owner: Presidency of Counsil of Ministers - Civil Protection Department (PCM - DPC)
USER1: 
USER2: 
USER3: 
USER4: 
USER5: 
[...]
0.893102
0.581342
0.206714
-0.196491
-0.610658
-1.022531
-1.405670
-1.715311
-1.900993
-1.930605
-1.812194
-1.592434
-1.327627
-1.052984
-0.773722
-0.480818
-0.170729
0.154813
0.493919
0.835638
1.157499
1.439704
1.674140
1.857643
1.988999
2.082486
2.169749
2.274809
2.394457
2.502962
2.570287
2.579745
2.530948
2.429400
2.277377
2.070908
1.805047
1.487826
1.153158
0.861096
0.674753
0.625093
0.695715
0.835354
0.983726
1.094402
1.141412
1.113224
1.007120
0.831701
0.609936
0.376910
0.182775
0.087686
0.130977
0.304909
0.564734
0.858797
1.147344
1.405392
1.621575
1.796097
1.933801
2.034021
2.089511
2.098637
2.074328
2.039590
2.019368
2.034605
2.093701
2.182040
2.256163
2.248096
2.083864
1.712554
1.134890
0.412582
-0.359454
-1.099500
-1.763738
-2.339093
-2.821338
-3.197793
-3.446695
-3.553474
-3.528734
-3.410006
-3.247399
-3.082222
-2.932214
-2.801519
-2.702660
-2.658347
-2.684163
-2.772023
-2.884388
-2.964125
-2.955208
-2.819051
-2.535290
-2.097410
-1.522517
-0.863088
-0.196687
0.398366
0.863080
1.167312
1.305222
1.278713
1.082737
0.714438
0.201090
-0.391978
-0.983276
-1.503073
-1.909404
-2.186582
-2.339481
-2.391307
-2.371059
-2.294281
-2.163014
-1.985775
-1.789512
-1.612319
-1.487007
-1.427658
-1.427062
-1.461410
-1.495026
-1.486304
-1.400167
-1.222282
-0.963802
-0.656233
-0.342416
-0.063223
0.160730
0.339879
0.508085
0.701003
0.930767
1.175564
1.396891
1.566115
1.674191
1.725709
1.730599
1.698892
1.638314
1.552888
1.448389
1.343516
1.268500
1.244532
1.258329
1.254703
1.161381
0.927754
0.548069
0.065175
-0.441956
-0.890048
-1.228376
-1.453446
-1.596298
-1.701616
-1.810007
-1.943259
-2.098486
-2.253947
-2.379091
-2.445119
-2.433450
-2.334197
-2.135564
-1.817000
-1.358651
-0.763146
-0.067878
0.662459
1.351383
1.921974
2.307284
2.467163
2.399443
2.133668
1.717479
1.208150
0.666799
0.143735
-0.334512
-0.756830
-1.112103
-1.386492
-1.570644
-1.666277
-1.684714
-1.637988
-1.527870
-1.343244
-1.069132
-0.696721
-0.232050
0.296225
0.839443
1.344706
1.773549
2.109281
2.346575
2.476412
2.485616
2.368504
2.132932
1.795884
1.376911
0.892526
0.350792
-0.245055
-0.880057
-1.513869
-2.087434
-2.544638
-2.846376
-2.974915
-2.933683
-2.737336
-2.407604
-1.982623
-1.520553
-1.085539
-0.722971
-0.448298
-0.254413
-0.118859
-0.013994
0.080929
0.184235
0.318182
0.496731
0.713200
0.946634
1.174616
1.371371
1.498787
1.518341
1.417188
1.214657
0.952008
0.683075
0.456206
0.293722
0.194364
0.153991
0.176324
0.265680
0.415661
0.603719
0.796973
0.964601
1.085351
1.150157
1.161177
1.125788
1.048229
0.925321
0.749133
0.510395
0.202454
-0.166968
-0.566836
-0.950945
-1.272203
-1.494755
-1.604051
-1.604367
-1.507892
-1.329597
-1.086613
-0.798768
-0.488392
-0.173238
0.144350
0.479098
0.854770
1.295503
1.815582
2.408621
3.045342
3.681406
4.269086
4.765781
5.136259
5.353349
5.403017
5.287898
5.019439
4.609098
4.071412
3.432718
2.737308
2.042163
1.398230
0.835612
0.361601
-0.034991
-0.373414
-0.666926
-0.916707
-1.119365
-1.277779
-1.398159
-1.476447
-1.494062
-1.427838
-1.263046
-1.001389
-0.664349
-0.288117
0.094197
0.465156
0.814987
1.126167
1.369495
1.517192
1.559867
1.511572
1.402493
1.266460
1.131173
1.014094
0.922209
0.853134
0.795169
0.729511
0.639324
0.520869
0.382601
0.229215
0.049447
-0.176595
-0.457962
-0.781816
-1.118270
-1.429208
-1.678529
-1.844897
-1.921123
-1.903315
-1.792862
-1.604181
-1.358311
-1.069264
-0.742383
-0.386150
-0.017616
0.344436
0.683605
0.984701
1.232460
1.410150
1.499149
1.483468
1.361799
1.158467
0.919690
0.690763
0.491122
0.311063
0.125975
-0.089259
-0.349017
-0.649794
-0.970678
-1.278255
-1.531687
-1.691021
-1.732743
-1.662825
-1.508443
-1.293980
-1.031730
-0.734993
-0.429191
-0.149558
0.065612
0.184856
0.193783
0.100902
-0.061113
-0.244572
-0.402418
-0.500299
-0.522391
-0.467478
-0.337580
-0.132548
0.141142
0.463165
0.809486
1.161267
1.498119
1.794626
2.027040
2.177762
2.237610
2.208678
2.106048
1.956532
1.789734
1.624812
1.467323
1.318509
1.178264
1.038455
0.885558
0.710164
0.508687
0.278391
0.012084
-0.300818
-0.666635
-1.078785
-1.512091
-1.928803
-2.293977
-2.584410
-2.789812
-2.909091
-2.941021
-2.881347
-2.730601
-2.500675
-2.213544
-1.893761
-1.562113
-1.230674
-0.898318
-0.559068
-0.214516
0.127958
0.457079
0.754865
1.003603
1.193284
1.318498
1.370774
1.337681
1.217551
1.029399
0.801495
0.559905
0.327397
0.126434
-0.017405
-0.078669
-0.041732
0.089538
0.288802
0.517110
0.740646
0.941963
1.116537
1.256243
1.334888
1.315961
1.172258
0.893043
0.482519
-0.036711
-0.620298
-1.212176
-1.762553
-2.236897
-2.616285
-2.896483
-3.080016
-3.165681
-3.153823
-3.057707
-2.901260
-2.712001
-2.516714
-2.333751
-2.165634
-2.001828
-1.830959
-1.651284
-1.470183
-1.293953
-1.119099
-0.930515
-0.701879
-0.402528
-0.015966
0.445621
0.949328
1.463247
1.966558
2.445124
2.888153
3.288828
3.643945
3.950939
4.204779
4.396709
4.511327
4.526280
4.421081
4.188672
3.839611
3.394977
2.877561
2.309391
1.705833
1.067397
0.383236
-0.357862
-1.157984
-2.001241
-2.850013
-3.651308
-4.349608
-4.901560
-5.285816
-5.500499
-5.550563
-5.436278
-5.153652
-4.705797
-4.111344
-3.401010
-2.606215
-1.751310
-0.860195
0.031994
0.881722
1.647927
2.291616
2.771369
3.051552
3.113524
2.955042
2.589103
2.050241
1.391665
0.669718
-0.065111
-0.764640
-1.380506
-1.871001
-2.207484
-2.372656
-2.360019
-2.178652
-1.852760
-1.413494
-0.891081
-0.312834
0.293945
0.903578
1.500676
2.082725
2.649422
3.191375
3.691788
4.135086
4.510841
4.811348
5.028375
5.153936
5.184757
5.125812
4.985937
4.773890
4.505030
4.204420
3.898297
3.602973
3.322643
3.061678
2.830114
2.631750
2.461764
2.317020
2.198161
2.105265
2.037544
1.993526
1.966460
1.945665
1.928082
1.919442
1.916284
1.895854
1.833228
1.722587
1.575955
1.409516
1.238317
1.072059
0.907648
0.734594
0.548064
0.353972
0.163412
-0.019080
-0.201111
-0.391131
-0.586701
-0.781173
-0.960970
-1.098481
-1.175845
-1.201267
-1.194880
-1.171548
-1.133735
-1.078710
-1.002748
-0.898973
-0.763180
-0.595667
-0.395431
-0.161811
0.093839
0.344931
0.563280
0.734103
0.863403
0.974151
1.091791
1.230028
1.381696
1.519387
1.609970
1.628608
1.561752
1.406057
1.166434
0.852131
0.474786
0.050129
-0.401403
-0.855521
-1.288196
-1.685424
-2.044529
-2.361996
-2.628507
-2.841338
-3.010036
-3.139180
-3.215840
-3.223690
-3.159545
-3.025576
-2.816715
-2.528352
-2.165458
-1.739035
-1.264169
-0.760410
-0.249047
0.246491
0.697174
1.069624
1.337884
1.493205
1.533622
1.453037
1.252656
0.956706
0.608927
0.253055
-0.079796
-0.371616
-0.620089
-0.837511
-1.039872
-1.240175
-1.449047
-1.673331
-1.908535
-2.132681
-2.314078
-2.424307
-2.442473
-2.357222
-2.168769
-1.884782
-1.514159
-1.066034
-0.556846
-0.017570
0.509339
0.978596
1.350580
1.595988
1.695234
1.640445
1.435323
1.087081
0.606560
0.024139
-0.601597
-1.199697
-1.705930
-2.067855
-2.251619
-2.253951
-2.102178
-1.841756
-1.525281
-1.210409
-0.957964
-0.820368
-0.830531
-0.999609
-1.319044
-1.761181
-2.276547
-2.800907
-3.276006
-3.663129
-3.942753
-4.113127
-4.187830
-4.184950
-4.117103
-3.990509
-3.807649
-3.570040
-3.281211
-2.950456
-2.592582
-2.221424
-1.847751
-1.480793
-1.124595
-0.775327
-0.425903
-0.074080
0.274343
0.611073
0.930460
1.229346
1.506829
1.763920
2.003069
2.228789
2.446455
2.660807
2.873830
3.074852
3.235565
3.325780
3.328418
3.238868
3.064809
2.826885
2.547934
2.238001
1.897874
1.543081
1.202420
0.876222
0.536772
0.191498
-0.098518
-0.278530
-0.354987
-0.381319
-0.405094
-0.449354
-0.519262
-0.597516
-0.655337
-0.682126
-0.694915
-0.713784
-0.737231
-0.753409
-0.749727
-0.699746
-0.577455
-0.390307
-0.175070
0.037361
0.238252
0.427534
0.605649
0.777671
0.944593
1.095745
1.226660
1.350384
1.483349
1.632584
1.789524
1.933578
2.052005
2.146831
2.221015
2.276746
2.320705
2.352260
2.356927
2.320948
2.238162
2.101950
1.906694
1.659256
1.382901
1.109950
0.875170
0.712061
0.639008
0.649430
0.722738
0.835944
0.965578
1.088410
1.182691
1.229308
1.211505
1.116161
0.938620
0.686785
0.379788
0.038763
-0.320249
-0.687156
-1.059539
-1.438263
-1.821370
-2.210724
-2.614120
-3.031240
-3.447163
-3.842394
-4.204719
-4.532575
-4.827098
-5.085206
-5.300265
-5.459284
-5.539656
-5.510855
-5.338613
-4.995996
-4.479378
-3.813992
-3.040801
-2.203198
-1.347639
-0.520747
0.239484
0.899557
1.425292
1.794627
2.010045
2.092254
2.064523
1.947260
1.769432
1.572312
1.391761
1.242346
1.119544
1.014276
0.922846
0.846232
0.789953
0.761666
0.763762
0.790364
0.824277
0.831439
0.768523
0.606983
0.349195
0.020197
-0.348862
-0.727389
-1.085386
-1.391829
-1.610568
-1.704074
-1.653332
-1.469944
-1.178589
-0.799450
-0.355254
0.127812
0.632243
1.138226
1.607276
1.998007
2.282271
2.444034
2.489519
2.451304
2.368698
2.273054
2.185193
2.114972
2.065312
2.038854
2.034108
2.033049
2.005941
1.927396
1.784888
1.584543
1.347063
1.099667
0.869844
0.670042
0.499237
0.362184
0.271205
0.240340
0.282149
0.400594
0.587879
0.826057
1.091592
1.360456
1.604494
1.787259
1.876498
1.856431
1.718517
1.452341
1.057098
0.555905
-0.012407
-0.614604
-1.227175
-1.825744
-2.381998
-2.869223
-3.264918
-3.550062
-3.715323
-3.769815
-3.737158
-3.645048
-3.520767
-3.387274
-3.257339
-3.134425
-3.020472
-2.918686
-2.830848
-2.759541
-2.711202
-2.691573
-2.697667
-2.715198
-2.728742
-2.735098
-2.740808
-2.752065
-2.768721
-2.777671
-2.756062
-2.688080
-2.577902
-2.443953
-2.297914
-2.136081
-1.947697
-1.720214
-1.443961
-1.119015
-0.760514
-0.402258
-0.090236
0.130582
0.225231
0.172603
-0.035049
-0.393601
-0.885497
-1.478886
-2.132536
-2.800620
-3.437200
-4.004625
-4.474527
-4.823263
-5.036485
-5.115307
-5.071093
-4.917270
-4.669240
-4.345826
-3.963650
-3.531186
-3.057086
-2.565187
-2.091472
-1.663005
-1.282538
-0.935049
-0.604305
-0.279791
0.039600
0.337588
0.583603
0.753531
0.846671
0.881408
0.884652
0.888447
0.919583
0.987996
1.095561
1.248444
1.451365
1.697556
1.972217
2.260628
2.547500
2.816909
3.058047
3.268603
3.450385
3.597282
3.693423
3.728309
3.703523
3.625948
3.505975
3.358350
3.197806
3.034862
2.875765
2.724452
2.580453
2.434134
2.272851
2.095397
1.911841
1.729507
1.546851
1.357681
1.154520
0.928422
0.670600
0.378379
0.061066
-0.260079
-0.549872
-0.768987
-0.904418
-0.964135
-0.954823
-0.891144
-0.790602
-0.661185
-0.503685
-0.314769
-0.099380
0.122935
0.327276
0.498315
0.638039
0.761084
0.889848
1.052215
1.276482
1.575750
1.938173
2.336675
2.739887
3.118520
3.447172
3.707117
3.894625
4.017146
4.082294
4.097313
4.066305
3.981069
3.822444
3.575482
3.239793
2.816238
2.296177
1.682513
1.006563
0.307910
-0.394538
-1.101786
-1.807639
-2.484320
-3.097020
-3.616088
-4.016690
-4.285313
-4.422566
-4.436701
-4.341235
-4.153761
-3.892863
-3.571930
-3.194821
-2.761636
-2.273611
-1.731052
-1.137600
-0.510327
0.123490
0.743047
1.343695
1.931172
2.505557
3.050119
3.542227
3.966850
4.307241
4.536502
4.631505
4.590776
4.431656
4.171401
3.821473
3.395133
2.906974
2.368553
1.791420
1.192754
0.598697
0.042809
-0.444422
-0.846935
-1.162220
-1.389655
-1.528109
-1.588528
-1.597699
-1.586307
-1.573455
-1.558177
-1.528006
-1.475005
-1.398384
-1.296703
-1.167491
-1.014632
-0.852454
-0.698802
-0.563616
-0.447576
-0.346091
-0.254326
-0.173968
-0.111706
-0.073161
-0.062696
-0.082318
-0.122692
-0.158111
-0.158884
-0.110017
-0.015112
0.114643
0.268494
0.434277
0.592844
0.714865
0.770715
0.743110
0.621747
0.397716
0.072231
-0.335754
-0.792633
-1.262782
-1.721203
-2.155825
-2.560386
-2.929693
-3.263698
-3.565710
-3.829255
-4.035664
-4.168381
-4.222181
-4.201376
-4.118866
-3.994631
-3.848767
-3.693046
-3.529205
-3.359536
-3.193342
-3.037960
-2.895664
-2.769514
-2.659331
-2.554946
-2.441054
-2.305105
-2.135597
-1.918089
-1.641084
-1.306100
-0.929254
-0.531314
-0.127962
0.268874
0.647067
0.994824
1.298309
1.543317
1.731983
1.886602
2.023815
2.140638
2.229635
2.287043
2.303269
2.261544
2.149196
1.965314
1.721978
1.439622
1.140656
0.849609
0.591811
0.387565
0.249660
0.182318
0.180469
0.234047
0.333674
0.470028
0.630495
0.800210
0.964067
1.103876
1.194662
1.213824
1.159407
1.040597
0.859471
0.631118
0.389035
0.161951
-0.027329
-0.165922
-0.256858
-0.298075
-0.271974
-0.173553
-0.030829
0.118055
0.251296
0.367369
0.475917
0.584640
0.695770
0.808528
0.918152
1.014884
1.089464
1.141109
1.178702
1.219459
1.284498
1.386653
1.525233
1.693895
1.886789
2.097325
2.314677
2.527936
2.734029
2.934099
3.131562
3.336935
3.559503
3.794001
4.023211
4.235461
4.441279
4.665416
4.913935
5.162910
5.386625
5.576094
5.728205
5.841015
5.917164
5.950571
5.923910
5.833035
5.690246
5.503152
5.268423
4.980992
4.642938
4.260314
3.837257
3.383545
2.916354
2.448135
1.982566
1.520477
1.060411
0.593293
0.106697
-0.401187
-0.915656
-1.410098
-1.859312
-2.254987
-2.602654
-2.906146
-3.160359
-3.352068
-3.464995
-3.488584
-3.427022
-3.299965
-3.132352
-2.944713
-2.749370
-2.550876
-2.348991
-2.141620
-1.930439
-1.724087
-1.527378
-1.334350
-1.144646
-0.971381
-0.824123
-0.703067
-0.608890
-0.538065
-0.469517
-0.376880
-0.251157
-0.091570
0.105958
0.332090
0.560016
0.761838
0.905852
0.946252
0.847570
0.623129
0.326096
0.000090
-0.348093
-0.731444
-1.152818
-1.595866
-2.028311
-2.407666
-2.704663
-2.923124
-3.084048
-3.198713
-3.268913
-3.299364
-3.293945
-3.247617
-3.152302
-3.009548
-2.831344
-2.629468
-2.411854
-2.184483
-1.949922
-1.714902
-1.500696
-1.329176
-1.202321
-1.109695
-1.045968
-1.009762
-0.999052
-1.019574
-1.089297
-1.223270
-1.410143
-1.612095
-1.788946
-1.910825
-1.960377
-1.938374
-1.856439
-1.725271
-1.556488
-1.357789
-1.123715
-0.844675
-0.517815
-0.148691
0.252343
0.677313
1.117775
1.558219
1.980057
2.369017
2.718468
3.025458
3.282843
3.479318
3.606970
3.665993
3.663117
3.604963
3.491392
3.316612
3.078589
2.791814
2.492291
2.215688
1.964157
1.711560
1.437442
1.137819
0.820923
0.508288
0.219896
-0.043894
-0.289572
-0.508502
-0.682294
-0.808455
-0.906190
-0.994729
-1.085438
-1.194326
-1.343083
-1.541793
-1.779290
-2.037180
-2.300095
-2.550558
-2.768481
-2.933994
-3.031395
-3.060422
-3.040228
-2.988341
-2.907022
-2.800011
-2.674543
-2.536938
-2.403076
-2.284599
-2.171427
-2.043009
-1.886857
-1.701131
-1.485391
-1.242525
-0.971709
-0.659428
-0.304880
0.067747
0.428352
0.751716
1.023134
1.235485
1.379552
1.449858
1.446365
1.368424
1.225685
1.045947
0.862895
0.702862
0.579377
0.496726
0.456123
0.451620
0.466702
0.483680
0.495666
0.503226
0.502903
0.494580
0.489003
0.490446
0.477023
0.412591
0.291586
0.151114
0.026524
-0.080462
-0.191812
-0.317549
-0.429376
-0.485076
-0.468934
-0.394845
-0.288487
-0.177718
-0.090562
-0.053061
-0.084709
-0.188795
-0.348947
-0.546811
-0.776456
-1.037801
-1.324767
-1.617385
-1.893158
-2.142664
-2.353939
-2.504119
-2.590076
-2.642517
-2.692224
-2.733405
-2.736849
-2.698224
-2.640281
-2.569012
-2.467758
-2.320802
-2.125383
-1.891942
-1.624724
-1.317050
-0.969939
-0.593106
-0.202979
0.179923
0.551927
0.930279
1.321280
1.699159
2.032361
2.311559
2.535012
2.694429
2.787177
2.817739
2.791529
2.716926
2.598812
2.434101
2.218021
1.949612
1.638380
1.308396
0.989676
0.700193
0.440850
0.210588
0.015070
-0.139897
-0.257778
-0.354571
-0.446289
-0.537309
-0.626714
-0.714883
-0.807134
-0.914604
-1.040475
-1.170173
-1.288002
-1.400157
-1.529179
-1.682009
-1.833987
-1.964915
-2.085806
-2.193344
-2.249289
-2.226581
-2.130864
-1.980478
-1.779403
-1.517233
-1.200372
-0.855319
-0.496426
-0.122566
0.254377
0.599662
0.874320
1.066759
1.197071
1.287256
1.350149
1.392200
1.416260
1.429913
1.436196
1.425931
1.393035
1.343629
1.290694
1.245295
1.208145
1.172239
1.129798
1.073438
1.003035
0.929470
0.860027
0.787067
0.702081
0.612777
0.533275
0.461876
0.382894
0.297421
0.242015
0.261220
0.361648
0.507037
0.659172
0.802149
0.924614
1.009716
1.047740
1.032930
0.956721
0.819667
0.628558
0.384623
0.095531
-0.216195
-0.521303
-0.788518
-0.991135
-1.113100
-1.149168
-1.104714
-0.989340
-0.812490
-0.590574
-0.355619
-0.152462
-0.012309
0.069460
0.110411
0.103655
0.023276
-0.135662
-0.343719
-0.568712
-0.799950
-1.027793
-1.225560
-1.375570
-1.479354
-1.535773
-1.545577
-1.521553
-1.475795
-1.410883
-1.325379
-1.220645
-1.092160
-0.923388
-0.706437
-0.455648
-0.187819
0.095203
0.396388
0.710559
1.028574
1.347876
1.674952
2.014287
2.349492
2.638608
2.839339
2.939549
2.949068
2.863834
2.662341
2.336274
1.905854
1.411474
0.900599
0.418982
0.003852
-0.324059
-0.555333
-0.681740
-0.705207
-0.643511
-0.518558
-0.347608
-0.143836
0.070728
0.258775
0.386971
0.443382
0.437533
0.384732
0.286677
0.137148
-0.062495
-0.299511
-0.553069
-0.804253
-1.035740
-1.223045
-1.339431
-1.372188
-1.339320
-1.279670
-1.218544
-1.154528
-1.071956
-0.957161
-0.807046
-0.634372
-0.470352
-0.333533
-0.197824
-0.024321
0.190725
0.422274
0.653862
0.884002
1.095719
1.249751
1.318876
1.303040
1.214651
1.072247
0.892882
0.684999
0.454554
0.207673
-0.045138
-0.284214
-0.487079
-0.642462
-0.757058
-0.835011
-0.855962
-0.786501
-0.609824
-0.343511
-0.028070
0.299201
0.617625
0.924603
1.225576
1.514989
1.776023
1.992763
2.149950
2.236560
2.255293
2.221216
2.154464
2.071432
1.977307
1.869945
1.748876
1.608609
1.445304
1.282348
1.143299
1.017272
0.889582
0.768443
0.666337
0.573907
0.459626
0.298263
0.102634
-0.094281
-0.299909
-0.559594
-0.900131
-1.303607
-1.717530
-2.100078
-2.444602
-2.752347
-3.023074
-3.253422
-3.421919
-3.505182
-3.498290
-3.411742
-3.262727
-3.058313
-2.795069
-2.476966
-2.114061
-1.710755
-1.262677
-0.768131
-0.246147
0.269724
0.751994
1.186719
1.570405
1.899160
2.168420
2.379932
2.533100
2.624948
2.658381
2.639685
2.576181
2.474399
2.342722
2.192447
2.023968
1.819383
1.562273
1.261630
0.942349
0.621054
0.303562
-0.008276
-0.311003
-0.593799
-0.841989
-1.048317
-1.218763
-1.364392
-1.485507
-1.574031
-1.640458
-1.715783
-1.822339
-1.968225
-2.152781
-2.366821
-2.603842
-2.863893
-3.150790
-3.456040
-3.742999
-3.983391
-4.180673
-4.333858
