EVENT_NAME: L_AQUILA
EVENT_ID: IT-2009-0009
EVENT_DATE_YYYYMMDD: 20090406
EVENT_TIME_HHMMSS: 013240
EVENT_LATITUDE_DEGREE: 42.3420
EVENT_LONGITUDE_DEGREE: 13.3800
EVENT_DEPTH_KM: 8.3
HYPOCENTER_REFERENCE: INGV-CNT_Seismic_Bulletin
MAGNITUDE_W: 6.1
MAGNITUDE_W_REFERENCE: INGV-CNT_Seismic_Bulletin
MAGNITUDE_L: 
MAGNITUDE_L_REFERENCE: 
FOCAL_MECHANISM: Normal faulting
NETWORK: IT
STATION_CODE: SPC
STATION_NAME: 
STATION_LATITUDE_DEGREE: 42.743469
STATION_LONGITUDE_DEGREE: 12.739693
STATION_ELEVATION_M: 134
LOCATION: 
SENSOR_DEPTH_M: 0.0
VS30_M/S: 
SITE_CLASSIFICATION_EC8: C (inferred from geology)
MORPHOLOGIC_CLASSIFICATION: 
EPICENTRAL_DISTANCE_KM: 69.0
EARTHQUAKE_BACKAZIMUTH_DEGREE: 310.5
DATE_TIME_FIRST_SAMPLE_YYYYMMDD_HHMMSS: 20090406_013239.000
DATE_TIME_FIRST_SAMPLE_PRECISION: seconds
SAMPLING_INTERVAL_S: 0.005000
NDATA: 20000
DURATION_S: 100.000
STREAM: HNN
UNITS: cm
INSTRUMENT: sensor = FBA-3 [Kinemetrics] | digitizer = Etna [Kinemetrics]
INSTRUMENT_ANALOG/DIGITAL: D
INSTRUMENTAL_FREQUENCY_HZ: 212.000
INSTRUMENTAL_DAMPING: 0.700000
FULL_SCALE_G: 1.0
N_BIT_DIGITAL_CONVERTER: 18
PGD_CM: -0.217587
TIME_PGD_S: 35.765000
BASELINE_CORRECTION: BASELINE REMOVED
FILTER_TYPE: BUTTERWORTH
FILTER_ORDER: 2
LOW_CUT_FREQUENCY_HZ: 0.100
HIGH_CUT_FREQUENCY_HZ: 40.000
LATE/NORMAL_TRIGGERED: NT
DATABASE_VERSION: 0.5
HEADER_FORMAT: DYNA 1.2
DATA_TYPE: DISPLACEMENT
PROCESSING: manual (Paolucci et al., 2011)
DATA_TIMESTAMP_YYYYMMDD_HHMMSS: 20211011_160535.010
DATA_LICENSE: CC-BY3_0-IT (http://creativecommons.org/licenses/by/3.0/deed.en)
DATA_CITATION: Luzi L, Pacor F, Puglia R (2019). Italian Accelerometric Archive v 3.0 - Istituto Nazionale di Geofisica e Vulcanologia, Dipartimento della Protezione Civile Nazionale. doi: 10.13127/itaca.3.1
DATA_CREATOR: ITACA working group
ORIGINAL_DATA_MEDIATOR_CITATION: data obtained within the DPC-INGV data exchange agreements
ORIGINAL_DATA_MEDIATOR: Archive of Italian Department of Civil Protection
ORIGINAL_DATA_CREATOR_CITATION: Presidency Of Counsil Of Ministers-Civil Protection Department. (1972). Italian Strong Motion Network. Presidency of Counsil of Ministers - Civil Protection Department. https://doi.org/10.7914/SN/IT http://www.fdsn.org/networks/detail/IT/
ORIGINAL_DATA_CREATOR: network: IT (Italian Strong Motion Network (RAN)); owner: Presidency of Counsil of Ministers - Civil Protection Department (PCM - DPC)
USER1: 
USER2: 
USER3: 
USER4: 
USER5: 
[...]
1.294390e-01
1.263403e-01
1.232347e-01
1.201300e-01
1.170337e-01
1.139521e-01
1.108893e-01
1.078476e-01
1.048280e-01
1.018305e-01
9.885524e-02
9.590295e-02
9.297536e-02
9.007515e-02
8.720616e-02
8.437345e-02
8.158318e-02
7.884222e-02
7.615777e-02
7.353701e-02
7.098667e-02
6.851278e-02
6.612061e-02
6.381470e-02
6.159872e-02
5.947507e-02
5.744463e-02
5.550679e-02
5.365958e-02
5.190003e-02
5.022444e-02
4.862879e-02
4.710902e-02
4.566114e-02
4.428137e-02
4.296611e-02
4.171170e-02
4.051412e-02
3.936892e-02
3.827152e-02
3.721735e-02
3.620186e-02
3.522030e-02
3.426761e-02
3.333814e-02
3.242542e-02
3.152217e-02
3.062044e-02
2.971221e-02
2.879023e-02
2.784903e-02
2.688522e-02
2.589731e-02
2.488552e-02
2.385146e-02
2.279763e-02
2.172727e-02
2.064432e-02
1.955350e-02
1.846019e-02
1.736996e-02
1.628791e-02
1.521832e-02
1.416468e-02
1.313007e-02
1.211770e-02
1.113164e-02
1.017749e-02
9.262734e-03
8.396432e-03
7.588547e-03
6.849160e-03
6.187735e-03
5.612490e-03
5.129922e-03
4.744721e-03
4.459948e-03
4.277232e-03
4.196949e-03
4.218324e-03
4.339225e-03
4.555687e-03
4.861537e-03
5.248381e-03
5.705632e-03
6.220287e-03
6.777004e-03
7.358886e-03
7.948465e-03
8.528181e-03
9.080353e-03
9.587333e-03
1.003221e-02
1.039965e-02
1.067670e-02
1.085332e-02
1.092282e-02
1.088175e-02
1.072976e-02
1.046924e-02
1.010488e-02
9.643198e-03
9.092217e-03
8.461364e-03
7.761471e-03
7.004737e-03
6.204728e-03
5.376278e-03
4.535070e-03
3.696949e-03
2.877404e-03
2.091452e-03
1.353779e-03
6.787451e-04
7.996407e-05
-4.302613e-04
-8.413154e-04
-1.144689e-03
-1.334649e-03
-1.408822e-03
-1.368225e-03
-1.216838e-03
-9.611646e-04
-6.099548e-04
-1.738667e-04
3.348957e-04
9.028720e-04
1.515634e-03
2.158214e-03
2.815762e-03
3.474381e-03
4.121888e-03
4.748223e-03
5.345501e-03
5.908039e-03
6.432374e-03
6.916995e-03
7.361674e-03
7.766696e-03
8.132381e-03
8.459111e-03
8.747642e-03
8.999297e-03
9.215993e-03
9.400271e-03
9.555362e-03
9.685087e-03
9.793500e-03
9.884444e-03
9.961297e-03
1.002696e-02
1.008397e-02
1.013463e-02
1.018093e-02
1.022444e-02
1.026612e-02
1.030624e-02
1.034430e-02
1.037929e-02
1.041032e-02
1.043739e-02
1.046170e-02
1.048564e-02
1.051244e-02
1.054596e-02
1.059033e-02
1.064952e-02
1.072659e-02
1.082292e-02
1.093783e-02
1.106829e-02
1.120868e-02
1.135089e-02
1.148469e-02
1.159869e-02
1.168111e-02
1.172050e-02
1.170600e-02
1.162749e-02
1.147574e-02
1.124239e-02
1.091990e-02
1.050168e-02
9.982568e-03
9.359246e-03
8.630370e-03
7.796459e-03
6.859577e-03
5.822829e-03
4.689861e-03
3.464568e-03
2.151044e-03
7.535322e-04
-7.238134e-04
-2.277108e-03
-3.902794e-03
-5.597718e-03
-7.359125e-03
-9.184406e-03
-1.107071e-02
-1.301465e-02
-1.501197e-02
-1.705725e-02
-1.914355e-02
-2.126251e-02
-2.340470e-02
-2.556017e-02
-2.771884e-02
-2.987079e-02
-3.200656e-02
-3.411746e-02
-3.619590e-02
-3.823576e-02
-4.023232e-02
-4.218172e-02
-4.408052e-02
-4.592580e-02
-4.771535e-02
-4.944771e-02
-5.112250e-02
-5.274075e-02
-5.430526e-02
-5.582065e-02
-5.729298e-02
-5.872933e-02
-6.013715e-02
-6.152374e-02
-6.289553e-02
-6.425764e-02
-6.561350e-02
-6.696480e-02
-6.831159e-02
-6.965254e-02
-7.098513e-02
-7.230598e-02
-7.361107e-02
-7.489615e-02
-7.615713e-02
-7.739051e-02
-7.859403e-02
-7.976720e-02
-8.091138e-02
-8.202955e-02
-8.312623e-02
-8.420714e-02
-8.527832e-02
-8.634545e-02
-8.741326e-02
-8.848522e-02
-8.956361e-02
-9.064944e-02
-9.174208e-02
-9.283905e-02
-9.393679e-02
-9.503158e-02
-9.612009e-02
-9.719942e-02
-9.826685e-02
-9.931966e-02
-1.003551e-01
-1.013703e-01
-1.023625e-01
-1.033294e-01
-1.042691e-01
-1.051802e-01
-1.060618e-01
-1.069130e-01
-1.077320e-01
-1.085164e-01
-1.092627e-01
-1.099666e-01
-1.106233e-01
-1.112276e-01
-1.117740e-01
-1.122573e-01
-1.126721e-01
-1.130137e-01
-1.132769e-01
-1.134567e-01
-1.135476e-01
-1.135436e-01
-1.134390e-01
-1.132285e-01
-1.129070e-01
-1.124688e-01
-1.119078e-01
-1.112177e-01
-1.103930e-01
-1.094288e-01
-1.083215e-01
-1.070681e-01
-1.056668e-01
-1.041168e-01
-1.024186e-01
-1.005746e-01
-9.858836e-02
-9.646454e-02
-9.420900e-02
-9.182895e-02
-8.933281e-02
-8.673017e-02
-8.403160e-02
-8.124844e-02
-7.839237e-02
-7.547510e-02
-7.250826e-02
-6.950341e-02
-6.647205e-02
-6.342586e-02
-6.037700e-02
-5.733817e-02
-5.432223e-02
-5.134155e-02
-4.840735e-02
-4.552952e-02
-4.271676e-02
-3.997665e-02
-3.731555e-02
-3.473825e-02
-3.224758e-02
-2.984412e-02
-2.752634e-02
-2.529106e-02
-2.313408e-02
-2.105073e-02
-1.903610e-02
-1.708525e-02
-1.519313e-02
-1.335454e-02
-1.156422e-02
-9.816997e-03
-8.107959e-03
-6.432280e-03
-4.785218e-03
-3.162440e-03
-1.560265e-03
2.433370e-05
1.593710e-03
3.149634e-03
4.693821e-03
6.228585e-03
7.757071e-03
9.283267e-03
1.081211e-02
1.234926e-02
1.390041e-02
1.547060e-02
1.706344e-02
1.867994e-02
2.031762e-02
2.197089e-02
2.363230e-02
2.529372e-02
2.694644e-02
2.858087e-02
3.018648e-02
3.175219e-02
3.326720e-02
3.472201e-02
3.610921e-02
3.742333e-02
3.866035e-02
3.981740e-02
4.089272e-02
4.188557e-02
4.279606e-02
4.362536e-02
4.437586e-02
4.505112e-02
4.565559e-02
4.619433e-02
4.667277e-02
4.709660e-02
4.747168e-02
4.780389e-02
4.809858e-02
4.836004e-02
4.859145e-02
4.879511e-02
4.897262e-02
4.912489e-02
4.925218e-02
4.935398e-02
4.942855e-02
4.947254e-02
4.948127e-02
4.944971e-02
4.937341e-02
4.924935e-02
4.907628e-02
4.885475e-02
4.858681e-02
4.827573e-02
4.792575e-02
4.754182e-02
4.712980e-02
4.669665e-02
4.625057e-02
4.580077e-02
4.535727e-02
4.493071e-02
4.453209e-02
4.417243e-02
4.386227e-02
4.361134e-02
4.342836e-02
4.332103e-02
4.329576e-02
4.335748e-02
4.350937e-02
4.375291e-02
4.408803e-02
4.451327e-02
4.502580e-02
4.562125e-02
4.629365e-02
4.703586e-02
4.784037e-02
4.870027e-02
4.960928e-02
5.056107e-02
5.154881e-02
5.256498e-02
5.360168e-02
5.465109e-02
5.570600e-02
5.675980e-02
5.780637e-02
5.884023e-02
5.985703e-02
6.085361e-02
6.182755e-02
6.277661e-02
6.369854e-02
6.459061e-02
6.544910e-02
6.626905e-02
6.704452e-02
6.776905e-02
6.843609e-02
6.903936e-02
6.957342e-02
7.003412e-02
7.041905e-02
7.072746e-02
7.095987e-02
7.111757e-02
7.120259e-02
7.121761e-02
7.116577e-02
7.105051e-02
7.087517e-02
7.064271e-02
7.035597e-02
7.001815e-02
6.963316e-02
6.920565e-02
6.874100e-02
6.824528e-02
6.772527e-02
6.718878e-02
6.664467e-02
6.610224e-02
6.557053e-02
6.505761e-02
6.457027e-02
6.411382e-02
6.369185e-02
6.330613e-02
6.295657e-02
6.264122e-02
6.235652e-02
6.209796e-02
6.186097e-02
6.164156e-02
6.143663e-02
6.124411e-02
6.106301e-02
6.089319e-02
6.073504e-02
6.058898e-02
6.045531e-02
6.033422e-02
6.022571e-02
6.012956e-02
6.004564e-02
5.997397e-02
5.991424e-02
5.986481e-02
5.982268e-02
5.978432e-02
5.974663e-02
5.970693e-02
5.966243e-02
5.960999e-02
5.954682e-02
5.947152e-02
5.938450e-02
5.928760e-02
5.918350e-02
5.907495e-02
5.896414e-02
5.885200e-02
5.873774e-02
5.861876e-02
5.849106e-02
5.834969e-02
5.818891e-02
5.800218e-02
5.778234e-02
5.752206e-02
5.721445e-02
5.685327e-02
5.643324e-02
5.595062e-02
5.540324e-02
5.478979e-02
5.410904e-02
5.335996e-02
5.254246e-02
5.165750e-02
5.070653e-02
4.969134e-02
4.861445e-02
4.747954e-02
4.629150e-02
4.505616e-02
4.378020e-02
4.247132e-02
4.113819e-02
3.979023e-02
3.843719e-02
3.708865e-02
3.575392e-02
3.444243e-02
3.316398e-02
3.192801e-02
3.074285e-02
2.961548e-02
2.855148e-02
2.755485e-02
2.662789e-02
2.577137e-02
2.498465e-02
2.426585e-02
2.361201e-02
2.301903e-02
2.248151e-02
2.199272e-02
2.154489e-02
2.112977e-02
2.073939e-02
2.036652e-02
2.000467e-02
1.964808e-02
1.929187e-02
1.893216e-02
1.856601e-02
1.819100e-02
1.780482e-02
1.740522e-02
1.698994e-02
1.655680e-02
1.610347e-02
1.562728e-02
1.512508e-02
1.459363e-02
1.402997e-02
1.343131e-02
1.279442e-02
1.211548e-02
1.139069e-02
1.061678e-02
9.790725e-03
8.909834e-03
7.972711e-03
6.979924e-03
5.933865e-03
4.838294e-03
3.698238e-03
2.520252e-03
1.312256e-03
8.287660e-05
-1.158913e-03
-2.403767e-03
-3.642261e-03
-4.865764e-03
-6.067409e-03
-7.242385e-03
-8.387434e-03
-9.500302e-03
-1.057942e-02
-1.162372e-02
-1.263263e-02
-1.360578e-02
-1.454303e-02
-1.544463e-02
-1.631141e-02
-1.714459e-02
-1.794551e-02
-1.871530e-02
-1.945488e-02
-2.016515e-02
-2.084718e-02
-2.150238e-02
-2.213250e-02
-2.273938e-02
-2.332476e-02
-2.389047e-02
-2.443862e-02
-2.497145e-02
-2.549095e-02
-2.599891e-02
-2.649729e-02
-2.698824e-02
-2.747313e-02
-2.795150e-02
-2.842082e-02
-2.887747e-02
-2.931764e-02
-2.973776e-02
-3.013476e-02
-3.050651e-02
-3.085208e-02
-3.117182e-02
-3.146764e-02
-3.174297e-02
-3.200259e-02
-3.225259e-02
-3.250020e-02
-3.275322e-02
-3.301927e-02
-3.330504e-02
-3.361558e-02
-3.395395e-02
-3.432105e-02
-3.471576e-02
-3.513521e-02
-3.557498e-02
-3.602950e-02
-3.649292e-02
-3.696015e-02
-3.742768e-02
-3.789348e-02
-3.835652e-02
-3.881697e-02
-3.927684e-02
-3.974010e-02
-4.021195e-02
-4.069801e-02
-4.120408e-02
-4.173584e-02
-4.229825e-02
-4.289504e-02
-4.352881e-02
-4.420098e-02
-4.491179e-02
-4.566063e-02
-4.644638e-02
-4.726739e-02
-4.812154e-02
-4.900620e-02
-4.991817e-02
-5.085322e-02
-5.180594e-02
-5.277004e-02
-5.373884e-02
-5.470526e-02
-5.566177e-02
-5.660052e-02
-5.751355e-02
-5.839289e-02
-5.923035e-02
-6.001746e-02
-6.074582e-02
-6.140823e-02
-6.199964e-02
-6.251757e-02
-6.296178e-02
-6.333439e-02
-6.364043e-02
-6.388808e-02
-6.408807e-02
-6.425278e-02
-6.439498e-02
-6.452669e-02
-6.465832e-02
-6.479804e-02
-6.495165e-02
-6.512230e-02
-6.531058e-02
-6.551495e-02
-6.573229e-02
-6.595831e-02
-6.618793e-02
-6.641578e-02
-6.663716e-02
-6.684887e-02
-6.704949e-02
-6.723918e-02
-6.741924e-02
-6.759214e-02
-6.776161e-02
-6.793265e-02
-6.811117e-02
-6.830351e-02
-6.851597e-02
-6.875432e-02
-6.902324e-02
-6.932565e-02
-6.966236e-02
-7.003256e-02
-7.043475e-02
-7.086740e-02
-7.132892e-02
-7.181723e-02
-7.232947e-02
-7.286189e-02
-7.341017e-02
-7.397021e-02
-7.453859e-02
-7.511191e-02
-7.568584e-02
-7.625500e-02
-7.681360e-02
-7.735586e-02
-7.787602e-02
-7.836878e-02
-7.883031e-02
-7.925886e-02
-7.965483e-02
-8.002044e-02
-8.035924e-02
-8.067572e-02
-8.097507e-02
-8.126306e-02
-8.154586e-02
-8.182979e-02
-8.212082e-02
-8.242403e-02
-8.274330e-02
-8.308149e-02
-8.344057e-02
-8.382104e-02
-8.422117e-02
-8.463655e-02
-8.506052e-02
-8.548519e-02
-8.590238e-02
-8.630413e-02
-8.668276e-02
-8.703075e-02
-8.734087e-02
-8.760659e-02
-8.782249e-02
-8.798464e-02
-8.809088e-02
-8.814073e-02
-8.813506e-02
-8.807552e-02
-8.796419e-02
-8.780344e-02
-8.759593e-02
-8.734471e-02
-8.705327e-02
-8.672569e-02
-8.636606e-02
-8.597784e-02
-8.556420e-02
-8.512831e-02
-8.467321e-02
-8.420145e-02
-8.371535e-02
-8.321776e-02
-8.271270e-02
-8.220509e-02
-8.169983e-02
-8.120206e-02
-8.071829e-02
-8.025702e-02
-7.982834e-02
-7.944260e-02
-7.910936e-02
-7.883724e-02
-7.863392e-02
-7.850619e-02
-7.845978e-02
-7.849893e-02
-7.862570e-02
-7.883994e-02
-7.913946e-02
-7.952056e-02
-7.997811e-02
-8.050554e-02
-8.109489e-02
-8.173709e-02
-8.242206e-02
-8.313860e-02
-8.387435e-02
-8.461624e-02
-8.535140e-02
-8.606775e-02
-8.675444e-02
-8.740186e-02
-8.800181e-02
-8.854755e-02
-8.903378e-02
-8.945669e-02
-8.981398e-02
-9.010481e-02
-9.032964e-02
-9.049007e-02
-9.058864e-02
-9.062865e-02
-9.061384e-02
-9.054843e-02
-9.043754e-02
-9.028759e-02
-9.010610e-02
-8.990105e-02
-8.968047e-02
-8.945231e-02
-8.922435e-02
-8.900417e-02
-8.879883e-02
-8.861455e-02
-8.845647e-02
-8.832886e-02
-8.823536e-02
-8.817899e-02
-8.816198e-02
-8.818598e-02
-8.825287e-02
-8.836533e-02
-8.852698e-02
-8.874246e-02
-8.901711e-02
-8.935685e-02
-8.976819e-02
-9.025831e-02
-9.083482e-02
-9.150490e-02
-9.227458e-02
-9.314877e-02
-9.413130e-02
-9.522458e-02
-9.642957e-02
-9.774603e-02
-9.917294e-02
-1.007087e-01
-1.023509e-01
-1.040967e-01
-1.059428e-01
-1.078852e-01
-1.099206e-01
-1.120467e-01
-1.142625e-01
-1.165675e-01
-1.189605e-01
-1.214390e-01
-1.239996e-01
-1.266376e-01
-1.293472e-01
-1.321219e-01
-1.349549e-01
-1.378388e-01
-1.407656e-01
-1.437262e-01
-1.467110e-01
-1.497110e-01
-1.527171e-01
-1.557211e-01
-1.587147e-01
-1.616900e-01
-1.646392e-01
-1.675548e-01
-1.704294e-01
-1.732560e-01
-1.760284e-01
-1.787412e-01
-1.813894e-01
-1.839682e-01
-1.864724e-01
-1.888972e-01
-1.912377e-01
-1.934893e-01
-1.956481e-01
-1.977111e-01
-1.996755e-01
-2.015377e-01
-2.032941e-01
-2.049417e-01
-2.064791e-01
-2.079060e-01
-2.092239e-01
-2.104349e-01
-2.115415e-01
-2.125465e-01
-2.134524e-01
-2.142625e-01
-2.149800e-01
-2.156078e-01
-2.161480e-01
-2.166018e-01
-2.169698e-01
-2.172524e-01
-2.174498e-01
-2.175618e-01
-2.175874e-01
-2.175256e-01
-2.173758e-01
-2.171378e-01
-2.168116e-01
-2.163976e-01
-2.158967e-01
-2.153111e-01
-2.146450e-01
-2.139041e-01
-2.130946e-01
-2.122227e-01
-2.112948e-01
-2.103165e-01
-2.092931e-01
-2.082292e-01
-2.071284e-01
-2.059931e-01
-2.048250e-01
-2.036253e-01
-2.023945e-01
-2.011330e-01
-1.998408e-01
-1.985180e-01
-1.971650e-01
-1.957825e-01
-1.943709e-01
-1.929311e-01
-1.914636e-01
-1.899688e-01
-1.884466e-01
-1.868966e-01
-1.853180e-01
-1.837099e-01
-1.820711e-01
-1.804000e-01
-1.786953e-01
-1.769561e-01
-1.751824e-01
-1.733765e-01
-1.715426e-01
-1.696858e-01
-1.678115e-01
-1.659249e-01
-1.640316e-01
-1.621380e-01
-1.602499e-01
-1.583727e-01
-1.565114e-01
-1.546706e-01
-1.528545e-01
-1.510665e-01
-1.493097e-01
-1.475871e-01
-1.459019e-01
-1.442582e-01
-1.426606e-01
-1.411141e-01
-1.396233e-01
-1.381929e-01
-1.368271e-01
-1.355299e-01
-1.343046e-01
-1.331543e-01
-1.320807e-01
-1.310842e-01
-1.301633e-01
-1.293151e-01
-1.285359e-01
-1.278209e-01
-1.271635e-01
-1.265557e-01
-1.259894e-01
-1.254571e-01
-1.249523e-01
-1.244698e-01
-1.240051e-01
-1.235552e-01
-1.231185e-01
-1.226949e-01
-1.222859e-01
-1.218941e-01
-1.215229e-01
-1.211759e-01
-1.208564e-01
-1.205667e-01
-1.203083e-01
-1.200815e-01
-1.198854e-01
-1.197184e-01
-1.195781e-01
-1.194610e-01
-1.193622e-01
-1.192760e-01
-1.191960e-01
-1.191154e-01
-1.190272e-01
-1.189244e-01
-1.188003e-01
-1.186481e-01
-1.184612e-01
-1.182333e-01
-1.179589e-01
-1.176334e-01
-1.172532e-01
-1.168156e-01
-1.163190e-01
-1.157624e-01
-1.151451e-01
-1.144673e-01
-1.137293e-01
-1.129319e-01
-1.120765e-01
-1.111651e-01
-1.101996e-01
-1.091823e-01
-1.081152e-01
-1.070005e-01
-1.058397e-01
-1.046343e-01
-1.033855e-01
-1.020937e-01
-1.007584e-01
-9.937800e-02
-9.795152e-02
-9.647898e-02
-9.496129e-02
-9.339964e-02
-9.179502e-02
-9.014817e-02
-8.846016e-02
-8.673325e-02
-8.497152e-02
-8.318050e-02
-8.136610e-02
-7.953441e-02
-7.769236e-02
-7.584792e-02
-7.400928e-02
-7.218371e-02
-7.037674e-02
-6.859257e-02
-6.683504e-02
-6.510784e-02
-6.341401e-02
-6.175537e-02
-6.013200e-02
-5.854202e-02
-5.698218e-02
-5.544871e-02
-5.393759e-02
-5.244399e-02
-5.096209e-02
-4.948598e-02
-4.801027e-02
-4.653021e-02
-4.504128e-02
-4.353902e-02
-4.201937e-02
-4.047903e-02
-3.891532e-02
-3.732587e-02
-3.570882e-02
-3.406327e-02
-3.238927e-02
-3.068793e-02
-2.896177e-02
-2.721512e-02
-2.545392e-02
-2.368480e-02
-2.191434e-02
-2.014891e-02
-1.839476e-02
-1.665788e-02
-1.494346e-02
-1.325509e-02
-1.159399e-02
-9.958734e-03
-8.345726e-03
-6.749789e-03
-5.164324e-03
-3.581552e-03
-1.993079e-03
-3.902789e-04
1.235450e-03
2.892381e-03
4.588339e-03
6.330649e-03
8.125901e-03
9.979538e-03
1.189546e-02
1.387605e-02
1.592258e-02
1.803526e-02
2.021302e-02
2.245341e-02
2.475242e-02
2.710449e-02
2.950273e-02
3.193954e-02
3.440696e-02
3.689646e-02
3.939879e-02
4.190439e-02
4.440406e-02
4.688968e-02
4.935466e-02
5.179388e-02
5.420356e-02
5.658157e-02
5.892765e-02
6.124320e-02
6.353052e-02
6.579211e-02
6.803042e-02
7.024815e-02
7.244840e-02
7.463444e-02
7.680930e-02
7.897538e-02
8.113423e-02
8.328669e-02
8.543330e-02
8.757432e-02
8.970967e-02
9.183910e-02
9.396231e-02
9.607876e-02
9.818745e-02
1.002873e-01
1.023774e-01
1.044571e-01
1.065257e-01
1.085818e-01
1.106244e-01
1.126528e-01
1.146670e-01
1.166671e-01
1.186537e-01
1.206275e-01
1.225891e-01
1.245387e-01
1.264763e-01
1.284025e-01
1.303186e-01
1.322259e-01
1.341252e-01
1.360166e-01
1.378995e-01
1.397740e-01
1.416401e-01
1.434978e-01
1.453469e-01
1.471876e-01
1.490208e-01
1.508478e-01
1.526697e-01
1.544871e-01
1.563000e-01
1.581076e-01
1.599083e-01
1.616999e-01
1.634799e-01
1.652455e-01
1.669939e-01
1.687219e-01
1.704255e-01
1.721001e-01
1.737406e-01
1.753418e-01
1.768987e-01
1.784062e-01
1.798596e-01
1.812538e-01
1.825840e-01
1.838461e-01
1.850367e-01
1.861531e-01
1.871934e-01
1.881567e-01
1.890436e-01
1.898552e-01
1.905929e-01
1.912591e-01
1.918570e-01
1.923904e-01
1.928634e-01
1.932803e-01
1.936459e-01
1.939650e-01
1.942431e-01
1.944858e-01
1.946995e-01
1.948908e-01
1.950664e-01
1.952329e-01
1.953963e-01
1.955615e-01
1.957331e-01
1.959151e-01
1.961107e-01
1.963221e-01
1.965503e-01
1.967953e-01
1.970569e-01
1.973347e-01
1.976275e-01
1.979334e-01
1.982507e-01
1.985776e-01
1.989128e-01
1.992553e-01
1.996043e-01
1.999588e-01
2.003184e-01
2.006826e-01
2.010509e-01
2.014231e-01
2.017981e-01
2.021745e-01
2.025506e-01
2.029244e-01
2.032937e-01
2.036564e-01
2.040103e-01
2.043534e-01
2.046835e-01
2.049976e-01
2.052922e-01
2.055633e-01
2.058063e-01
2.060165e-01
2.061886e-01
2.063173e-01
2.063974e-01
2.064238e-01
2.063919e-01
2.062970e-01
2.061342e-01
2.058994e-01
2.055890e-01
2.052000e-01
2.047301e-01
2.041772e-01
2.035396e-01
2.028159e-01
2.020051e-01
2.011059e-01
2.001175e-01
1.990395e-01
1.978718e-01
1.966149e-01
1.952695e-01
1.938370e-01
1.923185e-01
1.907155e-01
1.890295e-01
1.872628e-01
1.854179e-01
1.834979e-01
1.815055e-01
1.794433e-01
1.773143e-01
1.751222e-01
1.728716e-01
1.705674e-01
1.682149e-01
1.658196e-01
1.633878e-01
1.609262e-01
1.584418e-01
1.559421e-01
1.534348e-01
1.509274e-01
1.484272e-01
1.459407e-01
1.434744e-01
1.410349e-01
1.386284e-01
1.362610e-01
1.339386e-01
1.316671e-01
1.294520e-01
1.272987e-01
1.252123e-01
1.231978e-01
1.212597e-01
1.194027e-01
1.176311e-01
1.159492e-01
1.143607e-01
1.128682e-01
