EVENT_NAME: L_AQUILA
EVENT_ID: IT-2009-0009
EVENT_DATE_YYYYMMDD: 20090406
EVENT_TIME_HHMMSS: 013240
EVENT_LATITUDE_DEGREE: 42.3420
EVENT_LONGITUDE_DEGREE: 13.3800
EVENT_DEPTH_KM: 8.3
HYPOCENTER_REFERENCE: INGV-CNT_Seismic_Bulletin
MAGNITUDE_W: 6.1
MAGNITUDE_W_REFERENCE: INGV-CNT_Seismic_Bulletin
MAGNITUDE_L: 
MAGNITUDE_L_REFERENCE: 
FOCAL_MECHANISM: Normal faulting
NETWORK: IT
STATION_CODE: SPC
STATION_NAME: 
STATION_LATITUDE_DEGREE: 42.743469
STATION_LONGITUDE_DEGREE: 12.739693
STATION_ELEVATION_M: 134
LOCATION: 
SENSOR_DEPTH_M: 0.0
VS30_M/S: 
SITE_CLASSIFICATION_EC8: C (inferred from geology)
MORPHOLOGIC_CLASSIFICATION: 
EPICENTRAL_DISTANCE_KM: 69.0
EARTHQUAKE_BACKAZIMUTH_DEGREE: 310.5
DATE_TIME_FIRST_SAMPLE_YYYYMMDD_HHMMSS: 20090406_013239.000
DATE_TIME_FIRST_SAMPLE_PRECISION: seconds
SAMPLING_INTERVAL_S: 0.005000
NDATA: 20000
DURATION_S: 100.000
STREAM: HNZ
UNITS: cm
INSTRUMENT: sensor = FBA-3 [Kinemetrics] | digitizer = Etna [Kinemetrics]
INSTRUMENT_ANALOG/DIGITAL: D
INSTRUMENTAL_FREQUENCY_HZ: 222.000
INSTRUMENTAL_DAMPING: 0.700000
FULL_SCALE_G: 1.0
N_BIT_DIGITAL_CONVERTER: 18
PGD_CM: -0.260653
TIME_PGD_S: 30.010000
BASELINE_CORRECTION: BASELINE REMOVED
FILTER_TYPE: BUTTERWORTH
FILTER_ORDER: 2
LOW_CUT_FREQUENCY_HZ: 0.100
HIGH_CUT_FREQUENCY_HZ: 40.000
LATE/NORMAL_TRIGGERED: NT
DATABASE_VERSION: 0.5
HEADER_FORMAT: DYNA 1.2
DATA_TYPE: DISPLACEMENT
PROCESSING: manual (Paolucci et al., 2011)
DATA_TIMESTAMP_YYYYMMDD_HHMMSS: 20211011_160535.542
DATA_LICENSE: CC-BY3_0-IT (http://creativecommons.org/licenses/by/3.0/deed.en)
DATA_CITATION: Luzi L, Pacor F, Puglia R (2019). Italian Accelerometric Archive v 3.0 - Istituto Nazionale di Geofisica e Vulcanologia, Dipartimento della Protezione Civile Nazionale. doi: 10.13127/itaca.3.1
DATA_CREATOR: ITACA working group
ORIGINAL_DATA_MEDIATOR_CITATION: data obtained within the DPC-INGV data exchange agreements
ORIGINAL_DATA_MEDIATOR: Archive of Italian Department of Civil Protection
ORIGINAL_DATA_CREATOR_CITATION: Presidency Of Counsil Of Ministers-Civil Protection Department. (1972). Italian Strong Motion Network. Presidency of Counsil of Ministers - Civil Protection Department. https://doi.org/10.7914/SN/IT http://www.fdsn.org/networks/detail/IT/
ORIGINAL_DATA_CREATOR: network: IT (Italian Strong Motion Network (RAN)); owner: Presidency of Counsil of Ministers - Civil Protection Department (PCM - DPC)
USER1: 
USER2: 
USER3: 
USER4: 
USER5: 
[...]
-6.333058e-02
-6.287705e-02
-6.237964e-02
-6.184284e-02
-6.127128e-02
-6.066992e-02
-6.004441e-02
-5.940099e-02
-5.874605e-02
-5.808543e-02
-5.742425e-02
-5.676722e-02
-5.611877e-02
-5.548248e-02
-5.486056e-02
-5.425386e-02
-5.366230e-02
-5.308548e-02
-5.252330e-02
-5.197628e-02
-5.144553e-02
-5.093259e-02
-5.043934e-02
-4.996765e-02
-4.951871e-02
-4.909224e-02
-4.868654e-02
-4.829937e-02
-4.792928e-02
-4.757601e-02
-4.723998e-02
-4.692129e-02
-4.661925e-02
-4.633232e-02
-4.605866e-02
-4.579693e-02
-4.554652e-02
-4.530654e-02
-4.507440e-02
-4.484559e-02
-4.461452e-02
-4.437537e-02
-4.412278e-02
-4.385245e-02
-4.356177e-02
-4.324985e-02
-4.291720e-02
-4.256511e-02
-4.219450e-02
-4.180513e-02
-4.139594e-02
-4.096638e-02
-4.051828e-02
-4.005701e-02
-3.959105e-02
-3.913018e-02
-3.868365e-02
-3.825909e-02
-3.786168e-02
-3.749398e-02
-3.715652e-02
-3.684858e-02
-3.656882e-02
-3.631523e-02
-3.608470e-02
-3.587272e-02
-3.567325e-02
-3.547875e-02
-3.528105e-02
-3.507295e-02
-3.484973e-02
-3.460983e-02
-3.435476e-02
-3.408840e-02
-3.381609e-02
-3.354394e-02
-3.327852e-02
-3.302642e-02
-3.279362e-02
-3.258455e-02
-3.240132e-02
-3.224376e-02
-3.211023e-02
-3.199855e-02
-3.190650e-02
-3.183110e-02
-3.176719e-02
-3.170602e-02
-3.163532e-02
-3.154106e-02
-3.141035e-02
-3.123440e-02
-3.100971e-02
-3.073676e-02
-3.041738e-02
-3.005282e-02
-2.964373e-02
-2.919130e-02
-2.869882e-02
-2.817263e-02
-2.762141e-02
-2.705419e-02
-2.647807e-02
-2.589712e-02
-2.531299e-02
-2.472663e-02
-2.413999e-02
-2.355650e-02
-2.298030e-02
-2.241462e-02
-2.186059e-02
-2.131679e-02
-2.077973e-02
-2.024524e-02
-1.971044e-02
-1.917535e-02
-1.864274e-02
-1.811650e-02
-1.759968e-02
-1.709343e-02
-1.659708e-02
-1.610902e-02
-1.562784e-02
-1.515319e-02
-1.468614e-02
-1.422872e-02
-1.378259e-02
-1.334749e-02
-1.292022e-02
-1.249512e-02
-1.206576e-02
-1.162671e-02
-1.117405e-02
-1.070461e-02
-1.021462e-02
-9.698802e-03
-9.150698e-03
-8.564499e-03
-7.937051e-03
-7.268457e-03
-6.560962e-03
-5.817363e-03
-5.040443e-03
-4.233760e-03
-3.402929e-03
-2.556255e-03
-1.704062e-03
-8.568570e-04
-2.297148e-05
7.932766e-04
1.591614e-03
2.374010e-03
3.142892e-03
3.900707e-03
4.650401e-03
5.395804e-03
6.141363e-03
6.891347e-03
7.648921e-03
8.415454e-03
9.190314e-03
9.971251e-03
1.075527e-02
1.153951e-02
1.232137e-02
1.309791e-02
1.386542e-02
1.461933e-02
1.535446e-02
1.606540e-02
1.674741e-02
1.739744e-02
1.801491e-02
1.860168e-02
1.916101e-02
1.969637e-02
2.021120e-02
2.070912e-02
2.119350e-02
2.166641e-02
2.212845e-02
2.257995e-02
2.302206e-02
2.345687e-02
2.388712e-02
2.431594e-02
2.474657e-02
2.518223e-02
2.562624e-02
2.608265e-02
2.655724e-02
2.705799e-02
2.759490e-02
2.817866e-02
2.881853e-02
2.952019e-02
3.028389e-02
3.110360e-02
3.196744e-02
3.285949e-02
3.376264e-02
3.466076e-02
3.553923e-02
3.638427e-02
3.718243e-02
3.792085e-02
3.858821e-02
3.917596e-02
3.967974e-02
4.010016e-02
4.044212e-02
4.071329e-02
4.092242e-02
4.107831e-02
4.118976e-02
4.126638e-02
4.131998e-02
4.136511e-02
4.141812e-02
4.149502e-02
4.160900e-02
4.176858e-02
4.197709e-02
4.223348e-02
4.253388e-02
4.287285e-02
4.324384e-02
4.363915e-02
4.405022e-02
4.446867e-02
4.488730e-02
4.530056e-02
4.570483e-02
4.609858e-02
4.648256e-02
4.685964e-02
4.723434e-02
4.761218e-02
4.799908e-02
4.840082e-02
4.882291e-02
4.927044e-02
4.974797e-02
5.025924e-02
5.080684e-02
5.139139e-02
5.201072e-02
5.266035e-02
5.333527e-02
5.403177e-02
5.474822e-02
5.548448e-02
5.624097e-02
5.701803e-02
5.781592e-02
5.863469e-02
5.947401e-02
6.033291e-02
6.120950e-02
6.210086e-02
6.300316e-02
6.391211e-02
6.482373e-02
6.573552e-02
6.664762e-02
6.756281e-02
6.848496e-02
6.941689e-02
7.035936e-02
7.131130e-02
7.227026e-02
7.323216e-02
7.419075e-02
7.513763e-02
7.606331e-02
7.695908e-02
7.781907e-02
7.864123e-02
7.942711e-02
8.018065e-02
8.090686e-02
8.161057e-02
8.229582e-02
8.296624e-02
8.362599e-02
8.428003e-02
8.493345e-02
8.559043e-02
8.625359e-02
8.692440e-02
8.760393e-02
8.829340e-02
8.899401e-02
8.970643e-02
9.043020e-02
9.116344e-02
9.190289e-02
9.264427e-02
9.338274e-02
9.411326e-02
9.483111e-02
9.553221e-02
9.621339e-02
9.687302e-02
9.751177e-02
9.813282e-02
9.874075e-02
9.934001e-02
9.993386e-02
1.005247e-01
1.011151e-01
1.017083e-01
1.023081e-01
1.029183e-01
1.035417e-01
1.041804e-01
1.048361e-01
1.055106e-01
1.062057e-01
1.069230e-01
1.076636e-01
1.084281e-01
1.092167e-01
1.100301e-01
1.108709e-01
1.117442e-01
1.126561e-01
1.136133e-01
1.146206e-01
1.156808e-01
1.167942e-01
1.179591e-01
1.191721e-01
1.204278e-01
1.217195e-01
1.230388e-01
1.243764e-01
1.257227e-01
1.270679e-01
1.284026e-01
1.297175e-01
1.310034e-01
1.322524e-01
1.334596e-01
1.346235e-01
1.357469e-01
1.368354e-01
1.378955e-01
1.389325e-01
1.399492e-01
1.409454e-01
1.419193e-01
1.428694e-01
1.437957e-01
1.447011e-01
1.455902e-01
1.464677e-01
1.473367e-01
1.481978e-01
1.490494e-01
1.498885e-01
1.507124e-01
1.515205e-01
1.523136e-01
1.530945e-01
1.538671e-01
1.546363e-01
1.554075e-01
1.561861e-01
1.569766e-01
1.577828e-01
1.586077e-01
1.594533e-01
1.603193e-01
1.612040e-01
1.621059e-01
1.630236e-01
1.639544e-01
1.648947e-01
1.658410e-01
1.667904e-01
1.677390e-01
1.686822e-01
1.696137e-01
1.705268e-01
1.714151e-01
1.722734e-01
1.730981e-01
1.738859e-01
1.746343e-01
1.753404e-01
1.760019e-01
1.766179e-01
1.771891e-01
1.777180e-01
1.782085e-01
1.786654e-01
1.790922e-01
1.794908e-01
1.798617e-01
1.802043e-01
1.805173e-01
1.807995e-01
1.810497e-01
1.812657e-01
1.814449e-01
1.815843e-01
1.816827e-01
1.817405e-01
1.817599e-01
1.817441e-01
1.816975e-01
1.816250e-01
1.815312e-01
1.814215e-01
1.813020e-01
1.811796e-01
1.810610e-01
1.809520e-01
1.808568e-01
1.807777e-01
1.807148e-01
1.806658e-01
1.806262e-01
1.805910e-01
1.805554e-01
1.805149e-01
1.804647e-01
1.803997e-01
1.803152e-01
1.802079e-01
1.800765e-01
1.799214e-01
1.797424e-01
1.795381e-01
1.793046e-01
1.790368e-01
1.787291e-01
1.783779e-01
1.779817e-01
1.775421e-01
1.770636e-01
1.765529e-01
1.760181e-01
1.754671e-01
1.749075e-01
1.743452e-01
1.737853e-01
1.732309e-01
1.726835e-01
1.721421e-01
1.716042e-01
1.710649e-01
1.705180e-01
1.699572e-01
1.693767e-01
1.687721e-01
1.681400e-01
1.674783e-01
1.667871e-01
1.660679e-01
1.653227e-01
1.645525e-01
1.637568e-01
1.629333e-01
1.620794e-01
1.611926e-01
1.602719e-01
1.593185e-01
1.583361e-01
1.573300e-01
1.563067e-01
1.552741e-01
1.542415e-01
1.532185e-01
1.522145e-01
1.512375e-01
1.502944e-01
1.493905e-01
1.485292e-01
1.477118e-01
1.469367e-01
1.461993e-01
1.454930e-01
1.448097e-01
1.441403e-01
1.434754e-01
1.428056e-01
1.421229e-01
1.414218e-01
1.406988e-01
1.399528e-01
1.391846e-01
1.383962e-01
1.375904e-01
1.367695e-01
1.359352e-01
1.350883e-01
1.342290e-01
1.333574e-01
1.324740e-01
1.315809e-01
1.306816e-01
1.297818e-01
1.288890e-01
1.280109e-01
1.271544e-01
1.263234e-01
1.255194e-01
1.247417e-01
1.239878e-01
1.232538e-01
1.225348e-01
1.218251e-01
1.211190e-01
1.204107e-01
1.196946e-01
1.189661e-01
1.182219e-01
1.174602e-01
1.166805e-01
1.158831e-01
1.150691e-01
1.142417e-01
1.134067e-01
1.125718e-01
1.117463e-01
1.109391e-01
1.101579e-01
1.094087e-01
1.086956e-01
1.080200e-01
1.073809e-01
1.067744e-01
1.061945e-01
1.056322e-01
1.050774e-01
1.045189e-01
1.039466e-01
1.033520e-01
1.027288e-01
1.020731e-01
1.013830e-01
1.006580e-01
9.989818e-02
9.910416e-02
9.827668e-02
9.741623e-02
9.652326e-02
9.559894e-02
9.464556e-02
9.366601e-02
9.266258e-02
9.163600e-02
9.058481e-02
8.950543e-02
8.839310e-02
8.724300e-02
8.605134e-02
8.481595e-02
8.353673e-02
8.221578e-02
8.085732e-02
7.946763e-02
7.805521e-02
7.663100e-02
7.520769e-02
7.379809e-02
7.241307e-02
7.105999e-02
6.974207e-02
6.845869e-02
6.720646e-02
6.598041e-02
6.477437e-02
6.358022e-02
6.238734e-02
6.118351e-02
5.995661e-02
5.869612e-02
5.739446e-02
5.604752e-02
5.465396e-02
5.321326e-02
5.172432e-02
5.018555e-02
4.859611e-02
4.695719e-02
4.527252e-02
4.354830e-02
4.179246e-02
4.001352e-02
3.821922e-02
3.641558e-02
3.460645e-02
3.279327e-02
3.097506e-02
2.914935e-02
2.731342e-02
2.546527e-02
2.360380e-02
2.172836e-02
1.983854e-02
1.793456e-02
1.601751e-02
1.408942e-02
1.215348e-02
1.021428e-02
8.277788e-03
6.350927e-03
4.440844e-03
2.554310e-03
6.974349e-04
-1.124060e-03
-2.904205e-03
-4.636496e-03
-6.314535e-03
-7.933569e-03
-9.492441e-03
-1.099513e-02
-1.245083e-02
-1.387228e-02
-1.527320e-02
-1.666648e-02
-1.806320e-02
-1.947231e-02
-2.090063e-02
-2.235286e-02
-2.383150e-02
-2.533679e-02
-2.686690e-02
-2.841833e-02
-2.998624e-02
-3.156466e-02
-3.314679e-02
-3.472558e-02
-3.629489e-02
-3.785035e-02
-3.938960e-02
-4.091190e-02
-4.241755e-02
-4.390694e-02
-4.537970e-02
-4.683450e-02
-4.826980e-02
-4.968438e-02
-5.107754e-02
-5.244886e-02
-5.379777e-02
-5.512312e-02
-5.642269e-02
-5.769324e-02
-5.893143e-02
-6.013518e-02
-6.130471e-02
-6.244296e-02
-6.355518e-02
-6.464768e-02
-6.572643e-02
-6.679625e-02
-6.786069e-02
-6.892234e-02
-6.998309e-02
-7.104411e-02
-7.210563e-02
-7.316709e-02
-7.422721e-02
-7.528389e-02
-7.633371e-02
-7.737158e-02
-7.839095e-02
-7.938473e-02
-8.034643e-02
-8.127085e-02
-8.215419e-02
-8.299388e-02
-8.378878e-02
-8.453940e-02
-8.524831e-02
-8.592016e-02
-8.656112e-02
-8.717741e-02
-8.777385e-02
-8.835349e-02
-8.891821e-02
-8.946984e-02
-9.001087e-02
-9.054442e-02
-9.107359e-02
-9.160035e-02
-9.212478e-02
-9.264529e-02
-9.315970e-02
-9.366601e-02
-9.416276e-02
-9.464894e-02
-9.512364e-02
-9.558595e-02
-9.603495e-02
-9.646987e-02
-9.689032e-02
-9.729667e-02
-9.769026e-02
-9.807321e-02
-9.844775e-02
-9.881556e-02
-9.917749e-02
-9.953386e-02
-9.988514e-02
-1.002327e-01
-1.005792e-01
-1.009284e-01
-1.012855e-01
-1.016563e-01
-1.020466e-01
-1.024619e-01
-1.029068e-01
-1.033848e-01
-1.038971e-01
-1.044427e-01
-1.050191e-01
-1.056226e-01
-1.062501e-01
-1.068989e-01
-1.075662e-01
-1.082491e-01
-1.089443e-01
-1.096494e-01
-1.103619e-01
-1.110794e-01
-1.118005e-01
-1.125253e-01
-1.132552e-01
-1.139931e-01
-1.147424e-01
-1.155074e-01
-1.162927e-01
-1.171034e-01
-1.179437e-01
-1.188176e-01
-1.197285e-01
-1.206795e-01
-1.216737e-01
-1.227127e-01
-1.237967e-01
-1.249238e-01
-1.260907e-01
-1.272926e-01
-1.285235e-01
-1.297766e-01
-1.310452e-01
-1.323226e-01
-1.336024e-01
-1.348785e-01
-1.361457e-01
-1.373996e-01
-1.386376e-01
-1.398594e-01
-1.410669e-01
-1.422638e-01
-1.434540e-01
-1.446412e-01
-1.458284e-01
-1.470179e-01
-1.482106e-01
-1.494060e-01
-1.506015e-01
-1.517927e-01
-1.529734e-01
-1.541348e-01
-1.552666e-01
-1.563578e-01
-1.573984e-01
-1.583810e-01
-1.593017e-01
-1.601609e-01
-1.609626e-01
-1.617140e-01
-1.624237e-01
-1.631021e-01
-1.637602e-01
-1.644094e-01
-1.650609e-01
-1.657244e-01
-1.664071e-01
-1.671133e-01
-1.678445e-01
-1.686002e-01
-1.693788e-01
-1.701789e-01
-1.709998e-01
-1.718415e-01
-1.727037e-01
-1.735853e-01
-1.744840e-01
-1.753961e-01
-1.763166e-01
-1.772400e-01
-1.781608e-01
-1.790733e-01
-1.799715e-01
-1.808487e-01
-1.816990e-01
-1.825185e-01
-1.833065e-01
-1.840649e-01
-1.847978e-01
-1.855102e-01
-1.862062e-01
-1.868886e-01
-1.875585e-01
-1.882158e-01
-1.888603e-01
-1.894924e-01
-1.901127e-01
-1.907220e-01
-1.913204e-01
-1.919075e-01
-1.924832e-01
-1.930482e-01
-1.936048e-01
-1.941562e-01
-1.947064e-01
-1.952594e-01
-1.958192e-01
-1.963885e-01
-1.969691e-01
-1.975618e-01
-1.981666e-01
-1.987822e-01
-1.994063e-01
-2.000362e-01
-2.006692e-01
-2.013038e-01
-2.019389e-01
-2.025741e-01
-2.032089e-01
-2.038432e-01
-2.044774e-01
-2.051128e-01
-2.057507e-01
-2.063931e-01
-2.070420e-01
-2.076991e-01
-2.083651e-01
-2.090401e-01
-2.097240e-01
-2.104168e-01
-2.111191e-01
-2.118314e-01
-2.125554e-01
-2.132932e-01
-2.140473e-01
-2.148201e-01
-2.156145e-01
-2.164337e-01
-2.172814e-01
-2.181616e-01
-2.190785e-01
-2.200359e-01
-2.210366e-01
-2.220816e-01
-2.231707e-01
-2.243029e-01
-2.254769e-01
-2.266907e-01
-2.279404e-01
-2.292207e-01
-2.305249e-01
-2.318445e-01
-2.331706e-01
-2.344948e-01
-2.358103e-01
-2.371115e-01
-2.383939e-01
-2.396528e-01
-2.408845e-01
-2.420858e-01
-2.432548e-01
-2.443907e-01
-2.454930e-01
-2.465610e-01
-2.475935e-01
-2.485894e-01
-2.495471e-01
-2.504650e-01
-2.513407e-01
-2.521719e-01
-2.529550e-01
-2.536861e-01
-2.543615e-01
-2.549796e-01
-2.555406e-01
-2.560471e-01
-2.565039e-01
-2.569174e-01
-2.572948e-01
-2.576440e-01
-2.579721e-01
-2.582856e-01
-2.585896e-01
-2.588873e-01
-2.591798e-01
-2.594654e-01
-2.597398e-01
-2.599952e-01
-2.602220e-01
-2.604098e-01
-2.605489e-01
-2.606317e-01
-2.606534e-01
-2.606119e-01
-2.605080e-01
-2.603422e-01
-2.601160e-01
-2.598333e-01
-2.595002e-01
-2.591208e-01
-2.586972e-01
-2.582323e-01
-2.577311e-01
-2.571973e-01
-2.566322e-01
-2.560353e-01
-2.554050e-01
-2.547387e-01
-2.540328e-01
-2.532834e-01
-2.524859e-01
-2.516366e-01
-2.507333e-01
-2.497742e-01
-2.487574e-01
-2.476811e-01
-2.465439e-01
-2.453454e-01
-2.440864e-01
-2.427675e-01
-2.413891e-01
-2.399510e-01
-2.384536e-01
-2.368962e-01
-2.352782e-01
-2.335980e-01
-2.318537e-01
-2.300427e-01
-2.281623e-01
-2.262112e-01
-2.241902e-01
-2.221028e-01
-2.199536e-01
-2.177480e-01
-2.154904e-01
-2.131848e-01
-2.108344e-01
-2.084426e-01
-2.060139e-01
-2.035533e-01
-2.010665e-01
-1.985584e-01
-1.960328e-01
-1.934921e-01
-1.909371e-01
-1.883674e-01
-1.857824e-01
-1.831823e-01
-1.805682e-01
-1.779415e-01
-1.753031e-01
-1.726530e-01
-1.699903e-01
-1.673128e-01
-1.646185e-01
-1.619062e-01
-1.591761e-01
-1.564301e-01
-1.536715e-01
-1.509041e-01
-1.481312e-01
-1.453540e-01
-1.425719e-01
-1.397824e-01
-1.369821e-01
-1.341676e-01
-1.313353e-01
-1.284826e-01
-1.256075e-01
-1.227082e-01
-1.197840e-01
-1.168357e-01
-1.138663e-01
-1.108816e-01
-1.078896e-01
-1.049003e-01
-1.019244e-01
-9.897274e-02
-9.605560e-02
-9.318142e-02
-9.035624e-02
-8.758357e-02
-8.486473e-02
-8.219912e-02
-7.958429e-02
-7.701582e-02
-7.448735e-02
-7.199159e-02
-6.952171e-02
-6.707254e-02
-6.464056e-02
-6.222313e-02
-5.981854e-02
-5.742722e-02
-5.505304e-02
-5.270273e-02
-5.038372e-02
-4.810298e-02
-4.586747e-02
-4.368473e-02
-4.156199e-02
-3.950492e-02
-3.751727e-02
-3.560144e-02
-3.375884e-02
-3.199002e-02
-3.029485e-02
-2.867294e-02
-2.712388e-02
-2.564718e-02
-2.424202e-02
-2.290693e-02
-2.163986e-02
-2.043872e-02
-1.930146e-02
-1.822606e-02
-1.721101e-02
-1.625597e-02
-1.536146e-02
-1.452790e-02
-1.375510e-02
-1.304171e-02
-1.238450e-02
-1.177834e-02
-1.121624e-02
-1.068893e-02
-1.018482e-02
-9.691163e-03
-9.195864e-03
-8.689120e-03
-8.163765e-03
-7.614765e-03
-7.038902e-03
-6.434782e-03
-5.802865e-03
-5.145559e-03
-4.467117e-03
-3.773144e-03
-3.069913e-03
-2.363653e-03
-1.659817e-03
-9.622224e-04
-2.724494e-04
4.098064e-04
1.085820e-03
1.756895e-03
2.423509e-03
3.085037e-03
3.740211e-03
4.387989e-03
5.028377e-03
5.662281e-03
6.290211e-03
6.911044e-03
7.521631e-03
8.117099e-03
8.691817e-03
9.240766e-03
9.760549e-03
1.024986e-02
1.070945e-02
1.114124e-02
1.154759e-02
1.193134e-02
1.229628e-02
1.264726e-02
1.299018e-02
1.333160e-02
1.367770e-02
1.403315e-02
1.440063e-02
1.478166e-02
1.517737e-02
1.558853e-02
1.601510e-02
1.645601e-02
1.690882e-02
1.737001e-02
1.783571e-02
1.830240e-02
1.876715e-02
1.922801e-02
1.968435e-02
2.013617e-02
2.058307e-02
2.102391e-02
2.145702e-02
2.188060e-02
2.229283e-02
2.269166e-02
2.307495e-02
2.344076e-02
2.378721e-02
2.411204e-02
2.441284e-02
2.468773e-02
2.493582e-02
2.515729e-02
2.535340e-02
2.552646e-02
2.567970e-02
2.581729e-02
2.594422e-02
2.606630e-02
2.618999e-02
2.632196e-02
2.646839e-02
2.663466e-02
2.682529e-02
2.704382e-02
2.729282e-02
2.757414e-02
2.788874e-02
2.823651e-02
2.861658e-02
2.902746e-02
2.946689e-02
2.993152e-02
3.041691e-02
3.091794e-02
3.142934e-02
3.194572e-02
3.246203e-02
3.297427e-02
3.347999e-02
3.397820e-02
3.446932e-02
3.495484e-02
3.543680e-02
3.591739e-02
3.639869e-02
3.688259e-02
3.737063e-02
3.786411e-02
3.836429e-02
3.887257e-02
3.939073e-02
3.992086e-02
4.046549e-02
4.102783e-02
4.161170e-02
4.222095e-02
4.285893e-02
4.352828e-02
4.423089e-02
4.496768e-02
4.573833e-02
4.654152e-02
4.737530e-02
4.823771e-02
4.912739e-02
5.004356e-02
5.098581e-02
5.195364e-02
5.294609e-02
5.396186e-02
5.499981e-02
5.605920e-02
5.713940e-02
5.823977e-02
5.935976e-02
6.049910e-02
6.165797e-02
6.283685e-02
6.403568e-02
6.525334e-02
6.648782e-02
6.773687e-02
6.899854e-02
7.027167e-02
7.155586e-02
7.285148e-02
7.415949e-02
7.548109e-02
7.681726e-02
7.816829e-02
7.953342e-02
8.091072e-02
8.229729e-02
8.368979e-02
8.508495e-02
8.647953e-02
8.787005e-02
8.925282e-02
9.062445e-02
9.198210e-02
9.332370e-02
9.464823e-02
9.595581e-02
9.724732e-02
9.852443e-02
9.978959e-02
1.010461e-01
1.022975e-01
1.035480e-01
1.048018e-01
1.060635e-01
1.073378e-01
1.086288e-01
1.099389e-01
1.112695e-01
1.126201e-01
1.139889e-01
1.153729e-01
1.167680e-01
1.181697e-01
1.195741e-01
1.209780e-01
1.223799e-01
1.237800e-01
1.251799e-01
1.265831e-01
1.279941e-01
1.294189e-01
1.308634e-01
1.323332e-01
1.338323e-01
1.353637e-01
1.369291e-01
1.385301e-01
1.401670e-01
1.418385e-01
1.435406e-01
1.452685e-01
1.470176e-01
1.487822e-01
1.505544e-01
1.523253e-01
1.540865e-01
1.558312e-01
1.575536e-01
1.592493e-01
1.609144e-01
1.625465e-01
1.641447e-01
1.657097e-01
1.672424e-01
1.687446e-01
1.702181e-01
1.716643e-01
1.730838e-01
1.744753e-01
1.758357e-01
1.771606e-01
1.784441e-01
1.796794e-01
1.808585e-01
1.819749e-01
1.830239e-01
1.840019e-01
1.849047e-01
1.857280e-01
1.864680e-01
1.871225e-01
1.876901e-01
1.881698e-01
1.885625e-01
1.888712e-01
1.891003e-01
1.892552e-01
1.893422e-01
1.893690e-01
1.893439e-01
1.892752e-01
1.891708e-01
1.890378e-01
1.888823e-01
1.887094e-01
1.885230e-01
1.883264e-01
1.881233e-01
1.879170e-01
1.877105e-01
1.875071e-01
1.873097e-01
1.871208e-01
1.869438e-01
1.867829e-01
1.866420e-01
1.865240e-01
1.864302e-01
1.863609e-01
1.863151e-01
1.862906e-01
1.862846e-01
1.862940e-01
1.863151e-01
