EVENT_NAME: L_AQUILA
EVENT_ID: IT-2009-0009
EVENT_DATE_YYYYMMDD: 20090406
EVENT_TIME_HHMMSS: 013240
EVENT_LATITUDE_DEGREE: 42.3420
EVENT_LONGITUDE_DEGREE: 13.3800
EVENT_DEPTH_KM: 8.3
HYPOCENTER_REFERENCE: INGV-CNT_Seismic_Bulletin
MAGNITUDE_W: 6.1
MAGNITUDE_W_REFERENCE: INGV-CNT_Seismic_Bulletin
MAGNITUDE_L: 
MAGNITUDE_L_REFERENCE: 
FOCAL_MECHANISM: Normal faulting
NETWORK: IT
STATION_CODE: SPC
STATION_NAME: 
STATION_LATITUDE_DEGREE: 42.743469
STATION_LONGITUDE_DEGREE: 12.739693
STATION_ELEVATION_M: 134
LOCATION: 
SENSOR_DEPTH_M: 0.0
VS30_M/S: 
SITE_CLASSIFICATION_EC8: C (inferred from geology)
MORPHOLOGIC_CLASSIFICATION: 
EPICENTRAL_DISTANCE_KM: 69.0
EARTHQUAKE_BACKAZIMUTH_DEGREE: 310.5
DATE_TIME_FIRST_SAMPLE_YYYYMMDD_HHMMSS: 20090406_013239.000
DATE_TIME_FIRST_SAMPLE_PRECISION: seconds
SAMPLING_INTERVAL_S: 0.005000
NDATA: 20000
DURATION_S: 100.000
STREAM: HNZ
UNITS: cm/s^2
INSTRUMENT: sensor = FBA-3 [Kinemetrics] | digitizer = Etna [Kinemetrics]
INSTRUMENT_ANALOG/DIGITAL: D
INSTRUMENTAL_FREQUENCY_HZ: 222.000
INSTRUMENTAL_DAMPING: 0.700000
FULL_SCALE_G: 1.0
N_BIT_DIGITAL_CONVERTER: 18
PGA_CM/S^2: -3.514667
TIME_PGA_S: 31.825000
BASELINE_CORRECTION: BASELINE REMOVED
FILTER_TYPE: BUTTERWORTH
FILTER_ORDER: 2
LOW_CUT_FREQUENCY_HZ: 0.100
HIGH_CUT_FREQUENCY_HZ: 40.000
LATE/NORMAL_TRIGGERED: NT
DATABASE_VERSION: 0.5
HEADER_FORMAT: DYNA 1.2
DATA_TYPE: ACCELERATION
PROCESSING: manual (Paolucci et al., 2011)
DATA_TIMESTAMP_YYYYMMDD_HHMMSS: 20211011_160535.413
DATA_LICENSE: CC-BY3_0-IT (http://creativecommons.org/licenses/by/3.0/deed.en)
DATA_CITATION: Luzi L, Pacor F, Puglia R (2019). Italian Accelerometric Archive v 3.0 - Istituto Nazionale di Geofisica e Vulcanologia, Dipartimento della Protezione Civile Nazionale. doi: 10.13127/itaca.3.1
DATA_CREATOR: ITACA working group
ORIGINAL_DATA_MEDIATOR_CITATION: data obtained within the DPC-INGV data exchange agreements
ORIGINAL_DATA_MEDIATOR: Archive of Italian Department of Civil Protection
ORIGINAL_DATA_CREATOR_CITATION: Presidency Of Counsil Of Ministers-Civil Protection Department. (1972). Italian Strong Motion Network. Presidency of Counsil of Ministers - Civil Protection Department. https://doi.org/10.7914/SN/IT http://www.fdsn.org/networks/detail/IT/
ORIGINAL_DATA_CREATOR: network: IT (Italian Strong Motion Network (RAN)); owner: Presidency of Counsil of Ministers - Civil Protection Department (PCM - DPC)
USER1: 
USER2: 
USER3: 
USER4: 
USER5: 
[...]
1.465412
1.180285
0.817607
0.379306
-0.136204
-0.717283
-1.320268
-1.872825
-2.291946
-2.499382
-2.453217
-2.182447
-1.772034
-1.302770
-0.807149
-0.276302
0.300106
0.894561
1.425754
1.791522
1.939313
1.900349
1.755127
1.575547
1.390352
1.191845
0.966488
0.716051
0.460840
0.227086
0.022716
-0.166199
-0.343275
-0.486337
-0.574726
-0.608931
-0.605427
-0.589631
-0.585804
-0.606435
-0.650589
-0.712378
-0.787423
-0.862849
-0.909705
-0.899051
-0.830306
-0.741749
-0.682933
-0.672960
-0.689163
-0.694179
-0.665792
-0.604223
-0.530714
-0.477480
-0.453007
-0.416797
-0.313815
-0.133159
0.090781
0.322562
0.538141
0.709381
0.813765
0.849812
0.829148
0.777908
0.740670
0.749950
0.793150
0.814693
0.741875
0.526723
0.187377
-0.203352
-0.574029
-0.878401
-1.085910
-1.188808
-1.209269
-1.181095
-1.127050
-1.046611
-0.922602
-0.742126
-0.500055
-0.198965
0.128129
0.415896
0.604674
0.667089
0.606919
0.451759
0.238190
-0.006838
-0.268880
-0.532997
-0.772094
-0.948937
-1.033821
-1.026902
-0.960672
-0.874595
-0.784724
-0.666366
-0.459366
-0.109555
0.380992
0.942397
1.458018
1.809938
1.949368
1.930045
1.857758
1.806818
1.781283
1.733726
1.601813
1.348877
1.000749
0.640033
0.356130
0.193134
0.127287
0.088763
0.011582
-0.126096
-0.291326
-0.421165
-0.465722
-0.409325
-0.269790
-0.102257
0.011869
0.011618
-0.098951
-0.254673
-0.377208
-0.422679
-0.395715
-0.331962
-0.274930
-0.261171
-0.304416
-0.384732
-0.451843
-0.441249
-0.313023
-0.086777
0.169957
0.388143
0.544304
0.670887
0.822022
1.033483
1.291262
1.523774
1.649999
1.645820
1.556041
1.444139
1.332862
1.190515
0.965909
0.633744
0.220734
-0.199489
-0.532798
-0.705496
-0.716445
-0.637630
-0.540542
-0.442735
-0.324808
-0.171638
0.006215
0.177044
0.303584
0.358317
0.333147
0.243032
0.123333
0.008865
-0.095473
-0.212499
-0.361379
-0.543670
-0.751541
-0.967383
-1.157302
-1.279273
-1.302481
-1.228054
-1.097317
-0.958617
-0.821807
-0.676018
-0.541352
-0.459298
-0.434574
-0.421502
-0.375928
-0.291847
-0.182160
-0.057607
0.072630
0.201414
0.333590
0.496358
0.726823
1.046691
1.446349
1.873800
2.244854
2.471252
2.481545
2.240612
1.765023
1.128620
0.443596
-0.200899
-0.785759
-1.337481
-1.875496
-2.389124
-2.842653
-3.184486
-3.358446
-3.334756
-3.138007
-2.831855
-2.481802
-2.129188
-1.777899
-1.392908
-0.921028
-0.338752
0.315326
0.955513
1.483178
1.823874
1.957114
1.915565
1.760060
1.542936
1.281170
0.972212
0.630570
0.295556
0.006898
-0.214654
-0.359995
-0.420449
-0.390726
-0.276195
-0.095295
0.125969
0.361976
0.593921
0.813658
1.017913
1.199839
1.349864
1.453074
1.477648
1.391636
1.211930
1.011307
0.863644
0.797532
0.792739
0.808958
0.823084
0.832937
0.835388
0.821998
0.783119
0.707703
0.590627
0.437824
0.265881
0.106453
0.007173
0.012441
0.123575
0.278182
0.391440
0.421381
0.378925
0.281000
0.117490
-0.132642
-0.468187
-0.848105
-1.196163
-1.431749
-1.512589
-1.451335
-1.293789
-1.093354
-0.899761
-0.738451
-0.592850
-0.427121
-0.228669
-0.024272
0.142089
0.247323
0.305680
0.349156
0.397484
0.445754
0.472106
0.454096
0.378994
0.248189
0.077294
-0.116428
-0.317772
-0.507123
-0.670000
-0.796489
-0.862315
-0.834923
-0.708351
-0.524343
-0.347380
-0.215831
-0.119631
-0.019589
0.112192
0.267123
0.413632
0.527825
0.610459
0.680940
0.753378
0.824760
0.886914
0.932402
0.954517
0.962405
0.994171
1.098789
1.294691
1.550378
1.806376
2.006060
2.115039
2.129280
2.061766
1.920973
1.709977
1.435659
1.106943
0.735169
0.343635
-0.042191
-0.418429
-0.794454
-1.160440
-1.473601
-1.676311
-1.727793
-1.621796
-1.396443
-1.133762
-0.922809
-0.816300
-0.818623
-0.889522
-0.956492
-0.948397
-0.836381
-0.651879
-0.465188
-0.341321
-0.313971
-0.381112
-0.500464
-0.603415
-0.638103
-0.595471
-0.489607
-0.332727
-0.136627
0.080803
0.295320
0.479836
0.625839
0.747055
0.826047
0.819060
0.749174
0.685701
0.629198
0.527092
0.380557
0.241774
0.119358
-0.027025
-0.221599
-0.464359
-0.736270
-0.992909
-1.197490
-1.349209
-1.469258
-1.580629
-1.691519
-1.782238
-1.821550
-1.792749
-1.692276
-1.530913
-1.349646
-1.203863
-1.124473
-1.108499
-1.135679
-1.181281
-1.229404
-1.284712
-1.364844
-1.476018
-1.587078
-1.643009
-1.621212
-1.539057
-1.407257
-1.231301
-1.038350
-0.847598
-0.639405
-0.391224
-0.116151
0.152342
0.383407
0.553100
0.645347
0.647075
0.551739
0.379573
0.177020
-0.016977
-0.197942
-0.386383
-0.590733
-0.781660
-0.911873
-0.960469
-0.954074
-0.952210
-1.013936
-1.164418
-1.377222
-1.590044
-1.743634
-1.799386
-1.736180
-1.556658
-1.287175
-0.967037
-0.642121
-0.349508
-0.103391
0.091872
0.223318
0.275989
0.246073
0.134777
-0.055057
-0.301785
-0.559114
-0.784378
-0.965294
-1.102892
-1.181304
-1.181735
-1.118513
-1.039949
-0.998580
-1.023168
-1.107196
-1.219247
-1.317456
-1.356379
-1.304331
-1.161226
-0.949423
-0.686727
-0.371809
-0.003746
0.388218
0.758488
1.082175
1.353712
1.566251
1.707235
1.755938
1.689920
1.509388
1.242889
0.920951
0.559362
0.175154
-0.196377
-0.511605
-0.740382
-0.874358
-0.919605
-0.889286
-0.805036
-0.698766
-0.602818
-0.536255
-0.503696
-0.496706
-0.493537
-0.467079
-0.391775
-0.246645
-0.020229
0.276235
0.593540
0.859875
1.023699
1.079101
1.049283
0.952731
0.797896
0.598650
0.374574
0.141951
-0.089336
-0.309578
-0.497690
-0.628565
-0.697310
-0.720623
-0.711844
-0.660342
-0.534471
-0.308618
0.009052
0.373802
0.729906
1.040053
1.283964
1.441828
1.500097
1.456860
1.309804
1.057692
0.710661
0.294637
-0.144412
-0.553107
-0.893189
-1.144107
-1.299523
-1.374245
-1.398005
-1.392432
-1.367652
-1.338348
-1.319041
-1.300867
-1.253839
-1.162037
-1.047349
-0.954862
-0.926082
-0.984735
-1.127046
-1.318492
-1.510546
-1.662580
-1.748791
-1.753497
-1.669361
-1.500048
-1.249566
-0.909000
-0.471637
0.036274
0.548169
0.983014
1.277816
1.406320
1.381758
1.245999
1.046998
0.800396
0.475736
0.050879
-0.438081
-0.923084
-1.343107
-1.647256
-1.810644
-1.865141
-1.885638
-1.929708
-1.993214
-2.026322
-1.979617
-1.829895
-1.582255
-1.264560
-0.923796
-0.614498
-0.373914
-0.219100
-0.162581
-0.200964
-0.299816
-0.408929
-0.488779
-0.532583
-0.559101
-0.575142
-0.566540
-0.522742
-0.441304
-0.314245
-0.130583
0.108715
0.385087
0.671093
0.941997
1.186312
1.415215
1.654031
1.914112
2.170112
2.360208
2.406430
2.247535
1.879225
1.370217
0.820931
0.305945
-0.137772
-0.495724
-0.768047
-0.956682
-1.056417
-1.065612
-0.993151
-0.852923
-0.658749
-0.420670
-0.148354
0.133267
0.379713
0.553646
0.648462
0.678089
0.666167
0.650061
0.665647
0.717757
0.780577
0.828593
0.856527
0.874090
0.896236
0.942259
1.031263
1.160927
1.294107
1.377624
1.369035
1.251063
1.041308
0.788961
0.549656
0.357207
0.215423
0.111639
0.035626
-0.010497
-0.020287
0.002988
0.053210
0.137567
0.274494
0.477939
0.739791
1.023709
1.283476
1.490974
1.643540
1.745548
1.791965
1.770663
1.668933
1.482260
1.235351
0.987116
0.793916
0.671984
0.596638
0.523975
0.423762
0.298937
0.175815
0.095974
0.093296
0.156601
0.244341
0.323924
0.382039
0.423277
0.459169
0.495411
0.532086
0.563604
0.578738
0.564066
0.510406
0.425691
0.336251
0.269169
0.235142
0.222489
0.203345
0.148844
0.044009
-0.111788
-0.313548
-0.546078
-0.782115
-0.999816
-1.186391
-1.319814
-1.372397
-1.335772
-1.227792
-1.087583
-0.958052
-0.851367
-0.743696
-0.617870
-0.495787
-0.396205
-0.297409
-0.198132
-0.141867
-0.148448
-0.207897
-0.315479
-0.459071
-0.625709
-0.815021
-1.012183
-1.189438
-1.340241
-1.477725
-1.609004
-1.723783
-1.795224
-1.796985
-1.725765
-1.592212
-1.400513
-1.158533
-0.890536
-0.619139
-0.351469
-0.093805
0.144714
0.358754
0.531782
0.634726
0.648226
0.570912
0.427121
0.265099
0.120447
0.000036
-0.090552
-0.131399
-0.103910
-0.004465
0.168481
0.424809
0.769097
1.184570
1.624144
2.022737
2.321410
2.474617
2.461452
2.297130
2.017740
1.660974
1.255404
0.815066
0.353922
-0.094168
-0.480203
-0.765933
-0.938379
-1.002187
-0.980276
-0.916952
-0.858953
-0.832656
-0.830605
-0.820714
-0.776071
-0.683041
-0.534478
-0.338374
-0.118073
0.105974
0.331929
0.575267
0.837082
1.075618
1.229942
1.264235
1.182243
1.018071
0.823738
0.653766
0.544596
0.501602
0.502241
0.510273
0.498887
0.468783
0.441674
0.436671
0.450913
0.458002
0.425660
0.339023
0.206824
0.048147
-0.116748
-0.266217
-0.381151
-0.453127
-0.485516
-0.480945
-0.432783
-0.341079
-0.228969
-0.129135
-0.060431
-0.022312
-0.001086
0.015198
0.020263
0.000770
-0.042668
-0.103440
-0.179639
-0.261664
-0.325969
-0.356253
-0.359809
-0.355521
-0.358592
-0.374789
-0.406776
-0.464480
-0.551257
-0.650720
-0.750765
-0.861817
-0.993868
-1.141185
-1.299378
-1.466233
-1.621225
-1.730478
-1.774014
-1.761974
-1.724454
-1.674379
-1.588018
-1.438910
-1.225942
-0.952054
-0.618528
-0.257393
0.075270
0.347803
0.568117
0.758719
0.933574
1.091108
1.216207
1.292624
1.324541
1.341907
1.373102
1.418278
1.466813
1.524055
1.597126
1.682447
1.785131
1.921092
2.082408
2.223166
2.297077
2.283422
2.177368
1.988027
1.734906
1.440052
1.132351
0.840867
0.584786
0.381244
0.250419
0.209577
0.272559
0.453190
0.754471
1.145960
1.563890
1.944833
2.249556
2.449595
2.522015
2.501422
2.471009
2.420367
2.257047
2.017777
1.850820
1.770531
1.647860
1.453830
1.303004
1.254204
1.271080
1.335055
1.443693
1.579718
1.742878
1.922994
2.069672
2.161598
2.233107
2.307741
2.379524
2.435116
2.451344
2.423903
2.392452
2.383775
2.381579
2.379413
2.393651
2.428784
2.483948
2.565805
2.670018
2.772528
2.829857
2.794989
2.660474
2.465867
2.259996
2.075989
1.924158
1.791645
1.652457
1.481016
1.271402
1.049971
0.852695
0.699635
0.603590
0.571923
0.587916
0.611755
0.604546
0.558461
0.503409
0.470008
0.468267
0.506809
0.586312
0.674022
0.722499
0.709535
0.635724
0.506067
0.349394
0.222385
0.168728
0.198613
0.296046
0.430039
0.573230
0.706661
0.815476
0.899748
0.965441
0.997150
0.964759
0.842159
0.614039
0.288232
-0.105233
-0.534361
-0.971511
-1.380595
-1.718752
-1.959492
-2.100855
-2.153189
-2.128861
-2.031586
-1.853859
-1.600479
-1.308301
-1.035237
-0.828175
-0.687651
-0.582406
-0.512922
-0.531181
-0.685939
-0.954268
-1.252348
-1.530381
-1.809577
-2.110597
-2.400104
-2.626737
-2.777020
-2.872531
-2.929366
-2.950794
-2.946305
-2.930657
-2.913497
-2.894663
-2.861970
-2.802204
-2.720977
-2.637187
-2.555554
-2.474121
-2.413814
-2.400574
-2.421319
-2.437891
-2.430078
-2.376707
-2.247567
-2.041497
-1.762485
-1.391629
-0.928263
-0.417674
0.065476
0.457771
0.744461
0.945798
1.074538
1.130276
1.111854
1.015578
0.845431
0.621280
0.370279
0.121152
-0.096953
-0.249630
-0.312879
-0.300690
-0.249704
-0.197510
-0.178448
-0.203457
-0.254143
-0.295883
-0.295556
-0.259347
-0.239015
-0.283854
-0.409836
-0.604752
-0.829981
-1.030784
-1.166644
-1.218736
-1.189267
-1.111496
-1.017794
-0.903970
-0.752736
-0.558126
-0.322107
-0.060451
0.187501
0.373640
0.481603
0.541792
0.587291
0.617655
0.616978
0.573055
0.476472
0.334881
0.180378
0.039773
-0.077649
-0.155491
-0.181073
-0.180668
-0.196516
-0.242855
-0.309075
-0.380932
-0.454320
-0.535793
-0.621790
-0.699061
-0.774379
-0.864873
-0.961387
-1.036150
-1.072008
-1.064911
-1.014229
-0.922168
-0.792447
-0.626414
-0.426181
-0.194260
0.064668
0.331213
0.578186
0.793542
0.974805
1.115561
1.218974
1.293116
1.330709
1.326998
1.292128
1.232218
1.141878
1.008516
0.829788
0.625981
0.414573
0.199414
-0.003033
-0.162364
-0.261276
-0.300178
-0.283782
-0.223862
-0.142127
-0.055398
0.028960
0.103771
0.165331
0.217941
0.267919
0.324174
0.394878
0.479208
0.579774
0.708210
0.861314
1.015300
1.149016
1.254990
1.330518
1.366691
1.355058
1.301264
1.223288
1.145887
1.090126
1.059882
1.043459
1.022931
0.984759
0.932848
0.887241
0.857461
0.832639
0.806752
0.784932
0.773738
0.781327
0.800141
0.798228
0.753050
0.673115
0.582333
0.505389
0.457993
0.442462
0.457051
0.495832
0.543714
0.582664
0.594412
0.563881
0.486700
0.371005
0.237308
0.106109
-0.022808
-0.162694
-0.309990
-0.445611
-0.559041
-0.642304
-0.682357
-0.678579
-0.642157
-0.576644
-0.477382
-0.348026
-0.200027
-0.039987
0.132232
0.318039
0.504684
0.663436
0.770439
0.816056
0.800680
0.728418
0.605503
0.444801
0.268019
0.103941
-0.018843
-0.080089
-0.073381
-0.003909
0.125801
0.316402
0.550549
0.791535
1.006454
1.175400
1.290235
1.363390
1.418381
1.441836
1.380160
1.223586
1.034168
0.848186
0.618996
0.304510
-0.053334
-0.385032
-0.663249
-0.888773
-1.071190
-1.220896
-1.322653
-1.354146
-1.331724
-1.286046
-1.223947
-1.150178
-1.087842
-1.068777
-1.119857
-1.244004
-1.422980
-1.651153
-1.933428
-2.242097
-2.511146
-2.697389
-2.838913
-3.004307
-3.187043
-3.328006
-3.416642
-3.480974
-3.514667
-3.479304
-3.360686
-3.183936
-2.969977
-2.712906
-2.408760
-2.076450
-1.743534
-1.428982
-1.143684
-0.897105
-0.698688
-0.542862
-0.402501
-0.262396
-0.130555
-0.004188
0.123079
0.237855
0.343547
0.474596
0.641343
0.803159
0.914222
0.969436
0.980442
0.940453
0.850463
0.737596
0.617514
0.470156
0.262720
-0.019148
-0.359674
-0.723158
-1.075605
-1.391992
-1.646526
-1.825704
-1.955610
-2.076560
-2.193127
-2.279678
-2.313741
-2.292000
-2.228045
-2.138932
-2.057617
-2.029390
-2.050802
-2.073422
-2.082874
-2.099523
-2.117489
-2.110452
-2.080689
-2.049146
-2.011051
-1.941811
-1.828390
-1.670880
-1.474675
-1.246113
-0.987851
-0.713254
-0.451481
-0.217467
-0.000031
0.215428
0.436452
0.668508
0.910387
1.145313
1.348973
1.509402
1.626202
1.698326
1.726872
1.719289
1.684520
1.617860
1.501391
1.332975
1.128398
0.896763
0.637741
0.356990
0.077793
-0.165012
-0.341816
-0.444346
-0.490241
-0.498722
-0.469202
-0.400142
-0.309490
-0.213827
-0.109010
0.000390
0.079812
0.102609
0.080871
0.040380
-0.005994
-0.056598
-0.118741
-0.204323
-0.318119
-0.456963
-0.611699
-0.758876
-0.865745
-0.917734
-0.928745
-0.911661
-0.852490
-0.729439
-0.538317
-0.284431
0.018337
0.331433
0.611017
0.832327
0.974676
1.027072
1.011236
0.960490
0.890903
0.798880
0.677421
0.544014
0.446743
0.427596
0.475910
0.547907
0.636539
0.766362
0.931519
1.102073
1.267351
1.432616
1.599695
1.754846
1.859819
1.880706
1.824470
1.721206
1.593521
1.458899
1.331322
1.211599
1.092063
0.969311
0.849990
0.752262
0.699541
0.703961
0.762276
0.873604
1.037622
1.220509
1.367894
1.478990
1.603808
1.745765
1.848754
1.890234
1.897276
1.871531
1.789187
1.652809
1.465194
1.204577
0.882524
0.563637
0.295157
0.072651
-0.118746
-0.279968
-0.407616
-0.499322
-0.554847
-0.572406
-0.548755
-0.489153
-0.401910
-0.277858
-0.098650
0.122404
0.341304
0.533918
0.710567
0.879315
1.005545
1.035378
0.978622
0.904843
0.849436
0.791678
0.707158
0.591856
0.449966
0.295986
0.158249
0.046983
-0.050673
-0.131989
-0.191937
-0.257978
-0.361821
-0.502106
-0.648814
-0.764606
-0.823044
-0.818532
-0.763322
-0.677680
-0.587077
-0.517011
-0.481060
-0.482346
-0.520301
-0.587738
-0.673890
-0.763824
-0.827781
-0.843460
-0.832152
-0.842199
-0.897013
-0.974088
-1.043193
-1.109924
-1.199432
-1.322813
-1.474389
-1.634726
-1.785627
-1.934010
-2.091069
-2.235669
-2.334998
-2.384449
-2.402781
-2.407351
-2.396697
-2.348758
-2.249031
-2.104606
-1.921115
-1.701121
-1.462658
-1.229449
-1.011380
-0.811222
-0.636835
-0.490688
-0.374730
-0.310980
-0.308376
-0.331109
-0.350806
-0.388253
-0.482234
-0.654347
-0.889733
-1.138071
-1.364224
-1.588637
-1.842494
-2.105908
-2.335018
-2.521646
-2.676536
-2.781579
-2.799941
-2.718163
-2.549698
-2.307465
-2.004509
-1.660785
-1.294432
-0.937257
-0.622299
-0.342840
-0.080849
0.155427
0.354310
0.513953
0.626837
0.680048
0.679238
0.662873
0.668193
0.682072
0.669671
0.653898
0.697068
0.799430
0.897412
0.960142
1.002025
1.016635
0.975559
0.862484
0.670576
0.407737
0.105397
-0.204757
-0.510713
-0.809476
-1.081221
-1.292852
-1.433286
-1.509156
-1.517107
-1.461323
-1.370902
-1.278745
-1.193292
-1.079275
-0.885302
-0.607059
-0.287609
0.035936
0.337791
0.588259
0.790058
0.981239
1.171306
1.328387
1.424311
1.469846
1.500824
1.527833
1.540213
1.539454
1.537438
1.557356
1.619990
1.713037
1.808720
1.905580
2.028828
2.192050
2.373276
2.536629
2.665526
2.768592
2.856882
2.925267
2.974375
3.022316
3.062319
3.055965
2.989474
2.885946
2.762628
2.618661
2.462005
2.316222
2.191788
2.070165
1.925242
1.758592
1.591732
1.413100
1.191694
0.941011
0.705109
0.505150
0.329069
0.165410
0.033852
-0.039726
-0.052169
-0.011362
0.083888
0.254021
0.518880
0.862727
1.239253
1.616448
1.988255
2.332055
2.605672
2.800567
2.944664
3.042245
3.058203
2.974021
2.815404
2.617898
2.405538
2.190041
1.949051
1.634233
1.249308
0.883409
0.624603
0.473442
0.358945
0.241791
0.172276
0.181579
0.204367
0.189979
0.175189
0.205423
0.259834
0.268473
0.186849
0.047750
-0.088029
-0.218503
-0.365044
-0.490469
-0.558537
-0.607314
-0.671295
-0.713280
-0.688416
-0.606590
-0.499127
-0.371282
-0.221277
-0.075194
0.023860
0.056567
0.057644
0.090148
0.173351
0.243000
0.225045
0.161371
0.163274
0.240289
0.310862
0.348142
0.403792
0.515156
0.647325
0.740251
0.785633
0.825912
0.888660
0.950000
0.980147
0.997718
1.040513
1.098596
1.116201
1.070112
0.997252
0.919731
0.809210
0.649506
0.474457
0.331068
0.233813
0.152284
0.046453
-0.080291
-0.181200
-0.230232
-0.266789
-0.340156
-0.437185
-0.514237
-0.563037
-0.606326
-0.659771
-0.730861
-0.829207
-0.944530
-1.048224
-1.144833
-1.265129
-1.385739
-1.434566
-1.384836
-1.279580
-1.160654
-1.009039
-0.794490
-0.548733
-0.326061
-0.149945
-0.029812
0.023399
0.005594
-0.066937
-0.180773
-0.365185
-0.636858
-0.925483
-1.148050
-1.321538
-1.513245
-1.719772
-1.886527
-2.011214
-2.140052
-2.296839
-2.478929
-2.674567
-2.849523
-2.970613
-3.036149
-3.042988
-2.981564
-2.877279
-2.764762
-2.639902
-2.486113
-2.318791
-2.165325
-2.013980
-1.824999
-1.584491
-1.327558
-1.117324
-0.966604
-0.804172
-0.593067
-0.412437
-0.336871
-0.316828
-0.277547
-0.248116
-0.285343
-0.376178
-0.484160
-0.593566
-0.686339
-0.736698
-0.740734
-0.719820
-0.695512
-0.686236
-0.695987
-0.694643
-0.660659
-0.616019
-0.572494
-0.513447
-0.449908
-0.415309
-0.421959
-0.461911
-0.520686
-0.599293
-0.707747
