EVENT_NAME: L_AQUILA
EVENT_ID: IT-2009-0009
EVENT_DATE_YYYYMMDD: 20090406
EVENT_TIME_HHMMSS: 013240
EVENT_LATITUDE_DEGREE: 42.3420
EVENT_LONGITUDE_DEGREE: 13.3800
EVENT_DEPTH_KM: 8.3
HYPOCENTER_REFERENCE: INGV-CNT_Seismic_Bulletin
MAGNITUDE_W: 6.1
MAGNITUDE_W_REFERENCE: INGV-CNT_Seismic_Bulletin
MAGNITUDE_L: 
MAGNITUDE_L_REFERENCE: 
FOCAL_MECHANISM: Normal faulting
NETWORK: IT
STATION_CODE: SPC
STATION_NAME: 
STATION_LATITUDE_DEGREE: 42.743469
STATION_LONGITUDE_DEGREE: 12.739693
STATION_ELEVATION_M: 134
LOCATION: 
SENSOR_DEPTH_M: 0.0
VS30_M/S: 
SITE_CLASSIFICATION_EC8: C (inferred from geology)
MORPHOLOGIC_CLASSIFICATION: 
EPICENTRAL_DISTANCE_KM: 69.0
EARTHQUAKE_BACKAZIMUTH_DEGREE: 310.5
DATE_TIME_FIRST_SAMPLE_YYYYMMDD_HHMMSS: 20090406_013239.000
DATE_TIME_FIRST_SAMPLE_PRECISION: seconds
SAMPLING_INTERVAL_S: 0.005000
NDATA: 20000
DURATION_S: 100.000
STREAM: HNN
UNITS: cm/s
INSTRUMENT: sensor = FBA-3 [Kinemetrics] | digitizer = Etna [Kinemetrics]
INSTRUMENT_ANALOG/DIGITAL: D
INSTRUMENTAL_FREQUENCY_HZ: 212.000
INSTRUMENTAL_DAMPING: 0.700000
FULL_SCALE_G: 1.0
N_BIT_DIGITAL_CONVERTER: 18
PGV_CM/S: -0.621134
TIME_PGV_S: 31.235000
BASELINE_CORRECTION: BASELINE REMOVED
FILTER_TYPE: BUTTERWORTH
FILTER_ORDER: 2
LOW_CUT_FREQUENCY_HZ: 0.100
HIGH_CUT_FREQUENCY_HZ: 40.000
LATE/NORMAL_TRIGGERED: NT
DATABASE_VERSION: 0.5
HEADER_FORMAT: DYNA 1.2
DATA_TYPE: VELOCITY
PROCESSING: manual (Paolucci et al., 2011)
DATA_TIMESTAMP_YYYYMMDD_HHMMSS: 20211011_160535.155
DATA_LICENSE: CC-BY3_0-IT (http://creativecommons.org/licenses/by/3.0/deed.en)
DATA_CITATION: Luzi L, Pacor F, Puglia R (2019). Italian Accelerometric Archive v 3.0 - Istituto Nazionale di Geofisica e Vulcanologia, Dipartimento della Protezione Civile Nazionale. doi: 10.13127/itaca.3.1
DATA_CREATOR: ITACA working group
ORIGINAL_DATA_MEDIATOR_CITATION: data obtained within the DPC-INGV data exchange agreements
ORIGINAL_DATA_MEDIATOR: Archive of Italian Department of Civil Protection
ORIGINAL_DATA_CREATOR_CITATION: Presidency Of Counsil Of Ministers-Civil Protection Department. (1972). Italian Strong Motion Network. Presidency of Counsil of Ministers - Civil Protection Department. https://doi.org/10.7914/SN/IT http://www.fdsn.org/networks/detail/IT/
ORIGINAL_DATA_CREATOR: network: IT (Italian Strong Motion Network (RAN)); owner: Presidency of Counsil of Ministers - Civil Protection Department (PCM - DPC)
USER1: 
USER2: 
USER3: 
USER4: 
USER5: 
[...]
0.057033
0.046365
0.036632
0.027916
0.020168
0.013318
0.007364
0.002428
-0.001204
-0.003100
-0.002789
0.000085
0.005654
0.013801
0.024202
0.036416
0.049975
0.064405
0.079176
0.093642
0.107028
0.118513
0.127373
0.133096
0.135438
0.134458
0.130534
0.124315
0.116586
0.108068
0.099269
0.090453
0.081728
0.073143
0.064717
0.056398
0.048053
0.039551
0.030879
0.022221
0.013943
0.006513
0.000406
-0.003948
-0.006219
-0.006226
-0.003967
0.000391
0.006564
0.014195
0.022846
0.031974
0.040933
0.049024
0.055579
0.060083
0.062271
0.062171
0.060060
0.056391
0.051708
0.046540
0.041284
0.036147
0.031191
0.026414
0.021838
0.017555
0.013687
0.010302
0.007378
0.004828
0.002527
0.000323
-0.001966
-0.004557
-0.007676
-0.011499
-0.016081
-0.021305
-0.026883
-0.032436
-0.037559
-0.041837
-0.044820
-0.046048
-0.045136
-0.041888
-0.036381
-0.028966
-0.020200
-0.010683
-0.000904
0.008825
0.018269
0.027137
0.035045
0.041574
0.046388
0.049343
0.050494
0.050030
0.048214
0.045350
0.041755
0.037716
0.033446
0.029084
0.024712
0.020381
0.016104
0.011882
0.007718
0.003640
-0.000230
-0.003576
-0.005879
-0.006521
-0.004952
-0.000819
0.005974
0.015260
0.026639
0.039537
0.053276
0.067117
0.080324
0.092284
0.102588
0.111016
0.117445
0.121781
0.123940
0.123857
0.121532
0.117105
0.110896
0.103351
0.094925
0.085998
0.076910
0.068048
0.059909
0.053088
0.048206
0.045795
0.046175
0.049368
0.055078
0.062736
0.071641
0.081097
0.090482
0.099252
0.106918
0.113056
0.117403
0.119926
0.120782
0.120187
0.118307
0.115183
0.110699
0.104649
0.096878
0.087349
0.076134
0.063406
0.049457
0.034690
0.019525
0.004350
-0.010419
-0.024241
-0.036448
-0.046331
-0.053279
-0.056943
-0.057322
-0.054719
-0.049642
-0.042705
-0.034549
-0.025821
-0.017223
-0.009544
-0.003637
-0.000282
-0.000033
-0.003135
-0.009543
-0.018987
-0.031025
-0.045076
-0.060492
-0.076627
-0.092895
-0.108842
-0.124169
-0.138685
-0.152218
-0.164591
-0.175657
-0.185314
-0.193444
-0.199845
-0.204223
-0.206252
-0.205664
-0.202348
-0.196369
-0.187907
-0.177216
-0.164674
-0.150846
-0.136454
-0.122242
-0.108877
-0.096923
-0.086858
-0.079055
-0.073751
-0.071046
-0.070910
-0.073175
-0.077553
-0.083699
-0.091272
-0.099963
-0.109483
-0.119541
-0.129848
-0.140099
-0.149944
-0.159012
-0.166998
-0.173687
-0.178956
-0.182812
-0.185441
-0.187111
-0.188013
-0.188096
-0.187032
-0.184332
-0.179578
-0.172598
-0.163486
-0.152528
-0.140099
-0.126595
-0.112421
-0.097990
-0.083740
-0.070140
-0.057666
-0.046741
-0.037692
-0.030745
-0.026059
-0.023780
-0.024108
-0.027292
-0.033524
-0.042788
-0.054797
-0.069061
-0.085014
-0.102113
-0.119850
-0.137640
-0.154706
-0.170127
-0.183029
-0.192783
-0.199100
-0.202043
-0.202006
-0.199687
-0.195991
-0.191815
-0.187805
-0.184192
-0.180807
-0.177249
-0.173118
-0.168205
-0.162608
-0.156747
-0.151250
-0.146785
-0.143878
-0.142845
-0.143827
-0.146880
-0.151993
-0.159021
-0.167598
-0.177103
-0.186756
-0.195817
-0.203779
-0.210417
-0.215682
-0.219551
-0.221955
-0.222808
-0.222034
-0.219565
-0.215387
-0.209599
-0.202401
-0.194030
-0.184742
-0.174797
-0.164384
-0.153535
-0.142161
-0.130189
-0.117674
-0.104823
-0.091924
-0.079269
-0.067122
-0.055736
-0.045381
-0.036356
-0.028917
-0.023151
-0.018845
-0.015472
-0.012346
-0.008868
-0.004691
0.000228
0.005700
0.011407
0.016973
0.022009
0.026167
0.029217
0.031101
0.032015
0.032454
0.033109
0.034633
0.037457
0.041751
0.047487
0.054514
0.062622
0.071603
0.081272
0.091442
0.101889
0.112383
0.122754
0.132952
0.143049
0.153222
0.163691
0.174601
0.185882
0.197122
0.207541
0.216104
0.221779
0.223842
0.222044
0.216547
0.207728
0.196033
0.181926
0.165937
0.148704
0.130936
0.113292
0.096242
0.080005
0.064594
0.049933
0.035926
0.022412
0.009121
-0.004300
-0.018160
-0.032582
-0.047403
-0.062179
-0.076274
-0.088951
-0.099438
-0.107050
-0.111366
-0.112349
-0.110357
-0.106042
-0.100205
-0.093679
-0.087286
-0.081872
-0.078300
-0.077294
-0.079254
-0.084171
-0.091686
-0.101233
-0.112166
-0.123863
-0.135820
-0.147675
-0.159147
-0.169962
-0.179890
-0.188838
-0.196900
-0.204335
-0.211473
-0.218608
-0.225915
-0.233390
-0.240822
-0.247823
-0.253934
-0.258753
-0.262034
-0.263746
-0.264063
-0.263259
-0.261560
-0.259019
-0.255514
-0.250860
-0.244982
-0.237998
-0.230167
-0.221796
-0.213168
-0.204515
-0.196020
-0.187829
-0.180064
-0.172823
-0.166105
-0.159762
-0.153540
-0.147248
-0.140975
-0.135168
-0.130529
-0.127789
-0.127463
-0.129673
-0.134123
-0.140265
-0.147532
-0.155513
-0.164021
-0.173071
-0.182788
-0.193280
-0.204550
-0.216445
-0.228671
-0.240838
-0.252509
-0.263187
-0.272272
-0.279065
-0.282881
-0.283220
-0.279908
-0.273151
-0.263541
-0.252005
-0.239669
-0.227672
-0.217004
-0.208416
-0.202375
-0.199041
-0.198323
-0.199995
-0.203779
-0.209340
-0.216272
-0.224126
-0.232457
-0.240881
-0.249071
-0.256710
-0.263426
-0.268772
-0.272255
-0.273416
-0.271934
-0.267737
-0.261014
-0.252146
-0.241600
-0.229867
-0.217485
-0.205057
-0.193214
-0.182549
-0.173570
-0.166685
-0.162223
-0.160469
-0.161694
-0.166094
-0.173664
-0.184101
-0.196824
-0.211056
-0.225931
-0.240599
-0.254286
-0.266324
-0.276237
-0.283840
-0.289267
-0.292882
-0.295124
-0.296396
-0.296990
-0.297060
-0.296655
-0.295734
-0.294143
-0.291660
-0.288094
-0.283360
-0.277487
-0.270630
-0.263137
-0.255545
-0.248459
-0.242386
-0.237626
-0.234210
-0.231929
-0.230461
-0.229489
-0.228719
-0.227837
-0.226509
-0.224430
-0.221412
-0.217427
-0.212604
-0.207177
-0.201426
-0.195621
-0.189992
-0.184750
-0.180124
-0.176378
-0.173826
-0.172814
-0.173649
-0.176483
-0.181238
-0.187599
-0.195072
-0.203093
-0.211115
-0.218654
-0.225302
-0.230735
-0.234729
-0.237171
-0.238037
-0.237315
-0.234920
-0.230646
-0.224168
-0.215091
-0.203047
-0.187821
-0.169414
-0.148068
-0.124239
-0.098558
-0.071791
-0.044776
-0.018337
0.006760
0.029806
0.050163
0.067327
0.081013
0.091224
0.098215
0.102393
0.104201
0.104026
0.102159
0.098824
0.094241
0.088644
0.082255
0.075264
0.067882
0.060412
0.053273
0.046957
0.041951
0.038629
0.037188
0.037659
0.039985
0.044060
0.049691
0.056538
0.064124
0.071924
0.079481
0.086494
0.092826
0.098482
0.103552
0.108164
0.112429
0.116405
0.120053
0.123249
0.125854
0.127767
0.128913
0.129160
0.128277
0.125987
0.122078
0.116487
0.109341
0.100948
0.091723
0.082118
0.072601
0.063637
0.055616
0.048825
0.043478
0.039766
0.037836
0.037747
0.039470
0.042888
0.047811
0.053973
0.061024
0.068520
0.075937
0.082746
0.088539
0.093137
0.096591
0.099047
0.100602
0.101232
0.100785
0.099040
0.095791
0.090938
0.084547
0.076888
0.068433
0.059769
0.051455
0.043913
0.037443
0.032285
0.028610
0.026464
0.025716
0.026044
0.026968
0.027937
0.028442
0.028136
0.026913
0.024901
0.022400
0.019788
0.017450
0.015762
0.015100
0.015805
0.018121
0.022169
0.027975
0.035465
0.044439
0.054574
0.065463
0.076651
0.087694
0.098224
0.108007
0.116956
0.125080
0.132416
0.139009
0.144900
0.150092
0.154520
0.158071
0.160614
0.162006
0.162067
0.160563
0.157230
0.151836
0.144275
0.134631
0.123161
0.110239
0.096290
0.081745
0.067040
0.052633
0.038980
0.026477
0.015409
0.005940
-0.001871
-0.008024
-0.012515
-0.015311
-0.016383
-0.015744
-0.013458
-0.009684
-0.004666
0.001301
0.007893
0.014747
0.021435
0.027523
0.032670
0.036678
0.039477
0.041114
0.041746
0.041659
0.041266
0.041057
0.041505
0.042949
0.045534
0.049238
0.053947
0.059530
0.065811
0.072486
0.079066
0.084927
0.089392
0.091805
0.091621
0.088520
0.082459
0.073646
0.062462
0.049380
0.034898
0.019498
0.003669
-0.012100
-0.027388
-0.041895
-0.055455
-0.068038
-0.079707
-0.090535
-0.100544
-0.109699
-0.117956
-0.125307
-0.131776
-0.137372
-0.142024
-0.145534
-0.147546
-0.147626
-0.145398
-0.140651
-0.133335
-0.123502
-0.111277
-0.096836
-0.080392
-0.062172
-0.042417
-0.021394
0.000590
0.023147
0.045778
0.067883
0.088827
0.108025
0.125000
0.139387
0.150934
0.159464
0.164801
0.166717
0.164927
0.159138
0.149131
0.134881
0.116625
0.094877
0.070369
0.043940
0.016437
-0.011315
-0.038497
-0.064265
-0.087794
-0.108351
-0.125356
-0.138387
-0.147144
-0.151444
-0.151285
-0.146876
-0.138636
-0.127178
-0.113321
-0.098064
-0.082496
-0.067721
-0.054775
-0.044524
-0.037566
-0.034217
-0.034543
-0.038366
-0.045268
-0.054623
-0.065661
-0.077524
-0.089324
-0.100217
-0.109481
-0.116549
-0.121004
-0.122568
-0.121099
-0.116581
-0.109077
-0.098664
-0.085417
-0.069460
-0.051001
-0.030325
-0.007771
0.016286
0.041427
0.067197
0.093121
0.118750
0.143680
0.167549
0.190074
0.211096
0.230588
0.248603
0.265216
0.280524
0.294675
0.307834
0.320142
0.331728
0.342718
0.353245
0.363432
0.373400
0.383232
0.392961
0.402601
0.412198
0.421780
0.431259
0.440425
0.449038
0.456918
0.463965
0.470157
0.475517
0.480056
0.483729
0.486469
0.488239
0.489056
0.488960
0.487955
0.485999
0.483066
0.479160
0.474355
0.468863
0.462983
0.456977
0.451003
0.445145
0.439476
0.434083
0.429069
0.424574
0.420758
0.417780
0.415803
0.414994
0.415463
0.417187
0.420004
0.423674
0.427991
0.432862
0.438321
0.444471
0.451380
0.458977
0.467026
0.475169
0.482978
0.490009
0.495841
0.500101
0.502475
0.502726
0.500719
0.496441
0.490000
0.481573
0.471351
0.459541
0.446398
0.432191
0.417141
0.401445
0.385366
0.369248
0.353450
0.338322
0.324238
0.311597
0.300769
0.292074
0.285753
0.281951
0.280706
0.281939
0.285424
0.290773
0.297462
0.304928
0.312596
0.319861
0.326125
0.330908
0.333953
0.335218
0.334819
0.332961
0.329860
0.325673
0.320474
0.314273
0.307027
0.298661
0.289118
0.278455
0.266884
0.254763
0.242550
0.230764
0.219920
0.210497
0.202926
0.197596
0.194811
0.194724
0.197270
0.202163
0.208916
0.216896
0.225372
0.233574
0.240751
0.246186
0.249219
0.249340
0.246332
0.240333
0.231804
0.221465
0.210206
0.198937
0.188426
0.179217
0.171591
0.165539
0.160749
0.156647
0.152494
0.147496
0.140901
0.132095
0.120712
0.106708
0.090328
0.072012
0.052298
0.031733
0.010794
-0.010131
-0.030717
-0.050669
-0.069707
-0.087558
-0.103964
-0.118716
-0.131679
-0.142786
-0.152025
-0.159429
-0.165052
-0.168928
-0.171058
-0.171428
-0.170057
-0.167001
-0.162349
-0.156202
-0.148668
-0.139848
-0.129833
-0.118689
-0.106457
-0.093153
-0.078784
-0.063409
-0.047232
-0.030603
-0.013961
0.002234
0.017558
0.031692
0.044432
0.055622
0.065111
0.072827
0.078839
0.083220
0.085904
0.086861
0.086369
0.084976
0.083201
0.081294
0.079269
0.077022
0.074426
0.071438
0.068162
0.064751
0.061276
0.057708
0.054021
0.050254
0.046506
0.043007
0.040120
0.038168
0.037293
0.037480
0.038671
0.040809
0.043837
0.047725
0.052448
0.057927
0.064060
0.070812
0.078229
0.086392
0.095339
0.105007
0.115267
0.126001
0.137106
0.148490
0.160094
0.171855
0.183640
0.195244
0.206435
0.216945
0.226478
0.234775
0.241689
0.247239
0.251615
0.255175
0.258370
0.261617
0.265231
0.269411
0.274239
0.279681
0.285594
0.291741
0.297798
0.303379
0.308072
0.311506
0.313405
0.313599
0.311998
0.308562
0.303264
0.296073
0.286966
0.275912
0.262842
0.247685
0.230450
0.211238
0.190214
0.167551
0.143416
0.117990
0.091488
0.064192
0.036494
0.008939
-0.017754
-0.042734
-0.065131
-0.084201
-0.099405
-0.110421
-0.117159
-0.119762
-0.118565
-0.114067
-0.106941
-0.097968
-0.087917
-0.077456
-0.067134
-0.057397
-0.048550
-0.040688
-0.033730
-0.027518
-0.021920
-0.016849
-0.012235
-0.008003
-0.004054
-0.000245
0.003573
0.007525
0.011647
0.015804
0.019646
0.022681
0.024427
0.024528
0.022784
0.019147
0.013720
0.006761
-0.001292
-0.009812
-0.018079
-0.025429
-0.031322
-0.035319
-0.037095
-0.036456
-0.033295
-0.027604
-0.019567
-0.009577
0.001834
0.014054
0.026502
0.038758
0.050602
0.061967
0.072893
0.083468
0.093795
0.103989
0.114159
0.124325
0.134354
0.143991
0.152916
0.160838
0.167574
0.173072
0.177421
0.180772
0.183268
0.185079
0.186435
0.187636
0.189047
0.191050
0.193989
0.198120
0.203578
0.210380
0.218402
0.227339
0.236721
0.246003
0.254596
0.261858
0.267143
0.269923
0.269861
0.266788
0.260652
0.251523
0.239613
0.225267
0.208942
0.191192
0.172615
0.153766
0.135081
0.116855
0.099251
0.082315
0.066028
0.050356
0.035254
0.020661
0.006506
-0.007291
-0.020847
-0.034305
-0.047794
-0.061370
-0.075013
-0.088689
-0.102393
-0.116153
-0.129997
-0.143885
-0.157665
-0.171106
-0.183995
-0.196215
-0.207705
-0.218385
-0.228124
-0.236725
-0.243944
-0.249540
-0.253342
-0.255353
-0.255805
-0.255152
-0.254026
-0.253163
-0.253338
-0.255306
-0.259733
-0.267128
-0.277790
-0.291793
-0.308979
-0.329003
-0.351375
-0.375492
-0.400674
-0.426251
-0.451606
-0.476192
-0.499539
-0.521268
-0.541086
-0.558742
-0.574027
-0.586853
-0.597311
-0.605626
-0.612038
-0.616714
-0.619735
-0.621134
-0.620936
-0.619248
-0.616330
-0.612562
-0.608329
-0.603922
-0.599499
-0.595056
-0.590459
-0.585519
-0.580041
-0.573799
-0.566542
-0.558054
-0.548193
-0.536890
-0.524152
-0.510068
-0.494777
-0.478434
-0.461183
-0.443196
-0.424729
-0.406087
-0.387570
-0.369440
-0.351910
-0.335118
-0.319129
-0.303955
-0.289576
-0.275954
-0.263052
-0.250881
-0.239517
-0.229040
-0.219481
-0.210833
-0.203099
-0.196310
-0.190538
-0.185896
-0.182543
-0.180651
-0.180346
-0.181646
-0.184395
-0.188240
-0.192762
-0.197583
-0.202357
-0.206813
-0.210766
-0.214072
-0.216590
-0.218164
-0.218661
-0.218046
-0.216410
-0.213918
-0.210728
-0.206923
-0.202473
-0.197212
-0.190830
-0.182951
-0.173260
-0.161577
-0.147878
-0.132285
-0.115049
-0.096513
-0.077040
-0.056955
-0.036543
-0.016057
0.004275
0.024180
0.043293
0.061170
0.077369
0.091450
0.102931
0.111344
0.116376
0.117916
0.115943
0.110434
0.101396
0.088974
0.073489
0.055409
0.035325
0.013899
-0.008214
-0.030397
-0.052104
-0.072872
-0.092337
-0.110196
-0.126170
-0.139979
-0.151347
-0.160002
-0.165690
-0.168242
-0.167624
-0.163909
-0.157190
-0.147535
-0.135007
-0.119756
-0.102045
-0.082211
-0.060675
-0.037992
-0.014835
0.008119
0.030278
0.051135
0.070242
0.087218
0.101752
0.113595
0.122552
0.128516
0.131510
0.131724
0.129502
0.125267
0.119456
0.112507
0.104867
0.096924
0.088936
0.081004
0.073137
0.065346
0.057706
0.050331
0.043339
0.036856
0.031018
0.025945
0.021683
0.018189
0.015371
0.013133
0.011402
0.010131
0.009261
0.008702
0.008337
0.008023
0.007611
0.006998
0.006207
0.005413
0.004863
0.004787
0.005361
0.006703
0.008874
0.011839
0.015413
0.019267
0.022982
0.026091
0.028079
0.028441
0.026762
0.022799
0.016485
0.007879
-0.002900
-0.015702
-0.030351
-0.046669
-0.064498
-0.083644
-0.103822
-0.124664
-0.145775
-0.166782
-0.187376
-0.207350
-0.226593
-0.245059
-0.262705
-0.279502
-0.295469
-0.310659
-0.325137
-0.338985
-0.352281
-0.365056
-0.377261
-0.388787
-0.399465
-0.409055
-0.417261
-0.423791
-0.428438
-0.431094
-0.431734
-0.430390
-0.427154
-0.422180
-0.415689
-0.407972
-0.399312
-0.389879
-0.379760
-0.369057
-0.357909
-0.346473
-0.334957
-0.323649
-0.312903
-0.303077
-0.294467
-0.287269
-0.281566
-0.277317
-0.274358
-0.272421
-0.271172
-0.270261
-0.269358
-0.268188
-0.266520
-0.264170
-0.261017
-0.257016
-0.252196
-0.246676
-0.240703
-0.234634
-0.228837
-0.223634
-0.219337
-0.216181
-0.214236
-0.213426
-0.213563
-0.214392
-0.215677
-0.217167
-0.218527
-0.219395
-0.219549
-0.218959
-0.217702
-0.215865
-0.213486
-0.210562
-0.207084
-0.203041
-0.198450
-0.193376
-0.187928
-0.182223
-0.176329
-0.170232
-0.163810
-0.156876
-0.149250
-0.140781
-0.131347
-0.120860
-0.109287
-0.096647
-0.082977
-0.068306
-0.052649
-0.035964
-0.018166
0.000804
0.020920
0.042097
0.064303
0.087630
0.112200
0.138015
0.164948
0.192828
0.221469
0.250674
0.280260
0.310013
0.339633
0.368798
0.397249
0.424765
0.451107
0.476012
0.499227
0.520528
0.539714
0.556632
0.571214
0.583455
0.593367
0.600970
0.606272
0.609238
0.609772
0.607766
0.603188
0.596137
0.586841
0.575566
0.562552
0.548022
0.532220
0.515459
0.498134
0.480692
0.463556
0.447057
0.431395
0.416671
0.402924
0.390170
0.378425
0.367717
0.358065
0.349444
0.341808
0.335136
0.329413
0.324556
0.320435
0.316920
0.313875
0.311185
0.308837
0.306953
0.305697
0.305239
0.305769
0.307430
0.310230
0.314039
0.318568
0.323299
0.327537
0.330653
0.332283
0.332284
0.330543
0.326886
0.321122
0.313143
0.303001
0.290963
0.277439
0.262824
0.247404
0.231410
0.215065
0.198569
0.182099
0.165861
0.150099
0.135052
0.120895
0.107747
0.095688
0.084766
0.075016
0.066442
0.058938
0.052292
0.046281
0.040732
0.035502
0.030454
0.025458
0.020360
0.014914
0.008798
0.001747
-0.006314
-0.015258
-0.024812
-0.034614
-0.044306
-0.053588
-0.062215
-0.069997
-0.076786
-0.082405
-0.086628
-0.089217
-0.089961
-0.088699
-0.085312
-0.079723
-0.071932
-0.062032
-0.050187
-0.036595
-0.021467
-0.005053
0.012343
0.030378
0.048708
0.067024
0.085049
0.102506
0.119089
0.134482
0.148441
0.160902
0.171981
0.181801
0.190359
0.197546
0.203235
0.207340
0.209882
0.210981
0.210762
0.209314
0.206771
0.203360
0.199317
0.194786
0.189813
0.184386
0.178414
0.171699
0.163990
0.155093
0.144907
0.133407
0.120654
0.106812
0.092142
0.076985
0.061683
0.046481
0.031540
0.017005
0.003005
-0.010368
-0.023053
-0.035068
-0.046491
-0.057348
-0.067563
-0.076998
-0.085503
-0.092930
-0.099143
-0.104001
-0.107299
-0.108823
-0.108484
-0.106343
-0.102584
-0.097468
-0.091291
-0.084393
-0.077144
-0.069912
-0.063070
-0.056941
-0.051712
-0.047397
-0.043883
-0.040986
-0.038502
-0.036222
-0.033964
-0.031630
-0.029212
-0.026733
-0.024217
-0.021703
-0.019230
-0.016785
-0.014333
-0.011948
-0.009885
-0.008427
-0.007671
-0.007538
-0.007941
-0.008900
-0.010488
-0.012634
-0.015060
-0.017404
-0.019379
-0.020821
-0.021710
-0.022163
-0.022428
-0.022851
-0.023795
-0.025540
-0.028274
-0.032156
-0.037345
-0.043969
-0.052056
-0.061522
-0.072235
-0.084005
-0.096526
-0.109476
-0.122689
-0.136150
-0.149817
-0.163501
-0.176992
-0.190193
-0.203039
-0.215377
-0.226981
-0.237608
-0.247068
-0.255192
-0.261777
-0.266627
-0.269592
-0.270607
-0.269707
-0.266948
-0.262296
-0.255690
-0.247194
-0.237032
-0.225475
-0.212799
-0.199327
-0.185391
-0.171303
-0.157345
-0.143760
-0.130766
-0.118596
-0.107506
-0.097758
-0.089566
-0.083024
-0.078075
