EVENT_NAME: L_AQUILA
EVENT_ID: IT-2009-0009
EVENT_DATE_YYYYMMDD: 20090406
EVENT_TIME_HHMMSS: 013240
EVENT_LATITUDE_DEGREE: 42.3420
EVENT_LONGITUDE_DEGREE: 13.3800
EVENT_DEPTH_KM: 8.3
HYPOCENTER_REFERENCE: INGV-CNT_Seismic_Bulletin
MAGNITUDE_W: 6.1
MAGNITUDE_W_REFERENCE: INGV-CNT_Seismic_Bulletin
MAGNITUDE_L: 
MAGNITUDE_L_REFERENCE: 
FOCAL_MECHANISM: Normal faulting
NETWORK: IT
STATION_CODE: SPC
STATION_NAME: 
STATION_LATITUDE_DEGREE: 42.743469
STATION_LONGITUDE_DEGREE: 12.739693
STATION_ELEVATION_M: 134
LOCATION: 
SENSOR_DEPTH_M: 0.0
VS30_M/S: 
SITE_CLASSIFICATION_EC8: C (inferred from geology)
MORPHOLOGIC_CLASSIFICATION: 
EPICENTRAL_DISTANCE_KM: 69.0
EARTHQUAKE_BACKAZIMUTH_DEGREE: 310.5
DATE_TIME_FIRST_SAMPLE_YYYYMMDD_HHMMSS: 20090406_013241.000
DATE_TIME_FIRST_SAMPLE_PRECISION: seconds
SAMPLING_INTERVAL_S: 0.005000
NDATA: 19800
DURATION_S: 99.000
STREAM: HNN
UNITS: cm/s^2
INSTRUMENT: sensor = FBA-3 [Kinemetrics] | digitizer = Etna [Kinemetrics]
INSTRUMENT_ANALOG/DIGITAL: D
INSTRUMENTAL_FREQUENCY_HZ: 212.000
INSTRUMENTAL_DAMPING: 0.700000
FULL_SCALE_G: 1.0
N_BIT_DIGITAL_CONVERTER: 18
PGA_CM/S^2: 5.965496
TIME_PGA_S: 30.685000
BASELINE_CORRECTION: BASELINE NOT REMOVED
FILTER_TYPE: 
FILTER_ORDER: 
LOW_CUT_FREQUENCY_HZ: 
HIGH_CUT_FREQUENCY_HZ: 
LATE/NORMAL_TRIGGERED: NT
DATABASE_VERSION: 0.5
HEADER_FORMAT: DYNA 1.2
DATA_TYPE: ACCELERATION
PROCESSING: converted to cm/s^2
DATA_TIMESTAMP_YYYYMMDD_HHMMSS: 20211011_160534.753
DATA_LICENSE: CC-BY3_0-IT (http://creativecommons.org/licenses/by/3.0/deed.en)
DATA_CITATION: Luzi L, Pacor F, Puglia R (2019). Italian Accelerometric Archive v 3.0 - Istituto Nazionale di Geofisica e Vulcanologia, Dipartimento della Protezione Civile Nazionale. doi: 10.13127/itaca.3.1
DATA_CREATOR: ITACA working group
ORIGINAL_DATA_MEDIATOR_CITATION: data obtained within the DPC-INGV data exchange agreements
ORIGINAL_DATA_MEDIATOR: Archive of Italian Department of Civil Protection
ORIGINAL_DATA_CREATOR_CITATION: Presidency Of Counsil Of Ministers-Civil Protection Department. (1972). Italian Strong Motion Network. Presidency of Counsil of Ministers - Civil Protection Department. https://doi.org/10.7914/SN/IT http://www.fdsn.org/networks/detail/IT/
ORIGINAL_DATA_CREATOR: network: IT (Italian Strong Motion Network (RAN)); owner: Presidency of Counsil of Ministers - Civil Protection Department (PCM - DPC)
USER1: 
USER2: 
USER3: 
USER4: 
USER5: 
[...]
0.995011
1.133751
1.194918
1.118517
0.910642
0.586761
0.210148
-0.184744
-0.596510
-1.000776
-1.394262
-1.704551
-1.900240
-1.935159
-1.798529
-1.572842
-1.306144
-1.032883
-0.769934
-0.473238
-0.146544
0.158824
0.500048
0.852990
1.173123
1.458101
1.677694
1.875960
2.018215
2.086648
2.173594
2.284445
2.403733
2.523490
2.590985
2.591453
2.543879
2.442871
2.285617
2.091335
1.824870
1.508957
1.177810
0.858381
0.676988
0.633632
0.703236
0.862365
1.000636
1.113127
1.158827
1.123673
1.036258
0.841507
0.627070
0.407477
0.188587
0.088048
0.133748
0.324749
0.585823
0.876192
1.167732
1.423182
1.640900
1.809872
1.944158
2.052666
2.113599
2.115708
2.090866
2.056181
2.034855
2.044698
2.103990
2.192108
2.267806
2.273665
2.109146
1.751517
1.165389
0.417320
-0.351138
-1.092176
-1.745798
-2.316224
-2.799937
-3.177253
-3.439967
-3.541913
-3.511915
-3.392862
-3.217562
-3.055153
-2.924381
-2.787282
-2.679009
-2.637059
-2.653464
-2.748379
-2.866026
-2.949692
-2.944770
-2.795250
-2.518943
-2.092881
-1.509097
-0.840241
-0.174667
0.428335
0.889081
1.187653
1.324049
1.286317
1.118986
0.749405
0.218351
-0.367777
-0.978278
-1.485896
-1.888288
-2.175141
-2.319505
-2.366376
-2.337082
-2.281305
-2.148190
-1.964922
-1.771577
-1.579170
-1.464569
-1.399887
-1.404574
-1.437384
-1.470428
-1.475350
-1.380201
-1.208417
-0.940546
-0.637054
-0.315750
-0.026553
0.184603
0.368339
0.521844
0.712142
0.946733
1.206401
1.427166
1.588169
1.703005
1.743314
1.757375
1.720347
1.657305
1.584888
1.476615
1.366233
1.283739
1.253273
1.273896
1.290770
1.195855
0.962201
0.585589
0.090860
-0.427069
-0.882660
-1.209354
-1.429885
-1.572374
-1.670335
-1.777436
-1.913832
-2.072961
-2.226231
-2.359346
-2.423091
-2.405280
-2.306615
-2.103193
-1.800169
-1.343875
-0.742046
-0.045770
0.692456
1.374201
1.953533
2.348659
2.495836
2.431622
2.158361
1.745658
1.239446
0.674879
0.171245
-0.304266
-0.731265
-1.080926
-1.368483
-1.541907
-1.641509
-1.655102
-1.600965
-1.504176
-1.315518
-1.042961
-0.676894
-0.210055
0.322405
0.871739
1.380529
1.805419
2.132582
2.369986
2.509194
2.517396
2.398812
2.160236
1.824167
1.404433
0.912517
0.386854
-0.211461
-0.840944
-1.487302
-2.070852
-2.506522
-2.836497
-2.941255
-2.899071
-2.720959
-2.375751
-1.965157
-1.480974
-1.043429
-0.694705
-0.415117
-0.216851
-0.100141
0.013522
0.122733
0.205696
0.344201
0.518563
0.748467
0.979075
1.196090
1.396700
1.538954
1.564499
1.439118
1.257960
0.981184
0.700893
0.481534
0.321468
0.238037
0.176635
0.209914
0.290064
0.439350
0.643241
0.823696
1.003214
1.116642
1.183669
1.191637
1.151562
1.080317
0.955639
0.780574
0.539889
0.248114
-0.134123
-0.539561
-0.914298
-1.252945
-1.467616
-1.569796
-1.575186
-1.475350
-1.297941
-1.056553
-0.767825
-0.451208
-0.134123
0.175229
0.512000
0.887441
1.318658
1.843385
2.436074
3.076807
3.717072
4.300856
4.800740
5.167040
5.393898
5.437958
5.312576
5.055955
4.641612
4.107745
3.473574
2.765581
2.066258
1.428338
0.862130
0.390603
0.002039
-0.337779
-0.630257
-0.888988
-1.091707
-1.237946
-1.361218
-1.442540
-1.463398
-1.401293
-1.231149
-0.978044
-0.631195
-0.242865
0.123670
0.498408
0.839632
1.157186
1.412167
1.551610
1.600590
1.541532
1.433494
1.297566
1.159061
1.047741
0.950952
0.884160
0.826742
0.766278
0.679566
0.550904
0.407712
0.258660
0.084298
-0.133654
-0.422851
-0.750483
-1.079520
-1.404574
-1.653930
-1.805559
-1.888053
-1.879616
-1.760094
-1.569561
-1.319502
-1.037102
-0.720250
-0.345982
0.012585
0.376776
0.718704
1.012353
1.268975
1.436540
1.537080
1.523018
1.399746
1.196558
0.936422
0.716595
0.521609
0.342560
0.161167
-0.052332
-0.311063
-0.617602
-0.934219
-1.247086
-1.499723
-1.669866
-1.710645
-1.623932
-1.470663
-1.260444
-1.010854
-0.699158
-0.400821
-0.119827
0.109375
0.212257
0.239208
0.134685
-0.032880
-0.211695
-0.380667
-0.469488
-0.493627
-0.430350
-0.305907
-0.111156
0.172417
0.502861
0.837757
1.185778
1.536376
1.823230
2.060400
2.212966
2.268275
2.246245
2.136800
1.985171
1.813153
1.655196
1.505441
1.340219
1.206636
1.075630
0.913689
0.744249
0.536139
0.304829
0.047270
-0.271456
-0.629554
-1.041554
-1.487068
-1.902115
-2.263494
-2.561596
-2.757285
-2.873057
-2.917351
-2.850793
-2.706195
-2.471837
-2.177719
-1.869773
-1.523627
-1.195762
-0.881020
-0.527140
-0.181228
0.147575
0.487862
0.791120
1.027587
1.227494
1.339516
1.397637
1.386857
1.236633
1.059694
0.830961
0.582542
0.364121
0.151090
0.011882
-0.056316
-0.019991
0.113593
0.318187
0.553716
0.768622
0.975091
1.131876
1.277646
1.372561
1.343500
1.204058
0.920485
0.518563
-0.004289
-0.599556
-1.188028
-1.739236
-2.211232
-2.597453
-2.861339
-3.049997
-3.151474
-3.124522
-3.032420
-2.876104
-2.683931
-2.485899
-2.301928
-2.141393
-1.978749
-1.809543
-1.625573
-1.438790
-1.267944
-1.091238
-0.899299
-0.681113
-0.386760
0.000633
0.474269
0.982121
1.484349
1.993842
2.470525
2.912288
3.316555
3.663169
3.977208
4.227971
4.414051
4.538260
4.551618
4.450844
4.216956
3.857217
3.421313
2.902211
2.323349
1.726675
1.092269
0.406071
-0.330514
-1.127563
-1.975937
-2.825951
-3.630969
-4.334744
-4.884078
-5.264674
-5.475361
-5.524107
-5.416537
-5.137887
-4.685811
-4.091247
-3.374347
-2.581517
-1.738064
-0.842819
0.057347
0.904783
1.662461
2.312334
2.799328
3.075401
3.130944
2.982596
2.617701
2.065555
1.409589
0.687534
-0.041552
-0.746498
-1.367311
-1.852196
-2.188265
-2.357471
-2.347628
-2.157095
-1.836260
-1.390278
-0.873520
-0.298407
0.318890
0.923532
1.523721
2.091100
2.666682
3.210860
3.708400
4.157429
4.521152
4.833316
5.041659
5.174774
5.206647
5.131887
5.009787
4.793944
4.518574
4.221643
3.905729
3.616532
3.353115
3.066027
2.840810
2.655199
2.473103
2.336004
2.207107
2.126254
2.048916
2.002044
1.987046
1.963844
1.943690
1.916270
1.934081
1.916035
1.854399
1.733940
1.583014
1.435134
1.233352
1.088520
0.923298
0.745889
0.571059
0.354044
0.181088
-0.020928
-0.172792
-0.375511
-0.600963
-0.727281
-0.971716
-1.102956
-1.147250
-1.212635
-1.156624
-1.171623
-1.128735
-1.051163
-1.009447
-0.880082
-0.759388
-0.579167
-0.388400
-0.166464
0.112421
0.351231
0.581136
0.748702
0.871270
0.978840
1.097659
1.228197
1.388497
1.535908
1.614183
1.643478
1.567312
1.417323
1.170779
0.860255
0.486924
0.050082
-0.384182
-0.858287
-1.285755
-1.677132
-2.034527
-2.352784
-2.639169
-2.827357
-2.996798
-3.130850
-3.219203
-3.225296
-3.139053
-3.026093
-2.817749
-2.521287
-2.160845
-1.739705
-1.256694
-0.756576
-0.249427
0.252567
0.692924
1.088988
1.341626
1.484349
1.544110
1.458570
1.266865
0.956108
0.602463
0.258660
-0.082095
-0.378557
-0.614087
-0.834148
-1.040617
-1.234899
-1.450977
-1.661430
-1.903989
-2.138581
-2.311302
-2.425435
-2.446761
-2.357940
-2.166704
-1.885944
-1.510269
-1.076708
-0.557841
-0.016241
0.503564
0.989855
1.343266
1.599184
1.700661
1.635041
1.433259
1.085942
0.621445
0.023131
-0.611040
-1.201152
-1.708301
-2.081398
-2.262087
-2.257635
-2.107880
-1.839776
-1.537220
-1.209354
-0.952967
-0.825008
-0.823368
-1.006635
-1.315753
-1.755407
-2.288101
-2.809781
-3.285292
-3.667763
-3.955319
-4.118666
-4.185224
-4.193661
-4.116557
-3.998207
-3.812830
-3.573786
-3.294900
-2.950629
-2.596984
-2.230918
-1.850790
-1.483787
-1.131079
-0.781183
-0.438319
-0.080924
0.272253
0.600119
0.927047
1.221635
1.498879
1.758313
1.995717
2.220231
2.438184
2.656370
2.849715
3.068839
3.238983
3.311399
3.326632
3.232421
3.060402
2.810812
2.532629
2.231246
1.908536
1.526768
1.148281
0.905252
0.550201
0.172651
-0.123577
-0.321843
-0.341060
-0.380198
-0.430116
-0.440662
-0.521984
-0.624867
-0.664942
-0.710642
-0.679707
-0.719782
-0.776262
-0.731500
-0.768059
-0.722594
-0.603306
-0.397072
-0.168808
0.017506
0.227022
0.416148
0.603400
0.744952
0.938062
1.101878
1.200542
1.342329
1.467710
1.608324
1.781749
1.934784
2.029933
2.129535
2.220231
2.257963
2.296866
2.341863
2.353346
2.298272
2.224918
2.093678
1.894943
1.652852
1.359905
1.103518
0.860724
0.678629
0.630351
0.635038
0.704642
0.826508
0.946030
1.077739
1.167967
1.210854
1.203355
1.098831
0.930563
0.672535
0.355450
0.030396
-0.342232
-0.707361
-1.065928
-1.457304
-1.845400
-2.221309
-2.620888
-3.052106
-3.461060
-3.865092
-4.224596
-4.537463
-4.852908
-5.095937
-5.312014
-5.479345
-5.548246
-5.532310
-5.357480
-5.024692
-4.501606
-3.821501
-3.064058
-2.222950
-1.358171
-0.534171
0.212257
0.886269
1.419667
1.776358
1.997357
2.064852
2.048916
1.943924
1.741439
1.551375
1.366936
1.220697
1.112893
0.988683
0.908767
0.832836
0.764169
0.744952
0.743546
0.766981
0.798385
0.817368
0.762997
0.593322
0.328030
0.001101
-0.366605
-0.747905
-1.102722
-1.405746
-1.631432
-1.739705
-1.675725
-1.475819
-1.201620
-0.829461
-0.361215
0.114296
0.591682
1.120392
1.605746
1.965016
2.268978
2.446386
2.455995
2.434903
2.347018
2.246245
2.170079
2.087116
2.058759
2.005794
2.004154
2.031574
1.972515
1.920957
1.774015
1.548563
1.347250
1.068130
0.831664
0.674879
0.468644
0.343029
0.259832
0.207102
0.268269
0.372558
0.568481
0.806588
1.073052
1.335064
1.577623
1.786670
1.849009
1.834010
1.698786
1.438884
1.049851
0.522078
-0.033583
-0.633304
-1.244742
-1.847041
-2.405280
-2.887822
-3.284589
-3.578004
-3.742054
-3.783535
-3.762443
-3.662373
-3.539335
-3.402939
-3.277558
-3.160848
-3.033592
-2.942661
-2.852199
-2.781423
-2.727756
-2.709710
-2.712991
-2.743458
-2.757050
-2.742754
-2.772518
-2.761972
-2.782595
-2.806734
-2.774393
-2.723537
-2.590422
-2.452386
-2.327239
-2.150065
-1.966797
-1.749548
-1.458007
-1.151702
-0.783293
-0.417461
-0.114202
0.120624
0.201711
0.158824
-0.056550
-0.408086
-0.900940
-1.506988
-2.140222
-2.831810
-3.458482
-4.020939
-4.497622
-4.846581
-5.062892
-5.127106
-5.095937
-4.935636
-4.690732
-4.361929
-3.975708
-3.564646
-3.077885
-2.584329
-2.101553
-1.673616
-1.309893
-0.953436
-0.623695
-0.304969
0.012351
0.320062
0.574574
0.740265
0.823227
0.865177
0.872442
0.851819
0.902674
0.975559
1.073755
1.228431
1.422948
1.689412
1.948377
2.238980
2.535911
2.793938
3.047747
3.245779
3.421781
3.584660
3.682621
3.704651
3.686605
3.612080
3.483652
3.341866
3.175472
3.017984
2.858386
2.702070
2.558409
2.420607
2.266165
2.066258
1.897052
1.706520
1.532392
1.339282
1.131641
0.920720
0.642303
0.384979
0.017272
-0.243333
-0.582683
-0.832742
-0.846335
-1.049054
-0.944296
-0.894144
-0.843522
-0.627445
-0.566512
-0.308485
-0.130842
0.104922
0.335295
0.456927
0.650037
0.722453
0.889081
1.033680
1.235227
1.577155
1.904786
2.330614
2.724334
3.095556
3.441936
3.695511
3.871279
4.002285
4.073061
4.067436
4.054312
3.958225
3.817845
3.566849
3.200782
2.813155
2.291241
1.671601
0.979543
0.282096
-0.404805
-1.106471
-1.817512
-2.517068
-3.095462
-3.640812
-4.041563
-4.287638
-4.451922
-4.442080
-4.361461
-4.168584
-3.898136
-3.590191
-3.209360
-2.776971
-2.282477
-1.754469
-1.156624
-0.520578
0.115234
0.731125
1.329908
1.909942
2.481071
3.055012
3.520446
3.944633
4.298747
4.522324
4.635987
4.564742
4.415222
4.163991
3.804956
3.382175
2.888618
2.363658
1.772374
1.189528
0.582542
0.023365
-0.457536
-0.868364
-1.157327
-1.418870
-1.542376
-1.599794
-1.614089
-1.583389
-1.588779
-1.568390
-1.551516
-1.478865
-1.411370
-1.313643
-1.176779
-1.039680
-0.849616
-0.714391
-0.576121
-0.452380
-0.368011
-0.264894
-0.184509
-0.123342
-0.086314
-0.073424
-0.084673
-0.132482
-0.176776
-0.175838
-0.124280
-0.019756
0.098125
0.258660
0.421304
0.570121
0.723156
0.754326
0.726437
0.620274
0.384744
0.071877
-0.349497
-0.806963
-1.276380
-1.736190
-2.159908
-2.574720
-2.945239
-3.268887
-3.567692
-3.842828
-4.052343
-4.176318
-4.234908
-4.215690
-4.125931
-4.005238
-3.852671
-3.699636
-3.551990
-3.362395
-3.197408
-3.056324
-2.901414
-2.775564
-2.666120
-2.567689
-2.453089
-2.307787
-2.147487
-1.930003
-1.655336
-1.318330
-0.931172
-0.541201
-0.138575
0.260769
0.640663
0.979543
1.290536
1.555594
1.713551
1.864477
2.021496
2.135159
2.219294
2.269446
2.302725
2.254213
2.141253
1.967360
1.703005
1.438649
1.133282
0.836585
0.586292
0.374667
0.243193
0.167730
0.180150
0.223038
0.326624
0.460207
0.624492
0.794167
0.949546
1.100472
1.180153
1.243430
1.108909
1.045164
0.894003
0.565668
0.424820
0.136326
-0.046473
-0.159902
-0.266300
-0.284346
-0.326530
-0.157793
-0.037099
0.110078
0.263816
0.339514
0.482940
0.567778
0.694565
0.798620
0.906893
1.019150
1.078911
1.139844
1.173357
1.214838
1.264756
1.387794
1.517159
1.686365
1.886506
2.076570
2.326864
2.516693
2.722225
2.941114
3.121101
3.327570
3.546928
3.791597
4.022205
4.242735
4.429986
4.635284
4.918622
5.167275
5.378900
5.564511
5.731607
5.839646
5.885346
5.965496
5.929639
5.809883
5.693407
5.488813
5.269220
4.983539
4.623800
4.263359
3.838938
3.370692
2.910179
2.443105
1.978843
1.514581
1.046570
0.598713
0.105391
-0.406915
-0.910783
-1.428947
-1.868836
-2.251776
-2.610108
-2.904461
-3.165066
-3.358411
-3.469496
-3.504650
-3.426609
-3.304275
-3.136006
-2.942896
-2.757988
-2.550347
-2.355596
-2.148424
-1.939612
-1.714394
-1.531830
-1.360280
-1.131548
-0.975934
-0.830633
-0.709470
-0.607759
-0.524796
-0.499252
-0.380432
-0.237709
-0.109047
0.090860
0.338810
0.556997
0.746592
0.897050
0.963138
0.867989
0.599650
0.316547
-0.017413
-0.341295
-0.723297
-1.169748
-1.576827
-2.042963
-2.422857
-2.716506
-2.916413
-3.077885
-3.217797
-3.262559
-3.304509
-3.290447
-3.256700
-3.162957
-3.006641
-2.834154
-2.633544
-2.416295
-2.177485
-1.970313
-1.718847
-1.489177
-1.330283
-1.210526
-1.118892
-1.036164
-1.023978
-1.002885
-1.025852
-1.087254
-1.203027
-1.428478
-1.614792
-1.788686
-1.923207
-1.969609
-1.930706
-1.860868
-1.740174
-1.534642
-1.371295
-1.128735
-0.840007
-0.536514
-0.135998
0.245771
0.669254
1.118752
1.553719
1.982593
2.367876
2.714491
3.017984
3.285854
3.476621
3.608330
3.664107
3.657076
3.601299
3.488808
3.319836
3.081026
2.802609
2.469588
2.197499
1.978374
1.714254
1.429510
1.145703
0.827680
0.483643
0.222803
-0.038036
-0.287158
-0.508860
-0.708767
-0.794542
-0.903049
-1.005463
-1.083504
-1.202792
-1.323955
-1.545423
-1.793607
-2.021871
-2.311302
-2.547769
-2.766893
-2.943599
-3.031014
-3.081401
-3.003594
-3.006875
-2.926022
-2.755644
-2.724709
-2.515897
-2.390515
-2.300756
-2.148659
-2.080461
-1.858993
-1.708067
-1.508629
-1.199043
-0.997261
-0.675723
-0.285283
0.053832
0.433725
0.766278
1.002979
1.244602
1.388966
1.433494
1.455523
1.378420
1.222338
1.044460
0.863068
0.692456
0.589807
0.493252
0.447318
0.460676
0.459036
0.504735
0.479191
0.501689
0.527702
0.473097
0.500517
0.465832
0.487159
0.457395
0.262176
0.152028
0.019616
-0.088657
-0.158027
-0.314109
-0.447458
-0.487768
-0.468082
-0.393556
-0.285518
-0.179588
-0.082095
-0.057254
-0.066862
-0.184978
-0.367777
-0.528780
-0.786339
-1.027493
-1.308722
-1.640806
-1.885241
-2.121004
-2.364970
-2.520818
-2.583391
-2.628622
-2.670572
-2.741817
-2.770409
-2.661901
-2.626982
-2.593469
-2.435512
-2.350440
-2.115380
-1.858055
-1.662601
-1.289973
-0.973591
-0.603072
-0.183807
0.187884
0.561684
0.905486
1.325924
1.721987
2.037198
2.296866
2.551378
2.706991
2.769565
2.845028
2.783158
2.714960
2.613717
2.425763
2.234996
1.951423
1.650040
1.309987
0.978840
0.712610
0.448958
0.212023
0.020787
-0.139982
-0.262316
-0.328171
-0.452614
-0.532530
-0.611743
-0.730328
-0.786105
-0.911486
-1.022806
-1.182403
-1.291379
-1.381607
-1.525737
-1.639634
-1.894615
-1.937268
-2.028902
-2.244276
-2.218497
-2.245214
-2.115614
-1.949924
-1.799232
-1.512613
-1.198105
-0.815400
-0.523859
-0.109281
0.258192
0.593322
0.936422
1.026649
1.221166
1.298269
1.330845
1.429978
1.407246
1.431384
1.446149
1.442399
1.393419
1.358499
1.291473
1.243195
1.231243
1.164217
1.146406
1.085004
1.011650
0.927282
0.862833
0.811744
0.706986
0.618868
0.526531
0.477550
0.408415
0.310922
0.236631
0.245067
0.377011
0.531921
0.666208
0.794870
0.947437
1.023603
1.037664
1.055007
0.975559
0.807056
0.646990
0.406774
0.090157
-0.194587
-0.515656
-0.788917
-0.973122
-1.115143
-1.139984
-1.085848
-0.990933
-0.798995
-0.590182
-0.352778
-0.111624
-0.006632
0.070706
0.103984
0.123202
0.058050
-0.137872
-0.336373
-0.576824
-0.756107
-1.024446
-1.252476
-1.323018
-1.488240
-1.533939
-1.521284
-1.521284
-1.449336
-1.413479
-1.314581
-1.193652
-1.087957
-0.926251
-0.695643
-0.430116
-0.180291
0.101875
0.405837
0.725266
1.042820
1.360843
1.681678
2.011419
2.360611
2.660354
2.869167
2.935959
2.944396
2.892134
2.678400
2.351940
1.921660
1.416620
0.916970
0.425991
0.002273
-0.295361
-0.549170
-0.685331
-0.678535
-0.639632
-0.501361
-0.326999
-0.158262
0.098360
0.277409
0.394353
0.478487
0.423413
0.399509
0.312797
0.135154
-0.029834
-0.296532
-0.548701
-0.772278
-1.035461
-1.203964
-1.332861
-1.386060
-1.299113
-1.266537
-1.204198
-1.131548
-1.081161
-0.924610
-0.813759
-0.632835
-0.410664
-0.328874
-0.199977
-0.023272
0.210617
0.453880
0.654490
0.882520
1.112658
1.292645
1.309753
1.328501
1.238743
1.054772
0.937593
0.676988
0.475206
0.233350
-0.046707
-0.250364
-0.501595
-0.621117
-0.726812
-0.822899
-0.839773
-0.789152
-0.603072
-0.322546
-0.008038
0.311859
0.646053
0.928219
1.228197
1.546454
1.780811
2.003685
2.180625
2.241792
2.280227
2.230543
2.164923
2.087351
1.981655
1.913692
1.714488
1.667148
1.479193
1.223509
1.213198
1.010244
0.924470
0.771434
0.657536
0.619102
0.443802
0.383338
0.060160
-0.105766
-0.230444
-0.581745
-0.835320
-1.298176
-1.746267
-2.053041
-2.431293
-2.762909
-2.970550
-3.244748
-3.432234
-3.462231
-3.514493
-3.379503
-3.232093
-3.068277
-2.766424
-2.465744
-2.095928
-1.687209
-1.259741
-0.766419
-0.209586
0.272956
0.777996
1.209214
1.557000
1.953298
2.158127
2.394593
2.569189
2.615826
2.696211
2.641606
2.591453
2.503101
2.344441
2.208513
2.028058
1.852993
1.590044
1.255148
0.967826
0.631757
0.316312
0.016569
-0.299345
-0.574246
-0.837429
-1.030540
-1.203027
-1.338485
-1.469022
-1.594638
-1.592294
-1.700333
-1.826886
-1.915707
-2.166938
-2.344815
-2.574955
-2.883603
-3.085385
-3.445123
-3.779317
-3.926259
-4.164366
-4.340368
