EVENT_NAME: L_AQUILA
EVENT_ID: IT-2009-0009
EVENT_DATE_YYYYMMDD: 20090406
EVENT_TIME_HHMMSS: 013240
EVENT_LATITUDE_DEGREE: 42.3420
EVENT_LONGITUDE_DEGREE: 13.3800
EVENT_DEPTH_KM: 8.3
HYPOCENTER_REFERENCE: INGV-CNT_Seismic_Bulletin
MAGNITUDE_W: 6.1
MAGNITUDE_W_REFERENCE: INGV-CNT_Seismic_Bulletin
MAGNITUDE_L: 
MAGNITUDE_L_REFERENCE: 
FOCAL_MECHANISM: Normal faulting
NETWORK: IT
STATION_CODE: SPC
STATION_NAME: 
STATION_LATITUDE_DEGREE: 42.743469
STATION_LONGITUDE_DEGREE: 12.739693
STATION_ELEVATION_M: 134
LOCATION: 
SENSOR_DEPTH_M: 0.0
VS30_M/S: 
SITE_CLASSIFICATION_EC8: C (inferred from geology)
MORPHOLOGIC_CLASSIFICATION: 
EPICENTRAL_DISTANCE_KM: 69.0
EARTHQUAKE_BACKAZIMUTH_DEGREE: 310.5
DATE_TIME_FIRST_SAMPLE_YYYYMMDD_HHMMSS: 
DATE_TIME_FIRST_SAMPLE_PRECISION: 
SAMPLING_INTERVAL_S: 
NDATA: 105
DURATION_S: 
STREAM: HNE
UNITS: cm/s^2
INSTRUMENT: sensor = FBA-3 [Kinemetrics] | digitizer = Etna [Kinemetrics]
INSTRUMENT_ANALOG/DIGITAL: D
INSTRUMENTAL_FREQUENCY_HZ: 214.000
INSTRUMENTAL_DAMPING: 0.700000
FULL_SCALE_G: 1.0
N_BIT_DIGITAL_CONVERTER: 18
PGA_CM/S^2: 7.554791
TIME_PGA_S: 
BASELINE_CORRECTION: BASELINE REMOVED
FILTER_TYPE: BUTTERWORTH
FILTER_ORDER: 2
LOW_CUT_FREQUENCY_HZ: 0.100
HIGH_CUT_FREQUENCY_HZ: 40.000
LATE/NORMAL_TRIGGERED: NT
DATABASE_VERSION: 0.5
HEADER_FORMAT: DYNA 1.2
DATA_TYPE: ACCELERATION RESPONSE SPECTRUM
PROCESSING: manual (Paolucci et al., 2011)
DATA_TIMESTAMP_YYYYMMDD_HHMMSS: 20211011_160535.806
DATA_LICENSE: CC-BY3_0-IT (http://creativecommons.org/licenses/by/3.0/deed.en)
DATA_CITATION: Luzi L, Pacor F, Puglia R (2019). Italian Accelerometric Archive v 3.0 - Istituto Nazionale di Geofisica e Vulcanologia, Dipartimento della Protezione Civile Nazionale. doi: 10.13127/itaca.3.1
DATA_CREATOR: ITACA working group
ORIGINAL_DATA_MEDIATOR_CITATION: data obtained within the DPC-INGV data exchange agreements
ORIGINAL_DATA_MEDIATOR: Archive of Italian Department of Civil Protection
ORIGINAL_DATA_CREATOR_CITATION: Presidency Of Counsil Of Ministers-Civil Protection Department. (1972). Italian Strong Motion Network. Presidency of Counsil of Ministers - Civil Protection Department. https://doi.org/10.7914/SN/IT http://www.fdsn.org/networks/detail/IT/
ORIGINAL_DATA_CREATOR: network: IT (Italian Strong Motion Network (RAN)); owner: Presidency of Counsil of Ministers - Civil Protection Department (PCM - DPC)
USER1: 
USER2: 
USER3: 
USER4: 
USER5: 
    0.010000     7.568098
    0.020000     7.630895
    0.022000     7.610205
    0.025000     7.675390
    0.029000     7.658947
    0.030000     7.658780
    0.032000     7.673086
    0.035001     7.777321
    0.036000     7.817086
    0.040000     7.891858
    0.041999     7.941406
    0.044001     8.018686
    0.045000     8.064905
    0.046000     8.081452
    0.048001     8.141678
    0.050000     8.157534
    0.054999     8.066800
    0.059999     8.358407
    0.064998     8.403104
    0.067002     8.570135
    0.069999     8.956294
    0.075002     8.657393
    0.080000     9.046523
    0.084998    10.516541
    0.090001    10.240229
    0.095003    11.397428
    0.100000    12.390577
    0.109999    12.531936
    0.120005    14.495724
    0.130005    18.805933
    0.132996    19.488724
    0.139997    20.190104
    0.149993    18.026281
    0.160000    20.685150
    0.170010    19.975542
    0.179986    20.214470
    0.190006    20.654678
    0.200000    18.738979
    0.220022    22.466564
    0.239981    26.541317
    0.250000    28.674341
    0.260010    25.127403
    0.280034    16.363750
    0.290023    14.559635
    0.300030    13.028920
    0.320000    12.759235
    0.340020    14.831120
    0.350017    14.601727
    0.359971    14.865742
    0.379939    15.858169
    0.400000    15.834370
    0.419992    13.887506
    0.439947    13.264682
    0.450045    15.243653
    0.459982    16.019087
    0.480077    14.928155
    0.500000    12.946854
    0.550055    17.116045
    0.599880    13.552371
    0.650195     9.075994
    0.667111     9.173610
    0.699790     9.013442
    0.750188     9.565571
    0.800000    10.154101
    0.850340     9.938015
    0.900090     8.909999
    0.949668     8.334928
    1.000000     9.975755
    1.100110    11.363970
    1.200480    13.736201
    1.300390    14.759571
    1.400560    11.033523
    1.499250     7.828863
    1.600000     5.567933
    1.700680     5.533224
    1.798561     5.167856
    1.901141     4.382057
    2.000000     3.651063
    2.197802     2.480365
    2.398082     2.154228
    2.500000     1.934216
    2.597403     2.245117
    2.801121     1.953456
    3.003003     1.622801
    3.205128     1.788528
    3.401361     1.645710
    3.496503     1.534045
    3.597122     1.392917
    3.802281     1.055017
    4.000000     1.128934
    4.201681     1.115837
    4.405286     1.004629
    4.608295     0.828719
    4.807692     0.636222
    5.000000     0.487700
    5.494505     0.440166
    5.988024     0.329265
    6.493506     0.272096
    6.993007     0.233506
    7.518797     0.190171
    8.000000     0.163314
    8.474576     0.132857
    9.009009     0.105733
    9.523809     0.093871
   10.000000     0.091229
