EVENT_NAME: L_AQUILA
EVENT_ID: IT-2009-0009
EVENT_DATE_YYYYMMDD: 20090406
EVENT_TIME_HHMMSS: 013240
EVENT_LATITUDE_DEGREE: 42.3420
EVENT_LONGITUDE_DEGREE: 13.3800
EVENT_DEPTH_KM: 8.3
HYPOCENTER_REFERENCE: INGV-CNT_Seismic_Bulletin
MAGNITUDE_W: 6.1
MAGNITUDE_W_REFERENCE: INGV-CNT_Seismic_Bulletin
MAGNITUDE_L: 
MAGNITUDE_L_REFERENCE: 
FOCAL_MECHANISM: Normal faulting
NETWORK: IT
STATION_CODE: SPC
STATION_NAME: 
STATION_LATITUDE_DEGREE: 42.743469
STATION_LONGITUDE_DEGREE: 12.739693
STATION_ELEVATION_M: 134
LOCATION: 
SENSOR_DEPTH_M: 0.0
VS30_M/S: 
SITE_CLASSIFICATION_EC8: C (inferred from geology)
MORPHOLOGIC_CLASSIFICATION: 
EPICENTRAL_DISTANCE_KM: 69.0
EARTHQUAKE_BACKAZIMUTH_DEGREE: 310.5
DATE_TIME_FIRST_SAMPLE_YYYYMMDD_HHMMSS: 20090406_013239.000
DATE_TIME_FIRST_SAMPLE_PRECISION: seconds
SAMPLING_INTERVAL_S: 0.005000
NDATA: 20000
DURATION_S: 100.000
STREAM: HNE
UNITS: cm/s
INSTRUMENT: sensor = FBA-3 [Kinemetrics] | digitizer = Etna [Kinemetrics]
INSTRUMENT_ANALOG/DIGITAL: D
INSTRUMENTAL_FREQUENCY_HZ: 214.000
INSTRUMENTAL_DAMPING: 0.700000
FULL_SCALE_G: 1.0
N_BIT_DIGITAL_CONVERTER: 18
PGV_CM/S: -0.691554
TIME_PGV_S: 32.230000
BASELINE_CORRECTION: BASELINE REMOVED
FILTER_TYPE: BUTTERWORTH
FILTER_ORDER: 2
LOW_CUT_FREQUENCY_HZ: 0.100
HIGH_CUT_FREQUENCY_HZ: 40.000
LATE/NORMAL_TRIGGERED: NT
DATABASE_VERSION: 0.5
HEADER_FORMAT: DYNA 1.2
DATA_TYPE: VELOCITY
PROCESSING: manual (Paolucci et al., 2011)
DATA_TIMESTAMP_YYYYMMDD_HHMMSS: 20211011_160534.623
DATA_LICENSE: CC-BY3_0-IT (http://creativecommons.org/licenses/by/3.0/deed.en)
DATA_CITATION: Luzi L, Pacor F, Puglia R (2019). Italian Accelerometric Archive v 3.0 - Istituto Nazionale di Geofisica e Vulcanologia, Dipartimento della Protezione Civile Nazionale. doi: 10.13127/itaca.3.1
DATA_CREATOR: ITACA working group
ORIGINAL_DATA_MEDIATOR_CITATION: data obtained within the DPC-INGV data exchange agreements
ORIGINAL_DATA_MEDIATOR: Archive of Italian Department of Civil Protection
ORIGINAL_DATA_CREATOR_CITATION: Presidency Of Counsil Of Ministers-Civil Protection Department. (1972). Italian Strong Motion Network. Presidency of Counsil of Ministers - Civil Protection Department. https://doi.org/10.7914/SN/IT http://www.fdsn.org/networks/detail/IT/
ORIGINAL_DATA_CREATOR: network: IT (Italian Strong Motion Network (RAN)); owner: Presidency of Counsil of Ministers - Civil Protection Department (PCM - DPC)
USER1: 
USER2: 
USER3: 
USER4: 
USER5: 
[...]
-0.164974
-0.160591
-0.155229
-0.149120
-0.142442
-0.135417
-0.128375
-0.121611
-0.115229
-0.109131
-0.103100
-0.096860
-0.090212
-0.083215
-0.076230
-0.069718
-0.063977
-0.059018
-0.054585
-0.050249
-0.045595
-0.040457
-0.035001
-0.029582
-0.024538
-0.020096
-0.016374
-0.013341
-0.010821
-0.008604
-0.006554
-0.004591
-0.002620
-0.000532
0.001797
0.004522
0.007766
0.011473
0.015297
0.018693
0.021089
0.022012
0.021214
0.018811
0.015306
0.011412
0.007793
0.004862
0.002670
0.000865
-0.001223
-0.004313
-0.008899
-0.015070
-0.022439
-0.030145
-0.037055
-0.042134
-0.044756
-0.044730
-0.042133
-0.037166
-0.030049
-0.020940
-0.009942
0.002814
0.017113
0.032667
0.049086
0.065826
0.082203
0.097495
0.110996
0.121973
0.129677
0.133522
0.133290
0.129160
0.121661
0.111640
0.100127
0.088020
0.075819
0.063635
0.051331
0.038675
0.025482
0.011788
-0.002089
-0.015666
-0.028433
-0.039891
-0.049590
-0.057241
-0.062796
-0.066391
-0.068241
-0.068598
-0.067643
-0.065274
-0.061028
-0.054261
-0.044448
-0.031409
-0.015445
0.002640
0.021708
0.040631
0.058580
0.075028
0.089585
0.101891
0.111599
0.118401
0.122118
0.122830
0.120962
0.117179
0.112238
0.106913
0.101947
0.097940
0.095238
0.093978
0.094191
0.095858
0.098869
0.102955
0.107621
0.112175
0.115900
0.118291
0.119159
0.118532
0.116537
0.113358
0.109221
0.104368
0.099061
0.093617
0.088398
0.083751
0.079971
0.077314
0.075947
0.075852
0.076801
0.078519
0.080875
0.083940
0.087899
0.092886
0.098814
0.105268
0.111552
0.116878
0.120509
0.121767
0.119999
0.114647
0.105361
0.092108
0.075271
0.055706
0.034659
0.013509
-0.006484
-0.024305
-0.039257
-0.051046
-0.059828
-0.066118
-0.070625
-0.074046
-0.076886
-0.079380
-0.081629
-0.083841
-0.086431
-0.089909
-0.094689
-0.100962
-0.108623
-0.117274
-0.126362
-0.135370
-0.143895
-0.151581
-0.158073
-0.163035
-0.166179
-0.167308
-0.166408
-0.163714
-0.159649
-0.154647
-0.149053
-0.143202
-0.137527
-0.132579
-0.128977
-0.127306
-0.127943
-0.130934
-0.136014
-0.142772
-0.150758
-0.159494
-0.168521
-0.177511
-0.186307
-0.194817
-0.202910
-0.210442
-0.217305
-0.223391
-0.228481
-0.232193
-0.234013
-0.233389
-0.229925
-0.223608
-0.214849
-0.204343
-0.192883
-0.181241
-0.170046
-0.159665
-0.150215
-0.141709
-0.134204
-0.127886
-0.123113
-0.120374
-0.120092
-0.122332
-0.126658
-0.132252
-0.138162
-0.143537
-0.147788
-0.150647
-0.152069
-0.152053
-0.150537
-0.147406
-0.142559
-0.135957
-0.127682
-0.118003
-0.107353
-0.096174
-0.084800
-0.073514
-0.062671
-0.052725
-0.044218
-0.037736
-0.033816
-0.032818
-0.034892
-0.040073
-0.048280
-0.059242
-0.072497
-0.087498
-0.103695
-0.120560
-0.137655
-0.154676
-0.171392
-0.187486
-0.202492
-0.215873
-0.227125
-0.235827
-0.241681
-0.244562
-0.244524
-0.241763
-0.236609
-0.229569
-0.221283
-0.212320
-0.203010
-0.193485
-0.183756
-0.173749
-0.163406
-0.152841
-0.142320
-0.132086
-0.122255
-0.112898
-0.104132
-0.096084
-0.088809
-0.082308
-0.076537
-0.071319
-0.066290
-0.060980
-0.054915
-0.047638
-0.038742
-0.027962
-0.015211
-0.000544
0.015789
0.033236
0.050973
0.068131
0.084021
0.098212
0.110534
0.121084
0.130128
0.137833
0.144033
0.148256
0.149988
0.148926
0.145090
0.138850
0.130888
0.122048
0.113138
0.104808
0.097430
0.090987
0.085117
0.079336
0.073314
0.067025
0.060759
0.055025
0.050345
0.047047
0.045185
0.044645
0.045280
0.046941
0.049505
0.052987
0.057579
0.063530
0.071031
0.080189
0.090997
0.103255
0.116518
0.130096
0.143096
0.154526
0.163472
0.169289
0.171705
0.170811
0.167020
0.161021
0.153684
0.145862
0.138216
0.131207
0.125108
0.119978
0.115690
0.112111
0.109230
0.107137
0.105930
0.105680
0.106382
0.107842
0.109660
0.111390
0.112735
0.113644
0.114315
0.115149
0.116659
0.119360
0.123741
0.130280
0.139347
0.151018
0.165026
0.180896
0.198077
0.215960
0.233925
0.251465
0.268251
0.284073
0.298747
0.312098
0.323973
0.334256
0.342942
0.350204
0.356337
0.361603
0.366140
0.369995
0.373138
0.375440
0.376705
0.376763
0.375507
0.372852
0.368714
0.363077
0.356013
0.347595
0.337830
0.326701
0.314206
0.300342
0.285134
0.268723
0.251409
0.233558
0.215508
0.197519
0.179754
0.162297
0.145266
0.128917
0.113590
0.099536
0.086828
0.075424
0.065307
0.056563
0.049402
0.044116
0.040954
0.039969
0.040961
0.043559
0.047309
0.051692
0.056152
0.060176
0.063380
0.065541
0.066600
0.066649
0.065837
0.064201
0.061580
0.057693
0.052241
0.044947
0.035606
0.024217
0.011044
-0.003485
-0.018913
-0.034832
-0.050925
-0.067030
-0.083092
-0.099012
-0.114554
-0.129400
-0.143231
-0.155685
-0.166311
-0.174614
-0.180141
-0.182548
-0.181697
-0.177744
-0.171109
-0.162290
-0.151693
-0.139610
-0.126270
-0.111893
-0.096798
-0.081501
-0.066704
-0.053148
-0.041496
-0.032298
-0.025933
-0.022484
-0.021722
-0.023256
-0.026665
-0.031521
-0.037396
-0.043917
-0.050766
-0.057615
-0.064119
-0.069966
-0.074870
-0.078541
-0.080741
-0.081398
-0.080605
-0.078529
-0.075325
-0.071144
-0.066109
-0.060246
-0.053472
-0.045701
-0.036955
-0.027407
-0.017357
-0.007192
0.002722
0.012187
0.021249
0.030128
0.039090
0.048375
0.058048
0.067835
0.077111
0.085126
0.091214
0.094890
0.095926
0.094454
0.090951
0.086083
0.080556
0.075070
0.070231
0.066413
0.063711
0.062047
0.061298
0.061318
0.061980
0.063282
0.065395
0.068580
0.073052
0.078896
0.086077
0.094442
0.103736
0.113651
0.123816
0.133759
0.142919
0.150752
0.156793
0.160654
0.162034
0.160801
0.157024
0.150919
0.142852
0.133397
0.123299
0.113313
0.104057
0.096000
0.089448
0.084499
0.081025
0.078735
0.077231
0.076033
0.074675
0.072863
0.070519
0.067711
0.064645
0.061705
0.059400
0.058235
0.058631
0.060943
0.065456
0.072323
0.081507
0.092791
0.105764
0.119802
0.134157
0.148160
0.161353
0.173488
0.184455
0.194180
0.202487
0.209004
0.213231
0.214737
0.213335
0.209081
0.202242
0.193293
0.182852
0.171537
0.159862
0.148224
0.136898
0.126031
0.115688
0.105954
0.096978
0.088947
0.082058
0.076504
0.072376
0.069531
0.067577
0.065994
0.064263
0.061936
0.058670
0.054236
0.048441
0.040982
0.031447
0.019497
0.005045
-0.011734
-0.030432
-0.050405
-0.070818
-0.090784
-0.109456
-0.126062
-0.139977
-0.150823
-0.158444
-0.162741
-0.163577
-0.160826
-0.154431
-0.144374
-0.130643
-0.113277
-0.092384
-0.068141
-0.040843
-0.011022
0.020521
0.052812
0.084819
0.115500
0.143882
0.169192
0.190926
0.208809
0.222751
0.232861
0.239399
0.242672
0.243008
0.240831
0.236677
0.231106
0.224646
0.217850
0.211348
0.205814
0.201866
0.199967
0.200368
0.203129
0.208173
0.215275
0.223998
0.233672
0.243525
0.252872
0.261237
0.268383
0.274288
0.279097
0.283032
0.286231
0.288675
0.290281
0.290998
0.290786
0.289627
0.287566
0.284690
0.281036
0.276590
0.271345
0.265285
0.258299
0.250203
0.240897
0.230491
0.219264
0.207614
0.195994
0.184779
0.174118
0.163953
0.154242
0.145100
0.136661
0.129016
0.122266
0.116434
0.111349
0.106688
0.102079
0.097167
0.091633
0.085194
0.077603
0.068647
0.058145
0.045938
0.031920
0.016023
-0.001812
-0.021613
-0.043290
-0.066603
-0.091225
-0.116785
-0.142871
-0.169038
-0.194826
-0.219712
-0.243049
-0.264085
-0.282123
-0.296626
-0.307187
-0.313523
-0.315553
-0.313473
-0.307767
-0.299201
-0.288772
-0.277586
-0.266676
-0.256877
-0.248801
-0.242800
-0.238969
-0.237213
-0.237325
-0.239036
-0.242055
-0.246155
-0.251245
-0.257336
-0.264434
-0.272506
-0.281475
-0.291168
-0.301225
-0.311093
-0.320107
-0.327573
-0.332815
-0.335288
-0.334683
-0.330870
-0.323816
-0.313625
-0.300660
-0.285579
-0.269236
-0.252536
-0.236322
-0.221266
-0.207767
-0.195977
-0.185932
-0.177656
-0.171141
-0.166337
-0.163190
-0.161659
-0.161688
-0.163226
-0.166256
-0.170762
-0.176614
-0.183523
-0.191152
-0.199214
-0.207444
-0.215598
-0.223539
-0.231285
-0.238979
-0.246858
-0.255233
-0.264406
-0.274587
-0.285873
-0.298230
-0.311434
-0.325061
-0.338612
-0.351687
-0.364060
-0.375627
-0.386355
-0.396240
-0.405236
-0.413172
-0.419791
-0.424887
-0.428388
-0.430336
-0.430839
-0.430085
-0.428330
-0.425810
-0.422716
-0.419291
-0.415881
-0.412853
-0.410482
-0.408951
-0.408380
-0.408811
-0.410254
-0.412775
-0.416544
-0.421815
-0.428887
-0.437991
-0.449162
-0.462158
-0.476514
-0.491679
-0.507066
-0.521970
-0.535562
-0.547032
-0.555700
-0.561012
-0.562559
-0.560113
-0.553567
-0.542843
-0.527907
-0.508893
-0.486090
-0.459816
-0.430384
-0.398235
-0.363996
-0.328370
-0.292036
-0.255597
-0.219499
-0.184052
-0.149687
-0.117061
-0.086766
-0.059099
-0.034265
-0.012631
0.005371
0.019523
0.029967
0.037213
0.042038
0.045257
0.047605
0.049755
0.052204
0.055177
0.058756
0.062931
0.067547
0.072365
0.077146
0.081674
0.085747
0.089276
0.092321
0.094943
0.097077
0.098594
0.099424
0.099552
0.098992
0.097868
0.096412
0.094792
0.092990
0.090888
0.088422
0.085598
0.082495
0.079328
0.076447
0.074258
0.073165
0.073578
0.075854
0.080139
0.086290
0.093991
0.102880
0.112580
0.122722
0.133036
0.143381
0.153642
0.163667
0.173341
0.182597
0.191367
0.199608
0.207403
0.214932
0.222325
0.229613
0.236760
0.243635
0.249963
0.255441
0.259934
0.263513
0.266351
0.268630
0.270491
0.271960
0.272858
0.272853
0.271631
0.269009
0.264904
0.259304
0.252317
0.244142
0.234945
0.224771
0.213587
0.201399
0.188349
0.174749
0.161076
0.147904
0.135767
0.125078
0.116058
0.108661
0.102556
0.097265
0.092374
0.087612
0.082760
0.077592
0.071999
0.066056
0.059852
0.053346
0.046439
0.039074
0.031223
0.022882
0.014086
0.004889
-0.004631
-0.014291
-0.023739
-0.032552
-0.040386
-0.047024
-0.052337
-0.056296
-0.059008
-0.060683
-0.061575
-0.061955
-0.062108
-0.062317
-0.062810
-0.063752
-0.065286
-0.067516
-0.070420
-0.073786
-0.077252
-0.080380
-0.082760
-0.084204
-0.084853
-0.085042
-0.085020
-0.084826
-0.084323
-0.083222
-0.081075
-0.077387
-0.071791
-0.064162
-0.054607
-0.043393
-0.030878
-0.017443
-0.003452
0.010714
0.024609
0.037756
0.049656
0.059765
0.067500
0.072335
0.073943
0.072244
0.067323
0.059409
0.048914
0.036398
0.022431
0.007501
-0.007974
-0.023615
-0.039105
-0.054180
-0.068552
-0.081881
-0.093860
-0.104284
-0.113070
-0.120279
-0.126147
-0.131058
-0.135465
-0.139854
-0.144762
-0.150764
-0.158407
-0.168147
-0.180339
-0.195195
-0.212710
-0.232654
-0.254696
-0.278521
-0.303864
-0.330487
-0.358120
-0.386368
-0.414654
-0.442282
-0.468579
-0.492971
-0.514983
-0.534271
-0.550678
-0.564153
-0.574637
-0.582116
-0.586768
-0.588944
-0.589039
-0.587440
-0.584592
-0.580989
-0.577025
-0.572889
-0.568597
-0.564076
-0.559194
-0.553743
-0.547441
-0.539982
-0.531153
-0.520939
-0.509535
-0.497241
-0.484331
-0.471019
-0.457537
-0.444159
-0.431094
-0.418447
-0.406337
-0.394923
-0.384295
-0.374444
-0.365345
-0.356981
-0.349312
-0.342264
-0.335745
-0.329666
-0.323931
-0.318431
-0.313036
-0.307540
-0.301622
-0.294916
-0.287112
-0.277974
-0.267320
-0.255058
-0.241256
-0.226109
-0.209823
-0.192582
-0.174590
-0.156068
-0.137173
-0.117969
-0.098484
-0.078762
-0.058847
-0.038778
-0.018617
0.001557
0.021701
0.041817
0.061859
0.081707
0.101219
0.120223
0.138503
0.155876
0.172300
0.187811
0.202352
0.215736
0.227740
0.238132
0.246615
0.252891
0.256815
0.258409
0.257796
0.255211
0.251057
0.245857
0.240122
0.234301
0.228807
0.223986
0.220050
0.217095
0.215225
0.214539
0.215049
0.216819
0.220006
0.224632
0.230586
0.237751
0.246065
0.255551
0.266242
0.278136
0.291226
0.305514
0.320970
0.337521
0.355140
0.373857
0.393664
0.414435
0.435935
0.457874
0.479957
0.501945
0.523677
0.544986
0.565603
0.585180
0.603373
0.619892
0.634458
0.646785
0.656638
0.663876
0.668450
0.670405
0.669787
0.666494
0.660270
0.650891
0.638359
0.622907
0.604839
0.584494
0.562376
0.539223
0.515896
0.493256
0.472113
0.453149
0.436837
0.423517
0.413491
0.407007
0.404199
0.405090
0.409605
0.417505
0.428324
0.441427
0.456112
0.471647
0.487307
0.502477
0.516738
0.529873
0.541791
0.552532
0.562357
0.571688
0.580878
0.590064
0.599185
0.608017
0.616175
0.623243
0.628996
0.633452
0.636734
0.638967
0.640254
0.640599
0.639823
0.637626
0.633771
0.628128
0.620640
0.611301
0.600150
0.587226
0.572503
0.555939
0.537638
0.517904
0.497088
0.475417
0.452964
0.429698
0.405533
0.380445
0.354628
0.328574
0.302964
0.278520
0.255912
0.235682
0.218166
0.203484
0.191576
0.182233
0.175107
0.169732
0.165560
0.161947
0.158175
0.153558
0.147555
0.139772
0.129874
0.117593
0.102818
0.085638
0.066299
0.045149
0.022613
-0.000891
-0.025069
-0.049795
-0.075087
-0.101043
-0.127805
-0.155480
-0.184067
-0.213476
-0.243623
-0.274456
-0.305877
-0.337689
-0.369664
-0.401579
-0.433159
-0.464084
-0.494075
-0.522920
-0.550402
-0.576270
-0.600262
-0.622117
-0.641539
-0.658194
-0.671772
-0.682011
-0.688672
-0.691554
-0.690580
-0.685836
-0.677550
-0.666071
-0.651876
-0.635523
-0.617550
-0.598404
-0.578485
-0.558225
-0.538013
-0.518096
-0.498596
-0.479592
-0.461115
-0.443127
-0.425546
-0.408263
-0.391160
-0.374163
-0.357260
-0.340473
-0.323806
-0.307281
-0.290985
-0.275011
-0.259357
-0.243959
-0.228800
-0.213908
-0.199296
-0.184999
-0.171209
-0.158286
-0.146642
-0.136638
-0.128596
-0.122766
-0.119241
-0.118038
-0.119196
-0.122653
-0.128281
-0.136011
-0.145712
-0.157112
-0.169784
-0.183125
-0.196447
-0.209004
-0.219859
-0.227952
-0.232405
-0.232664
-0.228380
-0.219344
-0.205533
-0.187088
-0.164236
-0.137309
-0.106815
-0.073401
-0.037766
-0.000660
0.037114
0.074749
0.111475
0.146569
0.179340
0.209177
0.235629
0.258436
0.277522
0.293022
0.305314
0.314941
0.322437
0.328239
0.332654
0.335757
0.337383
0.337342
0.335635
0.332376
0.327584
0.321213
0.313323
0.304082
0.293689
0.282447
0.270761
0.259010
0.247495
0.236486
0.226204
0.216744
0.208097
0.200289
0.193480
0.187918
0.183845
0.181467
0.181022
0.182748
0.186731
0.192836
0.200775
0.210133
0.220363
0.230890
0.241280
0.251259
0.260522
0.268618
0.275050
0.279382
0.281191
0.280067
0.275724
0.268039
0.257020
0.242877
0.226081
0.207267
0.187082
0.166163
0.145227
0.125031
0.106220
0.089319
0.074874
0.063422
0.055310
0.050683
0.049585
0.051894
0.057196
0.064875
0.074276
0.084690
0.095316
0.105373
0.114225
0.121395
0.126564
0.129596
0.130476
0.129200
0.125855
0.120830
0.114884
0.108890
0.103526
0.099247
0.096433
0.095432
0.096434
0.099348
0.103867
0.109628
0.116309
0.123573
0.131011
0.138165
0.144602
0.149977
0.154070
0.156715
0.157764
0.157135
0.154838
0.150877
0.145145
0.137492
0.127903
0.116548
0.103655
0.089482
0.074502
0.059456
0.045090
0.031904
0.020135
0.009816
0.000779
-0.007258
-0.014558
-0.021320
-0.027739
-0.033985
-0.040108
-0.046093
-0.051975
-0.057838
-0.063750
-0.069795
-0.076091
-0.082682
-0.089444
-0.096201
-0.102873
-0.109420
-0.115737
-0.121664
-0.127125
-0.132156
-0.136792
-0.140994
-0.144734
-0.148037
-0.150914
-0.153364
-0.155476
-0.157455
-0.159485
-0.161527
-0.163295
-0.164448
-0.164791
-0.164339
-0.163295
-0.161938
-0.160503
-0.159204
-0.158297
-0.157985
-0.158267
-0.158955
-0.159825
-0.160677
-0.161308
-0.161549
-0.161381
-0.160984
-0.160615
-0.160496
-0.160790
-0.161584
-0.162912
-0.164814
-0.167323
-0.170401
-0.173999
-0.178175
-0.183125
-0.189018
-0.195777
-0.203147
-0.210969
-0.219164
-0.227593
-0.236138
-0.244788
-0.253547
-0.262401
-0.271372
-0.280573
-0.290132
-0.300063
-0.310311
-0.320831
-0.331526
-0.342214
-0.352704
-0.362863
-0.372641
-0.382029
-0.391038
-0.399703
-0.408112
-0.416400
-0.424717
-0.433146
-0.441616
-0.449871
-0.457558
-0.464290
-0.469630
-0.473125
-0.474410
-0.473272
-0.469619
-0.463346
-0.454293
-0.442347
-0.427538
-0.410073
-0.390319
-0.368801
-0.346173
-0.323125
-0.300317
-0.278342
-0.257640
-0.238498
-0.221189
-0.206046
-0.193348
-0.183241
-0.175801
-0.171040
-0.168756
-0.168395
-0.169133
-0.170151
-0.170770
-0.170390
-0.168486
-0.164702
-0.158861
-0.150896
-0.140758
-0.128375
-0.113697
-0.096824
-0.078082
-0.057923
-0.036725
-0.014780
0.007523
0.029699
0.051374
0.072342
0.092388
0.111113
0.128061
0.142892
0.155332
0.165144
0.172258
0.176876
0.179394
0.180254
0.179895
0.178798
0.177507
0.176552
0.176289
0.176882
0.178472
0.181271
0.185464
0.191154
0.198398
0.207250
0.217760
0.229908
0.243508
0.258244
0.273788
0.289734
0.305449
0.320160
0.333280
0.344579
0.353958
0.361151
0.365792
0.367706
0.366977
0.363805
0.358412
0.351122
0.342512
0.333395
0.324575
0.316633
0.309946
0.304773
0.301192
0.299146
0.298647
0.299737
0.302377
0.306503
0.311951
0.318367
0.325320
0.332427
0.339318
0.345569
0.350878
0.355251
0.358895
0.361953
0.364413
0.366291
0.367748
0.369029
0.370454
0.372374
0.375079
0.378777
0.383675
0.390044
0.398142
0.408088
0.419936
0.433789
0.449698
0.467431
0.486432
0.506006
0.525425
0.543892
0.560571
0.574722
0.585833
0.593651
0.598134
0.599377
0.597527
0.592740
0.585252
0.575437
0.563725
0.550458
0.535859
0.520153
0.503601
0.486468
0.469045
0.451602
0.434284
0.417093
0.399964
0.382774
0.365281
0.347143
0.328035
0.307738
0.286145
0.263220
0.239004
0.213626
0.187286
0.160212
0.132638
0.104795
0.076927
0.049297
0.022222
-0.003894
-0.028683
-0.051983
-0.073820
-0.094219
-0.113125
-0.130495
-0.146273
-0.160271
-0.172280
-0.182281
-0.190460
-0.197097
-0.202500
-0.207037
-0.211112
-0.215036
-0.218955
-0.222838
-0.226554
-0.230018
-0.233261
-0.236408
-0.239632
-0.243116
-0.247050
-0.251543
-0.256508
-0.261624
-0.266465
-0.270689
-0.274139
-0.276805
-0.278662
-0.279552
-0.279245
-0.277589
-0.274588
-0.270399
-0.265248
-0.259335
-0.252842
-0.246007
-0.239149
-0.232615
-0.226749
-0.221968
-0.218711
-0.217244
-0.217642
-0.219918
-0.224051
-0.229899
-0.237209
-0.245731
-0.255281
-0.265700
-0.276844
-0.288601
-0.300843
-0.313388
-0.326011
-0.338530
-0.350815
-0.362710
-0.373978
-0.384312
-0.393434
-0.401229
-0.407758
-0.413100
-0.417110
-0.419470
-0.419941
-0.418481
-0.415221
-0.410385
-0.404262
-0.397300
-0.390034
-0.382895
-0.376151
-0.370021
-0.364692
-0.360187
-0.356316
-0.352816
-0.349456
-0.345983
-0.342115
-0.337596
-0.332237
-0.325974
-0.318895
-0.311145
-0.302810
-0.293958
-0.284762
-0.275487
-0.266249
-0.256808
-0.246732
-0.235716
-0.223718
-0.210934
-0.197702
-0.184282
-0.170725
-0.157057
