EVENT_NAME: L_AQUILA
EVENT_ID: IT-2009-0009
EVENT_DATE_YYYYMMDD: 20090406
EVENT_TIME_HHMMSS: 013240
EVENT_LATITUDE_DEGREE: 42.3420
EVENT_LONGITUDE_DEGREE: 13.3800
EVENT_DEPTH_KM: 8.3
HYPOCENTER_REFERENCE: INGV-CNT_Seismic_Bulletin
MAGNITUDE_W: 6.1
MAGNITUDE_W_REFERENCE: INGV-CNT_Seismic_Bulletin
MAGNITUDE_L: 
MAGNITUDE_L_REFERENCE: 
FOCAL_MECHANISM: Normal faulting
NETWORK: IT
STATION_CODE: SPC
STATION_NAME: 
STATION_LATITUDE_DEGREE: 42.743469
STATION_LONGITUDE_DEGREE: 12.739693
STATION_ELEVATION_M: 134
LOCATION: 
SENSOR_DEPTH_M: 0.0
VS30_M/S: 
SITE_CLASSIFICATION_EC8: C (inferred from geology)
MORPHOLOGIC_CLASSIFICATION: 
EPICENTRAL_DISTANCE_KM: 69.0
EARTHQUAKE_BACKAZIMUTH_DEGREE: 310.5
DATE_TIME_FIRST_SAMPLE_YYYYMMDD_HHMMSS: 20090406_013241.000
DATE_TIME_FIRST_SAMPLE_PRECISION: seconds
SAMPLING_INTERVAL_S: 0.005000
NDATA: 19800
DURATION_S: 99.000
STREAM: HNE
UNITS: cm/s^2
INSTRUMENT: sensor = FBA-3 [Kinemetrics] | digitizer = Etna [Kinemetrics]
INSTRUMENT_ANALOG/DIGITAL: D
INSTRUMENTAL_FREQUENCY_HZ: 214.000
INSTRUMENTAL_DAMPING: 0.700000
FULL_SCALE_G: 1.0
N_BIT_DIGITAL_CONVERTER: 18
PGA_CM/S^2: 7.571591
TIME_PGA_S: 30.560000
BASELINE_CORRECTION: BASELINE NOT REMOVED
FILTER_TYPE: 
FILTER_ORDER: 
LOW_CUT_FREQUENCY_HZ: 
HIGH_CUT_FREQUENCY_HZ: 
LATE/NORMAL_TRIGGERED: NT
DATABASE_VERSION: 0.5
HEADER_FORMAT: DYNA 1.2
DATA_TYPE: ACCELERATION
PROCESSING: converted to cm/s^2
DATA_TIMESTAMP_YYYYMMDD_HHMMSS: 20211011_160534.210
DATA_LICENSE: CC-BY3_0-IT (http://creativecommons.org/licenses/by/3.0/deed.en)
DATA_CITATION: Luzi L, Pacor F, Puglia R (2019). Italian Accelerometric Archive v 3.0 - Istituto Nazionale di Geofisica e Vulcanologia, Dipartimento della Protezione Civile Nazionale. doi: 10.13127/itaca.3.1
DATA_CREATOR: ITACA working group
ORIGINAL_DATA_MEDIATOR_CITATION: data obtained within the DPC-INGV data exchange agreements
ORIGINAL_DATA_MEDIATOR: Archive of Italian Department of Civil Protection
ORIGINAL_DATA_CREATOR_CITATION: Presidency Of Counsil Of Ministers-Civil Protection Department. (1972). Italian Strong Motion Network. Presidency of Counsil of Ministers - Civil Protection Department. https://doi.org/10.7914/SN/IT http://www.fdsn.org/networks/detail/IT/
ORIGINAL_DATA_CREATOR: network: IT (Italian Strong Motion Network (RAN)); owner: Presidency of Counsil of Ministers - Civil Protection Department (PCM - DPC)
USER1: 
USER2: 
USER3: 
USER4: 
USER5: 
[...]
2.686277
2.208017
1.560354
0.756157
-0.059505
-0.819011
-1.502707
-2.032209
-2.327260
-2.414770
-2.429276
-2.436998
-2.462268
-2.519360
-2.629799
-2.761297
-2.784930
-2.714735
-2.554223
-2.298246
-1.961780
-1.517214
-1.103065
-0.730098
-0.370467
-0.055995
0.205831
0.446365
0.834074
1.341347
1.953444
2.608127
3.183255
3.648178
3.831152
3.774060
3.572835
3.280591
2.918387
2.452060
1.945957
1.365915
0.753584
0.133297
-0.396673
-0.746944
-0.992158
-1.071946
-1.007133
-0.799122
-0.524193
-0.260729
0.044383
0.325864
0.594944
0.816291
0.937962
0.928836
0.753116
0.463680
0.157865
-0.114256
-0.405798
-0.639780
-0.824159
-0.973907
-1.051589
-1.105171
-1.042698
-0.923835
-0.761451
-0.534021
-0.291615
0.002969
0.202790
0.339669
0.469997
0.598219
0.789851
0.982652
1.188323
1.305314
1.268812
1.058462
0.714275
0.265497
-0.353854
-1.061416
-1.858360
-2.641030
-3.363567
-3.939866
-4.215731
-4.237257
-3.991108
-3.573917
-2.996917
-2.347149
-1.751430
-1.244157
-0.898331
-0.667858
-0.579647
-0.521151
-0.452595
-0.435046
-0.497519
-0.699212
-0.949573
-1.249070
-1.539442
-1.745112
-1.824666
-1.782316
-1.705335
-1.542016
-1.294463
-0.992158
-0.633229
-0.232417
0.182667
0.554231
0.827054
0.987566
1.107599
1.180133
1.135443
0.990140
0.736971
0.342477
-0.124084
-0.612873
-1.025617
-1.334474
-1.601915
-1.754004
-1.810627
-1.785825
-1.742071
-1.711887
-1.621102
-1.502707
-1.359510
-1.211633
-1.023277
-0.738287
-0.369297
0.104751
0.691578
1.283553
1.761345
2.104363
2.298100
2.342089
2.242178
2.064352
1.883484
1.704019
1.501391
1.260155
0.967677
0.572949
0.070590
-0.458210
-0.879144
-1.123422
-1.185427
-1.080369
-0.841473
-0.549229
-0.282724
0.006712
0.300360
0.624659
0.979610
1.307186
1.661201
1.948531
2.146714
2.233521
2.255281
2.274468
2.167538
1.991349
1.709869
1.306952
0.798508
0.181029
-0.412584
-1.012748
-1.643330
-2.201612
-2.646178
-2.997385
-3.235345
-3.379478
-3.414576
-3.379712
-3.338999
-3.222476
-3.006042
-2.670512
-2.246302
-1.742773
-1.167644
-0.568884
0.017008
0.547445
1.026407
1.432366
1.681323
1.777022
1.858916
1.920453
1.943617
1.986436
2.071137
2.140396
2.113488
2.041422
1.955550
1.885823
1.768832
1.603407
1.456934
1.309525
1.174752
1.032490
0.998563
1.077883
1.215464
1.450617
1.776554
2.175727
2.550801
2.921429
3.270062
3.511766
3.570261
3.428468
3.182085
2.846087
2.469609
2.098981
1.786849
1.551463
1.268111
0.859577
0.355580
-0.212997
-0.757240
-1.246028
-1.616656
-1.749558
-1.785825
-1.676790
-1.462228
-1.281360
-1.136525
-1.157349
-1.199700
-1.248602
-1.269895
-1.146118
-0.944659
-0.643524
-0.348941
-0.112852
0.124171
0.356750
0.522409
0.684091
0.917839
1.196512
1.511920
1.821712
2.164964
2.463058
2.649776
2.729329
2.609765
2.305120
1.798548
1.162818
0.487546
-0.179772
-0.744371
-1.213271
-1.479777
-1.546462
-1.521191
-1.404200
-1.220056
-1.003857
-0.838665
-0.721206
-0.580583
-0.409776
-0.233587
-0.057867
0.135871
0.315335
0.382254
0.347858
0.276728
0.182901
0.137976
0.161375
0.303636
0.558442
0.875488
1.294550
1.809779
2.361509
2.812393
3.170854
3.442741
3.588980
3.610740
3.498897
3.354998
3.173428
2.941317
2.671770
2.381866
2.075115
1.737245
1.443363
1.222016
1.072735
0.912223
0.765283
0.640102
0.469295
0.267369
0.004139
-0.249966
-0.514132
-0.820415
-1.131377
-1.418005
-1.667664
-1.944465
-2.227116
-2.496663
-2.756851
-3.028271
-3.291735
-3.464882
-3.558475
-3.610419
-3.597082
-3.536948
-3.476815
-3.402642
-3.283545
-3.065942
-2.797565
-2.528485
-2.268999
-2.026125
-1.737391
-1.433448
-1.069372
-0.627146
-0.186557
0.214021
0.518432
0.751946
0.890229
0.901460
0.809271
0.642676
0.441685
0.214021
-0.000073
-0.166902
-0.311737
-0.507580
-0.779000
-1.089494
-1.437660
-1.856722
-2.284909
-2.639392
-2.902389
-3.074833
-3.192059
-3.213351
-3.199312
-3.201184
-3.183869
-3.121864
-2.948717
-2.755214
-2.496897
-2.119718
-1.662049
-1.098152
-0.489330
0.172138
0.813951
1.344155
1.762983
2.117232
2.426322
2.664282
2.871591
3.021339
3.076325
2.976649
2.706399
2.333198
1.861489
1.283085
0.674498
0.148740
-0.293955
-0.675580
-0.975077
-1.172792
-1.286039
-1.364657
-1.377526
-1.291421
-1.155711
-0.981629
-0.741329
-0.436216
-0.114023
0.167224
0.415479
0.642676
0.850452
1.016580
1.164924
1.353046
1.557781
1.759005
1.912030
2.017322
2.051249
1.992987
1.892843
1.800186
1.789189
1.794804
1.835985
1.942447
1.978714
1.877166
1.602003
1.220378
0.756859
0.211681
-0.305186
-0.705530
-0.961974
-1.101895
-1.105405
-0.971099
-0.745073
-0.521620
-0.338411
-0.146780
0.024729
0.138444
0.258009
0.421563
0.629573
0.912925
1.169838
1.432834
1.694894
1.855406
1.984096
2.036274
2.001177
1.846514
1.561290
1.210785
0.788447
0.286087
-0.256284
-0.748114
-1.206017
-1.607531
-1.899541
-2.028699
-1.981668
-1.844321
-1.615954
-1.306396
-0.978821
-0.683067
-0.459380
-0.297698
-0.211125
-0.266345
-0.376785
-0.455637
-0.549931
-0.611469
-0.592984
-0.463826
-0.219081
0.087436
0.458298
0.902630
1.385336
1.841835
2.253175
2.602043
2.829708
2.886799
2.795078
2.642522
2.431704
2.185789
1.944085
1.667284
1.324032
0.864959
0.300594
-0.286935
-0.832816
-1.363253
-1.804076
-2.080409
-2.259873
-2.324920
-2.326324
-2.263149
-2.151773
-2.064030
-1.946337
-1.793781
-1.592556
-1.377760
-1.123188
-0.816437
-0.556015
-0.374913
-0.313843
-0.339815
-0.454701
-0.652883
-0.892247
-1.164837
-1.463398
-1.887140
-2.393711
-2.891157
-3.342275
-3.729750
-4.009593
-4.075575
-3.984322
-3.730685
-3.326364
-2.782356
-2.139606
-1.516278
-0.858788
-0.172752
0.564292
1.294784
2.001177
2.755769
3.482518
4.183997
4.842189
5.458264
5.984022
6.320723
6.459942
6.408232
6.152489
5.690140
5.059792
4.341701
3.599041
2.788527
2.014982
1.315609
0.666074
0.085798
-0.448383
-0.826732
-1.098152
-1.281360
-1.355298
-1.301950
-1.100258
-0.793741
-0.364383
0.086500
0.563356
1.008858
1.413179
1.770938
1.947127
1.983628
1.876932
1.675707
1.432132
1.193236
0.952703
0.779088
0.669584
0.497373
0.325396
0.139614
-0.015750
-0.229142
-0.424985
-0.552739
-0.730566
-0.866041
-1.065628
-1.204848
-1.366295
-1.615018
-1.844789
-2.104275
-2.203718
-2.351594
-2.328898
-2.215417
-2.152476
-1.940488
-2.014894
-1.817881
-1.618762
-1.595832
-1.301248
-1.188469
-0.979523
-0.928047
-0.927345
-0.944659
-1.141204
-1.235967
-1.543420
-1.771084
-2.084621
-2.448931
-2.777676
-3.199078
-3.522207
-3.969113
-4.322426
-4.663339
-4.913465
-5.091058
-5.236127
-5.193074
-5.168506
-4.945755
-4.678313
-4.220878
-3.563622
-2.911748
-2.096554
-1.271299
-0.392227
0.426944
1.145504
1.729757
2.105533
2.259259
2.174324
1.984564
1.620020
1.205871
0.772302
0.353708
-0.000775
-0.348941
-0.593452
-0.813161
-0.994263
-1.203678
-1.425727
-1.588578
-1.783018
-1.922705
-2.009044
-1.974415
-1.778338
-1.494518
-1.053227
-0.471313
0.141486
0.769026
1.409202
2.043528
2.616082
3.033038
3.282931
3.353126
3.261873
3.027891
2.691658
2.362679
2.030425
1.667518
1.307420
0.970485
0.649227
0.314165
0.001799
-0.295827
-0.587135
-0.872125
-1.180747
-1.379164
-1.497091
-1.602617
-1.641692
-1.626717
-1.563776
-1.536868
-1.535230
-1.549971
-1.658773
-1.825602
-2.021914
-2.243495
-2.447761
-2.638222
-2.730645
-2.693442
-2.600317
-2.452207
-2.307138
-2.128375
-1.950081
-1.791675
-1.582495
-1.321371
-0.995433
-0.681897
-0.381230
-0.091794
0.176584
0.372661
0.499947
0.630275
0.704213
0.713105
0.610854
0.478421
0.338265
0.118322
-0.079861
-0.272662
-0.488862
-0.738989
-1.036146
-1.386418
-1.806182
-2.217055
-2.595170
-2.871737
-2.993174
-3.057753
-2.990366
-2.701866
-2.273678
-1.717503
-1.053227
-0.297231
0.527557
1.319353
2.141332
3.008236
3.828578
4.591594
5.243234
5.895576
6.470237
6.857711
7.145744
7.278646
7.329654
7.204005
7.069933
6.943349
6.561958
6.052345
5.504358
5.022121
4.351996
3.626417
2.846087
2.092430
1.487820
0.902396
0.752648
0.444259
0.393719
0.609684
0.538086
0.767857
0.836881
0.952703
0.998329
0.927666
0.977739
0.808335
0.728079
0.603835
0.546041
0.478654
0.294511
0.187113
0.047659
-0.073778
-0.238033
-0.282022
-0.290445
-0.331860
-0.398077
-0.499391
-0.512962
-0.613808
-0.625040
-0.550633
-0.429196
-0.180707
0.074333
0.464850
0.898185
1.251966
1.558014
1.792933
1.966079
2.060374
2.064586
2.075115
2.095237
2.020831
1.941511
1.874124
1.785211
1.674304
1.550761
1.527597
1.514494
1.467463
1.439152
1.400076
1.311631
1.110874
0.904970
0.735099
0.586988
0.475613
0.379446
0.314399
0.216360
0.030579
-0.236629
-0.512026
-0.783446
-1.102831
-1.392033
-1.614550
-1.822093
-2.000855
-2.208631
-2.426937
-2.578557
-2.703270
-2.728774
-2.613420
-2.402837
-2.128375
-1.786995
-1.448657
-1.187533
-1.024213
-0.975077
-0.944191
-0.931088
-0.994030
-1.124358
-1.186597
-1.196190
-1.274106
-1.368635
-1.457080
-1.533359
-1.657603
-1.743942
-1.801502
-1.883396
-1.907496
-1.892755
-1.736455
-1.534294
-1.312245
-1.045506
-0.770810
-0.503603
-0.330924
-0.140462
-0.067226
-0.002881
-0.003115
-0.111449
-0.136017
-0.303314
-0.400651
-0.567012
-0.671602
-0.638611
-0.652182
-0.439258
-0.275236
-0.076819
-0.000073
-0.007561
0.083459
0.113876
0.251224
0.422499
0.765517
1.141994
1.546549
1.952976
2.241009
2.558756
2.686979
2.815201
2.873229
2.786889
2.663814
2.385142
2.060374
1.574627
0.997159
0.334989
-0.333264
-0.930620
-1.577815
-2.079941
-2.488006
-2.770890
-2.946143
-3.088638
-3.103613
-3.064772
-2.986388
-2.865419
-2.644540
-2.368675
-2.066604
-1.732243
-1.427365
-1.134419
-0.959400
-0.869317
-0.845217
-0.963846
-1.164135
-1.511364
-1.931362
-2.396051
-2.953397
-3.485472
-3.979643
-4.377178
-4.743126
-5.046835
-5.286433
-5.509418
-5.614243
-5.659401
-5.500761
-5.226300
-4.863627
-4.377178
-3.849782
-3.215457
-2.692740
-2.096086
-1.451465
-0.914944
-0.385208
-0.023471
0.340371
0.620448
0.737439
0.820971
0.836413
0.884146
0.931644
1.000435
1.110173
1.280511
1.506538
1.783339
2.083304
2.302312
2.496283
2.591514
2.672238
2.745708
2.700550
2.620996
2.539336
2.477097
2.301610
2.128229
2.009600
1.835985
1.702147
1.554973
1.429558
1.329414
1.242372
1.167030
1.121638
1.123276
1.102217
1.204935
1.366383
1.582817
1.863595
2.127293
2.487860
2.796248
3.049885
3.276848
3.463799
3.638818
3.726094
3.796522
3.856656
3.928722
3.968031
3.999385
4.039162
4.056710
4.071451
4.029335
4.048053
4.044543
3.986516
3.921001
3.822494
3.704801
3.484624
3.289483
3.125929
2.941551
2.711313
2.396373
2.112786
1.739117
1.271152
0.799678
0.336861
-0.077053
-0.510856
-0.810119
-1.029829
-1.108915
-1.137929
-1.107979
-0.904180
-0.803568
-0.497753
-0.435280
-0.093900
0.233675
0.181731
0.808335
0.897951
1.185749
1.550059
1.561290
2.019427
2.093600
2.434278
2.647670
2.822922
3.193550
3.275678
3.570729
3.745280
3.982538
4.195930
4.301924
4.426870
4.436697
4.418447
4.342871
4.307539
4.131819
3.952121
3.659409
3.293226
2.979924
2.458846
1.999071
1.476121
0.925092
0.404248
-0.117064
-0.607491
-1.226140
-1.836833
-2.517020
-3.076939
-3.561049
-4.057559
-4.400342
-4.637600
-4.623094
-4.515930
-4.230472
-3.748702
-3.241897
-2.641264
-2.000153
-1.268491
-0.539636
0.194834
0.911288
1.599663
2.209655
2.618422
2.964949
3.132715
3.152603
3.062520
2.852872
2.647436
2.416027
2.173856
1.952976
1.877868
1.871083
1.854938
1.839495
1.778660
1.686003
1.430494
1.145738
0.912925
0.672626
0.473507
0.248884
0.095626
-0.108641
-0.436216
-0.750688
-1.115700
-1.474161
-1.852510
-2.221734
-2.565922
-2.915257
-3.275356
-3.672190
-3.937292
-4.137815
-4.320086
-4.465858
-4.639238
-4.801388
-4.987872
-5.161721
-5.206177
-5.097610
-4.880474
-4.508910
-4.027843
-3.486174
-2.910812
-2.374993
-1.846427
-1.404200
-1.064224
-0.819011
-0.703424
-0.721206
-0.912838
-1.196424
-1.538740
-1.955462
-2.431616
-2.952461
-3.421127
-3.843933
-4.225324
-4.495574
-4.689545
-4.817065
-4.921421
-5.047771
-5.172250
-5.326444
-5.521585
-5.713217
-5.870219
-6.004759
-6.140702
-6.283432
-6.354562
-6.362751
-6.370239
-6.312913
-6.173226
-5.969895
-5.753930
-5.489296
-5.155871
-4.783606
-4.348165
-3.882540
-3.317239
-2.693208
-2.035250
-1.322541
-0.573564
0.225486
0.955744
1.668922
2.316819
2.847023
3.307967
3.593426
3.829280
4.012488
4.071218
4.059986
3.975051
3.924745
3.823664
3.690996
3.622439
3.526273
3.465671
3.432914
3.412557
3.403198
3.369271
3.331834
3.325282
3.289483
3.199868
3.130609
3.092470
3.062286
2.982264
2.925874
2.860593
2.796248
2.595959
2.335537
2.016620
1.613936
1.229269
0.607579
0.350198
-0.215805
-0.800292
-0.955657
-1.637949
-1.891117
-2.241857
-2.577387
-2.615994
-2.685019
-2.427639
-2.258235
-1.583665
-0.847323
-0.069800
0.897717
1.777022
2.825262
3.671342
4.581767
5.395791
6.123943
6.694860
7.112518
7.473787
7.527837
7.571591
7.333632
7.028986
6.593780
5.950095
5.324192
4.552051
3.848934
3.105573
2.449019
1.932386
1.525491
1.158139
0.869639
0.674030
0.334521
0.015370
-0.374445
-0.639547
-0.898565
-1.295867
-1.574773
-1.823964
-2.053969
-2.273678
-2.318135
-2.327260
-2.305500
-2.186871
-2.065200
-1.853212
-1.719842
-1.556757
-1.356468
-1.115934
-0.780872
-0.474355
-0.089922
0.341307
0.824948
1.233715
1.576031
1.900798
2.057333
2.133845
2.056163
1.988308
1.891205
1.625401
1.295720
0.852792
0.402610
-0.216741
-0.885462
-1.503643
-2.193890
-2.824239
-3.368949
-3.752914
-4.014740
-4.169402
-4.206371
-4.032990
-3.723432
-3.376670
-2.905664
-2.290057
-1.573604
-0.939278
-0.234991
0.488014
1.087008
1.535552
1.864765
2.119338
2.133377
2.017322
1.769300
1.454828
1.041850
0.582777
0.206533
-0.244117
-0.638845
-1.018130
-1.224736
-1.168580
-1.058375
-0.839367
-0.570756
-0.206913
0.216360
0.601027
0.921115
1.145504
1.339007
1.461614
1.503731
1.430728
1.305314
1.079521
0.798508
0.568036
0.205129
-0.123850
-0.458210
-0.799122
-1.101193
-1.534060
-1.920131
-2.280932
-2.548841
-2.800372
-3.039034
-3.010956
-2.860038
-2.621610
-2.357678
-2.058649
-1.778572
-1.608233
-1.457782
-1.359978
-1.249070
-1.248368
-1.254218
-1.162731
-1.177004
-1.166240
-1.184023
-1.206017
-1.217717
-1.341727
-1.366061
-1.325348
-1.325348
-1.303588
-1.267789
-1.197828
-1.060480
-0.993796
-0.945595
-0.830242
-0.740861
-0.641418
-0.595558
-0.485586
-0.402289
-0.389653
-0.374445
-0.443001
-0.353620
-0.220250
-0.072842
0.104751
0.223614
0.280472
0.261987
0.283981
0.201152
0.061932
-0.067694
-0.140462
-0.151226
-0.176262
-0.126658
-0.058335
0.054211
0.099603
0.055147
0.045787
-0.058335
-0.167370
-0.258624
-0.366489
-0.494712
-0.644694
-0.690321
-0.852002
-0.951211
-1.150798
-1.441170
-1.417303
-1.545058
-1.659475
-1.698082
-1.677492
-1.724990
-1.778338
-1.728500
-1.848299
-1.762661
-1.939786
-2.021914
-1.977691
-2.155751
-2.097958
-2.170726
-2.080175
-2.024019
-1.966928
-1.847363
-1.839173
-1.690829
-1.711653
-1.629993
-1.659709
-1.691297
-1.668600
-1.704400
-1.474629
-1.378462
-1.071010
-0.675814
-0.296763
0.285151
0.713573
1.246350
1.821010
2.373677
2.978052
3.495387
3.937848
4.326024
4.533098
4.587616
4.596508
4.385689
4.132988
3.819921
3.468479
3.064860
2.498623
2.034636
1.503965
0.956446
0.469997
0.039704
-0.160351
-0.174858
-0.118936
0.045787
0.402610
0.757093
1.168434
1.609491
2.016854
2.473353
2.927980
3.376992
3.768444
4.053903
4.186805
4.401366
4.497533
4.413300
4.355506
4.136498
4.041034
3.785525
3.337683
2.988816
2.486456
1.981522
1.414817
0.903332
0.512114
0.172138
-0.062780
-0.228440
-0.259559
-0.219548
-0.010602
0.124873
0.284215
0.581139
0.822608
1.159075
1.433068
1.777958
2.092898
2.407604
2.772382
2.915111
3.094342
3.192848
3.165706
2.969161
2.593620
2.229543
1.872954
1.492265
0.912691
0.357920
-0.133443
-0.649374
-1.055801
-1.445147
-1.767341
-1.819753
-1.772020
-1.572902
-1.322775
-1.116402
-0.596026
-0.465464
-0.158713
0.335223
0.414309
0.877828
1.068992
1.292679
1.422071
1.330350
1.467931
1.219676
1.068992
0.855366
0.686899
0.668882
0.482632
0.353240
0.296148
0.274154
0.235079
0.418053
0.520303
0.748436
0.999265
1.200724
1.680855
1.964910
2.379526
2.743368
3.149093
3.609804
3.762361
3.924978
3.866717
3.706439
3.342597
2.819412
2.223694
1.543975
0.910118
0.210277
-0.339815
-0.967122
-1.505281
-1.967864
-2.380374
-2.598212
-2.957140
-3.142454
-3.299924
-3.445461
-3.480793
-3.521973
-3.427912
-3.456458
-3.445227
-3.424871
-3.512848
-3.608313
-3.840423
-4.063408
-4.323831
-4.585657
-4.846781
-5.093632
-5.255782
-5.441095
-5.498889
-5.582421
-5.586399
-5.500761
-5.447179
-5.234723
-4.969388
-4.640642
-4.361735
-4.107631
-3.795732
-3.437740
-3.173340
-2.856060
-2.361655
-2.027061
-1.620400
-1.336580
-1.115934
-0.857618
-0.854342
-0.777362
-0.778766
-0.820415
-0.730800
-0.702722
-0.655223
-0.622700
-0.664583
-0.694532
-0.781808
-0.901841
-1.004091
-1.050653
-0.969461
-0.855746
-0.684939
-0.520918
-0.388250
-0.202936
0.064038
0.321418
0.586520
0.865427
0.997393
1.180601
1.293849
1.345325
1.403352
1.262729
1.162818
0.995287
0.628403
0.267836
-0.079627
-0.453765
-0.828838
-1.190341
-1.482116
-1.684511
-1.930426
-2.098426
-2.212609
-2.381076
-2.428808
-2.537610
-2.545566
-2.466012
-2.507427
-2.346681
-2.281868
-2.099596
-1.790973
-1.618294
-1.236669
-1.089962
-0.871891
-0.426155
-0.140229
0.303636
0.667712
0.914563
1.234885
1.408500
1.441959
1.408032
1.332222
1.237693
1.071097
0.869873
0.751712
0.719422
0.657651
0.672392
0.781193
0.883912
1.059164
1.250796
1.426984
1.531808
1.647162
1.762281
1.835517
1.895417
1.808375
1.844877
2.022937
2.192808
2.388651
2.560628
2.671536
2.643692
2.675045
2.754365
2.734711
2.659603
2.593152
2.656327
2.651647
2.731669
2.738689
2.729797
2.860827
2.715992
2.784315
2.514300
2.310969
2.414857
2.030658
1.954146
1.694426
1.459976
1.374104
1.079287
0.972123
0.743990
0.538086
0.414309
0.356516
0.266199
0.246544
0.062868
-0.103259
-0.045700
-0.255582
-0.210657
-0.263069
-0.299336
-0.162925
-0.181877
-0.011070
0.066846
0.206767
0.353942
0.595880
0.803188
0.829394
1.008858
1.056123
1.033894
0.879700
0.710063
0.565696
0.267603
-0.050145
-0.352450
-0.552505
-0.708103
-0.877272
-0.968760
-0.852704
-0.685641
-0.537998
-0.423113
-0.305888
-0.066056
0.150845
0.435368
0.751712
1.136612
1.577435
1.876464
2.195148
2.400584
