EVENT_NAME: L_AQUILA
EVENT_ID: IT-2009-0009
EVENT_DATE_YYYYMMDD: 20090406
EVENT_TIME_HHMMSS: 013240
EVENT_LATITUDE_DEGREE: 42.3420
EVENT_LONGITUDE_DEGREE: 13.3800
EVENT_DEPTH_KM: 8.3
HYPOCENTER_REFERENCE: INGV-CNT_Seismic_Bulletin
MAGNITUDE_W: 6.1
MAGNITUDE_W_REFERENCE: INGV-CNT_Seismic_Bulletin
MAGNITUDE_L: 
MAGNITUDE_L_REFERENCE: 
FOCAL_MECHANISM: Normal faulting
NETWORK: IT
STATION_CODE: SPC
STATION_NAME: 
STATION_LATITUDE_DEGREE: 42.743469
STATION_LONGITUDE_DEGREE: 12.739693
STATION_ELEVATION_M: 134
LOCATION: 
SENSOR_DEPTH_M: 0.0
VS30_M/S: 
SITE_CLASSIFICATION_EC8: C (inferred from geology)
MORPHOLOGIC_CLASSIFICATION: 
EPICENTRAL_DISTANCE_KM: 69.0
EARTHQUAKE_BACKAZIMUTH_DEGREE: 310.5
DATE_TIME_FIRST_SAMPLE_YYYYMMDD_HHMMSS: 
DATE_TIME_FIRST_SAMPLE_PRECISION: 
SAMPLING_INTERVAL_S: 
NDATA: 105
DURATION_S: 
STREAM: HNN
UNITS: cm/s^2
INSTRUMENT: sensor = FBA-3 [Kinemetrics] | digitizer = Etna [Kinemetrics]
INSTRUMENT_ANALOG/DIGITAL: D
INSTRUMENTAL_FREQUENCY_HZ: 212.000
INSTRUMENTAL_DAMPING: 0.700000
FULL_SCALE_G: 1.0
N_BIT_DIGITAL_CONVERTER: 18
PGA_CM/S^2: 5.950571
TIME_PGA_S: 
BASELINE_CORRECTION: BASELINE REMOVED
FILTER_TYPE: BUTTERWORTH
FILTER_ORDER: 2
LOW_CUT_FREQUENCY_HZ: 0.100
HIGH_CUT_FREQUENCY_HZ: 40.000
LATE/NORMAL_TRIGGERED: NT
DATABASE_VERSION: 0.5
HEADER_FORMAT: DYNA 1.2
DATA_TYPE: ACCELERATION RESPONSE SPECTRUM
PROCESSING: manual (Paolucci et al., 2011)
DATA_TIMESTAMP_YYYYMMDD_HHMMSS: 20211011_160536.088
DATA_LICENSE: CC-BY3_0-IT (http://creativecommons.org/licenses/by/3.0/deed.en)
DATA_CITATION: Luzi L, Pacor F, Puglia R (2019). Italian Accelerometric Archive v 3.0 - Istituto Nazionale di Geofisica e Vulcanologia, Dipartimento della Protezione Civile Nazionale. doi: 10.13127/itaca.3.1
DATA_CREATOR: ITACA working group
ORIGINAL_DATA_MEDIATOR_CITATION: data obtained within the DPC-INGV data exchange agreements
ORIGINAL_DATA_MEDIATOR: Archive of Italian Department of Civil Protection
ORIGINAL_DATA_CREATOR_CITATION: Presidency Of Counsil Of Ministers-Civil Protection Department. (1972). Italian Strong Motion Network. Presidency of Counsil of Ministers - Civil Protection Department. https://doi.org/10.7914/SN/IT http://www.fdsn.org/networks/detail/IT/
ORIGINAL_DATA_CREATOR: network: IT (Italian Strong Motion Network (RAN)); owner: Presidency of Counsil of Ministers - Civil Protection Department (PCM - DPC)
USER1: 
USER2: 
USER3: 
USER4: 
USER5: 
    0.010000     5.951991
    0.020000     5.958281
    0.022000     5.979220
    0.025000     6.000953
    0.029000     5.989336
    0.030000     5.978720
    0.032000     5.938089
    0.035001     5.998771
    0.036000     5.994029
    0.040000     6.080510
    0.041999     6.167383
    0.044001     6.178071
    0.045000     6.187706
    0.046000     6.288444
    0.048001     6.496861
    0.050000     6.625846
    0.054999     6.662322
    0.059999     7.479100
    0.064998     6.658900
    0.067002     6.685143
    0.069999     7.373403
    0.075002     7.910596
    0.080000     9.412597
    0.084998     9.795228
    0.090001    10.079670
    0.095003     9.704972
    0.100000    10.126075
    0.109999    11.358345
    0.120005    15.655244
    0.130005    18.307814
    0.132996    18.115278
    0.139997    17.333551
    0.149993    21.332844
    0.160000    20.540493
    0.170010    20.855534
    0.179986    19.093382
    0.190006    18.409197
    0.200000    16.205563
    0.220022    19.124285
    0.239981    18.779854
    0.250000    19.318810
    0.260010    20.878239
    0.280034    16.900291
    0.290023    16.556406
    0.300030    17.916630
    0.320000    17.107052
    0.340020    21.383421
    0.350017    19.331579
    0.359971    17.132854
    0.379939    14.521834
    0.400000    13.344717
    0.419992    13.105306
    0.439947    11.425117
    0.450045    11.611165
    0.459982    11.596964
    0.480077    12.600359
    0.500000    13.152612
    0.550055    11.909796
    0.599880    12.404198
    0.650195    11.352445
    0.667111     9.506615
    0.699790     9.696601
    0.750188    10.593872
    0.800000    10.665560
    0.850340    10.188005
    0.900090    10.491701
    0.949668     8.931664
    1.000000     8.411632
    1.100110     8.430164
    1.200480     8.632507
    1.300390     7.083427
    1.400560     5.461267
    1.499250     3.919132
    1.600000     3.131399
    1.700680     3.718880
    1.798561     3.950369
    1.901141     3.644899
    2.000000     3.561016
    2.197802     2.896108
    2.398082     2.134509
    2.500000     1.899685
    2.597403     2.083258
    2.801121     2.210295
    3.003003     2.235976
    3.205128     2.149100
    3.401361     2.055861
    3.496503     2.086721
    3.597122     2.098653
    3.802281     2.048249
    4.000000     1.875425
    4.201681     1.550927
    4.405286     1.254803
    4.608295     1.058369
    4.807692     0.894328
    5.000000     0.775156
    5.494505     0.627103
    5.988024     0.586324
    6.493506     0.519028
    6.993007     0.493487
    7.518797     0.441503
    8.000000     0.349648
    8.474576     0.269971
    9.009009     0.213521
    9.523809     0.172926
   10.000000     0.142264
