EVENT_NAME: L_AQUILA
EVENT_ID: IT-2009-0009
EVENT_DATE_YYYYMMDD: 20090406
EVENT_TIME_HHMMSS: 013240
EVENT_LATITUDE_DEGREE: 42.3420
EVENT_LONGITUDE_DEGREE: 13.3800
EVENT_DEPTH_KM: 8.3
HYPOCENTER_REFERENCE: INGV-CNT_Seismic_Bulletin
MAGNITUDE_W: 6.1
MAGNITUDE_W_REFERENCE: INGV-CNT_Seismic_Bulletin
MAGNITUDE_L: 
MAGNITUDE_L_REFERENCE: 
FOCAL_MECHANISM: Normal faulting
NETWORK: IT
STATION_CODE: SPC
STATION_NAME: 
STATION_LATITUDE_DEGREE: 42.743469
STATION_LONGITUDE_DEGREE: 12.739693
STATION_ELEVATION_M: 134
LOCATION: 
SENSOR_DEPTH_M: 0.0
VS30_M/S: 
SITE_CLASSIFICATION_EC8: C (inferred from geology)
MORPHOLOGIC_CLASSIFICATION: 
EPICENTRAL_DISTANCE_KM: 69.0
EARTHQUAKE_BACKAZIMUTH_DEGREE: 310.5
DATE_TIME_FIRST_SAMPLE_YYYYMMDD_HHMMSS: 20090406_013239.000
DATE_TIME_FIRST_SAMPLE_PRECISION: seconds
SAMPLING_INTERVAL_S: 0.005000
NDATA: 20000
DURATION_S: 100.000
STREAM: HNE
UNITS: cm/s^2
INSTRUMENT: sensor = FBA-3 [Kinemetrics] | digitizer = Etna [Kinemetrics]
INSTRUMENT_ANALOG/DIGITAL: D
INSTRUMENTAL_FREQUENCY_HZ: 214.000
INSTRUMENTAL_DAMPING: 0.700000
FULL_SCALE_G: 1.0
N_BIT_DIGITAL_CONVERTER: 18
PGA_CM/S^2: 7.554791
TIME_PGA_S: 32.555000
BASELINE_CORRECTION: BASELINE REMOVED
FILTER_TYPE: BUTTERWORTH
FILTER_ORDER: 2
LOW_CUT_FREQUENCY_HZ: 0.100
HIGH_CUT_FREQUENCY_HZ: 40.000
LATE/NORMAL_TRIGGERED: NT
DATABASE_VERSION: 0.5
HEADER_FORMAT: DYNA 1.2
DATA_TYPE: ACCELERATION
PROCESSING: manual (Paolucci et al., 2011)
DATA_TIMESTAMP_YYYYMMDD_HHMMSS: 20211011_160534.344
DATA_LICENSE: CC-BY3_0-IT (http://creativecommons.org/licenses/by/3.0/deed.en)
DATA_CITATION: Luzi L, Pacor F, Puglia R (2019). Italian Accelerometric Archive v 3.0 - Istituto Nazionale di Geofisica e Vulcanologia, Dipartimento della Protezione Civile Nazionale. doi: 10.13127/itaca.3.1
DATA_CREATOR: ITACA working group
ORIGINAL_DATA_MEDIATOR_CITATION: data obtained within the DPC-INGV data exchange agreements
ORIGINAL_DATA_MEDIATOR: Archive of Italian Department of Civil Protection
ORIGINAL_DATA_CREATOR_CITATION: Presidency Of Counsil Of Ministers-Civil Protection Department. (1972). Italian Strong Motion Network. Presidency of Counsil of Ministers - Civil Protection Department. https://doi.org/10.7914/SN/IT http://www.fdsn.org/networks/detail/IT/
ORIGINAL_DATA_CREATOR: network: IT (Italian Strong Motion Network (RAN)); owner: Presidency of Counsil of Ministers - Civil Protection Department (PCM - DPC)
USER1: 
USER2: 
USER3: 
USER4: 
USER5: 
[...]
1.540840
0.768974
-0.046502
-0.825942
-1.499859
-2.004160
-2.302494
-2.421582
-2.440042
-2.436960
-2.460749
-2.531189
-2.638625
-2.738794
-2.775373
-2.715424
-2.553268
-2.291606
-1.939960
-1.530196
-1.111006
-0.718885
-0.370002
-0.071485
0.191121
0.473822
0.849192
1.353263
1.962683
2.607769
3.192723
3.617133
3.813521
3.784553
3.589807
3.289583
2.911494
2.461204
1.941508
1.360577
0.743217
0.142488
-0.373661
-0.756470
-0.988209
-1.065127
-0.993061
-0.801533
-0.540323
-0.252047
0.042734
0.333256
0.602173
0.817209
0.933212
0.910786
0.745049
0.478267
0.173459
-0.125352
-0.398967
-0.635741
-0.827364
-0.970712
-1.061413
-1.088783
-1.043770
-0.929506
-0.755884
-0.531502
-0.273347
-0.019003
0.189888
0.343514
0.471167
0.613146
0.791782
0.997288
1.185601
1.290861
1.256875
1.065055
0.726258
0.251537
-0.353540
-1.070449
-1.857167
-2.650484
-3.367536
-3.913006
-4.209363
-4.230040
-3.998552
-3.564168
-2.990346
-2.357984
-1.756300
-1.258042
-0.901300
-0.684243
-0.568036
-0.498848
-0.449834
-0.442282
-0.517974
-0.695607
-0.956099
-1.254605
-1.532179
-1.730245
-1.817460
-1.801597
-1.705044
-1.537261
-1.298362
-0.992378
-0.628730
-0.225795
0.180002
0.538696
0.812951
1.000419
1.118766
1.170290
1.134987
0.989568
0.720360
0.334372
-0.127573
-0.598133
-1.015980
-1.351546
-1.597176
-1.747260
-1.805432
-1.798087
-1.759160
-1.701850
-1.618681
-1.506383
-1.372722
-1.217163
-1.017944
-0.742474
-0.363983
0.124923
0.692657
1.263497
1.751684
2.101316
2.292059
2.328240
2.239052
2.076298
1.889960
1.701219
1.500997
1.263498
0.954688
0.547838
0.056411
-0.448056
-0.865318
-1.118700
-1.182034
-1.075026
-0.850123
-0.571754
-0.284460
0.003132
0.303338
0.626198
0.969420
1.320394
1.654979
1.935665
2.129997
2.235895
2.274820
2.257083
2.168759
1.989096
1.701476
1.296389
0.783857
0.199775
-0.414923
-1.036102
-1.641541
-2.192398
-2.650882
-3.000299
-3.239244
-3.373120
-3.418969
-3.404234
-3.343110
-3.218777
-3.001285
-2.676292
-2.250299
-1.740332
-1.170937
-0.576168
0.007698
0.552149
1.030782
1.408070
1.657070
1.792593
1.861997
1.905146
1.945793
2.001426
2.068442
2.113038
2.104172
2.046778
1.966219
1.871503
1.753062
1.609726
1.455053
1.300126
1.154241
1.043568
1.005780
1.062060
1.212988
1.455358
1.779168
2.155946
2.550366
2.933389
3.266584
3.489331
3.547318
3.431658
3.178125
2.838082
2.464375
2.110144
1.808695
1.541009
1.240010
0.844596
0.346396
-0.212490
-0.767189
-1.247923
-1.592341
-1.768146
-1.781918
-1.665944
-1.475749
-1.288497
-1.173966
-1.156252
-1.204487
-1.257780
-1.253043
-1.146856
-0.936029
-0.659619
-0.372345
-0.108051
0.127028
0.332267
0.512786
0.696408
0.918311
1.190202
1.500294
1.831574
2.161555
2.451667
2.652510
2.715551
2.600111
2.286032
1.789205
1.163407
0.483014
-0.178726
-0.758170
-1.199845
-1.467322
-1.564514
-1.529093
-1.401869
-1.219702
-1.026129
-0.857459
-0.715906
-0.576155
-0.418597
-0.241436
-0.049954
0.140366
0.292060
0.363636
0.345856
0.268995
0.181850
0.134170
0.166921
0.302004
0.540107
0.876141
1.307824
1.813463
2.334238
2.801485
3.174134
3.436192
3.576525
3.593073
3.507922
3.357206
3.164380
2.934804
2.670247
2.374943
2.056718
1.737179
1.452237
1.226674
1.053244
0.907426
0.770895
0.628598
0.460445
0.253029
0.011533
-0.251067
-0.531066
-0.827685
-1.127318
-1.412729
-1.683762
-1.953005
-2.225755
-2.499044
-2.772632
-3.041684
-3.282231
-3.462855
-3.570014
-3.610113
-3.597812
-3.552967
-3.491426
-3.406210
-3.269777
-3.065491
-2.810692
-2.541595
-2.280756
-2.023541
-1.748703
-1.432126
-1.057347
-0.632404
-0.197013
0.198495
0.519670
0.749844
0.876601
0.891993
0.804805
0.640901
0.432255
0.211767
0.009772
-0.162461
-0.327220
-0.524087
-0.777516
-1.090398
-1.458842
-1.868146
-2.277727
-2.634718
-2.905755
-3.085651
-3.183638
-3.218709
-3.220950
-3.212334
-3.184118
-3.108365
-2.969257
-2.766136
-2.490749
-2.125201
-1.660751
-1.105354
-0.481443
0.170275
0.790696
1.327010
1.763810
2.119335
2.416484
2.668175
2.875370
3.018976
3.059333
2.959529
2.711137
2.330402
1.839618
1.272945
0.689725
0.152434
-0.306686
-0.681936
-0.971221
-1.174906
-1.304157
-1.369807
-1.369783
-1.300775
-1.169417
-0.980904
-0.734121
-0.440089
-0.131297
0.158448
0.415381
0.640725
0.836111
1.007008
1.172684
1.354714
1.554264
1.749160
1.909664
2.009954
2.033094
1.982771
1.892909
1.812507
1.775657
1.792545
1.856854
1.934749
1.957244
1.855288
1.602971
1.217574
0.735166
0.207221
-0.294388
-0.700473
-0.973737
-1.105278
-1.097242
-0.967881
-0.763478
-0.540481
-0.332791
-0.149837
0.004017
0.132411
0.260378
0.422572
0.637146
0.894329
1.168857
1.436159
1.672901
1.858909
1.982926
2.033075
1.988505
1.832119
1.566510
1.208288
0.772189
0.275920
-0.246513
-0.755421
-1.221021
-1.613414
-1.891074
-2.019465
-1.997268
-1.851086
-1.611585
-1.310393
-0.989736
-0.694775
-0.458012
-0.300719
-0.239583
-0.271732
-0.362427
-0.468760
-0.561585
-0.613146
-0.588020
-0.461022
-0.233041
0.079290
0.462309
0.902669
1.373335
1.836884
2.256858
2.594602
2.807497
2.871044
2.800543
2.638645
2.427002
2.193319
1.945005
1.661441
1.303500
0.845242
0.301351
-0.280530
-0.850793
-1.367716
-1.789826
-2.088199
-2.263051
-2.334891
-2.327609
-2.265224
-2.173390
-2.068571
-1.946947
-1.795137
-1.606199
-1.377843
-1.110859
-0.825590
-0.568985
-0.390779
-0.316584
-0.346083
-0.465424
-0.653283
-0.886678
-1.159178
-1.491770
-1.906978
-2.389942
-2.890489
-3.355736
-3.739677
-3.994554
-4.082581
-3.993119
-3.734403
-3.321172
-2.783025
-2.169351
-1.524127
-0.859363
-0.167238
0.550211
1.278953
2.011437
2.746124
3.473374
4.178529
4.848598
5.459541
5.964213
6.308558
6.458313
6.401354
6.136184
5.676489
5.061982
4.346839
3.576573
2.788397
2.021960
1.307614
0.654570
0.067254
-0.435425
-0.830825
-1.114248
-1.291979
-1.359222
-1.300319
-1.106782
-0.789578
-0.379908
0.080145
0.552374
1.008672
1.420410
1.744604
1.934764
1.970630
1.869411
1.672917
1.429307
1.181050
0.961833
0.786927
0.639717
0.488770
0.321393
0.143314
-0.042318
-0.231966
-0.412126
-0.575237
-0.730834
-0.889136
-1.048928
-1.212004
-1.397173
-1.619387
-1.861059
-2.081302
-2.245245
-2.330126
-2.324046
-2.242952
-2.132177
-2.033001
-1.942165
-1.828525
-1.687755
-1.528970
-1.349890
-1.166489
-1.017044
-0.932199
-0.921741
-0.982443
-1.106862
-1.287650
-1.518318
-1.791051
-2.100476
-2.441337
-2.803633
-3.179420
-3.567095
-3.960185
-4.335275
-4.662687
-4.924362
-5.112006
-5.217141
-5.233464
-5.157600
-4.977310
-4.667248
-4.207260
-3.607669
-2.900531
-2.112131
-1.267194
-0.406149
0.416081
1.141095
1.713335
2.085854
2.237045
2.182123
1.959661
1.615263
1.200254
0.766139
0.351304
-0.022399
-0.342249
-0.603801
-0.820000
-1.018084
-1.218052
-1.419679
-1.614323
-1.793849
-1.938611
-2.011419
-1.973517
-1.802955
-1.493192
-1.048250
-0.494762
0.121097
0.762660
1.410730
2.038136
2.593064
3.016228
3.268631
3.339943
3.242695
3.011344
2.699703
2.358094
2.008925
1.655200
1.303000
0.960823
0.629307
0.306371
-0.005846
-0.307579
-0.605973
-0.901284
-1.170448
-1.381675
-1.525788
-1.612455
-1.646081
-1.630851
-1.588177
-1.549211
-1.538632
-1.575815
-1.675136
-1.834566
-2.036106
-2.257215
-2.471400
-2.640873
-2.725456
-2.710054
-2.615030
-2.474542
-2.313521
-2.145599
-1.977021
-1.799081
-1.587234
-1.323932
-1.019066
-0.700267
-0.389609
-0.100526
0.150735
0.350940
0.504041
0.618805
0.685140
0.681849
0.605559
0.474355
0.306194
0.114202
-0.086232
-0.288548
-0.504354
-0.753646
-1.054231
-1.414357
-1.820954
-2.234147
-2.599189
-2.871241
-3.032949
-3.077415
-2.980836
-2.718300
-2.294075
-1.733482
-1.062406
-0.309550
0.489332
1.309050
2.144884
2.987151
3.802928
4.560538
5.254822
5.886401
6.429655
6.847803
7.125334
7.266822
7.287639
7.219692
7.089351
6.872952
6.525209
6.059056
5.533484
4.966802
4.326706
3.600529
2.830332
2.088698
1.449273
0.964932
0.643967
0.469459
0.429953
0.489856
0.594614
0.715848
0.834893
0.923377
0.963438
0.956359
0.905585
0.814526
0.705873
0.608877
0.524372
0.426918
0.303355
0.165940
0.025622
-0.111855
-0.224918
-0.291264
-0.323831
-0.360531
-0.420372
-0.493238
-0.564723
-0.620533
-0.633501
-0.576133
-0.437931
-0.218591
0.082669
0.455281
0.856889
1.230131
1.540239
1.777912
1.939901
2.028355
2.062903
2.069069
2.052053
2.005162
1.934744
1.851192
1.753907
1.648207
1.559023
1.505795
1.478727
1.457439
1.429414
1.375074
1.265578
1.095638
0.898555
0.715794
0.567603
0.455773
0.372330
0.293643
0.179607
-0.000991
-0.244419
-0.524346
-0.821066
-1.119930
-1.397372
-1.635038
-1.839472
-2.034635
-2.236820
-2.437651
-2.609954
-2.720122
-2.734551
-2.634449
-2.427224
-2.137929
-1.803989
-1.479351
-1.220986
-1.058172
-0.978355
-0.952329
-0.970338
-1.033668
-1.118594
-1.188570
-1.240741
-1.301179
-1.381426
-1.473115
-1.570080
-1.668199
-1.759263
-1.839330
-1.904123
-1.931895
-1.889640
-1.762606
-1.566819
-1.327620
-1.062606
-0.791755
-0.542362
-0.335098
-0.178441
-0.075953
-0.030659
-0.041782
-0.098535
-0.188361
-0.306815
-0.446044
-0.580671
-0.673240
-0.693340
-0.625482
-0.475983
-0.288828
-0.129918
-0.037619
0.004286
0.038813
0.100634
0.220263
0.429235
0.737677
1.119265
1.525833
1.910968
2.242665
2.503024
2.687024
2.798298
2.833058
2.779116
2.629378
2.379955
2.021877
1.546987
0.966918
0.321700
-0.339955
-0.984073
-1.582778
-2.099048
-2.503298
-2.793337
-2.985904
-3.095060
-3.128278
-3.097975
-3.015054
-2.874258
-2.665839
-2.395875
-2.084771
-1.757112
-1.441824
-1.173663
-0.982244
-0.881348
-0.877705
-0.981588
-1.200467
-1.528557
-1.948082
-2.438315
-2.971304
-3.502946
-3.988786
-4.408406
-4.765005
-5.068531
-5.324616
-5.526637
-5.649527
-5.657202
-5.525738
-5.259447
-4.878367
-4.402297
-3.857737
-3.281333
-2.695044
-2.096700
-1.495857
-0.930336
-0.435140
-0.019033
0.319759
0.569616
0.720594
0.792767
0.827159
0.858349
0.904323
0.976461
1.090074
1.260520
1.491707
1.765732
2.042820
2.280828
2.458852
2.582013
2.662424
2.696391
2.675458
2.613038
2.529445
2.422032
2.282695
2.125724
1.970238
1.819661
1.672774
1.533868
1.409624
1.303709
1.215880
1.147067
1.099998
1.078962
1.099167
1.183606
1.341170
1.560898
1.827615
2.130728
2.452417
2.760389
3.029378
3.257140
3.448301
3.598437
3.704387
3.778897
3.840863
3.896979
3.944369
3.982990
4.013876
4.032248
4.034632
4.028984
4.023190
4.008297
3.969680
3.902283
3.800909
3.655954
3.474493
3.284830
3.102216
2.908196
2.676773
2.400938
2.078424
1.696437
1.255343
0.784802
0.318774
-0.122635
-0.517056
-0.830788
-1.040039
-1.146931
-1.164130
-1.098829
-0.964135
-0.787314
-0.590985
-0.374070
-0.137041
0.102006
0.354006
0.637322
0.925207
1.190858
1.432910
1.662810
1.897289
2.138166
2.378744
2.617930
2.857617
3.091302
3.310220
3.523632
3.743407
3.961417
4.154248
4.299956
4.387819
4.416655
4.397526
4.346460
4.261733
4.123443
3.915475
3.638589
3.303688
2.913329
2.465341
1.970686
1.447521
0.914704
0.391078
-0.123578
-0.658691
-1.244802
-1.875767
-2.506304
-3.090504
-3.613528
-4.069032
-4.423597
-4.630590
-4.665427
-4.528044
-4.228427
-3.792958
-3.262372
-2.663882
-2.005183
-1.296931
-0.561611
0.178303
0.902931
1.579981
2.163882
2.620523
2.936931
3.107028
3.132160
3.033904
2.852276
2.626982
2.383466
2.148302
1.965052
1.866129
1.838062
1.837188
1.824193
1.766331
1.631591
1.413685
1.150601
0.891106
0.656406
0.446644
0.257323
0.069164
-0.155388
-0.439240
-0.771120
-1.128646
-1.497592
-1.867797
-2.230078
-2.584811
-2.944673
-3.312813
-3.660207
-3.946661
-4.163203
-4.334350
-4.490461
-4.653310
-4.832963
-5.017641
-5.163277
-5.210850
-5.122056
-4.888822
-4.521467
-4.046069
-3.503202
-2.936415
-2.381627
-1.868520
-1.425290
-1.074913
-0.834516
-0.722585
-0.754317
-0.923489
-1.200477
-1.556685
-1.979575
-2.456210
-2.955076
-3.435822
-3.867898
-4.230034
-4.507106
-4.700926
-4.835536
-4.945272
-5.058247
-5.191306
-5.352356
-5.534954
-5.717422
-5.881822
-6.029355
-6.166723
-6.284102
-6.362331
-6.395119
-6.383026
-6.315996
-6.184907
-5.998255
-5.768963
-5.496449
-5.173494
-4.798480
-4.371085
-3.884260
-3.331032
-2.715675
-2.047818
-1.332069
-0.576423
0.194832
0.948711
1.657260
2.295680
2.839035
3.270689
3.594459
3.829329
3.983701
4.052052
4.042365
3.983460
3.899986
3.800859
3.695372
3.597520
3.516235
3.456696
3.420444
3.399518
3.380580
3.357440
3.333260
3.304997
3.259200
3.194797
3.130870
3.079627
3.031862
2.978238
2.922422
2.859373
2.758174
2.584463
2.328894
2.000791
1.608382
1.165976
0.705066
0.240591
-0.231650
-0.691395
-1.125657
-1.545973
-1.940155
-2.279937
-2.534389
-2.668235
-2.664550
-2.511251
-2.171089
-1.618485
-0.890591
-0.051952
0.856850
1.807119
2.762200
3.689170
4.570384
5.385285
6.098788
6.682946
7.126996
7.421153
7.554791
7.527001
7.345279
7.018716
6.554245
5.967308
5.290380
4.561468
3.817263
3.099978
2.458348
1.925390
1.499293
1.160372
0.882897
0.620688
0.325164
-0.008109
-0.341446
-0.651911
-0.958319
-1.274288
-1.577881
-1.848354
-2.078537
-2.248353
-2.337157
-2.350279
-2.303000
-2.201714
-2.056520
-1.892017
-1.729269
-1.561571
-1.361982
-1.112250
-0.814750
-0.475594
-0.088839
0.345186
0.796468
1.221104
1.587773
1.871586
2.046073
2.105278
2.077964
1.995878
1.852699
1.619045
1.286486
0.866371
0.361788
-0.224739
-0.868538
-1.537110
-2.203764
-2.828588
-3.359201
-3.762754
-4.037101
-4.183723
-4.187195
-4.039209
-3.762281
-3.380142
-2.889023
-2.290477
-1.622294
-0.925470
-0.219621
0.461860
1.060317
1.535809
1.880273
2.082881
2.125144
2.011321
1.770509
1.434011
1.033652
0.606556
0.175931
-0.255229
-0.669053
-1.004932
-1.189233
-1.198826
-1.072651
-0.855783
-0.562904
-0.200207
0.200320
0.582979
0.903684
1.152231
1.336150
1.452895
1.487611
1.430829
1.287268
1.075132
0.818419
0.529104
0.209762
-0.125778
-0.459312
-0.792355
-1.146384
-1.530560
-1.917741
-2.270966
-2.578719
-2.834573
-2.995890
-3.009213
-2.873279
-2.637295
-2.353620
-2.063923
-1.807320
-1.607466
-1.460046
-1.352389
-1.283760
-1.249087
-1.224790
-1.196953
-1.176443
-1.172427
-1.182425
-1.209079
-1.259228
-1.318212
-1.352364
-1.351428
-1.334281
-1.309552
-1.263281
-1.185501
-1.092045
-1.006296
-0.927150
-0.840381
-0.748071
-0.660490
-0.575401
-0.490101
-0.422377
-0.395887
-0.405851
-0.408385
-0.353658
-0.230706
-0.068587
0.090381
0.208845
0.271498
0.286907
0.259739
0.181469
0.062383
-0.056353
-0.137632
-0.173900
-0.170399
-0.126334
-0.048067
0.033491
0.079375
0.073870
0.023834
-0.058754
-0.158858
-0.265572
-0.380461
-0.501779
-0.615711
-0.719530
-0.835254
-0.989924
-1.178660
-1.351802
-1.473966
-1.564293
-1.639013
-1.685778
-1.709171
-1.729937
-1.751867
-1.770731
-1.794251
-1.840109
-1.911762
-1.986355
-2.049579
-2.103897
-2.138936
-2.137778
-2.097892
-2.031893
-1.955492
-1.877661
-1.801786
-1.733090
-1.681715
-1.657548
-1.663350
-1.685970
-1.693926
-1.651029
-1.537373
-1.346458
-1.067970
-0.698994
-0.256925
0.227528
0.730538
1.254725
1.810628
2.389093
2.961772
3.493161
3.950805
4.303598
4.525520
4.609589
4.561537
4.394971
4.140483
3.828460
3.461719
3.028663
2.539479
2.021407
1.488134
0.952068
0.456778
0.072374
-0.147775
-0.203501
-0.123743
0.075845
0.380799
0.756948
1.168083
1.593103
2.027506
2.476617
2.935626
3.374600
3.748491
4.031775
4.239640
4.389005
4.460419
4.435279
4.334968
4.193701
4.009068
3.744971
3.389763
2.966199
2.487923
1.962347
1.422924
0.923548
0.503508
0.172061
-0.071708
-0.219514
-0.258211
-0.191021
-0.052510
0.118511
0.318107
0.559744
0.838603
1.138058
1.448798
1.770318
2.101993
2.429611
2.720031
2.947221
3.108756
3.189313
3.142921
2.942174
2.624119
2.259717
1.875744
1.438649
0.928181
0.382723
-0.145654
-0.634472
-1.078616
-1.457996
-1.722023
-1.823247
-1.764011
-1.588524
-1.337412
-1.034624
-0.716138
-0.409219
-0.099707
0.217928
0.528037
0.825229
1.089492
1.283339
1.390440
1.421449
1.378239
1.250129
1.061904
0.874541
0.728729
0.611618
0.492017
0.375660
0.291292
0.256371
0.284934
0.383987
0.540968
0.739691
0.979592
1.273844
1.619524
1.989207
2.369616
2.770555
3.181798
3.546608
3.800149
3.914877
3.883776
3.693392
3.335774
2.830145
2.222212
1.563673
0.896531
0.248607
-0.369992
-0.957293
-1.497578
-1.963169
-2.342225
-2.653516
-2.919824
-3.141075
-3.310525
-3.426502
-3.484644
-3.488634
-3.463482
-3.438264
-3.425829
-3.437915
-3.498715
-3.627554
-3.821589
-4.059376
-4.318671
-4.584925
-4.843278
-5.075536
-5.268013
-5.414730
-5.514899
-5.568648
-5.573534
-5.526046
-5.414953
-5.223149
-4.957772
-4.660108
-4.367446
-4.079714
-3.781170
-3.473951
-3.155615
-2.799757
-2.401748
-2.000106
-1.635941
-1.327349
-1.080525
-0.907432
-0.814974
-0.784910
-0.783731
-0.776607
-0.743223
-0.692707
-0.648628
-0.629529
-0.644614
-0.696987
-0.786623
-0.898609
-0.993051
-1.023242
-0.968232
-0.844752
-0.690034
-0.533149
-0.371469
-0.177964
0.061420
0.331121
0.600240
0.837904
1.030138
1.182628
1.298598
1.366966
1.371520
1.306849
1.173210
0.956218
0.651403
0.293310
-0.079451
-0.455223
-0.826606
-1.169698
-1.461852
-1.704430
-1.910131
-2.083660
-2.228918
-2.351330
-2.448405
-2.508930
-2.524696
-2.503836
-2.456926
-2.378917
-2.253734
-2.066673
-1.824460
-1.559037
-1.305876
-1.068231
-0.802047
-0.472013
-0.094201
0.292054
0.651904
0.967298
1.224438
1.392531
1.453074
1.427862
1.348777
1.226041
1.065800
0.900911
0.774280
0.699919
0.672037
0.694589
0.773605
0.903810
1.071809
1.252648
1.415750
1.550075
1.666993
1.770369
1.839270
1.854924
1.847560
1.888191
2.015301
2.203077
2.399685
2.556889
2.646244
2.683989
2.711388
2.733674
2.721137
2.674527
2.637721
2.641584
2.675835
2.715131
2.749708
2.784120
2.807779
2.788311
2.699506
2.558585
2.417703
2.284892
2.121769
1.921545
1.710415
1.510341
1.323774
1.138284
0.945245
0.747219
0.566985
0.435780
0.355386
0.291539
0.202917
0.083444
-0.031336
-0.118747
-0.185536
-0.234229
-0.258485
-0.249565
-0.203945
-0.129003
-0.033108
0.079906
0.218069
0.393944
0.590342
0.764781
0.900459
1.003639
1.054590
1.021470
0.909197
0.746376
0.537071
0.269530
-0.033106
-0.315917
-0.546717
-0.731766
-0.867250
-0.912049
-0.841836
-0.698443
-0.548554
-0.413711
-0.265386
-0.074920
0.161186
0.442754
0.778103
1.160967
1.552968
1.906397
