EVENT_NAME: L_AQUILA
EVENT_ID: IT-2009-0009
EVENT_DATE_YYYYMMDD: 20090406
EVENT_TIME_HHMMSS: 013240
EVENT_LATITUDE_DEGREE: 42.3420
EVENT_LONGITUDE_DEGREE: 13.3800
EVENT_DEPTH_KM: 8.3
HYPOCENTER_REFERENCE: INGV-CNT_Seismic_Bulletin
MAGNITUDE_W: 6.1
MAGNITUDE_W_REFERENCE: INGV-CNT_Seismic_Bulletin
MAGNITUDE_L: 
MAGNITUDE_L_REFERENCE: 
FOCAL_MECHANISM: Normal faulting
NETWORK: IT
STATION_CODE: SPC
STATION_NAME: 
STATION_LATITUDE_DEGREE: 42.743469
STATION_LONGITUDE_DEGREE: 12.739693
STATION_ELEVATION_M: 134
LOCATION: 
SENSOR_DEPTH_M: 0.0
VS30_M/S: 
SITE_CLASSIFICATION_EC8: C (inferred from geology)
MORPHOLOGIC_CLASSIFICATION: 
EPICENTRAL_DISTANCE_KM: 69.0
EARTHQUAKE_BACKAZIMUTH_DEGREE: 310.5
DATE_TIME_FIRST_SAMPLE_YYYYMMDD_HHMMSS: 20090406_013241.000
DATE_TIME_FIRST_SAMPLE_PRECISION: seconds
SAMPLING_INTERVAL_S: 0.005000
NDATA: 19800
DURATION_S: 99.000
STREAM: HNZ
UNITS: cm/s^2
INSTRUMENT: sensor = FBA-3 [Kinemetrics] | digitizer = Etna [Kinemetrics]
INSTRUMENT_ANALOG/DIGITAL: D
INSTRUMENTAL_FREQUENCY_HZ: 222.000
INSTRUMENTAL_DAMPING: 0.700000
FULL_SCALE_G: 1.0
N_BIT_DIGITAL_CONVERTER: 18
PGA_CM/S^2: -3.549857
TIME_PGA_S: 29.830000
BASELINE_CORRECTION: BASELINE NOT REMOVED
FILTER_TYPE: 
FILTER_ORDER: 
LOW_CUT_FREQUENCY_HZ: 
HIGH_CUT_FREQUENCY_HZ: 
LATE/NORMAL_TRIGGERED: NT
DATABASE_VERSION: 0.5
HEADER_FORMAT: DYNA 1.2
DATA_TYPE: ACCELERATION
PROCESSING: converted to cm/s^2
DATA_TIMESTAMP_YYYYMMDD_HHMMSS: 20211011_160535.286
DATA_LICENSE: CC-BY3_0-IT (http://creativecommons.org/licenses/by/3.0/deed.en)
DATA_CITATION: Luzi L, Pacor F, Puglia R (2019). Italian Accelerometric Archive v 3.0 - Istituto Nazionale di Geofisica e Vulcanologia, Dipartimento della Protezione Civile Nazionale. doi: 10.13127/itaca.3.1
DATA_CREATOR: ITACA working group
ORIGINAL_DATA_MEDIATOR_CITATION: data obtained within the DPC-INGV data exchange agreements
ORIGINAL_DATA_MEDIATOR: Archive of Italian Department of Civil Protection
ORIGINAL_DATA_CREATOR_CITATION: Presidency Of Counsil Of Ministers-Civil Protection Department. (1972). Italian Strong Motion Network. Presidency of Counsil of Ministers - Civil Protection Department. https://doi.org/10.7914/SN/IT http://www.fdsn.org/networks/detail/IT/
ORIGINAL_DATA_CREATOR: network: IT (Italian Strong Motion Network (RAN)); owner: Presidency of Counsil of Ministers - Civil Protection Department (PCM - DPC)
USER1: 
USER2: 
USER3: 
USER4: 
USER5: 
[...]
1.697650
1.462310
1.192546
0.831222
0.383724
-0.106159
-0.695564
-1.315411
-1.854235
-2.281126
-2.515764
-2.462842
-2.162402
-1.743004
-1.275133
-0.798832
-0.275932
0.299657
0.880866
1.460670
1.836513
1.955003
1.911681
1.746592
1.573774
1.405640
1.207533
0.980857
0.733340
0.466620
0.220742
0.036217
-0.129576
-0.343138
-0.491134
-0.552018
-0.614775
-0.588080
-0.575200
-0.578010
-0.582694
-0.658096
-0.692754
-0.770030
-0.854565
-0.901399
-0.911936
-0.822015
-0.721088
-0.657160
-0.657862
-0.693690
-0.686899
-0.657394
-0.607984
-0.515955
-0.445939
-0.429078
-0.434699
-0.327917
-0.108500
0.108107
0.320967
0.539447
0.744345
0.812255
0.853234
0.864240
0.773851
0.734979
0.745048
0.800780
0.819046
0.771977
0.568952
0.173440
-0.206617
-0.557404
-0.875874
-1.096462
-1.177719
-1.196218
-1.175377
-1.098101
-1.054077
-0.921537
-0.718278
-0.508930
-0.211769
0.143935
0.438988
0.608293
0.686271
0.616021
0.450931
0.241583
-0.002421
-0.253920
-0.526259
-0.761834
-0.953384
-1.041198
-1.020591
-0.946359
-0.859014
-0.767220
-0.648964
-0.484811
-0.119740
0.385129
0.926061
1.490410
1.854544
1.967648
1.923155
1.830893
1.806071
1.785698
1.733244
1.634190
1.374730
1.000293
0.637096
0.336656
0.181636
0.139017
0.104828
0.031299
-0.106861
-0.296538
-0.433762
-0.457413
-0.416902
-0.282722
-0.090938
0.036451
0.038324
-0.094918
-0.265160
-0.386460
-0.430484
-0.385289
-0.331430
-0.270546
-0.237294
-0.306140
-0.369131
-0.445705
-0.474742
-0.312930
-0.088362
0.181402
0.426109
0.536637
0.671285
0.821387
1.001464
1.291366
1.549421
1.676575
1.653158
1.541459
1.422501
1.333985
1.200274
0.978515
0.659576
0.211375
-0.185542
-0.549208
-0.756682
-0.690412
-0.616883
-0.530708
-0.443129
-0.338923
-0.170321
0.002028
0.182104
0.310195
0.361947
0.340169
0.250482
0.109278
-0.007339
-0.084849
-0.203573
-0.365150
-0.543353
-0.742632
-0.964156
-1.162966
-1.282393
-1.317050
-1.245394
-1.067425
-0.940973
-0.854799
-0.685494
-0.527664
-0.432123
-0.436104
-0.457179
-0.366789
-0.287172
-0.193972
-0.047148
0.061975
0.212078
0.347662
0.468025
0.738960
1.025817
1.423437
1.895758
2.223829
2.489846
2.491251
2.240455
1.794596
1.114568
0.408780
-0.217155
-0.773308
-1.335783
-1.868051
-2.392357
-2.842431
-3.178464
-3.398350
-3.339105
-3.136548
-2.836108
-2.464247
-2.134068
-1.762206
-1.402287
-0.959707
-0.341031
0.305746
0.950181
1.506099
1.828785
1.957344
1.920111
1.729497
1.533263
1.290663
0.973363
0.633349
0.272259
0.005072
-0.213174
-0.371005
-0.420883
-0.404491
-0.280615
-0.097026
0.117942
0.365225
0.590496
0.803590
1.013172
1.197230
1.341712
1.428589
1.493922
1.420862
1.190673
0.993268
0.847614
0.778300
0.799844
0.820919
0.800312
0.828881
0.838482
0.801249
0.788135
0.703132
0.583003
0.438052
0.263595
0.105062
-0.006637
-0.022560
0.103892
0.297316
0.405736
0.412996
0.352580
0.272494
0.120986
-0.132620
-0.461394
-0.850350
-1.216123
-1.458254
-1.528271
-1.449590
-1.305341
-1.103955
-0.878216
-0.744505
-0.609858
-0.446641
-0.247129
-0.019048
0.145340
0.249545
0.285607
0.337593
0.383958
0.434773
0.477861
0.434305
0.387939
0.240412
0.049096
-0.097494
-0.339860
-0.525791
-0.658565
-0.806794
-0.870254
-0.866976
-0.726708
-0.517595
-0.341733
-0.214345
-0.130981
-0.045509
0.094291
0.269684
0.405268
0.531719
0.600565
0.653488
0.754415
0.817406
0.868924
0.931213
0.953927
0.963528
0.975939
1.064690
1.284809
1.544737
1.798577
2.008159
2.115643
2.107681
2.051246
1.917535
1.698821
1.423906
1.097942
0.743877
0.309961
-0.057685
-0.411282
-0.805155
-1.149150
-1.501810
-1.693360
-1.734574
-1.662684
-1.403458
-1.125031
-0.925752
-0.816863
-0.815693
-0.897886
-0.981251
-0.973991
-0.862995
-0.656457
-0.456476
-0.357423
-0.307545
-0.377561
-0.518297
-0.631869
-0.659267
-0.585270
-0.512911
-0.338923
-0.149246
0.069234
0.280924
0.490037
0.632881
0.642013
0.899366
0.855810
0.649273
0.676905
0.630071
0.582534
0.316986
0.187022
0.174845
-0.063071
-0.235420
-0.439850
-0.761599
-1.021996
-1.205351
-1.359200
-1.482373
-1.577681
-1.687974
-1.815831
-1.829413
-1.791946
-1.726378
-1.547238
-1.346321
-1.199965
-1.139081
-1.116601
-1.140720
-1.209332
-1.237900
-1.293633
-1.373016
-1.452166
-1.619597
-1.691721
-1.596648
-1.542789
-1.447716
-1.237666
-1.018718
-0.855033
-0.682918
-0.395124
-0.118101
0.131289
0.386534
0.540618
0.627027
0.649741
0.556073
0.363820
0.153067
-0.034503
-0.208491
-0.375454
-0.591358
-0.806092
-0.934417
-0.980782
-0.962985
-0.951979
-1.011693
-1.154770
-1.394092
-1.617489
-1.738321
-1.822622
-1.758460
-1.552859
-1.311430
-0.972820
-0.637490
-0.357657
-0.119272
0.075791
0.228470
0.265000
0.228236
0.134568
-0.053002
-0.307779
-0.586909
-0.802579
-0.955024
-1.105360
-1.209800
-1.202307
-1.121284
-1.047989
-0.992256
-1.022699
-1.125499
-1.216123
-1.328056
-1.381212
-1.316113
-1.168352
-0.948701
-0.685728
-0.397934
-0.029117
0.406439
0.755351
1.059772
1.355762
1.553636
1.689454
1.759471
1.696479
1.499308
1.222754
0.914353
0.564503
0.168991
-0.208022
-0.526961
-0.750125
-0.878450
-0.931372
-0.895779
-0.819674
-0.694393
-0.604237
-0.552486
-0.489729
-0.514785
-0.496988
-0.469122
-0.411516
-0.238699
-0.052534
0.262190
0.599863
0.862367
1.038931
1.056728
1.036589
0.959547
0.789306
0.591433
0.369674
0.131289
-0.090001
-0.301924
-0.518765
-0.643110
-0.694159
-0.724366
-0.700715
-0.669337
-0.551081
-0.321595
-0.004997
0.383490
0.735681
1.024412
1.277550
1.458797
1.478936
1.452474
1.321808
1.039165
0.725612
0.294506
-0.160954
-0.558574
-0.894842
-1.152429
-1.316581
-1.366225
-1.391984
-1.404161
-1.375592
-1.329695
-1.308854
-1.308854
-1.274665
-1.169757
-1.043071
-0.954555
-0.925518
-0.972118
-1.125031
-1.329929
-1.510240
-1.673222
-1.742770
-1.761738
-1.679544
-1.480266
-1.257571
-0.914044
-0.492538
0.032470
0.560288
0.980623
1.300030
1.401894
1.388312
1.247576
1.006850
0.804761
0.513688
0.056589
-0.459755
-0.912405
-1.338125
-1.677671
-1.820280
-1.863836
-1.856108
-1.910436
-2.007616
-2.024711
-1.990053
-1.832223
-1.579554
-1.277007
-0.913107
-0.592997
-0.390441
-0.215984
-0.132620
-0.212706
-0.289513
-0.415262
-0.512209
-0.510335
-0.544290
-0.582928
-0.570985
-0.507760
-0.440319
-0.313165
-0.134025
0.107404
0.397072
0.667304
0.959547
1.196293
1.412431
1.649645
1.902783
2.174654
2.362926
2.422171
2.281669
1.896928
1.352718
0.812021
0.320030
-0.146436
-0.491602
-0.748252
-0.960175
-1.055248
-1.055951
-0.991554
-0.844261
-0.649432
-0.418307
-0.153695
0.135036
0.410888
0.558181
0.647399
0.698682
0.674095
0.645526
0.654659
0.732871
0.795863
0.837311
0.864943
0.878525
0.911308
0.945731
1.019963
1.165383
1.312675
1.383394
1.388546
1.271461
1.048532
0.792116
0.544130
0.364991
0.225426
0.122625
0.054248
-0.013662
-0.015769
0.026850
0.059399
0.149320
0.279519
0.473411
0.747858
1.038697
1.306118
1.500948
1.644494
1.755490
1.805134
1.775394
1.685473
1.512890
1.246873
0.972895
0.800780
0.679715
0.596116
0.571294
0.422831
0.306448
0.221913
0.055887
0.101550
0.193578
0.236666
0.357029
0.393559
0.421894
0.482310
0.499170
0.542023
0.581129
0.583003
0.583705
0.535466
0.429856
0.349770
0.272494
0.242052
0.239944
0.211610
0.181168
0.043007
-0.095621
-0.283659
-0.546632
-0.769561
-0.989681
-1.147745
-1.334144
-1.359669
-1.312835
-1.247970
-1.033705
-0.947296
-0.826230
-0.750828
-0.636085
-0.405896
-0.404257
-0.349929
-0.125361
-0.106861
-0.191162
-0.147607
-0.300754
-0.484108
-0.574498
-0.797896
-1.012161
-1.185212
-1.311430
-1.462937
-1.591731
-1.692892
-1.803654
-1.784921
-1.695936
-1.578383
-1.397370
-1.144233
-0.856204
-0.607984
-0.351803
-0.053002
0.149789
0.353751
0.574573
0.643653
0.661918
0.617426
0.430324
0.255399
0.157282
0.013268
-0.066116
-0.125361
-0.098431
0.044881
0.156111
0.455614
0.774553
1.178262
1.673296
2.021507
2.345832
2.512092
2.477669
2.309067
2.042816
1.664164
1.269822
0.850424
0.366630
-0.065413
-0.489260
-0.740758
-0.914512
-1.014034
-0.942612
-0.904209
-0.832787
-0.792510
-0.828806
-0.810541
-0.744271
-0.675659
-0.528132
-0.306608
-0.106393
0.139485
0.354453
0.561459
0.853703
1.107777
1.257645
1.288790
1.204255
1.038697
0.839653
0.657937
0.561225
0.514625
0.518840
0.546706
0.518606
0.490037
0.450931
0.447653
0.468728
0.479031
0.460766
0.352345
0.224957
0.070874
-0.100070
-0.248065
-0.368429
-0.436104
-0.456242
-0.460691
-0.430718
-0.322765
-0.202168
-0.104051
-0.043167
0.005540
0.007179
0.018185
0.068298
0.008350
-0.027243
-0.080400
-0.155803
-0.232376
-0.338221
-0.321360
-0.345246
-0.338689
-0.321595
-0.378030
-0.382245
-0.430484
-0.531411
-0.654350
-0.727645
-0.823420
-0.986402
-1.130417
-1.266001
-1.437647
-1.617021
-1.710689
-1.770871
-1.741365
-1.675798
-1.658937
-1.591497
-1.419148
-1.181466
-0.959707
-0.619693
-0.212003
0.101316
0.370377
0.580661
0.772446
0.952991
1.099347
1.247108
1.319700
1.346864
1.345927
1.373559
1.470037
1.475657
1.525301
1.632785
1.700928
1.808881
1.904188
2.105339
2.274176
2.287289
2.320307
2.202988
1.985679
1.773053
1.454348
1.138453
0.865645
0.603375
0.398009
0.263829
0.232216
0.290291
0.462874
0.753010
1.164914
1.602811
1.951490
2.276752
2.435753
2.636436
2.485865
2.318200
2.611848
2.326864
1.948446
1.765325
1.843069
1.828785
1.332580
1.279189
1.343820
1.281999
1.299796
1.505865
1.616627
1.673296
1.988255
2.126180
2.142807
2.229215
2.355667
2.372995
2.430133
2.533636
2.415380
2.361521
2.431304
2.416317
2.365034
2.406482
2.473688
2.469239
2.582811
2.694042
2.751179
2.878802
2.828689
2.660087
2.482587
2.267385
2.080518
1.936503
1.807944
1.660885
1.514764
1.294176
1.036121
0.875480
0.722099
0.596116
0.582066
0.602907
0.622577
0.645526
0.572231
0.479031
0.510644
0.479266
0.494955
0.596819
0.691423
0.763547
0.688379
0.659576
0.553029
0.328226
0.231982
0.179997
0.194515
0.313942
0.452570
0.568952
0.723036
0.850893
0.874310
0.978749
1.023242
0.952991
0.875246
0.626090
0.295911
-0.100304
-0.526493
-0.943315
-1.389642
-1.715606
-1.949308
-2.093322
-2.146245
-2.109246
-2.019558
-1.875310
-1.579554
-1.312366
-1.016376
-0.776118
-0.724835
-0.583396
-0.509867
-0.511506
-0.618990
-0.984763
-1.287076
-1.510942
-1.772276
-2.098708
-2.415305
-2.637532
-2.761174
-2.846880
-2.949446
-2.934225
-2.939377
-2.931181
-2.892543
-2.898632
-2.849690
-2.825102
-2.695841
-2.615520
-2.587186
-2.458393
-2.411325
-2.351143
-2.460032
-2.452070
-2.344118
-2.464949
-2.221178
-1.992161
-1.811148
-1.370675
-0.954555
-0.406364
0.084690
0.479968
0.734042
0.926061
1.112694
1.098410
1.125574
1.036121
0.822090
0.648102
0.354687
0.121688
-0.067755
-0.295133
-0.310589
-0.273122
-0.287172
-0.168682
-0.162828
-0.229098
-0.216921
-0.324639
-0.323702
-0.241743
-0.232376
-0.275229
-0.420180
-0.574966
-0.851755
-1.050331
-1.136271
-1.262020
-1.193408
-1.070938
-1.034407
-0.917556
-0.740524
-0.573093
-0.327449
-0.071033
0.184446
0.409717
0.469430
0.514391
0.585813
0.626090
0.602907
0.567547
0.499872
0.320499
0.157048
0.046520
-0.060261
-0.199592
-0.194909
-0.148778
-0.214111
-0.241509
-0.314335
-0.399807
-0.456711
-0.518765
-0.647325
-0.726708
-0.741695
-0.877513
-0.973757
-1.046350
-1.078197
-1.066020
-1.035344
-0.911936
-0.809370
-0.636085
-0.420883
-0.215984
0.050735
0.333144
0.584876
0.761440
0.975003
1.133067
1.170534
1.295347
1.349206
1.285277
1.299562
1.218305
1.114099
1.041038
0.801014
0.600097
0.424236
0.194047
-0.018345
-0.189055
-0.256730
-0.315272
-0.305671
-0.226756
-0.146202
-0.071502
0.012331
0.110917
0.139251
0.210439
0.267342
0.294037
0.386769
0.482544
0.559586
0.673392
0.870329
0.996312
1.141966
1.244298
1.296049
1.387375
1.322042
1.297922
1.218539
1.107308
1.091853
1.029564
1.040336
1.007084
0.979920
0.928169
0.833096
0.871265
0.822558
0.771275
0.792584
0.751839
0.743409
0.792116
0.807805
0.725378
0.660513
0.574338
0.466386
0.456551
0.426343
0.425875
0.491208
0.523992
0.558649
0.593774
0.538745
0.475987
0.364756
0.199433
0.089139
-0.041762
-0.151119
-0.354847
-0.467248
-0.543353
-0.699310
-0.682684
-0.706570
-0.645685
-0.597915
-0.520405
-0.329322
-0.251344
-0.033332
0.106702
0.270152
0.519777
0.622343
0.770104
0.790945
0.774319
0.724207
0.571294
0.442501
0.237837
0.084924
-0.039186
-0.112013
-0.088128
-0.016940
0.100379
0.273196
0.550219
0.766592
0.986477
1.159294
1.277081
1.349908
1.332814
1.456455
1.410324
1.179667
0.964231
0.812021
0.677607
0.272962
-0.117399
-0.395124
-0.678938
-0.934417
-1.078197
-1.207458
-1.403458
-1.373250
-1.318923
-1.328524
-1.254058
-1.168352
-1.114727
-1.094589
-1.111449
-1.290120
-1.463640
-1.647463
-1.949542
-2.257241
-2.573136
-2.762345
-2.806135
-2.977547
-3.285714
-3.359711
-3.402565
-3.508409
-3.531124
-3.549857
-3.363926
-3.189470
-3.009394
-2.738459
-2.449962
-2.077399
-1.783750
-1.445141
-1.169991
-0.936290
-0.689241
-0.581289
-0.456476
-0.269609
-0.129810
-0.083678
0.118176
0.251887
0.278348
0.445545
0.593540
0.813426
0.902176
0.900068
0.972193
0.934725
0.813426
0.689316
0.594945
0.446716
0.246032
-0.038952
-0.389270
-0.758087
-1.102082
-1.403224
-1.702259
-1.870158
-1.946966
-2.095664
-2.242254
-2.287215
-2.370111
-2.312271
-2.228438
-2.234526
-2.034311
-2.016046
-2.131726
-2.112056
-2.089107
-2.104328
-2.177623
-2.151162
-2.082550
-2.067798
-2.058665
-1.969446
-1.846976
-1.718417
-1.483779
-1.276538
-1.040964
-0.725537
-0.463970
-0.255325
-0.034034
0.195920
0.399882
0.641311
0.869392
1.124169
1.338434
1.453411
1.618735
1.662290
1.694840
1.708890
1.611710
1.622482
1.481043
1.279657
1.116675
0.849956
0.628666
0.329631
0.038090
-0.182498
-0.397934
-0.468653
-0.503076
-0.529069
-0.510804
-0.438211
-0.310120
-0.248534
-0.165872
-0.023731
0.078601
0.071342
0.033641
0.022401
-0.043167
-0.091874
-0.139411
-0.232142
-0.351803
-0.482235
-0.628591
-0.798598
-0.909126
-0.949403
-0.939100
-0.933948
-0.905145
-0.754574
-0.555998
-0.334006
-0.025136
0.338061
0.568718
0.778300
0.998420
0.974768
0.975237
0.940814
0.831691
0.802888
0.642950
0.526802
0.401287
0.351877
0.493550
0.539681
0.571997
0.719992
0.936599
1.066095
1.226267
1.421564
1.541927
1.721301
1.861335
1.855949
1.774926
1.699992
1.568388
1.415007
1.304479
1.182243
1.066563
0.939877
0.827007
0.719992
0.656064
0.680651
0.742238
0.838013
0.968680
1.221349
1.393698
1.401425
1.534200
1.744250
1.869062
1.821292
1.831127
1.903485
1.747294
1.582907
1.460436
1.214792
0.837077
0.490974
0.288651
0.050969
-0.162359
-0.294431
-0.447344
-0.529069
-0.571219
-0.616648
-0.576371
-0.515253
-0.415965
-0.313399
-0.172429
0.133865
0.318157
0.493550
0.695872
0.786028
1.030032
1.058133
0.888828
0.869860
0.823026
0.776895
0.677373
0.549516
0.448589
0.262659
0.086329
0.055887
-0.063774
-0.215516
-0.194206
-0.281318
-0.383416
-0.524854
-0.689944
-0.786421
-0.872362
-0.833021
-0.799301
-0.710550
-0.605877
-0.541948
-0.514550
-0.509867
-0.534221
-0.640300
-0.678938
-0.784080
-0.891095
-0.873298
-0.853628
-0.851286
-0.910297
-1.036515
-1.078665
-1.109810
-1.243286
-1.341872
-1.488462
-1.687272
-1.822154
-1.933618
-2.109714
-2.292366
-2.362149
-2.404534
-2.438722
-2.412964
-2.423501
-2.409217
-2.253494
-2.126106
-1.970617
-1.720524
-1.489164
-1.243989
-1.053375
-0.841217
-0.634679
-0.552954
-0.409877
-0.282957
-0.350397
-0.400744
-0.356252
-0.416902
-0.510101
-0.649198
-0.923411
-1.196452
-1.403927
-1.576510
-1.849786
-2.173174
-2.368471
-2.518106
-2.702397
-2.813394
-2.848285
-2.734010
-2.554402
-2.379946
-1.988648
-1.693360
-1.372080
-0.886178
-0.666292
-0.402383
-0.079697
0.124030
0.329631
0.478797
0.607122
0.668475
0.664728
0.612976
0.608995
0.700556
0.681822
0.585344
0.623514
0.813660
0.914118
0.888594
0.967041
1.028627
0.926998
0.839184
0.675265
0.363586
0.081411
-0.235420
-0.537967
-0.801877
-1.132056
-1.336954
-1.421958
-1.543960
-1.567377
-1.464108
-1.404395
-1.290589
-1.180529
-1.149150
-0.925284
-0.616414
-0.292792
-0.014598
0.309258
0.640374
0.695872
0.957440
1.170300
1.273335
1.476126
1.384097
1.468632
1.553636
1.472145
1.543801
1.524365
1.501884
1.595318
1.707485
1.792957
1.886157
1.980059
2.167629
2.367141
2.510453
2.661024
2.721440
2.830797
2.938047
2.934534
2.961698
3.071992
3.056536
2.943433
2.864986
2.734085
2.622854
2.425683
2.276752
2.182615
2.031576
1.953129
1.706314
1.521320
1.469100
1.154611
0.901708
0.696575
0.442032
0.366161
0.131289
-0.018111
-0.027946
-0.106393
0.002028
0.059165
0.214185
0.493784
0.829115
1.267949
1.564173
1.946572
2.339041
2.604589
2.769913
2.886061
3.040613
3.066606
2.943901
2.779280
2.617234
2.368546
2.147490
1.933225
1.683366
1.218071
0.804761
0.623280
0.395901
0.451165
0.221679
0.019356
0.239710
0.216059
0.165478
0.124733
0.167351
0.250482
0.271791
0.210907
-0.028180
-0.144094
-0.160720
-0.372878
-0.601193
-0.552486
-0.566068
-0.712892
-0.752701
-0.726708
-0.589485
-0.515019
-0.422756
-0.223946
-0.108969
0.035514
0.059868
0.006945
0.064551
0.102018
0.285841
0.303872
0.022166
0.103657
0.298018
0.298018
0.338764
0.340637
0.477861
0.678544
0.723739
0.775724
0.772680
0.856513
0.984369
0.953459
0.971490
0.987414
1.087872
1.163509
1.020197
0.945029
0.916226
0.828178
0.619299
0.450931
0.306214
0.186085
0.183275
0.025445
-0.081805
-0.239870
-0.277102
-0.204041
-0.377327
-0.461862
-0.554125
-0.562789
-0.608218
-0.707740
-0.723196
-0.836299
-0.959707
-1.123157
-1.113322
-1.228065
-1.471368
-1.446077
-1.421724
-1.260849
-1.129714
-1.118006
-0.792510
-0.518765
-0.384118
-0.136132
-0.059793
0.005306
0.033875
-0.142221
-0.206383
-0.308481
-0.639597
-1.009117
-1.195047
-1.277709
-1.489164
-1.790775
-1.928467
-1.982560
-2.153270
-2.331473
-2.474082
-2.664228
-2.920175
-2.969116
-3.006350
-3.119922
-2.989723
-2.854373
-2.787167
-2.662588
-2.523023
-2.306417
-2.145542
-2.077164
-1.822154
-1.619129
-1.365991
-1.021762
-1.018484
-0.894608
-0.601193
-0.356720
-0.293963
-0.465375
-0.276400
-0.172897
-0.349929
-0.381074
-0.501905
-0.589953
-0.703994
-0.783845
-0.719683
-0.741929
-0.723898
-0.662077
-0.698842
-0.763941
-0.658096
-0.571219
-0.639831
-0.540075
-0.408940
-0.463033
-0.413857
-0.458818
-0.593466
-0.551081
-0.699310
-0.903975
