EVENT_NAME: L_AQUILA
EVENT_ID: IT-2009-0009
EVENT_DATE_YYYYMMDD: 20090406
EVENT_TIME_HHMMSS: 013240
EVENT_LATITUDE_DEGREE: 42.3420
EVENT_LONGITUDE_DEGREE: 13.3800
EVENT_DEPTH_KM: 8.3
HYPOCENTER_REFERENCE: INGV-CNT_Seismic_Bulletin
MAGNITUDE_W: 6.1
MAGNITUDE_W_REFERENCE: INGV-CNT_Seismic_Bulletin
MAGNITUDE_L: 
MAGNITUDE_L_REFERENCE: 
FOCAL_MECHANISM: Normal faulting
NETWORK: IT
STATION_CODE: SPC
STATION_NAME: 
STATION_LATITUDE_DEGREE: 42.743469
STATION_LONGITUDE_DEGREE: 12.739693
STATION_ELEVATION_M: 134
LOCATION: 
SENSOR_DEPTH_M: 0.0
VS30_M/S: 
SITE_CLASSIFICATION_EC8: C (inferred from geology)
MORPHOLOGIC_CLASSIFICATION: 
EPICENTRAL_DISTANCE_KM: 69.0
EARTHQUAKE_BACKAZIMUTH_DEGREE: 310.5
DATE_TIME_FIRST_SAMPLE_YYYYMMDD_HHMMSS: 20090406_013239.000
DATE_TIME_FIRST_SAMPLE_PRECISION: seconds
SAMPLING_INTERVAL_S: 0.005000
NDATA: 20000
DURATION_S: 100.000
STREAM: HNE
UNITS: cm
INSTRUMENT: sensor = FBA-3 [Kinemetrics] | digitizer = Etna [Kinemetrics]
INSTRUMENT_ANALOG/DIGITAL: D
INSTRUMENTAL_FREQUENCY_HZ: 214.000
INSTRUMENTAL_DAMPING: 0.700000
FULL_SCALE_G: 1.0
N_BIT_DIGITAL_CONVERTER: 18
PGD_CM: -0.194888
TIME_PGD_S: 31.315000
BASELINE_CORRECTION: BASELINE REMOVED
FILTER_TYPE: BUTTERWORTH
FILTER_ORDER: 2
LOW_CUT_FREQUENCY_HZ: 0.100
HIGH_CUT_FREQUENCY_HZ: 40.000
LATE/NORMAL_TRIGGERED: NT
DATABASE_VERSION: 0.5
HEADER_FORMAT: DYNA 1.2
DATA_TYPE: DISPLACEMENT
PROCESSING: manual (Paolucci et al., 2011)
DATA_TIMESTAMP_YYYYMMDD_HHMMSS: 20211011_160534.476
DATA_LICENSE: CC-BY3_0-IT (http://creativecommons.org/licenses/by/3.0/deed.en)
DATA_CITATION: Luzi L, Pacor F, Puglia R (2019). Italian Accelerometric Archive v 3.0 - Istituto Nazionale di Geofisica e Vulcanologia, Dipartimento della Protezione Civile Nazionale. doi: 10.13127/itaca.3.1
DATA_CREATOR: ITACA working group
ORIGINAL_DATA_MEDIATOR_CITATION: data obtained within the DPC-INGV data exchange agreements
ORIGINAL_DATA_MEDIATOR: Archive of Italian Department of Civil Protection
ORIGINAL_DATA_CREATOR_CITATION: Presidency Of Counsil Of Ministers-Civil Protection Department. (1972). Italian Strong Motion Network. Presidency of Counsil of Ministers - Civil Protection Department. https://doi.org/10.7914/SN/IT http://www.fdsn.org/networks/detail/IT/
ORIGINAL_DATA_CREATOR: network: IT (Italian Strong Motion Network (RAN)); owner: Presidency of Counsil of Ministers - Civil Protection Department (PCM - DPC)
USER1: 
USER2: 
USER3: 
USER4: 
USER5: 
[...]
-1.647499e-02
-1.748954e-02
-1.854175e-02
-1.962828e-02
-2.074524e-02
-2.188764e-02
-2.304861e-02
-2.421867e-02
-2.538562e-02
-2.653524e-02
-2.765328e-02
-2.872753e-02
-2.974925e-02
-3.071366e-02
-3.161987e-02
-3.247010e-02
-3.326842e-02
-3.401949e-02
-3.472804e-02
-3.539906e-02
-3.603849e-02
-3.665405e-02
-3.725592e-02
-3.785638e-02
-3.846804e-02
-3.910133e-02
-3.976259e-02
-4.045340e-02
-4.117109e-02
-4.191003e-02
-4.266326e-02
-4.342360e-02
-4.418387e-02
-4.493655e-02
-4.567358e-02
-4.638637e-02
-4.706616e-02
-4.770456e-02
-4.829458e-02
-4.883135e-02
-4.931222e-02
-4.973621e-02
-5.010379e-02
-5.041714e-02
-5.068076e-02
-5.090185e-02
-5.109053e-02
-5.125961e-02
-5.142370e-02
-5.159816e-02
-5.179853e-02
-5.203993e-02
-5.233614e-02
-5.269862e-02
-5.313612e-02
-5.365459e-02
-5.425739e-02
-5.494566e-02
-5.571904e-02
-5.657600e-02
-5.751343e-02
-5.852589e-02
-5.960526e-02
-6.074088e-02
-6.192002e-02
-6.312842e-02
-6.435123e-02
-6.557385e-02
-6.678267e-02
-6.796571e-02
-6.911355e-02
-7.021997e-02
-7.128157e-02
-7.229662e-02
-7.326405e-02
-7.418282e-02
-7.505157e-02
-7.586860e-02
-7.663280e-02
-7.734441e-02
-7.800484e-02
-7.861611e-02
-7.918060e-02
-7.970126e-02
-8.018168e-02
-8.062573e-02
-8.103727e-02
-8.141995e-02
-8.177654e-02
-8.210799e-02
-8.241289e-02
-8.268747e-02
-8.292565e-02
-8.311937e-02
-8.325918e-02
-8.333523e-02
-8.333795e-02
-8.325900e-02
-8.309282e-02
-8.283796e-02
-8.249730e-02
-8.207720e-02
-8.158614e-02
-8.103347e-02
-8.042805e-02
-7.977741e-02
-7.908824e-02
-7.836808e-02
-7.762680e-02
-7.687685e-02
-7.613223e-02
-7.540678e-02
-7.471253e-02
-7.405809e-02
-7.344785e-02
-7.288216e-02
-7.235812e-02
-7.187097e-02
-7.141604e-02
-7.099045e-02
-7.059377e-02
-7.022720e-02
-6.989208e-02
-6.958828e-02
-6.931316e-02
-6.906143e-02
-6.882620e-02
-6.860027e-02
-6.837705e-02
-6.815065e-02
-6.791594e-02
-6.766841e-02
-6.740348e-02
-6.711558e-02
-6.679793e-02
-6.644278e-02
-6.604183e-02
-6.558684e-02
-6.507057e-02
-6.448798e-02
-6.383750e-02
-6.312202e-02
-6.234939e-02
-6.153202e-02
-6.068558e-02
-5.982705e-02
-5.897300e-02
-5.813790e-02
-5.733280e-02
-5.656438e-02
-5.583507e-02
-5.514399e-02
-5.448795e-02
-5.386241e-02
-5.326252e-02
-5.268407e-02
-5.212352e-02
-5.157737e-02
-5.104168e-02
-5.051203e-02
-4.998363e-02
-4.945172e-02
-4.891251e-02
-4.836421e-02
-4.780726e-02
-4.724359e-02
-4.667537e-02
-4.610379e-02
-4.552805e-02
-4.494475e-02
-4.434795e-02
-4.372925e-02
-4.307785e-02
-4.238111e-02
-4.162602e-02
-4.080089e-02
-3.989641e-02
-3.890602e-02
-3.782622e-02
-3.665660e-02
-3.539927e-02
-3.405802e-02
-3.263765e-02
-3.114392e-02
-2.958343e-02
-2.796356e-02
-2.629228e-02
-2.457757e-02
-2.282655e-02
-2.104487e-02
-1.923685e-02
-1.740615e-02
-1.555618e-02
-1.369049e-02
-1.181329e-02
-9.929764e-03
-8.045950e-03
-6.168413e-03
-4.304153e-03
-2.460585e-03
-6.451993e-04
1.134868e-03
2.872841e-03
4.561989e-03
6.195493e-03
7.766520e-03
9.268232e-03
1.069390e-02
1.203752e-02
1.329456e-02
1.446235e-02
1.553989e-02
1.652749e-02
1.742626e-02
1.823774e-02
1.896407e-02
1.960865e-02
2.017660e-02
2.067428e-02
2.110842e-02
2.148554e-02
2.181208e-02
2.209489e-02
2.234190e-02
2.256248e-02
2.276725e-02
2.296709e-02
2.317190e-02
2.338970e-02
2.362624e-02
2.388470e-02
2.416546e-02
2.446634e-02
2.478324e-02
2.511094e-02
2.544395e-02
2.577719e-02
2.610638e-02
2.642738e-02
2.673528e-02
2.702374e-02
2.728495e-02
2.750968e-02
2.768771e-02
2.780880e-02
2.786401e-02
2.784659e-02
2.775202e-02
2.757786e-02
2.732324e-02
2.698809e-02
2.657263e-02
2.607757e-02
2.550480e-02
2.485780e-02
2.414164e-02
2.336322e-02
2.253166e-02
2.165859e-02
2.075788e-02
1.984514e-02
1.893666e-02
1.804794e-02
1.719240e-02
1.638095e-02
1.562248e-02
1.492443e-02
1.429308e-02
1.373362e-02
1.324963e-02
1.284213e-02
1.250861e-02
1.224287e-02
1.203539e-02
1.187390e-02
1.174424e-02
1.163181e-02
1.152320e-02
1.140692e-02
1.127360e-02
1.111599e-02
1.092901e-02
1.070943e-02
1.045560e-02
1.016753e-02
9.846933e-03
9.497104e-03
9.122754e-03
8.730050e-03
8.326344e-03
7.919355e-03
7.516328e-03
7.123685e-03
6.747061e-03
6.391339e-03
6.060792e-03
5.759563e-03
5.492201e-03
5.263696e-03
5.078920e-03
4.941885e-03
4.855099e-03
4.819141e-03
4.832752e-03
4.893686e-03
4.999932e-03
5.150570e-03
5.346021e-03
5.587894e-03
5.878136e-03
6.217308e-03
6.602863e-03
7.028492e-03
7.484561e-03
7.959008e-03
8.438636e-03
8.910905e-03
9.365661e-03
9.796074e-03
1.019886e-02
1.057421e-02
1.092536e-02
1.125742e-02
1.157598e-02
1.188621e-02
1.219270e-02
1.249929e-02
1.280919e-02
1.312560e-02
1.345257e-02
1.379547e-02
1.416073e-02
1.455521e-02
1.498560e-02
1.545781e-02
1.597649e-02
1.654474e-02
1.716382e-02
1.783261e-02
1.854721e-02
1.930097e-02
2.008493e-02
2.088821e-02
2.169837e-02
2.250238e-02
2.328750e-02
2.404210e-02
2.475635e-02
2.542334e-02
2.603983e-02
2.660640e-02
2.712668e-02
2.760668e-02
2.805392e-02
2.847641e-02
2.888154e-02
2.927521e-02
2.966137e-02
3.004154e-02
3.041491e-02
3.077922e-02
3.113182e-02
3.147037e-02
3.179360e-02
3.210212e-02
3.239912e-02
3.269030e-02
3.298345e-02
3.328817e-02
3.361545e-02
3.397706e-02
3.438460e-02
3.484856e-02
3.537738e-02
3.597639e-02
3.664717e-02
3.738797e-02
3.819474e-02
3.906218e-02
3.998445e-02
4.095535e-02
4.196779e-02
4.301281e-02
4.407896e-02
4.515265e-02
4.621932e-02
4.726473e-02
4.827594e-02
4.924240e-02
5.015667e-02
5.101435e-02
5.181366e-02
5.255478e-02
5.323927e-02
5.386943e-02
5.444787e-02
5.497764e-02
5.546253e-02
5.590727e-02
5.631756e-02
5.670007e-02
5.706195e-02
5.740960e-02
5.774749e-02
5.807746e-02
5.839877e-02
5.870846e-02
5.900181e-02
5.927299e-02
5.951519e-02
5.972010e-02
5.987733e-02
5.997482e-02
6.000004e-02
5.994137e-02
5.978921e-02
5.953718e-02
5.918309e-02
5.872918e-02
5.818190e-02
5.755159e-02
5.685171e-02
5.609759e-02
5.530537e-02
5.449167e-02
5.367378e-02
5.286965e-02
5.209749e-02
5.137562e-02
5.072241e-02
5.015602e-02
4.969411e-02
4.935340e-02
4.914918e-02
4.909407e-02
4.919668e-02
4.946074e-02
4.988483e-02
5.046233e-02
5.118175e-02
5.202771e-02
5.298234e-02
5.402639e-02
5.514014e-02
5.630445e-02
5.750144e-02
5.871480e-02
5.992985e-02
6.113400e-02
6.231739e-02
6.347292e-02
6.459615e-02
6.568539e-02
6.674214e-02
6.777121e-02
6.878054e-02
6.978037e-02
7.078221e-02
7.179786e-02
7.283872e-02
7.391510e-02
7.503509e-02
7.620345e-02
7.742107e-02
7.868543e-02
7.999161e-02
8.133353e-02
8.270497e-02
8.410046e-02
8.551562e-02
8.694677e-02
8.839014e-02
8.984155e-02
9.129654e-02
9.275047e-02
9.419861e-02
9.563644e-02
9.705989e-02
9.846506e-02
9.984801e-02
1.012047e-01
1.025312e-01
1.038227e-01
1.050737e-01
1.062782e-01
1.074306e-01
1.085269e-01
1.095650e-01
1.105450e-01
1.114689e-01
1.123395e-01
1.131592e-01
1.139304e-01
1.146559e-01
1.153392e-01
1.159843e-01
1.165957e-01
1.171778e-01
1.177346e-01
1.182680e-01
1.187784e-01
1.192642e-01
1.197224e-01
1.201484e-01
1.205364e-01
1.208796e-01
1.211703e-01
1.214000e-01
1.215596e-01
1.216398e-01
1.216307e-01
1.215226e-01
1.213062e-01
1.209732e-01
1.205170e-01
1.199331e-01
1.192188e-01
1.183736e-01
1.173994e-01
1.163009e-01
1.150856e-01
1.137652e-01
1.123546e-01
1.108715e-01
1.093355e-01
1.077679e-01
1.061901e-01
1.046228e-01
1.030839e-01
1.015879e-01
1.001441e-01
9.875615e-02
9.742277e-02
9.613839e-02
9.489438e-02
9.368038e-02
9.248554e-02
9.129947e-02
9.011285e-02
8.891767e-02
8.770740e-02
8.647662e-02
8.522040e-02
8.393372e-02
8.261155e-02
8.124902e-02
7.984165e-02
7.838581e-02
7.687968e-02
7.532422e-02
7.372369e-02
7.208582e-02
7.042175e-02
6.874531e-02
6.707189e-02
6.541754e-02
6.379846e-02
6.223034e-02
6.072704e-02
5.929914e-02
5.795297e-02
5.669029e-02
5.550868e-02
5.440235e-02
5.336351e-02
5.238363e-02
5.145397e-02
5.056569e-02
4.970998e-02
4.887830e-02
4.806234e-02
4.725405e-02
4.644561e-02
4.562948e-02
4.479821e-02
4.394440e-02
4.306133e-02
4.214371e-02
4.118795e-02
4.019189e-02
3.915466e-02
3.807667e-02
3.695898e-02
3.580255e-02
3.460766e-02
3.337337e-02
3.209720e-02
3.077517e-02
2.940224e-02
2.797287e-02
2.648172e-02
2.492455e-02
2.329925e-02
2.160619e-02
1.984775e-02
1.802746e-02
1.614932e-02
1.421754e-02
1.223634e-02
1.021016e-02
8.144305e-03
6.045348e-03
3.920914e-03
1.778973e-03
-3.727079e-04
-2.526902e-03
-4.677328e-03
-6.818980e-03
-8.948031e-03
-1.106161e-02
-1.315806e-02
-1.523747e-02
-1.730174e-02
-1.935415e-02
-2.139890e-02
-2.344080e-02
-2.548485e-02
-2.753612e-02
-2.960000e-02
-3.168272e-02
-3.379179e-02
-3.593622e-02
-3.812618e-02
-4.037199e-02
-4.268278e-02
-4.506535e-02
-4.752375e-02
-5.005908e-02
-5.266893e-02
-5.534674e-02
-5.808190e-02
-6.086039e-02
-6.366545e-02
-6.647825e-02
-6.927881e-02
-7.204665e-02
-7.476086e-02
-7.740040e-02
-7.994486e-02
-8.237531e-02
-8.467439e-02
-8.682631e-02
-8.881749e-02
-9.063747e-02
-9.227932e-02
-9.373950e-02
-9.501748e-02
-9.611498e-02
-9.703524e-02
-9.778368e-02
-9.836898e-02
-9.880282e-02
-9.909831e-02
-9.926963e-02
-9.933279e-02
-9.930593e-02
-9.920832e-02
-9.905848e-02
-9.887242e-02
-9.866223e-02
-9.843594e-02
-9.819792e-02
-9.794915e-02
-9.768813e-02
-9.741224e-02
-9.711846e-02
-9.680381e-02
-9.646607e-02
-9.610425e-02
-9.571852e-02
-9.531015e-02
-9.488141e-02
-9.443503e-02
-9.397343e-02
-9.349871e-02
-9.301333e-02
-9.252036e-02
-9.202324e-02
-9.152548e-02
-9.103052e-02
-9.054118e-02
-9.005912e-02
-8.958516e-02
-8.912021e-02
-8.866577e-02
-8.822366e-02
-8.779567e-02
-8.738319e-02
-8.698655e-02
-8.660432e-02
-8.623303e-02
-8.586721e-02
-8.549932e-02
-8.512004e-02
-8.471935e-02
-8.428790e-02
-8.381795e-02
-8.330355e-02
-8.274065e-02
-8.212704e-02
-8.146186e-02
-8.074495e-02
-7.997674e-02
-7.915841e-02
-7.829170e-02
-7.737872e-02
-7.642188e-02
-7.542384e-02
-7.438683e-02
-7.331217e-02
-7.220054e-02
-7.105248e-02
-6.986868e-02
-6.865050e-02
-6.740069e-02
-6.612348e-02
-6.482381e-02
-6.350625e-02
-6.217450e-02
-6.083135e-02
-5.947889e-02
-5.811909e-02
-5.675480e-02
-5.539054e-02
-5.403239e-02
-5.268734e-02
-5.136282e-02
-5.006630e-02
-4.880472e-02
-4.758401e-02
-4.640929e-02
-4.528543e-02
-4.421749e-02
-4.321050e-02
-4.226875e-02
-4.139501e-02
-4.058963e-02
-3.985011e-02
-3.917127e-02
-3.854588e-02
-3.796560e-02
-3.742229e-02
-3.690951e-02
-3.642318e-02
-3.596131e-02
-3.552325e-02
-3.510945e-02
-3.472149e-02
-3.436150e-02
-3.403122e-02
-3.373196e-02
-3.346522e-02
-3.323303e-02
-3.303766e-02
-3.288154e-02
-3.276713e-02
-3.269670e-02
-3.267225e-02
-3.269541e-02
-3.276686e-02
-3.288556e-02
-3.304831e-02
-3.325024e-02
-3.348537e-02
-3.374705e-02
-3.402853e-02
-3.432357e-02
-3.462698e-02
-3.493486e-02
-3.524464e-02
-3.555518e-02
-3.586677e-02
-3.618082e-02
-3.649958e-02
-3.682601e-02
-3.716359e-02
-3.751568e-02
-3.788461e-02
-3.827087e-02
-3.867277e-02
-3.908657e-02
-3.950759e-02
-3.993186e-02
-4.035707e-02
-4.078217e-02
-4.120630e-02
-4.162791e-02
-4.204402e-02
-4.244940e-02
-4.283633e-02
-4.319529e-02
-4.351609e-02
-4.378913e-02
-4.400609e-02
-4.416048e-02
-4.424770e-02
-4.426496e-02
-4.421139e-02
-4.408834e-02
-4.389956e-02
-4.365128e-02
-4.335246e-02
-4.301496e-02
-4.265328e-02
-4.228356e-02
-4.192235e-02
-4.158573e-02
-4.128868e-02
-4.104411e-02
-4.086213e-02
-4.074997e-02
-4.071247e-02
-4.075234e-02
-4.087041e-02
-4.106594e-02
-4.133684e-02
-4.167960e-02
-4.208900e-02
-4.255831e-02
-4.307973e-02
-4.364508e-02
-4.424647e-02
-4.487721e-02
-4.553250e-02
-4.620982e-02
-4.690909e-02
-4.763290e-02
-4.838672e-02
-4.917875e-02
-5.001949e-02
-5.092118e-02
-5.189716e-02
-5.296071e-02
-5.412398e-02
-5.539746e-02
-5.679006e-02
-5.830938e-02
-5.996182e-02
-6.175241e-02
-6.368425e-02
-6.575752e-02
-6.796893e-02
-7.031183e-02
-7.277668e-02
-7.535160e-02
-7.802296e-02
-8.077635e-02
-8.359711e-02
-8.647030e-02
-8.938088e-02
-9.231472e-02
-9.525943e-02
-9.820463e-02
-1.011418e-01
-1.040648e-01
-1.069697e-01
-1.098549e-01
-1.127193e-01
-1.155623e-01
-1.183827e-01
-1.211786e-01
-1.239474e-01
-1.266846e-01
-1.293845e-01
-1.320402e-01
-1.346449e-01
-1.371926e-01
-1.396788e-01
-1.421005e-01
-1.444556e-01
-1.467432e-01
-1.489640e-01
-1.511195e-01
-1.532117e-01
-1.552434e-01
-1.572180e-01
-1.591395e-01
-1.610117e-01
-1.628385e-01
-1.646234e-01
-1.663699e-01
-1.680812e-01
-1.697600e-01
-1.714083e-01
-1.730280e-01
-1.746201e-01
-1.761853e-01
-1.777230e-01
-1.792311e-01
-1.807057e-01
-1.821412e-01
-1.835311e-01
-1.848677e-01
-1.861430e-01
-1.873493e-01
-1.884798e-01
-1.895289e-01
-1.904918e-01
-1.913648e-01
-1.921451e-01
-1.928310e-01
-1.934208e-01
-1.939133e-01
-1.943071e-01
-1.946013e-01
-1.947952e-01
-1.948883e-01
-1.948805e-01
-1.947720e-01
-1.945629e-01
-1.942536e-01
-1.938451e-01
-1.933390e-01
-1.927379e-01
-1.920453e-01
-1.912660e-01
-1.904045e-01
-1.894654e-01
-1.884537e-01
-1.873750e-01
-1.862363e-01
-1.850456e-01
-1.838125e-01
-1.825481e-01
-1.812640e-01
-1.799720e-01
-1.786830e-01
-1.774069e-01
-1.761516e-01
-1.749224e-01
-1.737218e-01
-1.725503e-01
-1.714062e-01
-1.702863e-01
-1.691860e-01
-1.681006e-01
-1.670244e-01
-1.659517e-01
-1.648765e-01
-1.637924e-01
-1.626924e-01
-1.615692e-01
-1.604163e-01
-1.592275e-01
-1.579972e-01
-1.567194e-01
-1.553882e-01
-1.539975e-01
-1.525414e-01
-1.510138e-01
-1.494090e-01
-1.477214e-01
-1.459457e-01
-1.440764e-01
-1.421081e-01
-1.400359e-01
-1.378562e-01
-1.355669e-01
-1.331671e-01
-1.306574e-01
-1.280390e-01
-1.253140e-01
-1.224860e-01
-1.195601e-01
-1.165433e-01
-1.134438e-01
-1.102715e-01
-1.070376e-01
-1.037544e-01
-1.004350e-01
-9.709277e-02
-9.374075e-02
-9.039181e-02
-8.705935e-02
-8.375800e-02
-8.050355e-02
-7.731175e-02
-7.419722e-02
-7.117302e-02
-6.825055e-02
-6.543867e-02
-6.274256e-02
-6.016308e-02
-5.769680e-02
-5.533623e-02
-5.307049e-02
-5.088631e-02
-4.876872e-02
-4.670126e-02
-4.466623e-02
-4.264523e-02
-4.061978e-02
-3.857176e-02
-3.648423e-02
-3.434261e-02
-3.213548e-02
-2.985492e-02
-2.749669e-02
-2.506015e-02
-2.254777e-02
-1.996407e-02
-1.731471e-02
-1.460576e-02
-1.184309e-02
-9.031308e-03
-6.172868e-03
-3.268476e-03
-3.181548e-04
2.677771e-03
5.717856e-03
8.798730e-03
1.191495e-02
1.505993e-02
1.822719e-02
2.141086e-02
2.460569e-02
2.780696e-02
3.100996e-02
3.420907e-02
3.739720e-02
4.056605e-02
4.370669e-02
4.680989e-02
4.986639e-02
5.286714e-02
5.580327e-02
5.866579e-02
6.144548e-02
6.413367e-02
6.672319e-02
6.920863e-02
7.158572e-02
7.385054e-02
7.599903e-02
7.802669e-02
7.992891e-02
8.170206e-02
8.334493e-02
8.485975e-02
8.625234e-02
8.753191e-02
8.871032e-02
8.980115e-02
9.081856e-02
9.177644e-02
9.268761e-02
9.356314e-02
9.441180e-02
9.523960e-02
9.604934e-02
9.684021e-02
9.760800e-02
9.834578e-02
9.904463e-02
9.969400e-02
1.002820e-01
1.007961e-01
1.012242e-01
1.015557e-01
1.017815e-01
1.018946e-01
1.018901e-01
1.017647e-01
1.015158e-01
1.011403e-01
1.006351e-01
9.999610e-02
9.921870e-02
9.829836e-02
9.723098e-02
9.601287e-02
9.464059e-02
9.311120e-02
9.142276e-02
8.957444e-02
8.756655e-02
8.540075e-02
8.308033e-02
8.060995e-02
7.799536e-02
7.524334e-02
7.236200e-02
6.936069e-02
6.625010e-02
6.304241e-02
5.975144e-02
5.639258e-02
5.298252e-02
4.953916e-02
4.608139e-02
4.262849e-02
3.919931e-02
3.581156e-02
3.248121e-02
2.922183e-02
2.604421e-02
2.295646e-02
1.996444e-02
1.707201e-02
1.428089e-02
1.159082e-02
9.000343e-03
6.507363e-03
4.109405e-03
1.803830e-03
-4.118059e-04
-2.539536e-03
-4.580849e-03
-6.536651e-03
-8.407465e-03
-1.019376e-02
-1.189613e-02
-1.351516e-02
-1.505157e-02
-1.650649e-02
-1.788155e-02
-1.917834e-02
-2.039813e-02
-2.154213e-02
-2.261167e-02
-2.360815e-02
-2.453315e-02
-2.538919e-02
-2.618062e-02
-2.691383e-02
-2.759702e-02
-2.824000e-02
-2.885383e-02
-2.945004e-02
-3.004022e-02
-3.063620e-02
-3.124947e-02
-3.189088e-02
-3.257093e-02
-3.329949e-02
-3.408505e-02
-3.493397e-02
-3.584959e-02
-3.683183e-02
-3.787685e-02
-3.897614e-02
-4.011590e-02
-4.127792e-02
-4.244124e-02
-4.358315e-02
-4.467987e-02
-4.570753e-02
-4.664297e-02
-4.746415e-02
-4.815070e-02
-4.868477e-02
-4.905178e-02
-4.924061e-02
-4.924390e-02
-4.905833e-02
-4.868459e-02
-4.812721e-02
-4.739437e-02
-4.649766e-02
-4.545178e-02
-4.427364e-02
-4.298146e-02
-4.159384e-02
-4.012873e-02
-3.860216e-02
-3.702746e-02
-3.541527e-02
-3.377407e-02
-3.211081e-02
-3.043202e-02
-2.874510e-02
-2.705839e-02
-2.538022e-02
-2.371834e-02
-2.208042e-02
-2.047435e-02
-1.890774e-02
-1.738733e-02
-1.591888e-02
-1.450665e-02
-1.315284e-02
-1.185779e-02
-1.062032e-02
-9.437888e-03
-8.306869e-03
-7.223151e-03
-6.182665e-03
-5.181217e-03
-4.213820e-03
-3.274228e-03
-2.355006e-03
-1.447673e-03
-5.425614e-04
3.711800e-04
1.304833e-03
2.269014e-03
3.272889e-03
4.323554e-03
5.425370e-03
6.579819e-03
7.786216e-03
9.042511e-03
1.034512e-02
1.168821e-02
1.306346e-02
1.446037e-02
1.586632e-02
1.726666e-02
1.864528e-02
1.998548e-02
2.127058e-02
2.248496e-02
2.361537e-02
2.465171e-02
2.558712e-02
2.641793e-02
2.714407e-02
2.776922e-02
2.830032e-02
2.874692e-02
2.912129e-02
2.943840e-02
2.971495e-02
2.996836e-02
3.021629e-02
3.047576e-02
3.076173e-02
3.108611e-02
3.145749e-02
3.188094e-02
3.235752e-02
3.288438e-02
3.345551e-02
3.406249e-02
3.469531e-02
3.534329e-02
3.599567e-02
3.664167e-02
3.727094e-02
3.787509e-02
3.844951e-02
3.899396e-02
3.951159e-02
4.000783e-02
4.048999e-02
4.096715e-02
4.144932e-02
4.194606e-02
4.246539e-02
4.301353e-02
4.359508e-02
4.421294e-02
4.486800e-02
4.555883e-02
4.628184e-02
4.703172e-02
4.780207e-02
4.858565e-02
4.937447e-02
5.016014e-02
5.093433e-02
5.168872e-02
5.241444e-02
5.310190e-02
5.374142e-02
5.432416e-02
5.484243e-02
5.528984e-02
5.566235e-02
5.595964e-02
5.618509e-02
5.634460e-02
5.644528e-02
5.649436e-02
5.649826e-02
5.646196e-02
5.638917e-02
5.628257e-02
5.614388e-02
5.597395e-02
5.577341e-02
5.554294e-02
5.528307e-02
5.499388e-02
5.467513e-02
5.432616e-02
5.394570e-02
5.353229e-02
5.308507e-02
5.260406e-02
5.208970e-02
5.154260e-02
5.096391e-02
5.035559e-02
4.971997e-02
4.905919e-02
4.837523e-02
4.767026e-02
