EVENT_NAME: L_AQUILA
EVENT_ID: IT-2009-0009
EVENT_DATE_YYYYMMDD: 20090406
EVENT_TIME_HHMMSS: 013240
EVENT_LATITUDE_DEGREE: 42.3420
EVENT_LONGITUDE_DEGREE: 13.3800
EVENT_DEPTH_KM: 8.3
HYPOCENTER_REFERENCE: INGV-CNT_Seismic_Bulletin
MAGNITUDE_W: 6.1
MAGNITUDE_W_REFERENCE: INGV-CNT_Seismic_Bulletin
MAGNITUDE_L: 
MAGNITUDE_L_REFERENCE: 
FOCAL_MECHANISM: Normal faulting
NETWORK: IT
STATION_CODE: SPC
STATION_NAME: 
STATION_LATITUDE_DEGREE: 42.743469
STATION_LONGITUDE_DEGREE: 12.739693
STATION_ELEVATION_M: 134
LOCATION: 
SENSOR_DEPTH_M: 0.0
VS30_M/S: 
SITE_CLASSIFICATION_EC8: C (inferred from geology)
MORPHOLOGIC_CLASSIFICATION: 
EPICENTRAL_DISTANCE_KM: 69.0
EARTHQUAKE_BACKAZIMUTH_DEGREE: 310.5
DATE_TIME_FIRST_SAMPLE_YYYYMMDD_HHMMSS: 
DATE_TIME_FIRST_SAMPLE_PRECISION: 
SAMPLING_INTERVAL_S: 
NDATA: 105
DURATION_S: 
STREAM: HNE
UNITS: cm
INSTRUMENT: sensor = FBA-3 [Kinemetrics] | digitizer = Etna [Kinemetrics]
INSTRUMENT_ANALOG/DIGITAL: D
INSTRUMENTAL_FREQUENCY_HZ: 214.000
INSTRUMENTAL_DAMPING: 0.700000
FULL_SCALE_G: 1.0
N_BIT_DIGITAL_CONVERTER: 18
PGD_CM: -0.194888
TIME_PGD_S: 
BASELINE_CORRECTION: BASELINE REMOVED
FILTER_TYPE: BUTTERWORTH
FILTER_ORDER: 2
LOW_CUT_FREQUENCY_HZ: 0.100
HIGH_CUT_FREQUENCY_HZ: 40.000
LATE/NORMAL_TRIGGERED: NT
DATABASE_VERSION: 0.5
HEADER_FORMAT: DYNA 1.2
DATA_TYPE: DISPLACEMENT RESPONSE SPECTRUM
PROCESSING: manual (Paolucci et al., 2011)
DATA_TIMESTAMP_YYYYMMDD_HHMMSS: 20211011_160535.947
DATA_LICENSE: CC-BY3_0-IT (http://creativecommons.org/licenses/by/3.0/deed.en)
DATA_CITATION: Luzi L, Pacor F, Puglia R (2019). Italian Accelerometric Archive v 3.0 - Istituto Nazionale di Geofisica e Vulcanologia, Dipartimento della Protezione Civile Nazionale. doi: 10.13127/itaca.3.1
DATA_CREATOR: ITACA working group
ORIGINAL_DATA_MEDIATOR_CITATION: data obtained within the DPC-INGV data exchange agreements
ORIGINAL_DATA_MEDIATOR: Archive of Italian Department of Civil Protection
ORIGINAL_DATA_CREATOR_CITATION: Presidency Of Counsil Of Ministers-Civil Protection Department. (1972). Italian Strong Motion Network. Presidency of Counsil of Ministers - Civil Protection Department. https://doi.org/10.7914/SN/IT http://www.fdsn.org/networks/detail/IT/
ORIGINAL_DATA_CREATOR: network: IT (Italian Strong Motion Network (RAN)); owner: Presidency of Counsil of Ministers - Civil Protection Department (PCM - DPC)
USER1: 
USER2: 
USER3: 
USER4: 
USER5: 
    0.010000     0.000019
    0.020000     0.000077
    0.022000     0.000093
    0.025000     0.000122
    0.029000     0.000163
    0.030000     0.000175
    0.032000     0.000199
    0.035001     0.000241
    0.036000     0.000257
    0.040000     0.000320
    0.041999     0.000355
    0.044001     0.000393
    0.045000     0.000414
    0.046000     0.000433
    0.048001     0.000475
    0.050000     0.000516
    0.054999     0.000619
    0.059999     0.000761
    0.064998     0.000899
    0.067002     0.000973
    0.069999     0.001110
    0.075002     0.001233
    0.080000     0.001468
    0.084998     0.001923
    0.090001     0.002098
    0.095003     0.002602
    0.100000     0.003121
    0.109999     0.003841
    0.120005     0.005267
    0.130005     0.007995
    0.132996     0.008714
    0.139997     0.010011
    0.149993     0.010265
    0.160000     0.013406
    0.170010     0.014567
    0.179986     0.016557
    0.190006     0.018851
    0.200000     0.018886
    0.220022     0.027450
    0.239981     0.038565
    0.250000     0.045157
    0.260010     0.042778
    0.280034     0.032316
    0.290023     0.030881
    0.300030     0.029578
    0.320000     0.032968
    0.340020     0.043220
    0.350017     0.045129
    0.359971     0.048563
    0.379939     0.057749
    0.400000     0.063837
    0.419992     0.061813
    0.439947     0.064706
    0.450045     0.077810
    0.459982     0.085416
    0.480077     0.086666
    0.500000     0.081584
    0.550055     0.130371
    0.599880     0.122899
    0.650195     0.096662
    0.667111     0.102919
    0.699790     0.111461
    0.750188     0.135675
    0.800000     0.163853
    0.850340     0.180892
    0.900090     0.181674
    0.949668     0.189336
    1.000000     0.251132
    1.100110     0.346699
    1.200480     0.498499
    1.300390     0.628626
    1.400560     0.544756
    1.499250     0.442628
    1.600000     0.359114
    1.700680     0.402997
    1.798561     0.421088
    1.901141     0.398230
    2.000000     0.367989
    2.197802     0.302720
    2.398082     0.312552
    2.500000     0.304612
    2.597403     0.382298
    2.801121     0.386066
    3.003003     0.361937
    3.205128     0.461374
    3.401361     0.478432
    3.496503     0.472795
    3.597122     0.454099
    3.802281     0.378302
    4.000000     0.445668
    4.201681     0.489165
    4.405286     0.483167
    4.608295     0.431389
    4.807692     0.356796
    5.000000     0.303546
    5.494505     0.334721
    5.988024     0.294033
    6.493506     0.286617
    6.993007     0.279560
    7.518797     0.251599
    8.000000     0.241882
    8.474576     0.217239
    9.009009     0.197553
    9.523809     0.197362
   10.000000     0.211997
