EVENT_NAME: L_AQUILA
EVENT_ID: IT-2009-0009
EVENT_DATE_YYYYMMDD: 20090406
EVENT_TIME_HHMMSS: 013240
EVENT_LATITUDE_DEGREE: 42.3420
EVENT_LONGITUDE_DEGREE: 13.3800
EVENT_DEPTH_KM: 8.3
HYPOCENTER_REFERENCE: INGV-CNT_Seismic_Bulletin
MAGNITUDE_W: 6.1
MAGNITUDE_W_REFERENCE: INGV-CNT_Seismic_Bulletin
MAGNITUDE_L: 
MAGNITUDE_L_REFERENCE: 
FOCAL_MECHANISM: Normal faulting
NETWORK: IT
STATION_CODE: AVZ
STATION_NAME: 
STATION_LATITUDE_DEGREE: 42.027458
STATION_LONGITUDE_DEGREE: 13.425929
STATION_ELEVATION_M: 746
LOCATION: 
SENSOR_DEPTH_M: 0.0
VS30_M/S: 199
SITE_CLASSIFICATION_EC8: C
MORPHOLOGIC_CLASSIFICATION: 
EPICENTRAL_DISTANCE_KM: 35.1
EARTHQUAKE_BACKAZIMUTH_DEGREE: 173.8
DATE_TIME_FIRST_SAMPLE_YYYYMMDD_HHMMSS: 20090406_013219.000
DATE_TIME_FIRST_SAMPLE_PRECISION: seconds
SAMPLING_INTERVAL_S: 0.005000
NDATA: 24000
DURATION_S: 120.000
STREAM: HNE
UNITS: cm/s^2
INSTRUMENT: sensor = FBA-3 [Kinemetrics] | digitizer = Everest [Kinemetrics]
INSTRUMENT_ANALOG/DIGITAL: D
INSTRUMENTAL_FREQUENCY_HZ: 212.000
INSTRUMENTAL_DAMPING: 0.700000
FULL_SCALE_G: 1.0
N_BIT_DIGITAL_CONVERTER: 24
PGA_CM/S^2: -54.873024
TIME_PGA_S: 40.175000
BASELINE_CORRECTION: BASELINE REMOVED
FILTER_TYPE: BUTTERWORTH
FILTER_ORDER: 2
LOW_CUT_FREQUENCY_HZ: 0.050
HIGH_CUT_FREQUENCY_HZ: 40.000
LATE/NORMAL_TRIGGERED: NT
DATABASE_VERSION: 0.5
HEADER_FORMAT: DYNA 1.2
DATA_TYPE: ACCELERATION
PROCESSING: manual (Paolucci et al., 2011)
DATA_TIMESTAMP_YYYYMMDD_HHMMSS: 20211011_160012.075
DATA_LICENSE: CC-BY3_0-IT (http://creativecommons.org/licenses/by/3.0/deed.en)
DATA_CITATION: Luzi L, Pacor F, Puglia R (2019). Italian Accelerometric Archive v 3.0 - Istituto Nazionale di Geofisica e Vulcanologia, Dipartimento della Protezione Civile Nazionale. doi: 10.13127/itaca.3.1
DATA_CREATOR: ITACA working group
ORIGINAL_DATA_MEDIATOR_CITATION: data obtained within the DPC-INGV data exchange agreements
ORIGINAL_DATA_MEDIATOR: Archive of Italian Department of Civil Protection
ORIGINAL_DATA_CREATOR_CITATION: Presidency Of Counsil Of Ministers-Civil Protection Department. (1972). Italian Strong Motion Network. Presidency of Counsil of Ministers - Civil Protection Department. https://doi.org/10.7914/SN/IT http://www.fdsn.org/networks/detail/IT/
ORIGINAL_DATA_CREATOR: network: IT (Italian Strong Motion Network (RAN)); owner: Presidency of Counsil of Ministers - Civil Protection Department (PCM - DPC)
USER1: 
USER2: 
USER3: 
USER4: 
USER5: 
[...]
-0.953770
-0.820038
-0.891284
-1.097606
-1.338502
-1.533197
-1.655391
-1.718601
-1.729596
-1.672293
-1.535157
-1.338777
-1.135907
-0.991665
-0.956826
-1.048593
-1.254129
-1.536307
-1.818309
-1.989738
-1.967708
-1.743354
-1.350812
-0.820583
-0.188894
0.469689
1.041856
1.409558
1.495985
1.302886
0.913594
0.446540
-0.009639
-0.428118
-0.826590
-1.222749
-1.605193
-1.944031
-2.215903
-2.408023
-2.504212
-2.482841
-2.334998
-2.084443
-1.793936
-1.542488
-1.376520
-1.273510
-1.146730
-0.881227
-0.374550
0.429703
1.520271
2.826109
4.247932
5.675353
6.985227
8.058265
8.816651
9.243702
9.379470
9.315737
9.173813
9.047471
8.960269
8.864079
8.642349
8.135041
7.224576
5.916416
4.324767
2.594391
0.843096
-0.856607
-2.472612
-3.992687
-5.408900
-6.725254
-7.963713
-9.129326
-10.164060
-10.959010
-11.422115
-11.533589
-11.347648
-10.954516
-10.432310
-9.814618
-9.102161
-8.300839
-7.426886
-6.486204
-5.485900
-4.469239
-3.515485
-2.695120
-2.028172
-1.479447
-0.980811
-0.468774
0.063545
0.536871
0.830003
0.860355
0.608548
0.093301
-0.626016
-1.421162
-2.107943
-2.509819
-2.518674
-2.115517
-1.351756
-0.314872
0.884211
2.097526
3.156295
3.947398
4.474657
4.827737
5.102204
5.353665
5.592587
5.789290
5.888377
5.834617
5.596325
5.192692
4.715854
4.287965
3.960015
3.661600
3.252829
2.611483
1.688855
0.530397
-0.740302
-1.971881
-3.023858
-3.774682
-4.139129
-4.103948
-3.736119
-3.149079
-2.456230
-1.732235
-1.013462
-0.354622
0.132016
0.337188
0.258734
0.021989
-0.191028
-0.215361
0.051350
0.624102
1.447973
2.445784
3.538507
4.633923
5.629469
6.438528
7.019510
7.396581
7.641431
7.797805
7.830283
7.676887
7.332095
6.860231
6.359921
5.918035
5.565946
5.290645
5.101475
5.057275
5.212212
5.551256
5.987221
6.405273
6.702027
6.802369
6.659761
6.248005
5.569452
4.686440
3.726521
2.822124
2.034488
1.341919
0.688036
0.025331
-0.670527
-1.401180
-2.150899
-2.889792
-3.571384
-4.136805
-4.536375
-4.750300
-4.786620
-4.665890
-4.409209
-4.035445
-3.569594
-3.050068
-2.521207
-2.023742
-1.605957
-1.342666
-1.316227
-1.551506
-1.964578
-2.385644
-2.647179
-2.669008
-2.479695
-2.172429
-1.848988
-1.599301
-1.503227
-1.616881
-1.947889
-2.455992
-3.089384
-3.824867
-4.675066
-5.658574
-6.757943
-7.888998
-8.898895
-9.607524
-9.878537
-9.677223
-9.083639
-8.262477
-7.411286
-6.704296
-6.239914
-6.016425
-5.964933
-6.018021
-6.151189
-6.361532
-6.609539
-6.788030
-6.765665
-6.478028
-5.974995
-5.378316
-4.813688
-4.391062
-4.208790
-4.328531
-4.735813
-5.330033
-5.957639
-6.474029
-6.797250
-6.905534
-6.785653
-6.410626
-5.776289
-4.936459
-3.995543
-3.071006
-2.252074
-1.588123
-1.114987
-0.872417
-0.876823
-1.087512
-1.418154
-1.776321
-2.086049
-2.292503
-2.363504
-2.283180
-2.043272
-1.647644
-1.115470
-0.467792
0.271234
1.047188
1.773982
2.377028
2.832389
3.172568
3.467703
3.785914
4.153864
4.562006
5.006740
5.506044
6.065790
6.645419
7.172513
7.591995
7.893903
8.095628
8.209661
8.231962
8.150188
7.953969
7.634105
7.177948
6.587420
5.913014
5.252352
4.690041
4.234679
3.824361
3.384440
2.859242
2.197930
1.347632
0.278119
-0.983542
-2.326046
-3.570801
-4.558826
-5.241378
-5.681788
-5.978529
-6.199551
-6.380255
-6.554296
-6.753298
-6.965029
-7.114252
-7.106878
-6.889151
-6.464247
-5.872942
-5.166497
-4.382563
-3.540897
-2.667653
-1.815018
-1.042972
-0.382299
0.176285
0.658053
1.079894
1.443874
1.736771
1.926954
1.952191
1.718733
1.155485
0.292536
-0.731628
-1.747276
-2.633291
-3.347290
-3.909446
-4.363943
-4.754955
-5.138095
-5.600172
-6.240280
-7.116265
-8.202225
-9.379347
-10.461912
-11.256328
-11.639575
-11.621321
-11.339051
-10.983865
-10.718281
-10.631721
-10.734188
-10.974721
-11.266955
-11.524826
-11.716123
-11.881947
-12.082558
-12.332200
-12.598937
-12.860004
-13.142314
-13.497758
-13.937156
-14.398589
-14.791459
-15.072362
-15.274877
-15.465060
-15.672519
-15.865752
-15.978565
-15.941401
-15.683051
-15.115109
-14.137441
-12.672500
-10.702933
-8.290098
-5.550476
-2.597848
0.489609
3.657914
6.859202
10.037609
13.108026
15.952262
18.457672
20.547564
22.148926
23.157320
23.478157
23.101126
22.120218
20.696535
19.003307
17.169241
15.239645
13.185369
10.969137
8.623970
6.261402
4.000147
1.902004
-0.031484
-1.827608
-3.494625
-4.966589
-6.098471
-6.742559
-6.842856
-6.472968
-5.798872
-4.996121
-4.185364
-3.425917
-2.732698
-2.078697
-1.403426
-0.649259
0.188174
1.028622
1.725985
2.133951
2.178559
1.894307
1.407590
0.881828
0.454795
0.206492
0.173478
0.377996
0.826346
1.471645
2.190900
2.817622
3.202486
3.254018
2.952781
2.354296
1.576959
0.763697
0.038530
-0.505966
-0.792926
-0.754239
-0.354982
0.367829
1.295840
2.272298
3.163430
3.889782
4.414885
4.712532
4.751711
4.518006
4.049907
3.458824
2.912226
2.579908
2.579365
2.951345
3.650049
4.545906
5.466724
6.253505
6.783697
6.973355
6.792212
6.278625
5.533256
4.693862
3.884934
3.164048
2.520325
1.920992
1.349670
0.812427
0.314436
-0.183292
-0.781216
-1.595229
-2.691818
-4.069483
-5.678386
-7.435629
-9.235350
-10.967689
-12.530260
-13.826540
-14.784838
-15.409814
-15.811189
-16.155960
-16.583956
-17.164631
-17.892414
-18.674740
-19.334085
-19.676065
-19.587366
-19.073624
-18.233339
-17.222116
-16.209234
-15.322930
-14.623931
-14.114991
-13.749030
-13.437366
-13.097763
-12.721486
-12.384647
-12.191588
-12.208743
-12.435563
-12.821878
-13.314432
-13.893703
-14.574142
-15.387366
-16.371971
-17.557190
-18.931631
-20.418196
-21.882738
-23.177700
-24.187607
-24.845819
-25.122604
-25.008032
-24.510963
-23.674185
-22.582838
-21.340412
-20.031118
-18.710424
-17.413425
-16.148958
-14.893395
-13.609413
-12.272980
-10.884083
-9.469103
-8.081086
-6.780237
-5.591955
-4.484716
-3.404933
-2.339469
-1.351522
-0.564225
-0.094807
0.011019
-0.222637
-0.761098
-1.595231
-2.715085
-4.063587
-5.525205
-6.963725
-8.290183
-9.515773
-10.734583
-12.036468
-13.426400
-14.812035
-16.045984
-16.979580
-17.500051
-17.540882
-17.071808
-16.087860
-14.605652
-12.659845
-10.305538
-7.622854
-4.699823
-1.597563
1.674635
5.142736
8.803678
12.577429
16.326900
19.905861
23.183409
26.049318
28.425165
30.282160
31.651438
32.620670
33.309971
33.828709
34.242138
34.561657
34.744675
34.714741
34.418167
33.882084
33.221394
32.590031
32.122192
31.901564
31.957224
32.269131
32.765034
33.309975
33.718410
33.804131
33.446190
32.639339
31.510252
30.285528
29.210316
28.460123
28.097176
28.076477
28.286026
28.606419
28.959267
29.311668
29.637165
29.875071
29.934683
29.744495
29.294300
28.625345
27.784557
26.788908
25.621401
24.258745
22.719215
21.088152
19.476339
17.935110
16.410744
14.784151
12.951906
10.877478
8.591292
6.157815
3.642784
1.110652
-1.355120
-3.644670
-5.646376
-7.280360
-8.497086
-9.245591
-9.477109
-9.199563
-8.498443
-7.483064
-6.230038
-4.781025
-3.180303
-1.520228
0.042214
1.324355
2.185926
2.572389
2.517656
2.119318
1.501009
0.785357
0.085988
-0.491183
-0.850253
-0.941032
-0.827112
-0.722060
-0.937105
-1.743883
-3.225299
-5.230003
-7.467544
-9.630039
-11.427606
-12.580031
-12.857436
-12.166418
-10.605172
-8.435534
-6.000523
-3.640577
-1.621401
-0.094195
0.882566
1.303411
1.217932
0.735160
-0.025492
-0.988028
-2.114563
-3.369226
-4.707959
-6.089315
-7.460514
-8.733272
-9.828175
-10.760757
-11.640661
-12.587176
-13.665288
-14.857125
-16.051992
-17.080032
-17.782635
-18.062689
-17.878323
-17.207392
-16.038837
-14.401147
-12.379462
-10.092955
-7.654692
-5.139031
-2.568874
0.073973
2.812982
5.632324
8.478679
11.302459
14.047752
16.592438
18.747686
20.335297
21.245417
21.440763
20.957237
19.893734
18.357615
16.417334
14.124083
11.574046
8.948139
6.499195
4.480333
3.048131
2.214502
1.872781
1.853182
1.968879
2.051853
1.985171
1.719492
1.265599
0.686877
0.111986
-0.261495
-0.213375
0.408842
1.599658
3.172416
4.842520
6.348913
7.512437
8.224502
8.429270
8.131260
7.396398
6.315092
4.956376
3.361258
1.568080
-0.369137
-2.377417
-4.367435
-6.237172
-7.885989
-9.256012
-10.366086
-11.284783
-12.064064
-12.694327
-13.104577
-13.197759
-12.898062
-12.183169
-11.098447
-9.770943
-8.412981
-7.284461
-6.609675
-6.480946
-6.807461
-7.344604
-7.779197
-7.825930
-7.298889
-6.142146
-4.433577
-2.365165
-0.186736
1.867378
3.631988
5.027349
6.045895
6.744723
7.254415
7.764028
8.464638
9.483162
10.843539
12.477102
14.265892
16.064280
17.697107
18.996971
19.877888
20.363577
20.528664
20.410828
19.981661
19.188557
18.017168
16.531813
14.870660
13.188433
11.579194
10.047660
8.555440
7.084049
5.651644
4.289737
3.023002
1.874690
0.887732
0.132628
-0.317322
-0.430427
-0.248884
0.114664
0.515552
0.829725
0.999226
1.048557
1.056894
1.108773
1.262519
1.544839
1.964728
2.544372
3.343518
4.455175
5.986247
8.016984
10.521213
13.310640
16.079695
18.510370
20.348078
21.432911
21.714359
21.249708
20.186447
18.757132
17.278996
16.103487
15.502388
15.558458
16.148392
17.024487
17.922421
18.650824
19.145025
19.444901
19.613049
19.689669
19.716391
19.756504
19.865648
20.039915
20.192352
20.192810
19.941114
19.408358
18.632389
17.700031
16.727991
15.818312
14.997375
14.207148
13.378075
12.510057
11.681028
10.996846
10.539999
10.347616
10.425331
10.775448
11.402933
12.295640
13.404724
14.640941
15.887015
17.018473
17.922564
18.516685
18.765739
18.681881
18.310867
17.726095
17.009369
16.195303
15.232016
14.015420
12.460718
10.542928
8.301713
5.832178
3.266880
0.762621
-1.519302
-3.466321
-5.057016
-6.341681
-7.396478
-8.290925
-9.064031
-9.712796
-10.202997
-10.504694
-10.645558
-10.744412
-10.983148
-11.535588
-12.520144
-13.994661
-15.953179
-18.309851
-20.900686
-23.529085
-26.023710
-28.264494
-30.198782
-31.870420
-33.418907
-35.015060
-36.773327
-38.702896
-40.704308
-42.586506
-44.108921
-45.050373
-45.263107
-44.684059
-43.320778
-41.224358
-38.465778
-35.149101
-31.439184
-27.532431
-23.574005
-19.629368
-15.756652
-12.078969
-8.777172
-6.036779
-3.999568
-2.740683
-2.257675
-2.457038
-3.184559
-4.309455
-5.752148
-7.422174
-9.204042
-11.031096
-12.922189
-14.935886
-17.093544
-19.321690
-21.460531
-23.330162
-24.794827
-25.786413
-26.298817
-26.382233
-26.111040
-25.526731
-24.657415
-23.588423
-22.427664
-21.222349
-19.994059
-18.814451
-17.773075
-16.915791
-16.268721
-15.871016
-15.731498
-15.790897
-15.971217
-16.229193
-16.519775
-16.749065
-16.818729
-16.697781
-16.421318
-16.039528
-15.587123
-15.080557
-14.520732
-13.902866
-13.231717
-12.525041
-11.801900
-11.068880
-10.317625
-9.529480
-8.685761
-7.793782
-6.894211
-6.020450
-5.160347
-4.262009
-3.273597
-2.190488
-1.065044
0.030413
1.042022
1.947772
2.751930
3.465084
4.075495
4.534846
4.774605
4.734422
4.381748
3.721765
2.804747
1.737753
0.681915
-0.185467
-0.713589
-0.803797
-0.444269
0.272935
1.198489
2.180384
3.082140
3.805265
4.311267
4.608869
4.733800
4.746581
4.722599
4.724379
4.782918
4.895018
5.024884
5.115656
5.113154
4.979864
4.693621
4.254216
3.693845
3.068921
2.443857
1.885500
1.463487
1.248140
1.306043
1.682893
2.370031
3.296904
4.377245
5.560177
6.828224
8.152380
9.477655
10.776788
12.090893
13.484434
14.987769
16.611277
18.378759
20.306427
22.363422
24.472580
26.536242
28.449648
30.099571
31.376036
32.212337
32.610645
32.616692
32.295429
31.739002
31.049253
30.298262
29.535919
28.820192
28.204697
27.714205
27.351444
27.092363
26.858084
26.530588
26.003500
25.182182
23.957533
22.242075
20.021809
17.331505
14.199175
10.680590
6.974827
3.436420
0.393537
-2.046645
-3.983989
-5.545647
-6.776643
-7.677958
-8.266749
-8.585324
-8.680882
-8.570749
-8.207739
-7.487520
-6.304028
-4.602570
-2.410396
0.162785
2.991305
6.005526
9.149015
12.277248
15.154878
17.551123
19.308214
20.338570
20.600771
20.090519
18.862366
17.061029
14.902799
12.614413
10.387352
8.359196
6.607326
5.156368
3.999179
3.109617
2.448344
1.997763
1.805921
1.970942
2.573262
3.628286
5.086318
6.861793
8.879924
11.107852
13.529818
16.103783
18.767303
21.464684
24.129492
26.647940
28.868704
30.654572
31.925743
32.674026
32.958885
32.884438
32.545132
31.973616
31.151152
30.070028
28.765188
27.276037
25.607950
23.753630
21.719679
19.517103
17.176682
14.787458
12.454505
10.198193
7.936002
5.578302
3.154757
0.848680
-1.127212
-2.676779
-3.800071
-4.453232
-4.475983
-3.647169
-1.813207
0.990393
4.520689
8.410101
12.254173
15.680483
18.416790
20.323837
21.366276
21.566149
20.993570
19.761032
17.962563
15.627676
12.777063
9.487971
5.861661
1.949112
-2.274353
-6.863395
-11.823526
-17.080011
-22.516905
-28.008751
-33.409809
-38.553795
-43.273811
-47.391472
-50.698421
-53.023312
-54.357258
-54.873024
-54.784306
-54.208065
-53.196606
-51.877174
-50.465912
-49.110302
-47.799232
-46.466465
-45.129700
-43.906040
-42.930447
-42.280788
-41.936897
-41.768436
-41.590824
-41.274467
-40.806362
-40.271671
-39.803307
-39.505020
-39.380333
-39.364433
-39.430614
-39.613548
-39.917171
-40.245232
-40.445698
-40.400181
-40.054169
-39.394436
-38.430950
-37.173759
-35.589268
-33.600845
-31.162725
-28.314419
-25.158609
-21.828705
-18.486717
-15.288182
-12.311406
-9.553244
-6.994504
-4.650101
-2.579407
-0.868810
0.392263
1.129280
1.301653
0.897335
-0.104750
-1.724693
-3.896520
-6.427729
-9.065980
-11.573853
-13.753842
-15.466279
-16.640589
-17.258684
-17.348541
-17.000221
-16.353880
-15.553707
-14.707816
-13.869508
-13.047082
-12.240722
-11.483511
-10.859651
-10.470789
-10.360122
-10.464670
-10.648357
-10.783177
-10.800978
-10.688538
-10.458562
-10.128681
-9.721743
-9.275618
-8.828900
-8.382631
-7.885100
-7.259259
-6.439770
-5.388048
-4.079868
-2.486891
-0.579103
1.658613
4.213384
7.036398
10.042920
13.124332
16.167376
19.063293
21.700125
23.964054
25.767651
27.082232
27.944637
28.439959
28.684698
28.816359
28.962547
29.191538
29.501284
29.842718
30.119303
30.204800
30.010031
29.511618
28.731436
27.734369
26.636642
25.587381
24.723822
24.140848
23.904356
24.058084
24.586088
25.386606
26.298710
27.160051
27.858891
28.330603
28.516129
28.366018
27.866726
27.035749
25.927084
24.643543
23.304354
21.983419
20.682976
19.368427
17.994503
16.493275
14.802658
12.923381
10.921034
8.896084
6.953251
5.159802
3.540863
2.123695
0.956169
0.080546
-0.479840
-0.703060
-0.570935
-0.092929
0.704537
1.800116
3.158268
4.704788
6.341264
7.971474
9.510634
10.890210
12.067307
13.028926
13.785793
14.365854
14.819715
15.223800
15.658661
16.172321
16.764395
17.405844
18.058037
18.663109
19.141182
19.419312
19.455568
19.229609
18.728153
17.961121
16.987000
15.902635
14.803685
13.761281
12.831135
12.063189
11.492996
11.136135
10.994300
11.059817
11.315143
11.725815
12.229741
12.740701
13.168562
13.438673
13.502747
13.347249
13.003448
12.548080
12.085937
11.731625
11.603964
11.816396
12.449440
13.521039
14.978047
16.713142
18.598183
20.521029
22.403551
24.191919
25.845175
27.343756
28.705669
29.983772
31.235453
32.490952
33.739777
34.927334
35.970417
36.795338
37.363770
37.657700
37.647766
37.298248
36.594471
35.529423
34.067856
32.152695
29.752169
26.893646
23.654345
20.134884
16.440302
12.662045
8.865656
5.097525
1.399376
-2.194966
-5.676469
-9.056899
-12.335790
-15.477837
-18.424578
-21.102961
-23.413485
-25.244539
-26.521442
-27.237410
-27.445389
-27.242085
-26.764069
-26.172577
-25.611988
-25.171633
-24.878834
-24.714514
-24.637295
-24.611414
-24.621481
-24.663818
-24.734652
-24.833767
-24.975870
-25.188412
-25.489117
-25.869959
-26.306376
-26.766691
-27.209782
-27.594782
-27.898594
-28.115389
-28.241236
-28.260052
-28.143215
-27.862251
-27.393269
-26.720657
-25.867695
-24.921848
-24.013039
-23.280251
-22.859804
-22.867815
-23.374331
-24.392963
-25.877291
-27.732700
-29.855309
-32.160069
-34.587254
-37.101505
-39.664371
-42.197033
-44.583195
-46.700268
-48.438702
-49.717869
-50.512375
-50.860664
-50.845470
-50.574375
-50.168385
-49.739899
-49.353470
-48.997540
-48.603775
-48.100430
-47.450230
-46.653950
-45.737164
-44.734409
-43.674316
-42.578438
-41.476490
-40.411858
-39.428192
-38.565472
-37.875160
-37.424461
-37.273151
-37.446136
-37.927456
-38.668015
-39.586746
-40.576427
-41.529221
-42.358215
-43.000546
-43.416431
-43.575836
-43.431252
-42.929733
-42.072124
-40.913551
-39.488392
-37.812908
-35.952332
-33.977962
-31.888885
-29.650698
-27.253500
-24.695204
-21.966171
-19.079266
-16.091524
-13.092560
-10.185426
-7.466982
-5.012766
-2.880968
-1.123134
0.220115
1.134381
1.635031
1.755963
1.543776
1.055791
0.347754
-0.536678
-1.563863
-2.706657
-3.941546
-5.238712
-6.557040
-7.859335
-9.128702
-10.360029
-11.538459
-12.631122
-13.592704
-14.375508
-14.944393
-15.282849
-15.380587
-15.228378
-14.832313
-14.230393
-13.501557
-12.752266
-12.074421
-11.516122
-11.085513
-10.747937
-10.428065
-10.058467
-9.622997
-9.139568
-8.621154
-8.068553
-7.491774
-6.925287
-6.431021
-6.083982
-5.911371
-5.838757
-5.738830
-5.525846
-5.168096
-4.640174
-3.900491
-2.885401
-1.513689
0.267952
2.445773
4.959589
7.742667
10.746116
13.954843
17.365089
20.921118
24.497520
27.948929
31.153065
34.029972
36.550610
38.716366
40.526810
41.974861
43.065464
43.822632
44.264145
44.373863
44.117744
43.481701
42.467056
41.054165
39.207325
36.925892
34.269577
31.334534
28.227905
25.062193
21.940128
18.925264
16.043491
13.322304
10.804272
8.521724
6.492291
4.742969
3.320901
2.282704
1.677688
1.537827
1.882384
2.717976
4.016273
5.709137
7.721310
9.990026
12.457381
15.066239
17.764830
20.511148
23.274267
26.033407
28.768415
31.442984
34.005165
36.407063
38.612183
40.590328
42.327309
43.838829
45.166161
46.355343
47.427650
48.364555
49.112373
49.602093
49.813622
49.825375
49.733372
49.517155
49.034092
48.141605
46.792057
45.007851
42.805756
40.189156
37.201817
33.938503
30.487370
26.885754
23.139071
19.267517
15.329929
11.421086
7.659715
4.148736
0.920339
-2.053107
-4.773288
-7.162020
-9.099770
-10.488564
-11.277098
-11.470064
-11.128138
-10.343404
-9.213016
-7.827139
-6.265123
-4.598835
-2.901361
-1.259471
0.217799
1.416998
2.265218
2.754708
2.924878
