EVENT_NAME: L_AQUILA
EVENT_ID: IT-2009-0009
EVENT_DATE_YYYYMMDD: 20090406
EVENT_TIME_HHMMSS: 013240
EVENT_LATITUDE_DEGREE: 42.3420
EVENT_LONGITUDE_DEGREE: 13.3800
EVENT_DEPTH_KM: 8.3
HYPOCENTER_REFERENCE: INGV-CNT_Seismic_Bulletin
MAGNITUDE_W: 6.1
MAGNITUDE_W_REFERENCE: INGV-CNT_Seismic_Bulletin
MAGNITUDE_L: 
MAGNITUDE_L_REFERENCE: 
FOCAL_MECHANISM: Normal faulting
NETWORK: IT
STATION_CODE: AVZ
STATION_NAME: 
STATION_LATITUDE_DEGREE: 42.027458
STATION_LONGITUDE_DEGREE: 13.425929
STATION_ELEVATION_M: 746
LOCATION: 
SENSOR_DEPTH_M: 0.0
VS30_M/S: 199
SITE_CLASSIFICATION_EC8: C
MORPHOLOGIC_CLASSIFICATION: 
EPICENTRAL_DISTANCE_KM: 35.1
EARTHQUAKE_BACKAZIMUTH_DEGREE: 173.8
DATE_TIME_FIRST_SAMPLE_YYYYMMDD_HHMMSS: 20090406_013219.000
DATE_TIME_FIRST_SAMPLE_PRECISION: seconds
SAMPLING_INTERVAL_S: 0.005000
NDATA: 27800
DURATION_S: 139.000
STREAM: HNN
UNITS: cm/s^2
INSTRUMENT: sensor = FBA-3 [Kinemetrics] | digitizer = Everest [Kinemetrics]
INSTRUMENT_ANALOG/DIGITAL: D
INSTRUMENTAL_FREQUENCY_HZ: 204.000
INSTRUMENTAL_DAMPING: 0.700000
FULL_SCALE_G: 1.0
N_BIT_DIGITAL_CONVERTER: 24
PGA_CM/S^2: -67.687447
TIME_PGA_S: 41.370000
BASELINE_CORRECTION: BASELINE NOT REMOVED
FILTER_TYPE: 
FILTER_ORDER: 
LOW_CUT_FREQUENCY_HZ: 
HIGH_CUT_FREQUENCY_HZ: 
LATE/NORMAL_TRIGGERED: NT
DATABASE_VERSION: 0.5
HEADER_FORMAT: DYNA 1.2
DATA_TYPE: ACCELERATION
PROCESSING: converted to cm/s^2
DATA_TIMESTAMP_YYYYMMDD_HHMMSS: 20211011_160012.506
DATA_LICENSE: CC-BY3_0-IT (http://creativecommons.org/licenses/by/3.0/deed.en)
DATA_CITATION: Luzi L, Pacor F, Puglia R (2019). Italian Accelerometric Archive v 3.0 - Istituto Nazionale di Geofisica e Vulcanologia, Dipartimento della Protezione Civile Nazionale. doi: 10.13127/itaca.3.1
DATA_CREATOR: ITACA working group
ORIGINAL_DATA_MEDIATOR_CITATION: data obtained within the DPC-INGV data exchange agreements
ORIGINAL_DATA_MEDIATOR: Archive of Italian Department of Civil Protection
ORIGINAL_DATA_CREATOR_CITATION: Presidency Of Counsil Of Ministers-Civil Protection Department. (1972). Italian Strong Motion Network. Presidency of Counsil of Ministers - Civil Protection Department. https://doi.org/10.7914/SN/IT http://www.fdsn.org/networks/detail/IT/
ORIGINAL_DATA_CREATOR: network: IT (Italian Strong Motion Network (RAN)); owner: Presidency of Counsil of Ministers - Civil Protection Department (PCM - DPC)
USER1: 
USER2: 
USER3: 
USER4: 
USER5: 
[...]
-6.214151
-7.282204
-8.151685
-8.748451
-9.153897
-9.529873
-10.088280
-10.888060
-11.847590
-12.766070
-13.429620
-13.730280
-13.591820
-13.066850
-12.275490
-11.386360
-10.564130
-9.854394
-9.261252
-8.675244
-7.976970
-7.136725
-6.158603
-5.084820
-4.000512
-3.048001
-2.330664
-1.890369
-1.736002
-1.843708
-2.147179
-2.583264
-3.121442
-3.681488
-4.188208
-4.596460
-4.875139
-5.077335
-5.312160
-5.650246
-6.062591
-6.413658
-6.601120
-6.599015
-6.387696
-6.081653
-5.851974
-5.793853
-5.930210
-6.122701
-6.068555
-5.470736
-4.365729
-2.993739
-1.528543
-0.153629
0.972194
1.710463
2.005631
1.947977
1.650120
1.242452
0.815489
0.393203
0.017811
-0.328344
-0.705021
-1.182037
-1.828505
-2.611681
-3.497652
-4.400345
-5.145982
-5.645802
-5.919451
-6.039436
-5.982133
-5.722634
-5.320930
-4.788717
-4.163065
-3.389361
-2.294762
-0.786648
1.093699
3.177179
5.336439
7.487513
9.530179
11.321180
12.716680
13.781460
14.641230
15.333660
15.833130
16.023861
15.871020
15.476680
14.939090
14.367230
13.788120
13.114050
12.360110
11.516950
10.584780
9.654724
8.697652
7.680003
6.564822
5.298315
3.836745
2.247355
0.782744
-0.479319
-1.565498
-2.459654
-3.154771
-3.648627
-3.968820
-4.119211
-4.120380
-3.908477
-3.420234
-2.727690
-1.962056
-1.315003
-0.895407
-0.657893
-0.504813
-0.338518
-0.056448
0.440799
1.199417
2.131580
3.047020
3.754533
4.163955
4.368491
4.480523
4.568699
4.662255
4.699560
4.586943
4.205470
3.556312
2.786117
2.009607
1.328056
0.910096
0.907056
1.298819
1.936751
2.685545
3.469891
4.261487
5.065947
5.867483
6.578738
7.039499
7.133405
6.891681
6.380167
5.688324
4.858253
3.867501
2.779334
1.666375
0.526987
-0.679060
-1.918903
-3.144597
-4.323278
-5.381157
-6.334019
-7.257177
-8.221149
-9.208393
-10.112610
-10.802930
-11.126510
-11.048630
-10.593830
-9.818141
-8.824933
-7.689053
-6.489555
-5.265265
-4.073485
-2.962398
-1.912588
-0.971187
-0.215726
0.237550
0.311576
0.120722
-0.175498
-0.401200
-0.401317
-0.132813
0.429221
1.185851
1.962245
2.676657
3.228284
3.585198
3.841774
4.110511
4.428015
4.754290
5.151316
5.647861
6.169667
6.689601
7.174219
7.659537
8.213386
8.805124
9.447850
10.155010
10.904160
11.669210
12.313690
12.810580
13.254500
13.652580
14.019090
14.368750
14.644390
14.716660
14.424180
13.652110
12.435190
10.941930
9.393237
7.966633
6.690420
5.545184
4.429419
3.150633
1.612815
-0.165206
-2.022516
-3.770600
-5.341279
-6.675146
-7.678060
-8.252256
-8.386392
-8.221851
-7.907856
-7.482880
-6.882722
-6.078496
-5.141187
-4.090209
-2.936202
-1.728986
-0.491247
0.713513
1.820157
2.806582
3.730676
4.738619
5.877306
7.122179
8.407396
9.577892
10.556480
11.319890
11.835270
12.056880
11.936310
11.484320
10.671090
9.504684
8.096559
6.639549
5.400992
4.532330
4.056132
3.881885
3.891943
4.037538
4.222544
4.374221
4.450235
4.359603
4.002338
3.290732
2.154267
0.589201
-1.275944
-3.254875
-5.137094
-6.759696
-8.147592
-9.430470
-10.710890
-11.968400
-13.073870
-13.889320
-14.285760
-14.205770
-13.626780
-12.517220
-10.948760
-8.999998
-6.730460
-4.251124
-1.659404
0.869751
3.188172
5.211542
6.823269
7.988151
8.730631
9.160400
9.413351
9.535675
9.538131
9.424344
9.230802
9.009075
8.746535
8.317349
7.587851
6.529738
5.195755
3.698049
2.143508
0.602182
-0.864066
-2.200739
-3.362113
-4.332283
-5.122593
-5.761928
-6.371675
-7.057787
-7.795706
-8.511990
-9.072504
-9.396557
-9.530808
-9.555952
-9.534317
-9.477716
-9.383693
-9.193892
-8.794527
-8.010416
-6.673040
-4.793161
-2.526429
-0.111178
2.250278
4.455029
6.406596
7.942894
8.931307
9.383998
9.366340
9.011297
8.460957
7.799754
7.151298
6.653466
6.417238
6.447877
6.660482
6.951557
7.267891
7.628781
7.991309
8.285657
8.466570
8.522703
8.487737
8.389738
8.290569
8.285072
8.497561
8.974576
9.573215
10.082390
10.328320
10.217810
9.694017
8.772380
7.612877
6.344499
4.972859
3.434807
1.659827
-0.337582
-2.516840
-4.819122
-7.088310
-9.194009
-11.036350
-12.485520
-13.475340
-14.055730
-14.386570
-14.578010
-14.629820
-14.499070
-14.174430
-13.752260
-13.309400
-12.898340
-12.564110
-12.321920
-12.201470
-12.216550
-12.419100
-12.763970
-13.151640
-13.559890
-13.898330
-14.114090
-14.171740
-14.071050
-13.930960
-13.874820
-14.073390
-14.593210
-15.408780
-16.451571
-17.419640
-17.991381
-17.970329
-17.252171
-15.885210
-13.988490
-11.650190
-8.969125
-6.098376
-3.197105
-0.390207
2.228644
4.580511
6.632649
8.409852
10.049760
11.699260
13.419860
15.312370
17.422991
19.778009
22.349621
24.972090
27.496099
29.700729
31.379351
32.407291
32.611481
31.937880
30.488939
28.417271
25.939449
23.264940
20.528910
17.806089
15.279980
13.139660
11.367490
9.952699
8.744781
7.500961
6.126163
4.531394
2.700514
0.596569
-1.760561
-4.204112
-6.598664
-8.872763
-11.072950
-13.209880
-15.302480
-17.409109
-19.522650
-21.638990
-23.612070
-25.337240
-26.802080
-27.946730
-28.814461
-29.371811
-29.610500
-29.584770
-29.293579
-28.846270
-28.279909
-27.638929
-26.909439
-25.917280
-24.660009
-23.145821
-21.444630
-19.735140
-18.112181
-16.680201
-15.483740
-14.577310
-14.050710
-13.952120
-14.292660
-15.003330
-16.029520
-17.258720
-18.514469
-19.661579
-20.584270
-21.241501
-21.631969
-21.725290
-21.506020
-21.027491
-20.373421
-19.587429
-18.767309
-18.065990
-17.532141
-17.213461
-17.159439
-17.270420
-17.386660
-17.300819
-16.877251
-16.117580
-15.008830
-13.630530
-12.156440
-10.734520
-9.431874
-8.196825
-6.960256
-5.620893
-4.075824
-2.274414
-0.139830
2.372953
5.239375
8.376289
11.719380
15.249810
18.931801
22.672621
26.258011
29.476431
32.222050
34.512871
36.538589
38.563358
40.838631
43.480629
46.408680
49.474731
52.292850
54.631618
56.466129
57.518978
58.032009
58.117031
57.548561
56.652420
55.459000
53.952179
52.342560
50.678440
49.063549
47.621750
46.530190
45.789581
45.238071
44.776260
44.222641
43.428242
42.303822
40.678532
38.490849
35.810261
32.744091
29.346041
25.570030
21.454760
17.057770
12.479050
7.816360
3.174723
-1.212794
-5.183872
-8.622970
-11.567860
-14.113970
-16.285749
-18.134520
-19.622520
-20.827860
-21.829260
-22.655821
-23.452209
-24.285549
-25.201580
-26.233730
-27.461651
-29.006010
-30.854670
-32.959202
-35.254929
-37.629372
-39.892361
-41.820068
-43.294498
-44.265610
-44.772678
-44.968090
-44.963181
-44.807411
-44.572941
-44.289230
-43.969391
-43.692001
-43.410751
-42.916191
-42.069279
-40.811890
-39.128712
-37.137970
-34.981049
-32.755249
-30.515760
-28.266809
-26.117960
-24.165920
-22.362761
-20.574329
-18.632231
-16.427370
-13.842190
-10.751940
-7.084334
-2.815983
1.943884
6.997983
12.131720
17.114130
21.785120
25.991610
29.547890
32.339230
34.346352
35.659401
36.396030
36.651440
36.481522
35.901588
34.901829
33.412312
31.437361
29.090990
26.553881
24.053141
21.664200
19.278891
16.752661
13.920970
10.660910
6.990499
3.072397
-0.928151
-4.938640
-8.795931
-12.369870
-15.649450
-18.655970
-21.528940
-24.321581
-27.015970
-29.516939
-31.671410
-33.443352
-34.722950
-35.501099
-35.826790
-35.714642
-35.334801
-34.749149
-34.037891
-33.311901
-32.543110
-31.742279
-30.835609
-29.746500
-28.486191
-27.099819
-25.777180
-24.698250
-23.980101
-23.708790
-23.882450
-24.519211
-25.563761
-26.852480
-28.181549
-29.392860
-30.546989
-31.685671
-32.847752
-34.113319
-35.487068
-37.030380
-38.677071
-40.316631
-41.847198
-43.090672
-43.957581
-44.342442
-44.131710
-43.234161
-41.688740
-39.679871
-37.347530
-34.835918
-32.233330
-29.533430
-26.681629
-23.726440
-20.676420
-17.495180
-14.335230
-11.105230
-7.766704
-4.413326
-0.945108
2.526852
5.964664
9.301669
12.250890
14.736770
16.778620
18.408010
19.647261
20.576389
21.365061
21.998079
22.396509
22.639170
22.779619
22.831070
22.846510
22.824409
22.824530
22.877380
22.930590
23.007429
23.097589
23.174299
23.169510
23.043800
22.809090
22.299801
21.487619
20.480141
19.299471
18.035540
16.689510
15.346050
14.188420
13.272630
12.681830
12.404200
12.450160
12.871750
13.611540
14.558320
15.488840
16.249571
16.690439
16.675240
16.236000
15.468490
14.550130
13.633290
12.799360
12.039690
11.323870
10.643840
9.956908
9.235830
8.487737
7.723272
6.809001
5.687973
4.388722
2.897097
1.374716
-0.041362
-1.230335
-2.007079
-2.262603
-1.958314
-1.151866
0.066928
1.553290
3.111105
4.558876
5.780008
6.752167
7.486577
8.106148
8.712036
9.281438
9.827217
10.347850
10.775870
11.055130
11.162960
11.016190
10.602910
10.024740
9.283193
8.496157
7.863605
7.382263
7.024179
6.760820
6.515354
6.235857
5.809128
5.068169
3.983627
2.660285
1.252393
0.035587
-0.816586
-1.207999
-0.956101
-0.083462
1.370974
3.423697
5.939287
8.744313
11.709320
14.827760
18.045710
21.327869
24.751301
28.333071
32.052601
35.816921
39.499611
43.012741
46.286831
49.217220
51.743568
53.777699
55.205231
55.948540
56.010159
55.538639
54.532341
53.147598
51.620892
50.029980
48.424339
46.682220
44.804211
42.753941
40.530361
38.232288
35.741261
32.914009
29.557240
25.723110
21.784540
17.912861
14.138250
10.586190
7.385303
4.540633
2.066442
0.069969
-1.526789
-2.888138
-4.110791
-5.323269
-6.546390
-7.794770
-9.088876
-10.407770
-11.815900
-13.286360
-14.744540
-16.204000
-17.660431
-19.080481
-20.493990
-21.999649
-23.631720
-25.396290
-27.279329
-29.223530
-31.191120
-33.147129
-35.151199
-37.263802
-39.380730
-41.378021
-43.230652
-44.883430
-46.210621
-47.094379
-47.477951
-47.327560
-46.576900
-45.296009
-43.586399
-41.533909
-39.295120
-37.028858
-34.952869
-33.127369
-31.512831
-30.113710
-28.893400
-27.859720
-26.984751
-26.282499
-25.819630
-25.610300
-25.688890
-26.062519
-26.739401
-27.790380
-29.217569
-30.908001
-32.803780
-34.805752
-36.618851
-38.049671
-39.130001
-39.710629
-39.629230
-39.034340
-37.964649
-36.581200
-35.285450
-34.169922
-33.235889
-32.583462
-32.073582
-31.522070
-30.900280
-30.092779
-29.171021
-28.330311
-27.595900
-26.971649
-26.478609
-26.115150
-25.838810
-25.662340
-25.587610
-25.652639
-25.794840
-25.843370
-25.673691
-25.044760
-23.911100
-22.380529
-20.432470
-18.054880
-15.399660
-12.523530
-9.356328
-6.091243
-2.802535
0.561603
3.960589
7.462954
11.115590
14.798050
18.116930
20.750280
22.806980
24.396839
25.428169
26.056049
26.537741
26.894421
27.116030
27.062120
26.536341
25.474480
23.832821
21.770269
19.543301
17.259501
15.077900
13.220590
11.740190
10.535430
9.528775
8.705254
8.093050
7.655678
7.247426
6.812276
6.415952
6.166392
6.183583
6.493954
7.049205
7.778119
8.587023
9.473227
10.469120
11.501980
12.459750
13.293910
13.940970
14.312730
14.467220
14.437750
14.229820
14.009380
13.911030
13.962250
14.262100
14.932660
15.941070
17.308029
19.083590
21.163099
23.387730
25.599380
27.680290
29.508711
31.042900
32.204399
32.818001
32.833900
32.220181
31.063021
29.591631
27.963060
26.279181
24.573080
22.794470
20.877050
18.751350
16.279619
13.446060
10.405740
7.219710
3.991813
0.975235
-1.672853
-3.868950
-5.466058
-6.382668
-6.605447
-6.094868
-4.840289
-2.861124
-0.178655
3.114146
6.812042
10.697170
14.580890
18.296209
21.711451
24.755510
27.411551
29.669861
31.532780
32.998451
34.124031
34.963810
35.575901
36.091042
36.530281
36.929062
37.266449
37.548279
37.947880
38.358940
38.879341
39.782848
40.959309
42.337971
43.770538
45.218189
46.666550
47.849911
48.683601
49.060280
49.100861
48.897499
48.375919
47.596020
46.539429
45.373611
44.101261
42.722950
41.365929
40.073582
38.731411
37.287491
35.967312
34.556961
33.104160
31.695339
30.189791
28.904341
27.909260
27.258820
26.927750
26.649891
26.611530
26.578091
26.240000
26.147261
25.938169
25.349470
24.858191
24.166809
23.295231
22.284830
21.129299
19.922440
18.555470
17.155769
15.616080
13.896880
12.017820
9.983572
7.814606
5.536414
3.309794
1.132057
-0.876696
-2.652495
-4.157685
-5.283508
-6.096388
-6.599015
-6.826822
-6.858865
-6.767064
-6.619597
-6.457629
-6.307590
-6.092763
-5.713747
-5.121541
-4.251241
-3.024378
-1.456973
0.417293
2.550241
4.857435
7.311979
9.899839
12.574820
15.228760
17.765280
20.078211
22.049299
23.633200
24.782169
25.490740
25.801340
25.773041
25.418930
24.728029
23.711660
22.302139
20.453011
18.098339
15.187360
11.730020
7.743153
3.375400
-1.253958
-6.011370
-10.730070
-15.393340
-19.943060
-24.303680
-28.467720
-32.346531
-35.857311
-38.992939
-41.719151
-43.984470
-45.774311
-47.103970
-47.986080
-48.459820
-48.589161
-48.452209
-48.166050
-47.819660
-47.498070
-47.320431
-47.365921
-47.630329
-48.101501
-48.867599
-49.987808
-51.430439
-53.185299
-55.164230
-57.280220
-59.451180
-61.506119
-63.381210
-64.987442
-66.264587
-67.205292
-67.687447
-67.687447
-67.174179
-66.158867
-64.698013
-62.767490
-60.464378
-57.843781
-54.972679
-51.961948
-48.881050
-45.853359
-42.917011
-40.140511
-37.606449
-35.296680
-33.203850
-31.321159
-29.666750
-28.235350
-26.954580
-25.710871
-24.377710
-22.912861
-21.301840
-19.570709
-17.831051
-16.176519
-14.722900
-13.500950
-12.487160
-11.736500
-11.174460
-10.719310
-10.332700
-9.911228
-9.466957
-9.027480
-8.599231
-8.287223
-8.131336
-8.141159
-8.349320
-8.691500
-9.121387
-9.560045
-9.889945
-10.095880
-10.195170
-10.206750
-10.143950
-10.057410
-9.994610
-9.970754
-10.003500
-10.072730
-10.159500
-10.252240
-10.380880
-10.614300
-11.019510
-11.663290
-12.543760
-13.620350
-14.835170
-16.064951
-17.222700
-18.214279
-18.955940
-19.490370
-19.851139
-20.084570
-20.223730
-20.309681
-20.376221
-20.366751
-20.306641
-20.195780
-20.031820
-19.828690
-19.559019
-19.231340
-18.810459
-18.310169
-17.723230
-17.014311
-16.218031
-15.329260
-14.359210
-13.361670
-12.381680
-11.409640
-10.427190
-9.451637
-8.479713
-7.435868
-6.257421
-5.013367
-3.630383
-2.158990
-0.808985
0.500557
1.627199
2.549773
3.335989
3.774297
4.061862
4.296102
4.455029
4.646116
4.878836
5.249549
5.755567
6.406479
7.179949
8.023234
8.931190
9.827568
10.735060
11.701950
12.759950
13.989970
15.492470
17.329430
19.542721
22.157240
25.130430
28.422529
31.976820
35.705940
39.511662
43.270481
46.880669
50.250069
53.299389
55.964439
58.168961
59.862080
61.022869
61.658218
61.802299
61.500580
60.792370
59.726540
58.266609
56.410351
54.285820
51.918171
49.421051
46.882080
44.286259
41.673019
39.063530
36.519642
33.982769
31.401810
28.725531
25.940041
23.114660
20.300751
17.691959
15.326870
13.215560
11.437770
10.003690
8.973640
8.329043
8.012826
7.928977
8.079601
8.515803
9.198993
10.178280
11.364920
12.676920
14.051010
15.323830
16.527309
17.605530
18.550680
19.476179
20.339220
21.154909
21.918791
22.604549
23.169630
23.549351
23.756809
23.725460
23.417669
22.806170
21.789450
20.385180
18.555241
16.355631
13.963650
11.347030
8.562698
5.683646
2.760740
-0.090947
-2.848728
-5.469333
-7.925982
-10.169210
-12.158660
-13.849450
-15.130920
-15.994550
-16.509230
-16.736570
-16.701130
-16.390301
-15.838900
-15.102850
-14.121110
-12.919150
-11.592890
-10.174700
-8.764238
-7.399849
-6.087266
-4.796786
-3.471807
-2.142969
-0.874942
0.282924
1.274612
2.099303
2.867510
3.442760
3.742955
3.941878
4.023856
3.993216
3.867618
3.650920
3.427557
3.200451
2.996149
2.828685
2.661454
2.464637
2.263493
2.275889
2.623097
3.152387
3.812186
4.657694
5.720250
7.000206
8.383423
9.828855
11.317320
12.711880
13.909160
14.872660
15.628240
16.186769
16.561569
16.748680
16.616070
16.139990
15.303250
13.954770
12.075820
9.699514
6.882677
3.716994
0.264681
-3.419065
-7.361726
-11.461440
-15.599990
-19.775829
-23.857309
-27.779030
-31.448389
-34.725880
-37.581661
-39.866402
-41.531799
-42.630730
-43.169720
-43.293331
-43.143879
-42.804970
-42.344799
-41.833519
-41.373112
-41.008480
-40.759499
-40.584431
-40.367271
-40.123089
-40.002048
-40.095020
-40.411709
-40.946850
-41.657990
-42.449108
-43.243870
-43.935940
-44.385590
-44.540199
-44.355068
-43.883671
-43.243870
-42.436371
-41.438358
-40.210911
-38.856121
-37.470211
-35.960110
-34.304642
-32.533051
-30.729420
-28.970699
-27.263069
-25.616970
-23.965599
-22.226749
-20.380199
-18.440210
-16.381290
-14.184610
-11.902090
-9.598168
-7.334477
-5.153817
-3.117700
-1.299449
0.245970
1.503355
2.474344
3.100814
3.343941
3.240563
2.864821
2.247004
1.420325
0.423959
-0.740806
-2.001934
-3.272183
-4.450046
-5.531781
-6.513996
-7.272848
-7.794888
-7.983870
-7.738403
-7.068546
-5.945530
-4.405958
-2.535785
-0.396990
1.977447
4.575014
7.371036
10.288800
13.289000
16.318211
19.273161
22.063219
24.545601
26.582300
28.098600
29.121981
29.683889
29.795931
29.486719
28.774771
27.708820
26.310049
24.606760
22.629580
20.458969
18.222651
15.959430
13.682870
11.470870
9.491938
7.753678
6.241588
5.147573
4.491282
4.232601
4.380536
4.859189
5.582373
6.383324
7.207782
8.111059
8.999602
9.854933
10.702660
11.496600
12.276730
13.029850
13.748710
14.432250
15.077780
15.754310
16.384991
16.902229
17.277149
17.439711
17.367670
17.034260
16.446850
15.608010
14.571300
13.435180
12.236500
11.028700
9.853062
8.690402
7.559316
6.579907
5.846784
5.349420
5.159619
5.319715
5.699551
6.219836
6.821866
7.451962
8.138775
8.877513
9.584675
10.228100
10.849900
11.432510
11.973730
12.468870
12.855840
13.116160
13.253220
13.285260
13.225500
13.040030
12.701240
12.205980
11.532030
10.699270
9.739626
8.604331
7.336654
6.047928
4.790659
3.639811
2.616782
1.701810
0.900390
0.187381
-0.451369
-1.001241
-1.537197
-2.114200
-2.636123
-3.106824
-3.532384
-3.845561
-4.060972
-4.111259
-3.893157
-3.386204
-2.645946
-1.675308
-0.415467
1.090659
2.799683
4.643076
6.522956
8.455343
10.426320
12.426190
14.508150
16.639931
18.817659
21.034229
23.241199
25.410509
27.443359
29.237169
30.744579
31.959049
32.866539
33.438862
33.654621
33.515579
33.004410
32.100552
30.850760
29.261370
27.425930
25.419870
23.179220
20.726431
18.128510
15.411660
12.617390
9.848969
7.088381
4.340307
1.681812
-0.890963
-3.250665
-5.362212
-7.239168
-8.812887
-10.130380
-11.233400
-12.181350
-13.015630
-13.758460
-14.431940
-15.033270
-15.606070
-16.122730
-16.565830
-16.933380
-17.198030
-17.391340
