EVENT_NAME: L_AQUILA
EVENT_ID: IT-2009-0009
EVENT_DATE_YYYYMMDD: 20090406
EVENT_TIME_HHMMSS: 013240
EVENT_LATITUDE_DEGREE: 42.3420
EVENT_LONGITUDE_DEGREE: 13.3800
EVENT_DEPTH_KM: 8.3
HYPOCENTER_REFERENCE: INGV-CNT_Seismic_Bulletin
MAGNITUDE_W: 6.1
MAGNITUDE_W_REFERENCE: INGV-CNT_Seismic_Bulletin
MAGNITUDE_L: 
MAGNITUDE_L_REFERENCE: 
FOCAL_MECHANISM: Normal faulting
NETWORK: IT
STATION_CODE: AVZ
STATION_NAME: 
STATION_LATITUDE_DEGREE: 42.027458
STATION_LONGITUDE_DEGREE: 13.425929
STATION_ELEVATION_M: 746
LOCATION: 
SENSOR_DEPTH_M: 0.0
VS30_M/S: 199
SITE_CLASSIFICATION_EC8: C
MORPHOLOGIC_CLASSIFICATION: 
EPICENTRAL_DISTANCE_KM: 35.1
EARTHQUAKE_BACKAZIMUTH_DEGREE: 173.8
DATE_TIME_FIRST_SAMPLE_YYYYMMDD_HHMMSS: 
DATE_TIME_FIRST_SAMPLE_PRECISION: 
SAMPLING_INTERVAL_S: 
NDATA: 105
DURATION_S: 
STREAM: HNN
UNITS: cm/s^2
INSTRUMENT: sensor = FBA-3 [Kinemetrics] | digitizer = Everest [Kinemetrics]
INSTRUMENT_ANALOG/DIGITAL: D
INSTRUMENTAL_FREQUENCY_HZ: 204.000
INSTRUMENTAL_DAMPING: 0.700000
FULL_SCALE_G: 1.0
N_BIT_DIGITAL_CONVERTER: 24
PGA_CM/S^2: -67.691463
TIME_PGA_S: 
BASELINE_CORRECTION: BASELINE REMOVED
FILTER_TYPE: BUTTERWORTH
FILTER_ORDER: 2
LOW_CUT_FREQUENCY_HZ: 0.050
HIGH_CUT_FREQUENCY_HZ: 40.000
LATE/NORMAL_TRIGGERED: NT
DATABASE_VERSION: 0.5
HEADER_FORMAT: DYNA 1.2
DATA_TYPE: ACCELERATION RESPONSE SPECTRUM
PROCESSING: manual (Paolucci et al., 2011)
DATA_TIMESTAMP_YYYYMMDD_HHMMSS: 20211011_160013.994
DATA_LICENSE: CC-BY3_0-IT (http://creativecommons.org/licenses/by/3.0/deed.en)
DATA_CITATION: Luzi L, Pacor F, Puglia R (2019). Italian Accelerometric Archive v 3.0 - Istituto Nazionale di Geofisica e Vulcanologia, Dipartimento della Protezione Civile Nazionale. doi: 10.13127/itaca.3.1
DATA_CREATOR: ITACA working group
ORIGINAL_DATA_MEDIATOR_CITATION: data obtained within the DPC-INGV data exchange agreements
ORIGINAL_DATA_MEDIATOR: Archive of Italian Department of Civil Protection
ORIGINAL_DATA_CREATOR_CITATION: Presidency Of Counsil Of Ministers-Civil Protection Department. (1972). Italian Strong Motion Network. Presidency of Counsil of Ministers - Civil Protection Department. https://doi.org/10.7914/SN/IT http://www.fdsn.org/networks/detail/IT/
ORIGINAL_DATA_CREATOR: network: IT (Italian Strong Motion Network (RAN)); owner: Presidency of Counsil of Ministers - Civil Protection Department (PCM - DPC)
USER1: 
USER2: 
USER3: 
USER4: 
USER5: 
    0.010000    67.768021
    0.020000    67.914726
    0.022000    67.981354
    0.025000    68.032417
    0.029000    68.164291
    0.030000    68.208702
    0.032000    68.250053
    0.035001    68.364365
    0.036000    68.361855
    0.040000    68.271057
    0.041999    68.319229
    0.044001    68.630653
    0.045000    68.711563
    0.046000    68.741791
    0.048001    68.550858
    0.050000    68.796524
    0.054999    70.219353
    0.059999    69.716560
    0.064998    69.570541
    0.067002    69.938377
    0.069999    71.972076
    0.075002    73.721153
    0.080000    72.605804
    0.084998    72.279991
    0.090001    74.071213
    0.095003    79.790520
    0.100000    78.949982
    0.109999    82.399445
    0.120005    81.055412
    0.130005    99.530930
    0.132996   103.600792
    0.139997    99.740555
    0.149993   103.953636
    0.160000   107.977875
    0.170010   101.444862
    0.179986   108.956497
    0.190006   121.639175
    0.200000   132.808517
    0.220022   148.946930
    0.239981   149.691849
    0.250000   130.027298
    0.260010   118.562912
    0.280034   140.722595
    0.290023   136.659531
    0.300030   154.294144
    0.320000   158.207275
    0.340020   159.699722
    0.350017   162.089722
    0.359971   157.578537
    0.379939   166.048050
    0.400000   151.739319
    0.419992   173.387207
    0.439947   197.961395
    0.450045   204.462799
    0.459982   211.737930
    0.480077   237.995148
    0.500000   250.225815
    0.550055   184.115433
    0.599880   153.316666
    0.650195   116.647316
    0.667111   120.528519
    0.699790   137.911331
    0.750188   130.837738
    0.800000   102.500946
    0.850340    88.463242
    0.900090    81.608871
    0.949668    85.569092
    1.000000    98.255608
    1.100110   122.519135
    1.200480   153.100708
    1.300390   178.100677
    1.400560   184.565308
    1.499250   161.111023
    1.600000   126.132347
    1.700680    99.999405
    1.798561    78.591232
    1.901141    65.629913
    2.000000    59.939594
    2.197802    50.287945
    2.398082    36.786812
    2.500000    31.530220
    2.597403    28.585894
    2.801121    27.888325
    3.003003    27.697090
    3.205128    24.741674
    3.401361    23.381790
    3.496503    23.312738
    3.597122    22.823761
    3.802281    21.018967
    4.000000    18.751318
    4.201681    16.558588
    4.405286    14.701590
    4.608295    13.234531
    4.807692    12.098086
    5.000000    11.193068
    5.494505     9.371393
    5.988024     7.627306
    6.493506     5.869246
    6.993007     4.644421
    7.518797     4.055278
    8.000000     3.787102
    8.474576     3.549101
    9.009009     3.246222
    9.523809     2.920576
   10.000000     2.599651
