EVENT_NAME: L_AQUILA
EVENT_ID: IT-2009-0009
EVENT_DATE_YYYYMMDD: 20090406
EVENT_TIME_HHMMSS: 013240
EVENT_LATITUDE_DEGREE: 42.3420
EVENT_LONGITUDE_DEGREE: 13.3800
EVENT_DEPTH_KM: 8.3
HYPOCENTER_REFERENCE: INGV-CNT_Seismic_Bulletin
MAGNITUDE_W: 6.1
MAGNITUDE_W_REFERENCE: INGV-CNT_Seismic_Bulletin
MAGNITUDE_L: 
MAGNITUDE_L_REFERENCE: 
FOCAL_MECHANISM: Normal faulting
NETWORK: IT
STATION_CODE: AVZ
STATION_NAME: 
STATION_LATITUDE_DEGREE: 42.027458
STATION_LONGITUDE_DEGREE: 13.425929
STATION_ELEVATION_M: 746
LOCATION: 
SENSOR_DEPTH_M: 0.0
VS30_M/S: 199
SITE_CLASSIFICATION_EC8: C
MORPHOLOGIC_CLASSIFICATION: 
EPICENTRAL_DISTANCE_KM: 35.1
EARTHQUAKE_BACKAZIMUTH_DEGREE: 173.8
DATE_TIME_FIRST_SAMPLE_YYYYMMDD_HHMMSS: 20090406_013219.000
DATE_TIME_FIRST_SAMPLE_PRECISION: seconds
SAMPLING_INTERVAL_S: 0.005000
NDATA: 24000
DURATION_S: 120.000
STREAM: HNN
UNITS: cm
INSTRUMENT: sensor = FBA-3 [Kinemetrics] | digitizer = Everest [Kinemetrics]
INSTRUMENT_ANALOG/DIGITAL: D
INSTRUMENTAL_FREQUENCY_HZ: 204.000
INSTRUMENTAL_DAMPING: 0.700000
FULL_SCALE_G: 1.0
N_BIT_DIGITAL_CONVERTER: 24
PGD_CM: -3.406763
TIME_PGD_S: 40.655000
BASELINE_CORRECTION: BASELINE REMOVED
FILTER_TYPE: BUTTERWORTH
FILTER_ORDER: 2
LOW_CUT_FREQUENCY_HZ: 0.050
HIGH_CUT_FREQUENCY_HZ: 40.000
LATE/NORMAL_TRIGGERED: NT
DATABASE_VERSION: 0.5
HEADER_FORMAT: DYNA 1.2
DATA_TYPE: DISPLACEMENT
PROCESSING: manual (Paolucci et al., 2011)
DATA_TIMESTAMP_YYYYMMDD_HHMMSS: 20211011_160012.801
DATA_LICENSE: CC-BY3_0-IT (http://creativecommons.org/licenses/by/3.0/deed.en)
DATA_CITATION: Luzi L, Pacor F, Puglia R (2019). Italian Accelerometric Archive v 3.0 - Istituto Nazionale di Geofisica e Vulcanologia, Dipartimento della Protezione Civile Nazionale. doi: 10.13127/itaca.3.1
DATA_CREATOR: ITACA working group
ORIGINAL_DATA_MEDIATOR_CITATION: data obtained within the DPC-INGV data exchange agreements
ORIGINAL_DATA_MEDIATOR: Archive of Italian Department of Civil Protection
ORIGINAL_DATA_CREATOR_CITATION: Presidency Of Counsil Of Ministers-Civil Protection Department. (1972). Italian Strong Motion Network. Presidency of Counsil of Ministers - Civil Protection Department. https://doi.org/10.7914/SN/IT http://www.fdsn.org/networks/detail/IT/
ORIGINAL_DATA_CREATOR: network: IT (Italian Strong Motion Network (RAN)); owner: Presidency of Counsil of Ministers - Civil Protection Department (PCM - DPC)
USER1: 
USER2: 
USER3: 
USER4: 
USER5: 
[...]
-2.379466e-01
-2.346122e-01
-2.312359e-01
-2.278467e-01
-2.244747e-01
-2.211507e-01
-2.179053e-01
-2.147676e-01
-2.117638e-01
-2.089185e-01
-2.062551e-01
-2.037978e-01
-2.015710e-01
-1.995969e-01
-1.978923e-01
-1.964653e-01
-1.953143e-01
-1.944280e-01
-1.937872e-01
-1.933670e-01
-1.931392e-01
-1.930735e-01
-1.931396e-01
-1.933077e-01
-1.935495e-01
-1.938387e-01
-1.941518e-01
-1.944707e-01
-1.947845e-01
-1.950910e-01
-1.953945e-01
-1.957021e-01
-1.960191e-01
-1.963457e-01
-1.966749e-01
-1.969930e-01
-1.972816e-01
-1.975212e-01
-1.976943e-01
-1.977873e-01
-1.977907e-01
-1.976975e-01
-1.975011e-01
-1.971943e-01
-1.967684e-01
-1.962131e-01
-1.955166e-01
-1.946660e-01
-1.936484e-01
-1.924514e-01
-1.910625e-01
-1.894681e-01
-1.876537e-01
-1.856028e-01
-1.832975e-01
-1.807193e-01
-1.778497e-01
-1.746727e-01
-1.711753e-01
-1.673462e-01
-1.631756e-01
-1.586540e-01
-1.537725e-01
-1.485245e-01
-1.429088e-01
-1.369333e-01
-1.306173e-01
-1.239906e-01
-1.170898e-01
-1.099533e-01
-1.026170e-01
-9.511265e-02
-8.746916e-02
-7.971524e-02
-7.188333e-02
-6.401181e-02
-5.614430e-02
-4.832657e-02
-4.060278e-02
-3.301266e-02
-2.558933e-02
-1.835717e-02
-1.133028e-02
-4.512803e-03
2.098527e-03
8.511683e-03
1.473813e-02
2.079318e-02
2.669637e-02
3.247109e-02
3.814380e-02
4.374330e-02
4.929997e-02
5.484461e-02
6.040697e-02
6.601441e-02
7.169180e-02
7.746307e-02
8.335357e-02
8.939165e-02
9.560827e-02
1.020349e-01
1.087008e-01
1.156309e-01
1.228443e-01
1.303537e-01
1.381647e-01
1.462744e-01
1.546713e-01
1.633346e-01
1.722350e-01
1.813377e-01
1.906072e-01
2.000129e-01
2.095328e-01
2.191545e-01
2.288731e-01
2.386892e-01
2.486064e-01
2.586293e-01
2.687621e-01
2.790064e-01
2.893600e-01
2.998139e-01
3.103497e-01
3.209390e-01
3.315427e-01
3.421146e-01
3.526058e-01
3.629701e-01
3.731663e-01
3.831589e-01
3.929151e-01
4.024031e-01
4.115920e-01
4.204545e-01
4.289704e-01
4.371297e-01
4.449341e-01
4.523985e-01
4.595504e-01
4.664287e-01
4.730824e-01
4.795683e-01
4.859484e-01
4.922873e-01
4.986479e-01
5.050886e-01
5.116595e-01
5.184008e-01
5.253416e-01
5.325009e-01
5.398900e-01
5.475151e-01
5.553789e-01
5.634812e-01
5.718192e-01
5.803888e-01
5.891847e-01
5.981996e-01
6.074221e-01
6.168341e-01
6.264092e-01
6.361146e-01
6.459130e-01
6.557655e-01
6.656333e-01
6.754799e-01
6.852719e-01
6.949803e-01
7.045810e-01
7.140545e-01
7.233841e-01
7.325541e-01
7.415473e-01
7.503458e-01
7.589322e-01
7.672928e-01
7.754192e-01
7.833075e-01
7.909570e-01
7.983683e-01
8.055427e-01
8.124824e-01
8.191921e-01
8.256825e-01
8.319740e-01
8.381000e-01
8.441071e-01
8.500510e-01
8.559918e-01
8.619893e-01
8.680989e-01
8.743689e-01
8.808371e-01
8.875285e-01
8.944545e-01
9.016151e-01
9.090016e-01
9.165999e-01
9.243933e-01
9.323661e-01
9.405063e-01
9.488079e-01
9.572711e-01
9.659009e-01
9.747044e-01
9.836903e-01
9.928675e-01
1.002245e+00
1.011829e+00
1.021626e+00
1.031636e+00
1.041858e+00
1.052290e+00
1.062930e+00
1.073777e+00
1.084839e+00
1.096126e+00
1.107652e+00
1.119431e+00
1.131467e+00
1.143759e+00
1.156294e+00
1.169047e+00
1.181993e+00
1.195098e+00
1.208328e+00
1.221643e+00
1.235001e+00
1.248350e+00
1.261636e+00
1.274802e+00
1.287792e+00
1.300552e+00
1.313036e+00
1.325210e+00
1.337048e+00
1.348535e+00
1.359662e+00
1.370424e+00
1.380822e+00
1.390858e+00
1.400540e+00
1.409878e+00
1.418884e+00
1.427568e+00
1.435939e+00
1.444001e+00
1.451760e+00
1.459213e+00
1.466355e+00
1.473179e+00
1.479675e+00
1.485832e+00
1.491642e+00
1.497100e+00
1.502205e+00
1.506959e+00
1.511365e+00
1.515424e+00
1.519132e+00
1.522474e+00
1.525431e+00
1.527976e+00
1.530087e+00
1.531750e+00
1.532964e+00
1.533748e+00
1.534136e+00
1.534174e+00
1.533921e+00
1.533445e+00
1.532817e+00
1.532109e+00
1.531391e+00
1.530730e+00
1.530183e+00
1.529802e+00
1.529631e+00
1.529713e+00
1.530088e+00
1.530798e+00
1.531892e+00
1.533423e+00
1.535449e+00
1.538035e+00
1.541245e+00
1.545144e+00
1.549785e+00
1.555211e+00
1.561447e+00
1.568499e+00
1.576348e+00
1.584960e+00
1.594284e+00
1.604256e+00
1.614811e+00
1.625880e+00
1.637393e+00
1.649290e+00
1.661517e+00
1.674029e+00
1.686791e+00
1.699771e+00
1.712939e+00
1.726260e+00
1.739695e+00
1.753198e+00
1.766715e+00
1.780189e+00
1.793559e+00
1.806765e+00
1.819750e+00
1.832458e+00
1.844837e+00
1.856833e+00
1.868395e+00
1.879468e+00
1.890001e+00
1.899945e+00
1.909256e+00
1.917897e+00
1.925840e+00
1.933063e+00
1.939553e+00
1.945303e+00
1.950314e+00
1.954594e+00
1.958152e+00
1.961004e+00
1.963164e+00
1.964653e+00
1.965494e+00
1.965720e+00
1.965369e+00
1.964482e+00
1.963101e+00
1.961268e+00
1.959019e+00
1.956383e+00
1.953383e+00
1.950032e+00
1.946333e+00
1.942276e+00
1.937845e+00
1.933014e+00
1.927751e+00
1.922027e+00
1.915811e+00
1.909082e+00
1.901823e+00
1.894023e+00
1.885680e+00
1.876801e+00
1.867397e+00
1.857484e+00
1.847082e+00
1.836211e+00
1.824889e+00
1.813129e+00
1.800938e+00
1.788318e+00
1.775267e+00
1.761783e+00
1.747867e+00
1.733529e+00
1.718790e+00
1.703677e+00
1.688223e+00
1.672465e+00
1.656439e+00
1.640177e+00
1.623711e+00
1.607072e+00
1.590292e+00
1.573411e+00
1.556474e+00
1.539535e+00
1.522655e+00
1.505907e+00
1.489369e+00
1.473124e+00
1.457261e+00
1.441873e+00
1.427052e+00
1.412888e+00
1.399460e+00
1.386838e+00
1.375078e+00
1.364232e+00
1.354352e+00
1.345494e+00
1.337725e+00
1.331117e+00
1.325746e+00
1.321682e+00
1.318985e+00
1.317698e+00
1.317850e+00
1.319454e+00
1.322510e+00
1.327007e+00
1.332920e+00
1.340219e+00
1.348869e+00
1.358827e+00
1.370052e+00
1.382505e+00
1.396149e+00
1.410958e+00
1.426913e+00
1.443999e+00
1.462204e+00
1.481516e+00
1.501914e+00
1.523370e+00
1.545842e+00
1.569277e+00
1.593608e+00
1.618759e+00
1.644644e+00
1.671168e+00
1.698229e+00
1.725717e+00
1.753517e+00
1.781513e+00
1.809588e+00
1.837634e+00
1.865552e+00
1.893256e+00
1.920670e+00
1.947732e+00
1.974387e+00
2.000589e+00
2.026301e+00
2.051494e+00
2.076141e+00
2.100222e+00
2.123717e+00
2.146606e+00
2.168865e+00
2.190469e+00
2.211387e+00
2.231579e+00
2.251001e+00
2.269599e+00
2.287315e+00
2.304091e+00
2.319871e+00
2.334606e+00
2.348260e+00
2.360809e+00
2.372238e+00
2.382543e+00
2.391725e+00
2.399787e+00
2.406735e+00
2.412577e+00
2.417319e+00
2.420968e+00
2.423533e+00
2.425026e+00
2.425468e+00
2.424891e+00
2.423336e+00
2.420853e+00
2.417496e+00
2.413320e+00
2.408383e+00
2.402739e+00
2.396442e+00
2.389540e+00
2.382080e+00
2.374106e+00
2.365667e+00
2.356818e+00
2.347623e+00
2.338160e+00
2.328521e+00
2.318813e+00
2.309154e+00
2.299671e+00
2.290491e+00
2.281739e+00
2.273532e+00
2.265976e+00
2.259158e+00
2.253148e+00
2.247997e+00
2.243739e+00
2.240391e+00
2.237960e+00
2.236441e+00
2.235821e+00
2.236074e+00
2.237162e+00
2.239035e+00
2.241636e+00
2.244902e+00
2.248772e+00
2.253183e+00
2.258077e+00
2.263390e+00
2.269051e+00
2.274978e+00
2.281079e+00
2.287259e+00
2.293415e+00
2.299449e+00
2.305264e+00
2.310770e+00
2.315886e+00
2.320536e+00
2.324647e+00
2.328150e+00
2.330978e+00
2.333069e+00
2.334368e+00
2.334832e+00
2.334429e+00
2.333138e+00
2.330953e+00
2.327875e+00
2.323914e+00
2.319085e+00
2.313405e+00
2.306892e+00
2.299566e+00
2.291446e+00
2.282556e+00
2.272924e+00
2.262581e+00
2.251560e+00
2.239895e+00
2.227613e+00
2.214731e+00
2.201257e+00
2.187186e+00
2.172501e+00
2.157178e+00
2.141184e+00
2.124487e+00
2.107055e+00
2.088861e+00
2.069874e+00
2.050067e+00
2.029407e+00
2.007860e+00
1.985387e+00
1.961947e+00
1.937500e+00
1.912007e+00
1.885438e+00
1.857769e+00
1.828992e+00
1.799114e+00
1.768155e+00
1.736155e+00
1.703163e+00
1.669236e+00
1.634439e+00
1.598836e+00
1.562496e+00
1.525489e+00
1.487889e+00
1.449773e+00
1.411219e+00
1.372306e+00
1.333117e+00
1.293734e+00
1.254242e+00
1.214725e+00
1.175273e+00
1.135971e+00
1.096901e+00
1.058137e+00
1.019742e+00
9.817660e-01
9.442505e-01
9.072262e-01
8.707175e-01
8.347435e-01
7.993192e-01
7.644549e-01
7.301571e-01
6.964291e-01
6.632722e-01
6.306865e-01
5.986719e-01
5.672284e-01
5.363570e-01
5.060592e-01
4.763369e-01
4.471925e-01
4.186275e-01
3.906422e-01
3.632337e-01
3.363951e-01
3.101136e-01
2.843696e-01
2.591380e-01
2.343894e-01
2.100914e-01
1.862105e-01
1.627138e-01
1.395724e-01
1.167633e-01
9.427132e-02
7.208950e-02
5.021959e-02
2.867227e-02
7.465908e-03
-1.337642e-02
-3.383140e-02
-5.388017e-02
-7.351225e-02
-9.272787e-02
-1.115378e-01
-1.299606e-01
-1.480189e-01
-1.657357e-01
-1.831322e-01
-2.002275e-01
-2.170395e-01
-2.335853e-01
-2.498822e-01
-2.659479e-01
-2.818006e-01
-2.974602e-01
-3.129498e-01
-3.282972e-01
-3.435354e-01
-3.587010e-01
-3.738321e-01
-3.889642e-01
-4.041267e-01
-4.193386e-01
-4.346065e-01
-4.499229e-01
-4.652677e-01
-4.806104e-01
-4.959141e-01
-5.111403e-01
-5.262530e-01
-5.412214e-01
-5.560213e-01
-5.706338e-01
-5.850429e-01
-5.992340e-01
-6.131929e-01
-6.269058e-01
-6.403598e-01
-6.535443e-01
-6.664522e-01
-6.790812e-01
-6.914351e-01
-7.035237e-01
-7.153621e-01
-7.269686e-01
-7.383617e-01
-7.495576e-01
-7.605689e-01
-7.714045e-01
-7.820708e-01
-7.925738e-01
-8.029206e-01
-8.131227e-01
-8.231988e-01
-8.331759e-01
-8.430868e-01
-8.529658e-01
-8.628435e-01
-8.727415e-01
-8.826691e-01
-8.926202e-01
-9.025735e-01
-9.124918e-01
-9.223241e-01
-9.320083e-01
-9.414743e-01
-9.506475e-01
-9.594501e-01
-9.678020e-01
-9.756205e-01
-9.828198e-01
-9.893103e-01
-9.949992e-01
-9.997929e-01
-1.003599e+00
-1.006330e+00
-1.007904e+00
-1.008247e+00
-1.007296e+00
-1.005001e+00
-1.001326e+00
-9.962534e-01
-9.897799e-01
-9.819185e-01
-9.726942e-01
-9.621406e-01
-9.502957e-01
-9.371994e-01
-9.228928e-01
-9.074194e-01
-8.908262e-01
-8.731643e-01
-8.544882e-01
-8.348555e-01
-8.143294e-01
-7.929821e-01
-7.708974e-01
-7.481688e-01
-7.248947e-01
-7.011730e-01
-6.770979e-01
-6.527578e-01
-6.282332e-01
-6.035953e-01
-5.789050e-01
-5.542124e-01
-5.295581e-01
-5.049762e-01
-4.804977e-01
-4.561524e-01
-4.319707e-01
-4.079840e-01
-3.842243e-01
-3.607252e-01
-3.375218e-01
-3.146503e-01
-2.921475e-01
-2.700498e-01
-2.483935e-01
-2.272138e-01
-2.065467e-01
-1.864300e-01
-1.669043e-01
-1.480139e-01
-1.298054e-01
-1.123273e-01
-9.562851e-02
-7.975865e-02
-6.476844e-02
-5.071007e-02
-3.763586e-02
-2.559623e-02
-1.463783e-02
-4.801635e-03
3.879483e-03
1.138325e-02
1.769999e-02
2.283397e-02
2.680367e-02
2.964086e-02
3.138857e-02
3.209808e-02
3.182517e-02
3.062567e-02
2.855163e-02
2.564935e-02
2.195917e-02
1.751614e-02
1.235063e-02
6.488734e-03
-4.767600e-05
-7.241396e-03
-1.508079e-02
-2.356064e-02
-3.268270e-02
-4.245622e-02
-5.289869e-02
-6.403648e-02
-7.590481e-02
-8.854637e-02
-1.020089e-01
-1.163412e-01
-1.315883e-01
-1.477873e-01
-1.649647e-01
-1.831341e-01
-2.022941e-01
-2.224295e-01
-2.435133e-01
-2.655130e-01
-2.883957e-01
-3.121328e-01
-3.367018e-01
-3.620859e-01
-3.882715e-01
-4.152452e-01
-4.429906e-01
-4.714880e-01
-5.007155e-01
-5.306518e-01
-5.612781e-01
-5.925790e-01
-6.245422e-01
-6.571582e-01
-6.904202e-01
-7.243238e-01
-7.588679e-01
-7.940541e-01
-8.298856e-01
-8.663634e-01
-9.034823e-01
-9.412269e-01
-9.795698e-01
-1.018472e+00
-1.057886e+00
-1.097751e+00
-1.138001e+00
-1.178564e+00
-1.219362e+00
-1.260312e+00
-1.301333e+00
-1.342341e+00
-1.383249e+00
-1.423970e+00
-1.464412e+00
-1.504484e+00
-1.544106e+00
-1.583210e+00
-1.621743e+00
-1.659667e+00
-1.696956e+00
-1.733594e+00
-1.769567e+00
-1.804867e+00
-1.839490e+00
-1.873436e+00
-1.906720e+00
-1.939369e+00
-1.971422e+00
-2.002931e+00
-2.033951e+00
-2.064541e+00
-2.094753e+00
-2.124633e+00
-2.154221e+00
-2.183546e+00
-2.212633e+00
-2.241502e+00
-2.270169e+00
-2.298645e+00
-2.326941e+00
-2.355067e+00
-2.383033e+00
-2.410845e+00
-2.438502e+00
-2.465996e+00
-2.493315e+00
-2.520440e+00
-2.547350e+00
-2.574024e+00
-2.600436e+00
-2.626560e+00
-2.652374e+00
-2.677855e+00
-2.702989e+00
-2.727765e+00
-2.752180e+00
-2.776235e+00
-2.799934e+00
-2.823283e+00
-2.846285e+00
-2.868937e+00
-2.891233e+00
-2.913157e+00
-2.934682e+00
-2.955773e+00
-2.976388e+00
-2.996474e+00
-3.015975e+00
-3.034838e+00
-3.053008e+00
-3.070441e+00
-3.087098e+00
-3.102950e+00
-3.117983e+00
-3.132196e+00
-3.145604e+00
-3.158235e+00
-3.170127e+00
-3.181320e+00
-3.191855e+00
-3.201776e+00
-3.211127e+00
-3.219957e+00
-3.228319e+00
-3.236274e+00
-3.243894e+00
-3.251254e+00
-3.258435e+00
-3.265516e+00
-3.272572e+00
-3.279671e+00
-3.286866e+00
-3.294198e+00
-3.301690e+00
-3.309347e+00
-3.317157e+00
-3.325088e+00
-3.333091e+00
-3.341098e+00
-3.349027e+00
-3.356786e+00
-3.364278e+00
-3.371407e+00
-3.378079e+00
-3.384208e+00
-3.389719e+00
-3.394545e+00
-3.398629e+00
-3.401926e+00
-3.404398e+00
-3.406018e+00
-3.406763e+00
-3.406620e+00
-3.405574e+00
-3.403615e+00
-3.400733e+00
-3.396921e+00
-3.392169e+00
-3.386470e+00
-3.379813e+00
-3.372183e+00
-3.363557e+00
-3.353909e+00
-3.343202e+00
-3.331402e+00
-3.318470e+00
-3.304373e+00
-3.289080e+00
-3.272571e+00
-3.254836e+00
-3.235873e+00
-3.215689e+00
-3.194295e+00
-3.171712e+00
-3.147965e+00
-3.123085e+00
-3.097102e+00
-3.070052e+00
-3.041967e+00
-3.012880e+00
-2.982827e+00
-2.951841e+00
-2.919956e+00
-2.887207e+00
-2.853632e+00
-2.819265e+00
-2.784144e+00
-2.748300e+00
-2.711757e+00
-2.674534e+00
-2.636638e+00
-2.598075e+00
-2.558847e+00
-2.518958e+00
-2.478410e+00
-2.437209e+00
-2.395363e+00
-2.352881e+00
-2.309778e+00
-2.266071e+00
-2.221783e+00
-2.176938e+00
-2.131564e+00
-2.085693e+00
-2.039358e+00
-1.992595e+00
-1.945441e+00
-1.897941e+00
-1.850140e+00
-1.802091e+00
-1.753846e+00
-1.705463e+00
-1.656998e+00
-1.608505e+00
-1.560034e+00
-1.511630e+00
-1.463330e+00
-1.415161e+00
-1.367146e+00
-1.319296e+00
-1.271616e+00
-1.224109e+00
-1.176771e+00
-1.129599e+00
-1.082589e+00
-1.035737e+00
-9.890380e-01
-9.424820e-01
-8.960544e-01
-8.497329e-01
-8.034872e-01
-7.572780e-01
-7.110586e-01
-6.647761e-01
-6.183726e-01
-5.717864e-01
-5.249527e-01
-4.778048e-01
-4.302764e-01
-3.823043e-01
-3.338307e-01
-2.848064e-01
-2.351917e-01
-1.849580e-01
-1.340874e-01
-8.257177e-02
-3.041199e-02
2.238302e-02
7.579621e-02
1.298020e-01
1.843651e-01
2.394391e-01
2.949651e-01
3.508703e-01
4.070678e-01
4.634587e-01
5.199335e-01
5.763769e-01
6.326702e-01
6.886950e-01
7.443346e-01
7.994755e-01
8.540081e-01
9.078289e-01
9.608409e-01
1.012956e+00
1.064096e+00
1.114193e+00
1.163190e+00
1.211043e+00
1.257718e+00
1.303193e+00
1.347456e+00
1.390505e+00
1.432342e+00
1.472974e+00
1.512411e+00
1.550659e+00
1.587724e+00
1.623605e+00
1.658295e+00
1.691783e+00
1.724047e+00
1.755062e+00
1.784791e+00
1.813189e+00
1.840208e+00
1.865795e+00
1.889895e+00
1.912458e+00
1.933436e+00
1.952789e+00
1.970485e+00
1.986500e+00
2.000824e+00
2.013455e+00
2.024406e+00
2.033703e+00
2.041383e+00
2.047493e+00
2.052092e+00
2.055244e+00
2.057021e+00
2.057500e+00
2.056756e+00
2.054865e+00
2.051901e+00
2.047933e+00
2.043024e+00
2.037233e+00
2.030612e+00
2.023207e+00
2.015060e+00
2.006206e+00
1.996679e+00
1.986508e+00
1.975729e+00
1.964376e+00
1.952491e+00
1.940117e+00
1.927296e+00
1.914071e+00
1.900477e+00
1.886545e+00
1.872300e+00
1.857762e+00
1.842944e+00
1.827858e+00
1.812513e+00
1.796921e+00
1.781092e+00
1.765037e+00
1.748767e+00
1.732289e+00
1.715608e+00
1.698723e+00
1.681628e+00
1.664316e+00
1.646775e+00
1.628996e+00
1.610969e+00
1.592690e+00
1.574156e+00
1.555366e+00
1.536323e+00
1.517027e+00
1.497482e+00
1.477687e+00
1.457641e+00
1.437344e+00
1.416792e+00
1.395984e+00
1.374917e+00
1.353584e+00
1.331974e+00
1.310073e+00
1.287857e+00
1.265301e+00
1.242374e+00
1.219044e+00
1.195284e+00
1.171070e+00
1.146381e+00
1.121204e+00
1.095531e+00
1.069356e+00
1.042674e+00
1.015484e+00
9.877853e-01
9.595768e-01
9.308604e-01
9.016388e-01
8.719161e-01
8.416975e-01
8.109896e-01
7.798008e-01
7.481414e-01
7.160239e-01
6.834633e-01
6.504771e-01
6.170853e-01
5.833102e-01
5.491758e-01
5.147068e-01
4.799281e-01
4.448640e-01
4.095388e-01
3.739768e-01
3.382026e-01
3.022427e-01
2.661258e-01
2.298840e-01
1.935515e-01
1.571642e-01
1.207567e-01
8.436118e-02
4.800608e-02
1.171497e-02
-2.449420e-02
-6.060923e-02
-9.662242e-02
-1.325286e-01
-1.683236e-01
-2.040029e-01
-2.395601e-01
-2.749862e-01
-3.102685e-01
-3.453908e-01
-3.803339e-01
-4.150765e-01
-4.495965e-01
-4.838712e-01
-5.178777e-01
-5.515922e-01
-5.849881e-01
-6.180342e-01
-6.506932e-01
-6.829190e-01
-7.146562e-01
-7.458397e-01
-7.763951e-01
-8.062400e-01
-8.352856e-01
-8.634388e-01
-8.906044e-01
-9.166887e-01
-9.416012e-01
-9.652577e-01
-9.875820e-01
-1.008507e+00
-1.027979e+00
-1.045955e+00
-1.062405e+00
-1.077314e+00
-1.090678e+00
-1.102505e+00
-1.112812e+00
-1.121626e+00
-1.128984e+00
-1.134933e+00
-1.139524e+00
-1.142817e+00
-1.144875e+00
-1.145761e+00
-1.145541e+00
-1.144278e+00
-1.142039e+00
-1.138887e+00
-1.134886e+00
-1.130100e+00
-1.124596e+00
-1.118445e+00
-1.111716e+00
-1.104480e+00
-1.096801e+00
-1.088739e+00
-1.080348e+00
-1.071670e+00
-1.062743e+00
-1.053591e+00
-1.044230e+00
-1.034671e+00
-1.024913e+00
-1.014954e+00
-1.004782e+00
-9.943799e-01
-9.837234e-01
-9.727830e-01
-9.615257e-01
-9.499180e-01
-9.379273e-01
-9.255240e-01
-9.126811e-01
-8.993742e-01
-8.855807e-01
-8.712789e-01
-8.564483e-01
-8.410698e-01
-8.251264e-01
-8.086043e-01
-7.914935e-01
-7.737890e-01
-7.554915e-01
-7.366086e-01
-7.171561e-01
-6.971591e-01
-6.766532e-01
-6.556840e-01
-6.343055e-01
-6.125781e-01
-5.905675e-01
-5.683431e-01
-5.459770e-01
-5.235418e-01
-5.011090e-01
-4.787477e-01
-4.565233e-01
-4.344975e-01
-4.127262e-01
-3.912593e-01
-3.701384e-01
-3.493955e-01
-3.290528e-01
-3.091233e-01
-2.896126e-01
-2.705194e-01
-2.518363e-01
-2.335498e-01
-2.156408e-01
-1.980846e-01
-1.808518e-01
-1.639088e-01
-1.472207e-01
-1.307522e-01
-1.144693e-01
-9.833872e-02
-8.232789e-02
-6.640376e-02
-5.053344e-02
-3.468538e-02
-1.883092e-02
-2.944923e-03
1.299424e-02
2.900462e-02
4.509988e-02
6.128888e-02
7.757648e-02
9.396443e-02
1.104519e-01
1.270355e-01
1.437104e-01
1.604708e-01
1.773111e-01
1.942264e-01
2.112122e-01
2.282636e-01
2.453755e-01
2.625444e-01
2.797713e-01
2.970634e-01
3.144333e-01
