EVENT_NAME: L_AQUILA
EVENT_ID: IT-2009-0009
EVENT_DATE_YYYYMMDD: 20090406
EVENT_TIME_HHMMSS: 013240
EVENT_LATITUDE_DEGREE: 42.3420
EVENT_LONGITUDE_DEGREE: 13.3800
EVENT_DEPTH_KM: 8.3
HYPOCENTER_REFERENCE: INGV-CNT_Seismic_Bulletin
MAGNITUDE_W: 6.1
MAGNITUDE_W_REFERENCE: INGV-CNT_Seismic_Bulletin
MAGNITUDE_L: 
MAGNITUDE_L_REFERENCE: 
FOCAL_MECHANISM: Normal faulting
NETWORK: IT
STATION_CODE: AVZ
STATION_NAME: 
STATION_LATITUDE_DEGREE: 42.027458
STATION_LONGITUDE_DEGREE: 13.425929
STATION_ELEVATION_M: 746
LOCATION: 
SENSOR_DEPTH_M: 0.0
VS30_M/S: 199
SITE_CLASSIFICATION_EC8: C
MORPHOLOGIC_CLASSIFICATION: 
EPICENTRAL_DISTANCE_KM: 35.1
EARTHQUAKE_BACKAZIMUTH_DEGREE: 173.8
DATE_TIME_FIRST_SAMPLE_YYYYMMDD_HHMMSS: 20090406_013219.000
DATE_TIME_FIRST_SAMPLE_PRECISION: seconds
SAMPLING_INTERVAL_S: 0.005000
NDATA: 24000
DURATION_S: 120.000
STREAM: HNN
UNITS: cm/s^2
INSTRUMENT: sensor = FBA-3 [Kinemetrics] | digitizer = Everest [Kinemetrics]
INSTRUMENT_ANALOG/DIGITAL: D
INSTRUMENTAL_FREQUENCY_HZ: 204.000
INSTRUMENTAL_DAMPING: 0.700000
FULL_SCALE_G: 1.0
N_BIT_DIGITAL_CONVERTER: 24
PGA_CM/S^2: -67.691460
TIME_PGA_S: 41.370000
BASELINE_CORRECTION: BASELINE REMOVED
FILTER_TYPE: BUTTERWORTH
FILTER_ORDER: 2
LOW_CUT_FREQUENCY_HZ: 0.050
HIGH_CUT_FREQUENCY_HZ: 40.000
LATE/NORMAL_TRIGGERED: NT
DATABASE_VERSION: 0.5
HEADER_FORMAT: DYNA 1.2
DATA_TYPE: ACCELERATION
PROCESSING: manual (Paolucci et al., 2011)
DATA_TIMESTAMP_YYYYMMDD_HHMMSS: 20211011_160012.660
DATA_LICENSE: CC-BY3_0-IT (http://creativecommons.org/licenses/by/3.0/deed.en)
DATA_CITATION: Luzi L, Pacor F, Puglia R (2019). Italian Accelerometric Archive v 3.0 - Istituto Nazionale di Geofisica e Vulcanologia, Dipartimento della Protezione Civile Nazionale. doi: 10.13127/itaca.3.1
DATA_CREATOR: ITACA working group
ORIGINAL_DATA_MEDIATOR_CITATION: data obtained within the DPC-INGV data exchange agreements
ORIGINAL_DATA_MEDIATOR: Archive of Italian Department of Civil Protection
ORIGINAL_DATA_CREATOR_CITATION: Presidency Of Counsil Of Ministers-Civil Protection Department. (1972). Italian Strong Motion Network. Presidency of Counsil of Ministers - Civil Protection Department. https://doi.org/10.7914/SN/IT http://www.fdsn.org/networks/detail/IT/
ORIGINAL_DATA_CREATOR: network: IT (Italian Strong Motion Network (RAN)); owner: Presidency of Counsil of Ministers - Civil Protection Department (PCM - DPC)
USER1: 
USER2: 
USER3: 
USER4: 
USER5: 
[...]
-8.123807
-8.728693
-9.159059
-9.574956
-10.142338
-10.928836
-11.859508
-12.756239
-13.422515
-13.715687
-13.582362
-13.065954
-12.290983
-11.420503
-10.596154
-9.887219
-9.272998
-8.667336
-7.974178
-7.137316
-6.156665
-5.084495
-4.017211
-3.072400
-2.350783
-1.908280
-1.752047
-1.850901
-2.152382
-2.599459
-3.133362
-3.686764
-4.188334
-4.584756
-4.869426
-5.095993
-5.349870
-5.683452
-6.067772
-6.406527
-6.595971
-6.579926
-6.380278
-6.100608
-5.886837
-5.849385
-5.981342
-6.119014
-6.001392
-5.426374
-4.378560
-3.011886
-1.540968
-0.166591
0.943545
1.672581
1.986064
1.941508
1.654749
1.247363
0.810348
0.396141
0.022377
-0.330299
-0.716685
-1.205412
-1.844242
-2.633940
-3.518215
-4.388984
-5.123227
-5.643736
-5.943961
-6.049418
-5.974259
-5.726364
-5.330780
-4.820783
-4.194709
-3.380467
-2.261834
-0.764497
1.080391
3.157786
5.335788
7.496139
9.516804
11.272887
12.691409
13.795620
14.665204
15.346696
15.809323
15.986521
15.856182
15.478071
14.958466
14.382596
13.773008
13.104235
12.348173
11.503505
10.596775
9.659668
8.698115
7.681288
6.553117
5.260357
3.803179
2.272244
0.808611
-0.484379
-1.574043
-2.462036
-3.152372
-3.652431
-3.977994
-4.140235
-4.122838
-3.882817
-3.397216
-2.719850
-1.986616
-1.353790
-0.914619
-0.660679
-0.507614
-0.340748
-0.044065
0.472144
1.226163
2.130074
3.013581
3.710829
4.150732
4.378093
4.496148
4.589128
4.674934
4.697100
4.556128
4.174550
3.555691
2.786047
1.995699
1.333123
0.948054
0.939294
1.297866
1.917163
2.666951
3.460502
4.268996
5.088093
5.884865
6.566346
7.006413
7.116383
6.892162
6.395574
5.698052
4.844503
3.864370
2.795711
1.675540
0.515811
-0.687207
-1.921140
-3.144865
-4.303715
-5.362087
-6.334255
-7.278381
-8.244649
-9.219105
-10.109132
-10.778368
-11.106708
-11.037607
-10.586795
-9.820704
-8.827308
-7.692208
-6.486873
-5.268709
-4.081160
-2.949961
-1.894298
-0.958320
-0.228223
0.200650
0.293357
0.120465
-0.162736
-0.378281
-0.383357
-0.104805
0.445948
1.178474
1.959025
2.660730
3.204284
3.584626
3.865084
4.126313
4.417992
4.761947
5.173332
5.651364
6.165895
6.678155
7.175119
7.677491
8.215385
8.806381
9.458198
10.171391
10.922571
11.652526
12.294160
12.822298
13.263433
13.660225
14.040003
14.395200
14.660609
14.708780
14.392087
13.620821
12.426845
10.962425
9.430384
7.993510
6.718546
5.566973
4.416926
3.119726
1.584801
-0.160951
-1.991174
-3.757471
-5.346599
-6.671775
-7.647037
-8.210276
-8.376984
-8.245706
-7.926972
-7.468264
-6.855976
-6.074436
-5.138915
-4.080374
-2.928052
-1.713385
-0.481210
0.708641
1.803431
2.798028
3.754880
4.769352
5.903127
7.141745
8.401012
9.570969
10.564927
11.333475
11.843331
12.060035
11.950259
11.486567
10.655057
9.485730
8.092122
6.672536
5.447588
4.568867
4.067868
3.878880
3.901377
4.043252
4.228554
4.391533
4.465738
4.370231
4.007864
3.282836
2.134443
0.578068
-1.272240
-3.225484
-5.081686
-6.719431
-8.145124
-9.454214
-10.729906
-11.964134
-13.055363
-13.863566
-14.267766
-14.191430
-13.601023
-12.502829
-10.940950
-8.984264
-6.714116
-4.228458
-1.651562
0.871961
3.199809
5.210593
6.815658
7.979773
8.740034
9.192093
9.439576
9.547102
9.538835
9.432775
9.261812
9.049323
8.762646
8.305643
7.574706
6.528653
5.211339
3.720504
2.160495
0.615527
-0.850027
-2.183367
-3.343131
-4.307982
-5.090942
-5.752471
-6.386762
-7.067596
-7.793276
-8.482738
-9.028991
-9.370333
-9.523102
-9.553702
-9.527084
-9.475598
-9.388056
-9.197956
-8.775472
-7.955716
-6.616793
-4.760659
-2.526094
-0.120931
2.264020
4.485287
6.416632
7.928828
8.924535
9.386605
9.384088
9.036163
8.470221
7.807510
7.173763
6.694686
6.456457
6.466214
6.659286
6.952735
7.293192
7.654301
8.003410
8.291096
8.474052
8.537358
8.496314
8.392554
8.300053
8.323606
8.557134
9.011911
9.580655
10.080126
10.330895
10.211648
9.682636
8.794606
7.661177
6.384016
4.989250
3.434224
1.666011
-0.329580
-2.514168
-4.801031
-7.068243
-9.180162
-11.005156
-12.436715
-13.434032
-14.050535
-14.399884
-14.575239
-14.600526
-14.458654
-14.154757
-13.742502
-13.298056
-12.885100
-12.543967
-12.301066
-12.182655
-12.216334
-12.411379
-12.738659
-13.138187
-13.540364
-13.875802
-14.083199
-14.130279
-14.041250
-13.908939
-13.873936
-14.075862
-14.600028
-15.435102
-16.443995
-17.374634
-17.939018
-17.918034
-17.220488
-15.873732
-13.970419
-11.621366
-8.947262
-6.086527
-3.185068
-0.374662
2.238695
4.581252
6.629002
8.427540
10.082968
11.719474
13.443568
15.337470
17.458387
19.821802
22.377060
25.000130
27.512432
29.711763
31.400564
32.404739
32.597118
31.937597
30.498451
28.444399
25.979593
23.291355
20.527689
17.824766
15.332107
13.179220
11.416102
9.985621
8.741287
7.506179
6.138455
4.552678
2.704317
0.587938
-1.739823
-4.161628
-6.554924
-8.852866
-11.052731
-13.185183
-15.289906
-17.401482
-19.525457
-21.613909
-23.574020
-25.312773
-26.773315
-27.934925
-28.792723
-29.343292
-29.589054
-29.551228
-29.276800
-28.832703
-28.281084
-27.641434
-26.868275
-25.879503
-24.620733
-23.109049
-21.433710
-19.723461
-18.100786
-16.655962
-15.454909
-14.561318
-14.041668
-13.943951
-14.274493
-14.993810
-16.020809
-17.233561
-18.482315
-19.624037
-20.556471
-21.226034
-21.608501
-21.691160
-21.479506
-21.009493
-20.342634
-19.559225
-18.758928
-18.048050
-17.516304
-17.220512
-17.161655
-17.256853
-17.346905
-17.253899
-16.848118
-16.077715
-14.967174
-13.612608
-12.158884
-10.740353
-9.420919
-8.179159
-6.936215
-5.593342
-4.056960
-2.247015
-0.101436
2.406819
5.254393
8.383669
11.741006
15.290825
18.981886
22.698463
26.255510
29.460272
32.201630
34.511314
36.564960
38.618652
40.905293
43.538155
46.462322
49.470119
52.282398
54.652405
56.425568
57.557545
58.090370
58.083408
57.590248
56.685986
55.456696
53.984386
52.359848
50.685753
49.080551
47.679031
46.585964
45.811340
45.262398
44.791183
44.239540
43.457130
42.303883
40.666836
38.501911
35.849396
32.785133
29.357347
25.579161
21.468962
17.078762
12.490934
7.814950
3.199944
-1.170548
-5.129461
-8.589485
-11.560032
-14.103057
-16.273825
-18.099031
-19.597767
-20.809004
-21.797064
-22.644871
-23.442181
-24.264721
-25.167803
-26.208855
-27.463093
-28.998764
-30.838701
-32.950649
-35.254124
-37.615925
-39.853722
-41.777248
-43.249149
-44.225903
-44.760323
-44.963390
-44.947102
-44.791569
-44.549229
-44.263809
-43.978420
-43.707020
-43.385769
-42.874943
-42.028542
-40.766239
-39.102592
-37.131992
-34.977840
-32.738575
-30.476025
-28.248423
-26.130396
-24.173536
-22.348999
-20.544167
-18.611719
-16.411495
-13.817387
-10.717471
-7.036666
-2.775103
1.968500
7.012260
12.137203
17.132214
21.810251
25.998589
29.540810
32.332275
34.357189
35.685028
36.426178
36.681431
36.512012
35.929985
34.905224
33.400372
31.430294
29.104416
26.607504
24.115650
21.700966
19.298927
16.754204
13.901882
10.646658
7.008574
3.103254
-0.920411
-4.918096
-8.755826
-12.331699
-15.614280
-18.652876
-21.536964
-24.326908
-27.006012
-29.486713
-31.655411
-33.413219
-34.695164
-35.479927
-35.794010
-35.707790
-35.319981
-34.733940
-34.040329
-33.302631
-32.541168
-31.728437
-30.803783
-29.710297
-28.443373
-27.081999
-25.776722
-24.696730
-23.975899
-23.693577
-23.882887
-24.531662
-25.560791
-26.817066
-28.124714
-29.369406
-30.535177
-31.670244
-32.838722
-34.098682
-35.492680
-37.030113
-38.667355
-40.307610
-41.822311
-43.077770
-43.950092
-44.321762
-44.086536
-43.190132
-41.675175
-39.674141
-37.351959
-34.845245
-32.226540
-29.506050
-26.669180
-23.711832
-20.649221
-17.510954
-14.321079
-11.078173
-7.767883
-4.383494
-0.931861
2.556275
6.005944
9.284220
12.233087
14.743858
16.791027
18.405588
19.652370
20.621487
21.390656
21.985605
22.402500
22.657499
22.791277
22.844721
22.850861
22.841589
22.846544
22.880716
22.942566
23.024721
23.113237
23.178967
23.181906
23.075781
22.798077
22.281727
21.501806
20.493748
19.318039
18.028189
16.682079
15.370144
14.207992
13.294323
12.685048
12.406011
12.476673
12.903064
13.638780
14.561281
15.493586
16.248566
16.667660
16.658596
16.228514
15.482825
14.579540
13.662680
12.813174
12.044720
11.333457
10.646502
9.956767
9.250667
8.518038
7.723259
6.799798
5.687316
4.371503
2.900755
1.381869
-0.041780
-1.212828
-1.981015
-2.236717
-1.941567
-1.133644
0.084114
1.557007
3.100912
4.543464
5.768243
6.739412
7.499230
8.133953
8.719390
9.289264
9.842151
10.353445
10.779400
11.065117
11.154407
11.005228
10.611212
10.009302
9.278214
8.532956
7.884981
7.387844
7.030167
6.766679
6.535512
6.248690
5.786698
5.037003
3.963916
2.649080
1.272640
0.052851
-0.813789
-1.178339
-0.946661
-0.083445
1.397899
3.438970
5.928053
8.724553
11.712403
14.823983
18.029997
21.334686
24.768562
28.353020
32.060909
35.810871
39.496212
43.016445
46.285870
49.225639
51.752594
53.770866
55.183784
55.932137
56.022430
55.516392
54.517120
53.172939
51.648674
50.056007
48.413345
46.674416
44.789452
42.747013
40.570339
38.261623
35.737835
32.848251
29.496353
25.752684
21.821653
17.905071
14.134553
10.601443
7.380952
4.530809
2.096016
0.092094
-1.533200
-2.897170
-4.130795
-5.331123
-6.547148
-7.795043
-9.082864
-10.423746
-11.826299
-13.277093
-14.746474
-16.208769
-17.648956
-19.069376
-20.504440
-22.012680
-23.642599
-25.406816
-27.280127
-29.215542
-31.174356
-33.155163
-35.186241
-37.273697
-39.366360
-41.383102
-43.249264
-44.888065
-46.203190
-47.094162
-47.480621
-47.310814
-46.571377
-45.299889
-43.579533
-41.527767
-39.296997
-37.063702
-34.981358
-33.129875
-31.515774
-30.113882
-28.899279
-27.855652
-26.980410
-26.292421
-25.827003
-25.618071
-25.688505
-26.058556
-26.757618
-27.813307
-29.221073
-30.929651
-32.838898
-34.790176
-36.590649
-38.077888
-39.138145
-39.676010
-39.628067
-39.010586
-37.941830
-36.632164
-35.319653
-34.176975
-33.276806
-32.603096
-32.062199
-31.520918
-30.870405
-30.078257
-29.203968
-28.352585
-27.602381
-26.981844
-26.490166
-26.113878
-25.839062
-25.667513
-25.616343
-25.684786
-25.810328
-25.855749
-25.643297
-25.023966
-23.935169
-22.388651
-20.420568
-18.078100
-15.419801
-12.499346
-9.374511
-6.123499
-2.814256
0.535138
3.958936
7.508230
11.166131
14.763852
18.024302
20.730656
22.825888
24.354223
25.396784
26.081640
26.559225
26.915354
27.116945
27.032410
26.502602
25.424242
23.808002
21.780643
19.528757
17.242992
15.102357
13.247498
11.728299
10.503005
9.508239
8.714392
8.105618
7.629836
7.204433
6.783608
6.407252
6.178372
6.194939
6.492574
7.034433
7.746831
8.570426
9.482800
10.469574
11.484271
12.448834
13.280343
13.910504
14.301382
14.454001
14.403670
14.221934
14.014544
13.892527
13.950446
14.270073
14.915884
15.927181
17.323547
19.091228
21.151812
23.366236
25.578880
27.658178
29.508270
31.048412
32.180557
32.790195
32.791759
32.181541
31.060156
29.599930
27.971497
26.283909
24.567898
22.789377
20.870510
18.712671
16.238581
13.440644
10.385533
7.186002
3.991354
0.977444
-1.688991
-3.872537
-5.466751
-6.396109
-6.616827
-6.105364
-4.850016
-2.856250
-0.167501
3.107658
6.792648
10.677098
14.559051
18.270069
21.687885
24.741222
27.400162
29.656540
31.512222
32.982994
34.106575
34.944878
35.578667
36.087688
36.523701
36.904922
37.241585
37.560699
37.902134
38.323502
38.922062
39.793186
40.946568
42.302357
43.762173
45.243069
46.641663
47.814087
48.632008
49.053020
49.117386
48.878098
48.356087
47.564724
46.545872
45.362156
44.071445
42.728123
41.381008
40.042049
38.690399
37.319630
35.938377
34.537273
33.098129
31.628008
30.191864
28.916508
27.925903
27.262180
26.877119
26.683424
26.582745
26.478800
26.329380
26.130140
25.837641
25.406109
24.839079
24.137018
23.280045
22.269989
21.133369
19.895161
18.566822
17.141596
15.591189
13.883182
12.004341
9.962912
7.788364
5.538227
3.289811
1.122459
-0.887537
-2.666214
-4.148932
-5.296445
-6.105886
-6.603855
-6.837534
-6.872434
-6.783982
-6.641677
-6.489586
-6.325700
-6.097796
-5.726744
-5.133073
-4.248332
-3.027274
-1.464037
0.406686
2.526818
4.840074
7.308340
9.900695
12.565573
15.218391
17.752293
20.056301
22.033043
23.612604
24.759737
25.477192
25.799076
25.767494
25.409002
24.727274
23.702967
22.293356
20.438690
18.077263
15.165338
11.698693
7.728961
3.362411
-1.261557
-6.000847
-10.740932
-15.407490
-19.950991
-24.325775
-28.478495
-32.346382
-35.870811
-39.008648
-41.725250
-43.989742
-45.784431
-47.111565
-47.991985
-48.465733
-48.595680
-48.466576
-48.176144
-47.826153
-47.519501
-47.349182
-47.375061
-47.622063
-48.113808
-48.894157
-50.004288
-51.450680
-53.198112
-55.178608
-57.299725
-59.449917
-61.512173
-63.385658
-64.996429
-66.288994
-67.207848
-67.691460
-67.689590
-67.181702
-66.176018
-64.696564
-62.778587
-60.473572
-57.849018
-54.984734
-51.970654
-48.900379
-45.860931
-42.928139
-40.166592
-37.620087
-35.301826
-33.207287
-31.336559
-29.693583
-28.258751
-26.964752
-25.705738
-24.376665
-22.910929
-21.296637
-19.578011
-17.844641
-16.203165
-14.740834
-13.505825
-12.513551
-11.753081
-11.181760
-10.730753
-10.326293
-9.913702
-9.474281
-9.026276
-8.616137
-8.304280
-8.143644
-8.163652
-8.363587
-8.709037
-9.133671
-9.552057
-9.888408
-10.105542
-10.205698
-10.211076
-10.153403
-10.072573
-10.008404
-9.987481
-10.015472
-10.078946
-10.158772
-10.251853
-10.387897
-10.627822
-11.042557
-11.683490
-12.560880
-13.639054
-14.843433
-16.074039
-17.224012
-18.202494
-18.960306
-19.500889
-19.862869
-20.094391
-20.239721
-20.330711
-20.377802
-20.374928
-20.316715
-20.205648
-20.045975
-19.836939
-19.570892
-19.236336
-18.822891
-18.322275
-17.725651
-17.026054
-16.224083
-15.330765
-14.371354
-13.382248
-12.392855
-11.413286
-10.442661
-9.474540
-8.484941
-7.431446
-6.275806
-5.001071
-3.622258
-2.197160
-0.806544
0.480778
1.615813
2.559456
3.277743
3.765541
4.073372
4.279498
4.448044
4.630683
4.880388
5.245018
5.751887
6.400788
7.168461
8.017678
8.907627
9.809756
10.724586
11.684313
12.745888
13.985950
15.488851
17.326578
19.543463
22.149586
25.122984
28.418386
31.972063
35.699940
39.498867
43.257011
46.868107
50.239712
53.291878
55.951611
58.152874
59.845825
61.007652
61.646095
61.794186
61.497799
60.796928
59.709148
58.237743
56.404846
54.269669
51.915962
49.428265
46.868652
44.271370
41.662888
39.073563
36.517849
33.971558
31.381212
28.699610
25.919920
23.091963
20.313688
17.693417
15.309048
13.206639
11.425888
10.008291
8.978812
8.321909
7.983189
7.907753
8.077067
8.505061
9.207608
10.174870
11.357549
12.671870
14.019577
15.315481
16.508017
17.582941
18.558563
19.467585
20.330980
21.150805
21.914766
22.595055
23.152056
23.547230
23.747719
23.718552
23.415840
22.786367
21.777014
20.355513
18.533834
16.373533
13.952964
11.330298
8.550255
5.670146
2.763572
-0.097069
-2.857614
-5.481484
-7.936719
-10.185300
-12.175298
-13.839732
-15.120134
-16.004223
-16.530819
-16.752357
-16.702620
-16.400566
-15.863379
-15.100767
-14.115812
-12.929982
-11.597598
-10.192601
-8.785549
-7.419954
-6.097419
-4.788375
-3.468439
-2.151864
-0.890835
0.256472
1.261113
2.126660
2.848796
3.395100
3.749965
3.943485
4.014282
3.979229
3.848925
3.649316
3.420007
3.197338
2.999609
2.818053
2.625400
2.421239
2.279690
2.319447
2.605536
3.113051
3.798984
4.664433
5.729456
6.981771
8.372085
9.838513
11.307417
12.685259
13.884635
14.862392
15.623205
16.190056
16.568674
16.727530
16.608599
16.148678
15.278772
13.927955
12.057641
9.686992
6.880966
3.718605
0.263019
-3.447197
-7.374411
-11.457282
-15.618910
-19.782888
-23.870039
-27.791590
-31.450315
-34.745480
-37.577049
-39.857101
-41.535652
-42.620182
-43.176674
-43.315907
-43.160130
-42.810562
-42.347443
-41.849331
-41.394646
-41.037067
-40.777004
-40.562984
-40.344578
-40.138680
-40.031414
-40.113640
-40.427799
-40.962456
-41.667015
-42.464310
-43.257145
-43.932930
-44.381256
-44.526428
-44.355412
-43.915295
-43.267750
-42.438164
-41.419834
-40.224293
-38.898251
-37.476818
-35.949783
-34.297829
-32.543549
-30.751619
-28.988537
-27.285906
-25.627541
-23.960777
-22.228296
-20.395559
-18.447855
-16.376669
-14.187155
-11.912974
-9.610273
-7.339448
-5.159188
-3.131419
-1.317288
0.237615
1.506238
2.462918
3.075317
3.326699
3.238773
2.860830
2.241323
1.413810
0.402672
-0.757983
-2.006656
-3.262879
-4.459401
-5.556156
-6.517662
-7.290602
-7.803732
-7.977846
-7.744506
-7.066204
-5.944484
-4.419238
-2.554766
-0.411302
1.973217
4.573939
7.358588
10.281235
13.288027
16.314631
19.274944
22.054457
24.519777
26.552162
28.086769
29.119362
29.676521
29.786762
29.475464
28.770666
27.702354
26.297447
24.585400
22.616270
20.467400
18.219826
15.933802
13.664071
11.486629
9.483548
7.717957
6.251198
5.155240
4.480879
4.234516
4.383739
4.857615
5.550297
6.357200
7.215558
8.098328
8.983586
9.850117
10.686975
11.492974
12.270584
13.018915
13.733923
14.419531
15.090612
15.751142
16.371153
16.894762
17.263651
17.429125
17.355650
17.022713
16.427488
15.592478
14.570000
13.429392
12.234607
11.029298
9.833785
8.662184
7.554835
6.585171
5.830301
5.349776
5.179733
5.311867
5.681797
6.200870
6.800837
7.451723
8.144850
8.860425
9.561983
10.223607
10.843696
11.428625
11.973385
12.454583
12.838865
13.103586
13.248814
13.286320
13.218084
13.027712
12.691176
12.191742
11.526424
10.700419
9.716116
8.580817
7.332465
6.043481
4.793248
3.639497
2.606954
1.694201
0.889329
0.180436
-0.446199
-1.017145
-1.567830
-2.113953
-2.639912
-3.120764
-3.537110
-3.867790
-4.075676
-4.101403
-3.885980
-3.405314
-2.665884
-1.670697
-0.414252
1.089317
2.790166
4.617824
6.512509
8.445112
10.413135
12.427555
14.499855
16.631647
18.814089
21.029655
23.245729
25.404228
27.422758
29.218752
30.737803
31.955591
32.858044
33.428551
33.650032
33.507454
32.988094
32.089394
30.831526
29.262152
27.440168
25.403202
23.160007
20.720537
18.117380
15.400617
12.626478
9.841283
7.070473
4.332562
1.661347
-0.887679
-3.250444
-5.375734
-7.233361
-8.814127
-10.136644
-11.245725
-12.194216
-13.025175
-13.766489
-14.436435
-15.050009
-15.615612
-16.128035
-16.572201
-16.934986
-17.212030
