EVENT_NAME: L_AQUILA
EVENT_ID: IT-2009-0009
EVENT_DATE_YYYYMMDD: 20090406
EVENT_TIME_HHMMSS: 013240
EVENT_LATITUDE_DEGREE: 42.3420
EVENT_LONGITUDE_DEGREE: 13.3800
EVENT_DEPTH_KM: 8.3
HYPOCENTER_REFERENCE: INGV-CNT_Seismic_Bulletin
MAGNITUDE_W: 6.1
MAGNITUDE_W_REFERENCE: INGV-CNT_Seismic_Bulletin
MAGNITUDE_L: 
MAGNITUDE_L_REFERENCE: 
FOCAL_MECHANISM: Normal faulting
NETWORK: IT
STATION_CODE: AVZ
STATION_NAME: 
STATION_LATITUDE_DEGREE: 42.027458
STATION_LONGITUDE_DEGREE: 13.425929
STATION_ELEVATION_M: 746
LOCATION: 
SENSOR_DEPTH_M: 0.0
VS30_M/S: 199
SITE_CLASSIFICATION_EC8: C
MORPHOLOGIC_CLASSIFICATION: 
EPICENTRAL_DISTANCE_KM: 35.1
EARTHQUAKE_BACKAZIMUTH_DEGREE: 173.8
DATE_TIME_FIRST_SAMPLE_YYYYMMDD_HHMMSS: 20090406_013219.000
DATE_TIME_FIRST_SAMPLE_PRECISION: seconds
SAMPLING_INTERVAL_S: 0.005000
NDATA: 24000
DURATION_S: 120.000
STREAM: HNZ
UNITS: cm
INSTRUMENT: sensor = FBA-3 [Kinemetrics] | digitizer = Everest [Kinemetrics]
INSTRUMENT_ANALOG/DIGITAL: D
INSTRUMENTAL_FREQUENCY_HZ: 212.000
INSTRUMENTAL_DAMPING: 0.700000
FULL_SCALE_G: 1.0
N_BIT_DIGITAL_CONVERTER: 24
PGD_CM: -1.637589
TIME_PGD_S: 39.130000
BASELINE_CORRECTION: BASELINE REMOVED
FILTER_TYPE: BUTTERWORTH
FILTER_ORDER: 2
LOW_CUT_FREQUENCY_HZ: 0.050
HIGH_CUT_FREQUENCY_HZ: 40.000
LATE/NORMAL_TRIGGERED: NT
DATABASE_VERSION: 0.5
HEADER_FORMAT: DYNA 1.2
DATA_TYPE: DISPLACEMENT
PROCESSING: manual (Paolucci et al., 2011)
DATA_TIMESTAMP_YYYYMMDD_HHMMSS: 20211011_160013.405
DATA_LICENSE: CC-BY3_0-IT (http://creativecommons.org/licenses/by/3.0/deed.en)
DATA_CITATION: Luzi L, Pacor F, Puglia R (2019). Italian Accelerometric Archive v 3.0 - Istituto Nazionale di Geofisica e Vulcanologia, Dipartimento della Protezione Civile Nazionale. doi: 10.13127/itaca.3.1
DATA_CREATOR: ITACA working group
ORIGINAL_DATA_MEDIATOR_CITATION: data obtained within the DPC-INGV data exchange agreements
ORIGINAL_DATA_MEDIATOR: Archive of Italian Department of Civil Protection
ORIGINAL_DATA_CREATOR_CITATION: Presidency Of Counsil Of Ministers-Civil Protection Department. (1972). Italian Strong Motion Network. Presidency of Counsil of Ministers - Civil Protection Department. https://doi.org/10.7914/SN/IT http://www.fdsn.org/networks/detail/IT/
ORIGINAL_DATA_CREATOR: network: IT (Italian Strong Motion Network (RAN)); owner: Presidency of Counsil of Ministers - Civil Protection Department (PCM - DPC)
USER1: 
USER2: 
USER3: 
USER4: 
USER5: 
[...]
-2.657285e-01
-2.670030e-01
-2.682717e-01
-2.695871e-01
-2.709950e-01
-2.725326e-01
-2.742255e-01
-2.760862e-01
-2.781148e-01
-2.803010e-01
-2.826263e-01
-2.850639e-01
-2.875812e-01
-2.901431e-01
-2.927159e-01
-2.952686e-01
-2.977732e-01
-3.002068e-01
-3.025556e-01
-3.048157e-01
-3.069907e-01
-3.090892e-01
-3.111271e-01
-3.131303e-01
-3.151335e-01
-3.171740e-01
-3.192836e-01
-3.214837e-01
-3.237820e-01
-3.261722e-01
-3.286365e-01
-3.311496e-01
-3.336837e-01
-3.362110e-01
-3.387063e-01
-3.411472e-01
-3.435120e-01
-3.457756e-01
-3.479067e-01
-3.498668e-01
-3.516136e-01
-3.531068e-01
-3.543144e-01
-3.552173e-01
-3.558127e-01
-3.561163e-01
-3.561616e-01
-3.559978e-01
-3.556831e-01
-3.552768e-01
-3.548336e-01
-3.543999e-01
-3.540109e-01
-3.536887e-01
-3.534431e-01
-3.532752e-01
-3.531816e-01
-3.531573e-01
-3.531958e-01
-3.532877e-01
-3.534185e-01
-3.535664e-01
-3.537034e-01
-3.537988e-01
-3.538238e-01
-3.537548e-01
-3.535755e-01
-3.532794e-01
-3.528711e-01
-3.523658e-01
-3.517854e-01
-3.511542e-01
-3.504965e-01
-3.498350e-01
-3.491914e-01
-3.485855e-01
-3.480330e-01
-3.475431e-01
-3.471160e-01
-3.467412e-01
-3.463985e-01
-3.460597e-01
-3.456922e-01
-3.452636e-01
-3.447449e-01
-3.441118e-01
-3.433439e-01
-3.424231e-01
-3.413348e-01
-3.400689e-01
-3.386209e-01
-3.369908e-01
-3.351812e-01
-3.331979e-01
-3.310529e-01
-3.287671e-01
-3.263691e-01
-3.238889e-01
-3.213497e-01
-3.187626e-01
-3.161264e-01
-3.134319e-01
-3.106666e-01
-3.078201e-01
-3.048880e-01
-3.018729e-01
-2.987824e-01
-2.956251e-01
-2.924065e-01
-2.891295e-01
-2.857981e-01
-2.824203e-01
-2.790071e-01
-2.755684e-01
-2.721090e-01
-2.686266e-01
-2.651130e-01
-2.615563e-01
-2.579443e-01
-2.542678e-01
-2.505226e-01
-2.467110e-01
-2.428404e-01
-2.389192e-01
-2.349543e-01
-2.309490e-01
-2.269049e-01
-2.228262e-01
-2.187239e-01
-2.146168e-01
-2.105277e-01
-2.064792e-01
-2.024889e-01
-1.985664e-01
-1.947115e-01
-1.909127e-01
-1.871497e-01
-1.833979e-01
-1.796351e-01
-1.758453e-01
-1.720207e-01
-1.681605e-01
-1.642697e-01
-1.603576e-01
-1.564350e-01
-1.525141e-01
-1.486070e-01
-1.447259e-01
-1.408822e-01
-1.370865e-01
-1.333467e-01
-1.296650e-01
-1.260356e-01
-1.224456e-01
-1.188782e-01
-1.153156e-01
-1.117400e-01
-1.081347e-01
-1.044853e-01
-1.007807e-01
-9.701369e-02
-9.318294e-02
-8.929557e-02
-8.536940e-02
-8.143109e-02
-7.751061e-02
-7.363529e-02
-6.982608e-02
-6.609577e-02
-6.244750e-02
-5.887299e-02
-5.535212e-02
-5.185484e-02
-4.834451e-02
-4.478159e-02
-4.112833e-02
-3.735430e-02
-3.343995e-02
-2.937612e-02
-2.516121e-02
-2.079858e-02
-1.629489e-02
-1.165852e-02
-6.898663e-03
-2.026354e-03
2.943150e-03
7.989969e-03
1.309374e-02
1.824042e-02
2.342698e-02
2.866151e-02
3.396007e-02
3.934308e-02
4.483261e-02
5.045032e-02
5.621555e-02
6.214423e-02
6.824860e-02
7.453685e-02
8.101093e-02
8.766333e-02
9.447616e-02
1.014245e-01
1.084818e-01
1.156240e-01
1.228321e-01
1.300942e-01
1.374081e-01
1.447830e-01
1.522388e-01
1.598046e-01
1.675161e-01
1.754112e-01
1.835233e-01
1.918742e-01
2.004684e-01
2.092918e-01
2.183120e-01
2.274831e-01
2.367506e-01
2.460605e-01
2.553666e-01
2.646361e-01
2.738533e-01
2.830189e-01
2.921491e-01
3.012719e-01
3.104201e-01
3.196261e-01
3.289175e-01
3.383163e-01
3.478419e-01
3.575152e-01
3.673607e-01
3.774055e-01
3.876740e-01
3.981832e-01
4.089407e-01
4.199427e-01
4.311710e-01
4.425935e-01
4.541681e-01
4.658509e-01
4.776016e-01
4.893876e-01
5.011856e-01
5.129813e-01
5.247666e-01
5.365367e-01
5.482856e-01
5.600027e-01
5.716699e-01
5.832621e-01
5.947500e-01
6.061045e-01
6.172993e-01
6.283115e-01
6.391198e-01
6.497055e-01
6.600534e-01
6.701548e-01
6.800071e-01
6.896131e-01
6.989802e-01
7.081210e-01
7.170546e-01
7.258086e-01
7.344208e-01
7.429390e-01
7.514184e-01
7.599152e-01
7.684794e-01
7.771487e-01
7.859446e-01
7.948728e-01
8.039283e-01
8.131007e-01
8.223801e-01
8.317575e-01
8.412231e-01
8.507634e-01
8.603597e-01
8.699897e-01
8.796289e-01
8.892515e-01
8.988324e-01
9.083479e-01
9.177777e-01
9.271042e-01
9.363132e-01
9.453953e-01
9.543464e-01
9.631661e-01
9.718535e-01
9.804034e-01
9.888034e-01
9.970326e-01
1.005063e+00
1.012866e+00
1.020409e+00
1.027667e+00
1.034613e+00
1.041229e+00
1.047498e+00
1.053414e+00
1.058974e+00
1.064192e+00
1.069090e+00
1.073707e+00
1.078088e+00
1.082282e+00
1.086333e+00
1.090280e+00
1.094145e+00
1.097937e+00
1.101651e+00
1.105270e+00
1.108769e+00
1.112114e+00
1.115268e+00
1.118192e+00
1.120850e+00
1.123212e+00
1.125256e+00
1.126971e+00
1.128360e+00
1.129435e+00
1.130220e+00
1.130741e+00
1.131026e+00
1.131102e+00
1.130992e+00
1.130717e+00
1.130294e+00
1.129742e+00
1.129084e+00
1.128346e+00
1.127561e+00
1.126767e+00
1.126002e+00
1.125304e+00
1.124700e+00
1.124206e+00
1.123823e+00
1.123543e+00
1.123348e+00
1.123214e+00
1.123118e+00
1.123032e+00
1.122935e+00
1.122804e+00
1.122623e+00
1.122383e+00
1.122083e+00
1.121723e+00
1.121309e+00
1.120844e+00
1.120325e+00
1.119735e+00
1.119038e+00
1.118178e+00
1.117087e+00
1.115694e+00
1.113934e+00
1.111751e+00
1.109105e+00
1.105974e+00
1.102359e+00
1.098279e+00
1.093766e+00
1.088863e+00
1.083622e+00
1.078093e+00
1.072325e+00
1.066362e+00
1.060235e+00
1.053968e+00
1.047571e+00
1.041045e+00
1.034383e+00
1.027576e+00
1.020613e+00
1.013488e+00
1.006202e+00
9.987606e-01
9.911743e-01
9.834550e-01
9.756122e-01
9.676522e-01
9.595802e-01
9.514033e-01
9.431320e-01
9.347797e-01
9.263595e-01
9.178816e-01
9.093510e-01
9.007704e-01
8.921432e-01
8.834751e-01
8.747710e-01
8.660293e-01
8.572383e-01
8.483761e-01
8.394148e-01
8.303283e-01
8.210995e-01
8.117236e-01
8.022066e-01
7.925601e-01
7.827951e-01
7.729192e-01
7.629340e-01
7.528365e-01
7.426216e-01
7.322870e-01
7.218356e-01
7.112750e-01
7.006124e-01
6.898518e-01
6.789911e-01
6.680222e-01
6.569296e-01
6.456898e-01
6.342714e-01
6.226376e-01
6.107517e-01
5.985853e-01
5.861263e-01
5.733846e-01
5.603909e-01
5.471887e-01
5.338254e-01
5.203438e-01
5.067789e-01
4.931571e-01
4.794997e-01
4.658281e-01
4.521692e-01
4.385579e-01
4.250351e-01
4.116429e-01
3.984200e-01
3.853967e-01
3.725920e-01
3.600106e-01
3.476406e-01
3.354533e-01
3.234035e-01
3.114337e-01
2.994781e-01
2.874681e-01
2.753371e-01
2.630254e-01
2.504863e-01
2.376918e-01
2.246370e-01
2.113442e-01
1.978625e-01
1.842648e-01
1.706409e-01
1.570907e-01
1.437176e-01
1.306217e-01
1.178925e-01
1.056017e-01
9.379970e-02
8.251521e-02
7.175823e-02
6.152308e-02
5.179234e-02
4.254102e-02
3.374046e-02
2.536081e-02
1.737152e-02
9.739803e-03
2.428516e-03
-4.604307e-03
-1.140307e-02
-1.801114e-02
-2.446883e-02
-3.081355e-02
-3.708111e-02
-4.330668e-02
-4.952499e-02
-5.577016e-02
-6.207472e-02
-6.846713e-02
-7.496889e-02
-8.159374e-02
-8.834993e-02
-9.524262e-02
-1.022736e-01
-1.094387e-01
-1.167264e-01
-1.241183e-01
-1.315905e-01
-1.391154e-01
-1.466632e-01
-1.542036e-01
-1.617062e-01
-1.691408e-01
-1.764782e-01
-1.836927e-01
-1.907671e-01
-1.976953e-01
-2.044808e-01
-2.111325e-01
-2.176603e-01
-2.240716e-01
-2.303668e-01
-2.365365e-01
-2.425618e-01
-2.484173e-01
-2.540757e-01
-2.595129e-01
-2.647105e-01
-2.696577e-01
-2.743522e-01
-2.787990e-01
-2.830068e-01
-2.869826e-01
-2.907248e-01
-2.942205e-01
-2.974467e-01
-3.003751e-01
-3.029782e-01
-3.052347e-01
-3.071329e-01
-3.086732e-01
-3.098677e-01
-3.107389e-01
-3.113158e-01
-3.116290e-01
-3.117049e-01
-3.115619e-01
-3.112077e-01
-3.106408e-01
-3.098526e-01
-3.088303e-01
-3.075576e-01
-3.060138e-01
-3.041742e-01
-3.020132e-01
-2.995094e-01
-2.966537e-01
-2.934548e-01
-2.899429e-01
-2.861661e-01
-2.821861e-01
-2.780717e-01
-2.738928e-01
-2.697143e-01
-2.655920e-01
-2.615704e-01
-2.576835e-01
-2.539565e-01
-2.504072e-01
-2.470472e-01
-2.438840e-01
-2.409229e-01
-2.381701e-01
-2.356337e-01
-2.333237e-01
-2.312495e-01
-2.294171e-01
-2.278273e-01
-2.264762e-01
-2.253571e-01
-2.244603e-01
-2.237725e-01
-2.232733e-01
-2.229312e-01
-2.227015e-01
-2.225261e-01
-2.223363e-01
-2.220586e-01
-2.216231e-01
-2.209714e-01
-2.200642e-01
-2.188868e-01
-2.174518e-01
-2.157974e-01
-2.139839e-01
-2.120891e-01
-2.102022e-01
-2.084148e-01
-2.068085e-01
-2.054456e-01
-2.043633e-01
-2.035734e-01
-2.030672e-01
-2.028236e-01
-2.028183e-01
-2.030320e-01
-2.034543e-01
-2.040844e-01
-2.049279e-01
-2.059925e-01
-2.072823e-01
-2.087938e-01
-2.105130e-01
-2.124171e-01
-2.144796e-01
-2.166766e-01
-2.189941e-01
-2.214321e-01
-2.240054e-01
-2.267420e-01
-2.296779e-01
-2.328492e-01
-2.362860e-01
-2.400090e-01
-2.440285e-01
-2.483444e-01
-2.529454e-01
-2.578081e-01
-2.628971e-01
-2.681647e-01
-2.735506e-01
-2.789843e-01
-2.843910e-01
-2.897005e-01
-2.948554e-01
-2.998166e-01
-3.045654e-01
-3.091035e-01
-3.134505e-01
-3.176408e-01
-3.217178e-01
-3.257293e-01
-3.297232e-01
-3.337425e-01
-3.378211e-01
-3.419809e-01
-3.462330e-01
-3.505787e-01
-3.550112e-01
-3.595163e-01
-3.640723e-01
-3.686479e-01
-3.732008e-01
-3.776774e-01
-3.820162e-01
-3.861536e-01
-3.900300e-01
-3.935944e-01
-3.968066e-01
-3.996372e-01
-4.020659e-01
-4.040795e-01
-4.056691e-01
-4.068275e-01
-4.075489e-01
-4.078306e-01
-4.076780e-01
-4.071083e-01
-4.061539e-01
-4.048606e-01
-4.032841e-01
-4.014864e-01
-3.995318e-01
-3.974820e-01
-3.953915e-01
-3.933023e-01
-3.912405e-01
-3.892108e-01
-3.871910e-01
-3.851280e-01
-3.829401e-01
-3.805233e-01
-3.777643e-01
-3.745559e-01
-3.708137e-01
-3.664892e-01
-3.615793e-01
-3.561283e-01
-3.502233e-01
-3.439838e-01
-3.375466e-01
-3.310507e-01
-3.246232e-01
-3.183678e-01
-3.123569e-01
-3.066296e-01
-3.011967e-01
-2.960488e-01
-2.911670e-01
-2.865323e-01
-2.821325e-01
-2.779649e-01
-2.740336e-01
-2.703445e-01
-2.668996e-01
-2.636928e-01
-2.607081e-01
-2.579219e-01
-2.553091e-01
-2.528491e-01
-2.505303e-01
-2.483531e-01
-2.463311e-01
-2.444908e-01
-2.428673e-01
-2.414997e-01
-2.404266e-01
-2.396842e-01
-2.393039e-01
-2.393109e-01
-2.397211e-01
-2.405392e-01
-2.417588e-01
-2.433640e-01
-2.453320e-01
-2.476369e-01
-2.502548e-01
-2.531693e-01
-2.563747e-01
-2.598748e-01
-2.636765e-01
-2.677830e-01
-2.721875e-01
-2.768705e-01
-2.817996e-01
-2.869315e-01
-2.922150e-01
-2.975966e-01
-3.030281e-01
-3.084722e-01
-3.139098e-01
-3.193451e-01
-3.248092e-01
-3.303588e-01
-3.360689e-01
-3.420216e-01
-3.482939e-01
-3.549445e-01
-3.620046e-01
-3.694718e-01
-3.773113e-01
-3.854637e-01
-3.938566e-01
-4.024170e-01
-4.110810e-01
-4.198036e-01
-4.285659e-01
-4.373805e-01
-4.462922e-01
-4.553713e-01
-4.647007e-01
-4.743622e-01
-4.844243e-01
-4.949341e-01
-5.059122e-01
-5.173515e-01
-5.292197e-01
-5.414634e-01
-5.540153e-01
-5.668000e-01
-5.797387e-01
-5.927517e-01
-6.057617e-01
-6.186982e-01
-6.315015e-01
-6.441262e-01
-6.565420e-01
-6.687331e-01
-6.806971e-01
-6.924432e-01
-7.039899e-01
-7.153621e-01
-7.265892e-01
-7.377013e-01
-7.487249e-01
-7.596794e-01
-7.705729e-01
-7.814013e-01
-7.921480e-01
-8.027845e-01
-8.132736e-01
-8.235732e-01
-8.336412e-01
-8.434395e-01
-8.529355e-01
-8.621034e-01
-8.709247e-01
-8.793863e-01
-8.874785e-01
-8.951946e-01
-9.025325e-01
-9.094951e-01
-9.160908e-01
-9.223333e-01
-9.282413e-01
-9.338388e-01
-9.391525e-01
-9.442097e-01
-9.490361e-01
-9.536568e-01
-9.580984e-01
-9.623902e-01
-9.665623e-01
-9.706439e-01
-9.746615e-01
-9.786396e-01
-9.826017e-01
-9.865711e-01
-9.905696e-01
-9.946176e-01
-9.987325e-01
-1.002927e+00
-1.007207e+00
-1.011569e+00
-1.015998e+00
-1.020470e+00
-1.024948e+00
-1.029396e+00
-1.033781e+00
-1.038080e+00
-1.042285e+00
-1.046409e+00
-1.050485e+00
-1.054559e+00
-1.058695e+00
-1.062960e+00
-1.067422e+00
-1.072139e+00
-1.077164e+00
-1.082534e+00
-1.088276e+00
-1.094403e+00
-1.100917e+00
-1.107805e+00
-1.115045e+00
-1.122604e+00
-1.130441e+00
-1.138511e+00
-1.146767e+00
-1.155166e+00
-1.163669e+00
-1.172237e+00
-1.180833e+00
-1.189414e+00
-1.197932e+00
-1.206334e+00
-1.214560e+00
-1.222554e+00
-1.230268e+00
-1.237676e+00
-1.244776e+00
-1.251593e+00
-1.258183e+00
-1.264623e+00
-1.271008e+00
-1.277435e+00
-1.284000e+00
-1.290781e+00
-1.297839e+00
-1.305209e+00
-1.312902e+00
-1.320913e+00
-1.329222e+00
-1.337802e+00
-1.346625e+00
-1.355668e+00
-1.364911e+00
-1.374344e+00
-1.383964e+00
-1.393775e+00
-1.403789e+00
-1.414018e+00
-1.424469e+00
-1.435142e+00
-1.446017e+00
-1.457057e+00
-1.468205e+00
-1.479391e+00
-1.490533e+00
-1.501551e+00
-1.512371e+00
-1.522932e+00
-1.533186e+00
-1.543093e+00
-1.552624e+00
-1.561751e+00
-1.570451e+00
-1.578703e+00
-1.586490e+00
-1.593797e+00
-1.600612e+00
-1.606918e+00
-1.612697e+00
-1.617926e+00
-1.622582e+00
-1.626638e+00
-1.630073e+00
-1.632868e+00
-1.635014e+00
-1.636509e+00
-1.637362e+00
-1.637589e+00
-1.637217e+00
-1.636278e+00
-1.634805e+00
-1.632830e+00
-1.630373e+00
-1.627443e+00
-1.624040e+00
-1.620153e+00
-1.615769e+00
-1.610875e+00
-1.605459e+00
-1.599508e+00
-1.593005e+00
-1.585930e+00
-1.578264e+00
-1.569994e+00
-1.561123e+00
-1.551668e+00
-1.541672e+00
-1.531197e+00
-1.520319e+00
-1.509128e+00
-1.497713e+00
-1.486160e+00
-1.474546e+00
-1.462932e+00
-1.451364e+00
-1.439870e+00
-1.428455e+00
-1.417108e+00
-1.405804e+00
-1.394507e+00
-1.383183e+00
-1.371801e+00
-1.360340e+00
-1.348790e+00
-1.337159e+00
-1.325468e+00
-1.313750e+00
-1.302046e+00
-1.290406e+00
-1.278882e+00
-1.267529e+00
-1.256406e+00
-1.245571e+00
-1.235080e+00
-1.224987e+00
-1.215337e+00
-1.206167e+00
-1.197505e+00
-1.189363e+00
-1.181744e+00
-1.174637e+00
-1.168024e+00
-1.161878e+00
-1.156160e+00
-1.150822e+00
-1.145808e+00
-1.141058e+00
-1.136507e+00
-1.132096e+00
-1.127772e+00
-1.123499e+00
-1.119260e+00
-1.115063e+00
-1.110937e+00
-1.106928e+00
-1.103095e+00
-1.099500e+00
-1.096208e+00
-1.093282e+00
-1.090776e+00
-1.088734e+00
-1.087179e+00
-1.086117e+00
-1.085533e+00
-1.085392e+00
-1.085643e+00
-1.086227e+00
-1.087081e+00
-1.088147e+00
-1.089378e+00
-1.090744e+00
-1.092235e+00
-1.093859e+00
-1.095639e+00
-1.097611e+00
-1.099809e+00
-1.102268e+00
-1.105013e+00
-1.108063e+00
-1.111433e+00
-1.115133e+00
-1.119170e+00
-1.123554e+00
-1.128300e+00
-1.133426e+00
-1.138942e+00
-1.144849e+00
-1.151129e+00
-1.157740e+00
-1.164624e+00
-1.171703e+00
-1.178892e+00
-1.186103e+00
-1.193246e+00
-1.200238e+00
-1.207001e+00
-1.213466e+00
-1.219573e+00
-1.225272e+00
-1.230525e+00
-1.235311e+00
-1.239626e+00
-1.243481e+00
-1.246894e+00
-1.249886e+00
-1.252478e+00
-1.254683e+00
-1.256512e+00
-1.257966e+00
-1.259038e+00
-1.259718e+00
-1.259991e+00
-1.259841e+00
-1.259254e+00
-1.258218e+00
-1.256722e+00
-1.254764e+00
-1.252339e+00
-1.249446e+00
-1.246085e+00
-1.242255e+00
-1.237957e+00
-1.233193e+00
-1.227963e+00
-1.222265e+00
-1.216094e+00
-1.209442e+00
-1.202297e+00
-1.194643e+00
-1.186457e+00
-1.177714e+00
-1.168389e+00
-1.158464e+00
-1.147930e+00
-1.136791e+00
-1.125060e+00
-1.112767e+00
-1.099950e+00
-1.086657e+00
-1.072944e+00
-1.058875e+00
-1.044521e+00
-1.029959e+00
-1.015271e+00
-1.000538e+00
-9.858382e-01
-9.712441e-01
-9.568151e-01
-9.425974e-01
-9.286255e-01
-9.149242e-01
-9.015094e-01
-8.883884e-01
-8.755603e-01
-8.630168e-01
-8.507427e-01
-8.387162e-01
-8.269101e-01
-8.152922e-01
-8.038262e-01
-7.924701e-01
-7.811775e-01
-7.699006e-01
-7.585948e-01
-7.472223e-01
-7.357569e-01
-7.241849e-01
-7.125047e-01
-7.007218e-01
-6.888439e-01
-6.768765e-01
-6.648219e-01
-6.526800e-01
-6.404509e-01
-6.281390e-01
-6.157559e-01
-6.033230e-01
-5.908706e-01
-5.784350e-01
-5.660564e-01
-5.537778e-01
-5.416446e-01
-5.297024e-01
-5.179929e-01
-5.065506e-01
-4.954020e-01
-4.845651e-01
-4.740504e-01
-4.638615e-01
-4.539956e-01
-4.444438e-01
-4.351926e-01
-4.262243e-01
-4.175168e-01
-4.090432e-01
-4.007718e-01
-3.926657e-01
-3.846837e-01
-3.767826e-01
-3.689170e-01
-3.610403e-01
-3.531038e-01
-3.450580e-01
-3.368540e-01
-3.284432e-01
-3.197789e-01
-3.108171e-01
-3.015185e-01
-2.918469e-01
-2.817690e-01
-2.712560e-01
-2.602866e-01
-2.488484e-01
-2.369385e-01
-2.245643e-01
-2.117439e-01
-1.985062e-01
-1.848908e-01
-1.709467e-01
-1.567311e-01
-1.423076e-01
-1.277453e-01
-1.131172e-01
-9.849902e-02
-8.396763e-02
-6.959946e-02
-5.546831e-02
-4.164092e-02
-2.817054e-02
-1.509012e-02
-2.406380e-03
9.903155e-03
2.188760e-02
3.361450e-02
4.515935e-02
5.659665e-02
6.799402e-02
7.940821e-02
9.088165e-02
1.024393e-01
1.140873e-01
1.258136e-01
1.375907e-01
1.493785e-01
1.611291e-01
1.727917e-01
1.843149e-01
1.956462e-01
2.067298e-01
2.175057e-01
2.279118e-01
2.378877e-01
2.473780e-01
2.563353e-01
2.647237e-01
2.725230e-01
2.797317e-01
2.863686e-01
2.924740e-01
2.981076e-01
3.033451e-01
3.082745e-01
3.129927e-01
3.176019e-01
3.222050e-01
3.269003e-01
3.317772e-01
3.369106e-01
3.423567e-01
3.481501e-01
3.543028e-01
3.608040e-01
3.676216e-01
3.747047e-01
3.819877e-01
3.893956e-01
3.968516e-01
4.042846e-01
4.116342e-01
4.188512e-01
4.258979e-01
4.327472e-01
4.393838e-01
4.458030e-01
4.520089e-01
4.580108e-01
4.638207e-01
4.694514e-01
4.749140e-01
4.802145e-01
4.853517e-01
4.903163e-01
4.950910e-01
4.996521e-01
5.039714e-01
5.080181e-01
5.117611e-01
5.151698e-01
5.182145e-01
5.208650e-01
5.230910e-01
5.248619e-01
5.261481e-01
5.269214e-01
5.271570e-01
5.268339e-01
5.259351e-01
5.244486e-01
5.223685e-01
5.196965e-01
5.164438e-01
5.126290e-01
5.082763e-01
5.034119e-01
4.980636e-01
4.922599e-01
4.860307e-01
4.794076e-01
4.724244e-01
4.651164e-01
4.575192e-01
4.496674e-01
4.415928e-01
4.333237e-01
4.248864e-01
4.163057e-01
4.076066e-01
3.988162e-01
3.899650e-01
3.810867e-01
3.722148e-01
3.633781e-01
3.545963e-01
3.458768e-01
3.372128e-01
3.285835e-01
3.199574e-01
3.112956e-01
3.025558e-01
2.936972e-01
2.846852e-01
2.754957e-01
2.661148e-01
2.565376e-01
2.467666e-01
2.368102e-01
2.266808e-01
2.163931e-01
2.059628e-01
1.954066e-01
1.847432e-01
1.739948e-01
1.631876e-01
1.523534e-01
1.415294e-01
1.307579e-01
1.200858e-01
1.095648e-01
9.925168e-02
8.920773e-02
7.949665e-02
7.018151e-02
6.132094e-02
5.296482e-02
4.515015e-02
3.789757e-02
3.120891e-02
2.506624e-02
1.943371e-02
1.426173e-02
9.492350e-03
5.064289e-03
9.176879e-04
-3.001839e-03
-6.740740e-03
