EVENT_NAME: L_AQUILA
EVENT_ID: IT-2009-0009
EVENT_DATE_YYYYMMDD: 20090406
EVENT_TIME_HHMMSS: 013240
EVENT_LATITUDE_DEGREE: 42.3420
EVENT_LONGITUDE_DEGREE: 13.3800
EVENT_DEPTH_KM: 8.3
HYPOCENTER_REFERENCE: INGV-CNT_Seismic_Bulletin
MAGNITUDE_W: 6.1
MAGNITUDE_W_REFERENCE: INGV-CNT_Seismic_Bulletin
MAGNITUDE_L: 
MAGNITUDE_L_REFERENCE: 
FOCAL_MECHANISM: Normal faulting
NETWORK: IT
STATION_CODE: AVZ
STATION_NAME: 
STATION_LATITUDE_DEGREE: 42.027458
STATION_LONGITUDE_DEGREE: 13.425929
STATION_ELEVATION_M: 746
LOCATION: 
SENSOR_DEPTH_M: 0.0
VS30_M/S: 199
SITE_CLASSIFICATION_EC8: C
MORPHOLOGIC_CLASSIFICATION: 
EPICENTRAL_DISTANCE_KM: 35.1
EARTHQUAKE_BACKAZIMUTH_DEGREE: 173.8
DATE_TIME_FIRST_SAMPLE_YYYYMMDD_HHMMSS: 20090406_013219.000
DATE_TIME_FIRST_SAMPLE_PRECISION: seconds
SAMPLING_INTERVAL_S: 0.005000
NDATA: 24000
DURATION_S: 120.000
STREAM: HNZ
UNITS: cm/s
INSTRUMENT: sensor = FBA-3 [Kinemetrics] | digitizer = Everest [Kinemetrics]
INSTRUMENT_ANALOG/DIGITAL: D
INSTRUMENTAL_FREQUENCY_HZ: 212.000
INSTRUMENTAL_DAMPING: 0.700000
FULL_SCALE_G: 1.0
N_BIT_DIGITAL_CONVERTER: 24
PGV_CM/S: -3.718439
TIME_PGV_S: 45.695000
BASELINE_CORRECTION: BASELINE REMOVED
FILTER_TYPE: BUTTERWORTH
FILTER_ORDER: 2
LOW_CUT_FREQUENCY_HZ: 0.050
HIGH_CUT_FREQUENCY_HZ: 40.000
LATE/NORMAL_TRIGGERED: NT
DATABASE_VERSION: 0.5
HEADER_FORMAT: DYNA 1.2
DATA_TYPE: VELOCITY
PROCESSING: manual (Paolucci et al., 2011)
DATA_TIMESTAMP_YYYYMMDD_HHMMSS: 20211011_160013.566
DATA_LICENSE: CC-BY3_0-IT (http://creativecommons.org/licenses/by/3.0/deed.en)
DATA_CITATION: Luzi L, Pacor F, Puglia R (2019). Italian Accelerometric Archive v 3.0 - Istituto Nazionale di Geofisica e Vulcanologia, Dipartimento della Protezione Civile Nazionale. doi: 10.13127/itaca.3.1
DATA_CREATOR: ITACA working group
ORIGINAL_DATA_MEDIATOR_CITATION: data obtained within the DPC-INGV data exchange agreements
ORIGINAL_DATA_MEDIATOR: Archive of Italian Department of Civil Protection
ORIGINAL_DATA_CREATOR_CITATION: Presidency Of Counsil Of Ministers-Civil Protection Department. (1972). Italian Strong Motion Network. Presidency of Counsil of Ministers - Civil Protection Department. https://doi.org/10.7914/SN/IT http://www.fdsn.org/networks/detail/IT/
ORIGINAL_DATA_CREATOR: network: IT (Italian Strong Motion Network (RAN)); owner: Presidency of Counsil of Ministers - Civil Protection Department (PCM - DPC)
USER1: 
USER2: 
USER3: 
USER4: 
USER5: 
[...]
0.777380
0.876792
0.978794
1.083198
1.190254
1.300650
1.415007
1.533197
1.653872
1.774350
1.890879
1.999185
2.095149
2.175498
2.238275
2.283001
2.310549
2.322887
2.322766
2.313515
2.298911
2.282941
2.269325
2.260909
2.259292
2.264760
2.276414
2.292357
2.309955
2.326205
2.338220
2.343615
2.340641
2.328055
2.304924
2.270558
2.224579
2.166978
2.098108
2.018717
1.930040
1.833872
1.732477
1.628336
1.523895
1.421343
1.322551
1.229310
1.143622
1.067542
1.002719
0.950139
0.910123
0.882210
0.864757
0.854692
0.847803
0.839424
0.825193
0.801670
0.766634
0.718967
0.658367
0.585285
0.501148
0.408524
0.310920
0.212337
0.116855
0.028278
-0.050283
-0.116844
-0.170826
-0.213149
-0.246149
-0.273214
-0.298179
-0.324755
-0.356098
-0.394269
-0.439766
-0.491760
-0.548934
-0.610070
-0.674059
-0.739942
-0.807353
-0.876812
-0.949255
-1.025058
-1.103278
-1.181455
-1.255895
-1.322312
-1.376662
-1.415826
-1.437911
-1.442151
-1.428669
-1.398329
-1.352559
-1.293034
-1.221462
-1.139773
-1.050565
-0.957162
-0.863026
-0.770957
-0.682603
-0.598479
-0.518283
-0.441151
-0.365793
-0.290703
-0.214459
-0.135974
-0.054597
0.029911
0.117407
0.207365
0.299040
0.391748
0.485014
0.578557
0.672234
0.765938
0.859505
0.952806
1.046004
1.139606
1.234227
1.330446
1.428976
1.530847
1.637188
1.748653
1.864970
1.984944
2.106709
2.227947
2.346092
2.458630
2.563385
2.658583
2.742615
2.813856
2.870803
2.912304
2.937658
2.946678
2.939901
2.918821
2.885805
2.843532
2.794373
2.740267
2.682967
2.624201
2.565613
2.508697
2.454825
2.405293
2.361234
2.323567
2.293204
2.271220
2.258523
2.255372
2.261175
2.274483
2.293089
2.314394
2.336044
2.356574
2.375590
2.393478
2.410914
2.428387
2.445816
2.462392
2.476612
2.486570
2.490488
2.487123
2.475723
2.455718
2.426636
2.388444
2.341906
2.288446
2.229726
2.167381
2.102934
2.037774
1.973195
1.910360
1.850235
1.793658
1.741504
1.694713
1.654284
1.621229
1.596382
1.580239
1.573107
1.575343
1.587306
1.609148
1.640811
1.682153
1.732873
1.792341
1.859721
1.934328
2.015589
2.102593
2.193879
2.287647
2.381974
2.474833
2.564082
2.647539
2.723092
2.788823
2.843117
2.884687
2.912468
2.925624
2.923630
2.906278
2.873635
2.826229
2.765479
2.694077
2.616083
2.536748
2.461907
2.396889
2.345380
2.308970
2.287461
2.279473
2.282838
2.294689
2.311533
2.329592
2.345264
2.355414
2.357560
2.350130
2.332518
2.304640
2.266266
2.216717
2.155170
2.081224
1.995192
1.898060
1.791445
1.677684
1.559870
1.441729
1.327388
1.221082
1.126719
1.047501
0.985871
0.943634
0.921846
0.920614
0.939072
0.975380
1.026676
1.089212
1.158683
1.230539
1.300240
1.363519
1.416631
1.456600
1.481573
1.491195
1.486610
1.469910
1.443416
1.409336
1.369865
1.327306
1.283845
1.241180
1.200373
1.161981
1.126150
1.092512
1.060096
1.027448
0.992918
0.954942
0.912223
0.863850
0.809342
0.748601
0.681753
0.608928
0.530105
0.445194
0.354190
0.257233
0.154672
0.047120
-0.064639
-0.179760
-0.297293
-0.416026
-0.534382
-0.650556
-0.762950
-0.870548
-0.972871
-1.069671
-1.160738
-1.245835
-1.324612
-1.396644
-1.461608
-1.519429
-1.570357
-1.614937
-1.653808
-1.687459
-1.716142
-1.739824
-1.758089
-1.770231
-1.775659
-1.774384
-1.767340
-1.756353
-1.743898
-1.732811
-1.725856
-1.725224
-1.732357
-1.747949
-1.771739
-1.802392
-1.837897
-1.876176
-1.915436
-1.954201
-1.991289
-2.025879
-2.057539
-2.086066
-2.111243
-2.132667
-2.149695
-2.161438
-2.166834
-2.164791
-2.154302
-2.134426
-2.104203
-2.062620
-2.008789
-1.942217
-1.863027
-1.772113
-1.671224
-1.562935
-1.450515
-1.337733
-1.228533
-1.126507
-1.034395
-0.953876
-0.885612
-0.829320
-0.783905
-0.747780
-0.719345
-0.697418
-0.681395
-0.671131
-0.666722
-0.668349
-0.676146
-0.690084
-0.709961
-0.735491
-0.766426
-0.802648
-0.844140
-0.890846
-0.942528
-0.998611
-1.058033
-1.119303
-1.180897
-1.241754
-1.301482
-1.360269
-1.418748
-1.477944
-1.539181
-1.603889
-1.673386
-1.748715
-1.830581
-1.919224
-2.014189
-2.114179
-2.217133
-2.320455
-2.421255
-2.516501
-2.603230
-2.678873
-2.741582
-2.790341
-2.824777
-2.844910
-2.851035
-2.843724
-2.823858
-2.792612
-2.751347
-2.701473
-2.644416
-2.581754
-2.515416
-2.447658
-2.380702
-2.316272
-2.255323
-2.198018
-2.143762
-2.091313
-2.039093
-1.985598
-1.929635
-1.870287
-1.806745
-1.738276
-1.664331
-1.584595
-1.498912
-1.407146
-1.309135
-1.204822
-1.094473
-0.978815
-0.858991
-0.736460
-0.612993
-0.490672
-0.371721
-0.258165
-0.151510
-0.052587
0.038442
0.121958
0.198655
0.269229
0.334102
0.393308
0.446596
0.493653
0.534255
0.568270
0.595671
0.616634
0.631659
0.641657
0.647913
0.651877
0.654907
0.658110
0.662328
0.668220
0.676277
0.686703
0.699331
0.713698
0.729231
0.745426
0.761979
0.778872
0.796370
0.814844
0.834535
0.855393
0.877009
0.898629
0.919289
0.937992
0.953874
0.966299
0.974861
0.979263
0.979208
0.974397
0.964629
0.949884
0.930337
0.906332
0.878415
0.847506
0.815133
0.783492
0.755130
0.732389
0.717001
0.709985
0.711673
0.721748
0.739376
0.763444
0.792809
0.826394
0.863167
0.902091
0.942066
0.981952
1.020741
1.057709
1.092435
1.124717
1.154436
1.181435
1.205461
1.226148
1.242973
1.255253
1.262207
1.263070
1.257248
1.244454
1.224740
1.198385
1.165710
1.127052
1.082974
1.034288
0.981840
0.926474
0.869164
0.811029
0.753249
0.696999
0.643412
0.593500
0.548005
0.507346
0.471699
0.441132
0.415723
0.395609
0.380909
0.371589
0.367399
0.367841
0.372148
0.379376
0.388603
0.399072
0.410216
0.421657
0.433272
0.445240
0.457981
0.471961
0.487544
0.504982
0.524428
0.545905
0.569258
0.594176
0.620276
0.647184
0.674638
0.702549
0.730887
0.759500
0.788063
0.816247
0.843940
0.871256
0.898319
0.925089
0.951459
0.977499
1.003498
1.029707
1.056211
1.083279
1.111792
1.143086
1.178268
1.217709
1.261073
1.307539
1.355883
1.404570
1.451944
1.496433
1.536693
1.571706
1.600899
1.624318
1.642470
1.655733
1.663876
1.666185
1.661933
1.650738
1.632614
1.607923
1.577420
1.542317
1.504161
1.464513
1.424615
1.385282
1.347065
1.310427
1.275746
1.243272
1.213168
1.185547
1.160434
1.137788
1.117637
1.100226
1.085951
1.075171
1.068152
1.065135
1.066336
1.071815
1.081287
1.094045
1.109162
1.125770
1.143152
1.160707
1.177899
1.194204
1.209100
1.222141
1.233059
1.241773
1.248333
1.252955
1.256099
1.258442
1.260745
1.263705
1.267769
1.272911
1.278549
1.283722
1.287347
1.288326
1.285617
1.278429
1.266437
1.249872
1.229469
1.206269
1.181451
1.156270
1.131996
1.109875
1.091115
1.076802
1.067842
1.065051
1.069265
1.081127
1.100653
1.127121
1.159354
1.195967
1.235452
1.276381
1.317734
1.359054
1.400334
1.441670
1.482823
1.522984
1.560848
1.594803
1.623074
1.643847
1.655500
1.656918
1.647595
1.627381
1.596167
1.553928
1.501088
1.438918
1.369674
1.296403
1.222556
1.151661
1.087120
1.032000
0.988718
0.958771
0.942701
0.940284
0.950695
0.972534
1.003872
1.042378
1.085421
1.130154
1.173693
1.213471
1.247653
1.275329
1.296439
1.311503
1.321262
1.326398
1.327488
1.325145
1.320146
1.313461
1.306276
1.299953
1.295754
1.294428
1.295960
1.299551
1.303821
1.307210
1.308448
1.306825
1.302232
1.295081
1.286104
1.276051
1.265439
1.254435
1.242785
1.229791
1.214542
1.196456
1.175745
1.153326
1.130373
1.107986
1.087025
1.067939
1.050605
1.034380
1.018365
1.001647
0.983434
0.963077
0.939992
0.913545
0.883009
0.847683
0.807081
0.761007
0.709480
0.652619
0.590634
0.523858
0.452728
0.377691
0.299081
0.217034
0.131489
0.042266
-0.050825
-0.147892
-0.248941
-0.353896
-0.462519
-0.574234
-0.688019
-0.802516
-0.916246
-1.027755
-1.135631
-1.238461
-1.334897
-1.423779
-1.504158
-1.575179
-1.636009
-1.685928
-1.724441
-1.751345
-1.766766
-1.771123
-1.764952
-1.748694
-1.722626
-1.686959
-1.641959
-1.588026
-1.525752
-1.455955
-1.379693
-1.298247
-1.213061
-1.125588
-1.037139
-0.948774
-0.861289
-0.775293
-0.691325
-0.609915
-0.531547
-0.456567
-0.385110
-0.317055
-0.252096
-0.189960
-0.130647
-0.074471
-0.021889
0.026683
0.070979
0.110883
0.146250
0.176721
0.201710
0.220509
0.232324
0.236285
0.231553
0.217509
0.193849
0.160549
0.117812
0.066064
0.005958
-0.061600
-0.135394
-0.213880
-0.295281
-0.377727
-0.459340
-0.538244
-0.612527
-0.680255
-0.739674
-0.789467
-0.828793
-0.857094
-0.873999
-0.879424
-0.873578
-0.856822
-0.829692
-0.793119
-0.748500
-0.697475
-0.641637
-0.582433
-0.521279
-0.459655
-0.399058
-0.340880
-0.286280
-0.236063
-0.190667
-0.150304
-0.115099
-0.085080
-0.060121
-0.039954
-0.024279
-0.012815
-0.005231
-0.001076
0.000077
-0.001700
-0.006874
-0.016323
-0.031081
-0.052143
-0.080372
-0.116451
-0.160827
-0.213635
-0.274589
-0.342885
-0.417210
-0.495867
-0.576937
-0.658411
-0.738426
-0.815503
-0.888626
-0.957127
-1.020453
-1.078046
-1.129517
-1.174861
-1.214469
-1.248936
-1.278903
-1.305093
-1.328474
-1.350309
-1.372005
-1.394860
-1.419896
-1.447810
-1.479037
-1.513847
-1.552384
-1.594597
-1.640158
-1.688468
-1.738743
-1.790087
-1.841539
-1.892142
-1.941069
-1.987682
-2.031475
-2.071984
-2.108750
-2.141305
-2.169033
-2.191088
-2.206598
-2.215055
-2.216472
-2.211204
-2.199714
-2.182508
-2.160130
-2.133113
-2.101922
-2.066961
-2.028599
-1.987137
-1.942820
-1.895965
-1.846991
-1.796257
-1.743943
-1.690080
-1.634598
-1.577343
-1.518190
-1.457185
-1.394595
-1.330869
-1.266572
-1.202310
-1.138685
-1.076243
-1.015408
-0.956441
-0.899447
-0.844398
-0.791160
-0.739516
-0.689200
-0.639946
-0.591561
-0.544020
-0.497529
-0.452506
-0.409488
-0.369003
-0.331526
-0.297497
-0.267314
-0.241262
-0.219462
-0.201856
-0.188177
-0.177895
-0.170236
-0.164273
-0.158985
-0.153255
-0.145836
-0.135391
-0.120594
-0.100323
-0.073857
-0.041003
-0.002146
0.041754
0.089281
0.138818
0.188809
0.237897
0.284951
0.329081
0.369663
0.406316
0.438867
0.467282
0.491606
0.511933
0.528378
0.541069
0.550172
0.555952
0.558834
0.559471
0.558762
0.557812
0.557837
0.560053
0.565605
0.575473
0.590347
0.610535
0.635966
0.666167
0.700190
0.736583
0.773540
0.809139
0.841594
0.869452
0.891705
0.907830
0.917777
0.921887
0.920775
0.915168
0.905800
0.893415
0.878821
0.862910
0.846642
0.831000
0.816978
0.805594
0.797865
0.794692
0.796735
0.804328
0.817462
0.835814
0.858798
0.885592
0.915182
0.946442
0.978268
1.009721
1.040098
1.068907
1.095785
1.120390
1.142296
1.160933
1.175607
1.185549
1.189935
1.187936
1.178777
1.161799
1.136474
1.102418
1.059421
1.007499
0.946917
0.878168
0.801928
0.718992
0.630237
0.536598
0.439065
0.338678
0.236567
0.134045
0.032602
-0.066281
-0.161356
-0.251704
-0.336666
-0.415759
-0.488680
-0.555315
-0.615687
-0.669878
-0.717993
-0.760179
-0.796694
-0.827935
-0.854366
-0.876348
-0.893977
-0.907037
-0.915077
-0.917528
-0.913844
-0.903618
-0.886617
-0.862750
-0.832051
-0.794705
-0.751051
-0.701527
-0.646599
-0.586775
-0.522687
-0.455132
-0.385009
-0.313262
-0.240920
-0.169129
-0.099098
-0.032024
0.030925
0.088590
0.139897
0.183997
0.220343
0.248661
0.268925
0.281361
0.286419
0.284694
0.276852
0.263551
0.245361
0.222733
0.196044
0.165674
0.132033
0.095557
0.056719
0.016054
-0.025888
-0.068624
-0.111753
-0.154905
-0.197698
-0.239718
-0.280497
-0.319495
-0.356101
-0.389664
-0.419577
-0.445363
-0.466712
-0.483471
-0.495647
-0.503374
-0.506867
-0.506404
-0.502279
-0.494746
-0.484007
-0.470267
-0.453838
-0.435204
-0.415040
-0.394155
-0.373395
-0.353496
-0.334944
-0.317936
-0.302443
-0.288300
-0.275275
-0.263099
-0.251513
-0.240310
-0.229358
-0.218627
-0.208177
-0.198093
-0.188410
-0.179052
-0.169752
-0.160010
-0.149107
-0.136151
-0.120129
-0.099978
-0.074677
-0.043360
-0.005433
0.039311
0.090651
0.147979
0.210405
0.276862
0.346157
0.416995
0.488018
0.557860
0.625224
0.688968
0.748142
0.801963
0.849774
0.891044
0.925405
0.952670
0.972806
0.985901
0.992191
0.992102
0.986241
0.975349
0.960228
0.941686
0.920459
0.897115
0.871984
0.845178
0.816672
0.786352
0.754026
0.719376
0.681937
0.641119
0.596251
0.546627
0.491597
0.430695
0.363750
0.290946
0.212811
0.130136
0.043831
-0.045211
-0.136186
-0.228387
-0.321177
-0.413923
-0.505951
-0.596532
-0.684921
-0.770402
-0.852313
-0.930023
-1.002869
-1.070144
-1.131218
-1.185745
-1.233759
-1.275600
-1.311800
-1.343025
-1.370043
-1.393688
-1.414835
-1.434418
-1.453425
-1.472845
-1.493601
-1.516481
-1.542073
-1.570720
-1.602503
-1.637297
-1.674885
-1.715092
-1.757845
-1.803159
-1.851084
-1.901642
-1.954806
-2.010496
-2.068592
-2.128948
-2.191381
-2.255650
-2.321469
-2.388595
-2.456890
-2.526309
-2.596784
-2.668133
-2.740078
-2.812326
-2.884612
-2.956690
-3.028333
-3.099299
-3.169285
-3.237908
-3.304697
-3.369093
-3.430443
-3.488007
-3.540976
-3.588503
-3.629737
-3.663849
-3.690123
-3.708076
-3.717507
-3.718439
-3.711023
-3.695508
-3.672274
-3.641855
-3.604928
-3.562272
-3.514734
-3.463158
-3.408300
-3.350736
-3.290790
-3.228533
-3.163857
-3.096597
-3.026649
-2.953964
-2.878465
-2.800011
-2.718441
-2.633609
-2.545404
-2.453816
-2.359021
-2.261399
-2.161472
-2.059844
-1.957163
-1.854048
-1.750964
-1.648167
-1.545739
-1.443643
-1.341734
-1.239761
-1.137391
-1.034225
-0.929814
-0.823676
-0.715324
-0.604323
-0.490347
-0.373201
-0.252840
-0.129398
-0.003213
0.125184
0.255096
0.385706
0.516154
0.645606
0.773274
0.898416
1.020327
1.138350
1.251876
1.360380
1.463434
1.560701
1.651910
1.736854
1.815423
1.887609
1.953482
2.013143
2.066725
2.114414
2.156419
2.192946
2.224190
2.250367
2.271754
2.288710
2.301662
2.311105
2.317602
2.321765
2.324210
2.325507
2.326107
2.326315
2.326311
2.326181
2.325912
2.325381
2.324395
2.322751
2.320237
2.316617
2.311633
2.305046
2.296694
2.286531
2.274620
2.261068
2.245955
2.229297
2.211048
2.191088
2.169236
2.145300
2.119118
2.090575
2.059619
2.026316
1.990928
1.953931
1.915959
1.877701
1.839832
1.802973
1.767658
1.734296
1.703143
1.674325
1.647852
1.623627
1.601459
1.581113
1.562396
1.545155
1.529243
1.514506
1.500829
1.488185
1.476672
1.466489
1.457874
1.451040
1.446113
1.443121
1.441975
1.442462
1.444225
1.446731
1.449242
1.450884
1.450794
1.448279
1.442929
1.434649
1.423612
1.410142
1.394585
1.377218
1.358197
1.337547
1.315201
1.291073
1.265155
1.237558
1.208503
1.178276
1.147186
1.115546
1.083700
1.052045
1.021046
0.991207
0.963027
0.936972
0.913401
0.892456
0.873998
0.857647
0.842845
0.828914
0.815108
0.800667
0.784875
0.767116
0.746909
0.723936
0.698049
0.669300
0.637959
0.604499
0.569544
0.533834
0.498188
0.463443
0.430363
0.399576
0.371554
0.346639
0.325055
0.306898
0.292111
0.280500
0.271794
0.265712
0.262019
0.260555
0.261261
0.264160
0.269294
0.276659
0.286186
0.297736
0.311081
0.325874
0.341645
0.357839
0.373866
0.389123
0.402985
0.414813
0.423988
0.429958
0.432283
0.430675
0.425019
0.415353
0.401826
0.384695
0.364352
0.341314
0.316186
0.289600
0.262164
0.234430
0.206908
0.180077
0.154372
0.130170
0.107794
0.087545
0.069706
0.054529
0.042205
0.032854
0.026513
0.023129
0.022556
0.024572
0.028925
0.035382
0.043782
0.054028
0.066052
0.079791
0.095188
0.112180
0.130653
0.150440
0.171353
0.193234
0.215957
0.239362
0.263202
0.287196
0.311086
0.334620
0.357499
0.379349
0.399742
0.418217
0.434295
0.447509
0.457447
0.463777
0.466257
0.464759
0.459279
0.449899
0.436788
0.420191
0.400396
0.377681
0.352333
0.324662
0.294969
0.263503
0.230436
0.195868
0.159844
0.122383
0.083507
0.043265
0.001768
-0.040785
-0.084100
-0.127797
-0.171446
-0.214614
-0.256897
-0.297929
-0.337378
-0.374937
-0.410360
-0.443488
-0.474270
-0.502769
-0.529183
-0.553812
-0.577015
-0.599158
-0.620570
-0.641498
-0.662078
-0.682375
-0.702455
-0.722418
-0.742387
-0.762462
-0.782669
-0.802917
-0.823032
-0.842817
-0.862064
-0.880482
-0.897678
-0.913260
-0.926983
-0.938822
-0.948946
-0.957640
-0.965215
-0.971925
-0.977927
-0.983286
-0.988003
-0.992070
-0.995503
-0.998341
-1.000600
-1.002207
-1.002969
-1.002605
-1.000782
-0.997123
-0.991252
-0.982890
-0.971888
-0.958231
-0.942063
-0.923644
-0.903266
-0.881225
-0.857800
-0.833239
-0.807745
-0.781443
-0.754358
-0.726439
-0.697632
-0.667952
-0.637500
-0.606440
-0.574978
-0.543373
-0.511908
-0.480847
-0.450409
-0.420785
-0.392142
-0.364606
-0.338265
-0.313187
-0.289422
-0.266995
-0.245913
-0.226188
-0.207881
-0.191116
-0.176070
-0.162966
-0.152046
-0.143551
-0.137734
-0.134882
-0.135315
-0.139345
-0.147194
-0.158942
-0.174530
-0.193811
-0.216573
-0.242525
-0.271249
-0.302174
-0.334595
-0.367725
-0.400770
-0.432976
-0.463644
-0.492141
-0.517938
-0.540638
-0.559985
-0.575864
-0.588307
-0.597509
-0.603813
-0.607688
-0.609677
-0.610338
-0.610187
-0.609638
-0.608952
-0.608190
-0.607249
-0.605907
-0.603808
-0.600451
-0.595269
-0.587698
-0.577116
-0.562766
-0.543821
-0.519583
-0.489605
-0.453616
-0.411422
-0.362963
-0.308420
-0.248242
-0.183115
-0.113886
-0.041473
0.033187
0.109150
0.185441
0.261085
0.335173
0.406913
0.475624
0.540666
0.601372
0.657019
0.706857
0.750180
0.786468
0.815520
0.837481
0.852765
0.861943
0.865691
0.864818
0.860267
0.853044
0.844132
0.834447
0.824840
0.816069
0.808732
0.803203
0.799623
0.797918
0.797852
0.799089
0.801262
0.804029
0.807098
0.810234
0.813254
0.816039
0.818529
0.820692
0.822462
0.823724
0.824353
0.824260
0.823418
0.821846
0.819604
0.816784
0.813499
0.809869
0.806004
0.802015
0.798026
0.794191
0.790684
0.787688
0.785386
0.783967
0.783625
0.784517
0.786740
0.790324
0.795275
0.801592
0.809256
0.818178
0.828151
0.838845
0.849831
0.860621
0.870717
0.879663
0.887058
0.892557
0.895856
0.896709
0.894943
0.890452
0.883163
0.873022
0.860010
0.844137
0.825419
0.803869
0.779513
0.752391
0.722563
0.690112
0.655158
0.617869
0.578451
0.537126
0.494084
0.449459
0.403329
0.355724
0.306637
0.256022
0.203832
0.150067
0.094834
0.038365
-0.019001
-0.076823
-0.134536
-0.191431
-0.246675
-0.299370
-0.348619
-0.393590
-0.433564
-0.467963
-0.496372
-0.518581
-0.534617
-0.544737
-0.549370
-0.549073
-0.544492
-0.536346
-0.525396
-0.512398
-0.498047
-0.482933
-0.467532
-0.452222
-0.437307
-0.423034
-0.409591
-0.397097
-0.385598
-0.375098
-0.365583
-0.357035
-0.349427
-0.342715
-0.336837
-0.331730
-0.327339
-0.323622
-0.320560
-0.318157
-0.316435
