EVENT_NAME: L_AQUILA
EVENT_ID: IT-2009-0009
EVENT_DATE_YYYYMMDD: 20090406
EVENT_TIME_HHMMSS: 013240
EVENT_LATITUDE_DEGREE: 42.3420
EVENT_LONGITUDE_DEGREE: 13.3800
EVENT_DEPTH_KM: 8.3
HYPOCENTER_REFERENCE: INGV-CNT_Seismic_Bulletin
MAGNITUDE_W: 6.1
MAGNITUDE_W_REFERENCE: INGV-CNT_Seismic_Bulletin
MAGNITUDE_L: 
MAGNITUDE_L_REFERENCE: 
FOCAL_MECHANISM: Normal faulting
NETWORK: IT
STATION_CODE: AVZ
STATION_NAME: 
STATION_LATITUDE_DEGREE: 42.027458
STATION_LONGITUDE_DEGREE: 13.425929
STATION_ELEVATION_M: 746
LOCATION: 
SENSOR_DEPTH_M: 0.0
VS30_M/S: 199
SITE_CLASSIFICATION_EC8: C
MORPHOLOGIC_CLASSIFICATION: 
EPICENTRAL_DISTANCE_KM: 35.1
EARTHQUAKE_BACKAZIMUTH_DEGREE: 173.8
DATE_TIME_FIRST_SAMPLE_YYYYMMDD_HHMMSS: 20090406_013219.000
DATE_TIME_FIRST_SAMPLE_PRECISION: seconds
SAMPLING_INTERVAL_S: 0.005000
NDATA: 24000
DURATION_S: 120.000
STREAM: HNE
UNITS: cm
INSTRUMENT: sensor = FBA-3 [Kinemetrics] | digitizer = Everest [Kinemetrics]
INSTRUMENT_ANALOG/DIGITAL: D
INSTRUMENTAL_FREQUENCY_HZ: 212.000
INSTRUMENTAL_DAMPING: 0.700000
FULL_SCALE_G: 1.0
N_BIT_DIGITAL_CONVERTER: 24
PGD_CM: 3.965147
TIME_PGD_S: 41.685000
BASELINE_CORRECTION: BASELINE REMOVED
FILTER_TYPE: BUTTERWORTH
FILTER_ORDER: 2
LOW_CUT_FREQUENCY_HZ: 0.050
HIGH_CUT_FREQUENCY_HZ: 40.000
LATE/NORMAL_TRIGGERED: NT
DATABASE_VERSION: 0.5
HEADER_FORMAT: DYNA 1.2
DATA_TYPE: DISPLACEMENT
PROCESSING: manual (Paolucci et al., 2011)
DATA_TIMESTAMP_YYYYMMDD_HHMMSS: 20211011_160012.213
DATA_LICENSE: CC-BY3_0-IT (http://creativecommons.org/licenses/by/3.0/deed.en)
DATA_CITATION: Luzi L, Pacor F, Puglia R (2019). Italian Accelerometric Archive v 3.0 - Istituto Nazionale di Geofisica e Vulcanologia, Dipartimento della Protezione Civile Nazionale. doi: 10.13127/itaca.3.1
DATA_CREATOR: ITACA working group
ORIGINAL_DATA_MEDIATOR_CITATION: data obtained within the DPC-INGV data exchange agreements
ORIGINAL_DATA_MEDIATOR: Archive of Italian Department of Civil Protection
ORIGINAL_DATA_CREATOR_CITATION: Presidency Of Counsil Of Ministers-Civil Protection Department. (1972). Italian Strong Motion Network. Presidency of Counsil of Ministers - Civil Protection Department. https://doi.org/10.7914/SN/IT http://www.fdsn.org/networks/detail/IT/
ORIGINAL_DATA_CREATOR: network: IT (Italian Strong Motion Network (RAN)); owner: Presidency of Counsil of Ministers - Civil Protection Department (PCM - DPC)
USER1: 
USER2: 
USER3: 
USER4: 
USER5: 
[...]
-2.858031e+00
-2.862023e+00
-2.865272e+00
-2.867787e+00
-2.869588e+00
-2.870694e+00
-2.871130e+00
-2.870925e+00
-2.870114e+00
-2.868735e+00
-2.866829e+00
-2.864436e+00
-2.861594e+00
-2.858343e+00
-2.854721e+00
-2.850776e+00
-2.846559e+00
-2.842127e+00
-2.837541e+00
-2.832865e+00
-2.828160e+00
-2.823489e+00
-2.818909e+00
-2.814471e+00
-2.810215e+00
-2.806170e+00
-2.802358e+00
-2.798782e+00
-2.795436e+00
-2.792302e+00
-2.789356e+00
-2.786565e+00
-2.783894e+00
-2.781302e+00
-2.778748e+00
-2.776194e+00
-2.773606e+00
-2.770963e+00
-2.768257e+00
-2.765487e+00
-2.762664e+00
-2.759804e+00
-2.756924e+00
-2.754042e+00
-2.751172e+00
-2.748324e+00
-2.745499e+00
-2.742695e+00
-2.739908e+00
-2.737146e+00
-2.734426e+00
-2.731788e+00
-2.729280e+00
-2.726959e+00
-2.724878e+00
-2.723084e+00
-2.721604e+00
-2.720445e+00
-2.719590e+00
-2.719001e+00
-2.718622e+00
-2.718394e+00
-2.718256e+00
-2.718159e+00
-2.718064e+00
-2.717948e+00
-2.717798e+00
-2.717619e+00
-2.717420e+00
-2.717223e+00
-2.717050e+00
-2.716930e+00
-2.716895e+00
-2.716977e+00
-2.717211e+00
-2.717632e+00
-2.718271e+00
-2.719155e+00
-2.720309e+00
-2.721754e+00
-2.723513e+00
-2.725615e+00
-2.728087e+00
-2.730961e+00
-2.734262e+00
-2.738007e+00
-2.742204e+00
-2.746848e+00
-2.751922e+00
-2.757397e+00
-2.763233e+00
-2.769377e+00
-2.775774e+00
-2.782362e+00
-2.789079e+00
-2.795860e+00
-2.802639e+00
-2.809348e+00
-2.815916e+00
-2.822272e+00
-2.828346e+00
-2.834068e+00
-2.839376e+00
-2.844214e+00
-2.848545e+00
-2.852344e+00
-2.855607e+00
-2.858347e+00
-2.860589e+00
-2.862372e+00
-2.863744e+00
-2.864764e+00
-2.865494e+00
-2.866000e+00
-2.866344e+00
-2.866576e+00
-2.866732e+00
-2.866833e+00
-2.866886e+00
-2.866893e+00
-2.866851e+00
-2.866758e+00
-2.866615e+00
-2.866429e+00
-2.866212e+00
-2.865977e+00
-2.865740e+00
-2.865509e+00
-2.865283e+00
-2.865047e+00
-2.864771e+00
-2.864416e+00
-2.863940e+00
-2.863305e+00
-2.862482e+00
-2.861454e+00
-2.860215e+00
-2.858773e+00
-2.857145e+00
-2.855360e+00
-2.853451e+00
-2.851458e+00
-2.849426e+00
-2.847403e+00
-2.845439e+00
-2.843585e+00
-2.841886e+00
-2.840385e+00
-2.839115e+00
-2.838104e+00
-2.837375e+00
-2.836948e+00
-2.836838e+00
-2.837056e+00
-2.837604e+00
-2.838474e+00
-2.839649e+00
-2.841102e+00
-2.842798e+00
-2.844705e+00
-2.846794e+00
-2.849048e+00
-2.851465e+00
-2.854051e+00
-2.856821e+00
-2.859786e+00
-2.862946e+00
-2.866289e+00
-2.869785e+00
-2.873392e+00
-2.877058e+00
-2.880729e+00
-2.884353e+00
-2.887887e+00
-2.891294e+00
-2.894551e+00
-2.897639e+00
-2.900545e+00
-2.903258e+00
-2.905759e+00
-2.908023e+00
-2.910015e+00
-2.911696e+00
-2.913020e+00
-2.913943e+00
-2.914423e+00
-2.914428e+00
-2.913936e+00
-2.912935e+00
-2.911421e+00
-2.909397e+00
-2.906873e+00
-2.903869e+00
-2.900415e+00
-2.896548e+00
-2.892309e+00
-2.887740e+00
-2.882882e+00
-2.877772e+00
-2.872449e+00
-2.866949e+00
-2.861307e+00
-2.855558e+00
-2.849733e+00
-2.843862e+00
-2.837968e+00
-2.832071e+00
-2.826182e+00
-2.820304e+00
-2.814432e+00
-2.808557e+00
-2.802669e+00
-2.796761e+00
-2.790827e+00
-2.784867e+00
-2.778881e+00
-2.772867e+00
-2.766822e+00
-2.760738e+00
-2.754605e+00
-2.748408e+00
-2.742127e+00
-2.735736e+00
-2.729194e+00
-2.722453e+00
-2.715448e+00
-2.708110e+00
-2.700370e+00
-2.692168e+00
-2.683457e+00
-2.674210e+00
-2.664420e+00
-2.654099e+00
-2.643274e+00
-2.631979e+00
-2.620252e+00
-2.608123e+00
-2.595607e+00
-2.582701e+00
-2.569391e+00
-2.555656e+00
-2.541473e+00
-2.526824e+00
-2.511696e+00
-2.496082e+00
-2.479978e+00
-2.463381e+00
-2.446291e+00
-2.428708e+00
-2.410628e+00
-2.392047e+00
-2.372961e+00
-2.353370e+00
-2.333281e+00
-2.312706e+00
-2.291666e+00
-2.270183e+00
-2.248282e+00
-2.225986e+00
-2.203314e+00
-2.180288e+00
-2.156927e+00
-2.133253e+00
-2.109287e+00
-2.085047e+00
-2.060542e+00
-2.035779e+00
-2.010756e+00
-1.985463e+00
-1.959885e+00
-1.934000e+00
-1.907779e+00
-1.881193e+00
-1.854209e+00
-1.826800e+00
-1.798943e+00
-1.770622e+00
-1.741833e+00
-1.712577e+00
-1.682863e+00
-1.652705e+00
-1.622123e+00
-1.591136e+00
-1.559767e+00
-1.528049e+00
-1.496019e+00
-1.463725e+00
-1.431224e+00
-1.398577e+00
-1.365848e+00
-1.333100e+00
-1.300391e+00
-1.267768e+00
-1.235271e+00
-1.202933e+00
-1.170780e+00
-1.138834e+00
-1.107114e+00
-1.075638e+00
-1.044416e+00
-1.013458e+00
-9.827648e-01
-9.523408e-01
-9.221913e-01
-8.923301e-01
-8.627820e-01
-8.335838e-01
-8.047844e-01
-7.764427e-01
-7.486236e-01
-7.213926e-01
-6.948123e-01
-6.689386e-01
-6.438198e-01
-6.194979e-01
-5.960113e-01
-5.734002e-01
-5.517084e-01
-5.309842e-01
-5.112775e-01
-4.926356e-01
-4.750963e-01
-4.586834e-01
-4.434020e-01
-4.292377e-01
-4.161564e-01
-4.041057e-01
-3.930167e-01
-3.828064e-01
-3.733821e-01
-3.646461e-01
-3.564994e-01
-3.488435e-01
-3.415815e-01
-3.346214e-01
-3.278808e-01
-3.212911e-01
-3.148014e-01
-3.083803e-01
-3.020155e-01
-2.957122e-01
-2.894885e-01
-2.833726e-01
-2.774004e-01
-2.716138e-01
-2.660573e-01
-2.607766e-01
-2.558189e-01
-2.512346e-01
-2.470777e-01
-2.434038e-01
-2.402664e-01
-2.377123e-01
-2.357780e-01
-2.344884e-01
-2.338563e-01
-2.338837e-01
-2.345640e-01
-2.358823e-01
-2.378171e-01
-2.403417e-01
-2.434269e-01
-2.470427e-01
-2.511583e-01
-2.557443e-01
-2.607746e-01
-2.662278e-01
-2.720877e-01
-2.783444e-01
-2.849944e-01
-2.920392e-01
-2.994832e-01
-3.073330e-01
-3.155957e-01
-3.242772e-01
-3.333792e-01
-3.428986e-01
-3.528285e-01
-3.631595e-01
-3.738801e-01
-3.849777e-01
-3.964383e-01
-4.082465e-01
-4.203855e-01
-4.328377e-01
-4.455848e-01
-4.586087e-01
-4.718906e-01
-4.854106e-01
-4.991479e-01
-5.130799e-01
-5.271843e-01
-5.414393e-01
-5.558232e-01
-5.703137e-01
-5.848860e-01
-5.995131e-01
-6.141668e-01
-6.288198e-01
-6.434467e-01
-6.580249e-01
-6.725343e-01
-6.869571e-01
-7.012780e-01
-7.154855e-01
-7.295737e-01
-7.435435e-01
-7.574037e-01
-7.711710e-01
-7.848680e-01
-7.985217e-01
-8.121583e-01
-8.257995e-01
-8.394586e-01
-8.531378e-01
-8.668281e-01
-8.805115e-01
-8.941650e-01
-9.077640e-01
-9.212860e-01
-9.347128e-01
-9.480318e-01
-9.612356e-01
-9.743210e-01
-9.872878e-01
-1.000137e+00
-1.012867e+00
-1.025478e+00
-1.037967e+00
-1.050330e+00
-1.062565e+00
-1.074672e+00
-1.086655e+00
-1.098521e+00
-1.110280e+00
-1.121947e+00
-1.133537e+00
-1.145066e+00
-1.156547e+00
-1.167993e+00
-1.179407e+00
-1.190788e+00
-1.202127e+00
-1.213407e+00
-1.224605e+00
-1.235693e+00
-1.246643e+00
-1.257421e+00
-1.267996e+00
-1.278333e+00
-1.288402e+00
-1.298168e+00
-1.307597e+00
-1.316651e+00
-1.325290e+00
-1.333470e+00
-1.341141e+00
-1.348254e+00
-1.354755e+00
-1.360593e+00
-1.365719e+00
-1.370093e+00
-1.373682e+00
-1.376466e+00
-1.378435e+00
-1.379588e+00
-1.379934e+00
-1.379487e+00
-1.378263e+00
-1.376282e+00
-1.373563e+00
-1.370123e+00
-1.365977e+00
-1.361139e+00
-1.355618e+00
-1.349419e+00
-1.342548e+00
-1.335014e+00
-1.326830e+00
-1.318017e+00
-1.308604e+00
-1.298636e+00
-1.288167e+00
-1.277265e+00
-1.266007e+00
-1.254483e+00
-1.242784e+00
-1.231000e+00
-1.219205e+00
-1.207462e+00
-1.195819e+00
-1.184314e+00
-1.172978e+00
-1.161834e+00
-1.150897e+00
-1.140175e+00
-1.129670e+00
-1.119379e+00
-1.109293e+00
-1.099394e+00
-1.089653e+00
-1.080027e+00
-1.070461e+00
-1.060892e+00
-1.051247e+00
-1.041452e+00
-1.031429e+00
-1.021098e+00
-1.010389e+00
-9.992411e-01
-9.876104e-01
-9.754712e-01
-9.628170e-01
-9.496605e-01
-9.360325e-01
-9.219779e-01
-9.075508e-01
-8.928083e-01
-8.778061e-01
-8.625949e-01
-8.472186e-01
-8.317133e-01
-8.161081e-01
-8.004251e-01
-7.846809e-01
-7.688868e-01
-7.530475e-01
-7.371590e-01
-7.212061e-01
-7.051625e-01
-6.889918e-01
-6.726495e-01
-6.560852e-01
-6.392432e-01
-6.220630e-01
-6.044802e-01
-5.864282e-01
-5.678395e-01
-5.486477e-01
-5.287896e-01
-5.082098e-01
-4.868637e-01
-4.647194e-01
-4.417583e-01
-4.179732e-01
-3.933659e-01
-3.679451e-01
-3.417249e-01
-3.147259e-01
-2.869752e-01
-2.585054e-01
-2.293536e-01
-1.995617e-01
-1.691759e-01
-1.382471e-01
-1.068304e-01
-7.498429e-02
-4.276848e-02
-1.024131e-02
2.254082e-02
5.552135e-02
8.864133e-02
1.218402e-01
1.550603e-01
1.882521e-01
2.213771e-01
2.544071e-01
2.873257e-01
3.201325e-01
3.528480e-01
3.855183e-01
4.182132e-01
4.510212e-01
4.840395e-01
5.173641e-01
5.510807e-01
5.852578e-01
6.199429e-01
6.551622e-01
6.909207e-01
7.272040e-01
7.639813e-01
8.012077e-01
8.388247e-01
8.767612e-01
9.149349e-01
9.532552e-01
9.916242e-01
1.029936e+00
1.068077e+00
1.105922e+00
1.143340e+00
1.180195e+00
1.216349e+00
1.251669e+00
1.286025e+00
1.319299e+00
1.351388e+00
1.382209e+00
1.411705e+00
1.439842e+00
1.466608e+00
1.492003e+00
1.516044e+00
1.538754e+00
1.560168e+00
1.580320e+00
1.599244e+00
1.616973e+00
1.633541e+00
1.648980e+00
1.663322e+00
1.676590e+00
1.688802e+00
1.699965e+00
1.710083e+00
1.719162e+00
1.727210e+00
1.734237e+00
1.740257e+00
1.745282e+00
1.749319e+00
1.752372e+00
1.754441e+00
1.755524e+00
1.755617e+00
1.754712e+00
1.752800e+00
1.749878e+00
1.745946e+00
1.741012e+00
1.735093e+00
1.728214e+00
1.720405e+00
1.711706e+00
1.702168e+00
1.691850e+00
1.680825e+00
1.669170e+00
1.656970e+00
1.644308e+00
1.631263e+00
1.617911e+00
1.604320e+00
1.590554e+00
1.576672e+00
1.562725e+00
1.548756e+00
1.534798e+00
1.520867e+00
1.506969e+00
1.493094e+00
1.479216e+00
1.465295e+00
1.451276e+00
1.437097e+00
1.422691e+00
1.407996e+00
1.392956e+00
1.377531e+00
1.361689e+00
1.345415e+00
1.328709e+00
1.311577e+00
1.294036e+00
1.276106e+00
1.257809e+00
1.239164e+00
1.220194e+00
1.200918e+00
1.181354e+00
1.161520e+00
1.141423e+00
1.121067e+00
1.100450e+00
1.079567e+00
1.058413e+00
1.036990e+00
1.015300e+00
9.933483e-01
9.711433e-01
9.486952e-01
9.260153e-01
9.031147e-01
8.800045e-01
8.566971e-01
8.332083e-01
8.095585e-01
7.857740e-01
7.618875e-01
7.379388e-01
7.139756e-01
6.900539e-01
6.662376e-01
6.425971e-01
6.192077e-01
5.961465e-01
5.734894e-01
5.513089e-01
5.296709e-01
5.086320e-01
4.882373e-01
4.685196e-01
4.495006e-01
4.311926e-01
4.136016e-01
3.967311e-01
3.805847e-01
3.651680e-01
3.504889e-01
3.365558e-01
3.233758e-01
3.109508e-01
2.992761e-01
2.883392e-01
2.781206e-01
2.685953e-01
2.597359e-01
2.515163e-01
2.439147e-01
2.369166e-01
2.305162e-01
2.247172e-01
2.195329e-01
2.149832e-01
2.110910e-01
2.078778e-01
2.053611e-01
2.035526e-01
2.024570e-01
2.020706e-01
2.023809e-01
2.033670e-01
2.050013e-01
2.072518e-01
2.100848e-01
2.134674e-01
2.173671e-01
2.217510e-01
2.265847e-01
2.318308e-01
2.374470e-01
2.433862e-01
2.495985e-01
2.560331e-01
2.626416e-01
2.693791e-01
2.762051e-01
2.830842e-01
2.899873e-01
2.968923e-01
3.037853e-01
3.106608e-01
3.175219e-01
3.243808e-01
3.312573e-01
3.381787e-01
3.451792e-01
3.522972e-01
3.595738e-01
3.670497e-01
3.747633e-01
3.827492e-01
3.910368e-01
3.996501e-01
4.086080e-01
4.179251e-01
4.276127e-01
4.376808e-01
4.481405e-01
4.590044e-01
4.702875e-01
4.820057e-01
4.941753e-01
5.068116e-01
5.199263e-01
5.335266e-01
5.476132e-01
5.621806e-01
5.772162e-01
5.927008e-01
6.086100e-01
6.249169e-01
6.415938e-01
6.586148e-01
6.759565e-01
6.935999e-01
7.115305e-01
7.297396e-01
7.482235e-01
7.669839e-01
7.860272e-01
8.053636e-01
8.250058e-01
8.449665e-01
8.652564e-01
8.858823e-01
9.068457e-01
9.281429e-01
9.497651e-01
9.717010e-01
9.939391e-01
1.016470e+00
1.039292e+00
1.062409e+00
1.085837e+00
1.109603e+00
1.133744e+00
1.158302e+00
1.183325e+00
1.208862e+00
1.234958e+00
1.261659e+00
1.289007e+00
1.317038e+00
1.345786e+00
1.375285e+00
1.405564e+00
1.436655e+00
1.468590e+00
1.501398e+00
1.535105e+00
1.569733e+00
1.605294e+00
1.641797e+00
1.679241e+00
1.717617e+00
1.756908e+00
1.797088e+00
1.838119e+00
1.879954e+00
1.922533e+00
1.965784e+00
2.009627e+00
2.053972e+00
2.098729e+00
2.143803e+00
2.189098e+00
2.234520e+00
2.279978e+00
2.325380e+00
2.370641e+00
2.415676e+00
2.460401e+00
2.504740e+00
2.548619e+00
2.591969e+00
2.634735e+00
2.676869e+00
2.718341e+00
2.759131e+00
2.799235e+00
2.838658e+00
2.877412e+00
2.915512e+00
2.952972e+00
2.989802e+00
3.026010e+00
3.061600e+00
3.096575e+00
3.130934e+00
3.164677e+00
3.197804e+00
3.230313e+00
3.262201e+00
3.293464e+00
3.324098e+00
3.354094e+00
3.383444e+00
3.412136e+00
3.440159e+00
3.467501e+00
3.494154e+00
3.520109e+00
3.545362e+00
3.569908e+00
3.593748e+00
3.616884e+00
3.639324e+00
3.661079e+00
3.682166e+00
3.702606e+00
3.722423e+00
3.741640e+00
3.760274e+00
3.778338e+00
3.795829e+00
3.812737e+00
3.829034e+00
3.844685e+00
3.859642e+00
3.873853e+00
3.887259e+00
3.899801e+00
3.911416e+00
3.922039e+00
3.931607e+00
3.940060e+00
3.947346e+00
3.953421e+00
3.958253e+00
3.961823e+00
3.964120e+00
3.965147e+00
3.964909e+00
3.963417e+00
3.960682e+00
3.956712e+00
3.951518e+00
3.945109e+00
3.937497e+00
3.928699e+00
3.918734e+00
3.907626e+00
3.895400e+00
3.882082e+00
3.867699e+00
3.852280e+00
3.835850e+00
3.818435e+00
3.800055e+00
3.780728e+00
3.760466e+00
3.739272e+00
3.717142e+00
3.694064e+00
3.670019e+00
3.644984e+00
3.618935e+00
3.591848e+00
3.563702e+00
3.534480e+00
3.504174e+00
3.472778e+00
3.440296e+00
3.406741e+00
3.372134e+00
3.336504e+00
3.299887e+00
3.262325e+00
3.223864e+00
3.184553e+00
3.144445e+00
3.103596e+00
3.062066e+00
3.019918e+00
2.977221e+00
2.934047e+00
2.890471e+00
2.846568e+00
2.802410e+00
2.758065e+00
2.713595e+00
2.669053e+00
2.624482e+00
2.579918e+00
2.535381e+00
2.490886e+00
2.446434e+00
2.402021e+00
2.357635e+00
2.313257e+00
2.268866e+00
2.224435e+00
2.179937e+00
2.135340e+00
2.090613e+00
2.045721e+00
2.000633e+00
1.955317e+00
1.909742e+00
1.863878e+00
1.817699e+00
1.771180e+00
1.724301e+00
1.677049e+00
1.629414e+00
1.581395e+00
1.532996e+00
1.484226e+00
1.435099e+00
1.385636e+00
1.335853e+00
1.285769e+00
1.235397e+00
1.184747e+00
1.133829e+00
1.082651e+00
1.031220e+00
9.795495e-01
9.276502e-01
8.755354e-01
8.232188e-01
7.707150e-01
7.180380e-01
6.652003e-01
6.122104e-01
5.590728e-01
5.057892e-01
4.523621e-01
3.987969e-01
3.451025e-01
2.912921e-01
2.373842e-01
1.834041e-01
1.293862e-01
7.537499e-02
2.142492e-02
-3.240116e-02
-8.603366e-02
-1.393975e-01
-1.924125e-01
-2.449934e-01
-2.970512e-01
-3.484966e-01
-3.992433e-01
-4.492111e-01
-4.983282e-01
-5.465315e-01
-5.937669e-01
-6.399892e-01
-6.851621e-01
-7.292583e-01
-7.722590e-01
-8.141530e-01
-8.549378e-01
-8.946195e-01
-9.332143e-01
-9.707473e-01
-1.007254e+00
-1.042781e+00
-1.077384e+00
-1.111131e+00
-1.144094e+00
-1.176351e+00
-1.207982e+00
-1.239065e+00
-1.269674e+00
-1.299883e+00
-1.329758e+00
-1.359363e+00
-1.388755e+00
-1.417985e+00
-1.447096e+00
-1.476124e+00
-1.505095e+00
-1.534025e+00
-1.562915e+00
-1.591759e+00
-1.620535e+00
-1.649210e+00
-1.677743e+00
-1.706082e+00
-1.734172e+00
-1.761950e+00
-1.789352e+00
-1.816310e+00
-1.842755e+00
-1.868617e+00
-1.893830e+00
-1.918323e+00
-1.942029e+00
-1.964886e+00
-1.986833e+00
-2.007814e+00
-2.027780e+00
-2.046689e+00
-2.064501e+00
-2.081184e+00
-2.096708e+00
-2.111047e+00
-2.124176e+00
-2.136078e+00
-2.146740e+00
-2.156156e+00
-2.164327e+00
-2.171254e+00
-2.176943e+00
-2.181407e+00
-2.184667e+00
-2.186757e+00
-2.187722e+00
-2.187617e+00
-2.186507e+00
-2.184467e+00
-2.181579e+00
-2.177928e+00
-2.173605e+00
-2.168704e+00
-2.163321e+00
-2.157555e+00
-2.151503e+00
-2.145260e+00
-2.138913e+00
-2.132543e+00
-2.126225e+00
-2.120026e+00
-2.114005e+00
-2.108213e+00
-2.102682e+00
-2.097434e+00
-2.092472e+00
-2.087788e+00
-2.083363e+00
-2.079169e+00
-2.075170e+00
-2.071327e+00
-2.067600e+00
-2.063945e+00
-2.060322e+00
-2.056693e+00
-2.053029e+00
-2.049308e+00
-2.045518e+00
-2.041655e+00
-2.037721e+00
-2.033724e+00
-2.029673e+00
-2.025582e+00
-2.021466e+00
-2.017338e+00
-2.013211e+00
-2.009096e+00
-2.005006e+00
-2.000953e+00
-1.996949e+00
-1.993007e+00
-1.989131e+00
-1.985322e+00
-1.981573e+00
-1.977873e+00
-1.974199e+00
-1.970525e+00
-1.966808e+00
-1.962997e+00
-1.959030e+00
-1.954840e+00
-1.950353e+00
-1.945492e+00
-1.940183e+00
-1.934354e+00
-1.927937e+00
-1.920870e+00
-1.913101e+00
-1.904578e+00
-1.895262e+00
-1.885117e+00
-1.874118e+00
-1.862245e+00
-1.849488e+00
-1.835843e+00
-1.821315e+00
-1.805919e+00
-1.789685e+00
-1.772652e+00
-1.754869e+00
-1.736393e+00
-1.717281e+00
-1.697599e+00
-1.677416e+00
-1.656803e+00
-1.635838e+00
-1.614596e+00
-1.593151e+00
-1.571576e+00
-1.549941e+00
-1.528311e+00
-1.506748e+00
-1.485309e+00
-1.464047e+00
-1.443014e+00
-1.422262e+00
-1.401838e+00
-1.381787e+00
-1.362148e+00
-1.342956e+00
-1.324237e+00
-1.306011e+00
-1.288290e+00
-1.271072e+00
-1.254349e+00
-1.238100e+00
-1.222298e+00
-1.206908e+00
-1.191893e+00
-1.177210e+00
-1.162815e+00
-1.148663e+00
-1.134710e+00
-1.120910e+00
-1.107223e+00
-1.093607e+00
-1.080022e+00
-1.066433e+00
-1.052805e+00
-1.039111e+00
-1.025327e+00
-1.011437e+00
-9.974280e-01
-9.832954e-01
-9.690411e-01
-9.546763e-01
-9.402217e-01
-9.257075e-01
-9.111728e-01
-8.966639e-01
-8.822327e-01
-8.679356e-01
-8.538322e-01
-8.399838e-01
-8.264512e-01
-8.132935e-01
-8.005659e-01
-7.883189e-01
-7.765972e-01
-7.654382e-01
-7.548704e-01
-7.449112e-01
-7.355655e-01
-7.268244e-01
-7.186659e-01
-7.110570e-01
-7.039559e-01
-6.973138e-01
-6.910773e-01
-6.851898e-01
-6.795923e-01
-6.742238e-01
-6.690212e-01
-6.639222e-01
-6.588687e-01
-6.538097e-01
-6.487029e-01
-6.435150e-01
-6.382220e-01
-6.328093e-01
-6.272701e-01
-6.216049e-01
-6.158196e-01
-6.099248e-01
-6.039351e-01
-5.978694e-01
-5.917506e-01
-5.856061e-01
-5.794661e-01
-5.733628e-01
-5.673290e-01
-5.613977e-01
-5.556033e-01
-5.499794e-01
-5.445581e-01
-5.393667e-01
-5.344268e-01
-5.297540e-01
-5.253575e-01
-5.212414e-01
-5.174058e-01
-5.138474e-01
-5.105614e-01
-5.075410e-01
-5.047785e-01
-5.022651e-01
-4.999911e-01
-4.979469e-01
-4.961238e-01
-4.945141e-01
-4.931103e-01
-4.919043e-01
-4.908846e-01
-4.900354e-01
-4.893366e-01
-4.887661e-01
-4.883009e-01
-4.879182e-01
-4.875958e-01
-4.873127e-01
-4.870491e-01
-4.867876e-01
-4.865124e-01
-4.862095e-01
-4.858659e-01
-4.854706e-01
-4.850154e-01
-4.844959e-01
-4.839120e-01
-4.832671e-01
-4.825674e-01
-4.818205e-01
