EVENT_NAME: L_AQUILA
EVENT_ID: IT-2009-0009
EVENT_DATE_YYYYMMDD: 20090406
EVENT_TIME_HHMMSS: 013240
EVENT_LATITUDE_DEGREE: 42.3420
EVENT_LONGITUDE_DEGREE: 13.3800
EVENT_DEPTH_KM: 8.3
HYPOCENTER_REFERENCE: INGV-CNT_Seismic_Bulletin
MAGNITUDE_W: 6.1
MAGNITUDE_W_REFERENCE: INGV-CNT_Seismic_Bulletin
MAGNITUDE_L: 
MAGNITUDE_L_REFERENCE: 
FOCAL_MECHANISM: Normal faulting
NETWORK: IT
STATION_CODE: AVZ
STATION_NAME: 
STATION_LATITUDE_DEGREE: 42.027458
STATION_LONGITUDE_DEGREE: 13.425929
STATION_ELEVATION_M: 746
LOCATION: 
SENSOR_DEPTH_M: 0.0
VS30_M/S: 199
SITE_CLASSIFICATION_EC8: C
MORPHOLOGIC_CLASSIFICATION: 
EPICENTRAL_DISTANCE_KM: 35.1
EARTHQUAKE_BACKAZIMUTH_DEGREE: 173.8
DATE_TIME_FIRST_SAMPLE_YYYYMMDD_HHMMSS: 
DATE_TIME_FIRST_SAMPLE_PRECISION: 
SAMPLING_INTERVAL_S: 
NDATA: 105
DURATION_S: 
STREAM: HNN
UNITS: cm
INSTRUMENT: sensor = FBA-3 [Kinemetrics] | digitizer = Everest [Kinemetrics]
INSTRUMENT_ANALOG/DIGITAL: D
INSTRUMENTAL_FREQUENCY_HZ: 204.000
INSTRUMENTAL_DAMPING: 0.700000
FULL_SCALE_G: 1.0
N_BIT_DIGITAL_CONVERTER: 24
PGD_CM: -3.406763
TIME_PGD_S: 
BASELINE_CORRECTION: BASELINE REMOVED
FILTER_TYPE: BUTTERWORTH
FILTER_ORDER: 2
LOW_CUT_FREQUENCY_HZ: 0.050
HIGH_CUT_FREQUENCY_HZ: 40.000
LATE/NORMAL_TRIGGERED: NT
DATABASE_VERSION: 0.5
HEADER_FORMAT: DYNA 1.2
DATA_TYPE: DISPLACEMENT RESPONSE SPECTRUM
PROCESSING: manual (Paolucci et al., 2011)
DATA_TIMESTAMP_YYYYMMDD_HHMMSS: 20211011_160014.141
DATA_LICENSE: CC-BY3_0-IT (http://creativecommons.org/licenses/by/3.0/deed.en)
DATA_CITATION: Luzi L, Pacor F, Puglia R (2019). Italian Accelerometric Archive v 3.0 - Istituto Nazionale di Geofisica e Vulcanologia, Dipartimento della Protezione Civile Nazionale. doi: 10.13127/itaca.3.1
DATA_CREATOR: ITACA working group
ORIGINAL_DATA_MEDIATOR_CITATION: data obtained within the DPC-INGV data exchange agreements
ORIGINAL_DATA_MEDIATOR: Archive of Italian Department of Civil Protection
ORIGINAL_DATA_CREATOR_CITATION: Presidency Of Counsil Of Ministers-Civil Protection Department. (1972). Italian Strong Motion Network. Presidency of Counsil of Ministers - Civil Protection Department. https://doi.org/10.7914/SN/IT http://www.fdsn.org/networks/detail/IT/
ORIGINAL_DATA_CREATOR: network: IT (Italian Strong Motion Network (RAN)); owner: Presidency of Counsil of Ministers - Civil Protection Department (PCM - DPC)
USER1: 
USER2: 
USER3: 
USER4: 
USER5: 
    0.010000     0.000172
    0.020000     0.000688
    0.022000     0.000833
    0.025000     0.001077
    0.029000     0.001452
    0.030000     0.001555
    0.032000     0.001770
    0.035001     0.002122
    0.036000     0.002244
    0.040000     0.002766
    0.041999     0.003053
    0.044001     0.003366
    0.045000     0.003524
    0.046000     0.003684
    0.048001     0.004000
    0.050000     0.004358
    0.054999     0.005382
    0.059999     0.006354
    0.064998     0.007445
    0.067002     0.007938
    0.069999     0.008923
    0.075002     0.010498
    0.080000     0.011763
    0.084998     0.013227
    0.090001     0.015183
    0.095003     0.018212
    0.100000     0.019951
    0.109999     0.025273
    0.120005     0.029494
    0.130005     0.042523
    0.132996     0.046308
    0.139997     0.049527
    0.149993     0.058881
    0.160000     0.069881
    0.170010     0.074062
    0.179986     0.089159
    0.190006     0.111071
    0.200000     0.134007
    0.220022     0.181895
    0.239981     0.217897
    0.250000     0.205004
    0.260010     0.202320
    0.280034     0.278519
    0.290023     0.290039
    0.300030     0.350636
    0.320000     0.409180
    0.340020     0.465552
    0.350017     0.500939
    0.359971     0.515087
    0.379939     0.605128
    0.400000     0.612828
    0.419992     0.771552
    0.439947     0.967442
    0.450045     1.044435
    0.459982     1.130157
    0.480077     1.382200
    0.500000     1.577597
    0.550055     1.404581
    0.599880     1.389297
    0.650195     1.240152
    0.667111     1.353693
    0.699790     1.704800
    0.750188     1.855404
    0.800000     1.652307
    0.850340     1.610518
    0.900090     1.666232
    0.949668     1.945717
    1.000000     2.476860
    1.100110     3.742884
    1.200480     5.558602
    1.300390     7.590280
    1.400560     9.116016
    1.499250     9.133141
    1.600000     8.143639
    1.700680     7.273579
    1.798561     6.399831
    1.901141     5.951671
    2.000000     6.017298
    2.197802     6.096963
    2.398082     5.302172
    2.500000     4.925712
    2.597403     4.824261
    2.801121     5.457047
    3.003003     6.243876
    3.205128     6.367960
    3.401361     6.742122
    3.496503     7.123084
    3.597122     7.373919
    3.802281     7.548738
    4.000000     7.439317
    4.201681     7.220953
    4.405286     7.016398
    4.608295     6.885526
    4.807692     6.837369
    5.000000     6.848643
    5.494505     6.902125
    5.988024     6.647820
    6.493506     5.957937
    6.993007     5.526670
    7.518797     5.473345
    8.000000     5.952209
    8.474576     6.257190
    9.009009     6.376978
    9.523809     6.384018
   10.000000     6.286492
