EVENT_NAME: L_AQUILA
EVENT_ID: IT-2009-0009
EVENT_DATE_YYYYMMDD: 20090406
EVENT_TIME_HHMMSS: 013240
EVENT_LATITUDE_DEGREE: 42.3420
EVENT_LONGITUDE_DEGREE: 13.3800
EVENT_DEPTH_KM: 8.3
HYPOCENTER_REFERENCE: INGV-CNT_Seismic_Bulletin
MAGNITUDE_W: 6.1
MAGNITUDE_W_REFERENCE: INGV-CNT_Seismic_Bulletin
MAGNITUDE_L: 
MAGNITUDE_L_REFERENCE: 
FOCAL_MECHANISM: Normal faulting
NETWORK: IT
STATION_CODE: AVZ
STATION_NAME: 
STATION_LATITUDE_DEGREE: 42.027458
STATION_LONGITUDE_DEGREE: 13.425929
STATION_ELEVATION_M: 746
LOCATION: 
SENSOR_DEPTH_M: 0.0
VS30_M/S: 199
SITE_CLASSIFICATION_EC8: C
MORPHOLOGIC_CLASSIFICATION: 
EPICENTRAL_DISTANCE_KM: 35.1
EARTHQUAKE_BACKAZIMUTH_DEGREE: 173.8
DATE_TIME_FIRST_SAMPLE_YYYYMMDD_HHMMSS: 20090406_013219.000
DATE_TIME_FIRST_SAMPLE_PRECISION: seconds
SAMPLING_INTERVAL_S: 0.005000
NDATA: 27800
DURATION_S: 139.000
STREAM: HNZ
UNITS: cm/s^2
INSTRUMENT: sensor = FBA-3 [Kinemetrics] | digitizer = Everest [Kinemetrics]
INSTRUMENT_ANALOG/DIGITAL: D
INSTRUMENTAL_FREQUENCY_HZ: 212.000
INSTRUMENTAL_DAMPING: 0.700000
FULL_SCALE_G: 1.0
N_BIT_DIGITAL_CONVERTER: 24
PGA_CM/S^2: 26.116310
TIME_PGA_S: 45.935000
BASELINE_CORRECTION: BASELINE NOT REMOVED
FILTER_TYPE: 
FILTER_ORDER: 
LOW_CUT_FREQUENCY_HZ: 
HIGH_CUT_FREQUENCY_HZ: 
LATE/NORMAL_TRIGGERED: NT
DATABASE_VERSION: 0.5
HEADER_FORMAT: DYNA 1.2
DATA_TYPE: ACCELERATION
PROCESSING: converted to cm/s^2
DATA_TIMESTAMP_YYYYMMDD_HHMMSS: 20211011_160013.113
DATA_LICENSE: CC-BY3_0-IT (http://creativecommons.org/licenses/by/3.0/deed.en)
DATA_CITATION: Luzi L, Pacor F, Puglia R (2019). Italian Accelerometric Archive v 3.0 - Istituto Nazionale di Geofisica e Vulcanologia, Dipartimento della Protezione Civile Nazionale. doi: 10.13127/itaca.3.1
DATA_CREATOR: ITACA working group
ORIGINAL_DATA_MEDIATOR_CITATION: data obtained within the DPC-INGV data exchange agreements
ORIGINAL_DATA_MEDIATOR: Archive of Italian Department of Civil Protection
ORIGINAL_DATA_CREATOR_CITATION: Presidency Of Counsil Of Ministers-Civil Protection Department. (1972). Italian Strong Motion Network. Presidency of Counsil of Ministers - Civil Protection Department. https://doi.org/10.7914/SN/IT http://www.fdsn.org/networks/detail/IT/
ORIGINAL_DATA_CREATOR: network: IT (Italian Strong Motion Network (RAN)); owner: Presidency of Counsil of Ministers - Civil Protection Department (PCM - DPC)
USER1: 
USER2: 
USER3: 
USER4: 
USER5: 
[...]
14.291010
16.343620
17.928570
18.749870
18.879210
18.441719
17.660761
16.842621
16.077690
15.438820
15.080620
15.037240
15.265750
15.734340
16.311810
16.911970
17.533291
18.051479
18.364071
18.557489
18.684139
18.735479
18.745070
18.767290
18.775360
18.693029
18.637951
18.730339
18.970770
19.301491
19.718050
20.357849
21.262300
22.331051
23.316191
24.022301
24.383780
24.288931
23.677080
22.542370
20.953211
19.040710
16.851040
14.303640
11.402260
8.324047
5.114861
1.842760
-1.311345
-4.232030
-6.633598
-8.421443
-9.771915
-10.783720
-11.458020
-11.718690
-11.693190
-11.353700
-10.734600
-9.924177
-8.756254
-7.460629
-6.094134
-4.415632
-2.497512
-0.605236
1.172435
2.715164
3.766610
4.341158
4.368640
4.085517
3.822627
3.574354
3.485944
3.522197
3.512140
3.337659
2.910929
2.055247
0.784764
-0.665579
-2.278592
-3.948089
-5.736752
-7.645050
-9.320627
-10.668530
-11.714830
-12.455090
-12.857960
-12.993030
-12.922980
-12.531570
-11.968950
-11.311490
-10.407630
-9.316651
-8.080317
-6.613250
-4.929603
-3.165965
-1.416361
0.436036
2.433095
4.406413
6.355758
8.264523
10.158200
11.981830
13.498010
14.880530
16.265619
17.462780
18.288521
18.764721
18.891140
18.593040
17.888571
16.707199
15.144590
13.183080
10.849930
8.345916
5.593047
2.649675
-0.385848
-3.449438
-6.464731
-9.435935
-12.130920
-14.260000
-15.588140
-15.900970
-15.034880
-12.993150
-10.243080
-7.228494
-4.248402
-1.590375
0.686297
2.411927
3.426653
3.645807
3.135579
2.085770
0.470535
-1.503251
-3.544046
-5.581918
-7.626689
-9.836703
-12.279090
-14.786490
-17.188990
-19.390471
-21.293739
-22.742680
-23.552401
-23.612040
-22.863359
-21.279470
-18.848900
-15.780980
-12.327970
-8.456292
-4.315060
-0.221425
3.689661
7.288038
10.310110
12.536150
13.916560
14.409010
13.971520
12.677300
10.657440
8.044667
5.028440
1.904506
-0.952326
-3.331208
-5.259737
-6.772879
-7.890165
-8.531487
-8.671587
-8.496404
-8.129784
-7.671011
-7.164759
-6.692889
-6.447773
-6.495136
-6.882105
-7.572778
-8.514297
-9.667251
-10.883350
-12.138630
-13.375790
-14.531080
-15.721810
-16.978840
-18.182079
-19.344629
-20.516880
-21.504240
-22.315710
-23.007561
-23.468670
-23.730860
-23.681971
-23.248810
-22.458969
-21.452669
-20.452089
-19.353979
-18.168280
-17.006910
-15.758060
-14.389230
-12.973620
-11.557300
-10.155610
-8.865598
-7.767841
-6.723412
-5.687870
-4.724833
-3.666604
-2.427579
-1.099208
0.279682
1.458013
2.206223
2.522323
2.288551
1.414276
0.096430
-1.370285
-3.061417
-4.799677
-6.138456
-7.105468
-7.631133
-7.815671
-7.761292
-7.395140
-6.897892
-6.292004
-5.679566
-5.029707
-4.252963
-3.397398
-2.342327
-1.066113
0.422237
2.125999
4.001084
6.046089
8.316095
10.774850
13.325170
15.847890
18.196020
20.208981
21.674641
22.506941
22.603649
21.889240
20.428249
18.418909
16.123880
13.669690
11.256780
9.074362
7.211556
5.697595
4.413079
3.236151
2.072672
0.896563
-0.293813
-1.545000
-2.784727
-3.957328
-5.103499
-6.173890
-7.208262
-8.285086
-9.322616
-10.303190
-11.197230
-11.894450
-12.278380
-12.311950
-12.138990
-11.918780
-11.754820
-11.674480
-11.811190
-12.230200
-12.904500
-13.899230
-15.050550
-16.329220
-17.715940
-18.975550
-20.000570
-20.595930
-20.642010
-20.153879
-19.054840
-17.348150
-15.128430
-12.508650
-9.712625
-6.881169
-4.010420
-1.211475
1.465731
4.000733
6.269336
8.269669
9.983604
11.399800
12.545040
13.301550
13.597420
13.421880
12.880200
12.206830
11.483060
10.838120
10.481900
10.440860
10.715790
11.231870
11.877520
12.708640
13.706180
14.803230
15.975130
17.152639
18.356350
19.603090
20.859070
22.092251
23.157030
23.969090
24.512770
24.710640
24.499901
23.820459
22.726681
21.342051
19.789850
18.209930
16.697029
15.334270
14.122500
12.989890
11.870970
10.683280
9.408939
8.132376
6.827043
5.489785
4.215794
3.018986
1.993150
1.249033
0.798447
0.613207
0.663493
0.863468
1.169160
1.618928
2.102493
2.544659
2.899468
3.114178
3.257318
3.329239
3.372508
3.495066
3.700888
3.946588
4.178371
4.341977
4.346654
4.145393
3.758892
3.187151
2.486070
1.711665
0.891418
0.009541
-0.950572
-1.940857
-2.945642
-3.900960
-4.780031
-5.560868
-6.155530
-6.481220
-6.363808
-5.682841
-4.528834
-3.068785
-1.393090
0.349264
2.034314
3.561373
4.815133
5.878040
6.730798
7.351421
7.791951
8.016016
8.003269
7.755347
7.400655
6.951823
6.445220
5.961772
5.405468
4.808467
4.145393
3.375198
2.473089
1.397085
0.202031
-1.163411
-2.556218
-3.935693
-5.302421
-6.473151
-7.711240
-8.875187
-9.695435
-10.471830
-11.076080
-11.448310
-11.638930
-11.533560
-11.247990
-10.726060
-9.976919
-9.084751
-8.112944
-7.126986
-6.091210
-5.081630
-4.036616
-2.924475
-1.856891
-0.843451
0.101108
0.884518
1.458364
1.850478
2.092553
2.242709
2.302468
2.324336
2.387603
2.539748
2.809889
3.127159
3.486763
3.891741
4.301865
4.683688
4.990784
5.227596
5.400439
5.488265
5.566500
5.672920
5.736654
5.738760
5.646490
5.519957
5.451661
5.428272
5.380910
5.288290
5.190174
5.167954
5.286302
5.354129
5.406053
5.651870
6.215425
7.076135
7.910766
8.664473
9.299597
9.688787
9.751937
9.475948
8.919762
8.038236
7.030409
5.867281
4.611416
3.604759
2.677391
1.662899
0.493222
-0.860291
-2.244444
-3.613745
-4.924574
-6.101268
-7.039629
-7.646570
-7.937527
-7.959980
-7.840113
-7.654288
-7.335615
-6.917071
-6.491862
-6.027125
-5.520054
-5.015674
-4.507083
-4.029950
-3.509431
-2.848812
-2.138142
-1.407357
-0.608510
0.237933
1.073851
1.913745
2.593191
3.001912
3.327835
3.481383
3.495884
3.451796
3.253810
2.997702
2.612838
2.163070
1.756104
1.323176
0.922291
0.617417
0.466910
0.457788
0.574732
0.801955
1.044030
1.155478
1.028710
0.716703
0.218169
-0.529924
-1.438815
-2.390975
-3.331091
-4.097427
-4.622974
-4.975445
-5.043974
-4.836866
-4.438437
-3.762031
-2.852672
-1.774679
-0.558809
0.788740
2.360355
3.952435
5.302206
6.427561
7.333295
7.930296
8.186053
8.260196
8.256921
8.214938
8.251776
8.248735
8.037767
7.578878
6.789504
5.657249
4.181646
2.342463
0.257696
-1.897003
-4.040709
-6.212131
-8.428576
-10.559540
-12.445960
-13.879120
-14.668730
-14.775960
-14.179430
-12.931520
-11.047540
-8.653811
-5.981049
-3.191576
-0.505014
2.079923
4.388169
6.252496
7.711025
8.602140
8.959172
8.743995
7.951696
6.828446
5.522997
4.194977
2.993141
1.948360
1.037247
0.229630
-0.482444
-1.002612
-1.322455
-1.461151
-1.299768
-0.851520
-0.264928
0.307515
0.732256
0.886740
0.686063
0.231969
-0.323751
-0.927768
-1.459046
-1.812101
-2.010906
-2.130424
-2.212752
-2.329697
-2.573058
-2.999904
-3.638304
-4.196479
-4.488138
-4.597832
-4.486150
-4.216710
-3.822257
-3.439966
-3.246423
-3.200347
-3.345475
-3.654325
-4.082224
-4.631044
-5.284178
-6.096239
-7.066175
-8.133759
-9.229762
-10.308690
-11.369840
-12.403980
-13.366320
-14.237320
-15.017920
-15.727300
-16.408621
-17.109470
-17.845280
-18.618290
-19.428829
-20.214809
-20.977871
-21.719879
-22.359680
-22.776819
-22.912130
-22.752150
-22.294661
-21.586800
-20.582830
-19.298670
-17.766701
-16.069019
-14.229950
-12.172670
-9.991654
-7.710538
-5.390012
-3.082584
-0.854561
1.226697
3.236385
5.198243
7.129110
8.988759
10.776020
12.453230
13.947780
15.247970
16.292521
17.038389
17.492130
17.685320
17.660761
17.482540
17.185150
16.795019
16.279181
15.666860
14.999460
14.276510
13.599760
12.960660
12.411840
11.887570
11.224150
10.515000
9.719193
8.832989
7.957310
7.067481
6.105263
4.985989
3.743689
2.366553
0.795056
-0.943322
-2.826125
-4.746702
-6.659092
-8.556630
-10.361310
-12.020870
-13.510510
-14.779590
-15.711630
-16.287001
-16.503460
-16.320801
-15.782740
-14.876420
-13.574940
-11.899130
-9.939614
-7.857888
-5.695354
-3.396697
-1.057693
1.156998
3.310761
5.417279
7.322653
8.936368
10.203580
11.144280
11.817760
12.236540
12.323080
12.106380
11.645850
10.909920
10.024530
9.059042
8.063496
7.050757
5.986214
4.976633
4.020730
3.129030
2.301532
1.500697
0.795056
0.204136
-0.346321
-1.023662
-1.896886
-2.954413
-4.220452
-5.655125
-7.219138
-8.878695
-10.566200
-12.191960
-13.680780
-14.888460
-15.727890
-16.240919
-16.325480
-16.004351
-15.426640
-14.614580
-13.688150
-12.697750
-11.548420
-10.297000
-9.065338
-7.916126
-6.905962
-6.021161
-5.252135
-4.674430
-4.358563
-4.341607
-4.581109
-5.017428
-5.602266
-6.258090
-6.965135
-7.708200
-8.452433
-9.130944
-9.672630
-10.066150
-10.276180
-10.309510
-10.140520
-9.781973
-9.326942
-8.766545
-8.118090
-7.356548
-6.494668
-5.573264
-4.454224
-3.122696
-1.681240
-0.265512
1.026956
2.289370
3.442207
4.458336
5.408041
6.208642
6.989479
7.683777
8.245344
8.858015
9.380054
9.791698
10.131540
10.439340
10.782220
11.073410
11.422840
11.831560
12.187540
12.511120
12.744070
12.846870
12.842660
12.722910
12.479660
12.154210
11.783140
11.386940
10.999970
10.635690
10.316430
10.052370
9.832746
9.662943
9.500507
9.290592
9.005482
8.596995
8.077996
7.486141
6.801900
6.031237
5.195553
4.349461
3.522548
2.721128
2.038992
1.518590
1.183428
1.054438
1.131504
1.471111
2.070684
2.933265
4.042014
5.282209
6.557954
7.762364
8.784808
9.515125
9.897533
9.984189
9.809357
9.402508
8.813576
8.103140
7.318794
6.492816
5.674206
4.853959
4.050084
3.283630
2.528755
1.813524
1.150449
0.565962
0.117597
-0.158976
-0.208561
-0.003791
0.430540
1.089521
1.957131
2.967296
4.033594
5.062704
6.021765
6.809852
7.275174
7.393288
7.121275
6.478900
5.566150
4.437052
3.210540
1.975024
0.800318
-0.240136
-1.130433
-1.874666
-2.492015
-2.928685
-3.192629
-3.273554
-3.127725
-2.816887
-2.296835
-1.561489
-0.650961
0.398965
1.507714
2.622778
3.656332
4.586624
5.354480
5.906574
6.256238
6.356810
6.271558
6.065969
5.742619
5.358106
4.906934
4.370745
3.724394
2.918296
1.978766
0.874344
-0.412979
-1.839349
-3.409677
-5.075315
-6.815914
-8.611127
-10.396050
-12.131500
-13.761700
-15.262680
-16.600060
-17.757111
-18.743179
-19.518990
-20.076229
-20.428471
-20.530439
-20.315380
-19.792410
-19.017300
-18.070749
-17.010300
-15.833370
-14.588620
-13.334740
-12.082850
-10.850960
-9.639886
-8.451381
-7.313279
-6.247799
-5.284997
-4.408265
-3.542760
-2.628606
-1.625107
-0.510160
0.724421
2.039694
3.389465
4.759702
6.124909
7.462051
8.727388
9.892387
10.965820
11.947100
12.814010
13.509240
14.002980
14.331010
14.467020
14.349140
13.996780
13.396970
12.575790
11.542710
10.249070
8.801064
7.258918
5.652571
4.044470
2.465371
0.999825
-0.356846
-1.589556
-2.670706
-3.648010
-4.529419
-5.347094
-6.091561
-6.737094
-7.302052
-7.779769
-8.155628
-8.400743
-8.548445
-8.638374
-8.643637
-8.565986
-8.413490
-8.171650
-7.807485
-7.334796
-6.739199
-5.987247
-5.165830
-4.289917
-3.356468
-2.441612
-1.562542
-0.707211
0.088712
0.810375
1.494616
2.128922
2.730016
3.277432
3.715038
4.025876
4.172174
4.151006
3.969158
3.693286
3.384320
3.082603
2.821466
2.586876
2.421517
2.309016
2.223296
2.178974
2.139564
2.083665
2.004961
1.928480
1.868370
1.842409
1.933158
2.172893
2.572609
3.188905
4.017456
5.039783
6.246531
7.571277
8.939408
10.262980
11.460610
12.474750
13.276520
13.852360
14.155940
14.194420
13.966490
13.458840
12.736010
11.820570
10.748070
9.558863
8.243122
6.855694
5.439499
4.016871
2.613773
1.244239
-0.032209
-1.186332
-2.194626
-3.032883
-3.728701
-4.264657
-4.673027
-5.035437
-5.368495
-5.711843
-6.081270
-6.479115
-6.938355
-7.495945
-8.178199
-8.979384
-9.928504
-11.013860
-12.187630
-13.401870
-14.575050
-15.646850
-16.555500
-17.273540
-17.819670
-18.205120
-18.448481
-18.565310
-18.559460
-18.421120
-18.129930
-17.689871
-17.108179
-16.388981
-15.546630
-14.586980
-13.486180
-12.230790
-10.907440
-9.607258
-8.377472
-7.255508
-6.251424
-5.411530
-4.748222
-4.239163
-3.924466
-3.812083
-3.891020
-4.160226
-4.585202
-5.130279
-5.739559
-6.376087
-6.982092
-7.526117
-8.055641
-8.557566
-9.068145
-9.599773
-10.120410
-10.646430
-11.149990
-11.631450
-12.079460
-12.494960
-12.875730
-13.178150
-13.436370
-13.664880
-13.882160
-14.112770
-14.290180
-14.399050
-14.459280
-14.469800
-14.428400
-14.331460
-14.206790
-14.011260
-13.729660
-13.374850
-12.888010
-12.280250
-11.529120
-10.605610
-9.516275
-8.257721
-6.849360
-5.267571
-3.592812
-1.896886
-0.190083
1.463977
3.087164
4.642523
6.070063
7.375629
8.522969
9.498987
10.309410
10.963950
11.501540
11.974460
12.432300
12.915980
13.438370
13.989880
14.530980
15.075010
15.681830
16.307489
16.946119
17.626270
18.302320
18.953470
19.520300
19.967960
20.317390
20.535259
20.616650
20.597940
20.542509
20.478889
20.407200
20.367790
20.381821
20.465210
20.618641
20.869829
21.218090
21.648211
22.192011
22.787140
23.409981
24.061590
24.678129
25.226480
25.667940
25.975510
26.116310
26.076191
25.877510
25.522810
25.017151
24.368219
23.596510
22.696739
21.684231
20.600389
19.440189
18.230989
16.983070
15.697270
14.420120
13.166710
11.923590
10.701060
9.524714
8.388834
7.295054
6.241854
5.224205
4.263858
3.378940
2.582315
1.874452
1.284467
0.822187
0.471471
0.244365
0.111984
0.035268
-0.016304
-0.041915
-0.058287
-0.116642
-0.207157
-0.343748
-0.517761
-0.728144
-1.009044
-1.326197
-1.679720
-2.051018
-2.397875
-2.724267
-3.031245
-3.344656
-3.665435
-3.996738
-4.379613
-4.801315
-5.247107
-5.719211
-6.196577
-6.668798
-7.095294
-7.417593
-7.609148
-7.663176
-7.585993
-7.387304
-7.077402
-6.680142
-6.241718
-5.776630
-5.305929
-4.857799
-4.434460
-4.080821
-3.767410
-3.453064
-3.194266
-2.959442
-2.737365
-2.549201
-2.316131
-2.048563
-1.744858
-1.372858
-0.999221
-0.614240
-0.236276
0.080058
0.336283
0.492287
0.499070
0.324939
-0.024958
-0.514955
-1.082719
-1.674574
-2.229826
-2.706374
-3.127023
-3.486978
-3.813486
-4.139293
-4.474689
-4.834995
-5.198458
-5.533620
-5.825396
-6.060454
-6.225813
-6.339717
-6.380531
-6.342056
-6.220434
-5.976020
-5.647758
-5.237283
-4.729394
-4.194140
-3.701804
-3.282325
-2.968446
-2.797591
-2.771746
-2.897110
-3.169941
-3.562524
-4.055678
-4.605784
-5.184424
-5.766573
-6.283584
-6.704233
-7.005481
-7.155053
-7.148036
-6.965720
-6.627283
-6.168628
-5.613844
-4.998249
-4.331081
-3.644151
-2.966341
-2.328995
-1.754447
-1.226210
-0.750714
-0.304689
0.125549
0.558711
1.017250
1.461872
1.890005
2.295334
2.654821
2.948936
3.145285
3.226562
3.189841
3.038866
2.762059
2.354625
1.823581
1.184129
0.453227
-0.335445
-1.146922
-1.949744
-2.710233
-3.440083
-4.087369
-4.618531
-5.044091
-5.330839
-5.499004
-5.556190
-5.519002
-5.383463
-5.148522
-4.855109
-4.484630
-4.063513
-3.586263
-3.044109
-2.480789
-1.882618
-1.281525
-0.691073
-0.121671
0.388206
0.864871
1.278386
1.658105
2.041097
2.389357
2.737033
3.061904
3.381747
3.689544
3.941442
4.177670
4.355425
4.520082
4.680881
4.757947
4.782740
4.760403
4.691757
4.565340
4.358349
4.065988
3.679136
3.209605
2.631315
1.966838
1.261780
0.483399
-0.320359
-1.107278
-1.885425
-2.637962
-3.342785
-3.963526
-4.553159
-5.091570
-5.543210
-5.957426
-6.304985
-6.623190
-6.929234
-7.212940
-7.507523
-7.785266
-8.059266
-8.315141
-8.520378
-8.680474
-8.755085
-8.743390
-8.649016
-8.466934
-8.219363
-7.904432
-7.529041
-7.096931
-6.637223
-6.175177
-5.710089
-5.291779
-4.939192
-4.651041
-4.441243
-4.290970
-4.201157
-4.138474
-4.070997
-4.029131
-4.004222
-4.003170
-4.026909
-4.052403
-4.072986
-4.038487
-3.959199
-3.860615
-3.703675
-3.464173
-3.133572
-2.752567
-2.378345
-2.035114
-1.745443
-1.527225
-1.357655
-1.213463
-1.088917
-0.959928
-0.826260
-0.696920
-0.577637
-0.461628
-0.336732
-0.173711
0.064504
0.355696
0.700915
1.161442
1.673073
2.167865
2.723935
3.237204
3.656683
4.068912
4.397759
4.665444
4.904946
5.086912
5.245722
5.399504
5.564044
5.748349
5.926104
6.077196
6.197999
6.276118
6.314710
6.282434
6.191217
6.076845
5.913474
5.714435
5.491188
5.255546
5.003296
4.737950
4.474825
4.194159
3.933841
3.652473
3.331227
3.004835
2.605938
2.167748
1.688627
1.142380
0.563740
-0.096294
-0.816554
-1.581955
-2.370510
-3.129830
-3.871140
-4.560175
-5.201147
-5.763415
-6.195174
-6.506363
-6.642135
-6.616758
-6.459936
-6.145940
-5.715001
-5.175887
-4.547780
-3.885758
-3.192395
-2.498330
-1.855137
-1.271935
-0.783927
-0.411225
-0.141201
0.016089
0.102862
0.123093
0.125900
0.183437
0.259918
0.398263
0.647706
1.030581
1.513912
2.096879
2.844154
3.758307
4.848579
5.999662
7.167351
8.418655
9.682239
10.894020
12.025690
13.018540
13.833880
14.469120
14.915150
15.178150
15.251710
15.118040
14.802760
14.330660
13.722900
12.993280
12.131290
11.115390
9.961267
8.664473
7.241611
5.793139
4.370277
3.038398
1.831650
0.735531
-0.193007
-0.928119
-1.461268
-1.792104
-1.949277
-1.940740
-1.773977
-1.476354
-1.119206
-0.730717
-0.345152
-0.028700
0.238284
0.425278
0.533451
0.605372
0.610517
0.592742
0.545145
0.473459
0.422471
0.342364
0.242026
0.114440
-0.035717
-0.180377
-0.329598
-0.460108
-0.579742
-0.671660
-0.737383
-0.788254
-0.806263
-0.813981
-0.782523
-0.712240
-0.614942
-0.470282
-0.300596
-0.086120
0.167766
0.432177
0.706646
0.975384
1.247162
1.515316
1.770137
1.986250
2.123543
2.186225
2.150557
2.004026
1.773762
1.467251
1.084960
0.647589
0.161217
-0.374154
-0.913033
-1.464075
-2.045054
-2.618900
-3.186314
-3.756300
-4.322896
-4.885281
-5.437375
-5.977424
-6.504141
-7.003025
-7.471855
-7.902093
-8.278186
-8.620950
-8.938571
-9.237831
-9.535455
-9.830388
-10.132450
-10.447150
-10.765830
-11.062860
-11.307160
-11.484800
-11.575430
-11.555550
-11.396860
-11.065550
-10.552520
-9.867459
-9.008620
-8.004888
-6.897425
-5.698628
-4.453522
-3.216485
-2.035114
-0.938878
0.046495
0.902644
1.619981
2.177220
2.590969
2.856433
3.006238
3.068687
3.044362
2.971857
2.841815
2.676105
2.485018
2.281067
2.090682
1.888485
1.696111
1.510989
1.326334
1.162378
1.008245
0.865105
0.729918
0.597887
0.470886
0.330904
0.189050
0.048834
-0.101440
-0.233002
-0.358951
-0.469230
-0.536122
-0.575766
-0.537057
-0.413213
-0.205169
0.111399
0.517664
1.035025
1.624308
2.253936
2.918413
3.581020
4.226552
4.816069
5.332495
5.735134
5.998025
6.123506
6.072051
5.846465
5.483236
5.026568
4.503242
3.916650
3.297781
2.669790
2.040278
1.434507
0.848967
0.286465
