EVENT_NAME: L_AQUILA
EVENT_ID: IT-2009-0009
EVENT_DATE_YYYYMMDD: 20090406
EVENT_TIME_HHMMSS: 013240
EVENT_LATITUDE_DEGREE: 42.3420
EVENT_LONGITUDE_DEGREE: 13.3800
EVENT_DEPTH_KM: 8.3
HYPOCENTER_REFERENCE: INGV-CNT_Seismic_Bulletin
MAGNITUDE_W: 6.1
MAGNITUDE_W_REFERENCE: INGV-CNT_Seismic_Bulletin
MAGNITUDE_L: 
MAGNITUDE_L_REFERENCE: 
FOCAL_MECHANISM: Normal faulting
NETWORK: IT
STATION_CODE: AVZ
STATION_NAME: 
STATION_LATITUDE_DEGREE: 42.027458
STATION_LONGITUDE_DEGREE: 13.425929
STATION_ELEVATION_M: 746
LOCATION: 
SENSOR_DEPTH_M: 0.0
VS30_M/S: 199
SITE_CLASSIFICATION_EC8: C
MORPHOLOGIC_CLASSIFICATION: 
EPICENTRAL_DISTANCE_KM: 35.1
EARTHQUAKE_BACKAZIMUTH_DEGREE: 173.8
DATE_TIME_FIRST_SAMPLE_YYYYMMDD_HHMMSS: 20090406_013219.000
DATE_TIME_FIRST_SAMPLE_PRECISION: seconds
SAMPLING_INTERVAL_S: 0.005000
NDATA: 24000
DURATION_S: 120.000
STREAM: HNZ
UNITS: cm/s^2
INSTRUMENT: sensor = FBA-3 [Kinemetrics] | digitizer = Everest [Kinemetrics]
INSTRUMENT_ANALOG/DIGITAL: D
INSTRUMENTAL_FREQUENCY_HZ: 212.000
INSTRUMENTAL_DAMPING: 0.700000
FULL_SCALE_G: 1.0
N_BIT_DIGITAL_CONVERTER: 24
PGA_CM/S^2: 26.121967
TIME_PGA_S: 45.935000
BASELINE_CORRECTION: BASELINE REMOVED
FILTER_TYPE: BUTTERWORTH
FILTER_ORDER: 2
LOW_CUT_FREQUENCY_HZ: 0.050
HIGH_CUT_FREQUENCY_HZ: 40.000
LATE/NORMAL_TRIGGERED: NT
DATABASE_VERSION: 0.5
HEADER_FORMAT: DYNA 1.2
DATA_TYPE: ACCELERATION
PROCESSING: manual (Paolucci et al., 2011)
DATA_TIMESTAMP_YYYYMMDD_HHMMSS: 20211011_160013.261
DATA_LICENSE: CC-BY3_0-IT (http://creativecommons.org/licenses/by/3.0/deed.en)
DATA_CITATION: Luzi L, Pacor F, Puglia R (2019). Italian Accelerometric Archive v 3.0 - Istituto Nazionale di Geofisica e Vulcanologia, Dipartimento della Protezione Civile Nazionale. doi: 10.13127/itaca.3.1
DATA_CREATOR: ITACA working group
ORIGINAL_DATA_MEDIATOR_CITATION: data obtained within the DPC-INGV data exchange agreements
ORIGINAL_DATA_MEDIATOR: Archive of Italian Department of Civil Protection
ORIGINAL_DATA_CREATOR_CITATION: Presidency Of Counsil Of Ministers-Civil Protection Department. (1972). Italian Strong Motion Network. Presidency of Counsil of Ministers - Civil Protection Department. https://doi.org/10.7914/SN/IT http://www.fdsn.org/networks/detail/IT/
ORIGINAL_DATA_CREATOR: network: IT (Italian Strong Motion Network (RAN)); owner: Presidency of Counsil of Ministers - Civil Protection Department (PCM - DPC)
USER1: 
USER2: 
USER3: 
USER4: 
USER5: 
[...]
18.680723
18.827101
18.413811
17.670803
16.824751
16.039206
15.426500
15.071633
15.017915
15.248736
15.697130
16.275358
16.901621
17.499088
17.991644
18.335054
18.541527
18.653221
18.708708
18.735310
18.740843
18.713318
18.660246
18.639656
18.720247
18.924225
19.243959
19.705877
20.374132
21.268393
22.292885
23.263327
23.994881
24.352962
24.247549
23.629183
22.507462
20.951124
19.039568
16.806265
14.248391
11.389294
8.300168
5.070778
1.803993
-1.355383
-4.215921
-6.603163
-8.454714
-9.831652
-10.821283
-11.460016
-11.753118
-11.717638
-11.383334
-10.774234
-9.906509
-8.811770
-7.533467
-6.072466
-4.396811
-2.539441
-0.630283
1.160592
2.661590
3.721378
4.260879
4.330097
4.105839
3.803274
3.577569
3.487347
3.494548
3.485782
3.315083
2.844034
1.991702
0.783648
-0.673003
-2.280091
-4.000987
-5.816482
-7.638376
-9.307616
-10.691993
-11.743915
-12.468957
-12.889546
-13.031869
-12.915947
-12.566871
-12.025008
-11.315370
-10.430945
-9.358020
-8.085812
-6.611155
-4.969382
-3.228509
-1.426529
0.447245
2.392676
4.368286
6.332667
8.268351
10.144065
11.893585
13.476064
14.921312
16.252165
17.400839
18.257204
18.753666
18.865416
18.571745
17.849810
16.691347
15.110746
13.146039
10.858947
8.313847
5.556284
2.631117
-0.398772
-3.470425
-6.528527
-9.481217
-12.149931
-14.280521
-15.598661
-15.867133
-14.968161
-13.003637
-10.301696
-7.282120
-4.301689
-1.597569
0.672892
2.370143
3.368887
3.611756
3.134360
2.030057
0.429297
-1.485962
-3.522445
-5.575709
-7.674733
-9.909790
-12.309482
-14.789211
-17.206404
-19.426414
-21.322895
-22.752220
-23.562717
-23.628263
-22.868137
-21.261312
-18.872543
-15.843651
-12.325929
-8.447419
-4.357654
-0.246305
3.691603
7.261437
10.259240
12.507278
13.894132
14.371218
13.940265
12.655837
10.622366
7.993674
4.994659
1.924418
-0.917074
-3.340009
-5.298736
-6.816006
-7.894085
-8.511913
-8.692145
-8.533104
-8.161410
-7.678256
-7.166301
-6.727524
-6.483134
-6.529767
-6.905938
-7.595103
-8.543814
-9.674764
-10.901418
-12.148218
-13.369624
-14.565095
-15.764570
-16.982227
-18.200804
-19.391365
-20.512232
-21.510410
-22.351685
-23.024216
-23.506645
-23.746685
-23.671030
-23.234821
-22.478909
-21.519554
-20.464666
-19.359917
-18.213463
-17.019432
-15.755390
-14.406333
-12.992733
-11.564329
-10.185516
-8.915969
-7.774261
-6.730129
-5.736612
-4.736529
-3.652909
-2.428490
-1.085497
0.255049
1.408743
2.197297
2.491150
2.217422
1.390899
0.126321
-1.426482
-3.118445
-4.757993
-6.130527
-7.100987
-7.655924
-7.851997
-7.753031
-7.417566
-6.917970
-6.331902
-5.705575
-5.035349
-4.284678
-3.405611
-2.348678
-1.079162
0.408469
2.097983
3.975021
6.044706
8.316620
10.766105
13.314415
15.837995
18.182785
20.177788
21.657812
22.484159
22.556358
21.839916
20.405148
18.422489
16.103718
13.652850
11.258397
9.082938
7.225071
5.687051
4.385390
3.204505
2.052856
0.881749
-0.325413
-1.559263
-2.787610
-3.975468
-5.106029
-6.186993
-7.244385
-8.298403
-9.341195
-10.336306
-11.216629
-11.884460
-12.253932
-12.318884
-12.171284
-11.945643
-11.757449
-11.695827
-11.839203
-12.247280
-12.941735
-13.899349
-15.065720
-16.373228
-17.728666
-18.992905
-19.998125
-20.590759
-20.664434
-20.159887
-19.049320
-17.345812
-15.128507
-12.541913
-9.751721
-6.887187
-4.026550
-1.225003
1.462099
3.973243
6.249293
8.252946
9.974698
11.411551
12.532381
13.267466
13.551743
13.391182
12.885989
12.189738
11.460954
10.851180
10.489873
10.443926
10.699095
11.192537
11.869624
12.708516
13.693699
14.789030
15.947179
17.136570
18.353264
19.602169
20.862625
22.069765
23.131529
23.964830
24.506224
24.693417
24.464127
23.790234
22.711285
21.331015
19.784595
18.205753
16.703217
15.339407
14.114826
12.974580
11.841171
10.657531
9.411527
8.120409
6.802860
5.480238
4.192732
3.004957
1.999583
1.251251
0.792750
0.605990
0.640573
0.843505
1.178469
1.611496
2.085202
2.525524
2.873373
3.106581
3.239103
3.310502
3.378592
3.499586
3.694776
3.938216
4.171720
4.323059
4.324037
4.131971
3.740705
3.176341
2.485113
1.712325
0.880414
-0.011064
-0.962184
-1.953614
-2.948960
-3.909293
-4.801071
-5.583483
-6.181767
-6.474634
-6.328221
-5.672307
-4.548212
-3.077592
-1.403108
0.337412
2.015085
3.525547
4.813603
5.873125
6.716981
7.354533
7.784887
7.994937
7.977232
7.757748
7.393600
6.945238
6.456331
5.943871
5.399739
4.805310
4.137387
3.364942
2.455912
1.390797
0.172747
-1.164365
-2.558827
-3.942876
-5.270920
-6.535058
-7.731649
-8.815587
-9.737170
-10.489665
-11.073088
-11.462014
-11.627120
-11.555924
-11.250071
-10.717376
-9.982412
-9.098851
-8.131864
-7.129491
-6.113282
-5.081805
-4.022880
-2.940006
-1.863971
-0.838024
0.088435
0.861422
1.445644
1.845350
2.093713
2.228775
2.288389
2.322818
2.393724
2.548233
2.795834
3.116657
3.487556
3.889347
4.295429
4.670440
4.983765
5.220000
5.381453
5.490942
5.582106
5.667626
5.722622
5.712577
5.636858
5.538504
5.463214
5.412692
5.353924
5.273897
5.208030
5.199771
5.241790
5.300862
5.413661
5.702549
6.258776
7.036477
7.888159
8.672872
9.293136
9.668849
9.737335
9.474789
8.897801
8.052085
7.002450
5.838774
4.683721
3.630480
2.652533
1.628680
0.461724
-0.850385
-2.238998
-3.624779
-4.938323
-6.100618
-7.020525
-7.631097
-7.929619
-7.979724
-7.866581
-7.643441
-7.327558
-6.936072
-6.494889
-6.020774
-5.524228
-5.022520
-4.529379
-4.030135
-3.482159
-2.855022
-2.156022
-1.403809
-0.603302
0.240176
1.095771
1.894398
2.551604
3.023326
3.321615
3.476425
3.510949
3.438427
3.261056
2.979228
2.608152
2.183523
1.742837
1.312135
0.924315
0.628734
0.468585
0.460604
0.592023
0.812879
1.028472
1.127474
1.034610
0.725117
0.195775
-0.541857
-1.437523
-2.398586
-3.312902
-4.080520
-4.640126
-4.963604
-5.036174
-4.854756
-4.424170
-3.752127
-2.862479
-1.792092
-0.558186
0.842905
2.372256
3.905268
5.293641
6.446614
7.322637
7.896893
8.185820
8.270565
8.263968
8.256005
8.267225
8.230686
8.032233
7.572686
6.790990
5.654266
4.154521
2.330598
0.283659
-1.864513
-4.042975
-6.242619
-8.447804
-10.568072
-12.434015
-13.848725
-14.654278
-14.769353
-14.178951
-12.908245
-11.024136
-8.656326
-5.989400
-3.214027
-0.483325
2.082233
4.367729
6.267574
7.701218
8.608652
8.946644
8.707631
7.955669
6.836452
5.535258
4.221964
3.012788
1.951814
1.027217
0.217953
-0.468672
-0.999814
-1.336935
-1.436984
-1.264599
-0.839896
-0.265038
0.306394
0.718204
0.853903
0.677813
0.247564
-0.324539
-0.918569
-1.430314
-1.795359
-2.010593
-2.122436
-2.200681
-2.329984
-2.598876
-3.049901
-3.617028
-4.142233
-4.483916
-4.590449
-4.477451
-4.192259
-3.817208
-3.466866
-3.244881
-3.203003
-3.343541
-3.642615
-4.071563
-4.616948
-5.289312
-6.107215
-7.065254
-8.120460
-9.214647
-10.305540
-11.372183
-12.396985
-13.355256
-14.225933
-15.007282
-15.722020
-16.409504
-17.109064
-17.844578
-18.618073
-19.413393
-20.209953
-20.990879
-21.724609
-22.342926
-22.757042
-22.899483
-22.745939
-22.301903
-21.575054
-20.566011
-19.287174
-17.776415
-16.075924
-14.204148
-12.166085
-9.983769
-7.702509
-5.380786
-3.084278
-0.871385
1.234205
3.251635
5.213584
7.133420
9.000018
10.786560
12.454811
13.959304
15.252540
16.289061
17.037264
17.494532
17.689850
17.672977
17.496950
17.199291
16.793673
16.281870
15.673711
14.995930
14.291398
13.611027
12.991743
12.427220
11.862642
11.235179
10.516416
9.714392
8.859272
7.980651
7.073429
6.094186
4.997790
3.759798
2.363144
0.792158
-0.946341
-2.808845
-4.732078
-6.659899
-8.547361
-10.349773
-12.021095
-13.511572
-14.758885
-15.697139
-16.280251
-16.489260
-16.322493
-15.780914
-14.856593
-13.545555
-11.883807
-9.958634
-7.865166
-5.660229
-3.380939
-1.084896
1.169054
3.351153
5.426133
7.314557
8.923756
10.205058
11.167635
11.840683
12.230933
12.324824
12.119304
11.635515
10.920010
10.043568
9.079197
8.072429
7.041172
6.003634
4.991861
4.033462
3.134985
2.292685
1.516796
0.831170
0.230543
-0.355479
-1.034705
-1.889897
-2.951531
-4.212324
-5.645910
-7.215708
-8.875211
-10.561666
-12.190742
-13.659296
-14.864870
-15.731555
-16.213896
-16.294842
-16.003059
-15.415296
-14.624587
-13.700304
-12.665045
-11.518767
-10.294152
-9.068825
-7.921563
-6.893324
-5.993361
-5.238152
-4.676188
-4.367027
-4.339064
-4.571061
-5.007140
-5.582799
-6.245435
-6.962102
-7.707364
-8.442516
-9.112157
-9.662106
-10.054996
-10.268783
-10.290315
-10.120751
-9.785319
-9.322532
-8.758793
-8.101640
-7.353323
-6.510962
-5.545650
-4.410957
-3.102026
-1.691268
-0.283435
1.053477
2.297993
3.441279
4.475523
5.403414
6.238271
6.992290
7.672357
8.292293
8.863483
9.371015
9.794781
10.146801
10.462820
10.772506
11.096439
11.450981
11.830657
12.200922
12.518019
12.745227
12.859440
12.852361
12.725091
12.488417
12.166909
11.793310
11.398872
11.009798
10.647608
10.328819
10.063158
9.850792
9.677019
9.508211
9.298255
9.004459
8.603703
8.096995
7.495401
6.805736
6.036590
5.210403
4.360157
3.521153
2.735700
2.056398
1.531786
1.192683
1.057494
1.146177
1.483663
2.089075
2.959372
4.054167
5.293196
6.570848
7.771365
8.780018
9.505468
9.907312
9.998215
9.817645
9.410709
8.826136
8.116238
7.330684
6.510232
5.682918
4.864906
4.065404
3.288961
2.538120
1.820722
1.155929
0.576516
0.127369
-0.141931
-0.189858
0.005019
0.443185
1.110299
1.973653
2.974713
4.037674
5.086099
6.040369
6.804493
7.278592
7.391353
7.119788
6.491024
5.571629
4.450578
3.225140
1.989217
0.822068
-0.222348
-1.121382
-1.873614
-2.477006
-2.918827
-3.182102
-3.253713
-3.128385
-2.804415
-2.276744
-1.545873
-0.634596
0.408604
1.518694
2.626724
3.670450
4.596792
5.358829
5.917970
6.252052
6.365171
6.290527
6.075486
5.761785
5.375480
4.921124
4.381224
3.727269
2.934847
1.988335
0.877367
-0.399970
-1.831788
-3.395607
-5.064890
-6.811143
-8.599406
-10.384511
-12.116456
-13.749653
-15.248172
-16.587132
-17.750957
-18.727791
-19.506599
-20.077515
-20.422192
-20.504320
-20.288645
-19.776482
-19.015022
-18.069662
-16.992298
-15.818592
-14.584214
-13.326998
-12.074384
-10.838296
-9.622909
-8.437287
-7.303051
-6.248129
-5.286163
-4.396437
-3.525738
-2.612156
-1.607979
-0.490084
0.736790
2.045067
3.400196
4.773509
6.139763
7.469220
8.730824
9.904860
10.985536
11.964813
12.817600
13.510945
14.024586
14.349332
14.468425
14.358246
14.006168
13.414880
12.589741
11.533085
10.261348
8.820044
7.269215
5.663519
4.052751
2.487309
1.011603
-0.344973
-1.568426
-2.660222
-3.637979
-4.525621
-5.337770
-6.074130
-6.728216
-7.295196
-7.767475
-8.133023
-8.388441
-8.547116
-8.625833
-8.630430
-8.558498
-8.404076
-8.155918
-7.799486
-7.321130
-6.712715
-5.982478
-5.157358
-4.269787
-3.351707
-2.435190
-1.545378
-0.698730
0.092583
0.824975
1.506610
2.147943
2.747885
3.285920
3.726657
4.032876
4.177066
4.151916
3.979839
3.710407
3.401522
3.098709
2.828479
2.605036
2.435318
2.317196
2.240610
2.190295
2.146139
2.090074
2.016888
1.936458
1.871666
1.859939
1.948405
2.180693
2.591140
3.204390
4.030318
5.060023
6.263407
7.585399
8.948901
10.268050
11.465565
12.485236
13.291421
13.858924
14.167591
14.204662
13.968324
13.472708
12.748845
11.834850
10.764192
9.562299
8.253968
6.872062
5.453120
4.027155
2.618922
1.258066
-0.017879
-1.172134
-2.178412
-3.024063
-3.708485
-4.245386
-4.668756
-5.026293
-5.361083
-5.701364
-6.063935
-6.465182
-6.929942
-7.487866
-8.163554
-8.973554
-9.924852
-11.006066
-12.180406
-13.388960
-14.560889
-15.626975
-16.534960
-17.260981
-17.808365
-18.194956
-18.440372
-18.557875
-18.549246
-18.405619
-18.116226
-17.677750
-17.096216
-16.382198
-15.541927
-14.569325
-13.454961
-12.214763
-10.905490
-9.602752
-8.368100
-7.240038
-6.244987
-5.403696
-4.728907
-4.229357
-3.916742
-3.801436
-3.883876
-4.151143
-4.576080
-5.118480
-5.729239
-6.356694
-6.958744
-7.517652
-8.041493
-8.550558
-9.062838
-9.584923
-10.111653
-10.632762
-11.137926
-11.619183
-12.071194
-12.486761
-12.853749
-13.163847
-13.425017
-13.659101
-13.883803
-14.095019
-14.269769
-14.388943
-14.449735
-14.457119
-14.415672
-14.328594
-14.193130
-13.997205
-13.724519
-13.357957
-12.879156
-12.269940
-11.512925
-10.593767
-9.505391
-8.246730
-6.822489
-5.254740
-3.590518
-1.886339
-0.186329
1.483218
3.102922
4.646954
6.083745
7.385440
8.531040
9.507647
10.315298
10.971558
11.512857
11.989156
12.451267
12.935355
13.451911
13.989597
14.536976
15.099770
15.690879
16.314051
16.966387
17.641043
18.317572
18.958927
19.524492
19.985420
20.325584
20.536098
20.623055
20.616693
20.559441
20.485708
20.419184
20.381746
20.394564
20.474119
20.633163
20.882172
21.227678
21.670290
22.200144
22.795326
23.429090
24.072226
24.688454
25.237001
25.679375
25.982334
26.121967
26.089640
25.890396
25.533724
25.028246
24.382364
23.604561
22.705235
21.700666
20.610897
19.453419
18.241665
16.988949
15.713652
14.437297
13.174647
11.932077
10.716569
9.537708
8.400958
7.305369
6.248841
5.235378
4.277531
3.391190
2.590351
1.888476
1.299403
0.832611
0.489168
0.259288
0.120073
0.041601
-0.000934
-0.025904
-0.053770
-0.106335
-0.197012
-0.328884
-0.502845
-0.723930
-0.996865
-1.317454
-1.670349
-2.032531
-2.382236
-2.710367
-3.022679
-3.331532
-3.649888
-3.992026
-4.370257
-4.787193
-5.236397
-5.708648
-6.191260
-6.660478
-7.077718
-7.399426
-7.594390
-7.651434
-7.573821
-7.371930
-7.062873
-6.672445
-6.230532
-5.763750
-5.294619
-4.844841
-4.433748
-4.069070
-3.743483
-3.448112
-3.182513
-2.947309
-2.735409
-2.528799
-2.302589
-2.036646
-1.722925
-1.366973
-0.985257
-0.598427
-0.229163
0.097312
0.352668
0.501094
0.502234
0.328473
-0.018092
-0.503001
-1.069931
-1.655946
-2.207452
-2.694032
-3.111386
-3.473479
-3.804220
-4.129871
-4.469318
-4.825492
-5.183615
-5.519433
-5.811031
-6.045350
-6.218083
-6.327874
-6.369299
-6.331006
-6.199740
-5.967813
-5.635945
-5.211092
-4.714083
-4.188968
-3.691600
-3.270276
-2.960339
-2.786199
-2.761335
-2.888225
-3.158278
-3.551934
-4.041302
-4.594553
-5.177376
-5.749930
-6.268077
-6.691990
-6.991039
-7.142026
-7.129130
-6.949070
-6.615934
-6.157460
-5.604401
-4.983091
-4.316745
-3.631408
-2.957364
-2.322119
-1.741290
-1.216377
-0.738701
-0.292720
0.141214
0.579709
1.026789
1.473154
1.905340
2.309913
2.669058
2.958682
3.154162
3.238700
3.205456
3.051429
2.772378
2.365545
1.835049
1.194055
0.464957
-0.321568
-1.131133
-1.933318
-2.705426
-3.426082
-4.068756
-4.607531
-5.025558
-5.317169
-5.487301
-5.546761
-5.504427
-5.366250
-5.140916
-4.840490
-4.475036
-4.049816
-3.567827
-3.035484
-2.464744
-1.870270
-1.268217
-0.676771
-0.114616
0.403349
0.870505
1.291401
1.679949
2.049344
2.404813
2.747702
3.079501
3.398223
3.694635
3.957461
4.182681
4.376188
4.544608
4.680881
4.768066
4.798858
4.777950
4.706757
4.575718
4.370124
4.078609
3.694953
3.215672
2.642752
1.987575
1.266093
0.495941
-0.299575
-1.096160
-1.875828
-2.622357
-3.319279
-3.959079
-4.543044
-5.069543
-5.534110
-5.938612
-6.293278
-6.613312
-6.913654
-7.204841
-7.492098
-7.775265
-8.048446
-8.299353
-8.510609
-8.663004
-8.739406
-8.729825
-8.633554
-8.456505
-8.206538
-7.889717
-7.511925
-7.084549
-6.625647
-6.156245
-5.699937
-5.282668
-4.925856
-4.640636
-4.428571
-4.282496
-4.185579
-4.115970
-4.059414
-4.015923
-3.992617
-3.993779
-4.015120
-4.041276
-4.049658
-4.022940
-3.957067
-3.849352
-3.683535
-3.439231
-3.116412
-2.744572
-2.367847
-2.024816
-1.738772
-1.514947
-1.342033
-1.200493
-1.071716
-0.943498
-0.813336
-0.686526
-0.567679
-0.451840
-0.321381
-0.152473
0.072834
0.364674
0.731863
1.174137
1.672427
2.200419
2.731295
3.233590
3.683873
4.075491
4.408310
4.684992
4.912131
5.098910
5.260421
5.416978
5.583826
5.761391
5.935966
6.090326
6.212108
6.292238
6.321119
6.292995
6.212168
6.087588
5.924765
5.728622
5.507249
5.268138
5.015580
4.753077
4.485295
4.216487
3.945077
3.661306
3.352997
3.009166
2.620781
2.184103
1.698988
1.163295
0.570521
-0.086591
-0.805990
-1.569830
-2.349532
-3.117730
-3.856133
-4.552381
-5.190408
-5.744796
-6.185058
-6.484180
-6.625964
-6.608988
-6.441336
-6.133529
-5.699464
-5.159403
-4.539827
-3.869404
-3.175847
-2.488734
-1.840279
-1.260832
-0.774968
-0.397802
-0.132290
0.030313
0.109680
0.137318
0.152365
0.188128
0.268381
0.419882
0.671442
1.036301
1.514300
2.116419
2.869948
3.789014
4.847644
5.995512
7.197747
8.438817
9.691838
10.908705
12.035520
13.025345
13.845867
14.482529
14.932153
15.192457
15.258220
15.128871
14.817543
14.348065
13.742146
13.008369
12.141136
11.129497
9.967528
8.664659
7.257705
5.810265
4.392183
3.056946
1.835524
0.749560
-0.174513
-0.910171
-1.444642
-1.782464
-1.936891
-1.921491
-1.754228
-1.467376
-1.105748
-0.716134
-0.340928
-0.013244
0.247402
0.434692
0.553290
0.613817
0.627191
0.604159
0.556967
0.498032
0.432579
0.354009
0.252397
0.125681
-0.018517
-0.168543
-0.314335
-0.448290
-0.564007
-0.656986
-0.726176
-0.772921
-0.797774
-0.797781
-0.767082
-0.701275
-0.599203
-0.460488
-0.283690
-0.068567
0.178529
0.444472
0.716927
0.990206
1.263408
1.532762
1.784368
1.994648
2.138741
2.197247
2.158045
2.019199
1.789036
1.479180
1.099674
0.659809
0.170626
-0.353266
-0.898197
-1.457762
-2.028232
-2.602444
-3.174508
-3.743624
-4.309912
-4.871243
-5.424335
-5.965653
-6.490227
-6.990707
-7.457970
-7.883593
-8.264995
-8.608377
-8.924989
-9.226030
-9.520874
-9.817564
-10.122844
-10.438055
-10.753069
-11.046528
-11.293807
-11.473287
-11.564408
-11.542514
-11.378981
-11.048827
-10.538946
-9.849873
-8.994208
-7.994704
-6.879785
-5.681905
-4.441737
-3.207249
-2.023887
-0.926722
0.059451
0.916198
1.629201
2.190020
2.599630
2.870226
3.022762
3.080166
3.061942
2.982947
2.854640
2.688567
2.498870
2.299750
2.100143
1.902977
1.709465
1.521609
1.342525
1.175496
1.021400
0.878327
0.743263
0.612359
0.480694
0.344418
0.203009
0.058614
-0.084804
-0.222108
-0.347678
-0.453921
-0.529575
-0.558597
-0.521637
-0.402150
-0.189465
0.123250
0.538323
1.048284
1.633548
2.269002
2.930880
3.595953
4.238711
4.831019
5.343042
5.746015
6.015307
6.130037
6.076051
5.857539
5.501485
5.043768
4.512995
3.929457
3.312548
2.682452
2.056669
1.447208
0.860479
