EVENT_NAME: L_AQUILA
EVENT_ID: IT-2009-0009
EVENT_DATE_YYYYMMDD: 20090406
EVENT_TIME_HHMMSS: 013240
EVENT_LATITUDE_DEGREE: 42.3420
EVENT_LONGITUDE_DEGREE: 13.3800
EVENT_DEPTH_KM: 8.3
HYPOCENTER_REFERENCE: INGV-CNT_Seismic_Bulletin
MAGNITUDE_W: 6.1
MAGNITUDE_W_REFERENCE: INGV-CNT_Seismic_Bulletin
MAGNITUDE_L: 
MAGNITUDE_L_REFERENCE: 
FOCAL_MECHANISM: Normal faulting
NETWORK: IT
STATION_CODE: AVZ
STATION_NAME: 
STATION_LATITUDE_DEGREE: 42.027458
STATION_LONGITUDE_DEGREE: 13.425929
STATION_ELEVATION_M: 746
LOCATION: 
SENSOR_DEPTH_M: 0.0
VS30_M/S: 199
SITE_CLASSIFICATION_EC8: C
MORPHOLOGIC_CLASSIFICATION: 
EPICENTRAL_DISTANCE_KM: 35.1
EARTHQUAKE_BACKAZIMUTH_DEGREE: 173.8
DATE_TIME_FIRST_SAMPLE_YYYYMMDD_HHMMSS: 
DATE_TIME_FIRST_SAMPLE_PRECISION: 
SAMPLING_INTERVAL_S: 
NDATA: 105
DURATION_S: 
STREAM: HNE
UNITS: cm/s^2
INSTRUMENT: sensor = FBA-3 [Kinemetrics] | digitizer = Everest [Kinemetrics]
INSTRUMENT_ANALOG/DIGITAL: D
INSTRUMENTAL_FREQUENCY_HZ: 212.000
INSTRUMENTAL_DAMPING: 0.700000
FULL_SCALE_G: 1.0
N_BIT_DIGITAL_CONVERTER: 24
PGA_CM/S^2: -54.873023
TIME_PGA_S: 
BASELINE_CORRECTION: BASELINE REMOVED
FILTER_TYPE: BUTTERWORTH
FILTER_ORDER: 2
LOW_CUT_FREQUENCY_HZ: 0.050
HIGH_CUT_FREQUENCY_HZ: 40.000
LATE/NORMAL_TRIGGERED: NT
DATABASE_VERSION: 0.5
HEADER_FORMAT: DYNA 1.2
DATA_TYPE: ACCELERATION RESPONSE SPECTRUM
PROCESSING: manual (Paolucci et al., 2011)
DATA_TIMESTAMP_YYYYMMDD_HHMMSS: 20211011_160013.708
DATA_LICENSE: CC-BY3_0-IT (http://creativecommons.org/licenses/by/3.0/deed.en)
DATA_CITATION: Luzi L, Pacor F, Puglia R (2019). Italian Accelerometric Archive v 3.0 - Istituto Nazionale di Geofisica e Vulcanologia, Dipartimento della Protezione Civile Nazionale. doi: 10.13127/itaca.3.1
DATA_CREATOR: ITACA working group
ORIGINAL_DATA_MEDIATOR_CITATION: data obtained within the DPC-INGV data exchange agreements
ORIGINAL_DATA_MEDIATOR: Archive of Italian Department of Civil Protection
ORIGINAL_DATA_CREATOR_CITATION: Presidency Of Counsil Of Ministers-Civil Protection Department. (1972). Italian Strong Motion Network. Presidency of Counsil of Ministers - Civil Protection Department. https://doi.org/10.7914/SN/IT http://www.fdsn.org/networks/detail/IT/
ORIGINAL_DATA_CREATOR: network: IT (Italian Strong Motion Network (RAN)); owner: Presidency of Counsil of Ministers - Civil Protection Department (PCM - DPC)
USER1: 
USER2: 
USER3: 
USER4: 
USER5: 
    0.010000    54.916889
    0.020000    55.026260
    0.022000    55.122532
    0.025000    55.233849
    0.029000    55.619179
    0.030000    55.775902
    0.032000    55.694817
    0.035001    56.417751
    0.036000    56.449612
    0.040000    55.906315
    0.041999    56.431664
    0.044001    57.431091
    0.045000    57.716827
    0.046000    57.790764
    0.048001    57.908440
    0.050000    58.434196
    0.054999    56.812206
    0.059999    59.971386
    0.064998    65.289505
    0.067002    66.919510
    0.069999    67.657631
    0.075002    68.252060
    0.080000    72.632027
    0.084998    65.736603
    0.090001    62.164150
    0.095003    62.805851
    0.100000    60.801266
    0.109999    72.842514
    0.120005    90.802460
    0.130005    91.669464
    0.132996    89.219162
    0.139997    83.930649
    0.149993   116.803085
    0.160000   130.566895
    0.170010   159.493790
    0.179986   163.635727
    0.190006   154.565460
    0.200000   148.736664
    0.220022    99.125122
    0.239981   135.776108
    0.250000   140.833740
    0.260010   128.969727
    0.280034   117.199249
    0.290023   129.342224
    0.300030   147.218384
    0.320000   149.673584
    0.340020   126.280350
    0.350017   107.066505
    0.359971    98.680122
    0.379939   107.138397
    0.400000    94.577583
    0.419992   110.985718
    0.439947   124.296722
    0.450045   124.067795
    0.459982   124.196053
    0.480077   129.719315
    0.500000   120.890762
    0.550055   107.163803
    0.599880   115.329964
    0.650195   119.271317
    0.667111   128.866577
    0.699790   144.380310
    0.750188   122.400642
    0.800000    88.086884
    0.850340    84.203033
    0.900090    86.089073
    0.949668    93.701309
    1.000000    93.811317
    1.100110    98.303001
    1.200480   138.946579
    1.300390   176.717880
    1.400560   171.672058
    1.499250   146.589188
    1.600000   125.571861
    1.700680   105.383202
    1.798561    85.087715
    1.901141    67.534653
    2.000000    53.524723
    2.197802    41.302261
    2.398082    42.343124
    2.500000    42.327263
    2.597403    41.292770
    2.801121    39.836372
    3.003003    34.546272
    3.205128    24.008718
    3.401361    16.310846
    3.496503    14.994564
    3.597122    13.652891
    3.802281    13.445093
    4.000000    12.966249
    4.201681    12.312243
    4.405286    11.802656
    4.608295    12.277738
    4.807692    13.023765
    5.000000    13.083797
    5.494505    11.390724
    5.988024    10.590696
    6.493506     8.945474
    6.993007     7.091914
    7.518797     5.417884
    8.000000     4.208165
    8.474576     3.685950
    9.009009     3.203232
    9.523809     2.953104
   10.000000     2.769309
