EVENT_NAME: L_AQUILA
EVENT_ID: IT-2009-0009
EVENT_DATE_YYYYMMDD: 20090406
EVENT_TIME_HHMMSS: 013240
EVENT_LATITUDE_DEGREE: 42.3420
EVENT_LONGITUDE_DEGREE: 13.3800
EVENT_DEPTH_KM: 8.3
HYPOCENTER_REFERENCE: INGV-CNT_Seismic_Bulletin
MAGNITUDE_W: 6.1
MAGNITUDE_W_REFERENCE: INGV-CNT_Seismic_Bulletin
MAGNITUDE_L: 
MAGNITUDE_L_REFERENCE: 
FOCAL_MECHANISM: Normal faulting
NETWORK: IT
STATION_CODE: AVZ
STATION_NAME: 
STATION_LATITUDE_DEGREE: 42.027458
STATION_LONGITUDE_DEGREE: 13.425929
STATION_ELEVATION_M: 746
LOCATION: 
SENSOR_DEPTH_M: 0.0
VS30_M/S: 199
SITE_CLASSIFICATION_EC8: C
MORPHOLOGIC_CLASSIFICATION: 
EPICENTRAL_DISTANCE_KM: 35.1
EARTHQUAKE_BACKAZIMUTH_DEGREE: 173.8
DATE_TIME_FIRST_SAMPLE_YYYYMMDD_HHMMSS: 
DATE_TIME_FIRST_SAMPLE_PRECISION: 
SAMPLING_INTERVAL_S: 
NDATA: 105
DURATION_S: 
STREAM: HNZ
UNITS: cm/s^2
INSTRUMENT: sensor = FBA-3 [Kinemetrics] | digitizer = Everest [Kinemetrics]
INSTRUMENT_ANALOG/DIGITAL: D
INSTRUMENTAL_FREQUENCY_HZ: 212.000
INSTRUMENTAL_DAMPING: 0.700000
FULL_SCALE_G: 1.0
N_BIT_DIGITAL_CONVERTER: 24
PGA_CM/S^2: 26.121968
TIME_PGA_S: 
BASELINE_CORRECTION: BASELINE REMOVED
FILTER_TYPE: BUTTERWORTH
FILTER_ORDER: 2
LOW_CUT_FREQUENCY_HZ: 0.050
HIGH_CUT_FREQUENCY_HZ: 40.000
LATE/NORMAL_TRIGGERED: NT
DATABASE_VERSION: 0.5
HEADER_FORMAT: DYNA 1.2
DATA_TYPE: ACCELERATION RESPONSE SPECTRUM
PROCESSING: manual (Paolucci et al., 2011)
DATA_TIMESTAMP_YYYYMMDD_HHMMSS: 20211011_160014.284
DATA_LICENSE: CC-BY3_0-IT (http://creativecommons.org/licenses/by/3.0/deed.en)
DATA_CITATION: Luzi L, Pacor F, Puglia R (2019). Italian Accelerometric Archive v 3.0 - Istituto Nazionale di Geofisica e Vulcanologia, Dipartimento della Protezione Civile Nazionale. doi: 10.13127/itaca.3.1
DATA_CREATOR: ITACA working group
ORIGINAL_DATA_MEDIATOR_CITATION: data obtained within the DPC-INGV data exchange agreements
ORIGINAL_DATA_MEDIATOR: Archive of Italian Department of Civil Protection
ORIGINAL_DATA_CREATOR_CITATION: Presidency Of Counsil Of Ministers-Civil Protection Department. (1972). Italian Strong Motion Network. Presidency of Counsil of Ministers - Civil Protection Department. https://doi.org/10.7914/SN/IT http://www.fdsn.org/networks/detail/IT/
ORIGINAL_DATA_CREATOR: network: IT (Italian Strong Motion Network (RAN)); owner: Presidency of Counsil of Ministers - Civil Protection Department (PCM - DPC)
USER1: 
USER2: 
USER3: 
USER4: 
USER5: 
    0.010000    26.135471
    0.020000    26.192350
    0.022000    26.221077
    0.025000    26.268293
    0.029000    26.379200
    0.030000    26.334269
    0.032000    26.331715
    0.035001    26.559462
    0.036000    26.931709
    0.040000    28.297899
    0.041999    29.496801
    0.044001    30.189768
    0.045000    30.252802
    0.046000    30.423372
    0.048001    31.183125
    0.050000    30.144707
    0.054999    32.005142
    0.059999    34.446331
    0.064998    41.589985
    0.067002    48.148418
    0.069999    55.158516
    0.075002    50.217308
    0.080000    55.245163
    0.084998    53.038006
    0.090001    55.331387
    0.095003    53.610397
    0.100000    47.973316
    0.109999    63.415024
    0.120005    81.675453
    0.130005    77.441353
    0.132996    79.735191
    0.139997    78.426109
    0.149993    69.827965
    0.160000    73.459953
    0.170010    81.415443
    0.179986    75.288429
    0.190006    83.840866
    0.200000    78.175835
    0.220022    63.055561
    0.239981    67.142952
    0.250000    73.118805
    0.260010    75.223923
    0.280034    75.778503
    0.290023    77.254478
    0.300030    76.138664
    0.320000    66.494057
    0.340020    63.536785
    0.350017    68.620705
    0.359971    75.121407
    0.379939    90.878380
    0.400000    92.471329
    0.419992    84.809799
    0.439947    76.198456
    0.450045    71.052460
    0.459982    63.546879
    0.480077    49.147495
    0.500000    48.333408
    0.550055    77.024490
    0.599880   102.897682
    0.650195    99.420311
    0.667111    93.864258
    0.699790    76.026047
    0.750188    53.764385
    0.800000    63.810966
    0.850340    76.366722
    0.900090    70.007095
    0.949668    57.450974
    1.000000    51.137436
    1.100110    35.908585
    1.200480    34.087208
    1.300390    28.461098
    1.400560    32.823017
    1.499250    28.167618
    1.600000    23.766825
    1.700680    26.077457
    1.798561    25.685778
    1.901141    23.711813
    2.000000    25.760725
    2.197802    28.372835
    2.398082    23.436468
    2.500000    19.152250
    2.597403    15.899169
    2.801121    11.761591
    3.003003    10.776511
    3.205128     9.870062
    3.401361     9.072126
    3.496503     9.219523
    3.597122     9.509431
    3.802281     9.237543
    4.000000     8.108804
    4.201681     6.861067
    4.405286     6.222791
    4.608295     6.022781
    4.807692     5.633717
    5.000000     5.115431
    5.494505     3.883539
    5.988024     2.873694
    6.493506     2.190008
    6.993007     1.767155
    7.518797     1.654825
    8.000000     1.637273
    8.474576     1.569972
    9.009009     1.460781
    9.523809     1.319304
   10.000000     1.159287
