EVENT_NAME: L_AQUILA
EVENT_ID: IT-2009-0009
EVENT_DATE_YYYYMMDD: 20090406
EVENT_TIME_HHMMSS: 013240
EVENT_LATITUDE_DEGREE: 42.3420
EVENT_LONGITUDE_DEGREE: 13.3800
EVENT_DEPTH_KM: 8.3
HYPOCENTER_REFERENCE: INGV-CNT_Seismic_Bulletin
MAGNITUDE_W: 6.1
MAGNITUDE_W_REFERENCE: INGV-CNT_Seismic_Bulletin
MAGNITUDE_L: 
MAGNITUDE_L_REFERENCE: 
FOCAL_MECHANISM: Normal faulting
NETWORK: IT
STATION_CODE: AVZ
STATION_NAME: 
STATION_LATITUDE_DEGREE: 42.027458
STATION_LONGITUDE_DEGREE: 13.425929
STATION_ELEVATION_M: 746
LOCATION: 
SENSOR_DEPTH_M: 0.0
VS30_M/S: 199
SITE_CLASSIFICATION_EC8: C
MORPHOLOGIC_CLASSIFICATION: 
EPICENTRAL_DISTANCE_KM: 35.1
EARTHQUAKE_BACKAZIMUTH_DEGREE: 173.8
DATE_TIME_FIRST_SAMPLE_YYYYMMDD_HHMMSS: 20090406_013219.000
DATE_TIME_FIRST_SAMPLE_PRECISION: seconds
SAMPLING_INTERVAL_S: 0.005000
NDATA: 27800
DURATION_S: 139.000
STREAM: HNE
UNITS: cm/s^2
INSTRUMENT: sensor = FBA-3 [Kinemetrics] | digitizer = Everest [Kinemetrics]
INSTRUMENT_ANALOG/DIGITAL: D
INSTRUMENTAL_FREQUENCY_HZ: 212.000
INSTRUMENTAL_DAMPING: 0.700000
FULL_SCALE_G: 1.0
N_BIT_DIGITAL_CONVERTER: 24
PGA_CM/S^2: -54.801609
TIME_PGA_S: 40.175000
BASELINE_CORRECTION: BASELINE NOT REMOVED
FILTER_TYPE: 
FILTER_ORDER: 
LOW_CUT_FREQUENCY_HZ: 
HIGH_CUT_FREQUENCY_HZ: 
LATE/NORMAL_TRIGGERED: NT
DATABASE_VERSION: 0.5
HEADER_FORMAT: DYNA 1.2
DATA_TYPE: ACCELERATION
PROCESSING: converted to cm/s^2
DATA_TIMESTAMP_YYYYMMDD_HHMMSS: 20211011_160011.923
DATA_LICENSE: CC-BY3_0-IT (http://creativecommons.org/licenses/by/3.0/deed.en)
DATA_CITATION: Luzi L, Pacor F, Puglia R (2019). Italian Accelerometric Archive v 3.0 - Istituto Nazionale di Geofisica e Vulcanologia, Dipartimento della Protezione Civile Nazionale. doi: 10.13127/itaca.3.1
DATA_CREATOR: ITACA working group
ORIGINAL_DATA_MEDIATOR_CITATION: data obtained within the DPC-INGV data exchange agreements
ORIGINAL_DATA_MEDIATOR: Archive of Italian Department of Civil Protection
ORIGINAL_DATA_CREATOR_CITATION: Presidency Of Counsil Of Ministers-Civil Protection Department. (1972). Italian Strong Motion Network. Presidency of Counsil of Ministers - Civil Protection Department. https://doi.org/10.7914/SN/IT http://www.fdsn.org/networks/detail/IT/
ORIGINAL_DATA_CREATOR: network: IT (Italian Strong Motion Network (RAN)); owner: Presidency of Counsil of Ministers - Civil Protection Department (PCM - DPC)
USER1: 
USER2: 
USER3: 
USER4: 
USER5: 
[...]
-1.819873
-1.314205
-0.953432
-0.824326
-0.909578
-1.122300
-1.382969
-1.577564
-1.664337
-1.730059
-1.755904
-1.707489
-1.569027
-1.361451
-1.161242
-0.999625
-0.969571
-1.078680
-1.265790
-1.535698
-1.845834
-2.053761
-2.001019
-1.745028
-1.376303
-0.859058
-0.224051
0.444403
1.029593
1.405452
1.501112
1.293068
0.874057
0.405812
-0.046763
-0.450923
-0.829939
-1.242285
-1.632528
-1.972602
-2.236311
-2.419563
-2.536040
-2.509610
-2.368224
-2.121121
-1.801045
-1.545638
-1.378174
-1.289296
-1.176094
-0.907941
-0.418061
0.388738
1.497370
2.809017
4.218196
5.645969
6.980187
8.055256
8.803466
9.230546
9.379066
9.286797
9.116058
9.023672
8.924503
8.812353
8.630155
8.161325
7.241441
5.885822
4.296198
2.563551
0.805995
-0.877535
-2.493004
-4.009187
-5.445380
-6.750245
-7.952199
-9.130880
-10.191100
-11.004800
-11.464620
-11.558290
-11.367670
-10.958250
-10.432120
-9.849035
-9.133921
-8.304201
-7.443257
-6.521969
-5.523265
-4.485852
-3.514863
-2.702101
-2.040430
-1.497223
-1.010150
-0.522726
0.020012
0.545443
0.835699
0.835699
0.590700
0.099184
-0.620960
-1.447405
-2.147434
-2.551944
-2.557674
-2.137376
-1.368000
-0.343100
0.842248
2.090979
3.187566
3.953551
4.445068
4.793913
5.077503
5.324372
5.563641
5.773556
5.879039
5.816240
5.606091
5.203920
4.663403
4.226733
3.921391
3.659553
3.253757
2.610563
1.707168
0.508255
-0.767140
-1.989325
-3.041941
-3.810966
-4.189632
-4.120284
-3.758809
-3.155493
-2.446811
-1.755436
-1.062892
-0.387773
0.163386
0.366518
0.243727
-0.003143
-0.216683
-0.258198
0.007148
0.615610
1.438664
2.419593
3.515595
4.624344
5.623633
6.434291
7.033163
7.375459
7.578006
7.769912
7.852826
7.678462
7.314063
6.858448
6.318984
5.873543
5.571125
5.301101
5.087911
5.012482
5.173047
5.537562
5.976805
6.396752
6.697416
6.790737
6.641750
6.249987
5.583872
4.678489
3.681890
2.776039
2.021982
1.333648
0.678526
0.019194
-0.682005
-1.412205
-2.162052
-2.895059
-3.585030
-4.164606
-4.555551
-4.763361
-4.801602
-4.673899
-4.422819
-4.056315
-3.583276
-3.059365
-2.529374
-2.049902
-1.631943
-1.339115
-1.293506
-1.531839
-1.980203
-2.426697
-2.693330
-2.698475
-2.481660
-2.178892
-1.863376
-1.609841
-1.499094
-1.610191
-1.957984
-2.477918
-3.116785
-3.836811
-4.675887
-5.654126
-6.745216
-7.888230
-8.921082
-9.647774
-9.918617
-9.709053
-9.099188
-8.267597
-7.405835
-6.679142
-6.229492
-6.031973
-5.995018
-6.039223
-6.148098
-6.345500
-6.600205
-6.820645
-6.818540
-6.507586
-5.969291
-5.377436
-4.835165
-4.389958
-4.196883
-4.312073
-4.728395
-5.341417
-5.983675
-6.514134
-6.796672
-6.892800
-6.805910
-6.438004
-5.796213
-4.948952
-3.994452
-3.057728
-2.259232
-1.607736
-1.119493
-0.855667
-0.866660
-1.103472
-1.428694
-1.785140
-2.100071
-2.304373
-2.367172
-2.287884
-2.062883
-1.650771
-1.109085
-0.488111
0.246183
1.049590
1.787158
2.382872
2.838604
3.172597
3.443674
3.761879
4.160075
4.571251
5.000203
5.481545
6.046153
6.652158
7.185308
7.598004
7.880658
8.086831
8.205529
8.226462
8.155009
7.941118
7.629345
7.191739
6.605264
5.913304
5.214445
4.663169
4.235972
3.839063
3.379004
2.844100
2.209561
1.352827
0.296586
-0.950976
-2.330568
-3.614032
-4.600691
-5.242599
-5.665119
-5.966367
-6.204816
-6.394032
-6.539862
-6.724634
-6.959107
-7.135576
-7.123063
-6.894437
-6.468526
-5.868251
-5.153838
-4.383175
-3.556846
-2.669824
-1.804904
-1.023833
-0.379002
0.166193
0.663557
1.072511
1.443225
1.737924
1.906792
1.949360
1.757220
1.202787
0.292025
-0.747376
-1.763973
-2.653335
-3.342371
-3.903469
-4.357096
-4.767103
-5.149511
-5.576241
-6.219552
-7.086576
-8.177667
-9.374592
-10.467900
-11.294120
-11.676410
-11.626710
-11.318670
-10.961640
-10.691970
-10.609760
-10.730440
-10.955090
-11.276810
-11.558880
-11.710320
-11.855450
-12.055310
-12.331760
-12.616170
-12.866200
-13.123590
-13.457000
-13.921500
-14.409280
-14.814260
-15.079250
-15.246370
-15.436990
-15.657660
-15.862660
-15.975050
-15.924530
-15.663620
-15.115270
-14.143110
-12.680610
-10.723430
-8.268766
-5.521277
-2.591588
0.503109
3.665517
6.866283
10.026120
13.114270
15.992850
18.467510
20.530640
22.151840
23.203291
23.518801
23.120260
22.139561
20.693310
18.989321
17.157499
15.239500
13.226770
11.017340
8.631207
6.246712
3.998224
1.912054
-0.025245
-1.791455
-3.441773
-4.955617
-6.114068
-6.766383
-6.857483
-6.459638
-5.758674
-4.963686
-4.174546
-3.395814
-2.706544
-2.065222
-1.398288
-0.665048
0.183033
1.041755
1.761781
2.182547
2.215993
1.921059
1.413872
0.874174
0.460892
0.224548
0.194142
0.384177
0.810439
1.476671
2.218098
2.849597
3.236799
3.285214
2.991801
2.378896
1.582973
0.770093
0.054862
-0.481796
-0.780472
-0.752054
-0.366372
0.374938
1.330490
2.304052
3.200196
3.906540
4.424603
4.736376
4.783505
4.560142
4.086634
3.485189
2.908303
2.584367
2.589513
2.937890
3.662009
4.577683
5.502362
6.275247
6.814477
7.022404
6.819856
6.315475
5.560483
4.686324
3.883735
3.188034
2.552909
1.947722
1.380776
0.825291
0.307111
-0.165812
-0.734629
-1.549497
-2.663509
-4.040294
-5.642431
-7.412735
-9.218354
-10.939420
-12.501800
-13.818360
-14.798940
-15.406580
-15.764200
-16.107189
-16.549940
-17.120750
-17.833410
-18.632370
-19.342581
-19.689430
-19.569679
-19.061560
-18.218269
-17.176180
-16.159121
-15.286480
-14.590430
-14.069200
-13.711240
-13.441560
-13.100440
-12.695690
-12.344160
-12.140330
-12.166170
-12.404850
-12.809710
-13.297020
-13.858820
-14.552420
-15.357700
-16.332190
-17.510290
-18.878309
-20.388411
-21.862490
-23.161860
-24.166531
-24.812059
-25.096239
-24.979759
-24.495609
-23.654310
-22.533279
-21.300570
-20.000740
-18.673300
-17.366920
-16.110350
-14.872380
-13.579560
-12.244520
-10.860370
-9.441952
-8.041895
-6.718319
-5.550162
-4.468895
-3.389967
-2.329165
-1.320287
-0.499805
-0.033080
0.040828
-0.208029
-0.727613
-1.542832
-2.661170
-4.019829
-5.499526
-6.960394
-8.288764
-9.476334
-10.664250
-11.974150
-13.377130
-14.777300
-16.021360
-16.954451
-17.472521
-17.502689
-17.042160
-16.055500
-14.562130
-12.639330
-10.269800
-7.573416
-4.654135
-1.531722
1.702724
5.144395
8.831766
12.618310
16.373270
19.945221
23.226320
26.102690
28.476891
30.334669
31.703739
32.656250
33.330078
33.861240
34.269840
34.581848
34.791531
34.780190
34.488178
33.933041
33.248100
32.620811
32.148479
31.932480
31.994459
32.289860
32.789909
33.349140
33.776451
33.877140
33.518711
32.714371
31.559660
30.299820
29.224400
28.477011
28.119980
28.120560
28.344040
28.668091
29.004539
29.339001
29.665859
29.921970
30.003830
29.804560
29.334560
28.658039
27.818140
26.827160
25.673500
24.332500
22.777491
21.112671
19.482349
17.956461
16.470800
14.848320
13.014860
10.933720
8.626997
6.200285
3.694637
1.167587
-1.304499
-3.612746
-5.615534
-7.228781
-8.431787
-9.218705
-9.470720
-9.150059
-8.432606
-7.427937
-6.179790
-4.748158
-3.157598
-1.486347
0.105616
1.397850
2.248971
2.640968
2.566475
2.158807
1.553386
0.823420
0.137541
-0.440164
-0.837190
-0.937060
-0.813333
-0.672064
-0.833213
-1.616039
-3.140174
-5.206580
-7.428288
-9.565913
-11.385220
-12.560860
-12.866900
-12.162430
-10.563450
-8.388635
-5.935260
-3.551467
-1.545404
-0.051090
0.939896
1.385688
1.268276
0.758165
0.011943
-0.930862
-2.058907
-3.323659
-4.667350
-6.018641
-7.385837
-8.735141
-9.819682
-10.687990
-11.581560
-12.521560
-13.583180
-14.787830
-16.005329
-17.055611
-17.746639
-18.011749
-17.818319
-17.166830
-16.013399
-14.351270
-12.329660
-10.029600
-7.585578
-5.083321
-2.503529
0.107487
2.836148
5.703506
8.544668
11.322560
14.063970
16.655109
18.831791
20.390539
21.309139
21.524080
21.007071
19.919960
18.399210
16.486361
14.199980
11.647080
9.013381
6.517906
4.486350
3.077054
2.253532
1.926322
1.906441
2.034261
2.126179
2.049230
1.779089
1.328619
0.768807
0.174145
-0.225103
-0.194698
0.394585
1.625541
3.248611
4.921148
6.418386
7.565376
8.292185
8.503971
8.190795
7.436387
6.350559
5.018446
3.415841
1.623787
-0.307198
-2.330101
-4.302951
-6.189847
-7.868232
-9.217185
-10.303360
-11.211670
-11.993090
-12.633010
-13.057400
-13.163120
-12.855210
-12.145590
-11.075080
-9.731273
-8.357293
-7.199077
-6.497996
-6.392045
-6.738082
-7.298246
-7.758656
-7.801223
-7.273337
-6.123073
-4.396389
-2.300397
-0.118801
1.948073
3.700484
5.081479
6.126026
6.815763
7.309268
7.798563
8.490172
9.507587
10.887760
12.543340
14.292950
16.112129
17.777540
19.085911
19.953991
20.388090
20.558241
20.457430
20.044741
19.265070
18.091530
16.596399
14.901410
13.205480
11.621010
10.116750
8.622202
7.137009
5.699296
4.339468
3.081381
1.940940
0.944106
0.174028
-0.284511
-0.400286
-0.202767
0.172859
0.583567
0.909725
1.067950
1.095900
1.099642
1.155308
1.306517
1.597942
2.036717
2.604014
3.393622
4.518860
6.015981
8.008127
10.539740
13.370960
16.152361
18.580360
20.423401
21.516010
21.780190
21.311359
20.269739
18.825830
17.315729
16.100559
15.486010
15.589390
16.201830
17.087799
18.015989
18.741039
19.192450
19.469839
19.672970
19.757410
19.762430
19.798691
19.882650
20.073389
20.262369
20.262840
20.010361
19.463169
18.694969
17.757420
16.751120
15.834980
15.040570
14.293530
13.453170
12.560890
11.727420
11.029150
10.580900
10.403030
10.482320
10.819820
11.442550
12.337060
13.444400
14.692660
15.939520
17.071430
17.986050
18.582230
18.816469
18.734030
18.377701
17.761869
17.022430
16.226271
15.295280
14.085140
12.515750
10.613410
8.355920
5.877987
3.333746
0.800732
-1.510087
-3.433002
-5.003564
-6.299307
-7.335317
-8.229239
-9.010194
-9.655609
-10.172970
-10.483460
-10.624490
-10.687760
-10.909020
-11.485440
-12.456890
-13.931800
-15.880320
-18.245991
-20.877119
-23.490351
-25.981850
-28.245661
-30.182730
-31.837370
-33.347939
-34.937099
-36.706120
-38.631840
-40.639309
-42.544090
-44.091621
-45.018990
-45.230301
-44.655521
-43.263180
-41.180759
-38.442150
-35.124561
-31.376030
-27.435940
-23.534439
-19.620199
-15.720810
-12.036950
-8.720172
-5.968121
-3.950949
-2.670876
-2.177956
-2.427983
-3.184847
-4.249391
-5.662078
-7.420687
-9.187716
-10.987490
-12.884210
-14.846530
-17.025440
-19.275681
-21.428391
-23.311781
-24.756399
-25.749950
-26.284740
-26.313860
-26.024771
-25.543900
-24.636181
-23.483339
-22.371429
-21.227949
-19.962500
-18.724409
-17.731079
-16.901011
-16.217239
-15.789810
-15.678480
-15.788290
-15.931190
-16.145321
-16.474051
-16.743019
-16.796700
-16.650400
-16.370199
-15.998080
-15.539430
-15.032590
-14.488100
-13.862920
-13.192590
-12.479460
-11.750900
-11.034500
-10.266990
-9.490133
-8.675616
-7.742283
-6.832223
-5.976424
-5.107762
-4.241205
-3.259106
-2.146381
-1.019506
0.080239
1.089000
1.990290
2.788552
3.485774
4.111426
4.580139
4.816717
4.786896
4.426591
3.771586
2.867373
1.781778
0.703318
-0.151428
-0.682706
-0.816373
-0.415605
0.334593
1.221615
2.228973
3.146168
3.851108
4.348706
4.652878
4.785025
4.772980
4.751696
4.756958
4.810519
4.925476
5.061248
5.166615
5.146149
5.017861
4.747486
4.293391
3.730655
3.104652
2.482626
1.923047
1.496200
1.289443
1.328502
1.688340
2.406027
3.350469
4.427059
5.594631
6.835410
8.193835
9.556119
10.816780
12.097320
13.510830
15.045600
16.646799
18.388109
20.331949
22.395550
24.508499
26.568119
28.476070
30.140421
31.441429
32.258289
32.623619
32.672619
32.342602
31.744080
31.074459
30.346710
29.575701
28.825970
28.240660
27.756399
27.355860
27.105021
26.905510
26.586720
25.998840
25.216249
24.032301
22.281179
20.047779
17.330931
14.284060
10.794790
6.995507
3.388359
0.331552
-1.990144
-3.897505
-5.521511
-6.753870
-7.655043
-8.236257
-8.553059
-8.630359
-8.512128
-8.182930
-7.477638
-6.280714
-4.606305
-2.403308
0.245715
3.035772
5.986979
9.140616
12.315070
15.221370
17.583410
19.348450
20.374399
20.623381
20.159109
18.912600
17.079149
14.924450
12.626380
10.403970
8.370187
6.627834
5.191056
4.012491
3.134824
2.506131
2.048177
1.820253
1.975087
2.588109
3.642947
5.112820
6.911658
8.919357
11.110070
13.545790
16.147570
18.794840
21.467010
24.138611
26.682261
28.908770
30.698481
31.962530
32.715069
32.988251
32.876801
32.550991
32.002880
31.202391
30.098909
28.756620
27.301371
25.650110
23.772570
21.726160
19.575439
17.232229
14.754180
12.446520
10.218840
7.981347
5.681988
3.188735
0.807048
-1.151068
-2.620006
-3.725480
-4.425041
-4.447845
-3.689578
-1.863844
1.006905
4.531256
8.434624
12.301740
15.743060
18.463770
20.345169
21.389601
21.612030
21.020870
19.725010
17.981251
15.694060
12.796530
9.488292
5.857522
1.950529
-2.237013
-6.804039
-11.803640
-17.073620
-22.484520
-27.976460
-33.398930
-38.543659
-43.226810
-47.359039
-50.734169
-53.082878
-54.340729
-54.801609
-54.724781
-54.222271
-53.261688
-51.811340
-50.367901
-49.088760
-47.819099
-46.496571
-45.098511
-43.874451
-42.896679
-42.228458
-41.890961
-41.774601
-41.626080
-41.264019
-40.809341
-40.261459
-39.741291
-39.449631
-39.396889
-39.390919
-39.395130
-39.556870
-39.875542
-40.259472
-40.451962
-40.383900
-40.044529
-39.387760
-38.406719
-37.116360
-35.595379
-33.621941
-31.158979
-28.295830
-25.147921
-21.847401
-18.422810
-15.241570
-12.316680
-9.536911
-7.004248
-4.642323
-2.559078
-0.861514
0.414699
1.161973
1.306867
0.880956
-0.063837
-1.649953
-3.882069
-6.436132
-9.050305
-11.573730
-13.768660
-15.461660
-16.623850
-17.271259
-17.357330
-16.976681
-16.338511
-15.525280
-14.677080
-13.863380
-13.039160
-12.249670
-11.489300
-10.827860
-10.425220
-10.321610
-10.464630
-10.663790
-10.781780
-10.797570
-10.675360
-10.444750
-10.127010
-9.719578
-9.252619
-8.795367
-8.370625
-7.880629
-7.257315
-6.439758
-5.367145
-4.068712
-2.485754
-0.570323
1.654777
4.215858
7.038308
10.049270
13.143150
16.170370
19.065680
21.712950
23.989620
25.794889
27.098000
27.957069
28.452570
28.701420
28.805149
28.932510
29.211889
29.501789
29.806200
30.162531
30.239830
30.002899
29.539801
28.747971
27.753590
26.646601
25.565331
24.727770
24.160240
23.893141
24.030081
24.585569
25.387569
26.318220
27.205351
27.837669
28.327551
28.564251
28.352110
27.879770
27.070990
25.927620
24.648840
23.267960
21.981340
20.715179
19.344120
17.986870
16.540380
14.821770
12.918150
10.951500
8.879363
6.927679
5.185560
3.551263
2.129454
0.942352
0.088425
-0.455483
-0.729133
-0.570440
-0.070737
0.702850
1.785404
3.154120
4.719654
6.341320
7.978540
9.521036
10.898990
12.079900
13.028550
13.793710
14.380540
14.825050
15.217630
15.642250
16.165581
16.778830
17.400280
18.043699
18.672279
19.154671
19.430429
19.448441
19.232330
18.751801
17.974001
16.987000
15.889000
14.803060
13.770320
12.824830
12.057320
11.495060
11.135330
10.992310
11.062830
11.305610
11.716900
12.233910
12.743550
13.177420
13.444520
13.512580
13.364180
13.008900
12.546270
12.088200
11.736430
11.597150
11.799930
12.430260
13.509070
14.972630
16.717211
18.614981
20.524561
22.399879
24.197781
25.852659
27.358320
28.708210
29.965940
31.232679
32.477909
33.722080
34.936661
35.979099
36.807541
37.352501
37.638309
37.672569
37.301510
36.571781
35.521381
34.068119
32.178299
29.761410
26.888550
23.661470
20.125200
16.431860
12.652220
8.866382
5.101593
1.383817
-2.204269
-5.677982
-9.038260
-12.332000
-15.492300
-18.407370
-21.093700
-23.430250
-25.267441
-26.537809
-27.241341
-27.458630
-27.257481
-26.760941
-26.155979
-25.598280
-25.166401
-24.873100
-24.719561
-24.652430
-24.615009
-24.620741
-24.667280
-24.741079
-24.845619
-24.977301
-25.175989
-25.490219
-25.879530
-26.300289
-26.765850
-27.225559
-27.600950
-27.900560
-28.117960
-28.233150
-28.266951
-28.154329
-27.853901
-27.403660
-26.753920
-25.881050
-24.914499
-24.022341
-23.287809
-22.839560
-22.864700
-23.370489
-24.367319
-25.890289
-27.749350
-29.851311
-32.182590
-34.595390
-37.082088
-39.656151
-42.204948
-44.592251
-46.700062
-48.459141
-49.744820
-50.518059
-50.869591
-50.853222
-50.578522
-50.164768
-49.714882
-49.338211
-49.006439
-48.620399
-48.114151
-47.457390
-46.661350
-45.739128
-44.729309
-43.683128
-42.592159
-41.476509
-40.409389
-39.437229
-38.580502
-37.876732
-37.417370
-37.264408
-37.446609
-37.928181
-38.655109
-39.594292
-40.592060
-41.532879
-42.367390
-43.015141
-43.410530
-43.559750
-43.452400
-42.981461
-42.051411
-40.862080
-39.565521
-37.829830
-35.876511
-33.997570
-31.914671
-29.649811
-27.241341
-24.706930
-21.994520
-19.077339
-16.104971
-13.095180
-10.176950
-7.468517
-5.016779
-2.886522
-1.118791
0.228290
1.130866
1.629985
1.762249
1.537248
1.045029
0.344767
-0.541320
-1.569612
-2.710871
-3.934927
-5.241663
-6.572489
-7.865660
-9.126787
-10.354700
-11.542040
-12.631020
-13.594530
-14.394080
-14.942310
-15.279340
-15.392080
-15.234910
-14.845830
-14.246840
-13.502610
-12.727970
-12.076120
-11.521460
-11.052040
-10.758750
-10.460070
-10.064100
-9.622631
-9.129126
-8.630475
-8.083410
-7.488982
-6.945776
-6.433794
-6.032557
-5.889534
-5.877255
-5.766159
-5.508179
-5.168222
-4.649457
-3.874935
-2.894942
-1.551018
0.261151
2.450115
4.957167
7.748979
10.769650
13.929840
17.321920
20.936199
24.500669
27.947830
31.177370
34.033970
36.541599
38.709751
40.528820
41.983608
43.066978
43.801979
44.250111
44.389622
44.128601
43.465179
42.447411
41.070160
39.231441
36.927399
34.265171
31.337111
28.231890
25.048321
21.916550
18.932360
16.063950
13.304890
10.795030
8.533091
6.495570
4.747954
3.317140
2.278792
1.669746
1.546019
1.877790
2.685407
4.032021
5.716604
7.713194
9.997701
12.451310
15.075070
17.764441
20.512400
23.282579
26.021999
28.761881
31.444941
34.017132
36.398460
38.612801
40.609859
42.323101
43.850040
45.158878
46.332420
47.435669
48.348301
49.105282
49.666382
49.833851
49.760170
49.690472
49.521599
49.080490
48.169491
46.769199
44.992699
42.823971
40.221958
37.190529
33.914921
30.480850
26.889839
23.161190
19.266821
15.339720
11.435300
7.626304
4.120431
0.934166
-2.011895
-4.758215
-7.185512
-9.100358
-10.495390
-11.303350
-11.466020
-11.126530
-10.342770
-9.203152
-7.828121
-6.260482
-4.601744
-2.906987
-1.267545
0.227004
1.451528
2.266396
2.757562
2.937656
2.820361
