EVENT_NAME: L_AQUILA
EVENT_ID: IT-2009-0009
EVENT_DATE_YYYYMMDD: 20090406
EVENT_TIME_HHMMSS: 013240
EVENT_LATITUDE_DEGREE: 42.3420
EVENT_LONGITUDE_DEGREE: 13.3800
EVENT_DEPTH_KM: 8.3
HYPOCENTER_REFERENCE: INGV-CNT_Seismic_Bulletin
MAGNITUDE_W: 6.1
MAGNITUDE_W_REFERENCE: INGV-CNT_Seismic_Bulletin
MAGNITUDE_L: 
MAGNITUDE_L_REFERENCE: 
FOCAL_MECHANISM: Normal faulting
NETWORK: IT
STATION_CODE: AVZ
STATION_NAME: 
STATION_LATITUDE_DEGREE: 42.027458
STATION_LONGITUDE_DEGREE: 13.425929
STATION_ELEVATION_M: 746
LOCATION: 
SENSOR_DEPTH_M: 0.0
VS30_M/S: 199
SITE_CLASSIFICATION_EC8: C
MORPHOLOGIC_CLASSIFICATION: 
EPICENTRAL_DISTANCE_KM: 35.1
EARTHQUAKE_BACKAZIMUTH_DEGREE: 173.8
DATE_TIME_FIRST_SAMPLE_YYYYMMDD_HHMMSS: 20090406_013219.000
DATE_TIME_FIRST_SAMPLE_PRECISION: seconds
SAMPLING_INTERVAL_S: 0.005000
NDATA: 24000
DURATION_S: 120.000
STREAM: HNE
UNITS: cm/s
INSTRUMENT: sensor = FBA-3 [Kinemetrics] | digitizer = Everest [Kinemetrics]
INSTRUMENT_ANALOG/DIGITAL: D
INSTRUMENTAL_FREQUENCY_HZ: 212.000
INSTRUMENTAL_DAMPING: 0.700000
FULL_SCALE_G: 1.0
N_BIT_DIGITAL_CONVERTER: 24
PGV_CM/S: -10.803582
TIME_PGV_S: 42.195000
BASELINE_CORRECTION: BASELINE REMOVED
FILTER_TYPE: BUTTERWORTH
FILTER_ORDER: 2
LOW_CUT_FREQUENCY_HZ: 0.050
HIGH_CUT_FREQUENCY_HZ: 40.000
LATE/NORMAL_TRIGGERED: NT
DATABASE_VERSION: 0.5
HEADER_FORMAT: DYNA 1.2
DATA_TYPE: VELOCITY
PROCESSING: manual (Paolucci et al., 2011)
DATA_TIMESTAMP_YYYYMMDD_HHMMSS: 20211011_160012.369
DATA_LICENSE: CC-BY3_0-IT (http://creativecommons.org/licenses/by/3.0/deed.en)
DATA_CITATION: Luzi L, Pacor F, Puglia R (2019). Italian Accelerometric Archive v 3.0 - Istituto Nazionale di Geofisica e Vulcanologia, Dipartimento della Protezione Civile Nazionale. doi: 10.13127/itaca.3.1
DATA_CREATOR: ITACA working group
ORIGINAL_DATA_MEDIATOR_CITATION: data obtained within the DPC-INGV data exchange agreements
ORIGINAL_DATA_MEDIATOR: Archive of Italian Department of Civil Protection
ORIGINAL_DATA_CREATOR_CITATION: Presidency Of Counsil Of Ministers-Civil Protection Department. (1972). Italian Strong Motion Network. Presidency of Counsil of Ministers - Civil Protection Department. https://doi.org/10.7914/SN/IT http://www.fdsn.org/networks/detail/IT/
ORIGINAL_DATA_CREATOR: network: IT (Italian Strong Motion Network (RAN)); owner: Presidency of Counsil of Ministers - Civil Protection Department (PCM - DPC)
USER1: 
USER2: 
USER3: 
USER4: 
USER5: 
[...]
-0.458412
-0.493993
-0.535004
-0.581901
-0.634210
-0.690492
-0.748690
-0.806796
-0.863492
-0.918411
-0.972002
-1.025161
-1.078832
-1.133706
-1.190040
-1.247664
-1.306245
-1.365655
-1.426068
-1.487729
-1.550723
-1.615023
-1.680735
-1.748224
-1.817909
-1.889902
-1.963860
-2.039222
-2.115596
-2.192921
-2.271284
-2.350613
-2.430505
-2.510212
-2.588628
-2.664203
-2.734890
-2.798253
-2.851768
-2.893218
-2.920970
-2.933960
-2.931512
-2.913222
-2.878926
-2.828738
-2.763198
-2.683437
-2.591148
-2.488410
-2.377666
-2.261879
-2.144488
-2.028983
-1.918382
-1.814899
-1.719882
-1.634036
-1.557838
-1.491911
-1.437065
-1.393946
-1.362639
-1.342638
-1.333128
-1.333285
-1.342423
-1.359896
-1.384729
-1.415222
-1.448935
-1.483149
-1.515514
-1.544508
-1.569489
-1.590415
-1.607545
-1.621208
-1.631602
-1.638619
-1.641865
-1.640925
-1.635781
-1.627151
-1.616482
-1.605589
-1.596117
-1.589079
-1.584670
-1.582396
-1.581364
-1.580496
-1.578607
-1.574475
-1.567117
-1.556162
-1.542074
-1.526062
-1.509791
-1.495028
-1.483256
-1.475371
-1.471553
-1.471360
-1.473890
-1.477855
-1.481626
-1.483401
-1.481562
-1.475082
-1.463721
-1.447904
-1.428455
-1.406380
-1.382818
-1.359059
-1.336469
-1.316220
-1.298925
-1.284364
-1.271465
-1.258568
-1.243811
-1.225561
-1.202831
-1.175498
-1.144230
-1.110312
-1.075445
-1.041484
-1.010091
-0.982425
-0.958955
-0.939531
-0.923710
-0.911109
-0.901504
-0.894755
-0.890693
-0.889121
-0.890038
-0.893944
-0.901920
-0.915379
-0.935726
-0.964118
-1.001296
-1.047473
-1.102312
-1.164963
-1.234096
-1.308020
-1.385069
-1.464125
-1.544905
-1.627824
-1.713648
-1.803110
-1.896483
-1.993154
-2.091534
-2.189471
-2.284839
-2.376006
-2.462116
-2.543162
-2.619777
-2.692897
-2.763472
-2.832217
-2.899404
-2.964893
-3.028500
-3.090423
-3.151381
-3.212425
-3.274603
-3.338712
-3.405284
-3.474753
-3.547623
-3.624560
-3.706420
-3.794206
-3.888864
-3.990955
-4.100369
-4.216257
-4.337195
-4.461425
-4.587038
-4.712078
-4.834633
-4.953003
-5.065918
-5.172620
-5.272775
-5.366327
-5.453395
-5.534139
-5.608606
-5.676653
-5.738018
-5.792439
-5.839784
-5.880190
-5.914091
-5.942051
-5.964474
-5.981499
-5.993196
-5.999954
-6.002775
-6.003249
-6.003194
-6.004307
-6.008113
-6.016089
-6.029664
-6.049982
-6.077608
-6.112427
-6.153878
-6.201457
-6.255129
-6.315312
-6.382444
-6.456504
-6.536734
-6.621632
-6.709132
-6.796836
-6.882195
-6.962635
-7.035663
-7.098962
-7.150490
-7.188604
-7.212103
-7.220091
-7.211718
-7.186004
-7.141986
-7.079099
-6.997464
-6.897935
-6.782018
-6.651771
-6.509645
-6.358235
-6.199977
-6.036874
-5.870324
-5.701181
-5.529970
-5.357162
-5.183438
-5.009865
-4.837774
-4.668363
-4.502256
-4.339306
-4.178695
-4.019187
-3.859401
-3.698056
-3.534231
-3.367681
-3.199089
-3.030068
-2.862837
-2.699640
-2.542089
-2.390661
-2.244610
-2.102309
-1.961823
-1.821441
-1.680011
-1.536979
-1.392182
-1.245624
-1.097438
-0.948063
-0.798389
-0.649667
-0.503195
-0.360069
-0.221146
-0.087201
0.040906
0.162199
0.275795
0.381236
0.478618
0.568293
0.650347
0.724268
0.789027
0.843415
0.886371
0.917160
0.935374
0.940927
0.934152
0.915929
0.887697
0.851295
0.808809
0.762581
0.715196
0.669198
0.626706
0.589291
0.558140
0.534235
0.518334
0.510733
0.510944
0.517565
0.528495
0.541357
0.553945
0.564542
0.572047
0.575974
0.576404
0.573948
0.569696
0.564991
0.560856
0.557245
0.552560
0.543841
0.527714
0.501564
0.464226
0.416076
0.358938
0.296038
0.231751
0.170919
0.117893
0.075715
0.045712
0.027510
0.019403
0.018932
0.023344
0.029862
0.035951
0.039627
0.039500
0.034559
0.023987
0.007140
-0.016399
-0.046846
-0.084149
-0.127815
-0.176956
-0.230760
-0.288963
-0.351899
-0.420225
-0.494511
-0.574771
-0.660171
-0.749084
-0.839398
-0.928789
-1.014826
-1.095020
-1.167026
-1.228923
-1.279388
-1.317662
-1.343357
-1.356201
-1.355831
-1.341766
-1.313605
-1.271211
-1.214699
-1.144460
-1.061498
-0.967760
-0.866083
-0.759856
-0.652652
-0.547866
-0.448397
-0.356609
-0.274523
-0.203902
-0.146032
-0.101291
-0.068795
-0.046394
-0.031153
-0.020081
-0.010717
-0.001451
0.008394
0.018653
0.028579
0.037176
0.043504
0.046939
0.047499
0.046191
0.045124
0.047168
0.055167
0.071029
0.095241
0.126986
0.164548
0.205671
0.247817
0.288473
0.325455
0.357031
0.381813
0.398619
0.406459
0.404614
0.392727
0.370889
0.339704
0.300274
0.253994
0.202163
0.145739
0.085419
0.021947
-0.043576
-0.109564
-0.174055
-0.234971
-0.290463
-0.339318
-0.381382
-0.417805
-0.450853
-0.483258
-0.517295
-0.554018
-0.592914
-0.632044
-0.668538
-0.699249
-0.721417
-0.733243
-0.734176
-0.724839
-0.706680
-0.681543
-0.651313
-0.617590
-0.581318
-0.542497
-0.500174
-0.452759
-0.398541
-0.336155
-0.264826
-0.184504
-0.096019
-0.001034
0.098355
0.200173
0.302817
0.404871
0.504779
0.600722
0.690808
0.773467
0.847820
0.913762
0.971658
1.021896
1.064674
1.100094
1.128352
1.149801
1.164916
1.174289
1.178728
1.179391
1.177804
1.175652
1.174408
1.174981
1.177559
1.181708
1.186704
1.191947
1.197231
1.202775
1.209087
1.216812
1.226635
1.239357
1.256075
1.278351
1.308282
1.348367
1.400973
1.467526
1.547924
1.640476
1.742217
1.849381
1.957953
2.064202
2.165134
2.258920
2.345314
2.425832
2.503344
2.581136
2.661878
2.747001
2.836613
2.929867
3.025592
3.122816
3.220882
3.319330
3.417912
3.516694
3.616023
3.716222
3.817184
3.918148
4.017854
4.114895
4.208057
4.296558
4.380198
4.459289
4.534276
4.605312
4.672202
4.734752
4.793157
4.848142
4.900842
4.952580
5.004706
5.058584
5.115598
5.177077
5.244100
5.317305
5.396740
5.481832
5.571445
5.664029
5.757857
5.851267
5.942821
6.031451
6.116498
6.197475
6.273635
6.343712
6.406016
6.458730
6.500239
6.529400
6.545734
6.549547
6.541951
6.524619
6.499334
6.467626
6.430643
6.389189
6.343868
6.295304
6.244289
6.191766
6.138538
6.084816
6.029900
5.972222
5.909622
5.839648
5.759883
5.668333
5.563830
5.446184
5.316066
5.174743
5.023750
4.864397
4.697303
4.522228
4.338361
4.144846
3.941325
3.728392
3.507848
3.282596
3.056280
2.832860
2.616256
2.410134
2.217805
2.042060
1.884864
1.747202
1.629332
1.531185
1.452402
1.392007
1.348121
1.317937
1.297939
1.284236
1.272948
1.260662
1.244740
1.223192
1.194432
1.157321
1.111300
1.056145
0.991534
0.916855
0.831387
0.734778
0.627476
0.510825
0.386851
0.257919
0.126425
-0.005486
-0.136042
-0.263675
-0.386962
-0.504905
-0.617043
-0.723155
-0.823125
-0.917197
-1.006063
-1.090641
-1.171985
-1.251340
-1.329998
-1.408952
-1.488808
-1.569954
-1.652553
-1.736298
-1.820392
-1.903881
-1.985988
-2.066185
-2.144121
-2.219524
-2.292127
-2.361642
-2.427800
-2.490425
-2.549435
-2.604779
-2.656367
-2.704015
-2.747444
-2.786413
-2.820884
-2.850986
-2.876788
-2.898098
-2.914466
-2.925418
-2.930743
-2.930591
-2.925381
-2.915642
-2.901883
-2.884557
-2.864180
-2.841505
-2.817632
-2.793960
-2.772052
-2.753443
-2.739419
-2.730730
-2.727321
-2.728248
-2.731816
-2.735835
-2.738056
-2.736692
-2.730699
-2.719797
-2.704387
-2.685360
-2.663804
-2.640760
-2.617091
-2.593358
-2.569745
-2.546123
-2.522208
-2.497733
-2.472609
-2.447030
-2.421465
-2.396565
-2.373097
-2.351826
-2.333357
-2.318012
-2.305793
-2.296365
-2.289048
-2.282807
-2.276277
-2.267863
-2.256012
-2.239528
-2.217642
-2.189841
-2.155700
-2.114938
-2.067550
-2.013666
-1.953211
-1.885789
-1.810850
-1.727794
-1.635900
-1.534368
-1.422551
-1.300188
-1.167507
-1.025258
-0.874761
-0.717880
-0.556819
-0.393765
-0.230682
-0.069205
0.089490
0.244736
0.396228
0.543907
0.688008
0.829032
0.967603
1.104360
1.239822
1.374112
1.506765
1.636783
1.762694
1.882481
1.993692
2.093801
2.180458
2.251454
2.304857
2.339731
2.356913
2.358881
2.348648
2.328728
2.301000
2.267116
2.228727
2.187393
2.144466
2.101062
2.058208
2.017169
1.979732
1.948212
1.925199
1.913147
1.913961
1.928917
1.958945
2.004690
2.066076
2.141851
2.229606
2.326147
2.427840
2.530844
2.631297
2.725608
2.810913
2.885427
2.948500
3.000436
3.042232
3.075269
3.101051
3.121047
3.136595
3.148836
3.158825
3.167855
3.177710
3.190576
3.208717
3.234149
3.268458
3.312857
3.368397
3.436046
3.516565
3.610401
3.717725
3.838372
3.971612
4.115955
4.269228
4.428857
4.592227
4.757022
4.921444
5.084169
5.244037
5.399793
5.550143
5.693969
5.830349
5.958389
6.077157
6.185756
6.283341
6.369225
6.443162
6.505435
6.556425
6.596105
6.623997
6.639771
6.644014
6.638378
6.624994
6.605994
6.583728
6.561348
6.543112
6.534046
6.538998
6.561601
6.603652
6.664923
6.743325
6.835409
6.937028
7.043860
7.151690
7.256658
7.355463
7.445276
7.523415
7.587300
7.634740
7.664048
7.673794
7.662422
7.628105
7.568987
7.483587
7.371003
7.230959
7.063910
6.871141
6.654772
6.417814
6.164322
5.899206
5.627420
5.353054
5.079133
4.808093
4.542110
4.282724
4.030394
3.784843
3.545846
3.313514
3.087866
2.868335
2.653683
2.442279
2.232595
2.023753
1.815798
1.609426
1.405394
1.204036
1.005019
0.807494
0.610593
0.413770
0.216617
0.018550
-0.181036
-0.382262
-0.584491
-0.786492
-0.986763
-1.183735
-1.375890
-1.561758
-1.739705
-1.907709
-2.063523
-2.205095
-2.330888
-2.440031
-2.532465
-2.608906
-2.670463
-2.718229
-2.753201
-2.776452
-2.789349
-2.793693
-2.791732
-2.786085
-2.779577
-2.775090
-2.775614
-2.784238
-2.803720
-2.835859
-2.881189
-2.939058
-3.007827
-3.085159
-3.168362
-3.254655
-3.341398
-3.426399
-3.508168
-3.585937
-3.659476
-3.728823
-3.794059
-3.855262
-3.912680
-3.966978
-4.019332
-4.071133
-4.123456
-4.176698
-4.230614
-4.284619
-4.338061
-4.390354
-4.440998
-4.489606
-4.535984
-4.580129
-4.622042
-4.661468
-4.697764
-4.729963
-4.756903
-4.777302
-4.789737
-4.792632
-4.784339
-4.763272
-4.728090
-4.677876
-4.612254
-4.531417
-4.436101
-4.327600
-4.207780
-4.078941
-3.943530
-3.803807
-3.661607
-3.518184
-3.374102
-3.229289
-3.083332
-2.935825
-2.786612
-2.636015
-2.484991
-2.334941
-2.187383
-2.043726
-1.905054
-1.771871
-1.643934
-1.520315
-1.399610
-1.280089
-1.159798
-1.036868
-0.909935
-0.778441
-0.642641
-0.503346
-0.361693
-0.219113
-0.077283
0.062051
0.197230
0.326865
0.450083
0.566605
0.676522
0.779937
0.876779
0.966751
1.049218
1.123231
1.187848
1.242453
1.286933
1.321700
1.347499
1.365203
1.375821
1.380602
1.381005
1.378606
1.375090
1.372236
1.371771
1.375294
1.384294
1.400086
1.423610
1.455316
1.495173
1.542727
1.597178
1.657514
1.722659
1.791588
1.863417
1.937516
2.013635
2.091928
2.172790
2.256612
2.343641
2.433931
2.527246
2.622952
2.720049
2.817327
2.913475
3.007116
3.096921
3.181856
3.261369
3.335388
3.404194
3.468350
3.528666
3.586131
3.641811
3.696783
3.752082
3.808658
3.867287
3.928436
3.992139
4.057982
4.125175
4.192689
4.259425
4.324442
4.387183
4.447613
4.506271
4.564290
4.623372
4.685620
4.753225
4.828115
4.911681
5.004672
5.107277
5.219295
5.340254
5.469480
5.606199
5.749727
5.899646
6.055823
6.218278
6.386977
6.561614
6.741466
6.925442
7.112261
7.300550
7.488789
7.675280
7.858252
8.035899
8.206239
8.367002
8.515763
8.650231
8.768503
8.869177
8.951379
9.014689
9.059017
9.084505
9.091502
9.080527
9.052145
9.006860
8.945181
8.867792
8.775669
8.670154
8.553087
8.426864
8.294257
8.158070
8.020843
7.884632
7.750812
7.619949
7.491889
7.366031
7.241637
7.118064
6.994878
6.871821
6.748713
6.625394
6.501721
6.377552
6.252673
6.126731
5.999285
5.869936
5.738404
5.604570
5.468521
5.330547
5.191054
5.050477
4.909271
4.767971
4.627255
4.487944
4.350977
4.217374
4.088036
3.963426
3.843361
3.726960
3.612661
3.498322
3.381450
3.259485
3.130099
2.991435
2.842159
2.681359
2.508422
2.322915
2.124593
1.913608
1.690692
1.457190
1.214997
0.966408
0.713846
0.459542
0.205315
-0.047557
-0.298399
-0.547098
-0.793866
-1.038853
-1.281872
-1.522374
-1.759626
-1.992895
-2.221581
-2.445253
-2.663625
-2.876517
-3.083899
-3.285959
-3.483100
-3.675927
-3.865303
-4.052425
-4.238791
-4.426022
-4.615659
-4.808999
-5.006933
-5.209815
-5.417461
-5.629252
-5.844255
-6.061337
-6.279216
-6.496372
-6.711021
-6.921382
-7.125949
-7.323391
-7.512456
-7.692217
-7.862107
-8.021552
-8.169805
-8.306073
-8.429549
-8.539380
-8.634776
-8.715234
-8.780696
-8.831623
-8.868958
-8.894022
-8.908427
-8.914043
-8.912942
-8.907270
-8.899095
-8.890315
-8.882596
-8.877317
-8.875579
-8.878262
-8.886081
-8.899615
-8.919322
-8.945516
-8.978301
-9.017598
-9.063241
-9.115041
-9.172734
-9.235889
-9.303853
-9.375730
-9.450452
-9.526867
-9.603770
-9.679911
-9.754073
-9.825225
-9.892733
-9.956494
-10.016866
-10.074447
-10.129874
-10.183614
-10.235754
-10.286047
-10.334162
-10.379860
-10.422965
-10.463308
-10.500767
-10.535393
-10.567548
-10.597968
-10.627525
-10.656719
-10.685413
-10.713042
-10.738883
-10.762084
-10.781586
-10.796013
-10.803582
-10.802242
-10.790013
-10.765215
-10.726502
-10.672771
-10.602997
-10.516172
-10.411566
-10.289078
-10.149334
-9.993568
-9.823419
-9.640665
-9.447084
-9.244450
-9.034575
-8.819248
-8.600135
-8.378814
-8.156945
-7.936356
-7.718948
-7.506612
-7.301341
-7.105305
-6.920675
-6.749328
-6.592655
-6.451515
-6.326204
-6.216504
-6.121877
-6.041660
-5.975048
-5.921027
-5.878418
-5.845957
-5.822242
-5.805638
-5.794224
-5.785836
-5.778147
-5.768735
-5.755145
-5.735063
-5.706518
-5.667911
-5.617961
-5.555674
-5.480343
-5.391519
-5.288963
-5.172592
-5.042425
-4.898583
-4.741368
-4.571342
-4.389307
-4.196246
-3.993294
-3.781657
-3.562463
-3.336632
-3.104856
-2.867718
-2.625895
-2.380333
-2.132322
-1.883254
-1.634127
-1.385461
-1.137875
-0.892704
-0.651996
-0.418036
-0.192997
0.021032
0.221978
0.407987
0.577679
0.730116
0.864545
0.980240
1.076578
1.153228
1.210333
1.248632
1.269375
1.273977
1.263711
1.239845
1.204035
1.158536
1.106093
1.049708
0.992357
0.936717
0.885000
0.838935
0.799799
0.768473
0.745479
0.730972
0.724675
0.725764
0.732849
0.744175
0.757949
0.772573
0.786760
0.799540
0.810182
0.818168
0.823270
0.825589
0.825400
0.822896
0.818042
0.810659
0.800690
0.788526
0.775132
0.761786
0.749727
0.740169
0.734605
0.734958
0.743423
0.762201
0.793242
0.838024
0.897496
0.972106
1.061773
1.165893
1.283454
1.413238
1.553989
1.704446
1.863270
2.028954
2.199878
2.374491
2.551374
2.729046
2.905700
3.079125
3.246875
3.406615
3.556501
3.695325
3.822246
3.936390
4.036761
4.122485
4.193064
4.248450
4.288937
4.314958
4.327039
4.325927
4.312576
4.287879
4.252427
4.206536
4.150491
4.084784
4.010190
3.927710
3.838490
3.743803
3.645136
3.544309
3.443431
3.344640
3.249811
3.160471
3.077881
3.003039
2.936621
2.879010
2.830379
2.790715
2.759830
2.737447
2.723263
2.716925
2.717930
2.725555
2.738851
2.756723
2.778059
2.801743
2.826517
2.850853
2.872963
2.890924
2.902830
2.906937
2.901790
2.886246
2.859419
2.820673
2.769690
2.706513
2.631547
2.545514
2.449387
2.344342
2.231803
2.113565
1.991835
1.869148
1.748221
1.631688
1.521780
1.420235
1.328411
1.247300
1.177511
1.119485
1.073704
1.040523
1.019801
1.010697
1.011792
1.021368
1.037589
1.058587
1.082550
1.107836
1.133048
1.157057
1.178957
1.197934
1.213151
1.223746
1.228908
1.227995
1.220657
1.206776
1.186241
1.158898
1.124765
1.084272
1.038284
0.987961
0.934565
0.879303
0.823218
0.767133
0.711660
0.657216
0.604082
0.552496
0.502685
0.454801
0.408832
0.364616
0.321950
0.280747
0.241204
0.203936
0.169847
0.139754
0.114106
0.093041
0.076538
0.064476
0.056633
0.052703
0.052303
0.055038
0.060591
0.068718
0.079063
0.091042
0.103890
0.116785
0.128980
0.139935
0.149382
0.157310
0.163890
0.169358
0.173845
0.177310
0.179651
0.180915
0.181410
0.181721
0.182698
0.185393
0.190946
0.200477
0.214929
0.234857
0.260352
0.291148
0.326749
0.366497
0.409614
0.455286
0.502734
0.551200
0.599920
0.648120
0.694965
0.739495
0.780722
0.817859
0.850438
0.878177
0.900771
0.917845
0.929088
0.934366
0.933720
0.927334
0.915522
0.898729
0.877541
0.852712
0.825209
0.796158
0.766724
0.738101
0.711700
0.689193
0.672253
0.662284
0.660392
0.667367
0.683605
0.709197
0.744141
0.788339
0.841512
0.903311
0.973518
1.052031
1.138658
1.233046
1.334814
1.443557
1.558620
1.679011
1.803620
1.931398
2.061314
2.192323
2.323425
2.453646
2.581955
2.707299
2.828710
2.945347
3.056472
3.161419
3.259606
3.350567
3.433977
3.509646
3.577440
3.637174
3.688518
3.730994
3.764048
3.787125
3.799699
3.801292
3.791556
3.770458
3.738483
3.696719
3.646792
3.590659
3.530346
3.467774
3.404683
3.342588
3.282697
3.225859
3.172592
3.123181
3.077776
3.036449
2.999248
2.966248
2.937633
2.913814
2.895504
2.883614
2.879007
2.882270
2.893585
2.912702
2.938993
2.971555
3.009300
3.051076
3.095781
3.142429
3.190143
3.238153
3.285800
3.332513
3.377802
3.421242
3.462435
3.500950
3.536249
3.567656
3.594387
3.615634
3.630690
3.639056
3.640482
3.634895
3.622322
3.602875
3.576777
3.544354
3.505984
3.462036
3.412855
3.358755
3.300022
3.236923
3.169747
3.098851
3.024694
2.947848
2.869000
2.788946
2.708551
2.628657
2.550028
2.473335
2.399145
2.327889
2.259834
2.195121
2.133804
2.075908
2.021463
1.970511
1.923095
1.879214
1.838753
1.801453
1.766905
1.734556
1.703726
1.673648
1.643477
1.612261
1.578925
1.542267
1.501003
1.453867
1.399765
1.337908
1.267843
1.189417
1.102758
1.008276
0.906654
0.798810
0.685802
0.568664
0.448318
0.325657
0.201697
0.077603
-0.045405
-0.166085
-0.283132
-0.395189
-0.500954
-0.599320
-0.689473
-0.770987
-0.843879
-0.908562
-0.965768
-1.016487
-1.061900
-1.103325
-1.142178
-1.179939
-1.218118
-1.258188
-1.301549
-1.349461
-1.402958
-1.462743
-1.529152
-1.602187
-1.681550
-1.766696
-1.856926
-1.951532
-2.049918
-2.151634
-2.256334
-2.363702
-2.473356
-2.584785
-2.697326
-2.810235
-2.922765
-3.034213
-3.143917
-3.251255
-3.355650
-3.456531
-3.553295
-3.645318
-3.731975
-3.812645
-3.886715
-3.953623
-4.012921
-4.064287
-4.107519
-4.142548
-4.169453
-4.188424
-4.199717
-4.203657
-4.200605
-4.190900
-4.174831
-4.152693
-4.124855
-4.091773
-4.053982
-4.012102
-3.966826
-3.918908
-3.869149
-3.818385
-3.767461
-3.717194
-3.668333
-3.621511
-3.577219
-3.535839
-3.497721
-3.463236
-3.432760
-3.406571
-3.384789
-3.367380
-3.354234
-3.345228
-3.340263
-3.339236
-3.341945
-3.348049
-3.357137
-3.368833
-3.382839
-3.398960
-3.417138
