EVENT_NAME: L_AQUILA
EVENT_ID: IT-2009-0009
EVENT_DATE_YYYYMMDD: 20090406
EVENT_TIME_HHMMSS: 013240
EVENT_LATITUDE_DEGREE: 42.3420
EVENT_LONGITUDE_DEGREE: 13.3800
EVENT_DEPTH_KM: 8.3
HYPOCENTER_REFERENCE: INGV-CNT_Seismic_Bulletin
MAGNITUDE_W: 6.1
MAGNITUDE_W_REFERENCE: INGV-CNT_Seismic_Bulletin
MAGNITUDE_L: 
MAGNITUDE_L_REFERENCE: 
FOCAL_MECHANISM: Normal faulting
NETWORK: IT
STATION_CODE: AVZ
STATION_NAME: 
STATION_LATITUDE_DEGREE: 42.027458
STATION_LONGITUDE_DEGREE: 13.425929
STATION_ELEVATION_M: 746
LOCATION: 
SENSOR_DEPTH_M: 0.0
VS30_M/S: 199
SITE_CLASSIFICATION_EC8: C
MORPHOLOGIC_CLASSIFICATION: 
EPICENTRAL_DISTANCE_KM: 35.1
EARTHQUAKE_BACKAZIMUTH_DEGREE: 173.8
DATE_TIME_FIRST_SAMPLE_YYYYMMDD_HHMMSS: 20090406_013219.000
DATE_TIME_FIRST_SAMPLE_PRECISION: seconds
SAMPLING_INTERVAL_S: 0.005000
NDATA: 24000
DURATION_S: 120.000
STREAM: HNN
UNITS: cm/s
INSTRUMENT: sensor = FBA-3 [Kinemetrics] | digitizer = Everest [Kinemetrics]
INSTRUMENT_ANALOG/DIGITAL: D
INSTRUMENTAL_FREQUENCY_HZ: 204.000
INSTRUMENTAL_DAMPING: 0.700000
FULL_SCALE_G: 1.0
N_BIT_DIGITAL_CONVERTER: 24
PGV_CM/S: 11.294976
TIME_PGV_S: 41.180000
BASELINE_CORRECTION: BASELINE REMOVED
FILTER_TYPE: BUTTERWORTH
FILTER_ORDER: 2
LOW_CUT_FREQUENCY_HZ: 0.050
HIGH_CUT_FREQUENCY_HZ: 40.000
LATE/NORMAL_TRIGGERED: NT
DATABASE_VERSION: 0.5
HEADER_FORMAT: DYNA 1.2
DATA_TYPE: VELOCITY
PROCESSING: manual (Paolucci et al., 2011)
DATA_TIMESTAMP_YYYYMMDD_HHMMSS: 20211011_160012.964
DATA_LICENSE: CC-BY3_0-IT (http://creativecommons.org/licenses/by/3.0/deed.en)
DATA_CITATION: Luzi L, Pacor F, Puglia R (2019). Italian Accelerometric Archive v 3.0 - Istituto Nazionale di Geofisica e Vulcanologia, Dipartimento della Protezione Civile Nazionale. doi: 10.13127/itaca.3.1
DATA_CREATOR: ITACA working group
ORIGINAL_DATA_MEDIATOR_CITATION: data obtained within the DPC-INGV data exchange agreements
ORIGINAL_DATA_MEDIATOR: Archive of Italian Department of Civil Protection
ORIGINAL_DATA_CREATOR_CITATION: Presidency Of Counsil Of Ministers-Civil Protection Department. (1972). Italian Strong Motion Network. Presidency of Counsil of Ministers - Civil Protection Department. https://doi.org/10.7914/SN/IT http://www.fdsn.org/networks/detail/IT/
ORIGINAL_DATA_CREATOR: network: IT (Italian Strong Motion Network (RAN)); owner: Presidency of Counsil of Ministers - Civil Protection Department (PCM - DPC)
USER1: 
USER2: 
USER3: 
USER4: 
USER5: 
[...]
1.065597
1.090129
1.111568
1.129335
1.143125
1.153043
1.159302
1.161871
1.160574
1.155566
1.147608
1.137860
1.127481
1.117369
1.107991
1.099237
1.090440
1.080763
1.069768
1.057755
1.045685
1.034903
1.026860
1.022823
1.023504
1.028711
1.037290
1.047544
1.057924
1.067468
1.075674
1.082145
1.086432
1.088114
1.086815
1.082063
1.073192
1.059492
1.040561
1.016592
0.988419
0.957255
0.924273
0.890216
0.855234
0.819039
0.781251
0.741800
0.701298
0.661263
0.623927
0.591575
0.565766
0.546900
0.534272
0.526477
0.521968
0.519573
0.518723
0.519340
0.521582
0.525655
0.531721
0.539800
0.549655
0.560837
0.572977
0.586100
0.600638
0.617082
0.635590
0.655874
0.677411
0.699718
0.722474
0.745545
0.769052
0.793423
0.819312
0.847324
0.877660
0.909906
0.943019
0.975426
1.005204
1.030396
1.049409
1.061357
1.066225
1.064808
1.058412
1.048415
1.035898
1.021589
1.006044
0.989822
0.973540
0.957895
0.943736
0.932026
0.923586
0.918725
0.917079
0.917879
0.920505
0.924857
0.931196
0.939612
0.949561
0.959814
0.968779
0.974918
0.977008
0.974187
0.965923
0.951944
0.932154
0.906558
0.875312
0.838904
0.798285
0.754642
0.708846
0.660972
0.610260
0.555616
0.496318
0.432537
0.365424
0.296846
0.228934
0.163604
0.102150
0.045047
-0.007934
-0.057370
-0.103735
-0.147072
-0.186942
-0.222629
-0.253412
-0.278835
-0.298921
-0.314283
-0.326037
-0.335578
-0.344338
-0.353593
-0.364355
-0.377352
-0.393019
-0.411453
-0.432394
-0.455318
-0.479665
-0.505145
-0.531895
-0.560312
-0.590651
-0.622683
-0.655663
-0.688563
-0.720464
-0.750967
-0.780401
-0.809648
-0.839555
-0.870150
-0.900157
-0.927289
-0.949182
-0.964241
-0.971946
-0.972779
-0.968061
-0.959698
-0.949768
-0.940061
-0.931787
-0.925550
-0.921498
-0.919518
-0.919406
-0.921057
-0.924641
-0.930668
-0.939889
-0.953059
-0.970650
-0.992595
-1.018211
-1.046429
-1.076149
-1.106396
-1.136268
-1.164899
-1.191553
-1.215657
-1.236631
-1.253533
-1.264842
-1.268665
-1.263263
-1.247474
-1.220795
-1.183314
-1.135730
-1.079366
-1.015909
-0.946931
-0.873605
-0.796871
-0.717824
-0.637892
-0.558611
-0.481221
-0.406428
-0.334515
-0.265650
-0.200129
-0.138388
-0.080871
-0.027887
0.020412
0.063902
0.102309
0.135074
0.161376
0.180392
0.191753
0.195796
0.193374
0.185504
0.173194
0.157432
0.139170
0.119280
0.098579
0.077964
0.058550
0.041564
0.027965
0.018032
0.011263
0.006690
0.003387
0.000848
-0.000855
-0.001076
0.001285
0.007416
0.018066
0.033134
0.051688
0.072442
0.094332
0.116813
0.139759
0.163134
0.186619
0.209400
0.230272
0.248051
0.261981
0.271960
0.278625
0.283365
0.288062
0.294551
0.304137
0.317472
0.334774
0.356119
0.381560
0.410984
0.443816
0.478848
0.514430
0.548891
0.580869
0.609359
0.633581
0.652903
0.666882
0.675259
0.677838
0.674402
0.664797
0.649072
0.627554
0.600743
0.569072
0.532680
0.491457
0.445361
0.394816
0.340924
0.285390
0.230202
0.177268
0.128165
0.084028
0.045567
0.013133
-0.013211
-0.033616
-0.048366
-0.057838
-0.062629
-0.063770
-0.062767
-0.061300
-0.060698
-0.061512
-0.063403
-0.065320
-0.065844
-0.063614
-0.057722
-0.047927
-0.034623
-0.018602
-0.000679
0.018647
0.039278
0.061368
0.085178
0.111045
0.139302
0.170131
0.203522
0.239397
0.277785
0.318862
0.362894
0.410185
0.461042
0.515655
0.573917
0.635388
0.699499
0.765817
0.834118
0.904318
0.976294
1.049597
1.123141
1.195101
1.263205
1.325339
1.380152
1.427304
1.467271
1.500864
1.528699
1.550783
1.566382
1.574306
1.573501
1.563545
1.544758
1.518025
1.484666
1.446431
1.405380
1.363495
1.322266
1.282631
1.245290
1.211010
1.180638
1.154943
1.134541
1.119901
1.111334
1.108928
1.112471
1.121489
1.135479
1.154253
1.178100
1.207615
1.243324
1.285329
1.333184
1.386009
1.442676
1.501893
1.562193
1.621944
1.679377
1.732652
1.780081
1.820542
1.853904
1.881142
1.903987
1.924326
1.943720
1.963227
1.983443
2.004586
2.026544
2.048873
2.070724
2.090763
2.107177
2.117849
2.120740
2.114379
2.098251
2.072843
2.039246
1.998520
1.951249
1.897599
1.837779
1.772502
1.703184
1.631845
1.560888
1.492883
1.430369
1.375664
1.330743
1.297172
1.276030
1.267772
1.272132
1.288131
1.314184
1.348262
1.388161
1.431861
1.477822
1.525020
1.572755
1.620449
1.667613
1.713922
1.759169
1.802982
1.844510
1.882384
1.915027
1.941084
1.959686
1.970489
1.973566
1.969316
1.958399
1.941684
1.920144
1.894689
1.865927
1.833993
1.798655
1.759689
1.717275
1.672130
1.625278
1.577663
1.529894
1.482259
1.434881
1.387941
1.341951
1.298073
1.258295
1.225211
1.201408
1.188777
1.188172
1.199493
1.221919
1.254002
1.293646
1.338269
1.385202
1.432122
1.477303
1.519654
1.558692
1.594561
1.628034
1.660316
1.692647
1.725944
1.760708
1.797174
1.835445
1.875462
1.916918
1.959288
2.001975
2.044456
2.086419
2.127919
2.169537
2.212323
2.257382
2.305286
2.355686
2.407341
2.458399
2.506812
2.550785
2.589091
2.621011
2.645958
2.663129
2.671459
2.669811
2.657240
2.633235
2.597894
2.551993
2.496967
2.434783
2.367613
2.297361
2.225361
2.152485
2.079482
2.007189
1.936415
1.867703
1.801213
1.736787
1.674067
1.612562
1.551649
1.490567
1.428510
1.364817
1.299126
1.231424
1.162045
1.091629
1.020978
0.950771
0.881227
0.811857
0.741478
0.668477
0.591302
0.509082
0.422209
0.332514
0.242924
0.156821
0.077452
0.007600
-0.050506
-0.095243
-0.125675
-0.141601
-0.143474
-0.132281
-0.109374
-0.076229
-0.034092
0.016323
0.074921
0.142138
0.218826
0.306118
0.405227
0.517112
0.642113
0.779675
0.928234
1.085236
1.247260
1.410246
1.569934
1.722426
1.864648
1.994546
2.111003
2.213641
2.302765
2.379426
2.445322
2.502402
2.552330
2.596037
2.633568
2.664260
2.687023
2.700545
2.703485
2.694785
2.673977
2.641203
2.596938
2.541675
2.475749
2.399299
2.312292
2.214665
2.106595
1.988725
1.862161
1.728294
1.588620
1.444656
1.297940
1.149995
1.002238
0.855854
0.711691
0.570285
0.432078
0.297737
0.168339
0.045236
-0.070310
-0.177478
-0.276095
-0.366599
-0.449879
-0.527154
-0.599960
-0.670169
-0.739888
-0.811261
-0.886230
-0.966334
-1.052502
-1.144913
-1.243034
-1.345816
-1.451946
-1.559989
-1.668444
-1.775842
-1.880889
-1.982603
-2.080399
-2.174193
-2.264434
-2.352015
-2.438118
-2.523926
-2.610210
-2.696945
-2.783214
-2.867455
-2.947843
-3.022679
-3.090742
-3.151537
-3.205238
-3.252343
-3.293239
-3.327920
-3.355887
-3.376171
-3.387406
-3.387914
-3.375880
-3.349608
-3.307689
-3.248984
-3.172530
-3.077621
-2.964128
-2.832851
-2.685549
-2.524541
-2.351985
-2.169160
-1.976067
-1.771540
-1.553849
-1.321538
-1.074187
-0.812775
-0.539513
-0.257385
0.030402
0.320854
0.611271
0.899223
1.182652
1.459936
1.729858
1.991657
2.245086
2.490489
2.728884
2.961814
3.190870
3.417182
3.641138
3.862336
4.079622
4.291141
4.494475
4.686985
4.866232
5.030157
5.176944
5.304840
5.412185
5.497578
5.560033
5.599108
5.615108
5.609255
5.583608
5.540660
5.482860
5.412345
5.330976
5.240480
5.142492
5.038447
4.929461
4.816237
4.699026
4.577702
4.451863
4.320819
4.183504
4.038510
3.884316
3.719563
3.543292
3.355213
3.155944
2.947058
2.730812
2.509683
2.285881
2.061064
1.836329
1.612371
1.389625
1.168306
0.948414
0.729878
0.512950
0.298575
0.088432
-0.115399
-0.310912
-0.496572
-0.671461
-0.835154
-0.987534
-1.128776
-1.259428
-1.380296
-1.492041
-1.594762
-1.687820
-1.769878
-1.838965
-1.892552
-1.927735
-1.941611
-1.931768
-1.896707
-1.836021
-1.750360
-1.641309
-1.511316
-1.363612
-1.201950
-1.030164
-0.851739
-0.669608
-0.486201
-0.303641
-0.123991
0.050535
0.217537
0.374688
0.520210
0.653248
0.773826
0.882331
0.978826
1.062597
1.132106
1.185339
1.220382
1.235898
1.231296
1.206706
1.162927
1.101268
1.023197
0.929932
0.822248
0.700613
0.565583
0.418149
0.259872
0.092806
-0.080670
-0.258069
-0.437039
-0.615578
-0.792178
-0.965848
-1.136049
-1.302563
-1.465268
-1.623911
-1.777930
-1.926481
-2.068698
-2.204108
-2.332991
-2.456475
-2.576355
-2.694822
-2.814237
-2.936895
-3.064699
-3.198784
-3.339408
-3.486255
-3.638931
-3.797282
-3.961476
-4.131969
-4.309433
-4.494583
-4.687920
-4.889458
-5.098570
-5.313958
-5.533709
-5.755318
-5.975750
-6.191701
-6.400077
-6.598448
-6.785207
-6.959434
-7.120566
-7.268097
-7.401442
-7.520002
-7.623248
-7.710803
-7.782408
-7.837799
-7.876638
-7.898556
-7.903215
-7.890434
-7.860404
-7.813983
-7.752817
-7.679098
-7.595143
-7.503115
-7.404853
-7.301746
-7.194792
-7.084864
-6.972852
-6.859564
-6.745608
-6.631384
-6.517130
-6.402922
-6.288689
-6.174286
-6.059573
-5.944449
-5.828883
-5.712988
-5.597079
-5.481700
-5.367710
-5.256301
-5.148792
-5.046323
-4.949733
-4.859592
-4.776182
-4.699331
-4.628291
-4.561819
-4.498394
-4.436364
-4.373981
-4.309465
-4.241271
-4.168465
-4.090997
-4.009754
-3.926416
-3.843123
-3.761980
-3.684566
-3.611669
-3.543355
-3.479289
-3.419066
-3.362398
-3.309166
-3.259382
-3.213129
-3.170539
-3.131922
-3.097923
-3.069487
-3.047629
-3.033125
-3.026216
-3.026425
-3.032489
-3.042394
-3.053578
-3.063286
-3.068954
-3.068533
-3.060748
-3.045244
-3.022526
-2.993685
-2.959988
-2.922492
-2.881822
-2.838225
-2.791779
-2.742568
-2.690801
-2.636904
-2.581578
-2.525806
-2.470780
-2.417724
-2.367678
-2.321287
-2.278622
-2.239197
-2.202258
-2.167107
-2.133273
-2.100596
-2.069352
-2.040419
-2.015234
-1.995414
-1.982169
-1.975806
-1.975541
-1.979610
-1.985502
-1.990235
-1.990653
-1.983663
-1.966468
-1.936828
-1.893205
-1.834643
-1.760523
-1.670373
-1.563700
-1.439857
-1.298092
-1.137787
-0.958733
-0.761252
-0.546170
-0.314740
-0.068612
0.190151
0.459005
0.734924
1.014585
1.294697
1.572279
1.844864
2.110729
2.368972
2.619253
2.861319
3.094691
3.318639
3.532374
3.735225
3.926533
4.105223
4.269464
4.416946
4.545709
4.654817
4.744343
4.815015
4.868023
4.904927
4.927581
4.938062
4.938522
4.930856
4.916370
4.895716
4.869061
4.836325
4.797350
4.751935
4.699817
4.640685
4.574300
4.500567
4.419523
4.331279
4.235932
4.133410
4.023346
3.905133
3.778099
3.641698
3.495621
3.339749
3.173973
2.998042
2.811673
2.614842
2.407926
2.191680
1.967240
1.736224
1.500753
1.263350
1.026796
0.793939
0.567439
0.349542
0.141903
-0.054582
-0.239901
-0.414808
-0.580457
-0.738036
-0.888605
-1.033102
-1.172380
-1.307282
-1.438744
-1.567879
-1.695969
-1.824412
-1.954705
-2.088493
-2.227559
-2.373665
-2.528313
-2.692507
-2.866458
-3.049412
-3.239801
-3.435492
-3.633872
-3.832012
-4.027065
-4.216774
-4.399935
-4.576533
-4.747418
-4.913802
-5.076818
-5.237129
-5.394733
-5.549085
-5.699477
-5.845496
-5.987259
-6.125271
-6.260180
-6.392631
-6.523201
-6.652396
-6.780733
-6.908815
-7.037239
-7.166291
-7.295570
-7.423786
-7.548906
-7.668582
-7.780525
-7.882628
-7.973018
-8.050117
-8.112614
-8.159487
-8.190104
-8.204175
-8.201500
-8.181705
-8.144164
-8.088333
-8.014514
-7.924392
-7.820739
-7.706610
-7.584839
-7.457855
-7.327446
-7.194650
-7.060074
-6.924489
-6.789327
-6.656814
-6.529693
-6.410653
-6.301749
-6.204106
-6.117891
-6.042379
-5.976141
-5.917500
-5.864985
-5.817444
-5.773872
-5.733344
-5.695194
-5.659172
-5.625254
-5.593218
-5.562326
-5.531351
-5.498888
-5.463716
-5.424982
-5.382130
-5.334716
-5.282368
-5.224947
-5.162703
-5.096301
-5.026748
-4.955241
-4.882971
-4.810953
-4.739843
-4.669771
-4.600308
-4.530556
-4.459206
-4.384626
-4.304990
-4.218372
-4.122916
-4.017157
-3.900326
-3.772432
-3.634141
-3.486599
-3.331357
-3.170455
-3.006504
-2.842545
-2.681637
-2.526336
-2.378337
-2.238479
-2.107060
-1.984220
-1.870273
-1.765921
-1.672357
-1.591164
-1.523961
-1.472034
-1.436104
-1.416147
-1.411260
-1.419705
-1.439067
-1.466401
-1.498381
-1.531466
-1.561992
-1.586243
-1.600524
-1.601361
-1.585823
-1.551860
-1.498474
-1.425679
-1.334329
-1.225889
-1.102183
-0.965182
-0.816900
-0.659339
-0.494424
-0.323891
-0.149166
0.028727
0.209165
0.391784
0.576309
0.762517
0.950320
1.139831
1.331448
1.526059
1.725024
1.929757
2.141269
2.360080
2.586295
2.819504
3.058574
3.301734
3.546999
3.792586
4.036977
4.278757
4.516581
4.749310
4.976121
5.196478
5.410119
5.617024
5.817234
6.010686
6.197284
6.376976
6.549662
6.715153
6.873293
7.024252
7.168835
7.308464
7.444775
7.579161
7.712578
7.845492
7.977886
8.109533
8.240183
8.369372
8.496402
8.620597
8.741283
8.857683
8.969033
9.074700
9.174175
9.267009
9.352717
9.430673
9.500089
9.560111
9.609926
9.648867
9.676559
9.693008
9.698620
9.694182
9.680851
9.660106
9.633624
9.603095
9.570076
9.535888
9.501526
9.467606
9.434397
9.401949
9.370321
9.339832
9.311198
9.285533
9.264291
9.249155
9.241835
9.243868
9.256502
9.280703
9.317244
9.366748
9.429576
9.505668
9.594429
9.694711
9.804876
9.922939
10.046737
10.174123
10.303119
10.431956
10.559001
10.682638
10.801153
10.912619
11.014813
11.105199
11.181026
11.239519
11.278164
11.294976
11.288668
11.258664
11.204959
11.127922
11.028167
10.906538
10.764146
10.602414
10.423060
10.228016
10.019390
9.799441
9.570519
9.334961
9.095001
8.852673
8.609694
8.367362
8.126481
7.887350
7.649753
7.413007
7.176131
6.938021
6.697452
6.452981
6.202960
5.945706
5.679716
5.403823
5.117324
4.820075
4.512514
4.195585
3.870603
3.539158
3.203119
2.864662
2.526214
2.190305
1.859425
1.535942
1.222049
0.919682
0.630436
0.355513
0.095660
-0.148842
-0.378147
-0.592788
-0.793621
-0.981721
-1.158230
-1.324267
-1.480949
-1.629417
-1.770711
-1.905535
-2.034064
-2.155947
-2.270502
-2.376985
-2.474875
-2.564098
-2.645114
-2.718818
-2.786347
-2.848915
-2.907680
-2.963589
-3.017243
-3.068874
-3.118443
-3.165814
-3.210946
-3.254026
-3.295548
-3.336266
-3.377084
-3.418902
-3.462447
-3.508116
-3.555876
-3.605318
-3.655846
-3.706874
-3.757930
-3.808697
-3.859059
-3.909101
-3.959039
-4.009116
-4.059511
-4.110305
-4.161564
-4.213504
-4.266643
-4.321855
-4.380273
-4.443077
-4.511273
-4.585490
-4.665860
-4.751980
-4.842992
-4.937794
-5.035298
-5.134613
-5.235085
-5.336283
-5.437937
-5.539826
-5.641701
-5.743284
-5.844312
-5.944542
-6.043727
-6.141581
-6.237763
-6.331878
-6.423489
-6.512117
-6.597247
-6.678368
-6.755022
-6.826878
-6.893790
-6.955754
-7.012820
-7.065034
-7.112406
-7.154831
-7.191988
-7.223367
-7.248373
-7.266484
-7.277470
-7.281503
-7.279099
-7.271020
-7.258222
-7.241834
-7.223006
-7.202639
-7.181242
-7.159001
-7.135848
-7.111446
-7.085221
-7.056461
-7.024458
-6.988615
-6.948527
-6.903989
-6.854940
-6.801317
-6.742895
-6.679166
-6.609236
-6.531792
-6.445159
-6.347442
-6.236694
-6.111079
-5.968987
-5.809127
-5.630627
-5.433133
-5.216848
-4.982507
-4.731308
-4.464849
-4.185091
-3.894327
-3.595098
-3.290059
-2.981829
-2.672858
-2.365369
-2.061384
-1.762838
-1.471650
-1.189626
-0.918277
-0.658697
-0.411556
-0.177213
0.044144
0.252458
0.447826
0.630416
0.800273
0.957179
1.100677
1.230277
1.345737
1.447305
1.535772
1.612318
1.678351
1.735480
1.785522
1.830416
1.872025
1.911941
1.951480
1.991865
2.034391
2.080429
2.131303
2.188091
2.251450
2.321548
2.398125
2.480666
2.568580
2.661373
2.758711
2.860366
2.966120
3.075694
3.188669
3.304429
3.422165
3.540904
3.659497
3.776576
3.890508
3.999393
4.101170
4.193840
4.275707
4.345472
4.402124
4.444875
4.473226
4.487043
4.486558
4.472270
4.444863
4.405179
4.354253
4.293376
4.224177
4.148577
4.068556
3.985902
3.902140
3.818627
3.736624
3.657307
3.581803
3.511224
3.446574
3.388586
3.337623
3.293695
3.256596
3.226108
3.202167
3.184824
3.174065
3.169611
3.170893
3.177199
3.187832
3.202076
3.219052
3.237801
3.257519
3.277590
3.297486
3.316731
3.334978
3.352078
3.368064
3.383062
3.397153
3.410280
3.422386
3.433784
3.445382
3.458409
3.473974
3.492969
3.516292
3.544939
3.579848
3.621708
3.670901
3.727438
3.790864
3.860287
3.934599
4.012715
4.093666
4.176509
4.260147
4.343190
4.423933
4.500327
4.569967
4.630255
4.678690
4.713095
4.731688
4.733003
4.715767
4.678895
4.621608
4.543514
4.444599
4.325249
4.186291
4.029039
3.855312
3.667427
3.468141
3.260463
3.047362
2.831479
2.614899
2.399099
2.185046
1.973309
1.764062
1.557089
1.351903
1.148018
0.945203
0.743481
0.542787
0.342630
0.142062
-0.060077
-0.264889
-0.473224
-0.685546
-0.901832
-1.121496
-1.343403
-1.566035
-1.787812
-2.007388
-2.223727
-2.435918
-2.643017
-2.844139
-3.038630
-3.226014
-3.405763
-3.577252
-3.739970
-3.893728
-4.038670
-4.175100
-4.303238
-4.423042
-4.534183
-4.636161
-4.728400
-4.810283
-4.881219
-4.940784
-4.988836
-5.025533
-5.051329
-5.066986
-5.073572
-5.072384
-5.064853
-5.052538
-5.037162
-5.020528
-5.004334
-4.990030
-4.978824
-4.971755
-4.969741
-4.973531
-4.983564
-4.999879
-5.022176
-5.049957
-5.082545
-5.118998
-5.158017
-5.197906
-5.236628
-5.271959
-5.301682
-5.323778
-5.336552
-5.338608
-5.328742
-5.305873
-5.269080
-5.217673
-5.151233
-5.069660
-4.973285
-4.863013
-4.740414
-4.607653
-4.467220
-4.321623
-4.173240
-4.024306
-3.876929
-3.733076
-3.594564
-3.463077
-3.340150
-3.227068
-3.124731
-3.033632
-2.953963
-2.885643
-2.828210
-2.780792
-2.742202
-2.710946
-2.685170
-2.662766
-2.641593
-2.619674
-2.595386
-2.567635
-2.535849
-2.499771
-2.459279
-2.414361
-2.365111
-2.311676
-2.254211
-2.192858
-2.127764
-2.059094
-1.986996
-1.911543
-1.832788
-1.750932
-1.666458
-1.580140
-1.492994
-1.406216
-1.321102
-1.238965
-1.161002
-1.088152
-1.021006
-0.959832
-0.904686
-0.855517
-0.812206
-0.774432
-0.741506
-0.712355
-0.685606
-0.659707
-0.633148
-0.604739
-0.573734
-0.539730
-0.502472
-0.461747
-0.417445
-0.369635
-0.318517
-0.264299
-0.207156
-0.147289
-0.085016
-0.020821
0.044696
0.110941
0.177372
0.243463
0.308601
0.372057
0.433016
0.490648
0.544150
0.592730
0.635635
0.672297
0.702514
0.726481
0.744678
0.757713
0.766184
0.770630
0.771533
0.769302
0.764216
0.756377
0.745807
0.732607
0.717004
0.699318
0.679979
0.659601
0.639094
0.619664
0.602637
0.589308
0.580954
0.578883
0.584330
0.598280
0.621370
0.653932
0.696158
0.748223
0.810361
0.882860
0.966019
1.060089
1.165237
1.281466
1.408487
1.545601
1.691695
1.845384
2.005162
2.169452
2.336595
2.504845
2.672382
2.837323
2.997770
3.151927
3.298238
3.435439
3.562455
3.678255
3.781858
3.872444
3.949448
4.012580
4.061786
4.097139
4.118801
4.127108
4.122670
4.106418
4.079539
4.043372
3.999302
3.948618
3.892390
3.831419
3.766293
3.697460
