EVENT_NAME: L_AQUILA
EVENT_ID: IT-2009-0009
EVENT_DATE_YYYYMMDD: 20090406
EVENT_TIME_HHMMSS: 013240
EVENT_LATITUDE_DEGREE: 42.3420
EVENT_LONGITUDE_DEGREE: 13.3800
EVENT_DEPTH_KM: 8.3
HYPOCENTER_REFERENCE: INGV-CNT_Seismic_Bulletin
MAGNITUDE_W: 6.1
MAGNITUDE_W_REFERENCE: INGV-CNT_Seismic_Bulletin
MAGNITUDE_L: 
MAGNITUDE_L_REFERENCE: 
FOCAL_MECHANISM: Normal faulting
NETWORK: IT
STATION_CODE: MTR
STATION_NAME: 
STATION_LATITUDE_DEGREE: 42.524021
STATION_LONGITUDE_DEGREE: 13.244796
STATION_ELEVATION_M: 975
LOCATION: 
SENSOR_DEPTH_M: 0.0
VS30_M/S: 689
SITE_CLASSIFICATION_EC8: B
MORPHOLOGIC_CLASSIFICATION: 
EPICENTRAL_DISTANCE_KM: 23.1
EARTHQUAKE_BACKAZIMUTH_DEGREE: 331.2
DATE_TIME_FIRST_SAMPLE_YYYYMMDD_HHMMSS: 20090406_013231.000
DATE_TIME_FIRST_SAMPLE_PRECISION: seconds
SAMPLING_INTERVAL_S: 0.005000
NDATA: 20000
DURATION_S: 100.000
STREAM: HNZ
UNITS: cm/s
INSTRUMENT: sensor = FBA-3 [Kinemetrics] | digitizer = Etna [Kinemetrics]
INSTRUMENT_ANALOG/DIGITAL: D
INSTRUMENTAL_FREQUENCY_HZ: 214.000
INSTRUMENTAL_DAMPING: 0.700000
FULL_SCALE_G: 1.0
N_BIT_DIGITAL_CONVERTER: 18
PGV_CM/S: 3.262820
TIME_PGV_S: 25.430000
BASELINE_CORRECTION: BASELINE REMOVED
FILTER_TYPE: BUTTERWORTH
FILTER_ORDER: 2
LOW_CUT_FREQUENCY_HZ: 0.080
HIGH_CUT_FREQUENCY_HZ: 40.000
LATE/NORMAL_TRIGGERED: NT
DATABASE_VERSION: 0.5
HEADER_FORMAT: DYNA 1.2
DATA_TYPE: VELOCITY
PROCESSING: manual (Paolucci et al., 2011)
DATA_TIMESTAMP_YYYYMMDD_HHMMSS: 20211011_155909.800
DATA_LICENSE: CC-BY3_0-IT (http://creativecommons.org/licenses/by/3.0/deed.en)
DATA_CITATION: Luzi L, Pacor F, Puglia R (2019). Italian Accelerometric Archive v 3.0 - Istituto Nazionale di Geofisica e Vulcanologia, Dipartimento della Protezione Civile Nazionale. doi: 10.13127/itaca.3.1
DATA_CREATOR: ITACA working group
ORIGINAL_DATA_MEDIATOR_CITATION: data obtained within the DPC-INGV data exchange agreements
ORIGINAL_DATA_MEDIATOR: Archive of Italian Department of Civil Protection
ORIGINAL_DATA_CREATOR_CITATION: Presidency Of Counsil Of Ministers-Civil Protection Department. (1972). Italian Strong Motion Network. Presidency of Counsil of Ministers - Civil Protection Department. https://doi.org/10.7914/SN/IT http://www.fdsn.org/networks/detail/IT/
ORIGINAL_DATA_CREATOR: network: IT (Italian Strong Motion Network (RAN)); owner: Presidency of Counsil of Ministers - Civil Protection Department (PCM - DPC)
USER1: 
USER2: 
USER3: 
USER4: 
USER5: 
[...]
0.824461
0.877762
0.923726
0.952150
0.959230
0.946527
0.917851
0.877807
0.831178
0.780942
0.726936
0.668042
0.605790
0.545218
0.492920
0.454984
0.435943
0.438021
0.460464
0.499580
0.549605
0.603336
0.651929
0.685528
0.696227
0.681576
0.645621
0.597134
0.546455
0.501781
0.466241
0.437848
0.412377
0.386852
0.361302
0.337905
0.318329
0.301367
0.282887
0.258415
0.226547
0.190527
0.156555
0.130341
0.114992
0.111385
0.119045
0.135679
0.156687
0.177074
0.194734
0.211089
0.227649
0.242028
0.247654
0.237499
0.208392
0.162813
0.107876
0.052553
0.003885
-0.036277
-0.071497
-0.107281
-0.146502
-0.186730
-0.220687
-0.239782
-0.239524
-0.223783
-0.204558
-0.196656
-0.210139
-0.244682
-0.288913
-0.325427
-0.339026
-0.323544
-0.283685
-0.231830
-0.182261
-0.145430
-0.124267
-0.114067
-0.106169
-0.093446
-0.074586
-0.055158
-0.045118
-0.053847
-0.085234
-0.135399
-0.193667
-0.245736
-0.278168
-0.283530
-0.264278
-0.232221
-0.202503
-0.185832
-0.184838
-0.196540
-0.216746
-0.241487
-0.266344
-0.287388
-0.303589
-0.316586
-0.326648
-0.329624
-0.319397
-0.293399
-0.254938
-0.210658
-0.167047
-0.128705
-0.097289
-0.070894
-0.045731
-0.019777
0.005123
0.024945
0.037411
0.044872
0.054150
0.073630
0.109588
0.163698
0.232209
0.307310
0.381633
0.453638
0.528633
0.613540
0.709815
0.810447
0.903099
0.977007
1.028933
1.064085
1.091908
1.120901
1.155903
1.197671
1.243247
1.286564
1.320670
1.342808
1.359476
1.385525
1.435190
1.511637
1.604129
1.694191
1.764946
1.808103
1.826282
1.830165
1.831927
1.838901
1.851040
1.862232
1.863351
1.845955
1.806649
1.750136
1.687863
1.632223
1.589811
1.558312
1.529320
1.494998
1.453891
1.411652
1.375838
1.349570
1.330545
1.315973
1.307570
1.311293
1.331829
1.366903
1.407324
1.443356
1.471294
1.493786
1.514267
1.532217
1.544251
1.548502
1.546511
1.541200
1.534230
1.525730
1.516538
1.510626
1.514312
1.531686
1.560461
1.592409
1.618222
1.633161
1.638992
1.640032
1.636800
1.623968
1.594809
1.547211
1.485638
1.418650
1.355220
1.302153
1.263145
1.239132
1.228472
1.226036
1.223398
1.212409
1.190172
1.161107
1.134171
1.116855
1.109664
1.104655
1.089298
1.054099
0.999429
0.936836
0.883647
0.853682
0.849149
0.858582
0.862335
0.842679
0.792682
0.718419
0.633540
0.551102
0.478683
0.417465
0.362562
0.304760
0.235347
0.151729
0.059105
-0.032696
-0.114199
-0.180750
-0.235178
-0.286996
-0.347681
-0.424448
-0.516497
-0.616036
-0.713000
-0.800355
-0.876922
-0.946681
-1.015707
-1.088352
-1.164466
-1.239945
-1.310313
-1.373709
-1.431303
-1.486761
-1.545500
-1.612309
-1.687807
-1.767273
-1.843893
-1.913443
-1.975374
-2.029297
-2.070816
-2.091110
-2.081184
-2.038019
-1.968507
-1.888472
-1.817109
-1.769690
-1.751966
-1.758162
-1.773347
-1.780424
-1.769154
-1.741280
-1.707919
-1.681639
-1.669135
-1.668708
-1.672747
-1.672630
-1.663060
-1.643903
-1.619203
-1.594547
-1.574516
-1.561203
-1.554020
-1.551268
-1.553156
-1.563769
-1.589422
-1.634238
-1.696333
-1.766906
-1.832289
-1.878621
-1.898174
-1.894055
-1.879700
-1.873174
-1.889400
-1.933082
-1.994599
-2.052054
-2.080842
-2.066367
-2.011875
-1.936329
-1.864282
-1.814465
-1.792919
-1.792601
-1.798613
-1.796496
-1.779470
-1.750652
-1.719452
-1.695325
-1.683429
-1.684285
-1.695884
-1.715563
-1.740758
-1.769365
-1.799860
-1.830766
-1.860200
-1.886648
-1.909837
-1.929866
-1.945514
-1.954395
-1.955216
-1.949646
-1.941398
-1.932748
-1.921837
-1.903909
-1.875209
-1.835484
-1.788053
-1.739412
-1.698161
-1.671380
-1.660271
-1.659438
-1.660665
-1.657601
-1.647917
-1.632700
-1.614515
-1.595139
-1.574224
-1.550243
-1.523032
-1.495112
-1.470018
-1.449222
-1.430697
-1.409930
-1.381921
-1.343254
-1.294095
-1.238433
-1.181031
-1.123923
-1.066970
-1.011657
-0.962794
-0.926363
-0.907325
-0.909598
-0.935749
-0.984980
-1.051648
-1.126592
-1.200992
-1.269872
-1.331766
-1.385443
-1.428996
-1.462787
-1.491052
-1.518669
-1.546213
-1.568400
-1.577706
-1.570623
-1.551760
-1.532572
-1.525548
-1.537804
-1.567888
-1.606544
-1.639505
-1.651134
-1.629359
-1.571043
-1.484413
-1.385875
-1.292444
-1.214222
-1.151250
-1.095926
-1.038774
-0.974003
-0.902342
-0.830231
-0.766161
-0.716770
-0.685253
-0.671807
-0.673928
-0.685941
-0.699547
-0.706468
-0.701705
-0.684996
-0.659507
-0.629074
-0.596306
-0.562688
-0.529786
-0.499978
-0.476224
-0.461409
-0.457622
-0.465350
-0.482680
-0.505022
-0.526014
-0.539682
-0.542997
-0.537408
-0.528191
-0.521794
-0.522825
-0.532382
-0.548185
-0.565408
-0.577096
-0.575234
-0.554079
-0.514117
-0.462920
-0.411467
-0.367992
-0.333109
-0.299520
-0.256922
-0.198872
-0.126876
-0.049532
0.021739
0.077001
0.109848
0.117455
0.100322
0.062291
0.009937
-0.049129
-0.108156
-0.162068
-0.207236
-0.241505
-0.264592
-0.277594
-0.281807
-0.278461
-0.269509
-0.257982
-0.246991
-0.238305
-0.232194
-0.228731
-0.229035
-0.235102
-0.248501
-0.269584
-0.298022
-0.333404
-0.374663
-0.418977
-0.461855
-0.499014
-0.528654
-0.552551
-0.575746
-0.605173
-0.647403
-0.706071
-0.780069
-0.863217
-0.946014
-1.019391
-1.078579
-1.124786
-1.164009
-1.203956
-1.250669
-1.305509
-1.363244
-1.413161
-1.443958
-1.449843
-1.433759
-1.405743
-1.377952
-1.359339
-1.352386
-1.353196
-1.354413
-1.349105
-1.333943
-1.310568
-1.284454
-1.261898
-1.247428
-1.243327
-1.250498
-1.268366
-1.293457
-1.319193
-1.338228
-1.345365
-1.338750
-1.319051
-1.287926
-1.246895
-1.197051
-1.139785
-1.077840
-1.014972
-0.953729
-0.893171
-0.828981
-0.756116
-0.672010
-0.578082
-0.478628
-0.378034
-0.278533
-0.180088
-0.081874
0.016442
0.114230
0.209833
0.300986
0.385910
0.464757
0.540138
0.615769
0.694172
0.775149
0.855434
0.929480
0.991771
1.040093
1.077313
1.110039
1.145512
1.188735
1.240929
1.299981
1.362319
1.424681
1.484648
1.540307
1.590477
1.635712
1.678953
1.724900
1.778249
1.841626
1.913749
1.988671
2.057329
2.111019
2.144707
2.158128
2.154761
2.140442
2.122159
2.106476
2.097218
2.093145
2.087959
2.073649
2.045248
2.004088
1.957355
1.914089
1.880391
1.857051
1.840714
1.826799
1.811572
1.792648
1.768960
1.740969
1.710880
1.682256
1.658615
1.641564
1.629946
1.620381
1.608233
1.588377
1.556301
1.509690
1.449493
1.379650
1.305487
1.231847
1.162273
1.099349
1.045285
1.001684
0.968431
0.943230
0.923019
0.906226
0.893736
0.887888
0.890613
0.902241
0.921682
0.947454
0.978269
1.012131
1.044678
1.069293
1.080333
1.077210
1.065408
1.053332
1.047946
1.052638
1.067840
1.092726
1.126301
1.167252
1.213018
1.259086
1.299136
1.326431
1.336450
1.329504
1.311369
1.291118
1.277177
1.273555
1.278247
1.285029
1.287423
1.281491
1.266059
1.242166
1.213342
1.185834
1.166859
1.161146
1.168442
1.183775
1.199880
1.210186
1.211392
1.205155
1.197554
1.195570
1.202929
1.218762
1.239706
1.262878
1.287163
1.312612
1.339333
1.367276
1.396902
1.429660
1.467492
1.511590
1.561374
1.614392
1.667271
1.717276
1.762955
1.803247
1.836636
1.861334
1.875734
1.878791
1.870296
1.850391
1.818465
1.772975
1.713107
1.641266
1.564492
1.493575
1.439922
1.411559
1.410006
1.429348
1.458389
1.485054
1.500505
1.500899
1.486804
1.461873
1.431714
1.402644
1.380047
1.366866
1.363306
1.367881
1.378360
1.391637
1.403561
1.410217
1.409959
1.403951
1.394650
1.383838
1.371703
1.357031
1.337733
1.311147
1.274126
1.223590
1.158085
1.079748
0.995483
0.916233
0.853990
0.817262
0.806793
0.814207
0.825313
0.826511
0.810470
0.778137
0.736898
0.696739
0.666454
0.651049
0.650838
0.662219
0.679630
0.697907
0.714190
0.728616
0.743473
0.761086
0.781729
0.802935
0.820121
0.827342
0.818204
0.787748
0.734970
0.664190
0.583824
0.502957
0.427794
0.360124
0.298520
0.240879
0.186225
0.134950
0.088164
0.047004
0.012276
-0.015982
-0.039231
-0.060632
-0.083940
-0.112064
-0.146661
-0.188430
-0.237151
-0.291775
-0.351133
-0.414731
-0.482848
-0.555959
-0.634023
-0.716077
-0.800124
-0.882995
-0.960178
-1.026385
-1.077089
-1.110077
-1.125923
-1.127421
-1.118696
-1.104607
-1.090500
-1.081760
-1.083103
-1.098162
-1.129505
-1.178212
-1.242654
-1.317665
-1.395567
-1.468686
-1.531616
-1.582084
-1.620520
-1.648845
-1.668916
-1.681414
-1.685922
-1.682095
-1.671128
-1.656438
-1.642600
-1.632789
-1.626364
-1.618559
-1.603031
-1.575909
-1.538394
-1.495820
-1.453698
-1.413494
-1.371251
-1.320235
-1.255507
-1.177041
-1.089591
-1.000323
-0.916302
-0.842513
-0.780428
-0.727764
-0.679847
-0.631917
-0.581400
-0.529199
-0.478956
-0.434391
-0.397184
-0.367189
-0.343644
-0.325480
-0.311173
-0.299455
-0.290398
-0.285089
-0.283834
-0.284755
-0.283987
-0.276836
-0.259030
-0.227798
-0.182322
-0.123474
-0.053342
0.025182
0.108815
0.194098
0.277331
0.354760
0.423443
0.481977
0.530308
0.569031
0.598685
0.618985
0.628416
0.624890
0.607151
0.576007
0.534675
0.488180
0.442112
0.400704
0.364592
0.330287
0.292829
0.249513
0.201023
0.149969
0.099763
0.054468
0.017782
-0.008853
-0.026838
-0.039094
-0.048441
-0.056955
-0.065794
-0.074782
-0.082514
-0.087736
-0.090912
-0.094389
-0.100908
-0.111712
-0.125691
-0.140071
-0.152128
-0.160963
-0.168126
-0.176183
-0.186108
-0.195914
-0.201996
-0.201848
-0.195682
-0.186090
-0.176524
-0.169507
-0.165419
-0.162824
-0.160153
-0.157147
-0.154800
-0.154148
-0.154990
-0.155299
-0.151472
-0.139492
-0.116695
-0.083167
-0.041829
0.002658
0.045278
0.081769
0.109536
0.128379
0.140525
0.149611
0.159087
0.170744
0.183844
0.195268
0.200869
0.197315
0.183198
0.158867
0.125625
0.085065
0.038376
-0.014377
-0.073989
-0.140313
-0.210340
-0.278234
-0.337198
-0.381246
-0.406152
-0.410487
-0.396645
-0.370418
-0.338787
-0.307351
-0.278811
-0.252920
-0.227854
-0.202424
-0.177942
-0.158541
-0.149265
-0.152415
-0.164410
-0.175820
-0.174998
-0.153114
-0.108007
-0.045217
0.024582
0.090800
0.147580
0.195036
0.237344
0.280036
0.327874
0.383207
0.444863
0.508370
0.567755
0.617889
0.656016
0.682060
0.698158
0.707799
0.714556
0.720658
0.725966
0.727713
0.721340
0.702430
0.668830
0.621629
0.564384
0.501495
0.437227
0.375506
0.319362
0.269563
0.223752
0.177335
0.125530
0.065210
-0.004132
-0.080731
-0.162181
-0.247160
-0.335988
-0.429942
-0.529812
-0.634194
-0.738838
-0.838131
-0.927548
-1.005009
-1.070814
-1.126975
-1.176186
-1.220290
-1.259175
-1.291073
-1.313701
-1.325252
-1.325101
-1.314206
-1.294778
-1.269486
-1.241067
-1.212427
-1.186474
-1.165585
-1.151437
-1.145218
-1.147347
-1.156676
-1.170358
-1.185086
-1.198705
-1.210830
-1.221989
-1.232024
-1.239051
-1.239759
-1.230690
-1.209580
-1.176182
-1.132499
-1.082534
-1.031488
-0.984462
-0.945024
-0.914279
-0.890697
-0.870371
-0.847790
-0.817486
-0.776212
-0.724438
-0.666206
-0.607575
-0.554873
-0.513559
-0.487472
-0.478137
-0.484261
-0.501743
-0.524453
-0.545637
-0.559422
-0.561990
-0.552312
-0.531936
-0.503463
-0.468410
-0.425802
-0.372308
-0.304037
-0.219359
-0.121292
-0.017886
0.079828
0.161144
0.218414
0.248217
0.251216
0.231357
0.194648
0.147566
0.095590
0.042653
-0.008486
-0.055761
-0.097852
-0.134758
-0.168291
-0.201824
-0.239315
-0.284191
-0.338381
-0.401275
-0.468704
-0.533124
-0.585899
-0.620617
-0.635424
-0.633143
-0.619143
-0.598209
-0.572433
-0.541147
-0.502129
-0.452985
-0.392558
-0.322409
-0.247505
-0.174990
-0.111446
-0.060671
-0.023404
0.001521
0.015844
0.021153
0.018893
0.011011
0.000551
-0.008753
-0.013868
-0.013797
-0.010076
-0.006595
-0.008825
-0.021928
-0.048183
-0.085774
-0.130158
-0.176502
-0.221093
-0.261498
-0.296098
-0.323355
-0.341387
-0.348388
-0.343370
-0.326366
-0.298250
-0.260755
-0.216486
-0.168538
-0.119891
-0.073090
-0.030342
0.006193
0.033951
0.049868
0.051444
0.038309
0.012219
-0.024768
-0.071578
-0.127296
-0.190089
-0.257997
-0.330264
-0.407053
-0.487986
-0.571326
-0.654300
-0.733627
-0.805926
-0.869182
-0.924917
-0.978132
-1.034005
-1.094298
-1.156549
-1.216008
-1.268337
-1.311498
-1.346415
-1.376329
-1.405312
-1.436826
-1.472224
-1.508922
-1.540128
-1.558045
-1.558829
-1.545078
-1.523607
-1.500980
-1.481071
-1.464990
-1.451111
-1.435912
-1.417374
-1.397892
-1.382206
-1.372084
-1.364111
-1.352561
-1.333125
-1.303564
-1.262019
-1.206084
-1.133954
-1.046312
-0.946983
-0.841410
-0.733750
-0.624979
-0.514015
-0.400971
-0.289339
-0.184398
-0.088856
-0.000320
0.085907
0.171562
0.254565
0.333526
0.410163
0.485666
0.557551
0.622478
0.680060
0.731956
0.779124
0.821591
0.859321
0.892348
0.921296
0.947963
0.974419
1.001994
1.031670
1.064624
1.102071
1.145515
1.197181
1.258845
1.329720
1.406186
1.483273
1.555585
1.618603
1.672528
1.724949
1.786704
1.863531
1.952313
2.045410
2.137691
2.229175
2.322022
2.416583
2.510701
2.601799
2.688967
2.773115
2.855180
2.934285
3.007872
3.073442
3.129652
3.175781
3.210935
3.234870
3.249669
3.258743
3.262820
3.258898
3.244632
3.220891
3.188305
3.145250
3.092111
3.034259
2.977371
2.921127
2.859810
2.788605
2.708088
2.622946
2.537596
2.453664
2.371381
2.292432
2.220678
2.160215
2.113197
2.079413
2.057354
2.045003
2.039505
2.036926
2.033723
2.029317
2.026703
2.029348
2.036961
2.044361
2.044603
2.033513
2.011676
1.982358
1.947583
1.906456
1.857694
1.803658
1.750865
1.705618
1.669168
1.637001
1.601864
1.557351
1.500258
1.431601
1.356073
1.279721
1.207021
1.139402
1.076093
1.016377
0.961463
0.914504
0.878964
0.856984
0.849213
0.855566
0.875258
0.905951
0.943625
0.983756
1.022535
1.057472
1.087651
1.113138
1.133422
1.146635
1.150652
1.144638
1.129693
1.108949
1.087314
1.070110
1.060643
1.058127
1.057842
1.053891
1.042666
1.024529
1.003135
0.983392
0.968974
0.960146
0.953177
0.942480
0.924526
0.900373
0.874737
0.852761
0.837304
0.828360
0.824061
0.821803
0.819021
0.813911
0.805853
0.794871
0.780401
0.760618
0.733383
0.698368
0.658174
0.616903
0.577706
0.541746
0.508643
0.477174
0.446037
0.414580
0.383008
0.352221
0.323746
0.299345
0.279893
0.264269
0.249467
0.232106
0.210141
0.183453
0.153079
0.119971
0.084370
0.046039
0.004775
-0.039372
-0.086148
-0.134940
-0.184314
-0.231761
-0.274367
-0.310274
-0.339751
-0.364679
-0.386685
-0.405726
-0.420388
-0.429205
-0.431609
-0.428141
-0.420317
-0.410428
-0.401243
-0.395458
-0.394921
-0.399998
-0.409485
-0.421117
-0.432397
-0.441473
-0.447657
-0.451405
-0.453924
-0.456645
-0.460770
-0.467165
-0.476489
-0.489208
-0.505500
-0.525236
-0.547906
-0.572524
-0.597935
-0.623484
-0.649445
-0.676794
-0.706553
-0.739161
-0.773947
-0.808884
-0.841228
-0.868915
-0.891714
-0.911384
-0.930810
-0.952532
-0.977380
-1.004048
-1.030067
-1.053568
-1.074606
-1.095312
-1.118839
-1.147628
-1.182032
-1.220237
-1.259302
-1.296319
-1.329141
-1.356895
-1.380410
-1.402242
-1.425751
-1.453410
-1.485408
-1.519490
-1.551936
-1.579183
-1.599517
-1.614079
-1.626431
-1.640821
-1.660212
-1.685250
-1.714568
-1.745829
-1.776751
-1.805856
-1.833054
-1.859813
-1.888461
-1.920883
-1.957259
-1.995200
-2.029754
-2.054832
-2.065876
-2.062105
-2.046431
-2.023222
-1.995887
-1.965859
-1.933005
-1.896549
-1.856063
-1.812438
-1.768607
-1.729446
-1.700414
-1.685485
-1.685588
-1.698384
-1.719395
-1.743849
-1.768354
-1.791688
-1.814380
-1.837578
-1.861891
-1.886435
-1.908314
-1.923146
-1.926836
-1.917719
-1.897662
-1.871322
-1.843950
-1.819281
-1.798819
-1.782349
-1.768830
-1.757130
-1.746392
-1.735990
-1.725314
-1.713690
-1.700508
-1.685307
-1.667706
-1.647295
-1.623522
-1.595569
-1.562421
-1.523524
-1.479566
-1.432429
-1.384144
-1.335909
-1.288180
-1.241581
-1.197517
-1.157951
-1.124759
-1.099210
-1.081596
-1.070897
-1.064784
-1.060207
-1.054215
-1.044652
-1.030655
-1.012900
-0.993312
-0.973895
-0.955321
-0.936641
-0.916343
-0.893424
-0.867504
-0.838468
-0.806535
-0.772797
-0.739361
-0.708641
-0.682126
-0.659074
-0.635855
-0.607133
-0.568797
-0.520501
-0.465729
-0.409539
-0.355974
-0.306843
-0.261976
-0.220193
-0.180243
-0.141253
-0.102843
-0.065438
-0.030502
-0.000003
0.024582
0.042958
0.056128
0.065826
0.073484
0.079895
0.086142
0.094270
0.106233
0.122417
0.141970
0.164028
0.187235
0.208601
0.224870
0.235499
0.242984
0.249561
0.254487
0.255373
0.251306
0.243466
0.233439
0.222296
0.210916
0.199636
0.187011
0.170023
0.146865
0.119561
0.093005
0.071230
0.054876
0.041934
0.029969
0.017426
0.003720
-0.011075
-0.026430
-0.041372
-0.054591
-0.064875
-0.071469
-0.074066
-0.072594
-0.066974
-0.057194
-0.043954
-0.029256
-0.015851
-0.005581
0.002008
0.009581
0.020505
0.036804
0.057891
0.081042
0.103173
0.122372
0.138205
0.151167
0.161914
0.170679
0.177426
0.182877
0.189219
0.199448
0.215857
0.238948
0.267233
0.297796
0.327559
0.354775
0.379512
0.402593
0.424237
0.443966
0.461685
0.478337
0.495056
0.511719
0.526722
0.538323
0.545959
0.550300
0.552451
0.553256
0.553124
0.552208
0.550578
0.548332
0.545638
0.542602
0.539087
0.534945
0.530615
0.527403
0.527085
0.531200
0.540585
0.555464
0.575845
0.601647
0.632286
0.666112
0.700338
0.731680
0.757319
0.775623
0.786278
0.789857
0.787080
0.778175
0.762803
0.740586
0.711726
0.677155
0.638005
0.594983
0.548410
0.498979
0.448309
0.398686
0.352223
0.310092
0.272228
0.237439
0.203839
0.169615
0.133870
0.097012
0.060405
0.025429
-0.007594
-0.039984
-0.074397
-0.113773
-0.160015
-0.213005
-0.270355
-0.327910
-0.380843
-0.425349
-0.460477
-0.488830
-0.515170
-0.543690
-0.575909
-0.610583
-0.645260
-0.677802
-0.706644
-0.730251
-0.746803
-0.754339
-0.751101
-0.736075
-0.709666
-0.673895
-0.631748
-0.586117
-0.538988
-0.491164
-0.442619
-0.393399
-0.344547
-0.298471
-0.258385
-0.226865
-0.204281
-0.188342
-0.175223
-0.161428
-0.145160
-0.126640
-0.107584
-0.090235
-0.076233
-0.065718
-0.057212
-0.048583
-0.038464
-0.027099
-0.016039
-0.007148
-0.001625
0.000629
0.001234
0.003027
0.009175
0.022080
0.042654
0.070280
0.103265
0.139427
0.176737
0.213940
0.250829
0.287942
0.325819
0.364328
0.402591
0.439479
0.474117
0.506008
0.534797
0.560023
0.581204
0.598113
0.610729
0.618955
0.622609
0.621741
0.616853
0.608894
0.599235
0.589614
0.581681
0.576180
0.572502
0.569082
0.564256
0.556910
0.546807
0.534740
0.522263
0.510715
0.500137
0.489139
0.475766
0.458583
0.437266
0.412586
0.386070
0.359568
0.334785
0.313000
0.295130
0.281931
0.273998
0.271532
0.274034
0.280139
0.287778
0.294787
