EVENT_NAME: L_AQUILA
EVENT_ID: IT-2009-0009
EVENT_DATE_YYYYMMDD: 20090406
EVENT_TIME_HHMMSS: 013240
EVENT_LATITUDE_DEGREE: 42.3420
EVENT_LONGITUDE_DEGREE: 13.3800
EVENT_DEPTH_KM: 8.3
HYPOCENTER_REFERENCE: INGV-CNT_Seismic_Bulletin
MAGNITUDE_W: 6.1
MAGNITUDE_W_REFERENCE: INGV-CNT_Seismic_Bulletin
MAGNITUDE_L: 
MAGNITUDE_L_REFERENCE: 
FOCAL_MECHANISM: Normal faulting
NETWORK: IT
STATION_CODE: MTR
STATION_NAME: 
STATION_LATITUDE_DEGREE: 42.524021
STATION_LONGITUDE_DEGREE: 13.244796
STATION_ELEVATION_M: 975
LOCATION: 
SENSOR_DEPTH_M: 0.0
VS30_M/S: 689
SITE_CLASSIFICATION_EC8: B
MORPHOLOGIC_CLASSIFICATION: 
EPICENTRAL_DISTANCE_KM: 23.1
EARTHQUAKE_BACKAZIMUTH_DEGREE: 331.2
DATE_TIME_FIRST_SAMPLE_YYYYMMDD_HHMMSS: 20090406_013231.000
DATE_TIME_FIRST_SAMPLE_PRECISION: seconds
SAMPLING_INTERVAL_S: 0.005000
NDATA: 27200
DURATION_S: 136.000
STREAM: HNE
UNITS: cm/s^2
INSTRUMENT: sensor = FBA-3 [Kinemetrics] | digitizer = Etna [Kinemetrics]
INSTRUMENT_ANALOG/DIGITAL: D
INSTRUMENTAL_FREQUENCY_HZ: 218.000
INSTRUMENTAL_DAMPING: 0.700000
FULL_SCALE_G: 1.0
N_BIT_DIGITAL_CONVERTER: 18
PGA_CM/S^2: 43.002522
TIME_PGA_S: 19.425000
BASELINE_CORRECTION: BASELINE NOT REMOVED
FILTER_TYPE: 
FILTER_ORDER: 
LOW_CUT_FREQUENCY_HZ: 
HIGH_CUT_FREQUENCY_HZ: 
LATE/NORMAL_TRIGGERED: NT
DATABASE_VERSION: 0.5
HEADER_FORMAT: DYNA 1.2
DATA_TYPE: ACCELERATION
PROCESSING: converted to cm/s^2
DATA_TIMESTAMP_YYYYMMDD_HHMMSS: 20211011_155908.217
DATA_LICENSE: CC-BY3_0-IT (http://creativecommons.org/licenses/by/3.0/deed.en)
DATA_CITATION: Luzi L, Pacor F, Puglia R (2019). Italian Accelerometric Archive v 3.0 - Istituto Nazionale di Geofisica e Vulcanologia, Dipartimento della Protezione Civile Nazionale. doi: 10.13127/itaca.3.1
DATA_CREATOR: ITACA working group
ORIGINAL_DATA_MEDIATOR_CITATION: data obtained within the DPC-INGV data exchange agreements
ORIGINAL_DATA_MEDIATOR: Archive of Italian Department of Civil Protection
ORIGINAL_DATA_CREATOR_CITATION: Presidency Of Counsil Of Ministers-Civil Protection Department. (1972). Italian Strong Motion Network. Presidency of Counsil of Ministers - Civil Protection Department. https://doi.org/10.7914/SN/IT http://www.fdsn.org/networks/detail/IT/
ORIGINAL_DATA_CREATOR: network: IT (Italian Strong Motion Network (RAN)); owner: Presidency of Counsil of Ministers - Civil Protection Department (PCM - DPC)
USER1: 
USER2: 
USER3: 
USER4: 
USER5: 
[...]
-0.006456
0.001967
-0.006456
-0.003180
0.002201
-0.002712
0.002670
-0.002244
-0.002478
-0.005520
-0.004350
0.003839
-0.002946
-0.001308
-0.004818
-0.004818
0.004073
0.000564
-0.002946
-0.001776
-0.002712
-0.002946
-0.002712
-0.007158
0.000330
0.002904
-0.007158
-0.002712
-0.004116
-0.005520
-0.001074
-0.005520
-0.003180
0.000564
0.000330
-0.004584
-0.000840
0.003839
-0.005052
-0.003414
0.003138
0.000330
-0.001074
0.002201
-0.000372
0.000096
-0.003414
-0.006456
-0.004818
-0.004116
-0.001776
-0.003414
-0.000606
-0.004116
-0.004116
-0.003414
-0.003414
0.002670
-0.003648
-0.008094
-0.000138
-0.000372
-0.005754
-0.001542
-0.005286
-0.001776
0.000330
-0.003180
0.005243
0.001499
-0.003882
-0.002010
0.001032
0.005009
0.001265
-0.003414
0.002201
-0.002010
-0.005988
-0.000138
-0.001308
0.002904
-0.000372
-0.008796
-0.005286
0.001032
0.000564
-0.002244
0.003606
0.004541
-0.000138
0.000798
0.000564
0.001032
0.003372
-0.002712
-0.002478
-0.000840
0.004073
0.003839
-0.006690
-0.000606
-0.000372
0.003606
0.002435
-0.006924
-0.001542
-0.003180
-0.000606
-0.000372
-0.000138
0.003372
0.002201
0.003372
-0.001542
-0.003648
-0.001776
-0.001776
0.000564
-0.001308
-0.002478
-0.000606
-0.002010
-0.003648
-0.000606
-0.003180
-0.009498
0.000798
0.005477
-0.001308
0.000330
-0.001308
-0.003414
-0.003414
-0.005754
-0.007860
-0.002712
0.001733
0.000564
-0.003180
-0.004350
-0.003414
-0.004584
0.000564
0.004775
0.001733
-0.002712
-0.002712
-0.003414
-0.003180
-0.001542
-0.004116
0.000096
-0.001074
-0.003180
-0.008328
-0.005520
0.006647
-0.001776
0.000564
0.002670
0.001733
0.001499
-0.004584
0.000798
-0.002010
0.000096
-0.001542
-0.005052
0.000330
-0.004584
-0.006456
0.000096
0.001265
-0.005520
-0.002010
0.000798
-0.001542
-0.000372
-0.003648
-0.000372
-0.000372
-0.003180
0.003372
0.002201
-0.000372
0.000330
-0.005052
-0.002712
-0.000840
-0.003414
-0.002244
-0.008562
-0.005520
-0.007626
-0.010902
-0.001542
-0.009732
-0.004818
-0.004584
-0.018389
-0.014177
-0.016985
-0.016751
-0.007158
-0.008562
-0.000138
0.012496
0.011327
0.020452
0.015070
-0.003180
-0.014645
-0.032428
-0.040383
-0.054656
-0.051848
-0.029152
-0.022835
-0.005286
-0.000840
-0.005286
-0.001308
-0.002010
0.009221
0.012029
0.014369
0.003839
-0.007626
0.009689
0.026068
0.038469
0.036129
0.020920
-0.008562
-0.032428
-0.038278
-0.034066
-0.025642
-0.036172
-0.033130
-0.018857
-0.016517
-0.034768
-0.048339
-0.036639
-0.018155
0.012496
0.040809
0.074502
0.098602
0.088775
0.065377
0.051805
0.061633
0.080585
0.088307
0.063037
0.020686
-0.042255
-0.151759
-0.266878
-0.338009
-0.277173
-0.051614
0.185410
0.284384
0.212552
0.066547
-0.017219
-0.010668
0.044084
0.099538
0.142123
0.179326
0.205766
0.178390
0.057655
-0.133040
-0.306421
-0.367023
-0.303847
-0.189196
-0.111046
-0.071971
-0.011369
0.103048
0.225421
0.257242
0.153822
-0.035938
-0.180539
-0.189430
-0.079692
0.062803
0.151950
0.177454
0.144697
0.043382
-0.097007
-0.207680
-0.226399
-0.173987
-0.134210
-0.116661
-0.063782
0.023494
0.059995
-0.018389
-0.162054
-0.269218
-0.274131
-0.185920
-0.054422
0.097900
0.218635
0.274791
0.280407
0.225888
0.101410
-0.097475
-0.290510
-0.384805
-0.338009
-0.146611
0.084095
0.268707
0.370021
0.369787
0.279236
0.113343
-0.078990
-0.220316
-0.222655
-0.076650
0.143059
0.354579
0.483737
0.472272
0.287192
-0.026578
-0.324672
-0.439323
-0.341987
-0.188260
-0.123213
-0.133508
-0.075715
0.077310
0.225888
0.327905
0.320885
0.182368
-0.080394
-0.391825
-0.575267
-0.540403
-0.276471
0.111237
0.447470
0.558143
0.367214
0.020452
-0.270622
-0.403056
-0.409607
-0.317418
-0.096539
0.185410
0.381253
0.355515
0.042915
-0.446109
-0.849728
-0.886697
-0.509050
0.026769
0.389208
0.442088
0.253030
-0.068695
-0.393462
-0.610364
-0.563801
-0.216572
0.258880
0.598622
0.607046
0.367916
0.004541
-0.411479
-0.821182
-1.137058
-1.228545
-1.122083
-0.950808
-0.812056
-0.743968
-0.659032
-0.397908
-0.015113
0.298657
0.460572
0.547380
0.709530
0.970420
1.153394
1.020492
0.567503
-0.035236
-0.647333
-1.188066
-1.638716
-1.952252
-2.008408
-1.663986
-0.873126
0.192429
1.158308
1.695063
1.763386
1.589069
1.358129
0.955445
0.181900
-0.864000
-1.590048
-1.406137
-0.540871
0.229866
0.324395
-0.277875
-1.092601
-1.703295
-1.935171
-1.627953
-0.749818
0.472974
1.626272
2.215673
2.004387
1.243711
0.454489
0.103282
0.242735
0.495202
0.467358
0.053678
-0.542743
-1.158584
-1.789634
-2.257599
-2.218056
-1.531084
-0.539935
0.204596
0.587391
0.951701
1.421070
1.498986
0.648461
-0.954552
-2.426768
-2.839981
-1.967461
-0.480270
0.585519
0.840560
0.863724
1.256814
1.787486
1.624868
0.406991
-1.186428
-2.194424
-2.215716
-1.635440
-1.140568
-1.008134
-0.852536
-0.056294
1.223121
2.222459
2.337110
1.442830
-0.076183
-1.727863
-2.788505
-2.601084
-1.126061
1.255644
3.714329
5.117989
4.572810
2.012109
-1.578114
-4.772908
-6.436053
-6.062150
-3.828087
-0.580414
2.454101
4.221369
4.047988
1.859552
-1.386717
-3.922382
-4.427784
-2.931468
-0.415223
2.124420
4.145792
5.086635
4.271441
1.658328
-1.703295
-3.988365
-3.916767
-1.941021
0.421264
2.178002
3.305094
3.996512
3.960712
2.769041
0.437408
-2.450634
-4.949330
-5.966685
-4.698969
-1.988987
0.158501
0.890398
1.271789
2.719671
4.696821
5.106289
3.145752
0.374701
-1.098919
-0.713082
0.365108
0.895545
0.812950
0.904203
1.346897
1.871251
1.899563
0.648461
-1.563139
-3.500746
-3.651431
-2.103873
0.285554
2.085813
3.036951
3.838808
3.820323
3.585873
2.053992
-0.184517
-1.256155
-1.048145
0.227760
0.159906
-0.491501
-1.194852
-2.845362
-3.605103
-3.431488
-3.103210
-2.305799
-1.655329
-0.590008
1.688979
3.582129
4.321045
3.590553
2.218247
0.897651
-1.111086
-2.794354
-3.523442
-2.622143
-0.149887
2.040654
3.014255
2.540908
1.182174
-0.426454
-1.737690
-1.903350
-1.487797
-0.976078
0.034257
0.776683
0.719825
0.355749
0.098836
0.009689
-0.043659
-0.203001
-0.549295
-0.647333
-0.555846
-0.805505
-0.989883
-0.620191
0.498010
2.327517
3.677828
3.866418
3.176872
1.784678
0.489820
-0.330288
-0.663478
-0.099815
1.182408
2.803905
4.450437
5.617073
5.921015
5.022992
2.834790
0.088073
-2.220630
-3.684188
-4.188888
-3.467755
-1.426026
1.641481
5.010123
7.220787
6.853669
3.366398
-2.007706
-6.366092
-7.793852
-6.380132
-3.845402
-1.740498
-0.147313
1.468334
2.751493
2.232052
-0.096071
-3.151411
-5.536860
-6.279753
-5.568447
-3.403878
-0.403758
2.480541
4.648854
5.061833
3.466776
0.681218
-2.860337
-6.455708
-9.365276
-10.593450
-8.943641
-4.655214
1.080860
5.933650
8.215446
7.727826
4.645111
0.331414
-3.657280
-5.859053
-5.644491
-4.164554
-2.452740
-0.694130
1.290274
3.426297
4.773333
4.637623
3.402431
1.753558
0.598856
0.406991
0.619447
0.829329
1.083433
1.272725
0.729652
-1.448020
-5.251870
-9.137611
-11.152430
-10.808010
-8.409225
-4.064176
1.348067
6.142128
8.767877
9.181558
8.122320
5.380984
0.957317
-4.073769
-7.543725
-7.342968
-3.057818
3.998618
10.850080
14.924880
15.301130
11.781570
4.846101
-4.175317
-12.442140
-16.784620
-15.626410
-10.031660
-2.395180
5.558577
11.513190
13.192480
9.511473
1.163923
-8.539554
-15.340950
-16.452129
-12.259870
-5.288136
2.234392
8.639421
12.352020
12.225900
8.277684
2.410580
-3.001896
-6.479808
-7.393976
-5.902808
-2.411793
1.872889
5.260484
6.333058
4.560409
0.999667
-2.664026
-4.903704
-5.242978
-3.995853
-1.323074
1.727586
3.364292
2.537165
-0.791466
-5.337740
-8.886081
-9.269110
-5.695734
0.109833
5.235916
7.310870
6.938604
6.201560
5.152150
3.316793
0.779958
-1.440533
-2.649987
-3.478284
-4.515761
-5.676313
-5.540369
-3.544033
-0.645695
2.356297
4.459095
5.327168
4.957945
3.378331
1.332624
-0.800124
-2.156050
-1.960675
-1.069905
0.387336
3.035079
5.379815
6.105393
4.932441
1.105427
-3.142052
-6.320232
-9.656818
-11.864670
-11.443510
-8.464445
-3.207333
3.271167
7.883424
8.675454
6.726382
2.643159
-1.790336
-4.514825
-5.836357
-5.321830
-3.592935
-1.725991
0.685430
2.207718
2.855381
3.945270
4.311686
4.473601
5.830932
6.145873
4.196332
1.663709
-1.168412
-3.634350
-4.743192
-5.723109
-6.419440
-4.973664
-1.943829
0.835880
2.048376
2.002749
2.642925
4.041203
5.621518
5.901595
2.522892
-1.872698
-3.856867
-3.657982
-1.286572
1.843641
3.648580
4.873243
5.537051
4.389602
2.865910
2.290547
1.259388
-0.073141
-0.305953
0.518600
2.481711
4.815917
5.617774
4.769121
2.598468
-1.156010
-6.268054
-11.602380
-14.160270
-12.966260
-9.683493
-4.733832
1.001539
5.742253
8.537872
8.470719
5.277330
0.945150
-2.733753
-5.423846
-6.638214
-6.374282
-5.045029
-2.848638
-0.455702
0.962464
0.650566
-0.690854
-1.331731
-0.876402
-0.588604
-1.140801
-2.422088
-3.273783
-2.201443
-0.789361
-1.345536
-3.493493
-6.283731
-8.369448
-8.132892
-5.740424
-1.897968
3.022210
7.644528
10.421200
11.015280
9.582369
6.046196
0.948191
-4.114014
-7.316762
-7.249843
-4.141156
-0.181943
2.413622
3.092638
2.706334
1.711208
0.109599
-1.534126
-2.305097
-1.184088
1.849959
5.168997
7.169545
7.568484
7.009735
6.367921
5.881238
4.507763
1.042720
-4.196843
-9.220442
-11.736690
-10.799120
-7.047215
-1.828007
3.582129
8.106175
10.505430
9.439640
4.602526
-2.165644
-7.950386
-10.421240
-9.283382
-6.149659
-1.848832
3.158622
7.079227
8.214977
6.155700
1.973034
-2.140140
-4.523482
-4.604440
-2.372016
1.312034
5.147236
7.995970
8.950150
7.857452
4.960285
1.008793
-1.882759
-1.975884
0.742521
4.734258
7.346435
7.127662
4.461434
0.525151
-3.404346
-6.757077
-8.845368
-8.720422
-6.390661
-2.876014
0.093923
0.932281
-0.600303
-3.521103
-6.300344
-7.803913
-8.467721
-9.221611
-9.646289
-8.625893
-5.742764
-1.912709
1.035701
2.025680
1.528467
0.704616
0.439982
0.583647
0.279470
-0.737182
-2.005132
-2.647179
-2.170557
-0.956892
0.855301
3.572536
7.014882
9.814947
10.086130
7.529643
3.395645
-1.451296
-6.368432
-10.108870
-11.181910
-8.696555
-3.381883
3.075323
8.687387
11.463350
10.314730
5.406488
-1.354895
-8.038363
-12.774630
-13.615560
-10.943720
-5.626709
1.187088
7.259628
11.152160
11.929440
9.573244
4.990234
-0.778831
-5.558620
-7.402400
-5.971364
-2.188340
1.842472
4.705244
5.753718
4.834870
3.043970
1.323499
0.022558
-0.885527
-1.538103
-0.836157
2.248665
6.900231
11.599530
14.352560
14.610650
13.626050
12.030990
10.345620
8.573672
6.971362
5.421698
3.282866
1.916410
1.836856
2.532017
4.341167
6.721703
8.266453
7.696004
4.774503
0.583881
-3.092447
-4.151451
-2.215482
0.886888
3.705438
5.842398
7.300341
7.658802
7.295427
7.336374
7.989418
9.546803
11.522080
13.546260
15.813320
16.572121
13.432080
6.747441
-0.599835
-6.418036
-8.700533
-6.628621
-2.139906
3.177340
8.233696
11.466160
11.928980
9.978501
5.866030
0.520940
-2.841384
-2.733519
-0.285129
3.075558
6.970660
11.694990
16.078421
18.486330
16.793699
10.999130
4.951861
0.703680
-2.368974
-4.046627
-3.785502
-1.800163
1.590707
5.222579
7.951279
9.222271
8.415968
6.198050
3.390498
0.547848
-0.334733
1.425983
4.947182
10.354040
15.500480
17.561159
17.398310
16.364111
14.636150
12.087150
8.477037
4.652130
2.570858
3.101764
4.727472
5.606777
4.956307
2.940784
0.412138
-2.331303
-5.102822
-7.569463
-8.404078
-6.696007
-4.635092
-3.414407
-3.121929
-4.060198
-5.322532
-6.593757
-7.831289
-9.272854
-10.416320
-9.992349
-8.748499
-7.289854
-4.522313
-0.108940
4.899917
8.608068
9.106449
6.410272
1.593748
-3.658216
-7.633340
-10.579180
-12.377800
-12.227110
-9.985797
-6.291452
-3.204759
-2.126101
-2.689530
-4.258849
-6.571763
-9.410903
-11.988220
-13.165150
-12.253320
-9.149545
-5.167402
-2.266958
-1.319564
-2.550545
-5.454264
-9.108832
-12.837810
-16.777599
-20.665211
-22.937651
-23.711189
-23.604500
-22.807320
-22.489340
-22.341230
-21.085449
-18.390671
-14.553830
-10.581750
-7.435625
-5.294922
-4.521611
-5.820212
-8.889357
-12.398390
-15.059700
-15.845180
-14.728380
-12.851610
-9.835581
-4.905107
0.702276
5.415380
7.630489
7.252608
5.434332
1.852065
-3.225349
-9.089645
-14.905510
-18.627001
-19.755960
-19.688570
-19.872480
-20.298800
-20.012171
-19.126310
-18.022619
-16.981859
-16.884060
-17.310610
-16.663651
-14.528330
-11.147750
-7.697685
-4.922656
-2.192318
0.361598
2.722011
4.935483
6.976041
8.813738
9.507495
8.174499
4.604631
0.063739
-3.434529
-4.458436
-2.002792
3.434019
9.885610
15.243800
18.647779
20.940571
22.511290
22.678120
21.348869
19.156450
16.886829
15.218300
14.094480
13.102870
12.315980
12.179570
12.503640
12.170450
10.664540
8.212637
5.272651
2.441934
-0.152461
-2.334579
-4.349867
-6.204411
-6.587674
-5.538966
-4.173211
-3.093383
-2.486200
-1.231821
1.841067
6.953345
13.514440
20.504431
27.014750
32.123280
35.994282
39.229790
41.671860
43.002522
42.764790
40.875622
37.806469
33.241009
27.170340
21.237961
16.578199
13.529880
11.931780
11.247390
11.488150
12.007130
12.477430
13.451970
14.700500
15.940600
16.421431
15.073460
11.728690
5.733829
-2.507258
-10.076350
-15.233550
-18.067310
-18.186640
-15.895490
-10.979290
-3.462607
3.607633
7.261266
5.954943
2.013980
-1.873634
-5.978150
-9.127316
-11.507380
-12.848100
-12.865420
-13.227390
-13.705180
-14.342550
-14.748040
-15.773820
-17.714230
-17.567989
-15.898290
-15.317080
-15.897360
-15.240100
-13.482190
-12.089770
-9.463315
-6.828441
-4.365778
-1.359341
0.841964
4.260678
8.039022
9.592898
8.621872
4.489980
-1.341792
-8.025728
-15.319660
-22.071449
-28.625521
-33.457020
-35.039680
-34.411671
-31.696301
-29.405380
-28.790951
-28.519291
-28.569599
-25.719931
-21.018290
-16.662710
-11.417770
-7.572505
-4.078215
-0.824458
-0.303379
-2.205889
-5.707199
-9.116553
-12.862840
-17.187300
-21.447420
-26.867380
-32.741741
-35.298691
-32.480850
-26.177830
-20.182039
-17.231060
-16.400419
-16.085251
-14.397770
-12.062620
-11.350380
-11.035440
-10.866970
-8.893803
-4.627605
-0.247224
4.439440
8.637549
12.679360
17.215340
20.976370
22.301640
20.686930
17.811520
15.568570
14.550750
14.681540
14.499740
12.098610
8.670541
5.695925
3.845359
3.814474
5.163147
6.966448
8.234865
9.109725
9.922345
10.583110
11.103960
12.438360
14.898680
15.818930
15.096860
14.533900
14.391640
15.241460
16.017820
15.915100
15.030880
14.350460
15.818700
18.953119
22.784109
26.296890
29.377729
32.379959
33.861530
33.465870
31.362600
26.440550
18.960381
10.235650
1.569882
-4.132030
-6.614347
-6.658570
-4.102548
-1.211464
1.804332
5.250890
8.183858
11.170640
14.065230
16.497250
18.304291
18.991961
18.559799
16.271690
12.338910
8.743543
6.378451
4.879093
3.472392
2.251004
1.652478
0.939768
-0.025174
-0.601005
-0.751221
-0.468337
-0.622765
-1.275107
-1.526170
-2.415069
-4.028142
-5.705093
-7.054468
-7.658610
-8.808165
-11.059540
-13.329870
-14.463050
-13.665640
-11.608460
-9.714378
-8.162140
-6.764564
-6.276711
-7.869896
-11.155240
-14.343010
-15.796040
-13.861480
-9.062504
-3.418619
1.869146
6.187287
10.194000
14.015630
16.395229
16.050810
12.312470
6.286028
-0.276238
-6.305491
-11.151260
-14.671290
-16.520920
-16.925711
-17.741369
-20.690479
-25.764620
-31.632429
-36.454800
-38.887280
-38.796261
-36.631691
-33.272171
-29.354380
-25.233950
-21.415590
-18.343170
-16.026279
-14.135000
-12.581830
-10.070030
-5.859287
-0.540403
5.417953
11.593680
17.710211
22.819210
25.611090
24.858130
21.290371
16.185579
9.713399
3.060583
-1.944531
-3.813346
-2.467481
-0.017453
0.888760
-0.965783
-6.211196
-13.713130
-21.077259
-27.263981
-31.503500
-33.353600
-32.910671
-30.648060
-27.412790
-24.241871
-21.505440
-19.503731
-18.288420
-17.078501
-16.605391
-16.073311
-12.917130
-6.550003
2.277210
11.595550
19.017941
23.303089
24.577351
22.951880
18.558630
12.639350
7.000142
3.737025
4.204054
7.518646
12.329320
17.499390
21.569750
24.487040
25.384590
24.230120
22.582649
19.845760
16.470570
13.192480
9.240287
4.422359
-1.027788
-6.377558
-10.685170
-13.579300
-15.352880
-16.438320
-17.010639
-16.719101
-14.933350
-11.356470
-6.900508
-2.728839
0.884548
2.842511
2.671470
1.600768
0.656416
0.216061
-0.102856
-0.029152
0.798443
1.872187
3.548904
5.561385
6.689881
6.911696
6.574294
5.729618
4.487406
3.109719
1.988476
1.143333
0.374467
-0.646397
-2.295504
-4.235919
-5.696669
-6.554448
-6.864241
-6.176099
-4.523482
-2.568561
-0.332627
2.427193
5.647958
8.871063
11.192170
11.956820
9.967972
4.891728
-1.215442
-5.939543
-7.923946
-6.064255
0.042212
8.068973
15.467260
20.668449
22.398979
20.910379
17.345659
12.488190
6.900231
1.836622
-1.764364
-3.531398
-3.784801
-3.640200
-3.826450
-5.279245
-8.379042
-12.327490
-16.471781
-19.939871
-21.759081
-21.533051
-18.472799
-12.590720
-5.579678
1.113617
6.098608
7.901909
6.814360
3.927955
-0.201129
-3.949290
-5.804301
-5.746039
-3.743854
-0.038512
4.394281
7.793575
8.244459
5.636727
1.205806
-4.645621
-10.388710
-13.137070
-12.818390
-9.739414
-4.225857
1.256112
5.547580
7.765497
7.205110
4.350995
-0.698107
-6.960407
-12.613180
-15.328080
-14.737740
-11.816710
-5.985404
1.732500
9.388398
15.353310
18.056030
17.332560
14.327530
10.605110
7.603816
5.447670
4.153982
4.711093
4.937120
3.948545
2.534825
-0.415457
-3.403878
-5.970194
-7.870130
-8.019411
-7.624215
-6.325613
-3.956075
-1.429068
0.548316
1.335198
1.538295
1.467866
1.645459
2.358870
3.865950
6.911930
9.832028
11.801690
13.813240
14.466050
13.913150
13.200200
10.925430
8.262710
6.934392
6.661569
6.769903
6.070062
4.277524
1.896989
-0.685472
-3.026230
-4.193334
-3.703609
-2.159794
0.129488
3.413662
7.297065
11.607020
15.417180
17.122210
17.449320
16.653549
15.406190
15.510780
15.627300
16.129890
18.501070
21.531839
25.009750
27.744539
29.347549
30.038971
28.802370
26.111340
22.418171
17.765430
12.534050
7.260798
1.734372
-2.918365
-7.387191
-10.845210
-10.999640
-9.238224
-5.963175
-3.034888
0.305209
3.614419
5.107927
6.104692
4.887516
2.487092
0.756092
-1.577646
-3.508936
-4.689610
-6.976318
-7.858899
-6.452198
-4.343082
-0.986139
1.843174
5.067682
7.716829
7.294023
6.501760
3.950183
0.212084
-3.452780
-8.937791
-13.222000
-15.831140
-17.530090
-18.393709
-18.555401
-17.911949
-16.802401
-14.855670
-13.016330
-10.664350
-7.508862
-3.692378
-0.300338
