EVENT_NAME: L_AQUILA
EVENT_ID: IT-2009-0009
EVENT_DATE_YYYYMMDD: 20090406
EVENT_TIME_HHMMSS: 013240
EVENT_LATITUDE_DEGREE: 42.3420
EVENT_LONGITUDE_DEGREE: 13.3800
EVENT_DEPTH_KM: 8.3
HYPOCENTER_REFERENCE: INGV-CNT_Seismic_Bulletin
MAGNITUDE_W: 6.1
MAGNITUDE_W_REFERENCE: INGV-CNT_Seismic_Bulletin
MAGNITUDE_L: 
MAGNITUDE_L_REFERENCE: 
FOCAL_MECHANISM: Normal faulting
NETWORK: IT
STATION_CODE: MTR
STATION_NAME: 
STATION_LATITUDE_DEGREE: 42.524021
STATION_LONGITUDE_DEGREE: 13.244796
STATION_ELEVATION_M: 975
LOCATION: 
SENSOR_DEPTH_M: 0.0
VS30_M/S: 689
SITE_CLASSIFICATION_EC8: B
MORPHOLOGIC_CLASSIFICATION: 
EPICENTRAL_DISTANCE_KM: 23.1
EARTHQUAKE_BACKAZIMUTH_DEGREE: 331.2
DATE_TIME_FIRST_SAMPLE_YYYYMMDD_HHMMSS: 
DATE_TIME_FIRST_SAMPLE_PRECISION: 
SAMPLING_INTERVAL_S: 
NDATA: 105
DURATION_S: 
STREAM: HNE
UNITS: cm/s^2
INSTRUMENT: sensor = FBA-3 [Kinemetrics] | digitizer = Etna [Kinemetrics]
INSTRUMENT_ANALOG/DIGITAL: D
INSTRUMENTAL_FREQUENCY_HZ: 218.000
INSTRUMENTAL_DAMPING: 0.700000
FULL_SCALE_G: 1.0
N_BIT_DIGITAL_CONVERTER: 18
PGA_CM/S^2: 42.921921
TIME_PGA_S: 
BASELINE_CORRECTION: BASELINE REMOVED
FILTER_TYPE: BUTTERWORTH
FILTER_ORDER: 2
LOW_CUT_FREQUENCY_HZ: 0.080
HIGH_CUT_FREQUENCY_HZ: 40.000
LATE/NORMAL_TRIGGERED: NT
DATABASE_VERSION: 0.5
HEADER_FORMAT: DYNA 1.2
DATA_TYPE: ACCELERATION RESPONSE SPECTRUM
PROCESSING: manual (Paolucci et al., 2011)
DATA_TIMESTAMP_YYYYMMDD_HHMMSS: 20211011_155909.932
DATA_LICENSE: CC-BY3_0-IT (http://creativecommons.org/licenses/by/3.0/deed.en)
DATA_CITATION: Luzi L, Pacor F, Puglia R (2019). Italian Accelerometric Archive v 3.0 - Istituto Nazionale di Geofisica e Vulcanologia, Dipartimento della Protezione Civile Nazionale. doi: 10.13127/itaca.3.1
DATA_CREATOR: ITACA working group
ORIGINAL_DATA_MEDIATOR_CITATION: data obtained within the DPC-INGV data exchange agreements
ORIGINAL_DATA_MEDIATOR: Archive of Italian Department of Civil Protection
ORIGINAL_DATA_CREATOR_CITATION: Presidency Of Counsil Of Ministers-Civil Protection Department. (1972). Italian Strong Motion Network. Presidency of Counsil of Ministers - Civil Protection Department. https://doi.org/10.7914/SN/IT http://www.fdsn.org/networks/detail/IT/
ORIGINAL_DATA_CREATOR: network: IT (Italian Strong Motion Network (RAN)); owner: Presidency of Counsil of Ministers - Civil Protection Department (PCM - DPC)
USER1: 
USER2: 
USER3: 
USER4: 
USER5: 
    0.010000    43.080505
    0.020000    43.679020
    0.022000    43.712791
    0.025000    43.783825
    0.029000    45.830318
    0.030000    45.781807
    0.032000    45.727066
    0.035001    48.168842
    0.036000    50.155224
    0.040000    54.359909
    0.041999    53.906887
    0.044001    54.118290
    0.045000    53.906723
    0.046000    56.820351
    0.048001    66.069473
    0.050000    73.688370
    0.054999   100.333443
    0.059999    89.590073
    0.064998    66.252937
    0.067002    79.392937
    0.069999    84.298843
    0.075002    91.743217
    0.080000    81.221008
    0.084998    83.958710
    0.090001    84.841042
    0.095003    82.748573
    0.100000    92.500694
    0.109999   104.169319
    0.120005    88.187027
    0.130005   106.401405
    0.132996   107.343071
    0.139997   101.063156
    0.149993   109.242958
    0.160000   130.334503
    0.170010   138.640457
    0.179986   128.383392
    0.190006   114.539818
    0.200000   130.018692
    0.220022   110.778770
    0.239981   116.367744
    0.250000   120.515190
    0.260010   127.615166
    0.280034   136.874237
    0.290023   115.895996
    0.300030    87.551170
    0.320000    70.435928
    0.340020    65.261383
    0.350017    67.211464
    0.359971    76.216400
    0.379939    79.296242
    0.400000    75.183426
    0.419992    71.180908
    0.439947    74.632401
    0.450045    77.724670
    0.459982    79.958473
    0.480077    80.222343
    0.500000    73.676155
    0.550055    61.579662
    0.599880    66.778671
    0.650195    68.320946
    0.667111    72.761940
    0.699790    79.747520
    0.750188    83.615364
    0.800000    91.448029
    0.850340    81.435425
    0.900090    72.082726
    0.949668    58.024136
    1.000000    58.443401
    1.100110    66.616051
    1.200480    39.881187
    1.300390    25.475517
    1.400560    23.644352
    1.499250    25.655424
    1.600000    20.055763
    1.700680    20.050959
    1.798561    16.183798
    1.901141    13.224278
    2.000000    12.983487
    2.197802    14.160280
    2.398082    14.078661
    2.500000    14.032001
    2.597403    14.229375
    2.801121    12.084274
    3.003003     9.424254
    3.205128     8.137847
    3.401361     7.228373
    3.496503     7.015024
    3.597122     6.917932
    3.802281     6.760927
    4.000000     6.405086
    4.201681     6.217311
    4.405286     5.739786
    4.608295     5.565390
    4.807692     5.121391
    5.000000     4.519070
    5.494505     3.023099
    5.988024     2.537310
    6.493506     2.000869
    6.993007     1.535311
    7.518797     1.172803
    8.000000     0.953447
    8.474576     0.767288
    9.009009     0.649219
    9.523809     0.566157
   10.000000     0.496092
