EVENT_NAME: L_AQUILA
EVENT_ID: IT-2009-0009
EVENT_DATE_YYYYMMDD: 20090406
EVENT_TIME_HHMMSS: 013240
EVENT_LATITUDE_DEGREE: 42.3420
EVENT_LONGITUDE_DEGREE: 13.3800
EVENT_DEPTH_KM: 8.3
HYPOCENTER_REFERENCE: INGV-CNT_Seismic_Bulletin
MAGNITUDE_W: 6.1
MAGNITUDE_W_REFERENCE: INGV-CNT_Seismic_Bulletin
MAGNITUDE_L: 
MAGNITUDE_L_REFERENCE: 
FOCAL_MECHANISM: Normal faulting
NETWORK: IT
STATION_CODE: MTR
STATION_NAME: 
STATION_LATITUDE_DEGREE: 42.524021
STATION_LONGITUDE_DEGREE: 13.244796
STATION_ELEVATION_M: 975
LOCATION: 
SENSOR_DEPTH_M: 0.0
VS30_M/S: 689
SITE_CLASSIFICATION_EC8: B
MORPHOLOGIC_CLASSIFICATION: 
EPICENTRAL_DISTANCE_KM: 23.1
EARTHQUAKE_BACKAZIMUTH_DEGREE: 331.2
DATE_TIME_FIRST_SAMPLE_YYYYMMDD_HHMMSS: 20090406_013231.000
DATE_TIME_FIRST_SAMPLE_PRECISION: seconds
SAMPLING_INTERVAL_S: 0.005000
NDATA: 20000
DURATION_S: 100.000
STREAM: HNE
UNITS: cm/s
INSTRUMENT: sensor = FBA-3 [Kinemetrics] | digitizer = Etna [Kinemetrics]
INSTRUMENT_ANALOG/DIGITAL: D
INSTRUMENTAL_FREQUENCY_HZ: 218.000
INSTRUMENTAL_DAMPING: 0.700000
FULL_SCALE_G: 1.0
N_BIT_DIGITAL_CONVERTER: 18
PGV_CM/S: -3.539599
TIME_PGV_S: 25.590000
BASELINE_CORRECTION: BASELINE REMOVED
FILTER_TYPE: BUTTERWORTH
FILTER_ORDER: 2
LOW_CUT_FREQUENCY_HZ: 0.080
HIGH_CUT_FREQUENCY_HZ: 40.000
LATE/NORMAL_TRIGGERED: NT
DATABASE_VERSION: 0.5
HEADER_FORMAT: DYNA 1.2
DATA_TYPE: VELOCITY
PROCESSING: manual (Paolucci et al., 2011)
DATA_TIMESTAMP_YYYYMMDD_HHMMSS: 20211011_155908.642
DATA_LICENSE: CC-BY3_0-IT (http://creativecommons.org/licenses/by/3.0/deed.en)
DATA_CITATION: Luzi L, Pacor F, Puglia R (2019). Italian Accelerometric Archive v 3.0 - Istituto Nazionale di Geofisica e Vulcanologia, Dipartimento della Protezione Civile Nazionale. doi: 10.13127/itaca.3.1
DATA_CREATOR: ITACA working group
ORIGINAL_DATA_MEDIATOR_CITATION: data obtained within the DPC-INGV data exchange agreements
ORIGINAL_DATA_MEDIATOR: Archive of Italian Department of Civil Protection
ORIGINAL_DATA_CREATOR_CITATION: Presidency Of Counsil Of Ministers-Civil Protection Department. (1972). Italian Strong Motion Network. Presidency of Counsil of Ministers - Civil Protection Department. https://doi.org/10.7914/SN/IT http://www.fdsn.org/networks/detail/IT/
ORIGINAL_DATA_CREATOR: network: IT (Italian Strong Motion Network (RAN)); owner: Presidency of Counsil of Ministers - Civil Protection Department (PCM - DPC)
USER1: 
USER2: 
USER3: 
USER4: 
USER5: 
[...]
-1.654156
-1.735952
-1.807580
-1.863931
-1.903607
-1.927920
-1.938606
-1.936802
-1.923172
-1.898086
-1.862149
-1.817801
-1.771209
-1.732075
-1.710013
-1.709290
-1.725400
-1.745656
-1.753748
-1.736443
-1.688807
-1.614368
-1.520614
-1.414585
-1.302230
-1.189764
-1.083381
-0.987155
-0.901716
-0.825197
-0.755272
-0.690075
-0.627603
-0.565646
-0.503492
-0.443565
-0.390685
-0.349524
-0.322579
-0.309933
-0.310389
-0.322667
-0.345278
-0.375017
-0.406441
-0.434212
-0.456097
-0.472982
-0.485517
-0.490444
-0.479939
-0.444483
-0.376853
-0.274703
-0.140702
0.019550
0.200345
0.397151
0.605647
0.820256
1.033933
1.238978
1.427587
1.592391
1.728461
1.835827
1.919643
1.987612
2.047109
2.103693
2.160826
2.220257
2.283137
2.350966
2.425131
2.505169
2.587041
2.662432
2.719537
2.746077
2.734561
2.686329
2.610577
2.520139
2.428669
2.350295
2.298644
2.282092
2.297537
2.329736
2.359162
2.371841
2.362845
2.333465
2.287712
2.230721
2.167715
2.102386
2.035890
1.967731
1.896931
1.821917
1.741124
1.655726
1.570269
1.488333
1.409388
1.331865
1.257044
1.188362
1.129106
1.081609
1.047045
1.025582
1.017389
1.023918
1.047252
1.086236
1.133075
1.174690
1.197543
1.191672
1.151645
1.075463
0.963765
0.820724
0.655522
0.481343
0.310918
0.151320
0.001853
-0.142803
-0.286222
-0.425580
-0.552679
-0.659442
-0.742014
-0.800598
-0.837408
-0.855761
-0.861622
-0.864781
-0.876031
-0.902727
-0.947730
-1.011916
-1.096987
-1.206618
-1.344134
-1.506011
-1.677244
-1.836591
-1.969144
-2.074392
-2.162492
-2.243573
-2.320600
-2.391166
-2.454018
-2.511851
-2.567710
-2.620062
-2.662156
-2.686228
-2.687910
-2.666674
-2.623253
-2.557672
-2.470647
-2.367321
-2.258347
-2.155403
-2.064794
-1.985079
-1.910509
-1.837272
-1.767602
-1.708114
-1.663975
-1.634634
-1.614081
-1.594172
-1.568513
-1.534707
-1.493751
-1.447785
-1.398438
-1.346062
-1.289033
-1.224540
-1.151987
-1.075105
-0.998928
-0.925154
-0.851513
-0.775197
-0.696398
-0.618340
-0.543465
-0.469372
-0.388867
-0.294269
-0.181420
-0.050012
0.098164
0.259726
0.428868
0.597009
0.752995
0.883908
0.977870
1.028552
1.038671
1.019574
0.986753
0.954549
0.932780
0.926094
0.935698
0.961419
1.002712
1.058995
1.129410
1.212135
1.303817
1.399159
1.490784
1.570609
1.633293
1.678865
1.711327
1.734893
1.752058
1.764201
1.772174
1.776198
1.776470
1.774151
1.771005
1.767940
1.764438
1.759380
1.751395
1.738391
1.718260
1.690628
1.656950
1.618072
1.572157
1.516306
1.450650
1.380264
1.312660
1.253461
1.204503
1.164886
1.131626
1.098678
1.057496
1.001323
0.930473
0.854142
0.786725
0.740845
0.722284
0.730377
0.762088
0.814916
0.885586
0.966517
1.044758
1.105536
1.137784
1.137313
1.106182
1.050400
0.978058
0.897300
0.812738
0.722047
0.616653
0.487215
0.329929
0.149238
-0.044154
-0.237762
-0.421204
-0.587829
-0.734449
-0.860582
-0.967960
-1.059928
-1.140307
-1.211781
-1.274064
-1.322995
-1.352016
-1.354996
-1.327905
-1.269048
-1.179747
-1.066123
-0.939908
-0.816110
-0.708840
-0.628568
-0.581001
-0.565380
-0.572998
-0.589356
-0.600867
-0.602228
-0.599326
-0.606183
-0.638236
-0.705660
-0.810152
-0.945990
-1.102987
-1.269204
-1.433246
-1.586380
-1.723970
-1.845514
-1.953336
-2.050871
-2.141558
-2.228511
-2.313203
-2.392042
-2.454266
-2.485229
-2.473566
-2.417033
-2.323409
-2.206952
-2.084000
-1.970225
-1.878480
-1.815597
-1.779313
-1.758236
-1.736224
-1.698773
-1.637438
-1.550727
-1.442730
-1.321133
-1.195074
-1.072772
-0.960132
-0.860916
-0.777420
-0.711527
-0.666053
-0.644690
-0.649981
-0.681114
-0.733603
-0.801207
-0.878414
-0.961404
-1.046833
-1.129785
-1.203155
-1.259586
-1.294482
-1.307803
-1.304181
-1.291608
-1.278316
-1.269260
-1.265197
-1.264538
-1.265209
-1.264977
-1.261241
-1.251217
-1.232777
-1.205853
-1.173025
-1.138280
-1.105312
-1.076844
-1.054505
-1.038597
-1.028229
-1.022254
-1.020555
-1.024587
-1.036448
-1.057094
-1.085369
-1.118396
-1.152262
-1.182643
-1.205784
-1.219088
-1.220513
-1.207804
-1.179043
-1.134406
-1.078125
-1.019629
-0.972296
-0.948594
-0.953841
-0.982865
-1.021088
-1.048827
-1.047927
-1.008548
-0.932340
-0.830634
-0.719533
-0.614625
-0.527671
-0.465755
-0.431193
-0.421305
-0.429151
-0.446062
-0.465052
-0.483384
-0.503301
-0.530814
-0.572937
-0.634651
-0.717003
-0.816548
-0.925477
-1.032186
-1.122976
-1.185638
-1.213650
-1.208592
-1.179773
-1.141220
-1.107169
-1.088208
-1.089007
-1.107538
-1.136245
-1.164753
-1.182567
-1.181704
-1.159900
-1.122875
-1.083025
-1.054789
-1.049885
-1.073890
-1.123831
-1.188400
-1.251841
-1.299259
-1.321089
-1.315568
-1.288386
-1.250289
-1.214344
-1.193547
-1.198332
-1.233275
-1.294386
-1.369907
-1.444417
-1.502575
-1.531311
-1.522515
-1.476126
-1.401062
-1.312523
-1.226510
-1.154344
-1.100171
-1.062102
-1.034842
-1.012076
-0.989218
-0.965919
-0.945913
-0.934613
-0.936530
-0.953332
-0.983153
-1.021378
-1.062315
-1.100539
-1.131242
-1.150850
-1.158565
-1.156981
-1.150493
-1.142813
-1.135449
-1.127397
-1.115314
-1.094355
-1.060448
-1.012546
-0.952612
-0.884342
-0.812395
-0.741847
-0.677728
-0.623947
-0.580943
-0.545006
-0.511457
-0.478721
-0.449419
-0.428215
-0.418930
-0.422724
-0.437327
-0.457365
-0.476141
-0.487612
-0.486852
-0.469514
-0.432158
-0.374011
-0.298732
-0.213755
-0.127068
-0.043815
0.035046
0.111500
0.188694
0.270932
0.363692
0.471550
0.595822
0.734099
0.881272
1.030536
1.174209
1.304960
1.416838
1.505543
1.568412
1.604337
1.613527
1.597405
1.559627
1.507930
1.453592
1.407341
1.375711
1.361083
1.363333
1.380105
1.406374
1.435023
1.458811
1.472964
1.476068
1.468672
1.451602
1.425258
1.391060
1.353821
1.321058
1.299591
1.293457
1.303970
1.329614
1.365233
1.402981
1.434954
1.454568
1.456440
1.436372
1.392733
1.328229
1.248844
1.160675
1.068381
0.975686
0.886002
0.802342
0.726956
0.661669
0.608943
0.572035
0.553387
0.552522
0.564626
0.581081
0.592706
0.592351
0.574029
0.532863
0.468788
0.389132
0.306534
0.234392
0.182101
0.151274
0.135071
0.121578
0.098980
0.058836
-0.003459
-0.088748
-0.193994
-0.312970
-0.437316
-0.558102
-0.669286
-0.771204
-0.870231
-0.974592
-1.089779
-1.216009
-1.348407
-1.479413
-1.601590
-1.709286
-1.799322
-1.871759
-1.930391
-1.981098
-2.028722
-2.075377
-2.120483
-2.161423
-2.194912
-2.218755
-2.233082
-2.240582
-2.245541
-2.252405
-2.264813
-2.284726
-2.311205
-2.339682
-2.362426
-2.369844
-2.352755
-2.305619
-2.228789
-2.128291
-2.013743
-1.895526
-1.782411
-1.680613
-1.594077
-1.525275
-1.475841
-1.446378
-1.435462
-1.438699
-1.449003
-1.459050
-1.464884
-1.466613
-1.464366
-1.454150
-1.428589
-1.381756
-1.312919
-1.225480
-1.123999
-1.013943
-0.903164
-0.801369
-0.717020
-0.654427
-0.612753
-0.586324
-0.565915
-0.540421
-0.498658
-0.432420
-0.339213
-0.222239
-0.088637
0.053120
0.195504
0.331820
0.456007
0.565058
0.660855
0.747317
0.825371
0.891586
0.940826
0.968813
0.973205
0.954802
0.919138
0.876151
0.836978
0.810431
0.801178
0.809590
0.832450
0.863822
0.896398
0.924088
0.944707
0.960392
0.976054
0.997932
1.032376
1.083850
1.152257
1.230802
1.307181
1.369241
1.410939
1.433610
1.442813
1.445019
1.446180
1.450584
1.459036
1.467989
1.471156
1.463072
1.442272
1.412075
1.379068
1.351340
1.337960
1.348055
1.387431
1.454662
1.540279
1.629892
1.708948
1.766044
1.793691
1.788263
1.750899
1.688448
1.612155
1.533725
1.461313
1.398078
1.343123
1.293064
1.243084
1.187391
1.120502
1.039959
0.947867
0.849167
0.748621
0.649334
0.553082
0.460833
0.372644
0.287769
0.205551
0.126324
0.051420
-0.017632
-0.079727
-0.133639
-0.177398
-0.209393
-0.230276
-0.242905
-0.249951
-0.251563
-0.245108
-0.226952
-0.194833
-0.148743
-0.090072
-0.020939
0.055427
0.134499
0.211199
0.280756
0.339143
0.383506
0.412656
0.427277
0.429798
0.424129
0.415261
0.408610
0.409283
0.421551
0.448076
0.488744
0.540105
0.595734
0.646963
0.684023
0.698077
0.684156
0.643213
0.580970
0.504428
0.419418
0.330612
0.242377
0.158731
0.082661
0.015866
-0.040839
-0.086488
-0.118940
-0.135233
-0.133613
-0.115465
-0.085458
-0.049888
-0.014777
0.014636
0.033776
0.039953
0.034459
0.023255
0.015013
0.017252
0.033220
0.062029
0.100920
0.146384
0.194089
0.239852
0.281034
0.316485
0.345675
0.368285
0.384163
0.393486
0.397261
0.397682
0.397403
0.398089
0.399369
0.398566
0.391361
0.373352
0.341714
0.295751
0.236167
0.164781
0.085658
0.005906
-0.065318
-0.118767
-0.146907
-0.145790
-0.116690
-0.065727
-0.001391
0.067985
0.135581
0.195805
0.242880
0.270979
0.276891
0.262054
0.231315
0.189976
0.142306
0.092603
0.046422
0.009263
-0.016341
-0.032237
-0.043161
-0.053335
-0.064122
-0.074810
-0.084549
-0.092529
-0.096898
-0.094940
-0.084940
-0.067540
-0.044902
-0.018843
0.009981
0.041509
0.075818
0.113241
0.153877
0.196648
0.239271
0.278992
0.313378
0.340905
0.360454
0.370104
0.367584
0.352412
0.326694
0.293364
0.254160
0.209711
0.161141
0.111035
0.062823
0.018925
-0.020846
-0.058882
-0.098067
-0.140498
-0.186888
-0.236327
-0.285806
-0.329593
-0.360187
-0.371159
-0.359495
-0.326030
-0.274525
-0.210123
-0.138196
-0.064379
0.005172
0.064855
0.112027
0.149174
0.183824
0.225488
0.281439
0.354150
0.441911
0.541623
0.650744
0.766841
0.886113
1.002899
1.110907
1.205125
1.283235
1.346132
1.396908
1.438792
1.474262
1.505695
1.536016
1.568624
1.606516
1.650798
1.700024
1.751471
1.803241
1.855187
1.908319
1.963789
2.022303
2.084076
2.148878
2.215499
2.280815
2.339911
2.388042
2.423063
2.446012
2.459295
2.464549
2.462082
2.451458
2.432119
2.403726
2.365972
2.318180
2.259863
2.192226
2.118783
2.044163
1.972300
1.905548
1.845453
1.794164
1.754372
1.727623
1.712990
1.707267
1.706278
1.706285
1.704594
1.699411
1.689772
1.675866
1.659201
1.642301
1.628333
1.621149
1.625424
1.646037
1.686836
1.749799
1.834566
1.937706
2.051994
2.166544
2.268436
2.345505
2.389127
2.396032
2.368400
2.312955
2.240451
2.164855
2.100563
2.058346
2.042523
2.050540
2.074310
2.102524
2.123588
2.128573
2.113275
2.078356
2.027652
1.966192
1.898635
1.828078
1.755819
1.682011
1.606339
1.528288
1.447016
1.361287
1.270038
1.173305
1.072849
0.972102
0.875176
0.784938
0.701371
0.621853
0.542846
0.460933
0.372590
0.274187
0.163547
0.042293
-0.083015
-0.202201
-0.304828
-0.383409
-0.434571
-0.458836
-0.460315
-0.446044
-0.424196
-0.401220
-0.379223
-0.355559
-0.324941
-0.282044
-0.223003
-0.146473
-0.055199
0.042634
0.134324
0.206534
0.249757
0.260641
0.242096
0.202138
0.151879
0.102820
0.063663
0.037389
0.020452
0.005106
-0.016886
-0.051671
-0.102300
-0.168168
-0.244642
-0.323763
-0.396410
-0.455294
-0.497682
-0.526569
-0.549427
-0.575453
-0.612961
-0.667492
-0.740484
-0.828646
-0.924576
-1.018992
-1.103761
-1.174240
-1.230249
-1.275729
-1.317388
-1.362726
-1.417948
-1.486153
-1.565966
-1.651267
-1.732685
-1.800353
-1.846351
-1.865883
-1.857703
-1.824350
-1.771901
-1.708700
-1.643039
-1.580854
-1.524600
-1.473373
-1.423963
-1.372254
-1.314409
-1.247949
-1.172783
-1.091540
-1.008931
-0.930296
-0.859702
-0.798494
-0.745184
-0.696698
-0.650245
-0.604870
-0.561979
-0.524884
-0.497652
-0.483431
-0.483061
-0.494859
-0.515367
-0.540468
-0.566409
-0.590290
-0.609753
-0.622525
-0.626655
-0.621485
-0.608716
-0.592731
-0.579355
-0.573285
-0.575587
-0.582857
-0.588452
-0.584987
-0.567057
-0.533049
-0.485069
-0.427854
-0.368106
-0.313107
-0.267038
-0.227938
-0.189596
-0.146807
-0.098421
-0.045678
0.011475
0.075490
0.148464
0.229196
0.313808
0.399481
0.487871
0.584838
0.696027
0.822469
0.960826
1.106389
1.253516
1.393214
1.512469
1.598018
1.642309
1.647002
1.621617
1.578479
1.527505
1.474102
1.419454
1.360669
1.291445
1.204747
1.096041
0.964457
0.811358
0.638718
0.449415
0.248551
0.043648
-0.157170
-0.347969
-0.526262
-0.691454
-0.842540
-0.977337
-1.092912
-1.186246
-1.255056
-1.298456
-1.316988
-1.312421
-1.287805
-1.247340
-1.195667
-1.137166
-1.075325
-1.011885
-0.947068
-0.880956
-0.813104
-0.740339
-0.657326
-0.561148
-0.454755
-0.345332
-0.239712
-0.141165
-0.049804
0.034606
0.111284
0.180068
0.243076
0.304104
0.366340
0.429616
0.489341
0.539205
0.575182
0.596265
0.602694
0.595454
0.577170
0.551870
0.522962
0.490954
0.453285
0.407525
0.355139
0.301174
0.250646
0.206470
0.169593
0.139110
0.112837
0.089072
0.068183
0.052800
0.046412
0.050968
0.064850
0.082673
0.096878
0.099760
0.085038
0.048450
-0.012309
-0.096365
-0.197353
-0.304145
-0.406104
-0.498226
-0.581328
-0.658508
-0.732961
-0.808900
-0.892122
-0.987050
-1.092660
-1.202476
-1.309272
-1.409706
-1.505256
-1.600015
-1.697606
-1.799756
-1.907878
-2.025066
-2.155055
-2.299397
-2.455856
-2.618053
-2.775849
-2.918145
-3.038644
-3.139969
-3.230579
-3.316726
-3.397609
-3.466898
-3.516560
-3.539599
-3.531844
-3.492735
-3.425044
-3.334606
-3.230168
-3.122141
-3.019827
-2.928655
-2.849154
-2.778215
-2.712388
-2.651081
-2.596844
-2.553207
-2.522984
-2.508479
-2.512570
-2.538184
-2.585954
-2.653065
-2.734518
-2.824368
-2.915455
-2.999447
-3.068973
-3.120400
-3.154109
-3.172048
-3.175303
-3.163145
-3.133162
-3.082618
-3.010965
-2.920697
-2.814337
-2.691177
-2.548524
-2.385613
-2.205522
-2.014060
-1.816941
-1.617421
-1.417032
-1.218522
-1.026958
-0.848094
-0.686836
-0.547456
-0.434354
-0.351345
-0.299547
-0.276105
-0.275017
-0.289293
-0.312655
-0.339455
-0.363716
-0.379575
-0.383308
-0.374650
-0.355811
-0.329104
-0.295231
-0.253078
-0.200778
-0.137178
-0.062318
0.023124
0.117973
0.219914
0.325186
0.429338
0.528706
0.621788
0.709750
0.795756
0.883613
0.976551
1.076312
1.182470
1.292588
1.403270
1.510958
1.612178
1.703732
1.782968
1.848186
1.899217
1.937690
1.966543
1.989058
2.008199
2.026613
2.046589
2.069465
2.094909
2.120535
2.142275
2.156024
2.159669
2.153634
2.139649
2.119518
2.095189
2.069159
2.043802
2.020067
1.997048
1.972797
1.945491
1.913977
1.877621
1.836026
1.789013
1.736841
1.680481
1.621727
1.562938
1.506324
1.453217
1.403896
1.358072
1.315744
1.277802
1.245542
1.219429
1.198615
1.181570
1.166622
1.151716
1.133848
1.109221
1.074964
1.031605
0.984056
0.940075
0.907421
0.891297
0.892752
0.908355
0.931206
0.952831
0.965350
0.963468
0.945805
0.915193
0.877884
0.841767
0.814076
0.799223
0.797707
0.806754
0.821847
0.837754
0.849083
0.851263
0.842029
0.822505
0.797092
0.771726
0.750977
0.735801
0.723205
0.707375
0.681636
0.640854
0.583069
0.509365
0.422829
0.327996
0.230674
0.137253
0.053354
-0.017641
-0.075314
-0.121425
-0.158133
-0.186916
-0.208819
-0.225329
-0.238851
-0.251928
-0.265832
-0.280081
-0.293026
-0.302821
-0.308475
-0.310345
-0.309452
-0.306187
-0.299839
-0.289418
-0.274554
-0.255545
-0.233274
-0.209425
-0.186225
-0.165491
-0.147975
-0.133416
-0.120860
-0.108937
-0.095919
-0.079896
-0.059511
-0.034875
-0.007936
0.018166
0.040409
0.056954
0.067517
0.073153
0.075573
0.076291
0.076037
0.074663
0.070980
0.062442
0.045674
0.017871
-0.022154
-0.073708
-0.134351
-0.200240
-0.266725
-0.329166
-0.384158
-0.430800
-0.470746
-0.506760
-0.541048
-0.574532
-0.607056
-0.637868
-0.665902
-0.689603
-0.706331
-0.712329
-0.703790
-0.678050
-0.633862
-0.571139
-0.490910
-0.395384
-0.287783
-0.171903
-0.051578
0.069749
0.189430
0.306078
0.419610
0.530431
0.638355
0.742289
0.840599
0.930974
1.009853
1.073125
1.118438
1.147133
1.163819
1.173599
1.178984
1.179077
1.171391
1.154078
1.126727
1.090128
1.045959
0.996660
0.945526
0.896496
0.853051
0.817096
0.788947
0.768015
0.753373
0.743963
0.738404
0.734827
0.731204
0.725894
0.718371
0.710111
0.704582
0.705681
0.715806
0.735018
0.761194
0.790270
0.816891
0.836299
0.846472
0.848052
0.842483
0.831390
0.817022
0.801378
0.785107
0.767984
0.749766
0.730341
0.710235
0.691933
0.680533
0.682567
0.703777
0.747101
0.811397
0.891238
0.978212
1.063065
1.137368
1.194924
1.233774
1.257801
1.276196
1.300145
1.337895
1.391633
1.458736
1.535201
1.617488
1.702418
1.786844
1.867694
1.942334
2.009118
2.067770
2.119369
2.165761
2.208438
2.247679
2.282707
2.312466
2.336004
2.352079
2.358816
2.354386
2.338180
2.311257
2.276016
2.235370
2.191355
2.143825
2.090588
2.029049
1.957885
1.877724
1.791099
1.702044
1.615320
1.535609
1.466772
1.410859
1.367091
1.331589
1.298181
1.260073
1.211774
1.150401
1.075900
0.990407
0.897241
0.799779
0.700351
0.599495
0.495978
0.387598
0.272324
0.149428
0.020264
-0.111692
-0.241617
-0.364519
-0.476383
-0.575141
-0.661377
-0.738431
-0.811486
-0.885812
-0.964963
-1.049659
-1.137560
-1.223906
-1.302907
-1.369418
-1.420289
-1.455143
-1.476504
-1.489180
-1.499112
-1.512336
-1.534332
-1.569460
-1.620271
-1.686822
-1.766353
-1.853774
-1.943134
-2.029363
-2.109202
-2.181007
-2.244071
-2.298075
-2.342779
-2.377872
-2.402945
-2.417563
-2.421426
-2.414449
-2.396729
-2.368677
-2.331296
-2.286295
-2.235774
-2.181453
-2.124034
-2.063334
-1.999026
-1.931161
-1.859928
-1.785367
-1.707955
-1.629664
-1.554232
-1.486325
-1.430330
-1.389345
-1.364556
-1.355297
-1.359609
-1.374751
-1.397344
-1.423263
-1.447823
-1.466612
-1.476536
-1.476407
-1.466626
-1.448217
-1.422040
-1.388564
-1.347858
-1.299854
-1.244851
-1.183684
-1.117489
-1.047781
-0.976847
-0.907744
-0.843675
-0.787115
-0.739198
-0.699705
-0.667647
-0.641942
-0.621729
-0.606457
-0.595832
-0.589565
-0.587175
-0.588024
-0.591506
-0.597256
-0.605339
-0.616238
-0.630525
-0.648141
-0.667677
-0.686318
-0.700574
-0.707390
-0.705282
-0.695083
-0.679737
-0.663090
-0.648328
-0.636931
-0.628586
-0.621907
-0.615219
-0.606740
-0.594486
-0.576718
-0.552914
-0.524362
-0.493698
-0.463746
-0.436535
-0.413028
-0.393292
-0.376651
-0.361877
-0.347774
-0.333844
-0.320398
-0.308130
-0.297616
-0.289103
-0.282635
-0.278364
-0.276793
-0.278816
-0.285559
-0.298075
-0.316952
-0.342050
-0.372649
-0.407971
-0.447624
-0.491570
-0.539691
-0.591574
-0.646816
-0.705331
-0.767327
-0.833242
-0.903676
-0.979113
-1.059673
-1.145189
-1.235301
-1.329218
-1.425229
-1.520431
-1.611239
-1.694577
-1.768696
-1.832966
-1.887199
-1.931214
-1.964744
-1.987653
-2.000295
-2.003547
-1.998493
-1.986182
-1.967541
-1.943341
-1.914358
-1.881588
-1.846053
-1.808223
-1.767444
-1.721838
-1.669150
-1.608191
-1.539634
-1.465627
-1.388947
-1.312396
