EVENT_NAME: L_AQUILA
EVENT_ID: IT-2009-0009
EVENT_DATE_YYYYMMDD: 20090406
EVENT_TIME_HHMMSS: 013240
EVENT_LATITUDE_DEGREE: 42.3420
EVENT_LONGITUDE_DEGREE: 13.3800
EVENT_DEPTH_KM: 8.3
HYPOCENTER_REFERENCE: INGV-CNT_Seismic_Bulletin
MAGNITUDE_W: 6.1
MAGNITUDE_W_REFERENCE: INGV-CNT_Seismic_Bulletin
MAGNITUDE_L: 
MAGNITUDE_L_REFERENCE: 
FOCAL_MECHANISM: Normal faulting
NETWORK: IT
STATION_CODE: MTR
STATION_NAME: 
STATION_LATITUDE_DEGREE: 42.524021
STATION_LONGITUDE_DEGREE: 13.244796
STATION_ELEVATION_M: 975
LOCATION: 
SENSOR_DEPTH_M: 0.0
VS30_M/S: 689
SITE_CLASSIFICATION_EC8: B
MORPHOLOGIC_CLASSIFICATION: 
EPICENTRAL_DISTANCE_KM: 23.1
EARTHQUAKE_BACKAZIMUTH_DEGREE: 331.2
DATE_TIME_FIRST_SAMPLE_YYYYMMDD_HHMMSS: 20090406_013231.000
DATE_TIME_FIRST_SAMPLE_PRECISION: seconds
SAMPLING_INTERVAL_S: 0.005000
NDATA: 20000
DURATION_S: 100.000
STREAM: HNE
UNITS: cm
INSTRUMENT: sensor = FBA-3 [Kinemetrics] | digitizer = Etna [Kinemetrics]
INSTRUMENT_ANALOG/DIGITAL: D
INSTRUMENTAL_FREQUENCY_HZ: 218.000
INSTRUMENTAL_DAMPING: 0.700000
FULL_SCALE_G: 1.0
N_BIT_DIGITAL_CONVERTER: 18
PGD_CM: -0.771239
TIME_PGD_S: 22.520000
BASELINE_CORRECTION: BASELINE REMOVED
FILTER_TYPE: BUTTERWORTH
FILTER_ORDER: 2
LOW_CUT_FREQUENCY_HZ: 0.080
HIGH_CUT_FREQUENCY_HZ: 40.000
LATE/NORMAL_TRIGGERED: NT
DATABASE_VERSION: 0.5
HEADER_FORMAT: DYNA 1.2
DATA_TYPE: DISPLACEMENT
PROCESSING: manual (Paolucci et al., 2011)
DATA_TIMESTAMP_YYYYMMDD_HHMMSS: 20211011_155908.496
DATA_LICENSE: CC-BY3_0-IT (http://creativecommons.org/licenses/by/3.0/deed.en)
DATA_CITATION: Luzi L, Pacor F, Puglia R (2019). Italian Accelerometric Archive v 3.0 - Istituto Nazionale di Geofisica e Vulcanologia, Dipartimento della Protezione Civile Nazionale. doi: 10.13127/itaca.3.1
DATA_CREATOR: ITACA working group
ORIGINAL_DATA_MEDIATOR_CITATION: data obtained within the DPC-INGV data exchange agreements
ORIGINAL_DATA_MEDIATOR: Archive of Italian Department of Civil Protection
ORIGINAL_DATA_CREATOR_CITATION: Presidency Of Counsil Of Ministers-Civil Protection Department. (1972). Italian Strong Motion Network. Presidency of Counsil of Ministers - Civil Protection Department. https://doi.org/10.7914/SN/IT http://www.fdsn.org/networks/detail/IT/
ORIGINAL_DATA_CREATOR: network: IT (Italian Strong Motion Network (RAN)); owner: Presidency of Counsil of Ministers - Civil Protection Department (PCM - DPC)
USER1: 
USER2: 
USER3: 
USER4: 
USER5: 
[...]
-3.580778e-01
-3.603774e-01
-3.627242e-01
-3.651332e-01
-3.675980e-01
-3.700898e-01
-3.725573e-01
-3.749277e-01
-3.771209e-01
-3.790780e-01
-3.807920e-01
-3.823173e-01
-3.837563e-01
-3.852348e-01
-3.868752e-01
-3.887648e-01
-3.909252e-01
-3.932963e-01
-3.957496e-01
-3.981269e-01
-4.002927e-01
-4.021810e-01
-4.038205e-01
-4.053275e-01
-4.068683e-01
-4.086072e-01
-4.106557e-01
-4.130397e-01
-4.156947e-01
-4.184872e-01
-4.212527e-01
-4.238413e-01
-4.261565e-01
-4.281783e-01
-4.299644e-01
-4.316312e-01
-4.333167e-01
-4.351322e-01
-4.371230e-01
-4.392575e-01
-4.414499e-01
-4.436021e-01
-4.456424e-01
-4.475447e-01
-4.493259e-01
-4.510265e-01
-4.526909e-01
-4.543569e-01
-4.560520e-01
-4.577854e-01
-4.595299e-01
-4.612105e-01
-4.627178e-01
-4.639449e-01
-4.648230e-01
-4.653354e-01
-4.655040e-01
-4.653694e-01
-4.649759e-01
-4.643664e-01
-4.635834e-01
-4.626721e-01
-4.616770e-01
-4.606300e-01
-4.595383e-01
-4.583796e-01
-4.571070e-01
-4.556663e-01
-4.540258e-01
-4.522023e-01
-4.502659e-01
-4.483148e-01
-4.464297e-01
-4.446362e-01
-4.428989e-01
-4.411467e-01
-4.393049e-01
-4.373165e-01
-4.351492e-01
-4.327937e-01
-4.302531e-01
-4.275268e-01
-4.245985e-01
-4.214332e-01
-4.179792e-01
-4.141761e-01
-4.099750e-01
-4.053749e-01
-4.004545e-01
-3.953666e-01
-3.902893e-01
-3.853622e-01
-3.806400e-01
-3.760829e-01
-3.715824e-01
-3.670026e-01
-3.622200e-01
-3.571556e-01
-3.517951e-01
-3.461921e-01
-3.404516e-01
-3.346894e-01
-3.289826e-01
-3.233411e-01
-3.177145e-01
-3.120153e-01
-3.061345e-01
-2.999535e-01
-2.933702e-01
-2.863408e-01
-2.789100e-01
-2.711968e-01
-2.633447e-01
-2.554749e-01
-2.476679e-01
-2.399607e-01
-2.323453e-01
-2.247707e-01
-2.171559e-01
-2.094130e-01
-2.014736e-01
-1.933088e-01
-1.849352e-01
-1.764081e-01
-1.678003e-01
-1.591738e-01
-1.505489e-01
-1.418863e-01
-1.330900e-01
-1.240346e-01
-1.146086e-01
-1.047501e-01
-9.445002e-02
-8.373504e-02
-7.265470e-02
-6.128042e-02
-4.970049e-02
-3.799705e-02
-2.621521e-02
-1.435188e-02
-2.377096e-03
9.729931e-03
2.195777e-02
3.426236e-02
4.657911e-02
5.883452e-02
7.095739e-02
8.289634e-02
9.463892e-02
1.062131e-01
1.176646e-01
1.290273e-01
1.403084e-01
1.514903e-01
1.625426e-01
1.734303e-01
1.841177e-01
1.945721e-01
2.047743e-01
2.147261e-01
2.244513e-01
2.339962e-01
2.434377e-01
2.528840e-01
2.624517e-01
2.722240e-01
2.822150e-01
2.923627e-01
3.025538e-01
3.126625e-01
3.225801e-01
3.322288e-01
3.415704e-01
3.506138e-01
3.594150e-01
3.680552e-01
3.766055e-01
3.850997e-01
3.935295e-01
4.018540e-01
4.100111e-01
4.179303e-01
4.255514e-01
4.328492e-01
4.398493e-01
4.466244e-01
4.532654e-01
4.598438e-01
4.663846e-01
4.728603e-01
4.792028e-01
4.853214e-01
4.911161e-01
4.964870e-01
5.013473e-01
5.056393e-01
5.093396e-01
5.124510e-01
5.149850e-01
5.169512e-01
5.183630e-01
5.192539e-01
5.196896e-01
5.197605e-01
5.195636e-01
5.191820e-01
5.186694e-01
5.180390e-01
5.172568e-01
5.162514e-01
5.149398e-01
5.132594e-01
5.111866e-01
5.087386e-01
5.059675e-01
5.029603e-01
4.998365e-01
4.967288e-01
4.937473e-01
4.909515e-01
4.883426e-01
4.858704e-01
4.834417e-01
4.809282e-01
4.781838e-01
4.750758e-01
4.715142e-01
4.674596e-01
4.629036e-01
4.578453e-01
4.522839e-01
4.462266e-01
4.396933e-01
4.327099e-01
4.252947e-01
4.174516e-01
4.091808e-01
4.005011e-01
3.914632e-01
3.821435e-01
3.726255e-01
3.629859e-01
3.532928e-01
3.436088e-01
3.339930e-01
3.245025e-01
3.151918e-01
3.061028e-01
2.972467e-01
2.885864e-01
2.800363e-01
2.714899e-01
2.628629e-01
2.541346e-01
2.453658e-01
2.366836e-01
2.282396e-01
2.201678e-01
2.125647e-01
2.054918e-01
1.989806e-01
1.930318e-01
1.876149e-01
1.826791e-01
1.781705e-01
1.740445e-01
1.702682e-01
1.668178e-01
1.636798e-01
1.608516e-01
1.583341e-01
1.561163e-01
1.541628e-01
1.524152e-01
1.508023e-01
1.492527e-01
1.477007e-01
1.460874e-01
1.443610e-01
1.424859e-01
1.404537e-01
1.382826e-01
1.360022e-01
1.336373e-01
1.312097e-01
1.287574e-01
1.263578e-01
1.241353e-01
1.222511e-01
1.208776e-01
1.201741e-01
1.202718e-01
1.212735e-01
1.232593e-01
1.262875e-01
1.303888e-01
1.355585e-01
1.417534e-01
1.488913e-01
1.568532e-01
1.654955e-01
1.746747e-01
1.842729e-01
1.942110e-01
2.044465e-01
2.149650e-01
2.257691e-01
2.368704e-01
2.482861e-01
2.600409e-01
2.721665e-01
2.846924e-01
2.976276e-01
3.109398e-01
3.245374e-01
3.382678e-01
3.519406e-01
3.653723e-01
3.784252e-01
3.910259e-01
4.031692e-01
4.149207e-01
4.264139e-01
4.378244e-01
4.493120e-01
4.609607e-01
4.727565e-01
4.846157e-01
4.964300e-01
5.080973e-01
5.195359e-01
5.306895e-01
5.415280e-01
5.520400e-01
5.622194e-01
5.720581e-01
5.815427e-01
5.906523e-01
5.993579e-01
6.076366e-01
6.154879e-01
6.229296e-01
6.299765e-01
6.366358e-01
6.429211e-01
6.488629e-01
6.545084e-01
6.599164e-01
6.651517e-01
6.702796e-01
6.753665e-01
6.804861e-01
6.857224e-01
6.911535e-01
6.968189e-01
7.026924e-01
7.086801e-01
7.146385e-01
7.203967e-01
7.257740e-01
7.305928e-01
7.346964e-01
7.379740e-01
7.403808e-01
7.419353e-01
7.426919e-01
7.427012e-01
7.419872e-01
7.405561e-01
7.384282e-01
7.356648e-01
7.323676e-01
7.286575e-01
7.246545e-01
7.204675e-01
7.161887e-01
7.118806e-01
7.075567e-01
7.031765e-01
6.986629e-01
6.939242e-01
6.888646e-01
6.833797e-01
6.773466e-01
6.706260e-01
6.630959e-01
6.547097e-01
6.455267e-01
6.356810e-01
6.253090e-01
6.144966e-01
6.032787e-01
5.916757e-01
5.797199e-01
5.674498e-01
5.548905e-01
5.420520e-01
5.289517e-01
5.156409e-01
5.022098e-01
4.887702e-01
4.754368e-01
4.623206e-01
4.495322e-01
4.371790e-01
4.253424e-01
4.140507e-01
4.032736e-01
3.929497e-01
3.830243e-01
3.734717e-01
3.642854e-01
3.554474e-01
3.469068e-01
3.385869e-01
3.304137e-01
3.223433e-01
3.143725e-01
3.065299e-01
2.988564e-01
2.913876e-01
2.841487e-01
2.771565e-01
2.704262e-01
2.639810e-01
2.578583e-01
2.520984e-01
2.467229e-01
2.417282e-01
2.371025e-01
2.328449e-01
2.289689e-01
2.254869e-01
2.223952e-01
2.196779e-01
2.173310e-01
2.153867e-01
2.139154e-01
2.130083e-01
2.127582e-01
2.132490e-01
2.145477e-01
2.166920e-01
2.196770e-01
2.234420e-01
2.278616e-01
2.327509e-01
2.378937e-01
2.430870e-01
2.481849e-01
2.531187e-01
2.578914e-01
2.625553e-01
2.671858e-01
2.718643e-01
2.766714e-01
2.816849e-01
2.869799e-01
2.926269e-01
2.986876e-01
3.052067e-01
3.122025e-01
3.196564e-01
3.275095e-01
3.356759e-01
3.440703e-01
3.526269e-01
3.613014e-01
3.700616e-01
3.788826e-01
3.877435e-01
3.966245e-01
4.055069e-01
4.143776e-01
4.232326e-01
4.320723e-01
4.408945e-01
4.496914e-01
4.584484e-01
4.671404e-01
4.757317e-01
4.841848e-01
4.924695e-01
5.005599e-01
5.084207e-01
5.160022e-01
5.232555e-01
5.301568e-01
5.367201e-01
5.429874e-01
5.490099e-01
5.548343e-01
5.604925e-01
5.659859e-01
5.712733e-01
5.762800e-01
5.809323e-01
5.852030e-01
5.891367e-01
5.928409e-01
5.964523e-01
6.001042e-01
6.039146e-01
6.079892e-01
6.124171e-01
6.172497e-01
6.224735e-01
6.280012e-01
6.336901e-01
6.393767e-01
6.449076e-01
6.501596e-01
6.550499e-01
6.595364e-01
6.636001e-01
6.672103e-01
6.702936e-01
6.727296e-01
6.743793e-01
6.751255e-01
6.749047e-01
6.737159e-01
6.716099e-01
6.686707e-01
6.649985e-01
6.606956e-01
6.558558e-01
6.505561e-01
6.448546e-01
6.387957e-01
6.324254e-01
6.258104e-01
6.190503e-01
6.122753e-01
6.056358e-01
5.992906e-01
5.933918e-01
5.880612e-01
5.833617e-01
5.792811e-01
5.757369e-01
5.725941e-01
5.696891e-01
5.668622e-01
5.639972e-01
5.610504e-01
5.580461e-01
5.550349e-01
5.520383e-01
5.490074e-01
5.458162e-01
5.422879e-01
5.382372e-01
5.335072e-01
5.279923e-01
5.216463e-01
5.144800e-01
5.065481e-01
4.979283e-01
4.887007e-01
4.789340e-01
4.686797e-01
4.579719e-01
4.468293e-01
4.352633e-01
4.233031e-01
4.110318e-01
3.986056e-01
3.862378e-01
3.741526e-01
3.625356e-01
3.515008e-01
3.410808e-01
3.312297e-01
3.218373e-01
3.127593e-01
3.038628e-01
2.950716e-01
2.863905e-01
2.778966e-01
2.697094e-01
2.619558e-01
2.547421e-01
2.481365e-01
2.421611e-01
2.367972e-01
2.319966e-01
2.276920e-01
2.238049e-01
2.202472e-01
2.169170e-01
2.136935e-01
2.104436e-01
2.070381e-01
2.033700e-01
1.993640e-01
1.949719e-01
1.901649e-01
1.849308e-01
1.792818e-01
1.732661e-01
1.669681e-01
1.604957e-01
1.539567e-01
1.474358e-01
1.409778e-01
1.345862e-01
1.282399e-01
1.219139e-01
1.155912e-01
1.092652e-01
1.029403e-01
9.663407e-02
9.037799e-02
8.421410e-02
7.818484e-02
7.231971e-02
6.662831e-02
6.110175e-02
5.571753e-02
5.044501e-02
4.525202e-02
4.011087e-02
3.499960e-02
2.989683e-02
2.477389e-02
1.959165e-02
1.430618e-02
8.879340e-03
3.287358e-03
-2.473954e-03
-8.387169e-03
-1.441609e-02
-2.051153e-02
-2.661409e-02
-3.265311e-02
-3.854833e-02
-4.422036e-02
-4.961098e-02
-5.470913e-02
-5.957060e-02
-6.431358e-02
-6.908278e-02
-7.399710e-02
-7.910255e-02
-8.434668e-02
-8.958631e-02
-9.462906e-02
-9.929076e-02
-1.034439e-01
-1.070416e-01
-1.101147e-01
-1.127531e-01
-1.150818e-01
-1.172378e-01
-1.193443e-01
-1.214901e-01
-1.237204e-01
-1.260457e-01
-1.284626e-01
-1.309791e-01
-1.336332e-01
-1.364978e-01
-1.396711e-01
-1.432561e-01
-1.473389e-01
-1.519662e-01
-1.571272e-01
-1.627420e-01
-1.686702e-01
-1.747385e-01
-1.807814e-01
-1.866803e-01
-1.923864e-01
-1.979223e-01
-2.033633e-01
-2.088083e-01
-2.143460e-01
-2.200272e-01
-2.258510e-01
-2.317638e-01
-2.376724e-01
-2.434719e-01
-2.490862e-01
-2.545014e-01
-2.597753e-01
-2.650247e-01
-2.703942e-01
-2.760133e-01
-2.819553e-01
-2.882145e-01
-2.947108e-01
-3.013163e-01
-3.078941e-01
-3.143361e-01
-3.205875e-01
-3.266592e-01
-3.326270e-01
-3.386186e-01
-3.447850e-01
-3.512569e-01
-3.581065e-01
-3.653285e-01
-3.728414e-01
-3.804980e-01
-3.881106e-01
-3.954912e-01
-4.024965e-01
-4.090591e-01
-4.151917e-01
-4.209634e-01
-4.264642e-01
-4.317747e-01
-4.369490e-01
-4.420093e-01
-4.469554e-01
-4.517850e-01
-4.565146e-01
-4.611877e-01
-4.658703e-01
-4.706370e-01
-4.755527e-01
-4.806596e-01
-4.859712e-01
-4.914739e-01
-4.971301e-01
-5.028843e-01
-5.086772e-01
-5.144621e-01
-5.202145e-01
-5.259286e-01
-5.316059e-01
-5.372428e-01
-5.428194e-01
-5.482912e-01
-5.535934e-01
-5.586562e-01
-5.634192e-01
-5.678409e-01
-5.719029e-01
-5.756121e-01
-5.790008e-01
-5.821205e-01
-5.850252e-01
-5.877503e-01
-5.903075e-01
-5.927011e-01
-5.949482e-01
-5.970893e-01
-5.991840e-01
-6.012976e-01
-6.034842e-01
-6.057710e-01
-6.081517e-01
-6.105898e-01
-6.130241e-01
-6.153716e-01
-6.175324e-01
-6.194025e-01
-6.208961e-01
-6.219649e-01
-6.226003e-01
-6.228193e-01
-6.226441e-01
-6.220866e-01
-6.211431e-01
-6.197885e-01
-6.179700e-01
-6.156123e-01
-6.126332e-01
-6.089627e-01
-6.045563e-01
-5.994036e-01
-5.935326e-01
-5.870078e-01
-5.799236e-01
-5.723959e-01
-5.645538e-01
-5.565321e-01
-5.484645e-01
-5.404775e-01
-5.326793e-01
-5.251397e-01
-5.178717e-01
-5.108350e-01
-5.039565e-01
-4.971510e-01
-4.903344e-01
-4.834339e-01
-4.764020e-01
-4.692269e-01
-4.619328e-01
-4.545680e-01
-4.471877e-01
-4.398443e-01
-4.325863e-01
-4.254600e-01
-4.185047e-01
-4.117356e-01
-4.051303e-01
-3.986323e-01
-3.921651e-01
-3.856452e-01
-3.789971e-01
-3.721710e-01
-3.651561e-01
-3.579813e-01
-3.507085e-01
-3.434263e-01
-3.362444e-01
-3.292807e-01
-3.226396e-01
-3.163954e-01
-3.105920e-01
-3.052501e-01
-3.003717e-01
-2.959416e-01
-2.919299e-01
-2.882951e-01
-2.849868e-01
-2.819421e-01
-2.790819e-01
-2.763150e-01
-2.735524e-01
-2.707292e-01
-2.678238e-01
-2.648603e-01
-2.618986e-01
-2.590284e-01
-2.563641e-01
-2.540202e-01
-2.520745e-01
-2.505418e-01
-2.493699e-01
-2.484594e-01
-2.477030e-01
-2.470276e-01
-2.464197e-01
-2.459248e-01
-2.456307e-01
-2.456480e-01
-2.460917e-01
-2.470617e-01
-2.486265e-01
-2.508131e-01
-2.536036e-01
-2.569500e-01
-2.608060e-01
-2.651572e-01
-2.700302e-01
-2.754791e-01
-2.815591e-01
-2.883011e-01
-2.956982e-01
-3.037062e-01
-3.122526e-01
-3.212492e-01
-3.306080e-01
-3.402599e-01
-3.501654e-01
-3.603090e-01
-3.706859e-01
-3.812883e-01
-3.920955e-01
-4.030700e-01
-4.141638e-01
-4.253292e-01
-4.365321e-01
-4.477598e-01
-4.590218e-01
-4.703459e-01
-4.817695e-01
-4.933256e-01
-5.050240e-01
-5.168361e-01
-5.286853e-01
-5.404491e-01
-5.519772e-01
-5.631211e-01
-5.737626e-01
-5.838313e-01
-5.933089e-01
-6.022210e-01
-6.106241e-01
-6.185944e-01
-6.262208e-01
-6.336000e-01
-6.408319e-01
-6.480092e-01
-6.552027e-01
-6.624477e-01
-6.697430e-01
-6.770674e-01
-6.844005e-01
-6.917223e-01
-6.989931e-01
-7.061360e-01
-7.130448e-01
-7.196094e-01
-7.257368e-01
-7.313568e-01
-7.364265e-01
-7.409423e-01
-7.449492e-01
-7.485343e-01
-7.518064e-01
-7.548702e-01
-7.578018e-01
-7.606314e-01
-7.633335e-01
-7.658268e-01
-7.679888e-01
-7.696849e-01
-7.707961e-01
-7.712393e-01
-7.709737e-01
-7.699962e-01
-7.683371e-01
-7.660570e-01
-7.632318e-01
-7.599275e-01
-7.561909e-01
-7.520640e-01
-7.476061e-01
-7.429020e-01
-7.380579e-01
-7.331919e-01
-7.284179e-01
-7.238222e-01
-7.194414e-01
-7.152565e-01
-7.112044e-01
-7.071985e-01
-7.031505e-01
-6.989883e-01
-6.946692e-01
-6.901872e-01
-6.855667e-01
-6.808432e-01
-6.760413e-01
-6.711610e-01
-6.661713e-01
-6.610094e-01
-6.555902e-01
-6.498289e-01
-6.436749e-01
-6.371390e-01
-6.302928e-01
-6.232381e-01
-6.160700e-01
-6.088560e-01
-6.016309e-01
-5.944000e-01
-5.871471e-01
-5.798519e-01
-5.725119e-01
-5.651562e-01
-5.578408e-01
-5.506294e-01
-5.435691e-01
-5.366737e-01
-5.299170e-01
-5.232272e-01
-5.164870e-01
-5.095498e-01
-5.022765e-01
-4.945751e-01
-4.864256e-01
-4.778809e-01
-4.690507e-01
-4.600822e-01
-4.511409e-01
-4.423864e-01
-4.339442e-01
-4.258834e-01
-4.182148e-01
-4.109082e-01
-4.039178e-01
-3.972022e-01
-3.907369e-01
-3.845215e-01
-3.785845e-01
-3.729820e-01
-3.677822e-01
-3.630429e-01
-3.587970e-01
-3.550539e-01
-3.518073e-01
-3.490418e-01
-3.467377e-01
-3.448745e-01
-3.434356e-01
-3.424079e-01
-3.417762e-01
-3.415191e-01
-3.416073e-01
-3.420059e-01
-3.426741e-01
-3.435611e-01
-3.446081e-01
-3.457595e-01
-3.469740e-01
-3.482237e-01
-3.494816e-01
-3.507071e-01
-3.518419e-01
-3.528160e-01
-3.535597e-01
-3.540101e-01
-3.541148e-01
-3.538377e-01
-3.531652e-01
-3.521092e-01
-3.507054e-01
-3.490097e-01
-3.470921e-01
-3.450289e-01
-3.428925e-01
-3.407435e-01
-3.386228e-01
-3.365465e-01
-3.345035e-01
-3.324571e-01
-3.303493e-01
-3.281089e-01
-3.256652e-01
-3.229647e-01
-3.199860e-01
-3.167512e-01
-3.133311e-01
-3.098407e-01
-3.064199e-01
-3.032039e-01
-3.002990e-01
-2.977769e-01
-2.956798e-01
-2.940267e-01
-2.928148e-01
-2.920212e-01
-2.916079e-01
-2.915285e-01
-2.917327e-01
-2.921652e-01
-2.927599e-01
-2.934360e-01
-2.941041e-01
-2.946814e-01
-2.951087e-01
-2.953582e-01
-2.954321e-01
-2.953589e-01
-2.951900e-01
-2.949902e-01
-2.948179e-01
-2.947017e-01
-2.946266e-01
-2.945403e-01
-2.943742e-01
-2.940641e-01
-2.935595e-01
-2.928276e-01
-2.918571e-01
-2.906579e-01
-2.892527e-01
-2.876703e-01
-2.859419e-01
-2.841005e-01
-2.821797e-01
-2.802122e-01
-2.782259e-01
-2.762375e-01
-2.742505e-01
-2.722601e-01
-2.702632e-01
-2.682704e-01
-2.663136e-01
-2.644468e-01
-2.627382e-01
-2.612595e-01
-2.600787e-01
-2.592547e-01
-2.588265e-01
-2.587969e-01
-2.591235e-01
-2.597174e-01
-2.604519e-01
-2.611808e-01
-2.617643e-01
-2.620929e-01
-2.620999e-01
-2.617600e-01
-2.610821e-01
-2.601030e-01
-2.588886e-01
-2.575337e-01
-2.561493e-01
-2.548390e-01
-2.536824e-01
-2.527326e-01
-2.520210e-01
-2.515580e-01
-2.513259e-01
-2.512796e-01
-2.513613e-01
-2.515225e-01
-2.517383e-01
-2.520049e-01
-2.523256e-01
-2.526996e-01
-2.531224e-01
-2.535850e-01
-2.540695e-01
-2.545442e-01
-2.549689e-01
-2.553066e-01
-2.555311e-01
-2.556253e-01
-2.555754e-01
-2.553679e-01
-2.549888e-01
-2.544226e-01
-2.536532e-01
-2.526699e-01
-2.514736e-01
-2.500786e-01
-2.485117e-01
-2.468072e-01
-2.450049e-01
-2.431544e-01
-2.413165e-01
-2.395544e-01
-2.379210e-01
-2.364542e-01
-2.351834e-01
-2.341348e-01
-2.333291e-01
-2.327739e-01
-2.324598e-01
-2.323652e-01
-2.324694e-01
-2.327638e-01
-2.332542e-01
-2.339567e-01
-2.348911e-01
-2.360727e-01
-2.375018e-01
-2.391497e-01
-2.409507e-01
-2.428064e-01
-2.446039e-01
-2.462341e-01
-2.476067e-01
-2.486573e-01
-2.493483e-01
-2.496702e-01
-2.496443e-01
-2.493200e-01
-2.487599e-01
-2.480140e-01
-2.470949e-01
-2.459675e-01
-2.445603e-01
-2.427895e-01
-2.405800e-01
-2.378719e-01
-2.346181e-01
-2.307839e-01
-2.263534e-01
-2.213389e-01
-2.157843e-01
-2.097587e-01
-2.033425e-01
-1.966119e-01
-1.896273e-01
-1.824334e-01
-1.750621e-01
-1.675336e-01
-1.598535e-01
-1.520104e-01
-1.439778e-01
-1.357238e-01
-1.272237e-01
-1.184663e-01
-1.094501e-01
-1.001742e-01
-9.063261e-02
-8.081367e-02
-7.070215e-02
-6.028177e-02
-4.953738e-02
-3.845988e-02
-2.705581e-02
-1.535625e-02
-3.416043e-03
8.699272e-03
2.092933e-02
3.322581e-02
4.554855e-02
5.785896e-02
7.011625e-02
8.227685e-02
9.429547e-02
1.061253e-01
1.177162e-01
1.290155e-01
1.399767e-01
1.505706e-01
1.607914e-01
1.706529e-01
1.801806e-01
1.894079e-01
1.983787e-01
2.071506e-01
2.157887e-01
2.243537e-01
2.328900e-01
2.414214e-01
2.499528e-01
2.584758e-01
2.669728e-01
2.754217e-01
2.838010e-01
2.920970e-01
3.003085e-01
3.084502e-01
3.165559e-01
3.246831e-01
3.329132e-01
3.413474e-01
3.500964e-01
3.592692e-01
3.689578e-01
3.792177e-01
3.900505e-01
4.013926e-01
4.131202e-01
4.250658e-01
4.370460e-01
4.488880e-01
4.604527e-01
4.716550e-01
4.824793e-01
4.929821e-01
5.032738e-01
5.134864e-01
5.237391e-01
5.341107e-01
5.446233e-01
5.552412e-01
5.658841e-01
5.764505e-01
5.868423e-01
5.969805e-01
6.068115e-01
6.163047e-01
6.254450e-01
6.342241e-01
6.426342e-01
6.506659e-01
6.583073e-01
6.655424e-01
6.723488e-01
6.786990e-01
6.845656e-01
6.899298e-01
6.947903e-01
6.991662e-01
7.030909e-01
7.065977e-01
7.097070e-01
7.124212e-01
7.147259e-01
7.165889e-01
7.179598e-01
7.187775e-01
7.189890e-01
7.185739e-01
7.175629e-01
7.160388e-01
7.141217e-01
7.119489e-01
7.096547e-01
7.073531e-01
7.051229e-01
7.030019e-01
7.009958e-01
6.990997e-01
6.973219e-01
6.956972e-01
6.942870e-01
6.931720e-01
6.924396e-01
6.921636e-01
6.923768e-01
6.930484e-01
6.940811e-01
6.953298e-01
6.966330e-01
6.978435e-01
