EVENT_NAME: L_AQUILA
EVENT_ID: IT-2009-0009
EVENT_DATE_YYYYMMDD: 20090406
EVENT_TIME_HHMMSS: 013240
EVENT_LATITUDE_DEGREE: 42.3420
EVENT_LONGITUDE_DEGREE: 13.3800
EVENT_DEPTH_KM: 8.3
HYPOCENTER_REFERENCE: INGV-CNT_Seismic_Bulletin
MAGNITUDE_W: 6.1
MAGNITUDE_W_REFERENCE: INGV-CNT_Seismic_Bulletin
MAGNITUDE_L: 
MAGNITUDE_L_REFERENCE: 
FOCAL_MECHANISM: Normal faulting
NETWORK: IT
STATION_CODE: MTR
STATION_NAME: 
STATION_LATITUDE_DEGREE: 42.524021
STATION_LONGITUDE_DEGREE: 13.244796
STATION_ELEVATION_M: 975
LOCATION: 
SENSOR_DEPTH_M: 0.0
VS30_M/S: 689
SITE_CLASSIFICATION_EC8: B
MORPHOLOGIC_CLASSIFICATION: 
EPICENTRAL_DISTANCE_KM: 23.1
EARTHQUAKE_BACKAZIMUTH_DEGREE: 331.2
DATE_TIME_FIRST_SAMPLE_YYYYMMDD_HHMMSS: 20090406_013231.000
DATE_TIME_FIRST_SAMPLE_PRECISION: seconds
SAMPLING_INTERVAL_S: 0.005000
NDATA: 20000
DURATION_S: 100.000
STREAM: HNZ
UNITS: cm/s^2
INSTRUMENT: sensor = FBA-3 [Kinemetrics] | digitizer = Etna [Kinemetrics]
INSTRUMENT_ANALOG/DIGITAL: D
INSTRUMENTAL_FREQUENCY_HZ: 214.000
INSTRUMENTAL_DAMPING: 0.700000
FULL_SCALE_G: 1.0
N_BIT_DIGITAL_CONVERTER: 18
PGA_CM/S^2: 22.608671
TIME_PGA_S: 25.140000
BASELINE_CORRECTION: BASELINE REMOVED
FILTER_TYPE: BUTTERWORTH
FILTER_ORDER: 2
LOW_CUT_FREQUENCY_HZ: 0.080
HIGH_CUT_FREQUENCY_HZ: 40.000
LATE/NORMAL_TRIGGERED: NT
DATABASE_VERSION: 0.5
HEADER_FORMAT: DYNA 1.2
DATA_TYPE: ACCELERATION
PROCESSING: manual (Paolucci et al., 2011)
DATA_TIMESTAMP_YYYYMMDD_HHMMSS: 20211011_155909.521
DATA_LICENSE: CC-BY3_0-IT (http://creativecommons.org/licenses/by/3.0/deed.en)
DATA_CITATION: Luzi L, Pacor F, Puglia R (2019). Italian Accelerometric Archive v 3.0 - Istituto Nazionale di Geofisica e Vulcanologia, Dipartimento della Protezione Civile Nazionale. doi: 10.13127/itaca.3.1
DATA_CREATOR: ITACA working group
ORIGINAL_DATA_MEDIATOR_CITATION: data obtained within the DPC-INGV data exchange agreements
ORIGINAL_DATA_MEDIATOR: Archive of Italian Department of Civil Protection
ORIGINAL_DATA_CREATOR_CITATION: Presidency Of Counsil Of Ministers-Civil Protection Department. (1972). Italian Strong Motion Network. Presidency of Counsil of Ministers - Civil Protection Department. https://doi.org/10.7914/SN/IT http://www.fdsn.org/networks/detail/IT/
ORIGINAL_DATA_CREATOR: network: IT (Italian Strong Motion Network (RAN)); owner: Presidency of Counsil of Ministers - Civil Protection Department (PCM - DPC)
USER1: 
USER2: 
USER3: 
USER4: 
USER5: 
[...]
-0.376569
-1.608025
-2.654333
-3.597767
-4.559868
-5.307073
-5.351172
-4.446028
-2.742276
-0.545262
1.737614
3.471996
3.981070
2.983978
0.848387
-1.530021
-3.191763
-3.713076
-3.446465
-3.100151
-3.105547
-3.408371
-3.646632
-3.360020
-2.168161
0.069007
3.191583
6.691789
9.594198
10.660085
9.192928
5.684761
1.415884
-2.540590
-5.735080
-8.008782
-9.325942
-10.047129
-10.801292
-11.778627
-12.450476
-12.114380
-10.459733
-7.587151
-3.808138
0.415535
4.488717
7.823149
10.004952
10.746143
9.718656
6.719880
2.139824
-2.930196
-7.191018
-9.697558
-10.135755
-8.934769
-7.107969
-5.678625
-5.094151
-5.105005
-5.110066
-4.679335
-3.915190
-3.392461
-3.695875
-4.894492
-6.373509
-7.204159
-6.794429
-5.242705
-3.069743
-0.721395
1.531932
3.326752
4.201692
4.077363
3.532029
3.270979
3.312076
2.875610
1.125243
-2.030954
-5.821465
-9.115715
-10.987322
-11.064714
-9.733483
-8.032572
-7.043945
-7.156742
-7.844304
-8.045597
-6.791390
-3.818953
0.051607
3.148123
3.845001
1.580420
-2.696609
-6.908533
-8.846267
-7.302740
-2.719695
3.096360
7.971725
10.370995
9.913748
7.366272
4.232548
2.039963
1.579726
2.544519
3.771957
3.885768
2.007937
-1.745902
-6.277220
-10.033104
-11.653626
-10.413767
-6.486406
-1.072479
3.850456
6.411504
5.943626
3.334027
0.198978
-2.340589
-4.041047
-4.948323
-4.971316
-4.208853
-3.240256
-2.599217
-2.012421
-0.595340
2.045437
5.199639
7.692147
8.855973
8.722207
7.668520
6.283051
5.279125
5.032590
5.190779
4.980069
3.964378
2.493244
1.492073
1.855576
3.896050
7.191514
10.822176
13.702110
15.020166
14.864672
14.400966
14.998993
16.981331
19.255177
20.126404
18.530277
14.781596
10.385212
7.030464
5.564570
5.798599
7.000457
8.353598
9.115128
8.663335
6.821196
4.427619
3.333697
5.209794
9.933040
15.289411
18.498255
18.012394
14.150994
8.631444
3.635755
0.776752
0.352393
1.394741
2.427770
2.238347
0.223830
-3.479106
-7.861310
-11.302577
-12.454562
-11.128047
-8.482334
-6.299816
-5.798364
-6.864481
-8.221391
-8.447770
-7.162795
-5.253576
-3.804951
-2.914546
-1.680551
0.744682
4.107176
7.014796
8.084227
7.206397
5.587462
4.498554
4.096134
3.589895
2.406902
0.850127
-0.398228
-1.062199
-1.393957
-1.699868
-1.838532
-1.182322
0.737160
3.474865
5.754978
6.389620
5.162535
2.987839
1.166155
0.208040
-0.646403
-2.566385
-5.831838
-9.519595
-12.314617
-13.397575
-12.686099
-10.613324
-7.801640
-4.802489
-2.132083
-0.487217
-0.527629
-2.197798
-4.447228
-5.813129
-5.387097
-3.463336
-1.438073
-1.001907
-3.071356
-7.039862
-10.933856
-12.518633
-10.637795
-5.993046
-0.906658
1.886711
0.750487
-3.931181
-9.999398
-14.852499
-16.975786
-16.487776
-14.483797
-12.243507
-10.980569
-11.560444
-13.882627
-16.723593
-18.524828
-18.360115
-16.300573
-13.310175
-10.885587
-10.363704
-12.137014
-15.353276
-18.409967
-19.907787
-19.392822
-17.470894
-15.313385
-13.951811
-13.805295
-14.528929
-15.222852
-15.095839
-14.073605
-12.679051
-11.518813
-11.091689
-11.747815
-13.361781
-15.099652
-15.893093
-15.324118
-13.909994
-12.386151
-10.784592
-8.303858
-4.058792
1.985336
8.632858
13.902571
16.006899
14.272539
9.483849
3.544893
-1.239245
-3.036976
-1.415467
2.253941
5.574855
6.672251
5.255985
2.500804
0.085329
-0.807833
0.023395
1.914051
3.831453
4.939968
4.931214
4.006239
2.662664
1.436417
0.550405
-0.377578
-2.122526
-5.130643
-8.963102
-12.419109
-14.114481
-13.076583
-9.266554
-3.910459
0.823719
2.870911
1.305286
-3.245197
-8.736357
-12.303380
-11.491125
-5.757513
2.894948
10.898336
15.109345
14.409437
9.963254
4.309349
0.063567
-1.202477
0.423468
3.405189
5.763506
6.240057
4.825325
2.379193
-0.171054
-2.319877
-3.935727
-5.038987
-5.721376
-6.099179
-6.181084
-5.886919
-5.289458
-4.637874
-4.005806
-3.129658
-1.776112
-0.164131
1.113863
1.649721
1.730023
2.182088
3.585569
5.739971
7.945061
9.486319
9.728067
8.250196
5.356260
2.221765
0.166538
-0.245346
0.612734
1.936812
3.043533
3.637036
3.875035
4.182995
4.796251
5.442274
5.583961
5.018798
4.159205
3.705067
4.153407
5.601738
7.733341
9.831789
11.132479
11.480441
11.421592
11.390590
11.062554
9.772535
7.286325
3.807590
-0.454710
-5.230239
-9.846136
-13.333634
-14.988742
-14.880032
-13.775987
-12.378699
-10.735386
-8.710787
-6.758042
-5.653020
-5.523536
-5.508736
-4.437314
-1.861295
1.416548
3.772632
3.837627
1.404768
-2.451072
-6.016801
-7.731213
-6.592263
-2.325793
4.355019
11.663202
17.326042
19.707462
18.686346
15.644328
12.594320
11.064820
11.430540
12.954125
14.332211
14.422149
12.814059
9.878169
6.303469
2.689137
-0.424117
-2.402671
-2.721270
-1.384061
0.952553
3.341862
5.097780
6.086493
6.553627
6.723596
6.580322
5.961629
4.750854
2.962969
0.757372
-1.545505
-3.465976
-4.468354
-4.198443
-2.733723
-0.662932
1.117763
1.843433
1.279414
-0.206261
-1.911341
-3.160522
-3.444745
-2.337539
0.372488
4.230834
7.992381
10.239534
10.290608
8.694870
6.976613
6.717960
8.519433
11.610101
14.399193
15.468808
14.254242
11.052375
6.569369
1.521367
-3.426556
-7.606220
-10.470777
-11.813159
-11.805519
-10.782423
-9.033569
-6.853797
-4.617268
-2.600430
-0.842702
0.669317
1.790301
2.305376
2.198257
1.737164
1.222293
0.692582
-0.060897
-1.213435
-2.679706
-4.216631
-5.687664
-7.076396
-8.251783
-8.862690
-8.575647
-7.431823
-5.927926
-4.779521
-4.638859
-5.885433
-8.446056
-11.733651
-14.799536
-16.629633
-16.559343
-14.675474
-11.837486
-9.241536
-7.844563
-7.989352
-9.342595
-10.968074
-11.546846
-9.983499
-6.159445
-1.176904
3.216770
5.603263
5.558124
3.722605
1.390559
-0.162002
-0.243289
1.061489
3.032532
4.674943
5.222770
4.511247
2.893946
0.820247
-1.434166
-3.573753
-5.018171
-5.147203
-3.806908
-1.427344
1.322940
3.939758
6.225092
8.206028
9.968979
11.453063
12.389107
12.573500
12.248710
12.111437
12.838150
14.572930
16.821157
18.785593
19.890911
20.118677
19.900280
19.689035
19.642677
19.663237
19.557598
19.120691
18.230518
16.984898
15.769285
15.076312
15.126141
15.680573
16.195330
16.057020
14.809204
12.458248
9.664393
7.443977
6.545265
7.094666
8.644563
10.438766
11.810424
12.467587
12.472301
11.993487
11.131866
10.033916
9.047063
8.648055
9.189481
10.669811
12.675440
14.424631
14.984371
13.731621
10.737837
6.737671
2.684320
-0.673436
-2.863838
-3.656686
-3.136583
-1.851648
-0.814579
-1.037153
-2.861985
-5.680115
-8.231981
-9.346670
-8.653282
-6.739536
-4.667970
-3.267459
-2.783064
-3.045346
-3.784730
-4.737641
-5.598139
-6.017895
-5.724681
-4.728271
-3.410119
-2.323713
-1.912969
-2.429524
-3.971370
-6.415159
-9.322168
-12.039335
-13.968682
-14.832644
-14.727826
-13.914823
-12.584815
-10.812851
-8.720213
-6.650508
-5.040287
-4.042157
-3.358624
-2.497985
-1.169559
0.544863
2.325719
3.888206
5.154319
6.163027
6.772364
6.509436
4.922995
2.207926
-0.624542
-2.360295
-2.415367
-1.077186
0.938536
3.040374
4.977108
6.715138
8.190041
9.153325
9.213639
8.009918
5.459071
2.003763
-1.389327
-3.627017
-4.050156
-2.788246
-0.724227
0.938387
1.356319
0.478780
-1.186420
-3.086388
-4.778528
-5.764875
-5.501613
-3.794857
-1.142702
1.459199
3.066702
3.220956
2.061178
0.241207
-1.247354
-1.520326
-0.396685
1.471833
3.166444
4.188960
4.634212
4.857074
5.089749
5.344190
5.588745
5.925221
6.551456
7.566389
8.819682
9.956850
10.603487
10.575871
10.001034
9.135691
8.058406
6.677927
4.939569
2.879965
0.611302
-1.698894
-3.981002
-6.385204
-9.098015
-11.973570
-14.368195
-15.354879
-14.183328
-10.730599
-5.672670
-0.310653
3.868585
5.808161
5.332906
3.090299
0.078670
-2.818949
-4.986116
-6.031919
-5.813971
-4.519354
-2.636310
-0.711944
0.914994
2.095824
2.655471
2.384734
1.331218
-0.051630
-1.201598
-1.860110
-2.162492
-2.426877
-2.934424
-3.859750
-5.317072
-7.404300
-10.107098
-13.100954
-15.667490
-16.853094
-15.849946
-12.448647
-7.345539
-2.093854
1.482871
2.221201
0.239566
-3.208199
-6.466515
-8.247907
-8.031676
-6.057026
-3.081093
-0.042131
2.276235
3.482055
3.655474
3.256578
2.885330
2.971256
3.522742
4.128439
4.241373
3.437076
1.444137
-1.827531
-6.091110
-10.555688
-14.155944
-16.073298
-16.173296
-15.032686
-13.534008
-12.320826
-11.528048
-10.930942
-10.254852
-9.357343
-8.231920
-6.945638
-5.651621
-4.649743
-4.280151
-4.661683
-5.624719
-6.919426
-8.353826
-9.744191
-10.924870
-11.871527
-12.719589
-13.623443
-14.622111
-15.612907
-16.410709
-16.809559
-16.574022
-15.436762
-13.241300
-10.140762
-6.597724
-3.169151
-0.299612
1.745037
2.817698
2.821568
1.747848
-0.268531
-3.011889
-6.268552
-9.741455
-12.888340
-15.002220
-15.580414
-14.623649
-12.586029
-10.093607
-7.687207
-5.665046
-4.014202
-2.499625
-0.901634
0.765545
2.193343
2.938057
2.767544
1.962211
1.284913
1.561020
3.105588
5.424526
7.502889
8.514873
8.424333
8.040863
8.448491
10.203274
12.945573
15.693149
17.490156
17.853483
16.804325
14.757773
12.416887
10.532803
9.583493
9.585891
10.103444
10.440131
10.048765
8.912837
7.441392
5.999048
4.709041
3.632775
2.861496
2.343569
1.811386
1.061725
0.251130
-0.184231
0.153472
1.430369
3.561168
6.246440
9.095081
11.769698
14.026419
15.704794
16.726532
17.056665
16.646475
15.485942
13.736565
11.706758
9.666177
7.744507
5.930950
4.060028
1.886218
-0.705271
-3.547745
-6.228817
-8.266406
-9.299121
-9.213562
-8.281620
-7.222338
-6.861118
-7.491421
-8.663225
-9.698109
-10.210678
-10.041342
-9.058920
-7.337225
-5.327032
-3.597024
-2.451169
-1.869384
-1.702728
-1.767798
-1.797583
-1.546420
-1.044382
-0.635360
-0.695333
-1.303826
-2.160720
-2.795825
-2.876094
-2.411275
-1.767110
-1.432432
-1.611423
-1.985009
-1.961248
-1.216475
0.029733
1.233076
1.918381
1.913302
1.403400
0.817502
0.519167
0.534117
0.601213
0.469292
0.130444
-0.168420
-0.061716
0.765350
2.396119
4.559296
6.705560
8.267646
8.897342
8.524128
7.298234
5.553314
3.768678
2.429031
1.817205
1.895226
2.331447
2.620026
2.284844
1.120179
-0.710859
-2.823368
-4.866271
-6.648274
-8.112056
-9.337886
-10.550534
-11.922492
-13.264760
-14.005373
-13.578721
-11.792909
-8.809551
-4.981177
-0.867023
2.768499
5.245240
6.326298
6.287228
5.707862
5.178186
5.013311
5.086044
4.896407
3.880139
1.855200
-0.630040
-2.398959
-2.281962
0.164318
4.376807
9.021491
12.557905
13.959815
13.243574
11.356122
9.491135
8.461599
8.538322
9.567607
11.066732
12.331214
12.701296
11.877058
10.026700
7.625488
5.208857
3.219451
1.928230
1.351389
1.220458
1.061636
0.349321
-1.274504
-3.781998
-6.720143
-9.440130
-11.449052
-12.577709
-12.853648
-12.344206
-11.228807
-9.959693
-9.162309
-9.283358
-10.360987
-12.064059
-13.868407
-15.319753
-16.289940
-16.995840
-17.765545
-18.790846
-19.974075
-20.876345
-20.928774
-19.858730
-17.883244
-15.492361
-13.160984
-11.232189
-9.842133
-8.820786
-7.777011
-6.379503
-4.525698
-2.310133
0.030133
2.179014
3.885656
5.058304
5.683783
5.728096
5.190613
4.177778
2.829457
1.243840
-0.425828
-1.865641
-2.736575
-2.945529
-2.723825
-2.424992
-2.231785
-2.006902
-1.405418
-0.141748
1.813954
4.221960
6.679670
8.736439
9.992980
10.209362
9.405121
7.887537
6.149028
4.716539
4.065052
4.516277
6.060782
8.254784
10.354721
11.646404
11.726345
10.540407
8.262810
5.217312
1.866938
-1.224636
-3.496566
-4.541865
-4.236798
-2.757004
-0.513624
1.935651
4.075078
5.694705
7.010604
8.521598
10.698766
13.654165
16.935669
19.613342
20.681145
19.542894
16.263220
11.454016
5.960538
0.599693
-3.971777
-7.341641
-9.416544
-10.395246
-10.587332
-10.227718
-9.454974
-8.418277
-7.381190
-6.706624
-6.706561
-7.498191
-8.975171
-10.837975
-12.578925
-13.485863
-12.883951
-10.555005
-6.943510
-2.961407
0.456070
2.800077
4.186787
5.155188
6.257268
7.803616
9.828857
12.085304
14.029732
14.980844
14.502935
12.708907
10.154917
7.453533
4.984872
2.864617
1.061836
-0.451991
-1.576367
-2.092088
-1.860824
-1.022962
0.014302
0.744205
0.696125
-0.446043
-2.620633
-5.250911
-7.518192
-8.876898
-9.268726
-8.918217
-8.080956
-6.920102
-5.451400
-3.606351
-1.400163
1.003586
3.400804
5.623139
7.499047
8.853734
9.589645
9.729536
9.360058
8.549628
7.306964
5.551744
3.183258
0.315346
-2.627114
-5.218015
-7.397348
-9.362019
-11.143552
-12.558737
-13.581490
-14.453381
-15.357738
-16.186743
-16.668018
-16.594755
-15.865457
-14.459721
-12.651164
-11.147130
-10.642996
-11.174451
-12.058726
-12.450040
-11.891958
-10.465832
-8.632138
-6.983354
-5.982917
-5.796538
-6.302666
-7.079621
-7.339667
-6.241243
-3.583467
-0.156680
2.750157
4.294210
4.525318
3.981855
3.216233
2.775846
3.039661
3.707789
3.896302
3.137226
2.024372
1.594646
2.310042
3.887136
5.912222
8.308998
11.187038
14.425948
17.528315
19.865965
21.114405
21.532154
21.754147
22.192823
22.608671
22.326462
20.988171
19.108404
17.707266
17.245377
17.131079
16.600571
15.792203
15.327419
15.100533
14.377032
12.985348
11.516430
10.379161
9.433689
8.493294
7.546151
6.605268
5.789604
5.333368
5.291357
5.514998
5.935173
6.590821
7.489390
8.688758
10.333234
12.332756
14.175031
15.293116
15.417481
14.462302
12.603663
10.784985
10.484188
12.351112
15.365320
17.756310
18.619404
18.456270
18.296831
18.569418
18.912216
18.823505
18.219645
17.433649
16.829548
16.413023
15.820929
14.717478
13.113930
11.242086
9.225792
7.030750
4.786965
2.959853
1.814804
0.815482
-0.784449
-2.853151
-4.748264
-6.517309
-8.610889
-10.627802
-11.570397
-11.377699
-11.248756
-12.263462
-14.240849
-16.103413
-17.028448
-17.069994
-16.786346
-16.456755
-15.789692
-14.350910
-12.092505
-9.403551
-6.756827
-4.411796
-2.470141
-1.099629
-0.515841
-0.640569
-0.881227
-0.522841
0.528978
1.522538
1.480027
0.048550
-2.218062
-4.367420
-5.863582
-6.955053
-8.225370
-9.752335
-10.807308
-10.558609
-9.049300
-7.290101
-6.433437
-7.027235
-8.902597
-11.418600
-13.731526
-15.105571
-15.270337
-14.540072
-13.523690
-12.661938
-11.943089
-10.982890
-9.391712
-7.108134
-4.395919
-1.554121
1.270497
3.938485
6.138614
7.534729
8.026237
7.755861
6.987387
6.035646
5.097399
4.056905
2.642487
0.803414
-1.202640
-2.989165
-4.148644
-4.327154
-3.440726
-1.893459
-0.503070
-0.057097
-0.790169
-2.244987
-3.627501
-4.278754
-3.948571
-2.883651
-1.765508
-1.393872
-2.139421
-3.590842
-4.830510
-5.127263
-4.395159
-3.091391
-1.788723
-0.859927
-0.451530
-0.556375
-1.021937
-1.611608
-2.196501
-2.894039
-3.956624
-5.446977
-7.002982
-8.038834
-8.254049
-7.839504
-7.191935
-6.620594
-6.293796
-6.227542
-6.291314
-6.314445
-6.157407
-5.695004
-4.880171
-3.890297
-3.124849
-2.960354
-3.472163
-4.393117
-5.337558
-6.074745
-6.621673
-7.120282
-7.666167
-8.252682
-8.829550
-9.355052
-9.758448
-9.874758
-9.489386
-8.521242
-7.181336
-5.895526
-4.985665
-4.401165
-3.808083
-2.932484
-1.763400
-0.480779
0.693552
1.564924
1.977725
1.836912
1.157066
0.107336
-1.015226
-1.897524
-2.326429
-2.255937
-1.815165
-1.236874
-0.749467
-0.503868
-0.544132
-0.825031
-1.279079
-1.864775
-2.543768
-3.258368
-3.947295
-4.533997
-4.923660
-5.082213
-5.109670
-5.192284
-5.469812
-5.951659
-6.521701
-6.957086
-6.987406
-6.468931
-5.537420
-4.559771
-3.934013
-3.885116
-4.344523
-4.969587
-5.333432
-5.203827
-4.700245
-4.207608
-4.141193
-4.705492
-5.757748
-6.880740
-7.640991
-7.813103
-7.403290
-6.564451
-5.550713
-4.703009
-4.366389
-4.701968
-5.531704
-6.399707
-6.816231
-6.489292
-5.449397
-4.066842
-2.912452
-2.470376
-2.877970
-3.878133
-5.007713
-5.863605
-6.252142
-6.184312
-5.821056
-5.439682
-5.351763
-5.729593
-6.484451
-7.275026
-7.588198
-6.910901
-5.015585
-2.208837
0.754191
3.134875
4.641751
5.467087
6.005456
6.570905
7.291147
8.097222
8.725099
8.766204
7.832194
5.806278
2.985784
-0.020578
-2.559118
-4.202284
-4.890721
-4.901001
-4.666777
-4.538416
-4.639568
-4.862707
-4.908798
-4.375695
-2.966411
-0.738152
1.823492
4.011424
5.268030
5.474413
4.933624
4.092534
3.294040
2.703709
2.339966
2.147695
2.080254
2.135242
2.324840
2.636386
3.040239
3.520102
4.082352
4.754506
5.590706
6.629479
7.779506
8.791465
9.427386
9.657171
9.647011
9.545624
9.319781
8.812914
7.913185
6.638347
5.109840
3.522770
2.139877
1.222504
0.915433
1.198475
1.912534
2.799513
3.550839
3.917604
3.883478
3.714714
3.735982
4.059656
4.583831
5.183917
5.807330
6.386548
6.747597
6.687165
6.144079
5.302946
4.610418
4.643870
5.744379
7.667160
9.659240
10.954348
11.238053
10.712989
9.826213
8.973379
8.356661
7.989921
7.797938
7.682030
7.480979
6.987262
6.099689
4.917056
3.675285
2.633945
1.939636
1.531598
1.282206
1.249403
1.625502
2.392559
3.236808
3.910746
4.411562
4.641397
4.273222
3.253707
2.125789
1.496991
1.315554
0.985119
0.177198
-0.813419
-1.567995
-2.005288
-2.228617
-2.276139
-2.256018
-2.524863
-3.397658
-4.631577
-5.460914
-5.311119
-4.355046
-3.270658
-2.588445
-2.393086
-2.508460
-2.741294
-2.959059
-3.070997
-2.988246
-2.643834
-2.056931
-1.318762
-0.519447
0.294405
1.124019
1.955972
2.648003
2.939752
2.680982
2.054010
1.517677
1.514668
2.184844
3.259706
4.217424
4.630230
4.426243
3.839691
3.166578
2.592389
2.149525
1.752868
1.349516
1.090111
1.268499
2.045798
3.281760
4.618216
5.657029
6.112487
5.952596
5.443238
4.947347
4.616267
4.328850
3.945849
3.543805
3.330235
3.343844
3.332570
3.000609
2.320323
1.527117
0.868179
0.430263
0.160907
-0.026291
-0.183297
-0.325951
-0.449177
-0.538723
-0.607195
-0.703127
-0.828431
-0.865840
-0.642440
-0.063654
0.822909
1.877025
2.975838
4.076272
5.160439
6.127766
6.765149
6.845206
6.268321
5.127918
3.660815
2.130918
0.715901
-0.555453
-1.781075
-3.074245
-4.443564
-5.771850
-6.914328
-7.829920
-8.604524
-9.314443
-9.886280
-10.134077
-9.924539
-9.292554
-8.426168
-7.572890
-6.957700
-6.720014
-6.844869
-7.148941
-7.371623
-7.321406
-6.995132
-6.604642
-6.477979
-6.882614
-7.875154
-9.248524
-10.597996
-11.470041
-11.510850
-10.586683
-8.901234
-7.025474
-5.670630
-5.268075
-5.703880
-6.443973
-6.934755
-6.935357
-6.508466
-5.768419
-4.721384
-3.310380
-1.507136
0.647672
3.005035
5.281809
7.154195
8.429426
9.126301
9.425786
9.564833
9.708827
9.844088
9.770459
9.215148
8.017200
6.304061
4.516747
3.187719
2.623850
2.759057
3.253645
3.703947
