EVENT_NAME: L_AQUILA
EVENT_ID: IT-2009-0009
EVENT_DATE_YYYYMMDD: 20090406
EVENT_TIME_HHMMSS: 013240
EVENT_LATITUDE_DEGREE: 42.3420
EVENT_LONGITUDE_DEGREE: 13.3800
EVENT_DEPTH_KM: 8.3
HYPOCENTER_REFERENCE: INGV-CNT_Seismic_Bulletin
MAGNITUDE_W: 6.1
MAGNITUDE_W_REFERENCE: INGV-CNT_Seismic_Bulletin
MAGNITUDE_L: 
MAGNITUDE_L_REFERENCE: 
FOCAL_MECHANISM: Normal faulting
NETWORK: IT
STATION_CODE: MTR
STATION_NAME: 
STATION_LATITUDE_DEGREE: 42.524021
STATION_LONGITUDE_DEGREE: 13.244796
STATION_ELEVATION_M: 975
LOCATION: 
SENSOR_DEPTH_M: 0.0
VS30_M/S: 689
SITE_CLASSIFICATION_EC8: B
MORPHOLOGIC_CLASSIFICATION: 
EPICENTRAL_DISTANCE_KM: 23.1
EARTHQUAKE_BACKAZIMUTH_DEGREE: 331.2
DATE_TIME_FIRST_SAMPLE_YYYYMMDD_HHMMSS: 20090406_013231.000
DATE_TIME_FIRST_SAMPLE_PRECISION: seconds
SAMPLING_INTERVAL_S: 0.005000
NDATA: 20000
DURATION_S: 100.000
STREAM: HNE
UNITS: cm/s^2
INSTRUMENT: sensor = FBA-3 [Kinemetrics] | digitizer = Etna [Kinemetrics]
INSTRUMENT_ANALOG/DIGITAL: D
INSTRUMENTAL_FREQUENCY_HZ: 218.000
INSTRUMENTAL_DAMPING: 0.700000
FULL_SCALE_G: 1.0
N_BIT_DIGITAL_CONVERTER: 18
PGA_CM/S^2: 42.921921
TIME_PGA_S: 19.425000
BASELINE_CORRECTION: BASELINE REMOVED
FILTER_TYPE: BUTTERWORTH
FILTER_ORDER: 2
LOW_CUT_FREQUENCY_HZ: 0.080
HIGH_CUT_FREQUENCY_HZ: 40.000
LATE/NORMAL_TRIGGERED: NT
DATABASE_VERSION: 0.5
HEADER_FORMAT: DYNA 1.2
DATA_TYPE: ACCELERATION
PROCESSING: manual (Paolucci et al., 2011)
DATA_TIMESTAMP_YYYYMMDD_HHMMSS: 20211011_155908.364
DATA_LICENSE: CC-BY3_0-IT (http://creativecommons.org/licenses/by/3.0/deed.en)
DATA_CITATION: Luzi L, Pacor F, Puglia R (2019). Italian Accelerometric Archive v 3.0 - Istituto Nazionale di Geofisica e Vulcanologia, Dipartimento della Protezione Civile Nazionale. doi: 10.13127/itaca.3.1
DATA_CREATOR: ITACA working group
ORIGINAL_DATA_MEDIATOR_CITATION: data obtained within the DPC-INGV data exchange agreements
ORIGINAL_DATA_MEDIATOR: Archive of Italian Department of Civil Protection
ORIGINAL_DATA_CREATOR_CITATION: Presidency Of Counsil Of Ministers-Civil Protection Department. (1972). Italian Strong Motion Network. Presidency of Counsil of Ministers - Civil Protection Department. https://doi.org/10.7914/SN/IT http://www.fdsn.org/networks/detail/IT/
ORIGINAL_DATA_CREATOR: network: IT (Italian Strong Motion Network (RAN)); owner: Presidency of Counsil of Ministers - Civil Protection Department (PCM - DPC)
USER1: 
USER2: 
USER3: 
USER4: 
USER5: 
[...]
0.000678
-0.000834
-0.002853
-0.003491
-0.001929
-0.000116
-0.000376
-0.002218
-0.003153
-0.001708
0.000514
0.000822
-0.000630
-0.001872
-0.002433
-0.003049
-0.003605
-0.002876
-0.001108
-0.000752
-0.002386
-0.003888
-0.004186
-0.003881
-0.003620
-0.003273
-0.002200
-0.001009
-0.000921
-0.001165
-0.000678
-0.000675
-0.001595
-0.001489
-0.000123
0.000694
0.000750
0.000786
0.000404
-0.001117
-0.003456
-0.005207
-0.005273
-0.004077
-0.002812
-0.002209
-0.002512
-0.003470
-0.004088
-0.003424
-0.001966
-0.001672
-0.003153
-0.004066
-0.003182
-0.002511
-0.003168
-0.003943
-0.003819
-0.002836
-0.001397
0.000269
0.001210
0.000094
-0.001842
-0.001722
0.000486
0.001893
0.001058
-0.000487
-0.001663
-0.002936
-0.003573
-0.002362
-0.000360
-0.000163
-0.002756
-0.005475
-0.005122
-0.002630
-0.000801
0.000294
0.001500
0.001843
0.000848
-0.000060
0.000107
0.000534
-0.000215
-0.001920
-0.002377
-0.000606
0.000985
-0.000182
-0.002572
-0.002723
-0.000555
0.000752
-0.000793
-0.003469
-0.004512
-0.003726
-0.002503
-0.001402
-0.000125
0.001225
0.001693
0.000440
-0.001955
-0.003675
-0.003640
-0.002605
-0.001983
-0.002246
-0.002753
-0.003028
-0.003219
-0.003506
-0.004409
-0.005813
-0.005477
-0.002443
0.000217
0.000109
-0.001496
-0.003029
-0.004471
-0.006148
-0.007543
-0.007113
-0.004414
-0.001774
-0.001699
-0.003769
-0.005747
-0.006094
-0.004325
-0.001230
0.000721
-0.000250
-0.002875
-0.004798
-0.005296
-0.005017
-0.004513
-0.003753
-0.003133
-0.003964
-0.006283
-0.007347
-0.005134
-0.001945
-0.000686
-0.000595
-0.000311
-0.000624
-0.002084
-0.003434
-0.003579
-0.003137
-0.003239
-0.003997
-0.004735
-0.005399
-0.006088
-0.005724
-0.004296
-0.003808
-0.004439
-0.004327
-0.003425
-0.003188
-0.003792
-0.004266
-0.004187
-0.003764
-0.002755
-0.001317
-0.000812
-0.001989
-0.004030
-0.005471
-0.005479
-0.004893
-0.005221
-0.006796
-0.008710
-0.010128
-0.010764
-0.010343
-0.009230
-0.008419
-0.008892
-0.011734
-0.016147
-0.019336
-0.019788
-0.017759
-0.014044
-0.008916
-0.001932
0.006023
0.012498
0.014480
0.009120
-0.003284
-0.018946
-0.034469
-0.047575
-0.054347
-0.050705
-0.038060
-0.022968
-0.011493
-0.006377
-0.006017
-0.005716
-0.002018
0.004247
0.008424
0.006140
-0.000665
-0.002987
0.005825
0.021488
0.032793
0.030807
0.013924
-0.010849
-0.031499
-0.040113
-0.039189
-0.036714
-0.035285
-0.031380
-0.026257
-0.027845
-0.037802
-0.045902
-0.041247
-0.022070
0.007106
0.040709
0.070853
0.086324
0.081268
0.064749
0.054580
0.060124
0.073720
0.078766
0.062861
0.019384
-0.058290
-0.168166
-0.277832
-0.321453
-0.241105
-0.050913
0.148335
0.242835
0.200272
0.087543
0.000732
-0.013412
0.028390
0.087719
0.142381
0.185298
0.200583
0.156680
0.034225
-0.138707
-0.288945
-0.348209
-0.307026
-0.216657
-0.134321
-0.070005
0.007099
0.112600
0.207639
0.223478
0.128246
-0.031091
-0.156697
-0.174766
-0.087593
0.040926
0.140781
0.173482
0.131126
0.027697
-0.097984
-0.191726
-0.220202
-0.196514
-0.155398
-0.108729
-0.047687
0.013461
0.026696
-0.040440
-0.158807
-0.254909
-0.269457
-0.193616
-0.059547
0.086782
0.205382
0.272511
0.278202
0.214565
0.077636
-0.110064
-0.286300
-0.373015
-0.323406
-0.153928
0.065462
0.254518
0.359845
0.361706
0.265111
0.097617
-0.085417
-0.208335
-0.209090
-0.078129
0.134421
0.345446
0.469787
0.443576
0.253237
-0.035663
-0.292097
-0.400534
-0.351235
-0.239137
-0.159566
-0.117351
-0.051808
0.070708
0.215991
0.314420
0.303755
0.154792
-0.106371
-0.386836
-0.556458
-0.516581
-0.261998
0.103266
0.407124
0.498786
0.342973
0.042223
-0.244788
-0.410561
-0.427863
-0.308027
-0.079959
0.182817
0.352121
0.299646
-0.009674
-0.454339
-0.793488
-0.815389
-0.497308
-0.029721
0.327213
0.417464
0.245962
-0.077445
-0.405657
-0.588924
-0.518192
-0.197523
0.223891
0.530488
0.580435
0.374378
0.003617
-0.429778
-0.832915
-1.112904
-1.206875
-1.133078
-0.985476
-0.856760
-0.758519
-0.618061
-0.369639
-0.047231
0.240927
0.432434
0.575739
0.757503
0.973032
1.091176
0.963873
0.560246
-0.019201
-0.637959
-1.205404
-1.672493
-1.972945
-1.990803
-1.610521
-0.829007
0.168159
1.068166
1.617935
1.775585
1.664807
1.375080
0.851255
0.040616
-0.858344
-1.400481
-1.260148
-0.590190
0.058047
0.188272
-0.279970
-1.042562
-1.690024
-1.917996
-1.578574
-0.698837
0.481796
1.546523
2.079372
1.913474
1.257300
0.562039
0.205449
0.238367
0.402239
0.384055
0.052893
-0.523688
-1.206813
-1.840090
-2.209908
-2.103036
-1.501812
-0.666130
0.081344
0.640884
1.104798
1.432378
1.303264
0.431972
-0.985057
-2.236587
-2.593564
-1.897595
-0.681591
0.322967
0.823990
1.085007
1.412334
1.654616
1.342722
0.297483
-1.044430
-1.976649
-2.142467
-1.772942
-1.346257
-1.060780
-0.678541
0.104853
1.196613
2.076819
2.197592
1.372594
-0.128702
-1.711948
-2.676092
-2.483364
-1.012015
1.324255
3.644088
4.886375
4.296520
1.879484
-1.520985
-4.615442
-6.262542
-5.911772
-3.754364
-0.613716
2.351377
4.031732
3.760446
1.656792
-1.278048
-3.589229
-4.191848
-2.948068
-0.534909
2.112462
4.163030
4.924167
3.953739
1.444344
-1.548646
-3.556294
-3.657217
-2.083874
0.140355
2.093418
3.416823
4.056712
3.861874
2.596179
0.283972
-2.522245
-4.805991
-5.550269
-4.456696
-2.313081
-0.372767
0.818778
1.780154
3.104825
4.374064
4.467998
2.953704
0.773114
-0.635029
-0.688988
0.029194
0.647420
0.891658
1.076557
1.472177
1.852075
1.613758
0.349930
-1.592498
-3.161149
-3.363820
-2.061672
-0.004290
1.884405
3.165197
3.846846
3.937023
3.256171
1.779107
0.078363
-0.924540
-0.840998
-0.224002
0.053170
-0.413583
-1.469618
-2.649116
-3.415021
-3.523472
-3.142821
-2.517936
-1.618914
-0.206178
1.660909
3.337407
4.071824
3.652787
2.396430
0.674059
-1.216764
-2.771214
-3.273169
-2.306534
-0.265007
1.775709
2.801906
2.481163
1.179845
-0.386470
-1.533240
-1.914325
-1.596982
-0.853290
-0.011103
0.565639
0.669779
0.435911
0.162099
-0.002423
-0.119003
-0.280910
-0.462322
-0.596051
-0.726551
-0.906006
-0.948962
-0.479964
0.687568
2.232830
3.451703
3.765627
3.101815
1.844581
0.539178
-0.367006
-0.601703
-0.058073
1.174367
2.810115
4.438279
5.589644
5.811224
4.828457
2.766013
0.194246
-2.153207
-3.722811
-4.202573
-3.405186
-1.289064
1.822325
5.027527
6.945257
6.327745
2.971456
-1.806488
-5.804083
-7.383908
-6.479189
-4.257750
-1.914974
0.089232
1.682172
2.481660
1.876965
-0.220245
-3.019297
-5.322046
-6.238676
-5.499736
-3.358585
-0.421546
2.481293
4.461761
4.846528
3.466260
0.672154
-2.918595
-6.575438
-9.391384
-10.322812
-8.619975
-4.442935
0.924290
5.593419
7.988618
7.488682
4.531449
0.372302
-3.391672
-5.507060
-5.654465
-4.419659
-2.602314
-0.605652
1.475546
3.372612
4.514888
4.463346
3.362512
1.893089
0.790983
0.372756
0.486031
0.846506
1.237415
1.315130
0.458514
-1.848488
-5.346901
-8.856473
-10.959451
-10.797119
-8.270031
-3.894684
1.255467
5.785632
8.602640
9.345903
8.121372
5.081172
0.618873
-4.095097
-7.154183
-6.829985
-2.707387
3.874594
10.458462
14.686479
15.151706
11.522646
4.461104
-4.283713
-12.040994
-16.166727
-15.342036
-10.118704
-2.362477
5.569977
11.263675
12.653111
8.832209
0.884512
-8.138073
-14.545941
-15.947649
-12.320361
-5.489376
2.163856
8.536640
12.026733
11.781412
8.127502
2.599864
-2.762908
-6.331070
-7.323720
-5.754152
-2.292384
1.808974
4.978521
5.934998
4.352289
1.062848
-2.427448
-4.754483
-5.222239
-3.832083
-1.175080
1.599231
3.057181
2.154664
-1.084493
-5.347566
-8.491340
-8.632365
-5.363445
-0.177579
4.488884
6.978183
7.311213
6.438791
4.990118
3.061529
0.845001
-1.156338
-2.623120
-3.748629
-4.806743
-5.530525
-5.214531
-3.471610
-0.698470
2.197481
4.351019
5.265955
4.850707
3.345528
1.258706
-0.722498
-1.946599
-2.086178
-1.157502
0.695665
3.103822
5.204144
5.884201
4.473219
1.256845
-2.754199
-6.639522
-9.839054
-11.674165
-11.274518
-8.173372
-2.873994
2.997241
7.276937
8.474914
6.549572
2.684680
-1.447006
-4.460342
-5.722183
-5.312524
-3.730498
-1.608254
0.454794
2.036823
3.064250
3.726694
4.292497
5.004909
5.692817
5.608754
4.181201
1.684035
-1.067553
-3.383290
-5.038832
-6.022068
-6.008647
-4.578154
-2.077261
0.318015
1.694286
2.282168
3.024801
4.348901
5.457157
4.920592
2.241545
-1.264008
-3.518967
-3.410384
-1.347387
1.394604
3.674105
4.965514
5.152599
4.415878
3.259849
2.091600
0.965338
0.037188
-0.177975
0.740197
2.590391
4.506508
5.466401
4.856813
2.500598
-1.517713
-6.576800
-11.205135
-13.655675
-13.042691
-9.700760
-4.630302
0.941894
5.661203
8.262213
8.029281
5.262549
1.218455
-2.644581
-5.374422
-6.617672
-6.392594
-4.937996
-2.741005
-0.613908
0.551861
0.429328
-0.383338
-0.939548
-0.939695
-0.931416
-1.479941
-2.338879
-2.642738
-2.024128
-1.301564
-1.716119
-3.640983
-6.226975
-8.048032
-7.987902
-5.744961
-1.765669
3.017663
7.403561
10.286729
11.021897
9.440700
5.769350
0.799628
-3.990497
-6.869488
-6.791432
-4.162077
-0.635401
2.053206
3.138563
2.824104
1.605733
-0.063140
-1.564897
-2.029752
-0.811665
1.852823
4.816345
6.842335
7.494125
7.232439
6.702095
5.907458
4.092258
0.560879
-4.302212
-8.890931
-11.329365
-10.633969
-7.109816
-1.897933
3.637228
8.128641
10.213198
8.888096
4.272502
-1.992035
-7.414112
-10.048869
-9.420866
-6.247070
-1.632692
3.190950
6.761225
7.773086
5.883647
2.070187
-1.882824
-4.331730
-4.437073
-2.293909
1.269888
5.047005
7.849225
8.823702
7.641778
4.659521
1.050348
-1.460544
-1.502580
0.952971
4.426791
6.849957
6.869426
4.483987
0.660794
-3.432895
-6.818500
-8.677360
-8.441495
-6.198039
-2.947262
-0.261380
0.557997
-0.755787
-3.345507
-5.925082
-7.721173
-8.802132
-9.468295
-9.495844
-8.245525
-5.520385
-2.118638
0.609452
1.790876
1.621549
0.992662
0.604304
0.440033
0.034318
-0.852155
-1.893113
-2.483980
-2.235046
-1.080320
0.976885
3.877862
7.092220
9.443090
9.724040
7.545667
3.454800
-1.580915
-6.475534
-9.971646
-10.828109
-8.429449
-3.285630
3.037999
8.461381
11.099380
9.948546
5.304625
-1.353448
-7.925746
-12.382551
-13.418273
-10.841992
-5.498349
1.077155
7.078104
10.933713
11.738659
9.428828
4.767690
-0.745631
-5.199011
-7.012419
-5.748185
-2.316684
1.606945
4.479884
5.517131
4.845640
3.221075
1.448570
-0.058970
-1.168493
-1.532334
-0.442661
2.556238
6.929007
11.213906
13.953923
14.633091
13.747890
12.129306
10.356162
8.641473
6.938336
5.131802
3.353019
2.076426
1.787523
2.678381
4.558026
6.720404
7.995301
7.321121
4.511804
0.591252
-2.638616
-3.666263
-2.250361
0.601244
3.581309
5.863984
7.155174
7.527263
7.407032
7.428358
8.075486
9.484472
11.545948
13.961571
15.923785
15.961299
12.808689
6.701507
-0.424050
-6.009586
-8.194422
-6.605053
-2.265798
3.174006
8.113742
11.269799
11.846332
9.697640
5.500926
0.867404
-2.215501
-2.611138
-0.597907
2.904745
7.263771
12.008641
16.093929
17.841007
16.058887
11.293332
5.557828
0.706308
-2.512981
-3.990400
-3.670677
-1.634773
1.609233
5.124587
7.858055
9.020921
8.345198
6.144893
3.225407
0.751086
-0.065595
1.507398
5.346605
10.367376
14.819874
17.303286
17.662428
16.596035
14.614219
11.757510
8.226155
4.940357
3.135887
3.259930
4.457773
5.289863
4.832335
3.070433
0.485886
-2.453163
-5.301695
-7.356754
-7.855028
-6.734269
-4.909779
-3.550809
-3.267088
-3.962789
-5.187983
-6.581550
-8.013747
-9.316473
-10.092708
-10.012988
-9.065240
-7.210776
-4.137079
0.190692
4.857007
8.186536
8.746117
6.266477
1.738942
-3.297675
-7.646755
-10.749398
-12.288784
-11.925960
-9.689534
-6.440237
-3.597312
-2.241874
-2.574325
-4.212949
-6.695776
-9.519830
-11.919519
-12.935728
-11.903243
-9.002785
-5.364673
-2.502974
-1.504462
-2.605190
-5.327308
-8.954431
-12.954936
-16.954556
-20.422029
-22.736832
-23.662861
-23.558996
-23.095137
-22.708666
-22.181175
-20.830629
-18.214800
-14.586744
-10.712167
-7.392121
-5.234319
-4.715360
-6.070538
-8.931105
-12.243808
-14.755750
-15.693793
-15.008918
-12.923922
-9.445310
-4.659266
0.638651
5.050840
7.428773
7.472883
5.470439
1.740870
-3.395251
-9.232416
-14.547311
-18.142557
-19.721058
-20.052628
-20.094927
-20.123795
-19.837366
-19.039261
-18.002747
-17.271210
-17.116526
-17.107668
-16.359249
-14.325607
-11.270259
-7.935127
-4.862586
-2.137239
0.360725
2.726180
5.017067
7.187402
8.869731
9.318273
7.826794
4.412440
0.144672
-3.222000
-4.051269
-1.618378
3.461021
9.527215
14.887735
18.750834
21.205723
22.471006
22.493279
21.276531
19.245272
17.087721
15.303737
13.984998
13.039418
12.494398
12.391528
12.430789
11.985416
10.575990
8.232072
5.389055
2.529292
-0.091232
-2.455650
-4.522204
-5.947691
-6.284807
-5.554343
-4.376984
-3.376935
-2.507091
-0.985365
2.101029
7.091278
13.525951
20.430016
26.800261
32.050373
36.159004
39.361069
41.699230
42.921921
42.735329
41.009026
37.721790
32.960716
27.213957
21.473339
16.763069
13.593963
11.899232
11.316985
11.426416
11.886254
12.575940
13.565877
14.832977
16.007584
16.374435
15.078253
11.421062
5.307920
-2.303304
-9.646284
-15.150342
-18.087612
-18.294107
-15.674662
-10.330271
-3.310332
3.088889
6.439858
5.885213
2.535774
-1.799159
-5.876129
-9.150611
-11.398158
-12.601129
-13.065807
-13.299229
-13.631817
-14.159921
-15.002787
-16.158724
-17.079508
-17.091469
-16.387093
-15.789023
-15.504692
-14.964225
-13.736417
-11.851168
-9.499436
-6.912684
-4.292745
-1.638586
1.305844
4.666750
7.796833
9.367955
8.322994
4.570506
-1.174178
-8.005325
-15.236528
-22.339575
-28.608250
-33.040382
-34.835743
-34.085106
-31.919592
-29.893225
-28.931376
-28.683655
-27.871729
-25.419785
-21.352455
-16.514421
-11.716858
-7.361942
-3.670762
-1.172060
-0.631771
-2.250114
-5.339096
-9.000668
-12.837272
-17.014219
-21.926058
-27.503237
-32.375328
-34.246746
-31.869370
-26.510527
-21.049639
-17.619986
-16.216290
-15.405327
-14.113133
-12.570414
-11.566599
-11.171842
-10.470450
-8.418743
-4.814450
-0.336407
4.247198
8.684241
13.116193
17.405058
20.665180
21.794844
20.588724
18.121719
15.943103
14.913962
14.647348
13.933972
11.897650
8.827771
5.868300
4.110648
3.981791
5.131779
6.761243
8.191189
9.193195
9.869262
10.475300
11.405796
12.898554
14.510622
15.376393
15.235488
14.754729
14.728272
15.263167
15.759674
15.611589
14.974993
14.818754
16.101027
18.919596
22.569687
26.281542
29.635283
32.312477
33.828259
33.628181
31.197271
26.182577
18.792513
10.136385
2.023830
-3.819543
-6.564232
-6.440634
-4.353879
-1.337227
1.920877
5.144224
8.258584
11.256564
14.082967
16.545004
18.336311
19.068499
18.324907
15.965041
12.536844
9.114374
6.492515
4.713061
3.432976
2.428627
1.594644
0.804744
0.054504
-0.463905
-0.629099
-0.612955
-0.700435
-1.011681
-1.597033
-2.600808
-4.026167
-5.526404
-6.735465
-7.775698
-9.183048
-11.170118
-13.131303
-14.077102
-13.520751
-11.839801
-9.791667
-7.923489
-6.651834
-6.589686
-8.236329
-11.234625
-14.169977
-15.266339
-13.483242
-9.176142
-3.712081
1.618460
6.342265
10.565563
14.134003
16.186211
15.648252
12.155555
6.449633
-0.094112
-6.226249
-11.156538
-14.468230
-16.151611
-16.912537
-18.138128
-21.078793
-25.887699
-31.457205
-36.138103
-38.678329
-38.721592
-36.688477
-33.324936
-29.324068
-25.226635
-21.475618
-18.393578
-16.075691
-14.294967
-12.456575
-9.786227
-5.804071
-0.596031
5.418181
11.771515
17.860157
22.724697
25.243065
24.759571
21.454082
16.054296
9.513526
3.124167
-1.523693
-3.271657
-2.302192
-0.272032
0.580215
-1.371334
-6.410491
-13.484844
-20.898493
-27.167517
-31.399426
-33.243423
-32.808441
-30.626677
-27.518007
-24.308840
-21.564434
-19.506966
-18.137499
-17.390587
-16.938234
-15.767822
-12.444927
-6.192522
2.332641
11.306588
18.724731
23.291407
24.590445
22.754869
18.349159
12.576522
7.256808
4.215440
4.402453
7.490077
12.267092
17.342127
21.599455
24.319401
25.211771
24.460327
22.528112
19.843239
16.699093
13.178551
9.094935
4.272497
-1.058206
-6.226464
-10.497946
-13.520774
-15.441372
-16.597977
-17.085825
-16.590355
-14.674028
-11.286182
-6.979205
-2.664142
0.724407
2.514417
2.658547
1.811153
0.812599
0.131799
-0.134135
0.046229
0.747281
2.004900
3.687829
5.384919
6.565603
6.948958
6.593622
5.693493
4.467954
3.181514
2.073599
1.194982
0.339883
-0.806416
-2.372297
-4.129080
-5.655020
-6.605503
-6.773186
-6.076162
-4.628080
-2.660876
-0.284938
2.541677
5.752191
8.927412
11.256300
11.699135
9.466685
4.740223
-1.049209
-5.804923
-7.644627
-5.547720
0.180002
7.875676
15.241615
20.341238
22.220230
20.981709
17.390680
12.383253
6.912457
1.977506
-1.569094
-3.382234
-3.798141
-3.666421
-3.983375
-5.502484
-8.424665
-12.342742
-16.470522
-19.908873
-21.785826
-21.341873
-18.157845
-12.532453
-5.602546
1.011701
5.763813
7.710678
6.810195
3.792203
-0.159959
-3.706130
-5.741392
-5.701634
-3.562861
0.172602
4.360970
7.404940
7.969926
5.647285
0.980697
-4.801011
-9.988204
-12.913779
-12.688114
-9.483587
-4.365942
1.104078
5.436516
7.619218
7.189138
4.159415
-0.957133
-6.988597
-12.222109
-15.104267
-14.902046
-11.631503
-5.747268
1.759169
9.277915
15.012788
17.707724
17.202589
14.433349
10.834585
7.613700
5.451955
4.553357
4.571520
4.659747
4.001199
2.259992
-0.383259
-3.360414
-5.964239
-7.645027
-8.187301
-7.644816
-6.140606
-3.921649
-1.543107
0.316925
1.297596
1.535879
1.472918
1.610345
2.416597
4.191778
6.781518
9.580368
11.986740
13.654091
14.389279
14.109760
12.823701
10.756146
8.600817
7.187454
6.709814
6.547095
5.860562
4.240765
1.856912
-0.758790
-2.920540
-4.007630
-3.755150
-2.294295
0.152140
3.467404
7.471312
11.629319
15.055955
16.995274
17.337463
16.650541
15.772250
15.290767
15.438737
16.447706
18.552027
21.571569
24.854328
27.655474
29.434626
29.852768
28.734619
26.150255
22.375500
17.740940
12.573893
7.185017
1.837900
-3.224300
-7.555567
-10.339572
-10.867418
-9.250339
-6.326046
-2.925593
0.450019
3.354488
5.253816
5.729757
4.757522
2.830671
0.620728
-1.479058
-3.414101
-5.268840
-6.839478
-7.447760
-6.552660
-4.293363
-1.226801
2.102522
5.128915
7.123764
7.549597
6.394582
3.922776
0.374363
-4.013645
-8.727680
-12.900847
-15.876954
-17.633915
-18.458780
-18.538874
-17.936787
-16.732073
-15.077134
-13.057553
-10.545083
-7.381699
-3.729553
-0.172967
