EVENT_NAME: L_AQUILA
EVENT_ID: IT-2009-0009
EVENT_DATE_YYYYMMDD: 20090406
EVENT_TIME_HHMMSS: 013240
EVENT_LATITUDE_DEGREE: 42.3420
EVENT_LONGITUDE_DEGREE: 13.3800
EVENT_DEPTH_KM: 8.3
HYPOCENTER_REFERENCE: INGV-CNT_Seismic_Bulletin
MAGNITUDE_W: 6.1
MAGNITUDE_W_REFERENCE: INGV-CNT_Seismic_Bulletin
MAGNITUDE_L: 
MAGNITUDE_L_REFERENCE: 
FOCAL_MECHANISM: Normal faulting
NETWORK: IT
STATION_CODE: MTR
STATION_NAME: 
STATION_LATITUDE_DEGREE: 42.524021
STATION_LONGITUDE_DEGREE: 13.244796
STATION_ELEVATION_M: 975
LOCATION: 
SENSOR_DEPTH_M: 0.0
VS30_M/S: 689
SITE_CLASSIFICATION_EC8: B
MORPHOLOGIC_CLASSIFICATION: 
EPICENTRAL_DISTANCE_KM: 23.1
EARTHQUAKE_BACKAZIMUTH_DEGREE: 331.2
DATE_TIME_FIRST_SAMPLE_YYYYMMDD_HHMMSS: 20090406_013231.000
DATE_TIME_FIRST_SAMPLE_PRECISION: seconds
SAMPLING_INTERVAL_S: 0.005000
NDATA: 20000
DURATION_S: 100.000
STREAM: HNN
UNITS: cm
INSTRUMENT: sensor = FBA-3 [Kinemetrics] | digitizer = Etna [Kinemetrics]
INSTRUMENT_ANALOG/DIGITAL: D
INSTRUMENTAL_FREQUENCY_HZ: 212.000
INSTRUMENTAL_DAMPING: 0.700000
FULL_SCALE_G: 1.0
N_BIT_DIGITAL_CONVERTER: 18
PGD_CM: 0.633820
TIME_PGD_S: 27.475000
BASELINE_CORRECTION: BASELINE REMOVED
FILTER_TYPE: BUTTERWORTH
FILTER_ORDER: 2
LOW_CUT_FREQUENCY_HZ: 0.080
HIGH_CUT_FREQUENCY_HZ: 40.000
LATE/NORMAL_TRIGGERED: NT
DATABASE_VERSION: 0.5
HEADER_FORMAT: DYNA 1.2
DATA_TYPE: DISPLACEMENT
PROCESSING: manual (Paolucci et al., 2011)
DATA_TIMESTAMP_YYYYMMDD_HHMMSS: 20211011_155909.090
DATA_LICENSE: CC-BY3_0-IT (http://creativecommons.org/licenses/by/3.0/deed.en)
DATA_CITATION: Luzi L, Pacor F, Puglia R (2019). Italian Accelerometric Archive v 3.0 - Istituto Nazionale di Geofisica e Vulcanologia, Dipartimento della Protezione Civile Nazionale. doi: 10.13127/itaca.3.1
DATA_CREATOR: ITACA working group
ORIGINAL_DATA_MEDIATOR_CITATION: data obtained within the DPC-INGV data exchange agreements
ORIGINAL_DATA_MEDIATOR: Archive of Italian Department of Civil Protection
ORIGINAL_DATA_CREATOR_CITATION: Presidency Of Counsil Of Ministers-Civil Protection Department. (1972). Italian Strong Motion Network. Presidency of Counsil of Ministers - Civil Protection Department. https://doi.org/10.7914/SN/IT http://www.fdsn.org/networks/detail/IT/
ORIGINAL_DATA_CREATOR: network: IT (Italian Strong Motion Network (RAN)); owner: Presidency of Counsil of Ministers - Civil Protection Department (PCM - DPC)
USER1: 
USER2: 
USER3: 
USER4: 
USER5: 
[...]
-8.199505e-02
-8.608737e-02
-9.055336e-02
-9.535984e-02
-1.003726e-01
-1.053718e-01
-1.100919e-01
-1.142680e-01
-1.176728e-01
-1.201362e-01
-1.215520e-01
-1.218831e-01
-1.211644e-01
-1.194957e-01
-1.170219e-01
-1.139104e-01
-1.103341e-01
-1.064589e-01
-1.024304e-01
-9.836073e-02
-9.432136e-02
-9.034626e-02
-8.644271e-02
-8.259866e-02
-7.878239e-02
-7.493975e-02
-7.099461e-02
-6.685635e-02
-6.243599e-02
-5.766449e-02
-5.250156e-02
-4.693158e-02
-4.095609e-02
-3.459438e-02
-2.789092e-02
-2.091931e-02
-1.377866e-02
-6.585984e-03
5.325132e-04
7.452139e-03
1.406314e-02
2.028667e-02
2.608906e-02
3.148775e-02
3.654801e-02
4.137152e-02
4.607701e-02
5.077978e-02
5.558142e-02
6.057281e-02
6.584032e-02
7.146452e-02
7.750913e-02
8.400549e-02
9.094061e-02
9.825593e-02
1.058554e-01
1.136144e-01
1.213836e-01
1.289904e-01
1.362461e-01
1.429639e-01
1.489804e-01
1.541806e-01
1.585233e-01
1.620566e-01
1.649127e-01
1.672797e-01
1.693605e-01
1.713240e-01
1.732680e-01
1.752097e-01
1.771013e-01
1.788507e-01
1.803397e-01
1.814408e-01
1.820420e-01
1.820740e-01
1.815301e-01
1.804692e-01
1.789974e-01
1.772413e-01
1.753263e-01
1.733653e-01
1.714432e-01
1.695979e-01
1.678098e-01
1.660175e-01
1.641514e-01
1.621652e-01
1.600544e-01
1.578630e-01
1.556808e-01
1.536290e-01
1.518357e-01
1.504128e-01
1.494476e-01
1.490003e-01
1.491009e-01
1.497448e-01
1.508946e-01
1.524836e-01
1.544186e-01
1.565868e-01
1.588714e-01
1.611756e-01
1.634453e-01
1.656841e-01
1.679494e-01
1.703281e-01
1.729048e-01
1.757440e-01
1.788925e-01
1.823912e-01
1.862838e-01
1.906159e-01
1.954204e-01
2.006975e-01
2.064105e-01
2.125015e-01
2.189035e-01
2.255407e-01
2.323239e-01
2.391517e-01
2.459132e-01
2.524929e-01
2.587819e-01
2.646901e-01
2.701505e-01
2.751134e-01
2.795445e-01
2.834292e-01
2.867699e-01
2.895629e-01
2.917705e-01
2.933088e-01
2.940560e-01
2.938710e-01
2.926201e-01
2.902050e-01
2.865829e-01
2.817666e-01
2.758146e-01
2.688207e-01
2.609067e-01
2.522129e-01
2.428877e-01
2.330764e-01
2.229077e-01
2.124834e-01
2.018763e-01
1.911355e-01
1.802959e-01
1.693899e-01
1.584601e-01
1.475749e-01
1.368411e-01
1.264072e-01
1.164532e-01
1.071694e-01
9.872988e-02
9.126905e-02
8.486235e-02
7.951465e-02
7.515974e-02
7.167106e-02
6.887985e-02
6.659771e-02
6.464373e-02
6.287432e-02
6.120789e-02
5.963379e-02
5.819932e-02
5.697883e-02
5.603642e-02
5.539576e-02
5.502760e-02
5.485589e-02
5.477339e-02
5.465840e-02
5.439199e-02
5.387712e-02
5.305534e-02
5.191418e-02
5.048302e-02
4.881831e-02
4.697879e-02
4.499840e-02
4.286955e-02
4.054311e-02
3.793880e-02
3.495764e-02
3.149467e-02
2.745375e-02
2.276249e-02
1.738473e-02
1.132804e-02
4.641692e-03
-2.598738e-03
-1.031628e-02
-1.845745e-02
-2.700878e-02
-3.600151e-02
-4.550285e-02
-5.559264e-02
-6.633146e-02
-7.773264e-02
-8.974967e-02
-1.022851e-01
-1.152144e-01
-1.284106e-01
-1.417604e-01
-1.551731e-01
-1.685860e-01
-1.819672e-01
-1.953146e-01
-2.086518e-01
-2.220200e-01
-2.354688e-01
-2.490417e-01
-2.627573e-01
-2.765944e-01
-2.904835e-01
-3.043066e-01
-3.179053e-01
-3.311012e-01
-3.437233e-01
-3.556288e-01
-3.667087e-01
-3.768811e-01
-3.860796e-01
-3.942468e-01
-4.013382e-01
-4.073337e-01
-4.122463e-01
-4.161188e-01
-4.190092e-01
-4.209712e-01
-4.220404e-01
-4.222328e-01
-4.215546e-01
-4.200141e-01
-4.176323e-01
-4.144461e-01
-4.104998e-01
-4.058318e-01
-4.004669e-01
-3.944180e-01
-3.876898e-01
-3.802817e-01
-3.721903e-01
-3.634111e-01
-3.539393e-01
-3.437756e-01
-3.329364e-01
-3.214631e-01
-3.094243e-01
-2.969137e-01
-2.840445e-01
-2.709366e-01
-2.576978e-01
-2.444093e-01
-2.311199e-01
-2.178486e-01
-2.045919e-01
-1.913295e-01
-1.780323e-01
-1.646722e-01
-1.512349e-01
-1.377312e-01
-1.242029e-01
-1.107209e-01
-9.737547e-02
-8.426050e-02
-7.145544e-02
-5.900565e-02
-4.690983e-02
-3.512162e-02
-2.356648e-02
-1.216890e-02
-8.807412e-04
1.029938e-02
2.132190e-02
3.209837e-02
4.252513e-02
5.250828e-02
6.197939e-02
7.089785e-02
7.924413e-02
8.701114e-02
9.419509e-02
1.007842e-01
1.067490e-01
1.120421e-01
1.166071e-01
1.203929e-01
1.233653e-01
1.255161e-01
1.268689e-01
1.274837e-01
1.274543e-01
1.268982e-01
1.259377e-01
1.246813e-01
1.232095e-01
1.215668e-01
1.197595e-01
1.177607e-01
1.155197e-01
1.129714e-01
1.100468e-01
1.066863e-01
1.028535e-01
9.854631e-02
9.380624e-02
8.872251e-02
8.342842e-02
7.809036e-02
7.289262e-02
6.801804e-02
6.362597e-02
5.983344e-02
5.670334e-02
5.424084e-02
5.239940e-02
5.109683e-02
5.023597e-02
4.972316e-02
4.948386e-02
4.947942e-02
4.972228e-02
5.028060e-02
5.126553e-02
5.280543e-02
5.502021e-02
5.800563e-02
6.182584e-02
6.650809e-02
7.203779e-02
7.835892e-02
8.538558e-02
9.302259e-02
1.011832e-01
1.097931e-01
1.187842e-01
1.280881e-01
1.376309e-01
1.473278e-01
1.570815e-01
1.667884e-01
1.763467e-01
1.856633e-01
1.946533e-01
2.032346e-01
2.113167e-01
2.187892e-01
2.255170e-01
2.313478e-01
2.361259e-01
2.397031e-01
2.419495e-01
2.427643e-01
2.420876e-01
2.399112e-01
2.362865e-01
2.313249e-01
2.251914e-01
2.180943e-01
2.102694e-01
2.019537e-01
1.933493e-01
1.845864e-01
1.757035e-01
1.666577e-01
1.573611e-01
1.477279e-01
1.377158e-01
1.273483e-01
1.167148e-01
1.059500e-01
9.520769e-02
8.464400e-02
7.441433e-02
6.467384e-02
5.557124e-02
4.723736e-02
3.977596e-02
3.326066e-02
2.773800e-02
2.323708e-02
1.978230e-02
1.739989e-02
1.611223e-02
1.592379e-02
1.680687e-02
1.869410e-02
2.148117e-02
2.503821e-02
2.922677e-02
3.392262e-02
3.904030e-02
4.454739e-02
5.045768e-02
5.680617e-02
6.362092e-02
7.090898e-02
7.866089e-02
8.686186e-02
9.549441e-02
1.045258e-01
1.138811e-01
1.234181e-01
1.329346e-01
1.422154e-01
1.510844e-01
1.594234e-01
1.671583e-01
1.742364e-01
1.806124e-01
1.862438e-01
1.910934e-01
1.951324e-01
1.983421e-01
2.007166e-01
2.022729e-01
2.030644e-01
2.031830e-01
2.027466e-01
2.018759e-01
2.006687e-01
1.991797e-01
1.974180e-01
1.953668e-01
1.930137e-01
1.903664e-01
1.874486e-01
1.843008e-01
1.809992e-01
1.776793e-01
1.745346e-01
1.717876e-01
1.696525e-01
1.683115e-01
1.679040e-01
1.685177e-01
1.701758e-01
1.728321e-01
1.763818e-01
1.806838e-01
1.855839e-01
1.909349e-01
1.966111e-01
2.025184e-01
2.086010e-01
2.148492e-01
2.213014e-01
2.280200e-01
2.350321e-01
2.422729e-01
2.495912e-01
2.568083e-01
2.637653e-01
2.703167e-01
2.763038e-01
2.815563e-01
2.859225e-01
2.892972e-01
2.916308e-01
2.929257e-01
2.932253e-01
2.926043e-01
2.911721e-01
2.890813e-01
2.865246e-01
2.837208e-01
2.808977e-01
2.782683e-01
2.760044e-01
2.742169e-01
2.729476e-01
2.721645e-01
2.717632e-01
2.715803e-01
2.714199e-01
2.710876e-01
2.704343e-01
2.694074e-01
2.680823e-01
2.666394e-01
2.652974e-01
2.642610e-01
2.637219e-01
2.638845e-01
2.649592e-01
2.671126e-01
2.704192e-01
2.748496e-01
2.802943e-01
2.866073e-01
2.936457e-01
3.012786e-01
3.093696e-01
3.177584e-01
3.262636e-01
3.346979e-01
3.428856e-01
3.506787e-01
3.579717e-01
3.647008e-01
3.708256e-01
3.763101e-01
3.811258e-01
3.852612e-01
3.887103e-01
3.914604e-01
3.935119e-01
3.949144e-01
3.957610e-01
3.961320e-01
3.960489e-01
3.954891e-01
3.944375e-01
3.929136e-01
3.909572e-01
3.886046e-01
3.858880e-01
3.828595e-01
3.796075e-01
3.762436e-01
3.728658e-01
3.695233e-01
3.662067e-01
3.628646e-01
3.594297e-01
3.558335e-01
3.520179e-01
3.479562e-01
3.436745e-01
3.392489e-01
3.347753e-01
3.303311e-01
3.259475e-01
3.216012e-01
3.172204e-01
3.127025e-01
3.079322e-01
3.027995e-01
2.972141e-01
2.911203e-01
2.845137e-01
2.774531e-01
2.700452e-01
2.624022e-01
2.546022e-01
2.466770e-01
2.386221e-01
2.304117e-01
2.220116e-01
2.133919e-01
2.045343e-01
1.954375e-01
1.861260e-01
1.766628e-01
1.671488e-01
1.576993e-01
1.484178e-01
1.393819e-01
1.306408e-01
1.222103e-01
1.140684e-01
1.061606e-01
9.841614e-02
9.076730e-02
8.316334e-02
7.558033e-02
6.803372e-02
6.059057e-02
5.336388e-02
4.648758e-02
4.009067e-02
3.427932e-02
2.912486e-02
2.465851e-02
2.087498e-02
1.774217e-02
1.520852e-02
1.320076e-02
1.161316e-02
1.030052e-02
9.089454e-03
7.806221e-03
6.303056e-03
4.471465e-03
2.248248e-03
-3.791644e-04
-3.372679e-03
-6.653519e-03
-1.011743e-02
-1.364879e-02
-1.713310e-02
-2.047016e-02
-2.358850e-02
-2.645825e-02
-2.909672e-02
-3.156376e-02
-3.394994e-02
-3.636162e-02
-3.890285e-02
-4.165426e-02
-4.465472e-02
-4.789297e-02
-5.131164e-02
-5.482293e-02
-5.833337e-02
-6.176923e-02
-6.508974e-02
-6.828376e-02
-7.136011e-02
-7.434276e-02
-7.727209e-02
-8.020737e-02
-8.322614e-02
-8.641836e-02
-8.987582e-02
-9.367810e-02
-9.787659e-02
-1.024826e-01
-1.074675e-01
-1.127755e-01
-1.183377e-01
-1.240793e-01
-1.299210e-01
-1.357846e-01
-1.416086e-01
-1.473658e-01
-1.530723e-01
-1.587765e-01
-1.645346e-01
-1.703860e-01
-1.763365e-01
-1.823467e-01
-1.883255e-01
-1.941367e-01
-1.996176e-01
-2.046053e-01
-2.089657e-01
-2.126214e-01
-2.155687e-01
-2.178803e-01
-2.196940e-01
-2.211937e-01
-2.225888e-01
-2.240938e-01
-2.259093e-01
-2.282034e-01
-2.310945e-01
-2.346376e-01
-2.388151e-01
-2.435375e-01
-2.486572e-01
-2.539915e-01
-2.593467e-01
-2.645392e-01
-2.694151e-01
-2.738684e-01
-2.778556e-01
-2.814031e-01
-2.845998e-01
-2.875750e-01
-2.904660e-01
-2.933927e-01
-2.964478e-01
-2.996940e-01
-3.031560e-01
-3.068093e-01
-3.105790e-01
-3.143593e-01
-3.180451e-01
-3.215597e-01
-3.248679e-01
-3.279721e-01
-3.309009e-01
-3.336981e-01
-3.364164e-01
-3.391109e-01
-3.418322e-01
-3.446156e-01
-3.474688e-01
-3.503644e-01
-3.532406e-01
-3.560123e-01
-3.585886e-01
-3.608928e-01
-3.628773e-01
-3.645341e-01
-3.658978e-01
-3.670396e-01
-3.680557e-01
-3.690549e-01
-3.701481e-01
-3.714420e-01
-3.730353e-01
-3.750210e-01
-3.774871e-01
-3.805101e-01
-3.841359e-01
-3.883577e-01
-3.931040e-01
-3.982437e-01
-4.036065e-01
-4.090080e-01
-4.142735e-01
-4.192572e-01
-4.238555e-01
-4.280151e-01
-4.317356e-01
-4.350643e-01
-4.380818e-01
-4.408789e-01
-4.435324e-01
-4.460869e-01
-4.485496e-01
-4.508980e-01
-4.530891e-01
-4.550649e-01
-4.567539e-01
-4.580759e-01
-4.589541e-01
-4.593344e-01
-4.592035e-01
-4.585975e-01
-4.575957e-01
-4.563037e-01
-4.548346e-01
-4.532930e-01
-4.517692e-01
-4.503415e-01
-4.490821e-01
-4.480581e-01
-4.473277e-01
-4.469359e-01
-4.469131e-01
-4.472729e-01
-4.480160e-01
-4.491366e-01
-4.506271e-01
-4.524780e-01
-4.546792e-01
-4.572237e-01
-4.601077e-01
-4.633253e-01
-4.668587e-01
-4.706674e-01
-4.746849e-01
-4.788252e-01
-4.829967e-01
-4.871107e-01
-4.910844e-01
-4.948402e-01
-4.983076e-01
-5.014231e-01
-5.041293e-01
-5.063701e-01
-5.080844e-01
-5.092005e-01
-5.096389e-01
-5.093208e-01
-5.081792e-01
-5.061685e-01
-5.032735e-01
-4.995126e-01
-4.949361e-01
-4.896213e-01
-4.836652e-01
-4.771752e-01
-4.702599e-01
-4.630221e-01
-4.555556e-01
-4.479445e-01
-4.402664e-01
-4.325954e-01
-4.250012e-01
-4.175454e-01
-4.102771e-01
-4.032287e-01
-3.964152e-01
-3.898365e-01
-3.834812e-01
-3.773314e-01
-3.713681e-01
-3.655769e-01
-3.599516e-01
-3.544950e-01
-3.492177e-01
-3.441313e-01
-3.392381e-01
-3.345236e-01
-3.299579e-01
-3.255014e-01
-3.211065e-01
-3.167159e-01
-3.122624e-01
-3.076712e-01
-3.028683e-01
-2.977924e-01
-2.924070e-01
-2.867028e-01
-2.806864e-01
-2.743636e-01
-2.677312e-01
-2.607800e-01
-2.534961e-01
-2.458528e-01
-2.377993e-01
-2.292636e-01
-2.201691e-01
-2.104540e-01
-2.000836e-01
-1.890537e-01
-1.773885e-01
-1.651359e-01
-1.523630e-01
-1.391487e-01
-1.255741e-01
-1.117144e-01
-9.763534e-02
-8.339221e-02
-6.903375e-02
-5.461014e-02
-4.017797e-02
-2.579635e-02
-1.151573e-02
2.636448e-03
1.666481e-02
3.059909e-02
4.447233e-02
5.829828e-02
7.206098e-02
8.572130e-02
9.923450e-02
1.125636e-01
1.256802e-01
1.385602e-01
1.511839e-01
1.635385e-01
1.756199e-01
1.874370e-01
1.990162e-01
2.103959e-01
2.216086e-01
2.326638e-01
2.435518e-01
2.542623e-01
2.647938e-01
2.751456e-01
2.853073e-01
2.952610e-01
3.049891e-01
3.144827e-01
3.237469e-01
3.328026e-01
3.416825e-01
3.504205e-01
3.590433e-01
3.675654e-01
3.759905e-01
3.843137e-01
3.925236e-01
4.006020e-01
4.085256e-01
4.162694e-01
4.238142e-01
4.311526e-01
4.382924e-01
4.452563e-01
4.520771e-01
4.587918e-01
4.654326e-01
4.720175e-01
4.785466e-01
4.850095e-01
4.913962e-01
4.977011e-01
5.039190e-01
5.100393e-01
5.160462e-01
5.219251e-01
5.276711e-01
5.332954e-01
5.388256e-01
5.443011e-01
5.497628e-01
5.552406e-01
5.607427e-01
5.662552e-01
5.717488e-01
5.771850e-01
5.825170e-01
5.876876e-01
5.926334e-01
5.972946e-01
6.016285e-01
6.056158e-01
6.092545e-01
6.125487e-01
6.155031e-01
6.181261e-01
6.204361e-01
6.224621e-01
6.242400e-01
6.258070e-01
6.271993e-01
6.284512e-01
6.295907e-01
6.306347e-01
6.315849e-01
6.324249e-01
6.331183e-01
6.336079e-01
6.338195e-01
6.336673e-01
6.330632e-01
6.319257e-01
6.301888e-01
6.278082e-01
6.247604e-01
6.210365e-01
6.166320e-01
6.115402e-01
6.057529e-01
5.992650e-01
5.920800e-01
5.842145e-01
5.757016e-01
5.665930e-01
5.569572e-01
5.468721e-01
5.364141e-01
5.256480e-01
5.146234e-01
5.033732e-01
4.919133e-01
4.802427e-01
4.683504e-01
4.562281e-01
4.438808e-01
4.313354e-01
4.186434e-01
4.058802e-01
3.931388e-01
3.805174e-01
3.681055e-01
3.559736e-01
3.441695e-01
3.327191e-01
3.216267e-01
3.108751e-01
3.004265e-01
2.902294e-01
2.802336e-01
2.704073e-01
2.607514e-01
2.513009e-01
2.421172e-01
2.332770e-01
2.248598e-01
2.169375e-01
2.095647e-01
2.027708e-01
1.965579e-01
1.909049e-01
1.857742e-01
1.811157e-01
1.768700e-01
1.729741e-01
1.693703e-01
1.660135e-01
1.628759e-01
1.599495e-01
1.572472e-01
1.547972e-01
1.526325e-01
1.507790e-01
1.492466e-01
1.480229e-01
1.470721e-01
1.463361e-01
1.457384e-01
1.451896e-01
1.445927e-01
1.438482e-01
1.428590e-01
1.415404e-01
1.398295e-01
1.376923e-01
1.351237e-01
1.321424e-01
1.287837e-01
1.250915e-01
1.211129e-01
1.168914e-01
1.124622e-01
1.078481e-01
1.030568e-01
9.807763e-02
9.287900e-02
8.740823e-02
8.159638e-02
7.536847e-02
6.865900e-02
6.143018e-02
5.368710e-02
4.548401e-02
3.691785e-02
2.811079e-02
1.918936e-02
1.026776e-02
1.438270e-03
-7.231458e-03
-1.569621e-02
-2.393002e-02
-3.192434e-02
-3.968649e-02
-4.723616e-02
-5.459996e-02
-6.180642e-02
-6.888342e-02
-7.585878e-02
-8.276349e-02
-8.963481e-02
-9.651600e-02
-1.034523e-01
-1.104859e-01
-1.176519e-01
-1.249756e-01
-1.324692e-01
-1.401286e-01
-1.479295e-01
-1.558268e-01
-1.637605e-01
-1.716706e-01
-1.795150e-01
-1.872822e-01
-1.949926e-01
-2.026881e-01
-2.104169e-01
-2.182206e-01
-2.261281e-01
-2.341527e-01
-2.422919e-01
-2.505332e-01
-2.588627e-01
-2.672688e-01
-2.757436e-01
-2.842826e-01
-2.928852e-01
-3.015536e-01
-3.102888e-01
-3.190881e-01
-3.279476e-01
-3.368648e-01
-3.458357e-01
-3.548461e-01
-3.638637e-01
-3.728348e-01
-3.816907e-01
-3.903596e-01
-3.987796e-01
-4.069048e-01
-4.147031e-01
-4.221482e-01
-4.292149e-01
-4.358801e-01
-4.421280e-01
-4.479526e-01
-4.533558e-01
-4.583446e-01
-4.629299e-01
-4.671276e-01
-4.709577e-01
-4.744426e-01
-4.776049e-01
-4.804657e-01
-4.830430e-01
-4.853501e-01
-4.873975e-01
-4.891967e-01
-4.907656e-01
-4.921341e-01
-4.933476e-01
-4.944643e-01
-4.955470e-01
-4.966514e-01
-4.978168e-01
-4.990581e-01
-5.003610e-01
-5.016828e-01
-5.029614e-01
-5.041307e-01
-5.051343e-01
-5.059359e-01
-5.065256e-01
-5.069233e-01
-5.071769e-01
-5.073548e-01
-5.075319e-01
-5.077732e-01
-5.081171e-01
-5.085631e-01
-5.090679e-01
-5.095559e-01
-5.099352e-01
-5.101113e-01
-5.099925e-01
-5.094938e-01
-5.085422e-01
-5.070835e-01
-5.050900e-01
-5.025638e-01
-4.995354e-01
-4.960557e-01
-4.921859e-01
-4.879872e-01
-4.835161e-01
-4.788217e-01
-4.739464e-01
-4.689250e-01
-4.637834e-01
-4.585381e-01
-4.531995e-01
-4.477808e-01
-4.423070e-01
-4.368203e-01
-4.313783e-01
-4.260487e-01
-4.209052e-01
-4.160256e-01
-4.114894e-01
-4.073708e-01
-4.037283e-01
-4.005976e-01
-3.979878e-01
-3.958832e-01
-3.942490e-01
-3.930392e-01
-3.922022e-01
-3.916839e-01
-3.914297e-01
-3.913843e-01
-3.914971e-01
-3.917306e-01
-3.920684e-01
-3.925153e-01
-3.930877e-01
-3.938005e-01
-3.946574e-01
-3.956438e-01
-3.967252e-01
-3.978513e-01
-3.989672e-01
-4.000245e-01
-4.009863e-01
-4.018282e-01
-4.025370e-01
-4.031123e-01
-4.035655e-01
-4.039156e-01
-4.041822e-01
-4.043779e-01
-4.045054e-01
-4.045582e-01
-4.045238e-01
-4.043893e-01
-4.041485e-01
-4.038064e-01
-4.033773e-01
-4.028780e-01
-4.023192e-01
-4.017015e-01
-4.010169e-01
-4.002542e-01
-3.994037e-01
-3.984569e-01
-3.974034e-01
-3.962302e-01
-3.949260e-01
-3.934868e-01
-3.919177e-01
-3.902319e-01
-3.884492e-01
-3.865921e-01
-3.846762e-01
-3.826982e-01
-3.806321e-01
-3.784348e-01
-3.760559e-01
-3.734432e-01
-3.705502e-01
-3.673497e-01
-3.638445e-01
-3.600623e-01
-3.560413e-01
-3.518161e-01
-3.474095e-01
-3.428280e-01
-3.380614e-01
-3.330900e-01
-3.278947e-01
-3.224665e-01
-3.168101e-01
-3.109456e-01
-3.049082e-01
-2.987462e-01
-2.925162e-01
-2.862760e-01
-2.800769e-01
-2.739569e-01
-2.679316e-01
-2.619930e-01
-2.561148e-01
-2.502657e-01
-2.444199e-01
-2.385640e-01
-2.327004e-01
-2.268503e-01
-2.210574e-01
-2.153865e-01
-2.099166e-01
-2.047287e-01
-1.998945e-01
-1.954703e-01
-1.914956e-01
-1.879925e-01
-1.849655e-01
-1.823977e-01
-1.802484e-01
-1.784548e-01
-1.769386e-01
-1.756161e-01
-1.744064e-01
-1.732347e-01
-1.720347e-01
-1.707516e-01
-1.693463e-01
-1.677993e-01
-1.661086e-01
-1.642831e-01
-1.623339e-01
-1.602678e-01
-1.580838e-01
-1.557732e-01
-1.533228e-01
-1.507165e-01
-1.479365e-01
-1.449651e-01
-1.417876e-01
-1.383947e-01
-1.347843e-01
-1.309609e-01
-1.269343e-01
-1.227183e-01
-1.183298e-01
-1.137875e-01
-1.091116e-01
-1.043234e-01
-9.944363e-02
-9.448833e-02
-8.946581e-02
-8.437708e-02
-7.922033e-02
-7.399596e-02
-6.870964e-02
-6.337383e-02
-5.800966e-02
-5.264909e-02
-4.733603e-02
-4.212503e-02
-3.707707e-02
-3.225205e-02
-2.769898e-02
-2.344655e-02
-1.949654e-02
-1.582169e-02
-1.236858e-02
-9.065484e-03
-5.832978e-03
-2.595060e-03
7.101995e-04
4.121932e-03
7.653118e-03
1.129561e-02
1.503085e-02
1.883832e-02
2.269565e-02
2.657226e-02
3.042332e-02
3.418961e-02
3.780458e-02
4.120517e-02
4.434078e-02
4.717720e-02
4.969717e-02
5.190203e-02
5.381516e-02
5.548328e-02
