EVENT_NAME: L_AQUILA
EVENT_ID: IT-2009-0009
EVENT_DATE_YYYYMMDD: 20090406
EVENT_TIME_HHMMSS: 013240
EVENT_LATITUDE_DEGREE: 42.3420
EVENT_LONGITUDE_DEGREE: 13.3800
EVENT_DEPTH_KM: 8.3
HYPOCENTER_REFERENCE: INGV-CNT_Seismic_Bulletin
MAGNITUDE_W: 6.1
MAGNITUDE_W_REFERENCE: INGV-CNT_Seismic_Bulletin
MAGNITUDE_L: 
MAGNITUDE_L_REFERENCE: 
FOCAL_MECHANISM: Normal faulting
NETWORK: IT
STATION_CODE: MTR
STATION_NAME: 
STATION_LATITUDE_DEGREE: 42.524021
STATION_LONGITUDE_DEGREE: 13.244796
STATION_ELEVATION_M: 975
LOCATION: 
SENSOR_DEPTH_M: 0.0
VS30_M/S: 689
SITE_CLASSIFICATION_EC8: B
MORPHOLOGIC_CLASSIFICATION: 
EPICENTRAL_DISTANCE_KM: 23.1
EARTHQUAKE_BACKAZIMUTH_DEGREE: 331.2
DATE_TIME_FIRST_SAMPLE_YYYYMMDD_HHMMSS: 20090406_013231.000
DATE_TIME_FIRST_SAMPLE_PRECISION: seconds
SAMPLING_INTERVAL_S: 0.005000
NDATA: 20000
DURATION_S: 100.000
STREAM: HNN
UNITS: cm/s
INSTRUMENT: sensor = FBA-3 [Kinemetrics] | digitizer = Etna [Kinemetrics]
INSTRUMENT_ANALOG/DIGITAL: D
INSTRUMENTAL_FREQUENCY_HZ: 212.000
INSTRUMENTAL_DAMPING: 0.700000
FULL_SCALE_G: 1.0
N_BIT_DIGITAL_CONVERTER: 18
PGV_CM/S: 2.886434
TIME_PGV_S: 27.025000
BASELINE_CORRECTION: BASELINE REMOVED
FILTER_TYPE: BUTTERWORTH
FILTER_ORDER: 2
LOW_CUT_FREQUENCY_HZ: 0.080
HIGH_CUT_FREQUENCY_HZ: 40.000
LATE/NORMAL_TRIGGERED: NT
DATABASE_VERSION: 0.5
HEADER_FORMAT: DYNA 1.2
DATA_TYPE: VELOCITY
PROCESSING: manual (Paolucci et al., 2011)
DATA_TIMESTAMP_YYYYMMDD_HHMMSS: 20211011_155909.241
DATA_LICENSE: CC-BY3_0-IT (http://creativecommons.org/licenses/by/3.0/deed.en)
DATA_CITATION: Luzi L, Pacor F, Puglia R (2019). Italian Accelerometric Archive v 3.0 - Istituto Nazionale di Geofisica e Vulcanologia, Dipartimento della Protezione Civile Nazionale. doi: 10.13127/itaca.3.1
DATA_CREATOR: ITACA working group
ORIGINAL_DATA_MEDIATOR_CITATION: data obtained within the DPC-INGV data exchange agreements
ORIGINAL_DATA_MEDIATOR: Archive of Italian Department of Civil Protection
ORIGINAL_DATA_CREATOR_CITATION: Presidency Of Counsil Of Ministers-Civil Protection Department. (1972). Italian Strong Motion Network. Presidency of Counsil of Ministers - Civil Protection Department. https://doi.org/10.7914/SN/IT http://www.fdsn.org/networks/detail/IT/
ORIGINAL_DATA_CREATOR: network: IT (Italian Strong Motion Network (RAN)); owner: Presidency of Counsil of Ministers - Civil Protection Department (PCM - DPC)
USER1: 
USER2: 
USER3: 
USER4: 
USER5: 
[...]
-1.114500
-1.154859
-1.181035
-1.167722
-1.100713
-0.980310
-0.819399
-0.638872
-0.462658
-0.312865
-0.206341
-0.154538
-0.165291
-0.242520
-0.382778
-0.571936
-0.785768
-0.995122
-1.173899
-1.307217
-1.396053
-1.455000
-1.503996
-1.559177
-1.628007
-1.709796
-1.798735
-1.886406
-1.963846
-2.024467
-2.066653
-2.093282
-2.108034
-2.112028
-2.103511
-2.078895
-2.032448
-1.956244
-1.843224
-1.691518
-1.505514
-1.292851
-1.060808
-0.815228
-0.561433
-0.305187
-0.053861
0.181943
0.388594
0.553360
0.669496
0.737637
0.762600
0.750128
0.706913
0.641787
0.565944
0.493761
0.443170
0.430734
0.462545
0.529878
0.614356
0.696715
0.762840
0.807895
0.838311
0.866718
0.900721
0.936012
0.961866
0.972947
0.973825
0.971877
0.967740
0.954583
0.926627
0.886240
0.841903
0.801497
0.768940
0.745692
0.733702
0.736727
0.759369
0.804655
0.871364
0.953199
1.041741
1.131452
1.222268
1.317714
1.420896
1.531995
1.647717
1.760980
1.861208
1.936838
1.978808
1.982407
1.947778
1.880818
1.793381
1.700588
1.616241
1.549615
1.504771
1.480833
1.472424
1.472059
1.475282
1.484485
1.506424
1.544983
1.596329
1.650615
1.697878
1.733108
1.757372
1.774837
1.787875
1.794078
1.787552
1.762677
1.716984
1.651998
1.572641
1.485809
1.398457
1.315762
1.240268
1.172227
1.110466
1.052566
0.994225
0.930134
0.857912
0.781960
0.712842
0.662084
0.636245
0.634099
0.647730
0.665719
0.676859
0.673319
0.651913
0.613211
0.559906
0.495789
0.425982
0.357503
0.298332
0.254689
0.228037
0.213810
0.202863
0.184417
0.148720
0.089433
0.006271
-0.093168
-0.194695
-0.282542
-0.345694
-0.382383
-0.400761
-0.415143
-0.439940
-0.484919
-0.553323
-0.642658
-0.746936
-0.857764
-0.963805
-1.051270
-1.106957
-1.122559
-1.097783
-1.040619
-0.964294
-0.882249
-0.804954
-0.740557
-0.696569
-0.679989
-0.696520
-0.749251
-0.837261
-0.955860
-1.098049
-1.255149
-1.416995
-1.572848
-1.712421
-1.826557
-1.907768
-1.950757
-1.952770
-1.913549
-1.835642
-1.725767
-1.595918
-1.462162
-1.340914
-1.244832
-1.180199
-1.145857
-1.134311
-1.135136
-1.138048
-1.133850
-1.114684
-1.074656
-1.010503
-0.922845
-0.818253
-0.709966
-0.614904
-0.547631
-0.515343
-0.516927
-0.544767
-0.587111
-0.630073
-0.658860
-0.659606
-0.622592
-0.544507
-0.428168
-0.281156
-0.114958
0.055891
0.216373
0.354475
0.462343
0.534406
0.565558
0.551941
0.494405
0.402112
0.291860
0.182461
0.089551
0.024938
-0.002050
0.014296
0.073391
0.167667
0.283008
0.399612
0.496118
0.555964
0.571044
0.541408
0.473780
0.380597
0.278426
0.184515
0.112285
0.068456
0.053124
0.061027
0.082899
0.107089
0.121250
0.114902
0.083041
0.028849
-0.036787
-0.099755
-0.148756
-0.178776
-0.190688
-0.188504
-0.176311
-0.156751
-0.131313
-0.101227
-0.068183
-0.035075
-0.006618
0.011143
0.012204
-0.008282
-0.052876
-0.120441
-0.204360
-0.290861
-0.360505
-0.394407
-0.380916
-0.317512
-0.207729
-0.057602
0.124713
0.327486
0.534811
0.727476
0.886346
0.998460
1.061232
1.080340
1.064741
1.024070
0.967665
0.904091
0.842426
0.792825
0.763264
0.755341
0.764182
0.781912
0.799418
0.805690
0.789414
0.742805
0.663455
0.554605
0.425359
0.288602
0.156857
0.040237
-0.052916
-0.115893
-0.144299
-0.136007
-0.091605
-0.016246
0.079922
0.184701
0.288083
0.384288
0.470546
0.544659
0.603089
0.640188
0.649854
0.629406
0.581975
0.514764
0.435553
0.351152
0.268070
0.193588
0.136398
0.106267
0.111424
0.154115
0.227209
0.313761
0.389825
0.430732
0.418827
0.348110
0.223336
0.056238
-0.136676
-0.334483
-0.514305
-0.657214
-0.753967
-0.806390
-0.823823
-0.817656
-0.797084
-0.767742
-0.732871
-0.694288
-0.651584
-0.601820
-0.541719
-0.470863
-0.393334
-0.316966
-0.250817
-0.201299
-0.168385
-0.145218
-0.121885
-0.089250
-0.040047
0.030950
0.126201
0.244748
0.381239
0.525384
0.663877
0.782621
0.868148
0.911498
0.911959
0.875806
0.813496
0.739215
0.669321
0.617445
0.590444
0.588212
0.605735
0.635222
0.667376
0.692304
0.701123
0.688517
0.655323
0.608638
0.558475
0.513852
0.480312
0.458099
0.441514
0.421383
0.389787
0.342958
0.280223
0.201605
0.107366
-0.000261
-0.115407
-0.228966
-0.330634
-0.411575
-0.467459
-0.500114
-0.515832
-0.522365
-0.528353
-0.544262
-0.580313
-0.640778
-0.719738
-0.802222
-0.869756
-0.907731
-0.911360
-0.886045
-0.842660
-0.793231
-0.749296
-0.721369
-0.718507
-0.746963
-0.808066
-0.897685
-1.007703
-1.127162
-1.242550
-1.339500
-1.406271
-1.436004
-1.426194
-1.377748
-1.295443
-1.188448
-1.069526
-0.952975
-0.851511
-0.773626
-0.723616
-0.703594
-0.714513
-0.754854
-0.818463
-0.893198
-0.961296
-1.002549
-0.999851
-0.944021
-0.835216
-0.680963
-0.492670
-0.283162
-0.066219
0.143743
0.333738
0.494749
0.622301
0.715262
0.775042
0.805706
0.813931
0.807874
0.795020
0.780709
0.768810
0.763255
0.768527
0.789028
0.827653
0.884071
0.954301
1.032586
1.113996
1.195098
1.272341
1.340693
1.394321
1.428131
1.438535
1.423699
1.383925
1.322199
1.244708
1.160478
1.079737
1.012054
0.964702
0.941097
0.940554
0.960329
0.998277
1.053503
1.124839
1.208922
1.299271
1.387024
1.463065
1.519896
1.551804
1.553841
1.521348
1.451153
1.343547
1.203297
1.040046
0.868533
0.706674
0.571207
0.473413
0.416161
0.392689
0.388797
0.388356
0.378302
0.349894
0.297796
0.220219
0.120246
0.006395
-0.108778
-0.212188
-0.294347
-0.351234
-0.382989
-0.392207
-0.384409
-0.369075
-0.357622
-0.358446
-0.373222
-0.397248
-0.422159
-0.438284
-0.436443
-0.410342
-0.358670
-0.284574
-0.193050
-0.089457
0.020115
0.128797
0.229958
0.317783
0.387010
0.433640
0.456928
0.460829
0.453938
0.447759
0.453064
0.475745
0.515343
0.567830
0.629704
0.699744
0.778507
0.866425
0.960912
1.055407
1.142608
1.218191
1.280414
1.327440
1.356637
1.365557
1.352304
1.315944
1.257785
1.181655
1.092080
0.992579
0.886217
0.776946
0.668123
0.558603
0.441525
0.307667
0.149432
-0.036991
-0.250196
-0.483006
-0.724426
-0.963263
-1.190404
-1.398766
-1.582806
-1.738770
-1.865028
-1.962266
-2.033747
-2.084845
-2.121418
-2.148174
-2.167909
-2.181200
-2.185963
-2.177049
-2.146761
-2.086778
-1.990789
-1.856768
-1.687901
-1.492166
-1.281342
-1.069540
-0.870982
-0.697735
-0.558242
-0.456428
-0.390795
-0.353883
-0.333285
-0.314820
-0.286895
-0.244098
-0.188482
-0.128132
-0.073632
-0.034342
-0.016500
-0.022998
-0.053282
-0.102974
-0.164355
-0.228232
-0.286231
-0.332944
-0.367902
-0.396078
-0.425770
-0.465288
-0.520861
-0.596234
-0.692594
-0.808184
-0.938251
-1.075552
-1.211337
-1.337270
-1.448086
-1.543508
-1.628235
-1.710265
-1.798547
-1.900268
-2.017957
-2.147766
-2.280234
-2.403406
-2.507082
-2.585864
-2.639250
-2.669957
-2.682532
-2.682591
-2.676241
-2.669480
-2.667421
-2.673647
-2.689767
-2.714566
-2.743137
-2.767417
-2.777818
-2.764625
-2.719738
-2.639178
-2.524421
-2.381089
-2.215981
-2.034483
-1.839699
-1.633436
-1.418281
-1.199111
-0.982518
-0.774496
-0.578084
-0.392409
-0.213833
-0.038486
0.135652
0.308104
0.476347
0.637246
0.789263
0.933604
1.072973
1.209780
1.345646
1.481620
1.618267
1.755846
1.894364
2.032746
2.167828
2.294659
2.407773
2.502118
2.573825
2.621591
2.647758
2.657695
2.657888
2.654246
2.651359
2.652478
2.659439
2.672022
2.687453
2.700736
2.705662
2.696391
2.669095
2.622994
2.561014
2.489958
2.419162
2.357642
2.311029
2.279515
2.257632
2.236025
2.204503
2.155294
2.085352
1.996629
1.894223
1.783692
1.669256
1.553402
1.436790
1.317815
1.192964
1.058614
0.913015
0.757163
0.594480
0.430144
0.270575
0.122951
-0.005879
-0.111225
-0.192096
-0.251282
-0.294351
-0.328539
-0.361473
-0.399762
-0.448191
-0.509654
-0.584922
-0.672101
-0.766568
-0.861434
-0.948015
-1.016746
-1.058817
-1.067612
-1.039548
-0.974917
-0.878413
-0.758506
-0.626020
-0.492501
-0.368287
-0.260515
-0.172171
-0.102563
-0.047860
-0.000888
0.048572
0.111664
0.196988
0.307980
0.442956
0.597083
0.764043
0.936451
1.105938
1.264226
1.405333
1.527403
1.632120
1.721977
1.798223
1.860788
1.908559
1.939366
1.950751
1.941371
1.911667
1.863312
1.798005
1.716262
1.616430
1.494493
1.345549
1.166177
0.955609
0.715437
0.449288
0.162968
-0.135356
-0.435281
-0.724931
-0.992327
-1.226703
-1.419413
-1.564988
-1.663139
-1.720879
-1.752581
-1.776566
-1.809160
-1.859335
-1.926627
-2.002425
-2.073501
-2.126701
-2.152957
-2.148461
-2.112738
-2.045934
-1.948099
-1.820519
-1.666776
-1.492280
-1.303060
-1.104532
-0.900184
-0.690956
-0.476482
-0.257532
-0.037689
0.176616
0.377446
0.557414
0.711407
0.837712
0.939170
1.023538
1.101417
1.182059
1.269698
1.362951
1.457612
1.550382
1.640193
1.726510
1.806280
1.871059
1.907400
1.903303
1.856165
1.773790
1.667801
1.546983
1.415624
1.275190
1.126284
0.969914
0.807806
0.641951
0.474892
0.311259
0.158289
0.023721
-0.087279
-0.174133
-0.241437
-0.297796
-0.352355
-0.410240
-0.470603
-0.529468
-0.583556
-0.629570
-0.660310
-0.663986
-0.628943
-0.549396
-0.427010
-0.268213
-0.081492
0.122744
0.331614
0.531256
0.709948
0.860389
0.980017
1.070202
1.135250
1.181451
1.216517
1.249641
1.290443
1.343733
1.402403
1.448167
1.463658
1.443430
1.391403
1.310278
1.197422
1.050488
0.873240
0.674941
0.466717
0.258985
0.059922
-0.124201
-0.286444
-0.418162
-0.511336
-0.560748
-0.564630
-0.525869
-0.452781
-0.357502
-0.253873
-0.156616
-0.080259
-0.036578
-0.032075
-0.066457
-0.130674
-0.205383
-0.265011
-0.288576
-0.268396
-0.207281
-0.107832
0.032519
0.214937
0.430682
0.661329
0.886077
1.088931
1.262610
1.407671
1.526596
1.618193
1.677762
1.701040
1.686864
1.637524
1.558632
1.458589
1.345823
1.224958
1.096900
0.963154
0.827066
0.689828
0.550021
0.410302
0.280499
0.169322
0.074202
-0.016638
-0.111953
-0.210311
-0.304786
-0.391272
-0.470527
-0.543319
-0.605704
-0.650400
-0.672774
-0.675565
-0.668492
-0.663335
-0.668415
-0.686975
-0.719237
-0.763128
-0.812333
-0.856343
-0.885128
-0.894711
-0.888846
-0.876707
-0.869277
-0.876149
-0.903587
-0.954059
-1.026544
-1.117068
-1.218774
-1.321315
-1.412108
-1.481584
-1.528604
-1.559999
-1.585040
-1.610975
-1.642088
-1.680013
-1.723954
-1.771505
-1.819358
-1.862315
-1.892630
-1.902810
-1.889887
-1.856304
-1.807176
-1.748220
-1.686099
-1.628389
-1.581568
-1.548882
-1.529769
-1.520792
-1.516602
-1.509323
-1.488629
-1.445339
-1.375259
-1.279383
-1.162271
-1.030890
-0.893271
-0.756706
-0.626562
-0.506730
-0.401551
-0.317521
-0.262528
-0.242213
-0.256647
-0.300633
-0.366318
-0.444643
-0.525482
-0.598703
-0.656168
-0.692782
-0.706272
-0.696863
-0.667412
-0.623669
-0.573950
-0.527693
-0.493408
-0.477236
-0.482336
-0.508246
-0.550282
-0.600093
-0.647649
-0.683734
-0.702259
-0.702087
-0.687172
-0.664103
-0.638805
-0.615269
-0.596530
-0.585866
-0.587056
-0.603756
-0.638444
-0.691491
-0.760455
-0.839698
-0.921198
-0.996985
-1.061595
-1.112444
-1.148324
-1.168330
-1.172728
-1.164793
-1.151447
-1.141297
-1.140838
-1.151619
-1.170285
-1.190107
-1.202023
-1.195763
-1.162247
-1.096183
-0.997534
-0.872087
-0.731130
-0.589466
-0.462328
-0.362729
-0.299942
-0.279018
-0.300996
-0.363108
-0.458828
-0.578220
-0.708602
-0.835500
-0.944497
-1.023941
-1.066850
-1.071037
-1.038508
-0.975179
-0.890651
-0.797453
-0.709487
-0.639348
-0.595042
-0.578189
-0.585345
-0.611026
-0.649231
-0.692410
-0.730657
-0.753929
-0.756064
-0.737165
-0.702920
-0.661629
-0.620848
-0.585757
-0.559453
-0.543649
-0.538896
-0.544269
-0.556678
-0.570638
-0.579118
-0.575251
-0.554329
-0.515264
-0.460830
-0.396907
-0.331372
-0.272727
-0.228357
-0.203235
-0.199828
-0.218645
-0.258771
-0.318667
-0.397133
-0.493233
-0.604597
-0.725151
-0.844367
-0.949254
-1.027942
-1.072563
-1.080304
-1.053104
-0.996736
-0.919661
-0.831924
-0.744089
-0.665741
-0.603496
-0.559424
-0.530705
-0.510887
-0.492542
-0.469679
-0.438234
-0.395164
-0.337798
-0.264391
-0.175651
-0.076060
0.026192
0.121203
0.200356
0.258389
0.293836
0.308306
0.304762
0.285554
0.251877
0.204787
0.146096
0.078342
0.004564
-0.071962
-0.148607
-0.224119
-0.298099
-0.370180
-0.440254
-0.508901
-0.576795
-0.643525
-0.706673
-0.761744
-0.803487
-0.828070
-0.834291
-0.822814
-0.794734
-0.751168
-0.693471
-0.623101
-0.541230
-0.448175
-0.342859
-0.223220
-0.087671
0.063616
0.228330
0.402124
0.578997
0.752192
0.915297
1.062956
1.191231
1.298002
1.383056
1.447545
1.493301
1.522222
1.535625
1.534212
1.518840
1.491147
1.453666
1.409677
1.362695
1.315746
1.271056
1.229962
1.192665
1.158239
1.125068
1.091314
1.055462
1.017279
0.978633
0.942899
0.913144
0.891302
0.878977
0.878111
0.890717
0.918232
0.960581
1.015186
1.077078
1.140834
1.203281
1.264561
1.326475
1.390249
1.456770
1.528667
1.610699
1.707137
1.818898
1.943019
2.074085
2.205980
2.333050
2.450513
2.554573
2.642863
2.714929
2.771932
2.815813
2.848627
2.871691
2.884722
2.886434
2.876324
2.856124
2.830435
2.805673
2.786856
2.774647
2.765190
2.752540
2.732063
2.702640
2.665825
2.623315
2.575994
2.524748
2.470924
2.416276
2.363417
2.315836
2.275956
2.242533
2.211029
2.177600
2.142106
2.106310
2.070347
2.032352
1.990734
1.945621
1.898723
1.852831
1.811148
1.775971
1.747612
1.724554
1.704429
1.685008
1.664638
1.641976
1.615695
1.584708
1.548771
1.508963
1.467667
1.427966
1.392777
1.364160
1.342935
1.328167
1.316980
1.305821
1.292581
1.277334
1.260983
1.243579
1.224063
1.201386
1.175773
1.149203
1.124860
1.106042
1.095086
1.092349
1.095559
1.100427
1.102503
1.098718
1.087244
1.066382
1.034133
0.989154
0.932233
0.866787
0.797464
0.727744
0.658842
0.590865
0.524601
0.461997
0.405218
0.355578
0.313384
0.278474
0.250382
0.227899
0.208794
0.190030
0.168006
0.138674
0.097932
0.042307
-0.030430
-0.120823
-0.227509
-0.347361
-0.476126
-0.609559
-0.744781
-0.880908
-1.018352
-1.157456
-1.297581
-1.436999
-1.573106
-1.702585
-1.821717
-1.927157
-2.017013
-2.091608
-2.153210
-2.204936
-2.250037
-2.291979
-2.334125
-2.378443
-2.424472
-2.469453
-2.509090
-2.538400
-2.552625
-2.548286
-2.524290
-2.482384
-2.426380
-2.360806
-2.290084
-2.218478
-2.150319
-2.089725
-2.039410
-1.999177
-1.965241
-1.931180
-1.890118
-1.836722
-1.768040
-1.683452
-1.584459
-1.474556
-1.358781
-1.242589
-1.130597
-1.026142
-0.931700
-0.849137
-0.779169
-0.720759
-0.671359
-0.627534
-0.585270
-0.540456
-0.490007
-0.432952
-0.370682
-0.306481
-0.244739
-0.190168
-0.147200
-0.119535
-0.109772
-0.119374
-0.148905
-0.197824
-0.263736
-0.342180
-0.427433
-0.513724
-0.596254
-0.671752
-0.738427
-0.795729
-0.844294
-0.885838
-0.922823
-0.958265
-0.995827
-1.039726
-1.094155
-1.162369
-1.245582
-1.341893
-1.445765
-1.548616
-1.640616
-1.713232
-1.761413
-1.784286
-1.784319
-1.765899
-1.733946
-1.692951
-1.646761
-1.598863
-1.552432
-1.509934
-1.472759
-1.441293
-1.415400
-1.395072
-1.380942
-1.374264
-1.376238
-1.387260
-1.406714
-1.433205
-1.464740
-1.498725
-1.531874
-1.560183
-1.579459
-1.586741
-1.582015
-1.568879
-1.553442
-1.542077
-1.539115
-1.545756
-1.560725
-1.581501
-1.604922
-1.627839
-1.648274
-1.665885
-1.681227
-1.694964
-1.707795
-1.720527
-1.733682
-1.747023
-1.759863
-1.771916
-1.783440
-1.794162
-1.802091
-1.803512
-1.794220
-1.771182
-1.733792
-1.683996
-1.625042
-1.559653
-1.489023
-1.413330
-1.333038
-1.249590
-1.164927
-1.080640
-0.997750
-0.917072
-0.839534
-0.766012
-0.696979
-0.632462
-0.572167
-0.515448
-0.461427
-0.409489
-0.359838
-0.313776
-0.273707
-0.242693
-0.223342
-0.216534
-0.220886
-0.233072
-0.248260
-0.260590
-0.264354
-0.255729
-0.233860
-0.200720
-0.160318
-0.117942
-0.079526
-0.050724
-0.035588
-0.035423
-0.048246
-0.068787
-0.089191
-0.100968
-0.097597
-0.075873
-0.035212
0.023758
0.099732
0.190337
0.291736
0.398704
0.505237
0.605684
0.695926
0.773972
0.839728
0.894229
0.938869
0.975059
1.004287
1.028321
1.049067
1.067717
1.083745
1.094752
1.097341
1.088405
1.065910
1.028700
0.975922
0.907232
0.823732
0.728495
0.626142
0.521961
0.420926
0.326828
0.241954
0.167412
0.103648
0.050858
0.009066
-0.022563
-0.046681
-0.067562
-0.089394
-0.114467
-0.142559
-0.171378
-0.197296
-0.216271
-0.225213
-0.223190
-0.211457
-0.192370
-0.168365
-0.141773
-0.115062
-0.090628
-0.070024
-0.053311
-0.039142
-0.025509
-0.010557
0.006888
0.026894
0.048152
0.068433
0.085816
0.099855
0.111758
0.123546
0.136918
0.152531
0.170109
0.189362
0.210693
0.234644
0.260842
0.287839
0.313824
0.337161
0.356533
0.371420
0.383191
0.395583
0.413231
0.439462
0.475770
0.522538
0.578615
0.640092
0.701045
0.756433
0.804199
0.845040
0.881315
0.916308
0.953316
0.994289
1.039047
1.085646
1.131282
1.172902
1.207482
1.232389
1.245994
1.248058
1.239801
1.224019
1.205043
1.187727
1.175632
1.169831
1.169161
1.171176
1.172730
1.170008
1.158580
1.134172
1.093981
1.037596
0.966842
0.884824
0.794953
0.700604
0.605401
0.513576
0.429856
0.358714
0.303237
0.264496
0.241957
0.234338
0.239985
0.256633
0.281063
0.309398
0.338128
0.365108
0.389847
0.413216
0.436806
0.462114
0.490083
0.521259
0.555995
0.594276
0.635513
0.678576
0.722071
0.764679
0.805331
0.843200
0.877701
0.908460
0.935180
0.957630
0.975956
0.991060
1.004504
1.017745
1.031351
1.044873
1.057265
1.067162
1.072834
1.072113
1.062612
1.042200
1.009593
0.965005
0.910613
0.850487
0.790001
0.734971
0.690622
0.660618
0.646501
0.647584
0.661052
0.682347
0.706237
0.728497
0.747049
0.761494
0.771465
0.775322
0.770212
0.753258
0.722995
0.680117
0.627122
0.567283
0.503994
0.440973
0.382626
0.333623
0.297740
0.276879
0.270920
0.278183
0.295978
0.321094
0.350255
0.380486
0.409253
0.434361
0.453959
0.466857
0.472860
0.472723
0.467652
0.458661
0.446346
0.431242
0.414233
0.396510
0.379102
0.362356
0.345630
0.327468
0.306252
0.280838
0.250688
0.215704
0.176360
0.134302
0.092846
0.056656
0.030425
0.017306
0.018111
0.031625
0.055486
0.086841
0.122380
0.158133
0.189744
0.213401
0.226881
0.230201
0.225569
0.216578
0.207077
0.200364
0.198838
0.203823
0.215491
0.232991
0.254671
0.278229
0.300895
0.319894
0.333113
0.339574
0.339295
0.332725
0.320433
0.303445
0.283853
0.264946
0.250436
0.243333
0.245378
0.257097
0.277994
0.306851
0.342185
0.382551
0.426581
0.472980
0.520559
0.568213
0.614813
0.659223
0.700456
0.737760
0.770529
0.798123
0.819815
0.835007
0.843508
0.845504
0.841383
