EVENT_NAME: L_AQUILA
EVENT_ID: IT-2009-0009
EVENT_DATE_YYYYMMDD: 20090406
EVENT_TIME_HHMMSS: 013240
EVENT_LATITUDE_DEGREE: 42.3420
EVENT_LONGITUDE_DEGREE: 13.3800
EVENT_DEPTH_KM: 8.3
HYPOCENTER_REFERENCE: INGV-CNT_Seismic_Bulletin
MAGNITUDE_W: 6.1
MAGNITUDE_W_REFERENCE: INGV-CNT_Seismic_Bulletin
MAGNITUDE_L: 
MAGNITUDE_L_REFERENCE: 
FOCAL_MECHANISM: Normal faulting
NETWORK: IT
STATION_CODE: MTR
STATION_NAME: 
STATION_LATITUDE_DEGREE: 42.524021
STATION_LONGITUDE_DEGREE: 13.244796
STATION_ELEVATION_M: 975
LOCATION: 
SENSOR_DEPTH_M: 0.0
VS30_M/S: 689
SITE_CLASSIFICATION_EC8: B
MORPHOLOGIC_CLASSIFICATION: 
EPICENTRAL_DISTANCE_KM: 23.1
EARTHQUAKE_BACKAZIMUTH_DEGREE: 331.2
DATE_TIME_FIRST_SAMPLE_YYYYMMDD_HHMMSS: 20090406_013231.000
DATE_TIME_FIRST_SAMPLE_PRECISION: seconds
SAMPLING_INTERVAL_S: 0.005000
NDATA: 20000
DURATION_S: 100.000
STREAM: HNZ
UNITS: cm
INSTRUMENT: sensor = FBA-3 [Kinemetrics] | digitizer = Etna [Kinemetrics]
INSTRUMENT_ANALOG/DIGITAL: D
INSTRUMENTAL_FREQUENCY_HZ: 214.000
INSTRUMENTAL_DAMPING: 0.700000
FULL_SCALE_G: 1.0
N_BIT_DIGITAL_CONVERTER: 18
PGD_CM: -0.936657
TIME_PGD_S: 21.775000
BASELINE_CORRECTION: BASELINE REMOVED
FILTER_TYPE: BUTTERWORTH
FILTER_ORDER: 2
LOW_CUT_FREQUENCY_HZ: 0.080
HIGH_CUT_FREQUENCY_HZ: 40.000
LATE/NORMAL_TRIGGERED: NT
DATABASE_VERSION: 0.5
HEADER_FORMAT: DYNA 1.2
DATA_TYPE: DISPLACEMENT
PROCESSING: manual (Paolucci et al., 2011)
DATA_TIMESTAMP_YYYYMMDD_HHMMSS: 20211011_155909.655
DATA_LICENSE: CC-BY3_0-IT (http://creativecommons.org/licenses/by/3.0/deed.en)
DATA_CITATION: Luzi L, Pacor F, Puglia R (2019). Italian Accelerometric Archive v 3.0 - Istituto Nazionale di Geofisica e Vulcanologia, Dipartimento della Protezione Civile Nazionale. doi: 10.13127/itaca.3.1
DATA_CREATOR: ITACA working group
ORIGINAL_DATA_MEDIATOR_CITATION: data obtained within the DPC-INGV data exchange agreements
ORIGINAL_DATA_MEDIATOR: Archive of Italian Department of Civil Protection
ORIGINAL_DATA_CREATOR_CITATION: Presidency Of Counsil Of Ministers-Civil Protection Department. (1972). Italian Strong Motion Network. Presidency of Counsil of Ministers - Civil Protection Department. https://doi.org/10.7914/SN/IT http://www.fdsn.org/networks/detail/IT/
ORIGINAL_DATA_CREATOR: network: IT (Italian Strong Motion Network (RAN)); owner: Presidency of Counsil of Ministers - Civil Protection Department (PCM - DPC)
USER1: 
USER2: 
USER3: 
USER4: 
USER5: 
[...]
-1.718693e-03
-7.394292e-04
4.972450e-04
1.971245e-03
3.614556e-03
5.333187e-03
7.032940e-03
8.636551e-03
1.009324e-02
1.138481e-02
1.252536e-02
1.354866e-02
1.448591e-02
1.534847e-02
1.612750e-02
1.680697e-02
1.737529e-02
1.782910e-02
1.817445e-02
1.843132e-02
1.864006e-02
1.886329e-02
1.917479e-02
1.963344e-02
2.025207e-02
2.097799e-02
2.169839e-02
2.227193e-02
2.257587e-02
2.255065e-02
2.222157e-02
2.168312e-02
2.105174e-02
2.041465e-02
1.980535e-02
1.921560e-02
1.862691e-02
1.803667e-02
1.746909e-02
1.697571e-02
1.662546e-02
1.647650e-02
1.653538e-02
1.673043e-02
1.692550e-02
1.697233e-02
1.677290e-02
1.631416e-02
1.565379e-02
1.486738e-02
1.399173e-02
1.299867e-02
1.181330e-02
1.036551e-02
8.646664e-03
6.738897e-03
4.797353e-03
2.991316e-03
1.433841e-03
1.328138e-04
-1.017152e-03
-2.197509e-03
-3.593081e-03
-5.312988e-03
-7.346085e-03
-9.577023e-03
-1.185357e-02
-1.406622e-02
-1.619672e-02
-1.831354e-02
-2.052510e-02
-2.292145e-02
-2.553352e-02
-2.832372e-02
-3.120671e-02
-3.408608e-02
-3.689010e-02
-3.959626e-02
-4.224068e-02
-4.490672e-02
-4.768967e-02
-5.065018e-02
-5.378192e-02
-5.700996e-02
-6.021451e-02
-6.326543e-02
-6.605939e-02
-6.855578e-02
-7.080183e-02
-7.293175e-02
-7.513020e-02
-7.757097e-02
-8.035966e-02
-8.350724e-02
-8.693973e-02
-9.053013e-02
-9.413762e-02
-9.764545e-02
-1.009896e-01
-1.041679e-01
-1.072258e-01
-1.102281e-01
-1.132317e-01
-1.162704e-01
-1.193565e-01
-1.224953e-01
-1.256993e-01
-1.289925e-01
-1.324019e-01
-1.359473e-01
-1.396358e-01
-1.434614e-01
-1.474025e-01
-1.514203e-01
-1.554615e-01
-1.594680e-01
-1.633938e-01
-1.672224e-01
-1.709777e-01
-1.747263e-01
-1.785672e-01
-1.826094e-01
-1.869379e-01
-1.915815e-01
-1.964964e-01
-2.015788e-01
-2.067024e-01
-2.117659e-01
-2.167255e-01
-2.215951e-01
-2.264137e-01
-2.312025e-01
-2.359378e-01
-2.405536e-01
-2.449656e-01
-2.491023e-01
-2.529309e-01
-2.564707e-01
-2.597927e-01
-2.629994e-01
-2.661873e-01
-2.694061e-01
-2.726355e-01
-2.757959e-01
-2.787850e-01
-2.815202e-01
-2.839642e-01
-2.861310e-01
-2.880754e-01
-2.898753e-01
-2.916114e-01
-2.933581e-01
-2.951873e-01
-2.971752e-01
-2.993940e-01
-3.018904e-01
-3.046712e-01
-3.077080e-01
-3.109580e-01
-3.143847e-01
-3.179671e-01
-3.216900e-01
-3.255208e-01
-3.293934e-01
-3.332148e-01
-3.368962e-01
-3.403875e-01
-3.436905e-01
-3.468393e-01
-3.498618e-01
-3.527503e-01
-3.554640e-01
-3.579589e-01
-3.602236e-01
-3.622936e-01
-3.642415e-01
-3.661515e-01
-3.680936e-01
-3.701111e-01
-3.722206e-01
-3.744147e-01
-3.766572e-01
-3.788768e-01
-3.809747e-01
-3.828562e-01
-3.844783e-01
-3.858885e-01
-3.872239e-01
-3.886569e-01
-3.903172e-01
-3.922400e-01
-3.943741e-01
-3.966373e-01
-3.989810e-01
-4.014195e-01
-4.040126e-01
-4.068149e-01
-4.098239e-01
-4.129580e-01
-4.160800e-01
-4.190564e-01
-4.218192e-01
-4.243943e-01
-4.268867e-01
-4.294322e-01
-4.321376e-01
-4.350321e-01
-4.380490e-01
-4.410504e-01
-4.438842e-01
-4.464384e-01
-4.486654e-01
-4.505697e-01
-4.521735e-01
-4.534831e-01
-4.544738e-01
-4.551010e-01
-4.553326e-01
-4.551850e-01
-4.547371e-01
-4.541106e-01
-4.534266e-01
-4.527635e-01
-4.521375e-01
-4.515080e-01
-4.508031e-01
-4.499509e-01
-4.489036e-01
-4.476404e-01
-4.461498e-01
-4.444083e-01
-4.423757e-01
-4.400119e-01
-4.373049e-01
-4.342895e-01
-4.310459e-01
-4.276790e-01
-4.242910e-01
-4.209561e-01
-4.177039e-01
-4.145160e-01
-4.113384e-01
-4.081060e-01
-4.047694e-01
-4.013100e-01
-3.977370e-01
-3.940763e-01
-3.903667e-01
-3.866654e-01
-3.830450e-01
-3.795685e-01
-3.762546e-01
-3.730629e-01
-3.699153e-01
-3.667387e-01
-3.634972e-01
-3.602005e-01
-3.568901e-01
-3.536161e-01
-3.504098e-01
-3.472640e-01
-3.441278e-01
-3.409180e-01
-3.375427e-01
-3.339310e-01
-3.300606e-01
-3.259669e-01
-3.217235e-01
-3.174039e-01
-3.130491e-01
-3.086607e-01
-3.042166e-01
-2.996988e-01
-2.951164e-01
-2.905116e-01
-2.859435e-01
-2.814513e-01
-2.770184e-01
-2.725606e-01
-2.679521e-01
-2.630765e-01
-2.578743e-01
-2.523653e-01
-2.466414e-01
-2.408373e-01
-2.350958e-01
-2.295394e-01
-2.242538e-01
-2.192836e-01
-2.146373e-01
-2.102999e-01
-2.062436e-01
-2.024295e-01
-1.987987e-01
-1.952634e-01
-1.917060e-01
-1.879903e-01
-1.839842e-01
-1.795894e-01
-1.747627e-01
-1.695201e-01
-1.639257e-01
-1.580825e-01
-1.521301e-01
-1.462349e-01
-1.405622e-01
-1.352380e-01
-1.303188e-01
-1.257838e-01
-1.215477e-01
-1.174884e-01
-1.134790e-01
-1.094166e-01
-1.052387e-01
-1.009271e-01
-9.649762e-02
-9.197929e-02
-8.739642e-02
-8.276091e-02
-7.807478e-02
-7.333594e-02
-6.854488e-02
-6.371120e-02
-5.885667e-02
-5.401156e-02
-4.920664e-02
-4.446808e-02
-3.981947e-02
-3.528485e-02
-3.088291e-02
-2.661475e-02
-2.245774e-02
-1.836929e-02
-1.429446e-02
-1.017620e-02
-5.971141e-03
-1.666552e-03
2.712636e-03
7.113034e-03
1.147518e-02
1.575753e-02
1.994706e-02
2.405043e-02
2.807629e-02
3.202451e-02
3.588752e-02
3.965937e-02
4.334722e-02
4.698086e-02
5.061623e-02
5.433138e-02
5.821383e-02
6.233614e-02
6.672495e-02
7.134358e-02
7.610433e-02
8.090048e-02
8.563312e-02
9.022237e-02
9.461141e-02
9.876730e-02
1.026720e-01
1.063067e-01
1.096469e-01
1.126759e-01
1.154019e-01
1.178665e-01
1.201415e-01
1.223212e-01
1.245113e-01
1.268136e-01
1.293115e-01
1.320595e-01
1.350762e-01
1.383358e-01
1.417635e-01
1.452446e-01
1.486525e-01
1.518806e-01
1.548663e-01
1.575986e-01
1.601075e-01
1.624387e-01
1.646279e-01
1.666898e-01
1.686240e-01
1.704306e-01
1.721201e-01
1.737117e-01
1.752186e-01
1.766330e-01
1.779251e-01
1.790578e-01
1.800104e-01
1.807932e-01
1.814449e-01
1.820199e-01
1.825768e-01
1.831720e-01
1.838504e-01
1.846339e-01
1.855192e-01
1.864929e-01
1.875484e-01
1.886866e-01
1.898967e-01
1.911350e-01
1.923225e-01
1.933645e-01
1.941785e-01
1.947179e-01
1.949807e-01
1.950001e-01
1.948187e-01
1.944612e-01
1.939248e-01
1.931923e-01
1.922587e-01
1.911552e-01
1.899563e-01
1.887587e-01
1.876398e-01
1.866170e-01
1.856337e-01
1.845830e-01
1.833596e-01
1.819150e-01
1.802879e-01
1.785928e-01
1.769750e-01
1.755566e-01
1.743975e-01
1.734862e-01
1.727590e-01
1.721377e-01
1.715673e-01
1.710365e-01
1.705693e-01
1.701963e-01
1.699205e-01
1.696950e-01
1.694257e-01
1.689995e-01
1.683226e-01
1.673542e-01
1.661255e-01
1.647347e-01
1.633170e-01
1.619957e-01
1.608345e-01
1.598220e-01
1.588929e-01
1.579687e-01
1.569860e-01
1.559023e-01
1.546948e-01
1.533631e-01
1.519262e-01
1.504082e-01
1.488253e-01
1.471920e-01
1.455439e-01
1.439469e-01
1.424799e-01
1.412053e-01
1.401520e-01
1.393167e-01
1.386732e-01
1.381868e-01
1.378323e-01
1.376036e-01
1.375047e-01
1.375304e-01
1.376551e-01
1.378421e-01
1.380665e-01
1.383373e-01
1.387054e-01
1.392533e-01
1.400718e-01
1.412329e-01
1.427694e-01
1.446776e-01
1.469458e-01
1.495889e-01
1.526566e-01
1.562057e-01
1.602580e-01
1.647735e-01
1.696585e-01
1.748032e-01
1.801236e-01
1.855831e-01
1.911876e-01
1.969671e-01
2.029555e-01
2.091717e-01
2.156045e-01
2.222079e-01
2.289219e-01
2.357193e-01
2.426469e-01
2.498229e-01
2.573811e-01
2.654017e-01
2.738727e-01
2.826974e-01
2.917379e-01
3.008693e-01
3.100202e-01
3.191798e-01
3.283743e-01
3.376295e-01
3.469407e-01
3.562574e-01
3.654872e-01
3.745204e-01
3.832711e-01
3.917104e-01
3.998715e-01
4.078206e-01
4.156122e-01
4.232588e-01
4.307337e-01
4.380032e-01
4.450615e-01
4.519407e-01
4.586885e-01
4.653412e-01
4.719211e-01
4.784589e-01
4.850154e-01
4.916746e-01
4.985091e-01
5.055457e-01
5.127625e-01
5.201189e-01
5.275879e-01
5.351592e-01
5.428203e-01
5.505415e-01
5.582841e-01
5.660166e-01
5.737226e-01
5.813938e-01
5.890224e-01
5.966051e-01
6.041582e-01
6.117298e-01
6.193882e-01
6.271905e-01
6.351526e-01
6.432437e-01
6.514095e-01
6.596044e-01
6.678046e-01
6.759886e-01
6.841084e-01
6.920825e-01
6.998185e-01
7.072467e-01
7.143400e-01
7.211161e-01
7.276268e-01
7.339426e-01
7.401382e-01
7.462806e-01
7.524108e-01
7.585278e-01
7.645898e-01
7.705407e-01
7.763462e-01
7.820171e-01
7.876013e-01
7.931497e-01
7.986729e-01
8.041194e-01
8.093899e-01
8.143871e-01
8.190712e-01
8.234895e-01
8.277579e-01
8.320036e-01
8.362965e-01
8.406082e-01
8.448216e-01
8.487850e-01
8.523771e-01
8.555448e-01
8.583003e-01
8.606937e-01
8.627811e-01
8.645939e-01
8.661177e-01
8.672944e-01
8.680531e-01
8.683486e-01
8.681851e-01
8.676141e-01
8.667104e-01
8.655345e-01
8.640995e-01
8.623611e-01
8.602388e-01
8.576564e-01
8.545762e-01
8.510112e-01
8.470094e-01
8.426248e-01
8.378914e-01
8.328128e-01
8.273711e-01
8.215488e-01
8.153490e-01
8.087975e-01
8.019289e-01
7.947724e-01
7.873386e-01
7.796111e-01
7.715496e-01
7.631105e-01
7.542742e-01
7.450547e-01
7.354875e-01
7.256106e-01
7.154641e-01
7.051100e-01
6.946545e-01
6.842486e-01
6.740585e-01
6.642159e-01
6.547736e-01
6.456880e-01
6.368396e-01
6.280797e-01
6.192889e-01
6.104222e-01
6.015201e-01
5.926743e-01
5.839679e-01
5.754283e-01
5.670201e-01
5.586744e-01
5.503309e-01
5.419672e-01
5.336040e-01
5.252887e-01
5.170692e-01
5.089732e-01
5.010004e-01
4.931279e-01
4.853218e-01
4.775517e-01
4.697954e-01
4.620296e-01
4.542108e-01
4.462637e-01
4.380925e-01
4.296108e-01
4.207763e-01
4.116148e-01
4.022217e-01
3.927309e-01
3.832606e-01
3.738621e-01
3.644962e-01
3.550492e-01
3.453838e-01
3.354108e-01
3.251505e-01
3.147463e-01
3.044145e-01
2.943551e-01
2.846735e-01
2.753521e-01
2.662797e-01
2.573152e-01
2.483521e-01
2.393591e-01
2.303766e-01
2.214793e-01
2.127260e-01
2.041287e-01
1.956521e-01
1.872350e-01
1.788135e-01
1.703341e-01
1.617563e-01
1.530525e-01
1.442057e-01
1.352064e-01
1.260526e-01
1.167516e-01
1.073183e-01
9.776913e-02
8.811980e-02
7.839223e-02
6.862026e-02
5.884418e-02
4.909595e-02
3.938896e-02
2.972522e-02
2.011604e-02
1.059649e-02
1.220442e-03
-7.956978e-03
-1.689724e-02
-2.559430e-02
-3.408511e-02
-4.244201e-02
-5.074336e-02
-5.904055e-02
-6.734388e-02
-7.563189e-02
-8.387147e-02
-9.203497e-02
-1.001075e-01
-1.080832e-01
-1.159544e-01
-1.237056e-01
-1.313207e-01
-1.387963e-01
-1.461464e-01
-1.533925e-01
-1.605460e-01
-1.675956e-01
-1.745052e-01
-1.812215e-01
-1.876920e-01
-1.938841e-01
-1.997893e-01
-2.054089e-01
-2.107438e-01
-2.158020e-01
-2.206160e-01
-2.252478e-01
-2.297845e-01
-2.343324e-01
-2.390112e-01
-2.439361e-01
-2.491943e-01
-2.548273e-01
-2.608323e-01
-2.671816e-01
-2.738404e-01
-2.807677e-01
-2.879126e-01
-2.952266e-01
-3.026818e-01
-3.102752e-01
-3.180062e-01
-3.258482e-01
-3.337368e-01
-3.415899e-01
-3.493487e-01
-3.570116e-01
-3.646393e-01
-3.723283e-01
-3.801678e-01
-3.882005e-01
-3.963980e-01
-4.046537e-01
-4.128005e-01
-4.206557e-01
-4.280777e-01
-4.350071e-01
-4.414693e-01
-4.475404e-01
-4.532967e-01
-4.587763e-01
-4.639702e-01
-4.688402e-01
-4.733519e-01
-4.775031e-01
-4.813339e-01
-4.849177e-01
-4.883440e-01
-4.917030e-01
-4.950727e-01
-4.985024e-01
-5.020001e-01
-5.055325e-01
-5.090410e-01
-5.124660e-01
-5.157635e-01
-5.189089e-01
-5.218904e-01
-5.247038e-01
-5.273528e-01
-5.298527e-01
-5.322338e-01
-5.345408e-01
-5.368289e-01
-5.391557e-01
-5.415691e-01
-5.440942e-01
-5.467243e-01
-5.494227e-01
-5.521377e-01
-5.548247e-01
-5.574656e-01
-5.600746e-01
-5.626887e-01
-5.653507e-01
-5.680916e-01
-5.709186e-01
-5.738041e-01
-5.766803e-01
-5.794507e-01
-5.820213e-01
-5.843359e-01
-5.863932e-01
-5.882331e-01
-5.898987e-01
-5.913963e-01
-5.926809e-01
-5.936753e-01
-5.943096e-01
-5.945573e-01
-5.944486e-01
-5.940636e-01
-5.935144e-01
-5.929271e-01
-5.924255e-01
-5.921140e-01
-5.920643e-01
-5.923100e-01
-5.928508e-01
-5.936611e-01
-5.946973e-01
-5.959048e-01
-5.972278e-01
-5.986157e-01
-6.000248e-01
-6.014171e-01
-6.027646e-01
-6.040545e-01
-6.052895e-01
-6.064810e-01
-6.076420e-01
-6.087856e-01
-6.099308e-01
-6.111063e-01
-6.123488e-01
-6.136967e-01
-6.151869e-01
-6.168539e-01
-6.187272e-01
-6.208221e-01
-6.231314e-01
-6.256264e-01
-6.282697e-01
-6.310325e-01
-6.339112e-01
-6.369370e-01
-6.401741e-01
-6.437044e-01
-6.476048e-01
-6.519209e-01
-6.566509e-01
-6.617479e-01
-6.671408e-01
-6.727647e-01
-6.785847e-01
-6.846045e-01
-6.908579e-01
-6.973854e-01
-7.042016e-01
-7.112674e-01
-7.184872e-01
-7.257364e-01
-7.329052e-01
-7.399340e-01
-7.468237e-01
-7.536204e-01
-7.603823e-01
-7.671483e-01
-7.739204e-01
-7.806659e-01
-7.873356e-01
-7.938885e-01
-8.003107e-01
-8.066202e-01
-8.128574e-01
-8.190740e-01
-8.253265e-01
-8.316683e-01
-8.381356e-01
-8.447316e-01
-8.514227e-01
-8.581495e-01
-8.648433e-01
-8.714385e-01
-8.778782e-01
-8.841126e-01
-8.900979e-01
-8.957968e-01
-9.011860e-01
-9.062609e-01
-9.110295e-01
-9.154954e-01
-9.196403e-01
-9.234209e-01
-9.267809e-01
-9.296713e-01
-9.320645e-01
-9.339546e-01
-9.353473e-01
-9.362477e-01
-9.366571e-01
-9.365749e-01
-9.360038e-01
-9.349546e-01
-9.334497e-01
-9.315201e-01
-9.291963e-01
-9.264956e-01
-9.234168e-01
-9.199459e-01
-9.160702e-01
-9.117930e-01
-9.071456e-01
-9.021868e-01
-8.969863e-01
-8.915997e-01
-8.860495e-01
-8.803220e-01
-8.743783e-01
-8.681737e-01
-8.616737e-01
-8.548622e-01
-8.477387e-01
-8.403155e-01
-8.326140e-01
-8.246616e-01
-8.164830e-01
-8.080883e-01
-7.994638e-01
-7.905725e-01
-7.813644e-01
-7.717956e-01
-7.618523e-01
-7.515656e-01
-7.410105e-01
-7.302870e-01
-7.194964e-01
-7.087226e-01
-6.980204e-01
-6.874096e-01
-6.768772e-01
-6.663911e-01
-6.559254e-01
-6.454856e-01
-6.351173e-01
-6.248911e-01
-6.148706e-01
-6.050839e-01
-5.955134e-01
-5.861115e-01
-5.768262e-01
-5.676226e-01
-5.584887e-01
-5.494308e-01
-5.404676e-01
-5.316228e-01
-5.229179e-01
-5.143635e-01
-5.059522e-01
-4.976592e-01
-4.894513e-01
-4.813016e-01
-4.731997e-01
-4.651585e-01
-4.572166e-01
-4.494351e-01
-4.418867e-01
-4.346392e-01
-4.277410e-01
-4.212135e-01
-4.150543e-01
-4.092429e-01
-4.037462e-01
-3.985198e-01
-3.935113e-01
-3.886692e-01
-3.839530e-01
-3.793379e-01
-3.748068e-01
-3.703381e-01
-3.658987e-01
-3.614456e-01
-3.569344e-01
-3.523260e-01
-3.475887e-01
-3.426974e-01
-3.376367e-01
-3.324134e-01
-3.270669e-01
-3.216652e-01
-3.162792e-01
-3.109521e-01
-3.056855e-01
-3.004457e-01
-2.951826e-01
-2.898434e-01
-2.843797e-01
-2.787482e-01
-2.729120e-01
-2.668469e-01
-2.605514e-01
-2.540558e-01
-2.474236e-01
-2.407413e-01
-2.340938e-01
-2.275370e-01
-2.210814e-01
-2.146955e-01
-2.083277e-01
-2.019365e-01
-1.955114e-01
-1.890742e-01
-1.826668e-01
-1.763365e-01
-1.701257e-01
-1.640590e-01
-1.581298e-01
-1.522955e-01
-1.464898e-01
-1.406475e-01
-1.347287e-01
-1.287293e-01
-1.226783e-01
-1.166214e-01
-1.105956e-01
-1.046078e-01
-9.862998e-02
-9.261534e-02
-8.652153e-02
-8.032300e-02
-7.400861e-02
-6.757280e-02
-6.100974e-02
-5.431307e-02
-4.747669e-02
-4.049218e-02
-3.334388e-02
-2.600642e-02
-1.844847e-02
-1.064160e-02
-2.569644e-03
5.766712e-03
1.435309e-02
2.316787e-02
3.218410e-02
4.136728e-02
5.067395e-02
6.005262e-02
6.944658e-02
7.879806e-02
8.805001e-02
9.714234e-02
1.060072e-01
1.145727e-01
1.227791e-01
1.306015e-01
1.380694e-01
1.452690e-01
1.523268e-01
1.593768e-01
1.665236e-01
1.738155e-01
1.812408e-01
1.887433e-01
1.962478e-01
2.036818e-01
2.109912e-01
2.181498e-01
2.251630e-01
2.320632e-01
2.388976e-01
2.457141e-01
2.525535e-01
2.594453e-01
2.664035e-01
2.734213e-01
2.804724e-01
2.875222e-01
2.945419e-01
3.015152e-01
3.084344e-01
3.152929e-01
3.220780e-01
3.287667e-01
3.353224e-01
3.416931e-01
3.478110e-01
3.536014e-01
3.590002e-01
3.639776e-01
3.685588e-01
3.728287e-01
3.769150e-01
3.809490e-01
3.850200e-01
3.891466e-01
3.932791e-01
3.973315e-01
4.012222e-01
4.049067e-01
4.083903e-01
4.117226e-01
4.149779e-01
4.182321e-01
4.215431e-01
4.249413e-01
4.284308e-01
4.320018e-01
4.356449e-01
4.393622e-01
4.431677e-01
4.470763e-01
4.510910e-01
4.551916e-01
4.593283e-01
4.634193e-01
4.673581e-01
4.710329e-01
4.743539e-01
4.772730e-01
4.797878e-01
4.819267e-01
4.837273e-01
4.852199e-01
4.864243e-01
4.873555e-01
4.880302e-01
4.884710e-01
4.887061e-01
4.887674e-01
4.886875e-01
4.884914e-01
4.881882e-01
4.877685e-01
4.872082e-01
4.864749e-01
4.855327e-01
4.843470e-01
4.828881e-01
4.811324e-01
4.790588e-01
4.766445e-01
4.738648e-01
4.706946e-01
4.671143e-01
4.631136e-01
4.586987e-01
4.538978e-01
4.487658e-01
4.433804e-01
4.378300e-01
4.322004e-01
4.265633e-01
4.209698e-01
4.154468e-01
4.099943e-01
4.045855e-01
3.991700e-01
3.936791e-01
3.880316e-01
3.821406e-01
3.759273e-01
3.693390e-01
3.623611e-01
3.550177e-01
3.473596e-01
3.394492e-01
3.313466e-01
3.231024e-01
3.147578e-01
3.063507e-01
2.979211e-01
2.895106e-01
2.811550e-01
2.728728e-01
2.646598e-01
2.564959e-01
2.483640e-01
2.402713e-01
2.322561e-01
2.243766e-01
2.166846e-01
2.092055e-01
2.019370e-01
1.948695e-01
1.880133e-01
1.814121e-01
1.751346e-01
1.692493e-01
1.638014e-01
1.587998e-01
1.542183e-01
1.500057e-01
1.461036e-01
1.424647e-01
1.390655e-01
1.359059e-01
1.329989e-01
1.303529e-01
1.279581e-01
1.257862e-01
1.238003e-01
1.219643e-01
1.202461e-01
1.186187e-01
1.170628e-01
1.155656e-01
1.141136e-01
1.126881e-01
1.112690e-01
1.098452e-01
1.084252e-01
1.070411e-01
1.057459e-01
1.046069e-01
1.036953e-01
1.030780e-01
1.028112e-01
1.029372e-01
1.034812e-01
1.044517e-01
1.058384e-01
1.076122e-01
1.097294e-01
1.121393e-01
1.147908e-01
1.176360e-01
1.206294e-01
1.237243e-01
1.268664e-01
1.299909e-01
1.330266e-01
1.359067e-01
1.385800e-01
1.410209e-01
1.432315e-01
1.452350e-01
1.470580e-01
1.487094e-01
1.501735e-01
1.514211e-01
1.524262e-01
1.531761e-01
1.536749e-01
1.539472e-01
1.540361e-01
1.539919e-01
1.538577e-01
1.536622e-01
1.534200e-01
1.531352e-01
1.528063e-01
1.524324e-01
1.520198e-01
1.515811e-01
1.511265e-01
1.506546e-01
1.501501e-01
1.495915e-01
1.489630e-01
1.482627e-01
1.475020e-01
1.466972e-01
1.458566e-01
1.449757e-01
1.440451e-01
1.430656e-01
1.420556e-01
1.410464e-01
1.400679e-01
1.391375e-01
1.382549e-01
1.374073e-01
1.365802e-01
1.357661e-01
1.349654e-01
1.341796e-01
1.334056e-01
1.326349e-01
1.318599e-01
1.310834e-01
1.303261e-01
1.296286e-01
1.290451e-01
1.286293e-01
1.284202e-01
1.284334e-01
1.286598e-01
1.290687e-01
1.296164e-01
1.302583e-01
1.309609e-01
1.317089e-01
1.325044e-01
1.333581e-01
1.342773e-01
