EVENT_NAME: L_AQUILA
EVENT_ID: IT-2009-0009
EVENT_DATE_YYYYMMDD: 20090406
EVENT_TIME_HHMMSS: 013240
EVENT_LATITUDE_DEGREE: 42.3420
EVENT_LONGITUDE_DEGREE: 13.3800
EVENT_DEPTH_KM: 8.3
HYPOCENTER_REFERENCE: INGV-CNT_Seismic_Bulletin
MAGNITUDE_W: 6.1
MAGNITUDE_W_REFERENCE: INGV-CNT_Seismic_Bulletin
MAGNITUDE_L: 
MAGNITUDE_L_REFERENCE: 
FOCAL_MECHANISM: Normal faulting
NETWORK: IT
STATION_CODE: MTR
STATION_NAME: 
STATION_LATITUDE_DEGREE: 42.524021
STATION_LONGITUDE_DEGREE: 13.244796
STATION_ELEVATION_M: 975
LOCATION: 
SENSOR_DEPTH_M: 0.0
VS30_M/S: 689
SITE_CLASSIFICATION_EC8: B
MORPHOLOGIC_CLASSIFICATION: 
EPICENTRAL_DISTANCE_KM: 23.1
EARTHQUAKE_BACKAZIMUTH_DEGREE: 331.2
DATE_TIME_FIRST_SAMPLE_YYYYMMDD_HHMMSS: 20090406_013231.000
DATE_TIME_FIRST_SAMPLE_PRECISION: seconds
SAMPLING_INTERVAL_S: 0.005000
NDATA: 20000
DURATION_S: 100.000
STREAM: HNN
UNITS: cm/s^2
INSTRUMENT: sensor = FBA-3 [Kinemetrics] | digitizer = Etna [Kinemetrics]
INSTRUMENT_ANALOG/DIGITAL: D
INSTRUMENTAL_FREQUENCY_HZ: 212.000
INSTRUMENTAL_DAMPING: 0.700000
FULL_SCALE_G: 1.0
N_BIT_DIGITAL_CONVERTER: 18
PGA_CM/S^2: 61.371239
TIME_PGA_S: 19.560000
BASELINE_CORRECTION: BASELINE REMOVED
FILTER_TYPE: BUTTERWORTH
FILTER_ORDER: 2
LOW_CUT_FREQUENCY_HZ: 0.080
HIGH_CUT_FREQUENCY_HZ: 40.000
LATE/NORMAL_TRIGGERED: NT
DATABASE_VERSION: 0.5
HEADER_FORMAT: DYNA 1.2
DATA_TYPE: ACCELERATION
PROCESSING: manual (Paolucci et al., 2011)
DATA_TIMESTAMP_YYYYMMDD_HHMMSS: 20211011_155908.924
DATA_LICENSE: CC-BY3_0-IT (http://creativecommons.org/licenses/by/3.0/deed.en)
DATA_CITATION: Luzi L, Pacor F, Puglia R (2019). Italian Accelerometric Archive v 3.0 - Istituto Nazionale di Geofisica e Vulcanologia, Dipartimento della Protezione Civile Nazionale. doi: 10.13127/itaca.3.1
DATA_CREATOR: ITACA working group
ORIGINAL_DATA_MEDIATOR_CITATION: data obtained within the DPC-INGV data exchange agreements
ORIGINAL_DATA_MEDIATOR: Archive of Italian Department of Civil Protection
ORIGINAL_DATA_CREATOR_CITATION: Presidency Of Counsil Of Ministers-Civil Protection Department. (1972). Italian Strong Motion Network. Presidency of Counsil of Ministers - Civil Protection Department. https://doi.org/10.7914/SN/IT http://www.fdsn.org/networks/detail/IT/
ORIGINAL_DATA_CREATOR: network: IT (Italian Strong Motion Network (RAN)); owner: Presidency of Counsil of Ministers - Civil Protection Department (PCM - DPC)
USER1: 
USER2: 
USER3: 
USER4: 
USER5: 
[...]
0.002101
0.002059
0.002669
0.004352
0.005588
0.004435
0.001578
-0.000272
-0.000073
0.001122
0.002717
0.004560
0.005881
0.005766
0.004172
0.002646
0.002689
0.003714
0.004117
0.003250
0.001805
0.000475
-0.000515
-0.000132
0.001646
0.002110
0.000299
-0.001168
-0.001064
-0.000414
0.000593
0.001895
0.002608
0.002609
0.002814
0.003875
0.005454
0.006571
0.006605
0.005643
0.004010
0.002292
0.001564
0.002397
0.004058
0.005276
0.005159
0.003976
0.002886
0.002069
0.000989
0.000233
0.000682
0.001807
0.002252
0.001739
0.001382
0.002055
0.003392
0.004174
0.003768
0.003206
0.003579
0.004158
0.003945
0.003831
0.004977
0.006175
0.005278
0.002786
0.001249
0.001406
0.001963
0.001607
0.000127
-0.000696
0.000328
0.001798
0.003015
0.004117
0.003957
0.002690
0.002510
0.003921
0.004568
0.003267
0.002156
0.002465
0.003140
0.003937
0.004574
0.003687
0.001629
0.000857
0.002353
0.004003
0.003614
0.002185
0.002099
0.003268
0.003992
0.003825
0.003366
0.003299
0.004080
0.004979
0.004576
0.002957
0.001245
0.000040
0.000205
0.001890
0.002902
0.001754
0.000196
0.000455
0.002502
0.004480
0.004472
0.002874
0.001939
0.002233
0.002761
0.003211
0.003380
0.002995
0.002616
0.003089
0.004284
0.005255
0.005660
0.005933
0.006204
0.006192
0.005879
0.005389
0.005053
0.005422
0.006316
0.007182
0.007906
0.008000
0.006770
0.004669
0.002773
0.001762
0.001683
0.001992
0.002928
0.004902
0.006071
0.004746
0.002848
0.003418
0.006278
0.008458
0.008025
0.005794
0.003790
0.003335
0.004274
0.005261
0.005393
0.005417
0.006180
0.007696
0.010482
0.014892
0.019069
0.020495
0.019487
0.019245
0.023014
0.031771
0.042338
0.047987
0.044458
0.034547
0.023969
0.015056
0.005613
-0.006673
-0.017421
-0.016944
-0.001588
0.021312
0.040486
0.048730
0.046653
0.041438
0.041538
0.052426
0.072908
0.093898
0.104151
0.096280
0.069606
0.032277
-0.002229
-0.024807
-0.036213
-0.044067
-0.057315
-0.079032
-0.098790
-0.096420
-0.059704
0.002619
0.066177
0.105998
0.107817
0.071218
0.006819
-0.067497
-0.129273
-0.157639
-0.143551
-0.091976
-0.013656
0.075255
0.144274
0.156045
0.099023
0.011635
-0.044163
-0.044991
-0.032130
-0.063693
-0.142775
-0.204136
-0.179497
-0.071151
0.048267
0.108504
0.104103
0.083024
0.088173
0.120694
0.153214
0.164610
0.157285
0.146865
0.138816
0.113611
0.037244
-0.105680
-0.283708
-0.425449
-0.461681
-0.372703
-0.208059
-0.059637
0.003471
-0.006781
-0.004093
0.090624
0.263721
0.405528
0.399968
0.230816
0.003702
-0.145928
-0.171729
-0.140906
-0.141388
-0.179529
-0.187435
-0.121176
-0.014434
0.079741
0.170341
0.317175
0.533556
0.721081
0.728318
0.486474
0.082071
-0.307403
-0.541127
-0.585395
-0.497424
-0.365800
-0.244400
-0.116895
0.073352
0.347594
0.639379
0.820046
0.787707
0.541516
0.179599
-0.163584
-0.385979
-0.455372
-0.405511
-0.304184
-0.217522
-0.188836
-0.231541
-0.321186
-0.389982
-0.350036
-0.147868
0.185695
0.531153
0.738108
0.712314
0.464328
0.090648
-0.278512
-0.523567
-0.570154
-0.428701
-0.211102
-0.069751
-0.076711
-0.158290
-0.167543
-0.027855
0.196794
0.367176
0.394087
0.300372
0.181231
0.127834
0.182261
0.328734
0.501395
0.609282
0.577704
0.382757
0.061474
-0.297382
-0.575637
-0.664193
-0.511196
-0.156242
0.272506
0.608070
0.727167
0.616036
0.368928
0.125558
0.000351
0.038534
0.200862
0.387341
0.511703
0.572338
0.626442
0.680572
0.648623
0.464072
0.208711
0.062972
0.113049
0.254363
0.319779
0.283115
0.294055
0.498735
0.845804
1.093023
1.020923
0.637185
0.156338
-0.206248
-0.386444
-0.431052
-0.366403
-0.143578
0.303794
0.969374
1.728714
2.367966
2.675462
2.535305
1.957311
1.046666
-0.038956
-1.105720
-1.909176
-2.176087
-1.735611
-0.688215
0.584188
1.653595
2.338704
2.750719
3.034117
3.103972
2.688582
1.619974
0.058841
-1.536966
-2.641062
-2.915811
-2.354022
-1.249715
-0.042157
0.875465
1.295915
1.240216
0.912572
0.597117
0.521869
0.738499
1.095671
1.348336
1.328506
1.042459
0.643404
0.310273
0.090278
-0.171690
-0.689155
-1.439376
-2.020071
-1.909885
-0.969758
0.319637
1.202293
1.297327
0.902947
0.632836
0.782478
1.078374
0.992349
0.231844
-1.045476
-2.384620
-3.319676
-3.545176
-2.945492
-1.605352
0.154140
1.795712
2.720421
2.535133
1.286955
-0.529910
-2.232669
-3.270916
-3.394169
-2.664885
-1.413137
-0.132686
0.699473
0.825821
0.355892
-0.274614
-0.616497
-0.541025
-0.218203
0.189793
0.677874
1.246826
1.755092
1.987648
1.809894
1.237597
0.402753
-0.575338
-1.723517
-3.119528
-4.561986
-5.436322
-5.104433
-3.505185
-1.307140
0.584418
1.616581
1.707565
1.024669
-0.127850
-1.239708
-1.630146
-0.797694
1.074814
2.994105
3.791401
3.064916
1.439041
-0.175102
-1.472620
-2.792835
-4.317814
-5.423569
-5.023403
-2.642006
0.874875
3.768181
4.566011
3.048981
0.188377
-2.804140
-5.342230
-7.398433
-8.753268
-8.637381
-6.354484
-2.250733
2.134350
5.089118
5.928514
5.122385
3.416061
1.177480
-1.390093
-3.837187
-5.535850
-6.018336
-5.200286
-3.471996
-1.600528
-0.256132
0.538472
1.316763
2.396102
3.376199
3.572225
2.828939
1.719077
0.936582
0.648203
0.513315
0.194993
-0.289155
-0.634762
-0.569798
-0.148115
0.221521
0.015375
-0.930948
-1.993887
-2.092556
-0.672215
1.721964
3.852258
4.757782
4.345670
3.190129
1.983601
1.089383
0.426474
-0.265672
-1.075821
-1.786114
-2.067413
-1.850455
-1.433050
-1.114753
-0.773024
-0.022546
1.114650
1.934722
1.648108
0.169590
-1.731311
-2.906679
-2.527523
-0.676536
1.648535
3.281841
3.693553
3.104268
2.039179
0.950938
0.118036
-0.344137
-0.400397
0.013034
0.972442
2.398675
3.894679
4.831601
4.793871
3.994336
3.004236
1.974884
0.439359
-1.895722
-4.338117
-5.409677
-3.900677
0.161622
5.340674
9.516309
10.959662
9.016583
4.245347
-1.792482
-7.111343
-10.171829
-10.584706
-9.174218
-7.295462
-5.846004
-4.747199
-3.322973
-1.195739
1.138852
2.601510
2.398149
0.592397
-2.031991
-4.377195
-5.325216
-4.086164
-0.668436
3.917556
8.053471
10.294193
9.979507
7.352932
3.347491
-0.669075
-3.257527
-3.588122
-2.020926
0.148992
1.685795
2.261465
2.452387
2.947261
3.704829
3.801346
2.119152
-1.624768
-6.313089
-9.829547
-10.220988
-6.851891
-0.817382
5.583552
9.957469
10.905853
8.585143
4.480210
0.534060
-1.792088
-2.033015
-0.748431
0.868434
1.757479
1.749586
1.609237
2.182740
3.454031
4.456980
4.136950
2.348955
0.060580
-1.430638
-1.556575
-0.899939
-0.707485
-1.975258
-4.713750
-7.684797
-8.803468
-6.350094
-0.373794
7.033951
13.027242
15.670344
14.607621
10.636544
5.023323
-0.900112
-6.012498
-9.688797
-11.772126
-12.092735
-10.152906
-5.623878
0.768333
7.121323
11.341112
12.274187
10.019247
5.443780
-0.409654
-6.442551
-11.313842
-13.694391
-13.111574
-10.485425
-7.552490
-5.581174
-4.598943
-3.822155
-2.652363
-1.069641
0.738538
2.673382
4.546242
5.852037
5.892467
4.219496
1.089174
-2.492416
-5.250012
-6.281771
-5.483403
-3.624281
-1.982786
-1.534550
-2.168608
-2.789215
-2.471780
-1.552313
-1.450104
-3.390205
-7.275125
-11.614357
-14.374534
-14.061523
-10.477412
-4.880708
0.572921
3.916905
4.347146
2.560861
0.434768
0.144635
2.936379
8.194267
13.557891
16.203394
14.524891
9.096320
2.186285
-3.900099
-8.234071
-11.145659
-13.003947
-13.419385
-11.629932
-7.457841
-1.712331
4.296971
9.368220
12.456735
12.565261
9.188111
3.061144
-3.727294
-8.598731
-9.669580
-6.509739
-0.235913
6.971892
12.802250
15.999325
17.003798
17.162170
17.193766
16.465830
13.542218
7.575426
-0.521695
-8.412159
-13.856001
-15.913276
-15.035287
-12.211008
-8.202126
-3.623136
0.820546
4.544565
7.252013
8.740986
8.808227
7.553721
5.602351
3.740170
2.385893
1.444354
0.507200
-0.613180
-1.415822
-1.071380
0.682439
3.036564
4.476862
3.976157
1.973413
-0.055129
-0.929486
-0.584998
0.121889
0.228873
-0.559106
-1.695827
-2.296945
-1.837800
-0.432451
1.303795
2.492607
2.453057
1.272325
-0.105072
-0.421994
1.000167
3.638611
6.166171
7.470312
7.176235
5.523142
3.003594
0.164239
-2.193218
-3.080428
-2.059334
0.355411
3.185288
5.572960
6.850025
6.421585
3.964308
-0.248472
-5.435433
-10.703989
-15.182464
-17.903702
-17.961079
-15.033314
-9.733539
-3.309356
2.951232
7.969443
10.929515
11.548497
10.312069
8.230131
6.200616
4.522052
2.914544
0.917866
-1.617982
-4.239514
-6.065042
-6.337854
-4.891082
-2.159874
1.131845
4.207132
6.330826
6.975711
6.028248
3.848269
1.107980
-1.505143
-3.463542
-4.406122
-4.300272
-3.662139
-3.189473
-2.913100
-1.988151
0.353608
3.662133
6.271643
6.540376
4.065348
-0.194599
-4.620155
-7.615406
-8.043451
-5.659653
-1.481322
2.405349
3.886788
2.160781
-1.685250
-5.370570
-6.830496
-5.292265
-1.444208
3.135180
6.788131
8.389655
7.543989
4.445624
-0.298239
-5.760127
-10.921853
-15.087728
-18.049456
-19.689732
-19.424606
-16.279066
-9.807615
-1.059912
7.439612
12.935561
14.085834
11.663936
7.682099
3.870010
1.005658
-0.655786
-0.888402
0.337496
2.417687
4.168261
4.529817
3.298902
1.159051
-0.992005
-2.726288
-4.221731
-5.917144
-8.055217
-10.413057
-12.373691
-13.215154
-12.369261
-9.668647
-5.633240
-1.435609
1.760548
3.595498
4.579977
5.311234
5.648348
4.740413
1.991956
-1.950331
-5.283481
-6.249494
-4.356847
-0.602900
3.384736
6.524090
8.806048
10.834077
12.885960
14.371141
14.218404
11.826041
7.668502
3.128082
-0.175195
-1.137303
0.312924
3.247714
6.309538
8.277657
8.264399
5.792670
1.076928
-4.668061
-9.426395
-11.255564
-9.215885
-3.662653
4.003431
11.668006
17.002836
18.388506
15.694783
10.083652
3.072877
-4.128897
-10.582509
-15.319800
-17.368782
-16.164650
-11.968703
-6.026379
-0.377635
2.807587
2.244205
-1.724576
-7.243189
-11.849918
-13.600334
-11.838126
-7.263592
-1.250704
5.168204
11.760067
18.462437
24.395128
27.723446
26.695112
21.022818
12.318565
3.163272
-4.241146
-8.841265
-10.728127
-10.542677
-8.719504
-5.287186
-0.545715
4.096277
6.281031
4.160275
-1.983586
-9.590141
-15.430551
-17.514849
-15.848109
-11.900759
-7.519990
-4.043428
-1.991664
-1.196223
-1.100091
-1.170032
-1.214857
-1.374917
-1.940969
-3.178375
-5.094480
-7.211517
-8.683779
-8.875782
-7.837424
-6.160822
-4.524415
-3.385273
-2.782521
-2.186328
-0.643532
2.664787
7.730316
13.338036
17.465641
18.424288
15.771494
10.217630
3.023526
-4.460769
-11.205151
-16.747028
-20.958035
-23.591042
-24.066889
-21.699921
-16.177324
-7.858989
2.132140
11.955584
19.566690
23.494802
23.061951
18.109314
9.083649
-2.580608
-14.692493
-25.208019
-32.906048
-37.320763
-38.149883
-34.896637
-27.386255
-16.508642
-4.282984
6.620855
13.823246
16.410936
15.179296
11.666631
7.224041
2.748543
-1.298767
-4.634987
-6.659080
-6.392688
-3.281203
1.921169
7.261364
10.691453
11.325198
9.929618
8.076216
6.625084
5.140362
2.669903
-1.314198
-6.691137
-12.829247
-18.705072
-23.067097
-24.665714
-22.632614
-17.033852
-9.131291
-0.879646
6.043257
10.858699
13.475637
13.797129
11.469811
6.466764
-0.226298
-6.752283
-11.261597
-12.605954
-10.443513
-5.230520
1.680771
8.443205
13.732727
17.245413
19.165701
19.555979
18.297100
15.461401
11.837327
8.876453
7.692090
8.141976
9.106089
9.468795
8.555150
5.939369
1.473051
-4.351693
-10.269766
-14.567710
-15.753466
-13.332558
-8.188148
-2.150355
2.958289
6.048577
6.821977
5.340333
1.662855
-4.018934
-10.863250
-17.137178
-20.798780
-20.567142
-16.608423
-10.379036
-3.722632
2.199837
7.141515
10.964996
13.119389
13.181456
11.353318
8.151642
4.092540
-0.235268
-4.199279
-7.236190
-8.834238
-8.589910
-6.268261
-1.686429
5.167465
13.599831
22.015062
28.606861
32.282631
32.826481
30.368876
25.059834
17.223877
7.549855
-2.846014
-12.438198
-19.535812
-22.660540
-20.869015
-14.224427
-4.238485
6.440001
15.050836
19.784346
20.406424
18.024677
14.051972
9.338244
4.254090
-0.802585
-5.484843
-9.887361
-14.230959
-18.226921
-21.262690
-23.027946
-23.530596
-22.756346
-20.575605
-16.681391
-10.681367
-2.830276
5.345733
11.661356
14.601672
13.960474
10.510219
5.440277
-0.065015
-5.087879
-8.933912
-10.959843
-10.655080
-7.870655
-2.912676
3.391467
9.653803
14.224247
15.724919
13.466054
7.711715
-0.278428
-8.662513
-15.750673
-20.538567
-22.740025
-22.545336
-20.429781
-17.072859
-13.274924
-9.700955
-6.488517
-3.226470
0.386255
3.941904
6.645466
8.109368
8.653514
9.052855
10.148621
12.441708
15.790740
19.430998
22.321552
23.728680
23.758083
23.250563
23.045443
23.467211
24.453266
25.809574
27.159351
27.885542
27.451786
25.826571
23.501995
21.060312
18.700804
16.122166
12.722406
7.933042
1.687850
-5.220217
-11.309243
-14.958883
-14.928700
-10.849753
-3.724686
4.056785
9.657898
11.189766
8.468896
2.717062
-4.338672
-11.310993
-17.485617
-22.583359
-26.289026
-27.838772
-25.899454
-19.103458
-7.068616
8.911574
26.117289
41.600906
53.377560
60.314327
61.371239
56.059319
45.601284
32.648869
19.520899
7.055647
-4.791231
-15.782163
-25.015656
-31.237076
-33.362469
-31.056759
-25.153246
-17.509298
-10.278570
-5.062720
-2.272026
-1.290400
-1.834303
-4.895566
-11.501485
-20.869341
-30.667046
-38.904240
-45.074955
-49.718201
-53.136837
-54.430054
-51.975151
-45.142773
-35.375134
-25.458353
-17.677748
-12.394484
-8.482721
-5.262349
-3.402193
-3.791848
-6.431973
-10.593272
-15.121024
-18.367226
-18.578363
-14.740540
-6.975981
3.799897
16.301332
28.776258
38.930019
44.740437
45.773525
43.549171
40.276241
37.203690
34.179672
30.434368
25.603632
20.135284
14.861822
10.331666
6.631947
3.770283
1.808780
0.341112
-1.697523
-5.383734
-10.970163
-17.234688
-21.617088
-21.730785
-17.281069
-10.720777
-5.907517
-5.421404
-8.606122
-12.338254
-13.889418
-13.051485
-11.795764
-12.194274
-14.632770
-17.826147
-20.277306
-21.561771
-22.374931
-23.508114
-24.607573
-23.881199
-19.505030
-11.510496
-1.935178
6.674137
12.499316
14.807215
13.932670
10.968741
7.216993
3.811942
1.612016
1.143974
2.556397
5.532291
9.236458
12.786554
16.035978
19.486668
23.347530
27.130228
30.080984
31.495201
30.803698
28.067562
24.321190
20.816940
17.982872
15.311026
11.849097
6.669393
-0.504791
-8.619008
-15.409641
-18.556181
-16.759323
-9.954854
0.766381
13.152755
24.362644
32.239803
36.066692
36.102978
32.959080
27.581558
21.096142
14.140319
6.662304
-1.337704
-9.118661
-15.441770
-19.318478
-20.413414
-18.901007
-15.195916
-9.953446
-4.226193
0.637691
3.540099
4.218257
3.212506
1.224294
-1.494082
-5.219788
-10.324227
-16.784304
-23.937544
-30.387218
-34.187641
-33.609493
-28.154469
-18.921400
-7.975006
2.728510
12.162210
20.247559
26.921467
31.136280
31.107222
25.838028
16.278973
4.913742
-5.446889
-12.612610
-15.672045
-15.226248
-12.889661
-10.526593
-9.709605
-11.204646
-14.640108
-18.918028
-23.075340
-26.705698
-29.667891
-31.610159
-31.913939
-30.052189
-25.968643
-20.339382
-14.610448
-10.462562
-8.874260
-9.605556
-11.450956
-12.857558
-12.485893
-9.566276
-4.133496
2.781437
9.269349
13.160554
12.883235
8.293244
1.142387
-5.380080
-8.071886
-5.235210
2.662701
13.401752
24.080572
32.182278
36.105305
35.242889
29.958572
21.304798
10.360584
-2.150501
-15.445834
-28.051569
-37.831604
-42.766392
-41.870865
-35.755356
-26.663687
-17.767191
-11.789483
-9.799099
-11.036204
-13.765966
-16.357904
-17.787821
-17.534056
-15.488053
-12.124269
-8.437222
-5.325676
-2.950482
-0.798787
1.703329
4.923386
9.289297
15.240762
22.603970
30.341272
37.200882
42.532593
46.408619
49.115936
50.758991
51.249111
50.265339
47.160725
41.330173
32.953274
23.227160
13.628116
4.992773
-2.494431
-8.642983
-13.025215
-15.168707
-14.436617
-10.118093
-2.487157
6.362073
13.466713
16.895535
16.471739
13.225026
9.011083
6.083083
5.681473
6.800580
7.058163
5.170909
2.216058
0.175578
-0.389537
-0.827318
-2.631431
-5.591307
-8.077353
-8.867371
-8.081255
-6.511404
-4.649530
-2.398047
0.605096
4.528311
9.057218
13.341771
16.367062
17.708473
17.942039
18.163340
19.089117
20.636372
22.219900
23.144436
22.652510
20.045568
15.125969
8.394082
0.719886
-6.925822
-13.392173
-17.487207
-18.558754
-16.869373
-13.325114
-8.968821
-4.787587
-1.681759
-0.073002
0.644461
1.840732
4.387692
7.711913
10.269131
10.857108
9.452746
7.045976
4.852858
3.493003
2.607493
1.240557
-1.305134
-4.975021
-9.138665
-12.997144
-15.871422
-17.366314
-17.470465
-16.538895
-15.098992
-13.608115
-12.352124
-11.580096
-11.668203
-12.818210
-14.444385
-15.190328
-13.823542
-10.151608
-5.167965
-0.429064
2.726063
3.597916
2.227869
-0.707905
-4.281276
-7.740367
-10.660984
-12.823347
-13.961388
-13.695829
-11.834289
-8.728600
-5.330229
-2.845420
-2.189507
-3.689205
-7.139272
-11.857577
-16.632248
-19.887915
-20.305355
-17.569300
-12.630526
-7.337856
-3.675531
-2.876330
-4.959355
-8.995870
-13.680823
-17.866997
-20.855619
-22.165552
-21.208307
-17.492832
-11.137421
-3.120395
4.955200
11.432644
15.265149
16.408846
15.459175
12.879411
8.797542
3.315930
-3.306119
-10.546277
-17.602051
-23.719648
-28.437868
-31.419991
-32.369129
-31.170694
-27.914597
-22.827108
-16.242367
-8.597724
-0.402524
7.844153
15.581474
21.974827
25.969854
26.751249
24.249630
19.216398
12.926565
6.868357
2.309159
-0.164974
-0.582313
0.839488
3.833295
8.005602
12.830619
17.531490
20.918474
21.657442
19.012342
13.454690
6.457558
-0.316909
-5.567974
-8.468857
-8.592324
-5.757405
-0.149229
7.402768
15.617160
23.267685
29.402466
33.239613
34.169800
32.096355
27.620426
21.573490
14.412613
6.230526
-2.723398
-11.507259
-18.458591
-22.050402
-21.879776
-18.582106
-12.922579
-5.397450
3.269096
11.818923
18.855270
23.068195
23.320810
19.301229
11.969247
3.015970
-5.927273
-13.525520
-18.636629
-20.434298
-18.782209
-14.445879
-8.765912
-3.066255
1.580565
4.374413
4.838000
2.832155
-1.269540
-6.372272
-10.838409
-13.127189
-12.593652
-9.800050
-6.004041
-2.382457
0.436811
2.438631
3.912061
5.087468
6.017318
6.608734
6.621675
5.691326
3.552259
0.212219
-4.097226
-8.918957
-13.512910
-16.783756
-17.300262
-13.928763
-6.780365
2.698244
12.680762
21.956549
30.025492
36.462955
40.554592
41.464966
38.533058
31.773895
22.422750
12.554448
3.821731
-3.119889
-8.134118
-11.281104
-12.714724
-12.333141
-9.920194
-5.912110
-1.584675
1.768270
3.546016
3.501182
1.254353
-3.255065
-9.321924
-15.869879
