EVENT_NAME: L_AQUILA
EVENT_ID: IT-2009-0009
EVENT_DATE_YYYYMMDD: 20090406
EVENT_TIME_HHMMSS: 013240
EVENT_LATITUDE_DEGREE: 42.3420
EVENT_LONGITUDE_DEGREE: 13.3800
EVENT_DEPTH_KM: 8.3
HYPOCENTER_REFERENCE: INGV-CNT_Seismic_Bulletin
MAGNITUDE_W: 6.1
MAGNITUDE_W_REFERENCE: INGV-CNT_Seismic_Bulletin
MAGNITUDE_L: 
MAGNITUDE_L_REFERENCE: 
FOCAL_MECHANISM: Normal faulting
NETWORK: IT
STATION_CODE: MTR
STATION_NAME: 
STATION_LATITUDE_DEGREE: 42.524021
STATION_LONGITUDE_DEGREE: 13.244796
STATION_ELEVATION_M: 975
LOCATION: 
SENSOR_DEPTH_M: 0.0
VS30_M/S: 689
SITE_CLASSIFICATION_EC8: B
MORPHOLOGIC_CLASSIFICATION: 
EPICENTRAL_DISTANCE_KM: 23.1
EARTHQUAKE_BACKAZIMUTH_DEGREE: 331.2
DATE_TIME_FIRST_SAMPLE_YYYYMMDD_HHMMSS: 20090406_013231.000
DATE_TIME_FIRST_SAMPLE_PRECISION: seconds
SAMPLING_INTERVAL_S: 0.005000
NDATA: 27200
DURATION_S: 136.000
STREAM: HNZ
UNITS: cm/s^2
INSTRUMENT: sensor = FBA-3 [Kinemetrics] | digitizer = Etna [Kinemetrics]
INSTRUMENT_ANALOG/DIGITAL: D
INSTRUMENTAL_FREQUENCY_HZ: 214.000
INSTRUMENTAL_DAMPING: 0.700000
FULL_SCALE_G: 1.0
N_BIT_DIGITAL_CONVERTER: 18
PGA_CM/S^2: 22.675711
TIME_PGA_S: 25.140000
BASELINE_CORRECTION: BASELINE NOT REMOVED
FILTER_TYPE: 
FILTER_ORDER: 
LOW_CUT_FREQUENCY_HZ: 
HIGH_CUT_FREQUENCY_HZ: 
LATE/NORMAL_TRIGGERED: NT
DATABASE_VERSION: 0.5
HEADER_FORMAT: DYNA 1.2
DATA_TYPE: ACCELERATION
PROCESSING: converted to cm/s^2
DATA_TIMESTAMP_YYYYMMDD_HHMMSS: 20211011_155909.374
DATA_LICENSE: CC-BY3_0-IT (http://creativecommons.org/licenses/by/3.0/deed.en)
DATA_CITATION: Luzi L, Pacor F, Puglia R (2019). Italian Accelerometric Archive v 3.0 - Istituto Nazionale di Geofisica e Vulcanologia, Dipartimento della Protezione Civile Nazionale. doi: 10.13127/itaca.3.1
DATA_CREATOR: ITACA working group
ORIGINAL_DATA_MEDIATOR_CITATION: data obtained within the DPC-INGV data exchange agreements
ORIGINAL_DATA_MEDIATOR: Archive of Italian Department of Civil Protection
ORIGINAL_DATA_CREATOR_CITATION: Presidency Of Counsil Of Ministers-Civil Protection Department. (1972). Italian Strong Motion Network. Presidency of Counsil of Ministers - Civil Protection Department. https://doi.org/10.7914/SN/IT http://www.fdsn.org/networks/detail/IT/
ORIGINAL_DATA_CREATOR: network: IT (Italian Strong Motion Network (RAN)); owner: Presidency of Counsil of Ministers - Civil Protection Department (PCM - DPC)
USER1: 
USER2: 
USER3: 
USER4: 
USER5: 
[...]
1.807126
0.914693
-0.390209
-1.741982
-2.739407
-3.381546
-4.369596
-5.473420
-5.542789
-4.371471
-2.677536
-0.711513
1.689010
3.636754
4.155386
3.153978
0.907428
-1.671909
-3.494506
-3.844167
-3.236010
-2.936033
-3.075475
-3.368187
-3.642620
-3.430995
-2.251943
0.058352
3.091639
6.453729
9.703094
11.183300
9.474595
5.503644
1.103585
-2.544421
-5.548649
-8.218213
-9.581470
-9.803640
-10.440620
-11.770370
-12.681080
-12.193150
-10.435940
-7.631617
-3.842761
0.392076
4.568793
7.928306
9.910500
10.676380
9.926202
7.025561
2.172255
-3.114613
-7.272815
-9.865746
-10.390240
-8.911442
-6.882376
-5.468732
-4.990175
-5.155162
-5.288043
-4.846982
-3.923380
-3.224058
-3.457712
-4.768707
-6.477407
-7.481159
-6.933700
-5.115790
-2.945876
-0.784866
1.374268
3.427238
4.550045
4.164995
3.231784
2.941884
3.302794
3.172726
1.426295
-1.974464
-5.930417
-9.208138
-11.164080
-11.321570
-9.780439
-7.762622
-6.738246
-7.043848
-7.864802
-8.192200
-7.113921
-4.134068
0.048508
3.475750
4.294829
1.904853
-2.647773
-7.162433
-9.364689
-7.715517
-2.764952
3.314278
8.296716
10.645440
10.120950
7.403814
4.003289
1.702603
1.345442
2.509495
3.886344
4.166167
2.337242
-1.655738
-6.371711
-10.176500
-11.853800
-10.648500
-6.778790
-1.132653
4.251004
6.940724
6.203670
3.059063
-0.243267
-2.312642
-3.808779
-5.007283
-5.261326
-4.296946
-2.849086
-2.244210
-2.232257
-1.114139
1.884933
5.533876
7.947757
8.790272
8.729808
7.856827
6.198045
4.951967
4.876270
5.317096
5.288739
4.116014
2.478794
1.328803
1.577690
3.836191
7.173675
10.770590
13.930430
15.487270
15.013160
13.953630
14.508360
16.805290
19.464310
20.570950
18.881229
14.903250
9.987135
6.656917
5.586138
5.740345
7.089540
8.351789
9.047128
9.028848
7.206251
4.550982
2.748539
4.287330
9.877221
15.799670
19.015280
18.359550
14.220100
8.557321
3.178819
0.356454
0.312395
1.480432
2.662061
2.284512
0.444338
-3.112269
-8.032602
-11.604680
-12.882390
-11.409930
-8.209776
-5.917058
-5.427486
-6.753714
-8.597872
-9.005185
-7.244224
-4.749255
-3.453728
-2.947750
-2.037038
0.240916
4.068909
7.530367
8.591068
7.227577
5.065865
4.071955
4.285689
4.018522
2.525431
0.573000
-0.590350
-1.032348
-1.297172
-1.441536
-1.796587
-1.586837
0.395826
3.553088
6.055087
6.744098
5.369826
2.715261
0.606982
0.009839
-0.217956
-2.101017
-5.783240
-9.769893
-12.537180
-13.457970
-12.781380
-10.546550
-7.689269
-4.955724
-2.267411
-0.253813
-0.106168
-2.121172
-4.594579
-6.174382
-5.786521
-3.488881
-1.300687
-0.536448
-2.566216
-7.018772
-11.223850
-13.053940
-11.169240
-6.106653
-0.596912
2.486997
1.309116
-3.799171
-10.367970
-15.500400
-17.166439
-16.304239
-14.547970
-12.294390
-10.710840
-11.075500
-13.791700
-17.068020
-18.738510
-18.549620
-16.510481
-13.295100
-10.618740
-9.962300
-11.887310
-15.466650
-18.698669
-20.218010
-19.578690
-17.350889
-15.140190
-13.804350
-13.561090
-14.506720
-15.582420
-15.315960
-13.933250
-12.628820
-11.611000
-10.990660
-11.442030
-13.206270
-15.349470
-16.307060
-15.405010
-13.577030
-12.070340
-10.746230
-8.569749
-4.463573
1.749240
8.675905
14.229940
16.435949
14.551010
9.549824
3.489812
-1.540434
-3.677071
-1.785572
2.496136
6.104771
7.120944
5.344516
2.305370
-0.198504
-1.049456
-0.054609
1.989456
4.008679
5.088597
4.961576
4.041489
2.640735
1.206468
0.349657
-0.269514
-1.784400
-4.896900
-8.961595
-12.513750
-14.277990
-13.438290
-9.646855
-3.852604
1.211624
3.260376
1.626671
-2.962281
-8.691849
-12.855210
-12.315720
-6.243049
3.053673
11.581940
15.777640
14.715060
9.948700
4.053207
-0.407083
-1.651286
0.313566
3.670033
6.191014
6.509975
4.762841
2.191706
-0.258265
-2.294831
-3.927833
-5.098448
-5.665124
-5.978929
-6.249611
-6.046423
-5.195003
-4.409203
-4.019701
-3.318738
-1.916813
-0.127260
1.370049
1.938835
1.644951
1.800095
3.471532
5.900880
7.969084
9.359526
9.960652
8.687389
5.381544
1.935788
-0.156554
-0.303028
0.745253
1.996252
3.188428
3.786508
3.821896
3.980556
4.666754
5.584732
5.870883
5.100550
4.042192
3.600194
4.129138
5.497317
7.569973
10.088850
11.541160
11.423980
11.018310
11.223840
11.413200
9.992993
7.086259
3.779712
-0.201785
-5.105947
-9.907929
-13.525240
-15.292520
-14.886850
-13.330950
-12.203690
-11.167600
-8.911911
-6.398428
-5.281950
-5.397488
-5.714573
-4.864559
-2.128672
1.523553
4.159839
4.255692
1.585189
-2.577700
-6.168758
-7.794261
-6.786993
-2.676599
4.163824
11.859420
17.812799
20.179569
18.866940
15.480940
12.237670
10.786530
11.319690
12.992770
14.591320
14.723260
12.875350
9.767074
6.279836
2.822596
-0.368413
-2.577700
-2.918456
-1.452551
1.058589
3.576993
5.227103
6.061415
6.458182
6.691836
6.657620
5.999545
4.795416
3.024847
0.806889
-1.468018
-3.490757
-4.568097
-4.316397
-2.835493
-0.609333
1.310523
2.046405
1.377549
-0.210222
-2.011024
-3.127503
-3.323660
-2.548640
0.069835
4.180228
8.249141
10.631380
10.603260
8.793553
6.660666
6.280773
8.304449
11.725130
14.722090
15.731000
14.364230
10.975890
6.562940
1.612375
-3.431230
-7.675207
-10.584520
-11.840210
-11.689750
-10.736850
-9.131035
-6.811366
-4.421390
-2.591527
-0.930871
0.668852
1.850716
2.488403
2.234125
1.606516
1.188422
0.689710
0.096083
-1.091874
-2.781825
-4.250074
-5.617315
-6.944950
-8.185871
-8.995342
-8.712473
-7.436162
-5.872296
-4.710352
-4.522866
-5.684341
-8.347343
-11.710840
-14.767560
-16.879120
-16.783501
-14.695620
-11.790290
-8.970968
-7.686222
-7.885426
-9.101272
-10.971910
-11.813720
-10.351800
-6.374758
-0.976336
3.535511
5.885881
5.797294
3.702608
1.229904
-0.358805
-0.358805
0.996484
3.074999
4.961576
5.380607
4.548872
2.791896
0.755096
-1.153510
-3.502943
-5.214923
-5.293199
-3.860572
-1.293890
1.449028
3.978681
6.304209
8.185630
9.861988
11.471320
12.559440
12.809030
12.265790
11.919650
12.695130
14.474370
16.927860
19.011061
20.043640
20.168791
19.727501
19.666090
19.712730
19.608910
19.642891
19.162930
18.345020
17.123320
15.661400
14.929030
15.094480
15.720690
16.197611
16.187059
15.039410
12.685290
9.522170
7.222890
6.556143
6.886118
8.785819
10.586850
11.880980
12.627640
12.270710
12.111120
11.235090
10.054160
9.139933
8.444126
9.187976
10.615450
12.521470
14.610300
15.162920
13.975190
10.865980
6.515131
2.728385
-0.680812
-2.972827
-3.614731
-3.404747
-1.872285
-0.500591
-0.823301
-2.565982
-5.693012
-8.497333
-9.593890
-8.824965
-6.560603
-4.442247
-3.140158
-2.795418
-3.074303
-3.694882
-4.738475
-5.555210
-6.049939
-5.888466
-4.733553
-3.329987
-2.231554
-1.892674
-2.418806
-3.779485
-6.376399
-9.302115
-12.086280
-14.149090
-14.782330
-14.695380
-13.839040
-12.533430
-10.925270
-8.780670
-6.528028
-4.831749
-3.976814
-3.427246
-2.612620
-1.218662
0.580734
2.429345
3.965088
5.133829
6.005169
6.707538
6.759800
5.253351
2.331618
-0.882594
-2.660663
-2.469193
-0.976102
1.081790
3.106403
4.983371
6.640981
8.158679
9.188913
9.240941
8.183520
5.663945
2.063982
-1.500594
-3.849323
-4.230154
-2.894552
-0.644721
1.295992
1.553786
0.352938
-1.209287
-3.056727
-4.660200
-5.783240
-5.828940
-3.882367
-1.109920
1.621749
3.275609
3.266938
2.224516
0.300208
-1.479033
-1.834553
-0.453017
1.683619
3.394897
4.236943
4.571136
4.781824
5.063521
5.475990
5.593403
5.944939
6.460291
7.480449
8.902998
9.914249
10.786760
10.671220
9.851208
9.064470
8.164537
6.703788
4.894550
3.005395
0.566203
-1.790728
-4.023216
-6.274922
-8.883084
-11.919180
-14.354160
-15.533910
-14.432670
-10.815360
-5.798707
-0.191239
4.190072
6.003294
5.462163
2.962508
-0.001410
-2.798230
-5.065638
-6.070328
-5.931588
-4.554973
-2.498019
-0.634175
0.881414
2.007501
2.727916
2.609565
1.354582
-0.183974
-1.328341
-1.889861
-2.105470
-2.409197
-2.895255
-3.879087
-5.339367
-7.278440
-10.003080
-13.011990
-15.658820
-17.033800
-16.043409
-12.719750
-7.496861
-1.878612
1.881417
2.563397
0.314035
-3.351079
-6.688562
-8.429369
-8.143922
-6.105481
-3.019932
0.060695
2.397472
3.594804
3.685266
3.222410
2.772209
2.802442
3.500826
4.236709
4.256394
3.417864
1.540427
-1.658785
-5.972601
-10.624830
-14.372440
-16.282681
-16.271900
-14.933250
-13.334230
-12.232990
-11.554520
-10.976830
-10.302590
-9.359533
-8.220556
-7.009632
-5.726057
-4.559426
-4.129146
-4.695353
-5.696528
-6.886126
-8.323440
-9.807390
-11.006360
-11.851920
-12.684830
-13.587340
-14.591090
-15.639610
-16.407829
-16.775070
-16.566959
-15.550550
-13.368220
-10.125650
-6.569509
-3.117191
-0.256156
1.702134
2.831033
2.881420
1.768691
-0.309121
-3.037978
-6.165243
-9.639121
-12.954810
-15.185190
-15.713430
-14.641480
-12.549610
-10.053000
-7.600681
-5.577943
-4.043839
-2.576528
-0.987117
0.682445
2.237172
3.101716
2.922432
2.001408
1.137567
1.284978
2.899700
5.503644
7.741054
8.775742
8.563648
7.809486
8.148836
10.010100
12.962540
15.917780
17.567190
17.895760
16.918720
14.774590
12.314300
10.404990
9.464049
9.501781
10.075020
10.648260
10.270000
8.759336
7.322960
6.015481
4.764950
3.612381
2.669327
2.380598
1.958989
1.156784
0.207402
-0.312636
0.164750
1.317319
3.521215
6.316161
9.073141
11.794730
14.028160
15.725140
16.702641
16.998871
16.729130
15.555470
13.675920
11.635840
9.670987
7.687621
5.841353
4.125389
1.959692
-0.651283
-3.512317
-6.312184
-8.311487
-9.357424
-9.398905
-8.406871
-7.050644
-6.518888
-7.455380
-8.922457
-9.763565
-10.081820
-10.101980
-9.283835
-7.373354
-5.197112
-3.502006
-2.446226
-1.948919
-1.637693
-1.714094
-1.950794
-1.665113
-1.069376
-0.543713
-0.560586
-1.279595
-2.216555
-2.902519
-2.990403
-2.488410
-1.712921
-1.220537
-1.506921
-2.105704
-2.191010
-1.319201
0.100536
1.289430
1.991565
2.006798
1.389032
0.653150
0.406606
0.555189
0.670258
0.549564
0.123737
-0.179287
-0.108511
0.627840
2.301386
4.542779
6.781595
8.337962
8.909091
8.550056
7.338428
5.563171
3.695812
2.313338
1.749005
1.837827
2.295527
2.701433
2.389738
1.177642
-0.749947
-2.928533
-4.869481
-6.668642
-8.212120
-9.369142
-10.442500
-11.747630
-13.277050
-14.209090
-13.683190
-11.767320
-8.863868
-5.120712
-0.881422
2.930869
5.380373
6.360924
6.293663
5.621526
5.024618
4.895253
5.037273
4.963919
4.083908
2.092573
-0.626675
-2.665115
-2.579809
-0.034923
4.292017
9.108061
12.887070
14.267200
13.245170
11.164310
9.321325
8.395614
8.460766
9.459127
11.051820
12.433360
12.838330
11.936750
10.001200
7.572317
5.180700
3.147884
1.812282
1.313101
1.178111
1.063510
0.463790
-1.169681
-3.714802
-6.795898
-9.601390
-11.492890
-12.552420
-12.855910
-12.468050
-11.361180
-9.880041
-9.028386
-9.239542
-10.312200
-12.068470
-14.006140
-15.461500
-16.314091
-16.942400
-17.742729
-18.697741
-19.861561
-21.026079
-21.140209
-19.914289
-17.850071
-15.466180
-13.181670
-11.135960
-9.738724
-8.900193
-7.888707
-6.409208
-4.560833
-2.383418
0.039368
2.244671
3.895250
4.988996
5.661367
5.797997
5.176013
4.105468
2.816737
1.318959
-0.389037
-1.992979
-2.864319
-2.987357
-2.692535
-2.315220
-2.174371
-2.057896
-1.496610
-0.241158
1.777128
4.204602
6.656448
8.773164
10.021590
10.285470
9.456315
7.829173
6.139925
4.698861
3.962511
4.374042
5.942830
8.250781
10.457490
11.735670
11.731690
10.540220
8.293434
5.229681
1.852357
-1.256394
-3.602545
-4.641217
-4.270463
-2.831743
-0.548400
2.018985
4.199212
5.758156
6.984783
8.427486
10.515610
13.478120
16.889900
19.718121
20.870920
19.671009
16.274010
11.404530
5.910254
0.539018
-4.064463
-7.453505
-9.466868
-10.337510
-10.576320
-10.249390
-9.493586
-8.509753
-7.366558
-6.658330
-6.675438
-7.466863
-8.984796
-10.755130
-12.534610
-13.666080
-13.104090
-10.692560
-6.971198
-2.855179
0.640261
2.928994
4.117421
5.037742
6.206951
7.727930
9.733326
11.979640
14.056980
15.184480
14.619440
12.669820
10.045720
7.355771
4.955014
2.833377
1.085305
-0.384350
-1.619413
-2.207884
-1.966027
-1.046409
0.037259
0.706115
0.751346
-0.261078
-2.524267
-5.390457
-7.756060
-8.907458
-9.255479
-8.951283
-8.021821
-6.900656
-5.494512
-3.713865
-1.413882
1.055542
3.329980
5.604418
7.502009
8.873468
9.609117
9.661378
9.351323
8.519355
7.209531
5.595278
3.336308
0.320363
-2.829166
-5.385301
-7.289924
-9.187984
-11.296260
-12.761700
-13.504380
-14.355330
-15.327910
-16.245661
-16.780930
-16.528521
-15.902790
-14.760530
-12.711080
-10.876290
-10.404300
-11.179790
-12.248460
-12.619680
-11.987150
-10.513040
-8.643572
-6.872299
-5.927838
-5.856828
-6.138760
-6.966744
-7.590135
-6.605600
-3.807842
-0.014768
3.150462
4.375448
4.302094
4.027193
3.338417
2.475044
2.634876
3.848378
4.421382
3.270219
1.657840
1.281462
2.325524
4.062815
5.976343
8.163835
11.024640
14.371260
17.554770
20.066380
21.260660
21.414400
21.503920
21.959511
22.675711
22.655090
21.227150
18.912399
17.136440
17.070351
17.686710
16.952700
15.220800
14.838800
15.547260
14.832940
12.667250
11.128460
10.546310
9.576541
8.267421
7.583332
6.798234
5.573717
5.173201
5.417401
5.556140
5.801278
6.564815
7.630203
8.596458
10.048540
12.284310
14.414610
15.271190
15.206980
14.759120
13.038470
10.480690
9.671221
12.082520
15.768030
18.264170
18.776711
18.067310
17.944969
18.599060
19.066370
18.926460
18.213310
17.281269
16.614759
16.418131
15.975200
14.767790
13.008240
11.107830
9.227583
7.210469
4.874864
2.457468
1.457465
1.438950
-0.385287
-3.525676
-5.184691
-5.873233
-8.158452
-11.238610
-12.243300
-11.246340
-10.688340
-11.995580
-14.449540
-16.484461
-17.240271
-16.939819
-16.526880
-16.460791
-16.010599
-14.520790
-12.137610
-9.304928
-6.708951
-4.521694
-2.559889
-1.082031
-0.310058
-0.527776
-1.172025
-0.893140
0.423714
1.727444
1.783456
0.150219
-2.404041
-4.711993
-6.046892
-6.787695
-7.891050
-9.659276
-11.229940
-11.003780
-9.015965
-7.071971
-6.278203
-6.975884
-8.898552
-11.415550
-13.906530
-15.353460
-15.366580
-14.512110
-13.398920
-12.557810
-11.978710
-11.137370
-9.558737
-7.122358
-4.317335
-1.557543
1.103819
3.858924
6.268118
7.556146
7.966975
7.766599
6.988767
5.844166
4.936265
4.202961
2.719010
0.737753
-1.228270
-2.989935
-4.222889
-4.524976
-3.610044
-1.953841
-0.354352
0.177170
-0.763071
-2.356701
-3.757221
-4.430998
-4.099148
-3.002121
-1.702844
-1.120700
-1.982901
-3.727458
-5.096807
-5.325071
-4.425842
-3.015480
-1.760028
-0.904857
-0.436846
-0.527308
-1.096562
-1.737295
-2.296706
-2.885880
-3.829871
-5.332102
-7.162199
-8.324377
-8.276802
-7.779262
-7.236021
-6.627395
-6.241174
-6.269766
-6.377570
-6.309607
-6.182585
-5.807613
-5.008220
-3.931348
-3.042197
-2.877677
-3.475055
-4.489822
-5.468029
-6.136651
-6.619193
-7.113687
-7.689269
-8.310315
-8.864101
-9.346878
-9.753488
-9.930897
-9.629045
-8.642868
-7.197118
-5.778318
-4.889636
-4.502711
-3.950097
-3.002824
-1.787447
-0.498248
0.657369
1.546520
1.961333
1.844389
1.177876
0.069835
-1.084610
-1.956653
-2.419509
-2.321079
-1.823772
-1.260846
-0.749010
-0.509262
-0.568555
-0.886109
-1.320608
-1.853536
-2.609807
-3.289443
-3.938848
-4.591064
-5.003064
-5.153287
-5.121181
-5.168286
-5.483966
-5.975413
-6.497092
-7.012679
-7.138060
-6.558963
-5.573021
-4.547239
-3.880961
-3.840652
-4.329756
-5.060716
-5.498730
-5.297886
-4.737538
-4.189376
-4.063057
-4.644732
-5.780663
-7.015491
-7.730515
-7.850506
-7.462176
-6.610521
-5.614972
-4.697463
-4.277494
-4.640279
-5.566694
-6.499905
-6.910030
-6.616849
-5.558726
-4.070087
-2.833853
-2.381778
-2.843696
-3.953143
-5.110166
-5.932994
-6.317340
-6.217035
-5.914714
-5.419752
-5.270232
-5.750431
-6.425145
-7.306797
-7.662551
-7.081814
-5.267654
-2.183746
0.882352
3.258032
4.663942
5.352952
5.950564
6.502475
7.202032
8.042203
8.656454
8.814645
7.955960
5.839010
2.988053
-0.124682
-2.699566
-4.294368
-4.994159
-4.876277
-4.608407
-4.536224
-4.612625
-4.849326
-4.935335
-4.507399
-3.141095
-0.822598
1.826343
4.127498
5.399824
5.446227
4.845569
4.036567
3.219363
2.664171
2.323181
2.141085
2.070544
2.079449
2.302323
2.618705
3.020394
3.502936
4.049457
4.768700
5.525440
6.511147
7.767068
8.839487
9.492875
9.621537
9.521467
9.491235
9.320154
8.840425
7.911666
6.603249
5.128204
3.516528
2.064216
1.156550
0.869462
1.149988
1.879777
2.767288
3.576289
4.033755
3.888688
3.570431
3.637457
4.064925
4.608634
5.165467
5.722300
6.329051
6.799172
6.719022
6.169688
5.382247
4.552388
4.406383
5.540907
7.651764
9.813242
11.102910
11.254300
10.647320
9.757934
8.893858
8.304684
8.018299
7.749257
7.595987
7.512321
7.052981
6.094225
4.893612
3.674485
2.502933
1.856107
1.633467
1.363487
1.151160
1.398641
2.415986
3.459814
3.826114
4.123280
4.734249
4.604415
3.275140
1.803845
1.174127
1.465199
1.348020
0.115769
-1.073126
-1.608398
-1.899470
-2.245850
-2.455835
-2.342640
-2.314517
-3.126096
-4.739647
-5.811363
-5.504355
-4.251480
-3.077350
-2.588715
-2.446226
-2.518408
-2.795184
-2.962281
-3.056024
-3.066804
-2.682693
-2.045006
-1.340762
-0.513715
0.300443
1.062104
1.861966
2.647766
3.061406
2.764241
2.016641
1.419499
1.378955
2.069840
3.276781
4.342404
4.719719
4.389744
3.773384
3.136869
2.526369
2.110853
1.837827
1.424186
1.010780
1.135223
1.985706
3.277015
4.619414
5.691599
6.216559
5.998138
5.326236
4.807134
4.609571
4.424194
4.004695
3.467548
3.169211
3.301154
3.462860
3.086951
2.272794
1.449497
0.819075
0.416449
0.171546
-0.029064
-0.204363
-0.322011
-0.461219
-0.591522
-0.611676
-0.649877
-0.819083
-0.915638
-0.694639
-0.109214
0.820247
1.910243
2.976803
4.033989
5.099378
6.103599
6.799172
6.889868
6.296944
5.119767
3.621052
2.083199
0.656431
-0.574179
-1.746200
-3.043837
-4.438029
-5.818394
-6.988306
-7.845585
-8.537173
-9.275633
-9.932302
-10.189860
-9.989720
-9.304693
-8.416479
-7.590370
-6.914717
-6.678251
-6.830817
-7.178838
-7.434756
-7.392103
-7.054160
-6.583570
-6.435691
-6.820037
-7.821211
-9.257354
-10.634200
-11.523820
-11.584520
-10.720210
-8.996045
-6.936747
-5.494512
-5.150241
-5.708949
-6.587789
-7.064472
-6.914248
-6.450690
-5.768710
-4.752302
-3.330456
-1.520280
0.579093
2.960164
5.336079
7.210000
8.451859
9.135949
9.404523
9.501312
9.635130
9.820741
9.779963
9.277267
8.135946
6.331395
4.425132
3.059298
2.543945
2.755336
3.277718
3.745730
3.853769
