EVENT_NAME: L_AQUILA
EVENT_ID: IT-2009-0009
EVENT_DATE_YYYYMMDD: 20090406
EVENT_TIME_HHMMSS: 013240
EVENT_LATITUDE_DEGREE: 42.3420
EVENT_LONGITUDE_DEGREE: 13.3800
EVENT_DEPTH_KM: 8.3
HYPOCENTER_REFERENCE: INGV-CNT_Seismic_Bulletin
MAGNITUDE_W: 6.1
MAGNITUDE_W_REFERENCE: INGV-CNT_Seismic_Bulletin
MAGNITUDE_L: 
MAGNITUDE_L_REFERENCE: 
FOCAL_MECHANISM: Normal faulting
NETWORK: IT
STATION_CODE: MTR
STATION_NAME: 
STATION_LATITUDE_DEGREE: 42.524021
STATION_LONGITUDE_DEGREE: 13.244796
STATION_ELEVATION_M: 975
LOCATION: 
SENSOR_DEPTH_M: 0.0
VS30_M/S: 689
SITE_CLASSIFICATION_EC8: B
MORPHOLOGIC_CLASSIFICATION: 
EPICENTRAL_DISTANCE_KM: 23.1
EARTHQUAKE_BACKAZIMUTH_DEGREE: 331.2
DATE_TIME_FIRST_SAMPLE_YYYYMMDD_HHMMSS: 20090406_013231.000
DATE_TIME_FIRST_SAMPLE_PRECISION: seconds
SAMPLING_INTERVAL_S: 0.005000
NDATA: 27200
DURATION_S: 136.000
STREAM: HNN
UNITS: cm/s^2
INSTRUMENT: sensor = FBA-3 [Kinemetrics] | digitizer = Etna [Kinemetrics]
INSTRUMENT_ANALOG/DIGITAL: D
INSTRUMENTAL_FREQUENCY_HZ: 212.000
INSTRUMENTAL_DAMPING: 0.700000
FULL_SCALE_G: 1.0
N_BIT_DIGITAL_CONVERTER: 18
PGA_CM/S^2: 62.233181
TIME_PGA_S: 19.560000
BASELINE_CORRECTION: BASELINE NOT REMOVED
FILTER_TYPE: 
FILTER_ORDER: 
LOW_CUT_FREQUENCY_HZ: 
HIGH_CUT_FREQUENCY_HZ: 
LATE/NORMAL_TRIGGERED: NT
DATABASE_VERSION: 0.5
HEADER_FORMAT: DYNA 1.2
DATA_TYPE: ACCELERATION
PROCESSING: converted to cm/s^2
DATA_TIMESTAMP_YYYYMMDD_HHMMSS: 20211011_155908.777
DATA_LICENSE: CC-BY3_0-IT (http://creativecommons.org/licenses/by/3.0/deed.en)
DATA_CITATION: Luzi L, Pacor F, Puglia R (2019). Italian Accelerometric Archive v 3.0 - Istituto Nazionale di Geofisica e Vulcanologia, Dipartimento della Protezione Civile Nazionale. doi: 10.13127/itaca.3.1
DATA_CREATOR: ITACA working group
ORIGINAL_DATA_MEDIATOR_CITATION: data obtained within the DPC-INGV data exchange agreements
ORIGINAL_DATA_MEDIATOR: Archive of Italian Department of Civil Protection
ORIGINAL_DATA_CREATOR_CITATION: Presidency Of Counsil Of Ministers-Civil Protection Department. (1972). Italian Strong Motion Network. Presidency of Counsil of Ministers - Civil Protection Department. https://doi.org/10.7914/SN/IT http://www.fdsn.org/networks/detail/IT/
ORIGINAL_DATA_CREATOR: network: IT (Italian Strong Motion Network (RAN)); owner: Presidency of Counsil of Ministers - Civil Protection Department (PCM - DPC)
USER1: 
USER2: 
USER3: 
USER4: 
USER5: 
[...]
-0.000941
0.002803
0.000229
-0.005387
-0.000473
-0.001877
-0.000005
-0.000707
-0.005621
-0.002579
-0.004216
-0.009364
-0.002345
0.002101
-0.008428
-0.007961
-0.002579
-0.007025
-0.005387
-0.001877
-0.002345
-0.002813
-0.002345
-0.001877
0.000696
0.001867
0.001165
0.000463
-0.000941
-0.002345
-0.005387
-0.002111
-0.000941
-0.000941
0.002335
-0.003047
-0.003515
-0.000941
-0.005153
-0.005621
-0.004919
-0.003749
-0.001175
-0.005153
-0.003983
-0.003281
-0.003281
0.001165
-0.002579
-0.002813
-0.003047
0.000696
-0.001175
-0.003983
-0.000239
0.000463
0.003271
-0.006089
-0.005387
-0.001409
-0.006791
-0.001409
-0.003983
-0.011938
-0.002345
-0.001175
-0.008896
0.002803
-0.001409
-0.004919
-0.002813
-0.005153
0.005376
-0.005621
-0.007025
0.001399
-0.004919
-0.003047
-0.000239
-0.000473
-0.005621
-0.006557
-0.003749
-0.000707
-0.000239
-0.007025
-0.004451
-0.000707
-0.002813
-0.002345
-0.002345
-0.003047
-0.003515
-0.000005
0.000229
-0.006323
-0.003281
-0.004919
-0.009832
-0.003047
-0.001175
-0.004919
-0.007727
-0.005621
-0.003983
-0.002579
0.002101
-0.006791
-0.005855
-0.000473
-0.006791
-0.001877
-0.003047
-0.003515
-0.003515
-0.005387
-0.000239
-0.002111
-0.000239
-0.001877
0.000463
-0.000005
-0.002579
0.001633
-0.004216
-0.000707
0.000463
-0.000239
0.000696
0.001867
0.001399
-0.004919
-0.001175
-0.007493
-0.005153
-0.001175
-0.009130
-0.000473
0.001165
-0.001877
-0.005387
-0.005855
0.001399
0.001633
0.001867
-0.002111
-0.003515
-0.003749
-0.003983
0.000463
-0.002111
-0.003515
0.000696
0.000696
0.001867
0.006780
0.013566
0.014736
0.010992
0.012162
0.014736
0.022457
0.034390
0.045855
0.037432
0.023861
0.017544
0.004441
0.001399
-0.009130
-0.028551
-0.030423
-0.007961
0.015438
0.032986
0.046791
0.036029
0.033454
0.035326
0.037198
0.067850
0.087738
0.095694
0.092886
0.063638
0.023861
-0.015916
-0.032295
-0.044228
-0.053119
-0.059203
-0.082133
-0.108105
-0.114656
-0.070668
-0.004685
0.061064
0.102947
0.100841
0.065510
-0.001409
-0.073008
-0.140862
-0.173854
-0.149520
-0.097342
-0.029019
0.060362
0.141320
0.167059
0.106925
-0.013342
-0.080963
-0.061074
-0.019192
-0.040016
-0.149988
-0.241241
-0.217375
-0.077453
0.071125
0.117922
0.089142
0.056151
0.069956
0.119092
0.153019
0.160741
0.145766
0.128217
0.123537
0.108095
0.045387
-0.099214
-0.293653
-0.447847
-0.492070
-0.397541
-0.211759
-0.042122
0.026201
-0.014980
-0.049843
0.047025
0.248952
0.430756
0.440115
0.232807
-0.041420
-0.201932
-0.188361
-0.109743
-0.114188
-0.203804
-0.239837
-0.137119
0.009822
0.097565
0.147170
0.258779
0.497441
0.741484
0.778220
0.509140
0.047961
-0.354722
-0.569518
-0.604381
-0.497919
-0.346533
-0.237029
-0.138289
0.032986
0.311659
0.637596
0.848414
0.807468
0.537452
0.159805
-0.195614
-0.413452
-0.471713
-0.413686
-0.304182
-0.222756
-0.193040
-0.226266
-0.319391
-0.409240
-0.384204
-0.185085
0.159337
0.542600
0.763245
0.723000
0.459770
0.072997
-0.292951
-0.551267
-0.616080
-0.461886
-0.197486
-0.018724
-0.058969
-0.198656
-0.231648
-0.065988
0.211749
0.400338
0.402444
0.280306
0.154657
0.106456
0.158635
0.307447
0.496973
0.613964
0.582611
0.383258
0.060128
-0.306756
-0.601105
-0.699144
-0.547056
-0.180873
0.270478
0.634789
0.749440
0.613964
0.346757
0.096630
-0.028785
0.001867
0.189287
0.411804
0.536282
0.539792
0.558276
0.666844
0.706855
0.509609
0.154189
-0.033699
0.073699
0.305576
0.392617
0.267904
0.206601
0.408294
0.835311
1.178563
1.088714
0.612326
0.070891
-0.254812
-0.371335
-0.407836
-0.370867
-0.180639
0.259715
0.927735
1.712277
2.394101
2.698044
2.541510
1.957022
1.032324
-0.039548
-1.086151
-1.928019
-2.270101
-1.854782
-0.726286
0.669418
1.768198
2.336073
2.622936
2.935068
3.135123
2.794210
1.695664
0.064340
-1.605591
-2.752572
-3.006443
-2.400897
-1.245258
0.003739
0.922353
1.327610
1.252034
0.887021
0.536048
0.442923
0.689072
1.120536
1.394061
1.351008
1.049405
0.595011
0.216662
0.032986
-0.120038
-0.541674
-1.371843
-2.159427
-2.158257
-1.108145
0.448773
1.467999
1.399910
0.740783
0.391213
0.696794
1.173416
1.136680
0.300428
-1.085917
-2.459158
-3.365371
-3.587420
-3.020247
-1.684443
0.109499
1.822248
2.837497
2.668094
1.323398
-0.609061
-2.336551
-3.341037
-3.471365
-2.736427
-1.414428
-0.095002
0.772604
0.946687
0.368517
-0.438956
-0.761383
-0.504705
-0.122144
0.161443
0.576995
1.213426
1.787151
2.009668
1.828566
1.246886
0.321018
-0.674342
-1.644666
-2.931568
-4.525221
-5.647400
-5.412715
-3.586719
-1.120780
0.728147
1.602773
1.683029
1.081227
-0.056629
-1.247130
-1.827172
-1.137393
0.937796
3.272236
4.203719
3.138398
1.118196
-0.486922
-1.424723
-2.444183
-4.083930
-5.640146
-5.525261
-2.980470
0.962129
4.198338
4.963694
3.076861
-0.142968
-3.088804
-5.223424
-7.095984
-8.709759
-9.011830
-6.860832
-2.348953
2.560462
5.538120
5.897517
4.798268
3.363723
1.364813
-1.349381
-3.941903
-5.632425
-6.124256
-5.374811
-3.530095
-1.349147
0.019883
0.424205
0.929138
2.262603
3.600513
3.874038
2.847325
1.431966
0.733295
0.683223
0.677841
0.217130
-0.257152
-0.789461
-0.738453
-0.088450
0.080251
0.398935
-0.647902
-2.336786
-2.393643
-1.018062
1.856644
4.240922
4.835471
4.359786
3.094176
1.738717
1.079355
0.475447
-0.200528
-0.959800
-1.957500
-2.215583
-1.915851
-1.255554
-0.901773
-0.992324
-0.351446
1.022731
2.249500
1.909757
0.189053
-1.747385
-3.209305
-2.917997
-0.718565
1.904844
3.548803
3.677259
3.002455
2.032598
0.858476
0.077911
-0.319391
-0.394499
-0.022233
0.847946
2.283427
3.867955
5.084897
5.029443
3.741137
2.635571
1.998437
0.847946
-1.583363
-4.475149
-5.792703
-4.350203
-0.101553
5.538354
9.821398
11.178960
9.293066
4.382482
-1.935038
-7.461932
-10.564770
-10.775590
-9.017446
-6.932196
-5.647166
-4.888127
-3.661359
-1.468009
1.245950
2.948639
2.536596
0.576527
-2.013890
-4.406358
-5.551935
-4.425545
-0.880714
3.971141
8.305896
10.509070
10.104050
7.399448
3.435088
-0.754364
-3.741615
-3.921079
-1.976921
0.451347
2.025111
2.256753
2.162225
2.614512
3.575711
4.043675
2.558356
-1.302350
-6.358004
-10.261300
-10.735340
-7.213911
-0.843043
5.869205
10.356750
11.311160
8.661314
4.257770
0.264395
-2.078235
-2.235237
-0.781038
1.156803
2.142804
1.751820
1.254373
1.796978
3.389929
4.784229
4.523573
2.458914
-0.237965
-1.851974
-1.762827
-0.818007
-0.434510
-1.681167
-4.405656
-7.658477
-9.402580
-7.120552
-0.593150
7.427526
13.535630
15.897680
14.596510
10.626530
5.008618
-1.063688
-6.252010
-9.691782
-11.532050
-12.039560
-10.529440
-6.145080
0.713641
7.496083
11.680390
12.454170
9.935816
5.334321
-0.270021
-6.308400
-11.551470
-14.236190
-13.427540
-10.307390
-7.075861
-5.293853
-4.811147
-4.148744
-2.637453
-0.941784
0.670120
2.525131
4.449401
5.869439
6.080724
4.484966
1.134575
-2.647982
-5.452726
-6.551273
-5.670330
-3.622050
-1.636243
-1.086619
-2.239449
-3.323020
-2.925719
-1.476901
-0.975243
-2.987022
-7.151671
-11.808850
-14.737370
-14.471100
-10.805770
-4.832674
0.946219
4.279997
4.640564
2.704127
0.182033
-0.428895
2.349644
8.005463
13.928250
16.846710
15.093490
9.095819
1.529771
-4.387640
-8.114742
-10.800620
-12.817550
-13.676270
-12.051960
-7.580795
-1.559497
4.379206
9.185201
12.473350
12.929620
9.654335
3.193618
-4.021224
-8.958716
-10.137280
-6.763963
-0.323134
7.128263
13.502410
16.366350
16.559151
16.700710
16.969790
16.381559
14.309880
8.136726
-0.838597
-8.698294
-14.418220
-16.083481
-14.644480
-12.271200
-8.393883
-3.548579
0.967277
4.514916
7.135048
8.764032
9.069145
7.643258
5.286823
3.695276
2.260731
1.298362
0.971255
-0.499089
-1.711819
-1.326684
0.310723
3.061652
5.146902
4.354638
1.675308
-0.406432
-1.246194
-0.631757
0.384896
0.459770
-0.419301
-1.892219
-2.579425
-1.846593
-0.567880
1.206173
2.826968
2.689620
1.318017
-0.146478
-0.936402
0.595714
3.948445
6.351208
7.528606
7.362479
5.274889
3.062120
0.520605
-2.501509
-3.516056
-2.116842
0.473809
3.251646
5.477986
6.832276
6.642048
4.153413
-0.348639
-5.528069
-10.602440
-15.147780
-18.040501
-18.310749
-15.285360
-9.594913
-3.239723
2.865575
8.097885
11.158610
11.717590
10.257540
7.953050
6.040713
4.462503
2.955892
1.136212
-1.476901
-4.299896
-6.277046
-6.562738
-4.917843
-2.129009
1.060402
4.237413
6.443397
7.065322
6.130563
3.817649
0.977572
-1.508956
-3.455454
-4.669354
-4.524987
-3.384324
-2.774800
-2.902555
-2.474835
-0.178300
3.674685
6.757167
6.955116
4.112934
-0.264639
-4.700006
-7.806354
-8.389905
-6.072311
-1.569558
2.797252
4.500643
2.519749
-1.827640
-5.814229
-7.255092
-5.518710
-1.443909
3.299846
6.982258
8.508524
7.557386
4.526147
-0.215269
-5.896123
-11.144110
-15.173990
-17.850981
-19.434099
-19.535410
-16.785191
-10.334060
-1.201972
7.850332
13.686080
14.464070
11.375270
7.244084
3.768746
1.157271
-0.675746
-1.133649
0.080953
2.406034
4.483094
4.832430
3.321139
0.927735
-1.208289
-2.780884
-4.189925
-5.765561
-7.928493
-10.448250
-12.425160
-13.266330
-12.551750
-9.966244
-5.696770
-1.120312
2.086882
3.607533
4.257301
4.974925
5.662364
5.183637
2.462892
-2.005467
-5.745204
-6.730504
-4.582313
-0.362677
3.775298
6.696800
8.686584
10.455020
12.649540
14.556030
14.568900
12.065990
7.698244
2.992861
-0.470543
-1.499597
0.232807
3.373317
6.363609
8.306363
8.367667
6.065750
1.391019
-4.678480
-9.797308
-11.637340
-9.403049
-3.806194
3.809459
11.777960
17.534389
18.794621
15.654810
9.870300
2.974845
-4.070126
-10.496680
-15.439790
-17.611380
-16.386709
-12.230260
-6.142740
-0.173386
3.300548
2.685877
-1.607463
-7.397119
-12.244760
-14.000800
-12.055240
-7.158925
-0.828536
5.273954
11.363810
18.091261
24.298580
28.162560
27.411949
21.214930
12.086810
2.838901
-4.584419
-9.009022
-10.620930
-10.268780
-8.735731
-5.716190
-0.981560
4.107787
6.991851
4.997855
-1.847529
-10.103360
-16.046970
-17.891451
-15.904010
-11.694900
-7.269364
-3.945881
-1.871395
-1.178807
-1.319431
-1.227710
-1.234963
-1.416065
-1.882626
-3.080381
-4.874791
-7.269364
-9.018849
-9.014872
-7.797696
-6.108111
-4.479595
-3.216325
-2.603057
-2.227984
-0.851232
2.311271
7.361777
13.415130
17.986679
18.734949
15.716580
10.304810
2.986544
-4.787515
-11.244020
-16.688551
-20.863029
-23.438471
-24.254370
-21.902849
-16.246090
-8.138141
1.947429
12.243580
19.873270
23.441740
23.069469
18.459789
9.425033
-2.733853
-15.008790
-25.373970
-33.052799
-36.991661
-38.107521
-35.474979
-27.529881
-16.678020
-4.466023
7.162190
14.493560
16.443800
14.937890
11.648330
7.088486
2.581755
-1.141838
-4.380386
-6.679963
-6.914413
-3.714005
1.962638
7.512228
11.307890
11.689040
9.536877
7.517375
6.500957
5.479156
2.775492
-1.264211
-6.518983
-12.835570
-18.673420
-23.089600
-24.875820
-23.050529
-17.275379
-8.976732
-0.588470
6.331086
10.751240
13.222100
13.858760
11.820070
6.847952
-0.327112
-7.040530
-11.410380
-12.709920
-10.652280
-5.609962
1.916777
9.001992
13.693100
17.107599
19.162670
19.471991
18.508921
15.882940
11.741920
8.338419
7.336741
8.302152
9.396721
9.360921
8.538941
6.181337
1.676945
-4.202794
-10.290080
-14.797740
-16.210060
-13.628770
-8.109594
-1.899707
3.225206
6.097338
6.735875
5.291269
1.819441
-3.655977
-10.683870
-17.403370
-21.232491
-20.902809
-16.785419
-10.101950
-3.237851
2.182815
6.691652
11.043950
13.578450
13.116340
11.206570
8.311979
4.116210
-0.363613
-4.119496
-7.213443
-8.993345
-8.538016
-6.145782
-1.891517
4.767383
13.516450
22.328211
28.967930
32.261929
32.679119
30.497940
25.145361
17.284031
7.699180
-2.739235
-12.559000
-19.628071
-22.703070
-21.420610
-14.584820
-4.141256
6.598761
15.546240
20.252090
20.436239
17.706129
13.829280
9.528218
4.397924
-1.128033
-5.665884
-9.457098
-14.049940
-18.531160
-21.378260
-22.839239
-23.541889
-22.827780
-20.272690
-16.785891
-11.277480
-3.086231
5.659089
12.173620
14.743450
14.011320
10.576690
5.277230
-0.136885
-5.005119
-8.909580
-11.103630
-10.747280
-7.884270
-3.149172
3.282297
9.822803
14.341470
15.947290
13.776400
7.896894
-0.323369
-8.926427
-15.911970
-20.597931
-22.783091
-22.565250
-20.465731
-17.081881
-13.136470
-9.384096
-6.473123
-3.620646
0.212216
4.218226
6.885857
8.162464
8.719108
8.988188
9.947046
12.277280
15.740210
19.442511
22.610161
24.106710
23.646940
23.017530
22.974010
23.531120
24.464239
25.620581
27.189659
28.087450
27.637039
25.882641
23.336210
20.906309
18.679260
16.100780
12.789700
8.283433
1.910694
-5.250098
-11.360310
-15.101220
-15.235520
-11.331060
-3.928333
4.431384
10.201850
11.562930
8.568423
2.583158
-4.582781
-11.422780
-17.394711
-22.523371
-26.018129
-27.656469
-26.229639
-19.533779
-7.505686
8.760289
26.616409
42.119129
52.948299
60.171089
62.233181
56.564259
45.491520
31.871880
19.271469
7.472451
-4.711003
-15.577370
-25.086639
-31.354090
-33.637760
-31.484890
-25.064180
-17.412029
-10.003910
-4.497143
-2.247404
-2.183293
-2.047116
-3.854394
-10.900530
-21.195280
-31.245291
-39.142651
-45.052349
-49.223782
-52.585869
-54.827648
-52.766270
-45.501591
-35.240540
-24.803289
-16.854210
-12.728870
-9.373567
-5.122812
-2.820661
-3.719152
-6.562270
-10.233450
-14.976740
-18.674360
-18.864349
-15.003650
-6.820587
3.749560
15.937930
28.789869
39.352760
45.561241
46.020550
42.994690
39.862370
37.069561
34.329159
30.840719
25.692881
19.991199
14.715600
10.222910
7.021801
3.571265
1.311699
0.643914
-1.659875
-5.014478
-10.263630
-17.259701
-22.232990
-22.623510
-17.764170
-10.448480
-4.674268
-4.399339
-8.965969
-13.257670
-14.611490
-13.031180
-11.061750
-11.563410
-14.666010
-18.257401
-20.656660
-21.581820
-22.036680
-22.891649
-24.283621
-24.766550
-20.275970
-11.339490
-1.635775
6.883986
12.772620
15.107290
13.876080
10.908950
7.203371
3.738797
1.533046
1.106965
2.437154
5.263893
9.688964
13.202670
15.745130
19.184660
23.369200
27.334499
29.905960
31.560690
31.405319
28.181511
23.833660
20.590900
18.019430
15.238550
11.948530
7.073512
0.044685
-8.606573
-15.900270
-18.760000
-16.878309
-10.292410
0.444327
13.377690
25.050369
32.430161
35.887951
36.277302
33.205349
27.374981
20.706249
14.197570
7.073277
-1.154239
-9.256107
-15.637040
-19.450010
-20.352480
-18.903191
-15.329120
-10.040180
-4.254270
0.998397
3.848300
4.188979
3.104705
0.977104
-1.486494
-5.021731
-10.217310
-16.583260
-23.694679
-30.324800
-34.539761
-34.156731
-28.343670
-18.834641
-7.712293
3.184961
12.202630
19.828119
26.501520
31.319920
31.979050
26.237820
16.171440
4.861911
-5.724146
-13.112130
-15.920620
-15.099580
-12.877680
-10.404730
-9.224520
-10.963240
-14.768030
-19.141390
-23.156059
-26.543421
-29.504459
-31.652651
-32.032410
-30.146271
-26.229639
-20.514391
-14.320650
-10.038080
-8.643776
-9.530334
-11.498830
-13.018540
-12.593400
-9.783504
-4.467661
2.775960
9.411227
13.459350
13.472690
8.787899
1.187923
-5.860558
-8.664834
-5.667288
2.508050
13.619160
24.385389
32.349442
36.328072
35.553120
29.928659
21.024229
10.369850
-1.854548
-15.154330
-28.040430
-38.139809
-43.099289
-42.288311
-36.112591
-26.506680
-17.222031
-11.216180
-9.547181
-11.160960
-14.011090
-16.427660
-17.744049
-17.708950
-15.699280
-12.118410
-8.117082
-5.019626
-3.023523
-0.986006
1.794873
5.175916
9.048555
14.853190
22.596830
30.589661
37.528400
42.529770
46.255241
49.138599
50.798000
51.066608
50.170700
47.445271
41.739849
33.118542
22.866840
13.339550
5.165854
-2.255828
-8.803118
-13.055980
-14.725440
-14.678650
-10.876900
-2.895535
6.876966
14.279930
16.829170
16.611330
13.705740
8.785559
5.234411
4.995281
7.278245
8.204581
5.485006
1.536790
-0.599234
-0.493006
0.021521
-1.920297
-6.003053
-8.676065
-8.921747
-7.888482
-6.280790
-4.555873
-2.495659
0.522945
4.399796
8.884066
13.547100
16.797110
17.879749
17.797150
17.843950
18.974310
20.784639
22.177299
23.034370
22.837589
20.354340
15.195500
8.268692
0.853328
-6.756008
-13.565590
-17.792009
-18.728880
-16.780270
-13.242930
-9.031718
-4.756395
-1.326918
0.384662
0.486210
1.218340
4.075497
7.915613
10.711470
11.153460
9.500375
6.890069
4.546269
3.231055
2.779938
1.578439
-1.212267
-4.924863
-9.180297
-13.046390
-15.928810
-17.495790
-17.483391
-16.482180
-15.039210
-13.521370
-12.442950
-11.708010
-11.300880
-12.452540
-14.505030
-15.510450
-14.210210
-10.266680
-5.024539
-0.216439
2.840305
3.845961
2.326714
-0.873461
-4.284453
-7.848938
-10.626310
-12.646280
-14.034490
-13.834440
-11.991830
-8.845235
-5.204237
-2.593230
-2.126669
-3.605905
-6.972207
-11.706840
-16.584900
-20.225189
-20.668119
-17.736320
-12.720210
-7.139972
-3.180291
-2.688227
-4.942646
-8.893201
-13.987230
-17.930059
-20.605181
-22.206320
-21.326780
-17.763000
-11.314210
-3.073361
5.034122
11.807440
15.597480
16.155769
15.266630
13.064390
8.780412
3.314119
-3.061194
-10.552840
-17.854719
-23.634081
-28.316530
-31.603279
-32.332371
-31.169941
-27.982639
-22.737230
-16.355600
-8.534740
-0.297163
7.650277
15.542730
21.968349
26.211620
27.094669
24.208731
19.345181
12.988350
6.555475
2.104665
-0.062010
-0.521551
0.704047
3.892991
8.030265
12.609760
17.460680
21.038509
22.042761
19.459591
13.320600
6.301837
-0.281954
-5.813527
-8.410262
-8.496601
-6.126361
-0.243815
7.527670
15.694350
23.359381
29.302290
33.363991
34.506290
32.191971
27.367020
21.423639
14.543160
6.313771
-2.306368
-11.412490
-19.019951
-22.361219
-21.807850
-18.266529
-12.962850
-5.851432
3.420581
12.064120
18.472891
23.371540
23.911570
19.349859
11.949930
2.775258
-5.775856
-13.574950
-18.838619
-20.556280
-19.212749
-14.073100
-8.777848
-3.128815
1.906716
4.205591
5.045588
3.030298
-1.075153
-6.341859
-11.058940
-13.570970
-12.796960
-9.554435
-6.026685
-2.015060
0.453686
2.340285
3.966228
4.934212
6.169872
6.408534
6.663106
5.935188
3.435088
0.326400
-3.973257
-8.963396
-13.276160
-16.632160
-17.845360
-14.355750
-6.816375
2.926878
13.121480
21.794500
29.834829
36.562759
40.517990
41.523651
38.924110
32.303108
22.133780
11.966780
3.983776
-3.031713
-8.470161
-11.001610
-12.438730
-12.707580
-10.218010
-5.985036
-1.113292
1.969891
3.096515
3.608937
1.801190
-3.319043
-9.538290
-15.520750
-21.865179
