EVENT_NAME: L_AQUILA
EVENT_ID: IT-2009-0009
EVENT_DATE_YYYYMMDD: 20090406
EVENT_TIME_HHMMSS: 013240
EVENT_LATITUDE_DEGREE: 42.3420
EVENT_LONGITUDE_DEGREE: 13.3800
EVENT_DEPTH_KM: 8.3
HYPOCENTER_REFERENCE: INGV-CNT_Seismic_Bulletin
MAGNITUDE_W: 6.1
MAGNITUDE_W_REFERENCE: INGV-CNT_Seismic_Bulletin
MAGNITUDE_L: 
MAGNITUDE_L_REFERENCE: 
FOCAL_MECHANISM: Normal faulting
NETWORK: IT
STATION_CODE: MTR
STATION_NAME: 
STATION_LATITUDE_DEGREE: 42.524021
STATION_LONGITUDE_DEGREE: 13.244796
STATION_ELEVATION_M: 975
LOCATION: 
SENSOR_DEPTH_M: 0.0
VS30_M/S: 689
SITE_CLASSIFICATION_EC8: B
MORPHOLOGIC_CLASSIFICATION: 
EPICENTRAL_DISTANCE_KM: 23.1
EARTHQUAKE_BACKAZIMUTH_DEGREE: 331.2
DATE_TIME_FIRST_SAMPLE_YYYYMMDD_HHMMSS: 
DATE_TIME_FIRST_SAMPLE_PRECISION: 
SAMPLING_INTERVAL_S: 
NDATA: 105
DURATION_S: 
STREAM: HNE
UNITS: cm
INSTRUMENT: sensor = FBA-3 [Kinemetrics] | digitizer = Etna [Kinemetrics]
INSTRUMENT_ANALOG/DIGITAL: D
INSTRUMENTAL_FREQUENCY_HZ: 218.000
INSTRUMENTAL_DAMPING: 0.700000
FULL_SCALE_G: 1.0
N_BIT_DIGITAL_CONVERTER: 18
PGD_CM: -0.771239
TIME_PGD_S: 
BASELINE_CORRECTION: BASELINE REMOVED
FILTER_TYPE: BUTTERWORTH
FILTER_ORDER: 2
LOW_CUT_FREQUENCY_HZ: 0.080
HIGH_CUT_FREQUENCY_HZ: 40.000
LATE/NORMAL_TRIGGERED: NT
DATABASE_VERSION: 0.5
HEADER_FORMAT: DYNA 1.2
DATA_TYPE: DISPLACEMENT RESPONSE SPECTRUM
PROCESSING: manual (Paolucci et al., 2011)
DATA_TIMESTAMP_YYYYMMDD_HHMMSS: 20211011_155910.074
DATA_LICENSE: CC-BY3_0-IT (http://creativecommons.org/licenses/by/3.0/deed.en)
DATA_CITATION: Luzi L, Pacor F, Puglia R (2019). Italian Accelerometric Archive v 3.0 - Istituto Nazionale di Geofisica e Vulcanologia, Dipartimento della Protezione Civile Nazionale. doi: 10.13127/itaca.3.1
DATA_CREATOR: ITACA working group
ORIGINAL_DATA_MEDIATOR_CITATION: data obtained within the DPC-INGV data exchange agreements
ORIGINAL_DATA_MEDIATOR: Archive of Italian Department of Civil Protection
ORIGINAL_DATA_CREATOR_CITATION: Presidency Of Counsil Of Ministers-Civil Protection Department. (1972). Italian Strong Motion Network. Presidency of Counsil of Ministers - Civil Protection Department. https://doi.org/10.7914/SN/IT http://www.fdsn.org/networks/detail/IT/
ORIGINAL_DATA_CREATOR: network: IT (Italian Strong Motion Network (RAN)); owner: Presidency of Counsil of Ministers - Civil Protection Department (PCM - DPC)
USER1: 
USER2: 
USER3: 
USER4: 
USER5: 
    0.010000     0.000109
    0.020000     0.000442
    0.022000     0.000536
    0.025000     0.000693
    0.029000     0.000975
    0.030000     0.001044
    0.032000     0.001187
    0.035001     0.001496
    0.036000     0.001644
    0.040000     0.002194
    0.041999     0.002391
    0.044001     0.002648
    0.045000     0.002753
    0.046000     0.003042
    0.048001     0.003876
    0.050000     0.004718
    0.054999     0.007529
    0.059999     0.008122
    0.064998     0.007079
    0.067002     0.009084
    0.069999     0.010467
    0.075002     0.012943
    0.080000     0.013115
    0.084998     0.015413
    0.090001     0.017223
    0.095003     0.018799
    0.100000     0.023192
    0.109999     0.031686
    0.120005     0.032172
    0.130005     0.045186
    0.132996     0.048053
    0.139997     0.050019
    0.149993     0.062105
    0.160000     0.084264
    0.170010     0.101219
    0.179986     0.104739
    0.190006     0.104567
    0.200000     0.130966
    0.220022     0.135397
    0.239981     0.168960
    0.250000     0.190062
    0.260010     0.217475
    0.280034     0.270337
    0.290023     0.245618
    0.300030     0.198857
    0.320000     0.182088
    0.340020     0.190101
    0.350017     0.207749
    0.359971     0.249214
    0.379939     0.288985
    0.400000     0.303556
    0.419992     0.316621
    0.439947     0.364439
    0.450045     0.396522
    0.459982     0.426269
    0.480077     0.465711
    0.500000     0.464225
    0.550055     0.470362
    0.599880     0.606032
    0.650195     0.728397
    0.667111     0.816362
    0.699790     0.983647
    0.750188     1.185488
    0.800000     1.475073
    0.850340     1.481060
    0.900090     1.469305
    0.949668     1.321148
    1.000000     1.472577
    1.100110     2.031296
    1.200480     1.446470
    1.300390     1.083121
    1.400560     1.168052
    1.499250     1.451855
    1.600000     1.294253
    1.700680     1.458867
    1.798561     1.322931
    1.901141     1.199281
    2.000000     1.307628
    2.197802     1.722587
    2.398082     2.041533
    2.500000     2.209030
    2.597403     2.414032
    2.801121     2.387824
    3.003003     2.134527
    3.205128     2.097718
    3.401361     2.096453
    3.496503     2.152111
    3.597122     2.252831
    3.802281     2.446594
    4.000000     2.553393
    4.201681     2.731313
    4.405286     2.730454
    4.608295     2.877154
    4.807692     2.881042
    5.000000     2.786054
    5.494505     2.251038
    5.988024     2.226726
    6.493506     2.037019
    6.993007     1.786522
    7.518797     1.564689
    8.000000     1.470015
    8.474576     1.317201
    9.009009     1.202223
    9.523809     1.151372
   10.000000     1.101032
