EVENT_NAME: L_AQUILA
EVENT_ID: IT-2009-0009
EVENT_DATE_YYYYMMDD: 20090406
EVENT_TIME_HHMMSS: 013240
EVENT_LATITUDE_DEGREE: 42.3420
EVENT_LONGITUDE_DEGREE: 13.3800
EVENT_DEPTH_KM: 8.3
HYPOCENTER_REFERENCE: INGV-CNT_Seismic_Bulletin
MAGNITUDE_W: 6.1
MAGNITUDE_W_REFERENCE: INGV-CNT_Seismic_Bulletin
MAGNITUDE_L: 
MAGNITUDE_L_REFERENCE: 
FOCAL_MECHANISM: Normal faulting
NETWORK: IT
STATION_CODE: MTR
STATION_NAME: 
STATION_LATITUDE_DEGREE: 42.524021
STATION_LONGITUDE_DEGREE: 13.244796
STATION_ELEVATION_M: 975
LOCATION: 
SENSOR_DEPTH_M: 0.0
VS30_M/S: 689
SITE_CLASSIFICATION_EC8: B
MORPHOLOGIC_CLASSIFICATION: 
EPICENTRAL_DISTANCE_KM: 23.1
EARTHQUAKE_BACKAZIMUTH_DEGREE: 331.2
DATE_TIME_FIRST_SAMPLE_YYYYMMDD_HHMMSS: 
DATE_TIME_FIRST_SAMPLE_PRECISION: 
SAMPLING_INTERVAL_S: 
NDATA: 105
DURATION_S: 
STREAM: HNZ
UNITS: cm/s^2
INSTRUMENT: sensor = FBA-3 [Kinemetrics] | digitizer = Etna [Kinemetrics]
INSTRUMENT_ANALOG/DIGITAL: D
INSTRUMENTAL_FREQUENCY_HZ: 214.000
INSTRUMENTAL_DAMPING: 0.700000
FULL_SCALE_G: 1.0
N_BIT_DIGITAL_CONVERTER: 18
PGA_CM/S^2: 22.608672
TIME_PGA_S: 
BASELINE_CORRECTION: BASELINE REMOVED
FILTER_TYPE: BUTTERWORTH
FILTER_ORDER: 2
LOW_CUT_FREQUENCY_HZ: 0.080
HIGH_CUT_FREQUENCY_HZ: 40.000
LATE/NORMAL_TRIGGERED: NT
DATABASE_VERSION: 0.5
HEADER_FORMAT: DYNA 1.2
DATA_TYPE: ACCELERATION RESPONSE SPECTRUM
PROCESSING: manual (Paolucci et al., 2011)
DATA_TIMESTAMP_YYYYMMDD_HHMMSS: 20211011_155910.502
DATA_LICENSE: CC-BY3_0-IT (http://creativecommons.org/licenses/by/3.0/deed.en)
DATA_CITATION: Luzi L, Pacor F, Puglia R (2019). Italian Accelerometric Archive v 3.0 - Istituto Nazionale di Geofisica e Vulcanologia, Dipartimento della Protezione Civile Nazionale. doi: 10.13127/itaca.3.1
DATA_CREATOR: ITACA working group
ORIGINAL_DATA_MEDIATOR_CITATION: data obtained within the DPC-INGV data exchange agreements
ORIGINAL_DATA_MEDIATOR: Archive of Italian Department of Civil Protection
ORIGINAL_DATA_CREATOR_CITATION: Presidency Of Counsil Of Ministers-Civil Protection Department. (1972). Italian Strong Motion Network. Presidency of Counsil of Ministers - Civil Protection Department. https://doi.org/10.7914/SN/IT http://www.fdsn.org/networks/detail/IT/
ORIGINAL_DATA_CREATOR: network: IT (Italian Strong Motion Network (RAN)); owner: Presidency of Counsil of Ministers - Civil Protection Department (PCM - DPC)
USER1: 
USER2: 
USER3: 
USER4: 
USER5: 
    0.010000    22.656235
    0.020000    23.140203
    0.022000    22.828465
    0.025000    24.270760
    0.029000    26.180222
    0.030000    25.967770
    0.032000    28.907343
    0.035001    34.211216
    0.036000    38.346588
    0.040000    55.521145
    0.041999    55.871239
    0.044001    62.335911
    0.045000    68.014717
    0.046000    70.210701
    0.048001    65.111595
    0.050000    63.801476
    0.054999    54.419048
    0.059999    42.748676
    0.064998    46.043129
    0.067002    48.948963
    0.069999    57.758747
    0.075002    53.973972
    0.080000    74.192993
    0.084998    79.119804
    0.090001    74.285774
    0.095003    64.984985
    0.100000    49.964035
    0.109999    52.219086
    0.120005    58.700840
    0.130005    58.662868
    0.132996    55.766796
    0.139997    57.748074
    0.149993    58.013905
    0.160000    74.845772
    0.170010    64.122658
    0.179986    66.919083
    0.190006    56.188862
    0.200000    53.322945
    0.220022    53.190624
    0.239981    62.516083
    0.250000    51.988693
    0.260010    47.297001
    0.280034    57.875957
    0.290023    57.461922
    0.300030    53.829723
    0.320000    49.404488
    0.340020    48.371067
    0.350017    52.700134
    0.359971    59.267639
    0.379939    67.830231
    0.400000    63.613514
    0.419992    55.006912
    0.439947    44.636173
    0.450045    42.156940
    0.459982    44.148262
    0.480077    49.054935
    0.500000    47.710938
    0.550055    43.723454
    0.599880    43.530861
    0.650195    55.068798
    0.667111    63.068657
    0.699790    60.494606
    0.750188    40.457195
    0.800000    35.342659
    0.850340    39.833122
    0.900090    42.916874
    0.949668    35.207359
    1.000000    30.264414
    1.100110    31.841873
    1.200480    28.997425
    1.300390    27.027245
    1.400560    24.609575
    1.499250    22.951771
    1.600000    21.910574
    1.700680    25.085728
    1.798561    25.091440
    1.901141    21.548878
    2.000000    17.109222
    2.197802    11.745111
    2.398082    13.132234
    2.500000    13.244085
    2.597403    12.979134
    2.801121    13.909045
    3.003003    14.406931
    3.205128    12.271862
    3.401361    10.214156
    3.496503     9.500576
    3.597122     8.677796
    3.802281     6.755378
    4.000000     5.838845
    4.201681     5.111699
    4.405286     4.380895
    4.608295     3.697378
    4.807692     3.089544
    5.000000     2.567273
    5.494505     2.040417
    5.988024     1.662941
    6.493506     1.349689
    6.993007     1.103807
    7.518797     0.915039
    8.000000     0.770611
    8.474576     0.659336
    9.009009     0.572647
    9.523809     0.504188
   10.000000     0.449222
