EVENT_NAME: L_AQUILA
EVENT_ID: IT-2009-0009
EVENT_DATE_YYYYMMDD: 20090406
EVENT_TIME_HHMMSS: 013240
EVENT_LATITUDE_DEGREE: 42.3420
EVENT_LONGITUDE_DEGREE: 13.3800
EVENT_DEPTH_KM: 8.3
HYPOCENTER_REFERENCE: INGV-CNT_Seismic_Bulletin
MAGNITUDE_W: 6.1
MAGNITUDE_W_REFERENCE: INGV-CNT_Seismic_Bulletin
MAGNITUDE_L: 
MAGNITUDE_L_REFERENCE: 
FOCAL_MECHANISM: Normal faulting
NETWORK: IT
STATION_CODE: MTR
STATION_NAME: 
STATION_LATITUDE_DEGREE: 42.524021
STATION_LONGITUDE_DEGREE: 13.244796
STATION_ELEVATION_M: 975
LOCATION: 
SENSOR_DEPTH_M: 0.0
VS30_M/S: 689
SITE_CLASSIFICATION_EC8: B
MORPHOLOGIC_CLASSIFICATION: 
EPICENTRAL_DISTANCE_KM: 23.1
EARTHQUAKE_BACKAZIMUTH_DEGREE: 331.2
DATE_TIME_FIRST_SAMPLE_YYYYMMDD_HHMMSS: 
DATE_TIME_FIRST_SAMPLE_PRECISION: 
SAMPLING_INTERVAL_S: 
NDATA: 105
DURATION_S: 
STREAM: HNN
UNITS: cm/s^2
INSTRUMENT: sensor = FBA-3 [Kinemetrics] | digitizer = Etna [Kinemetrics]
INSTRUMENT_ANALOG/DIGITAL: D
INSTRUMENTAL_FREQUENCY_HZ: 212.000
INSTRUMENTAL_DAMPING: 0.700000
FULL_SCALE_G: 1.0
N_BIT_DIGITAL_CONVERTER: 18
PGA_CM/S^2: 61.371238
TIME_PGA_S: 
BASELINE_CORRECTION: BASELINE REMOVED
FILTER_TYPE: BUTTERWORTH
FILTER_ORDER: 2
LOW_CUT_FREQUENCY_HZ: 0.080
HIGH_CUT_FREQUENCY_HZ: 40.000
LATE/NORMAL_TRIGGERED: NT
DATABASE_VERSION: 0.5
HEADER_FORMAT: DYNA 1.2
DATA_TYPE: ACCELERATION RESPONSE SPECTRUM
PROCESSING: manual (Paolucci et al., 2011)
DATA_TIMESTAMP_YYYYMMDD_HHMMSS: 20211011_155910.213
DATA_LICENSE: CC-BY3_0-IT (http://creativecommons.org/licenses/by/3.0/deed.en)
DATA_CITATION: Luzi L, Pacor F, Puglia R (2019). Italian Accelerometric Archive v 3.0 - Istituto Nazionale di Geofisica e Vulcanologia, Dipartimento della Protezione Civile Nazionale. doi: 10.13127/itaca.3.1
DATA_CREATOR: ITACA working group
ORIGINAL_DATA_MEDIATOR_CITATION: data obtained within the DPC-INGV data exchange agreements
ORIGINAL_DATA_MEDIATOR: Archive of Italian Department of Civil Protection
ORIGINAL_DATA_CREATOR_CITATION: Presidency Of Counsil Of Ministers-Civil Protection Department. (1972). Italian Strong Motion Network. Presidency of Counsil of Ministers - Civil Protection Department. https://doi.org/10.7914/SN/IT http://www.fdsn.org/networks/detail/IT/
ORIGINAL_DATA_CREATOR: network: IT (Italian Strong Motion Network (RAN)); owner: Presidency of Counsil of Ministers - Civil Protection Department (PCM - DPC)
USER1: 
USER2: 
USER3: 
USER4: 
USER5: 
    0.010000    61.900410
    0.020000    63.653088
    0.022000    63.843151
    0.025000    64.059769
    0.029000    64.791336
    0.030000    65.294724
    0.032000    67.054436
    0.035001    75.166992
    0.036000    78.170410
    0.040000    91.990791
    0.041999    93.404999
    0.044001    86.372971
    0.045000    82.187439
    0.046000    79.799339
    0.048001    81.230316
    0.050000    87.548424
    0.054999   115.218491
    0.059999   135.327332
    0.064998   153.613480
    0.067002   159.432465
    0.069999   154.443085
    0.075002   164.424957
    0.080000   186.596176
    0.084998   232.074783
    0.090001   186.682648
    0.095003   168.848480
    0.100000   153.448364
    0.109999   134.862488
    0.120005   120.101471
    0.130005   103.680290
    0.132996   100.925583
    0.139997   101.221802
    0.149993    93.766670
    0.160000    93.695137
    0.170010   124.799171
    0.179986   142.466049
    0.190006   156.821960
    0.200000   169.527023
    0.220022   153.974274
    0.239981   182.704285
    0.250000   186.335846
    0.260010   194.506256
    0.280034   202.329987
    0.290023   189.672424
    0.300030   157.543289
    0.320000   158.529114
    0.340020   155.780807
    0.350017   172.537308
    0.359971   182.140930
    0.379939   191.937317
    0.400000   177.585342
    0.419992   141.899216
    0.439947   100.284515
    0.450045    89.436348
    0.459982    77.652313
    0.480077    83.464218
    0.500000    87.620049
    0.550055    87.281776
    0.599880    75.524796
    0.650195    57.406193
    0.667111    55.621582
    0.699790    57.478344
    0.750188    61.938519
    0.800000    56.769321
    0.850340    45.128658
    0.900090    40.101871
    0.949668    45.070923
    1.000000    48.713287
    1.100110    39.898460
    1.200480    27.633965
    1.300390    26.178150
    1.400560    22.086964
    1.499250    23.877512
    1.600000    18.620741
    1.700680    17.569450
    1.798561    21.143385
    1.901141    21.774580
    2.000000    20.396370
    2.197802    18.083311
    2.398082    15.077209
    2.500000    12.556021
    2.597403    10.067965
    2.801121     6.805631
    3.003003     5.907318
    3.205128     5.460468
    3.401361     5.162791
    3.496503     4.793869
    3.597122     4.322369
    3.802281     3.279130
    4.000000     2.365966
    4.201681     1.904789
    4.405286     1.646078
    4.608295     1.505261
    4.807692     1.550972
    5.000000     1.544854
    5.494505     1.482010
    5.988024     1.281361
    6.493506     0.963761
    6.993007     0.693874
    7.518797     0.665648
    8.000000     0.596786
    8.474576     0.524544
    9.009009     0.448400
    9.523809     0.387289
   10.000000     0.354495
