EVENT_NAME: L_AQUILA
EVENT_ID: IT-2009-0009
EVENT_DATE_YYYYMMDD: 20090406
EVENT_TIME_HHMMSS: 013240
EVENT_LATITUDE_DEGREE: 42.3420
EVENT_LONGITUDE_DEGREE: 13.3800
EVENT_DEPTH_KM: 8.3
HYPOCENTER_REFERENCE: INGV-CNT_Seismic_Bulletin
MAGNITUDE_W: 6.1
MAGNITUDE_W_REFERENCE: INGV-CNT_Seismic_Bulletin
MAGNITUDE_L: 
MAGNITUDE_L_REFERENCE: 
FOCAL_MECHANISM: Normal faulting
NETWORK: IT
STATION_CODE: CSO1
STATION_NAME: 
STATION_LATITUDE_DEGREE: 42.100933
STATION_LONGITUDE_DEGREE: 13.088044
STATION_ELEVATION_M: 700
LOCATION: 
SENSOR_DEPTH_M: 0.0
VS30_M/S: 
SITE_CLASSIFICATION_EC8: B (inferred from geology)
MORPHOLOGIC_CLASSIFICATION: 
EPICENTRAL_DISTANCE_KM: 36.0
EARTHQUAKE_BACKAZIMUTH_DEGREE: 222.1
DATE_TIME_FIRST_SAMPLE_YYYYMMDD_HHMMSS: 20090406_013218.000
DATE_TIME_FIRST_SAMPLE_PRECISION: seconds
SAMPLING_INTERVAL_S: 0.005000
NDATA: 19280
DURATION_S: 96.400
STREAM: HNE
UNITS: cm/s^2
INSTRUMENT: sensor = FBA-3 [Kinemetrics] | digitizer = Etna [Kinemetrics]
INSTRUMENT_ANALOG/DIGITAL: D
INSTRUMENTAL_FREQUENCY_HZ: 214.000
INSTRUMENTAL_DAMPING: 0.700000
FULL_SCALE_G: 1.0
N_BIT_DIGITAL_CONVERTER: 18
PGA_CM/S^2: 18.294670
TIME_PGA_S: 39.215000
BASELINE_CORRECTION: BASELINE NOT REMOVED
FILTER_TYPE: 
FILTER_ORDER: 
LOW_CUT_FREQUENCY_HZ: 
HIGH_CUT_FREQUENCY_HZ: 
LATE/NORMAL_TRIGGERED: NT
DATABASE_VERSION: 0.5
HEADER_FORMAT: DYNA 1.2
DATA_TYPE: ACCELERATION
PROCESSING: converted to cm/s^2
DATA_TIMESTAMP_YYYYMMDD_HHMMSS: 20211011_160059.826
DATA_LICENSE: CC-BY3_0-IT (http://creativecommons.org/licenses/by/3.0/deed.en)
DATA_CITATION: Luzi L, Pacor F, Puglia R (2019). Italian Accelerometric Archive v 3.0 - Istituto Nazionale di Geofisica e Vulcanologia, Dipartimento della Protezione Civile Nazionale. doi: 10.13127/itaca.3.1
DATA_CREATOR: ITACA working group
ORIGINAL_DATA_MEDIATOR_CITATION: data obtained within the DPC-INGV data exchange agreements
ORIGINAL_DATA_MEDIATOR: Archive of Italian Department of Civil Protection
ORIGINAL_DATA_CREATOR_CITATION: Presidency Of Counsil Of Ministers-Civil Protection Department. (1972). Italian Strong Motion Network. Presidency of Counsil of Ministers - Civil Protection Department. https://doi.org/10.7914/SN/IT http://www.fdsn.org/networks/detail/IT/
ORIGINAL_DATA_CREATOR: network: IT (Italian Strong Motion Network (RAN)); owner: Presidency of Counsil of Ministers - Civil Protection Department (PCM - DPC)
USER1: 
USER2: 
USER3: 
USER4: 
USER5: 
[...]
0.004345
0.256711
0.398447
0.483816
0.539014
0.615262
0.737585
0.837456
0.807518
0.674202
0.553281
0.480542
0.475162
0.552112
0.683323
0.793719
0.781089
0.693381
0.621343
0.584622
0.571992
0.500656
0.360557
0.157074
-0.144175
-0.488926
-0.794853
-1.032484
-1.194568
-1.260759
-1.223103
-1.097037
-0.968632
-0.887239
-0.872036
-0.952026
-1.046517
-1.066164
-0.921153
-0.617098
-0.233052
0.233789
0.720044
1.177296
1.576778
1.875687
2.097648
2.247336
2.325689
2.338085
2.282654
2.136473
1.909601
1.641097
1.322775
0.976152
0.646135
0.368509
0.167365
-0.026295
-0.255038
-0.451504
-0.580377
-0.601661
-0.495943
-0.303920
-0.091082
0.036621
0.008087
-0.194227
-0.496177
-0.790175
-1.013305
-1.134225
-1.168139
-1.135395
-1.070140
-1.011434
-1.010732
-1.108497
-1.299818
-1.584227
-1.898105
-2.197249
-2.434179
-2.557437
-2.567495
-2.476512
-2.403071
-2.317000
-2.165674
-1.969441
-1.667023
-1.341450
-1.065930
-0.849817
-0.667384
-0.490564
-0.321228
-0.131311
0.003175
0.074745
0.141871
0.179527
0.176721
0.186778
0.232152
0.275656
0.343717
0.437507
0.548136
0.660870
0.669056
0.562403
0.369445
0.098602
-0.162885
-0.395371
-0.577570
-0.719307
-0.852857
-0.968164
-1.071777
-1.099376
-1.083004
-0.982899
-0.770294
-0.548100
-0.363328
-0.239134
-0.141602
-0.092017
-0.057402
-0.026996
0.045041
0.193561
0.316820
0.425578
0.491067
0.479840
0.379268
0.211570
0.065390
-0.038925
-0.053192
0.062349
0.295536
0.647070
1.037197
1.464745
1.925272
2.268854
2.496194
2.633253
2.696169
2.665997
2.515841
2.316100
2.139046
2.018360
1.864695
1.665422
1.419605
1.128180
0.806817
0.419731
0.001070
-0.388354
-0.629961
-0.689837
-0.572425
-0.335963
-0.106285
0.085972
0.227474
0.324772
0.387220
0.448733
0.527320
0.599825
0.617835
0.554217
0.451072
0.292496
0.073576
-0.212236
-0.570787
-0.898466
-1.141943
-1.236201
-1.127676
-0.955300
-0.820814
-0.718605
-0.676739
-0.675569
-0.647737
-0.622945
-0.559093
-0.486354
-0.524244
-0.547399
-0.564940
-0.645398
-0.791344
-1.028507
-1.288592
-1.596389
-1.993064
-2.476746
-2.980542
-3.404816
-3.645253
-3.657182
-3.514510
-3.301671
-3.105906
-2.985687
-2.979139
-3.045095
-3.146603
-3.235481
-3.275709
-3.247877
-3.099825
-2.921368
-2.698706
-2.439791
-2.218299
-2.018558
-1.913074
-1.917284
-2.002420
-2.081240
-2.047092
-1.886411
-1.619544
-1.282043
-0.863382
-0.359118
0.189116
0.736182
1.256584
1.702610
2.002222
2.119867
2.024441
1.753832
1.448841
1.181506
0.944109
0.677476
0.374590
0.110062
-0.052724
-0.062313
0.034516
0.205489
0.405463
0.600761
0.771032
0.840964
0.842601
0.761910
0.636078
0.479840
0.315417
0.208763
0.107723
0.104683
0.145847
0.179059
0.299278
0.511883
0.820616
1.101984
1.279038
1.347333
1.366980
1.384989
1.376569
1.408144
1.475504
1.610458
1.850661
2.125948
2.374806
2.552795
2.670675
2.734994
2.678393
2.386734
1.823063
1.128881
0.455282
-0.145344
-0.585756
-0.839759
-0.904780
-0.739187
-0.444487
-0.101139
0.270510
0.572694
0.754893
0.807284
0.688937
0.469783
0.225370
-0.001268
-0.239835
-0.615226
-1.110837
-1.664451
-2.146027
-2.515571
-2.743145
-2.755307
-2.634387
-2.381787
-2.122872
-1.948158
-1.821858
-1.773443
-1.762216
-1.757772
-1.715672
-1.674274
-1.683396
-1.723624
-1.755434
-1.757304
-1.740231
-1.659539
-1.579315
-1.536747
-1.532303
-1.579549
-1.604108
-1.565048
-1.471492
-1.329756
-1.165098
-1.047686
-0.911797
-0.643293
-0.182532
0.463702
1.180337
1.858614
2.366854
2.682136
2.785748
2.662255
2.448948
2.111447
1.568825
0.917212
0.241040
-0.370579
-0.824557
-1.033887
-0.971205
-0.773335
-0.528454
-0.244747
0.117079
0.559830
0.998371
1.402765
1.681560
1.813707
1.942112
2.158693
2.559812
3.134710
3.696978
4.179491
4.495708
4.579908
4.480505
4.215743
3.910753
3.625175
3.334685
3.091207
2.916492
2.803758
2.758617
2.771949
2.763529
2.669038
2.478652
2.205938
1.888084
1.548711
1.202790
0.902009
0.646603
0.368977
0.107022
-0.155869
-0.380402
-0.480272
-0.536406
-0.524010
-0.408936
-0.218317
-0.033779
0.114740
0.198238
0.127838
0.016507
-0.075177
-0.008987
0.195900
0.388858
0.519367
0.383712
0.107957
-0.208728
-0.495007
-0.710185
-0.777311
-0.753221
-0.738719
-0.416889
-0.136924
0.188649
0.644030
0.913470
1.179167
1.243253
1.251205
1.344293
1.445566
1.591747
1.674543
1.613498
1.421242
1.325348
1.263601
1.239277
1.331195
1.309443
1.165835
0.933116
0.653152
0.336934
-0.015770
-0.279830
-0.518162
-0.882795
-1.318997
-1.763385
-2.306943
-2.727942
-2.921602
-3.025682
-3.007439
-2.965573
-2.961129
-2.953411
-2.884414
-2.759751
-2.593690
-2.341090
-1.978329
-1.533239
-1.096335
-0.630663
-0.283338
-0.158910
-0.122189
-0.207091
-0.389524
-0.600725
-0.757431
-0.842332
-0.857769
-0.726557
-0.513017
-0.170604
0.302553
0.824125
1.388498
1.917788
2.379952
2.693830
2.919767
3.152018
3.340064
3.521796
3.655113
3.768548
3.777670
3.595938
3.325329
2.870182
2.229795
1.519709
0.765418
0.026096
-0.548100
-0.932379
-1.176559
-1.295842
-1.437813
-1.626795
-1.786774
-1.888282
-1.844311
-1.695792
-1.496986
-1.214215
-0.984069
-0.812394
-0.635808
-0.539212
-0.538511
-0.623646
-0.760939
-0.844204
-0.779416
-0.596282
-0.239601
0.243846
0.811962
1.457027
2.048999
2.566361
2.876731
3.084190
3.232943
3.275277
3.251889
2.984086
2.515373
1.912642
1.212146
0.532933
0.030306
-0.157272
-0.046877
0.317522
0.817341
1.389433
1.927143
2.247570
2.373636
2.284057
1.976493
1.538654
1.048657
0.636779
0.404060
0.378333
0.526384
0.794654
1.098008
1.398087
1.686706
2.011343
2.291542
2.434681
2.454796
2.281017
1.917320
1.412120
0.855232
0.307932
-0.171072
-0.586926
-0.926298
-1.052832
-0.974245
-0.668319
-0.135053
0.571057
1.434808
2.276105
3.014725
3.602253
3.943263
4.114002
4.114703
3.948876
3.650902
3.256099
2.794402
2.268386
1.661446
0.935455
0.201279
-0.458521
-1.019152
-1.488801
-1.848989
-2.090596
-2.184619
-2.130591
-2.067909
-2.029785
-1.994701
-1.927108
-1.817180
-1.657902
-1.534876
-1.508681
-1.508213
-1.480380
-1.500027
-1.619310
-1.677315
-1.660475
-1.536280
-1.324143
-1.089318
-0.780586
-0.484015
-0.171072
0.128072
0.341145
0.463936
0.466977
0.447798
0.401254
0.330620
0.244080
0.129475
0.069132
0.092521
0.219756
0.392834
0.713027
1.126776
1.592682
2.170153
2.649157
3.036009
3.249549
3.295859
3.188037
3.021976
2.841881
2.440996
2.015787
1.476440
0.763781
0.092988
-0.532430
-1.095634
-1.582590
-1.971079
-2.291506
-2.522822
-2.628773
-2.650993
-2.495457
-2.237010
-2.007799
-1.807824
-1.665152
-1.484824
-1.274558
-1.033887
-0.732873
-0.391863
0.016273
0.452943
0.898267
1.331663
1.685068
2.022336
2.371064
2.567998
2.694064
2.795104
2.856850
2.952978
3.015661
3.053083
2.948067
2.744818
2.495258
2.214359
2.070049
1.925974
1.808094
1.760380
1.709626
1.670100
1.591747
1.438082
1.198814
0.818511
0.190754
-0.601895
-1.449039
-2.238881
-2.821264
-3.174670
-3.271733
-3.138885
-2.766300
-2.152810
-1.420271
-0.590902
0.243846
1.016381
1.719450
2.303236
2.762594
3.106176
3.407658
3.597108
3.646458
3.557814
3.324160
3.014023
2.621324
2.237981
1.855807
1.524153
1.304064
1.156480
1.094967
1.022930
0.978958
0.952295
0.898735
0.820616
0.639119
0.351669
-0.058805
-0.556520
-1.116216
-1.652055
-2.022534
-2.273497
-2.486803
-2.713441
-2.987559
-3.337222
-3.801959
-4.315344
-4.770726
-5.099105
-5.200145
-5.087411
-4.794816
-4.352299
-3.926621
-3.453465
-3.006971
-2.756944
-2.567962
-2.484230
-2.399329
-2.202862
-2.060190
-1.940439
-1.882903
-2.024405
-2.282384
-2.537557
-2.695432
-2.795068
-2.730047
-2.505982
-2.286828
-1.873547
-1.472662
-1.107562
-0.793216
-0.680949
-0.638147
-0.720710
-0.798127
-0.955534
-1.200884
-1.402028
-1.554523
-1.640126
-1.739763
-1.744441
-1.645973
-1.572532
-1.532303
-1.601301
-1.819285
-2.164037
-2.633451
-3.186832
-3.774126
-4.373115
-4.952457
-5.436139
-5.723822
-5.716104
-5.503966
-5.053497
-4.407029
-3.677062
-2.876462
-2.128252
-1.349169
-0.601895
0.127370
0.967030
1.921998
2.951809
4.008518
5.038797
5.826066
6.434645
6.787582
6.792962
6.657073
6.332903
5.843842
5.339110
4.873906
4.498047
4.269537
4.240302
4.336430
4.412677
4.447527
4.504830
4.569850
4.538509
4.444954
4.281232
3.983492
3.671484
3.314804
2.859423
2.347675
1.679689
0.916043
0.128773
-0.709951
-1.496752
-2.298289
-3.009076
-3.456506
-3.672385
-3.627244
-3.439198
-3.155257
-2.814481
-2.471600
-2.081474
-1.603640
-1.068736
-0.559093
-0.026061
0.451774
0.866926
1.183377
1.320436
1.392473
1.389199
1.387328
1.475738
1.758977
2.202430
2.669272
3.144533
3.450694
3.601552
3.604593
3.367196
2.887957
2.162435
1.309443
0.423707
-0.421800
-1.156912
-1.787710
-2.299458
-2.606086
-2.681398
-2.636960
-2.500602
-2.240518
-1.939036
-1.611592
-1.253976
-0.881158
-0.543656
-0.251296
0.060712
0.309569
0.483115
0.586493
0.591873
0.504165
0.321966
0.035686
-0.340641
-0.750180
-1.212578
-1.669129
-2.078200
-2.364713
-2.466689
-2.447978
-2.258528
-1.968974
-1.682694
-1.472428
-1.366476
-1.289527
-1.239241
-1.181705
-1.148492
-1.163227
-1.224272
-1.331159
-1.472428
-1.672871
-1.971546
-2.427863
-2.950838
-3.559650
-4.205884
-4.790372
-5.298144
-5.631904
-5.888713
-6.063428
-6.181074
-6.231126
-6.131256
-5.988818
-5.764050
-5.494143
-5.160150
-4.683719
-4.064616
-3.243433
-2.330565
-1.357589
-0.314446
0.711624
1.690682
2.549053
3.309659
4.003139
4.632299
5.205794
5.687137
6.095038
6.323781
6.306942
6.062294
5.596622
4.998335
4.340172
3.729021
3.238323
2.857552
2.579458
2.421350
2.377145
2.404743
2.466490
2.533850
2.660384
2.851003
3.050744
3.274108
3.488350
3.601318
3.611843
3.500980
3.254695
2.857552
2.347441
1.889721
1.424516
1.038366
0.706478
0.333426
0.077552
-0.184637
-0.448230
-0.691474
-0.936355
-1.104989
-1.166034
-1.044646
-0.784562
-0.366837
0.197770
0.853594
1.641097
2.435149
3.105474
3.628215
4.025124
4.182063
4.038222
3.734635
3.204409
2.504614
1.765994
1.005622
0.362194
-0.034247
-0.195864
-0.061144
0.388390
0.967966
1.581923
2.091567
2.457603
2.643076
2.632551
2.470934
2.156354
1.777220
1.315758
0.839093
0.327813
-0.266265
-0.820347
-1.322506
-1.774144
-2.082644
-2.252681
-2.258996
-2.027446
-1.663047
-1.237838
-0.822685
-0.459456
-0.206623
-0.086404
-0.016237
-0.002204
-0.004075
0.033113
0.158711
0.362662
0.621109
0.947851
1.276699
1.575375
1.804585
1.942346
2.053911
2.096712
2.061161
1.970412
1.739798
1.443228
1.121163
0.680049
0.207360
-0.306493
-0.952727
-1.668895
-2.408450
-3.076670
-3.641745
-4.045671
-4.258276
-4.389487
-4.420828
-4.367970
-4.170333
-3.782078
-3.273604
-2.632516
-1.983241
-1.376300
-0.789473
-0.273515
0.247121
0.782024
1.288393
1.720152
2.018827
2.199389
2.250611
2.225585
2.242425
2.361240
2.587411
2.938243
3.423329
3.970394
4.477231
4.834379
4.984769
4.886068
4.503894
3.916132
3.179850
2.386734
1.638992
0.907389
0.201981
-0.476998
-1.250468
-2.151641
-3.061701
-3.927557
-4.579873
-4.927665
-5.017478
-4.820076
-4.462928
-4.076778
-3.765940
-3.602218
-3.709573
-4.082859
-4.625948
-5.219324
-5.857606
-6.434375
-6.835495
-7.336484
-7.664396
-8.002365
-8.482305
-8.911022
-9.535739
-10.115310
-10.597360
-10.900480
-10.927610
-10.764590
-10.371890
-9.820381
-9.115675
-8.412839
-7.758419
-7.059326
-6.520680
-5.971276
-5.338841
-4.703834
-4.009184
-3.391250
-2.737999
-2.147197
-1.667959
-1.246960
-0.885368
-0.519566
-0.136690
0.290625
0.811962
1.536783
2.337150
3.146171
3.932972
4.601659
5.141708
5.580951
5.973182
6.411957
6.953877
7.555439
8.179220
8.785460
9.311241
9.705343
10.084010
10.377540
10.544300
10.613300
10.503600
10.330290
10.032320
9.682188
9.315919
8.917606
8.577532
8.111392
7.605257
7.092807
6.518844
5.973182
5.563643
5.346595
5.226376
5.282977
5.410213
5.566918
5.600364
5.451376
5.226610
4.731468
4.219485
3.570445
2.740842
1.971114
1.137769
0.447096
-0.044772
-0.363562
-0.513017
-0.587861
-0.510444
-0.336197
-0.163354
0.024225
0.191689
0.325006
0.378099
0.247589
-0.053192
-0.560496
-1.322973
-2.234905
-3.288573
-4.321660
-5.141673
-5.687803
-5.950694
-6.033257
-5.922393
-5.760075
-5.571326
-5.320832
-5.071039
-4.782888
-4.396036
-3.880545
-3.424696
-3.075501
-2.917158
-3.018198
-3.295357
-3.768981
-4.303650
-4.755055
-5.035254
-5.141673
-5.005316
-4.625948
-4.199336
-3.653206
-2.984050
-2.246132
-1.495817
-0.861745
-0.273983
0.250863
0.751619
1.245825
1.718982
2.230263
2.703186
3.231774
3.764806
4.254569
4.649373
4.785028
4.669253
4.225333
3.642716
2.905265
2.124779
1.532573
1.123969
0.959078
1.044915
1.443228
1.746113
2.230731
2.995546
3.707503
4.739888
5.944414
7.138416
8.396502
9.633306
10.670840
11.587450
12.454240
13.199870
13.892650
14.499360
15.141380
15.863860
16.494190
17.114929
17.682119
18.101480
18.294670
18.260050
18.085810
17.502489
16.627510
15.497360
14.071340
12.527210
10.865900
9.205289
7.537196
5.930614
4.337833
2.744116
1.249802
-0.209430
-1.586332
-2.903593
-4.028831
-4.888839
-5.528291
-5.851993
-5.909296
-5.790012
-5.630968
-5.542090
-5.653655
-5.960985
-6.362338
-6.801347
-7.117096
-7.277310
-7.369228
-7.291343
-6.964601
-6.546642
-5.961920
-5.298846
-4.584083
-3.954220
-3.368329
-2.768405
-2.554163
-2.397691
-2.507853
-2.935869
-3.413470
-4.093150
-4.931875
-5.924498
-6.930921
-8.052183
-9.130877
-10.058480
-10.894160
-11.598640
-12.221250
-12.545890
-12.745160
-12.777670
-12.441340
-11.982450
-11.308610
-10.478780
-9.547433
-8.714556
-7.854079
-7.044357
-6.673877
-6.360466
-6.421278
-6.740536
-7.318241
-8.244907
-9.157073
-10.299620
-11.457370
-12.508460
-13.447530
-14.282980
-14.920320
-15.281210
-15.399090
-15.143920
-14.782800
-14.266140
-13.603530
-12.823040
-11.800250
-10.648810
-9.287817
-7.952547
-6.437650
-5.011397
-3.715888
-2.193507
-1.071075
0.135556
1.340083
2.372701
3.527409
4.470916
5.474064
6.439088
7.431946
8.685121
9.975952
11.301170
12.636200
13.924230
14.913580
15.574310
15.954150
15.947360
15.747390
15.324750
14.848550
14.370490
13.871370
13.333190
12.726950
12.010780
11.049740
9.962854
8.626883
7.358738
6.126145
5.033418
4.146044
3.381696
3.012854
2.670207
2.500872
2.542270
2.776626
3.000458
3.451161
4.066288
4.462262
5.299349
5.950729
6.559073
7.359908
7.945799
8.551336
8.954795
9.310773
9.497650
9.280133
8.891644
8.264589
7.307049
6.275366
5.292099
4.257142
3.218442
2.331537
1.505676
0.799566
0.249928
-0.266265
-0.718137
-1.259356
-1.909800
-2.491481
-3.129061
-3.656012
-3.959366
-4.353001
-4.507133
-4.510174
-4.336628
-4.041929
-3.663965
-2.964170
-2.404007
-1.827705
-1.295608
-0.802337
-0.334794
0.120120
0.766354
1.251673
1.706586
2.168984
2.455966
2.744350
3.008644
3.090038
3.064309
2.917661
2.526600
1.969711
1.276699
0.442886
-0.459456
-1.391269
-2.275836
-3.143796
-3.901128
-4.512980
-4.890710
-4.953159
-4.751079
-4.197464
-3.483870
-2.581996
-1.575573
-0.623646
0.323603
1.158117
1.881535
2.521688
3.157163
3.828658
4.500854
5.167202
5.854835
6.423886
6.836465
7.144731
7.287870
7.255126
7.049070
6.835998
6.603746
6.434177
6.357930
6.382254
6.585269
6.890260
7.389378
7.962639
8.632730
9.430290
10.346900
11.067280
11.652230
12.342910
12.548730
12.589890
12.409330
11.756310
10.852800
9.565946
8.148112
6.608658
5.050024
3.514545
2.063033
0.839327
-0.147449
-0.929807
-1.701405
-2.365415
-3.093744
-3.886860
-4.656588
-5.511451
-6.413793
-7.196384
-8.038150
-8.927862
-9.832310
-10.894870
-11.872990
-13.097860
-13.906880
-14.818580
-15.716010
-15.810970
-16.257231
-16.141920
-15.768870
-15.516040
-14.885000
-14.319230
-13.576870
-12.845730
-12.048400
-11.218570
-10.356450
-9.376226
-8.459851
-7.307014
-6.281880
-5.115010
-3.802894
-2.854008
-1.938568
-1.447402
-1.147089
-1.598260
-2.222743
-3.222383
-5.154303
-6.516938
-8.392023
-10.051930
-11.243590
-12.372570
-12.902330
-13.286840
-13.184400
-12.830530
-12.171430
-11.195410
-9.918614
-8.481369
-7.013951
-5.276861
-3.855753
-2.687713
-1.529497
-0.836953
-0.245215
0.125967
0.333426
0.679113
0.803776
1.246761
1.596191
1.894866
2.431407
2.578757
2.742245
2.785748
2.666465
2.509058
2.212721
1.994035
1.746113
1.391772
0.989483
0.627190
0.113103
-0.337834
-0.593241
-0.824557
-0.759068
-0.551141
-0.160547
0.417392
0.950658
1.644372
2.272129
2.866907
3.466598
3.965482
4.472787
4.897996
5.438513
5.777418
6.027678
6.322378
6.289634
6.142985
5.856706
5.533472
5.103351
4.565640
4.139028
3.641079
3.201369
2.924444
2.672546
2.494089
2.320310
2.230263
2.126182
1.956145
1.951467
1.882237
1.833821
1.865396
1.923635
2.005262
2.191437
2.483096
2.681434
2.955551
3.244637
3.467066
3.645757
3.796381
3.845966
3.826787
3.831698
3.760128
3.661895
3.466130
3.161140
2.801185
2.291542
1.657236
0.881895
-0.074944
-1.091657
-2.096443
-3.058895
-3.898321
-4.707809
-5.353108
-5.894327
-6.536351
-6.985417
-7.400803
-7.747660
-8.066216
-8.143867
-8.033939
-8.055692
-7.662525
-7.433080
-7.171359
-6.879699
-6.881337
-6.711534
-6.829647
-6.877594
-6.859585
-6.950100
-6.772110
-6.619849
-6.498929
-6.435545
-6.414027
-6.383154
-6.502203
-6.467120
-6.584532
-6.719486
-6.773046
-6.882038
-6.776788
-6.815848
-6.663352
-6.722760
-6.578918
-6.530504
-6.849294
-6.609324
-6.833389
-6.779361
-6.574943
-6.456595
-6.057581
-5.766389
-5.094895
-4.719036
-4.238629
-3.477321
-2.991769
-2.103460
-1.081366
0.052759
1.483222
2.913919
4.573125
6.095506
7.489248
8.689798
9.539282
10.033960
10.077230
9.807085
8.964618
7.927322
6.408683
4.755324
3.039283
0.899904
-0.843034
-2.729112
-4.692841
-6.344796
-7.927052
-9.474460
-10.676410
-11.595600
-12.475480
-12.853220
-12.952150
-12.908880
-12.596870
-12.130030
-11.431410
-10.610220
-9.657828
-8.543349
-7.388875
-6.066001
-4.691204
-3.286702
-1.856006
-0.439576
0.782492
1.747984
2.350715
2.542036
2.548819
2.193308
1.771841
1.060352
0.182568
-0.648205
-1.599897
-2.449147
-3.271733
-3.909314
-4.424804
-4.833642
-5.144948
-5.304927
-5.278965
-4.979120
-4.526546
-3.943461
-2.955282
-2.073288
-0.969100
0.174382
1.150399
1.980002
2.450118
2.962802
2.918363
3.106643
3.207683
3.158333
3.753112
4.099267
4.861276
5.676846
6.370793
7.167652
7.691796
8.169865
8.530287
8.854456
8.891177
9.018413
8.900298
8.376856
