EVENT_NAME: L_AQUILA
EVENT_ID: IT-2009-0009
EVENT_DATE_YYYYMMDD: 20090406
EVENT_TIME_HHMMSS: 013240
EVENT_LATITUDE_DEGREE: 42.3420
EVENT_LONGITUDE_DEGREE: 13.3800
EVENT_DEPTH_KM: 8.3
HYPOCENTER_REFERENCE: INGV-CNT_Seismic_Bulletin
MAGNITUDE_W: 6.1
MAGNITUDE_W_REFERENCE: INGV-CNT_Seismic_Bulletin
MAGNITUDE_L: 
MAGNITUDE_L_REFERENCE: 
FOCAL_MECHANISM: Normal faulting
NETWORK: IT
STATION_CODE: CSO1
STATION_NAME: 
STATION_LATITUDE_DEGREE: 42.100933
STATION_LONGITUDE_DEGREE: 13.088044
STATION_ELEVATION_M: 700
LOCATION: 
SENSOR_DEPTH_M: 0.0
VS30_M/S: 
SITE_CLASSIFICATION_EC8: B (inferred from geology)
MORPHOLOGIC_CLASSIFICATION: 
EPICENTRAL_DISTANCE_KM: 36.0
EARTHQUAKE_BACKAZIMUTH_DEGREE: 222.1
DATE_TIME_FIRST_SAMPLE_YYYYMMDD_HHMMSS: 20090406_013212.500
DATE_TIME_FIRST_SAMPLE_PRECISION: seconds
SAMPLING_INTERVAL_S: 0.005000
NDATA: 19960
DURATION_S: 99.800
STREAM: HNZ
UNITS: cm
INSTRUMENT: sensor = FBA-3 [Kinemetrics] | digitizer = Etna [Kinemetrics]
INSTRUMENT_ANALOG/DIGITAL: D
INSTRUMENTAL_FREQUENCY_HZ: 202.000
INSTRUMENTAL_DAMPING: 0.700000
FULL_SCALE_G: 1.0
N_BIT_DIGITAL_CONVERTER: 18
PGD_CM: -1.036321
TIME_PGD_S: 48.015000
BASELINE_CORRECTION: BASELINE REMOVED
FILTER_TYPE: BUTTERWORTH
FILTER_ORDER: 2
LOW_CUT_FREQUENCY_HZ: 0.030
HIGH_CUT_FREQUENCY_HZ: 40.000
LATE/NORMAL_TRIGGERED: NT
DATABASE_VERSION: 0.5
HEADER_FORMAT: DYNA 1.2
DATA_TYPE: DISPLACEMENT
PROCESSING: manual (Paolucci et al., 2011)
DATA_TIMESTAMP_YYYYMMDD_HHMMSS: 20211011_160101.142
DATA_LICENSE: CC-BY3_0-IT (http://creativecommons.org/licenses/by/3.0/deed.en)
DATA_CITATION: Luzi L, Pacor F, Puglia R (2019). Italian Accelerometric Archive v 3.0 - Istituto Nazionale di Geofisica e Vulcanologia, Dipartimento della Protezione Civile Nazionale. doi: 10.13127/itaca.3.1
DATA_CREATOR: ITACA working group
ORIGINAL_DATA_MEDIATOR_CITATION: data obtained within the DPC-INGV data exchange agreements
ORIGINAL_DATA_MEDIATOR: Archive of Italian Department of Civil Protection
ORIGINAL_DATA_CREATOR_CITATION: Presidency Of Counsil Of Ministers-Civil Protection Department. (1972). Italian Strong Motion Network. Presidency of Counsil of Ministers - Civil Protection Department. https://doi.org/10.7914/SN/IT http://www.fdsn.org/networks/detail/IT/
ORIGINAL_DATA_CREATOR: network: IT (Italian Strong Motion Network (RAN)); owner: Presidency of Counsil of Ministers - Civil Protection Department (PCM - DPC)
USER1: 
USER2: 
USER3: 
USER4: 
USER5: 
[...]
2.602554e-03
3.708261e-03
4.775836e-03
5.798007e-03
6.763139e-03
7.654434e-03
8.450831e-03
9.129721e-03
9.670593e-03
1.005793e-02
1.028195e-02
1.033702e-02
1.021868e-02
9.920879e-03
9.434566e-03
8.748580e-03
7.852730e-03
6.741430e-03
5.415732e-03
3.882732e-03
2.153069e-03
2.383928e-04
-1.849469e-03
-4.097237e-03
-6.488091e-03
-9.000606e-03
-1.160967e-02
-1.428901e-02
-1.701402e-02
-1.976340e-02
-2.251910e-02
-2.526497e-02
-2.798529e-02
-3.066430e-02
-3.328691e-02
-3.584089e-02
-3.831951e-02
-4.072398e-02
-4.306403e-02
-4.535598e-02
-4.761880e-02
-4.986956e-02
-5.212019e-02
-5.437598e-02
-5.663569e-02
-5.889273e-02
-6.113695e-02
-6.335693e-02
-6.554213e-02
-6.768400e-02
-6.977559e-02
-7.181029e-02
-7.378070e-02
-7.567875e-02
-7.749674e-02
-7.922855e-02
-8.087043e-02
-8.242115e-02
-8.388196e-02
-8.525651e-02
-8.655009e-02
-8.776753e-02
-8.891035e-02
-8.997480e-02
-9.095182e-02
-9.182921e-02
-9.259519e-02
-9.324130e-02
-9.376353e-02
-9.416133e-02
-9.443591e-02
-9.458857e-02
-9.462013e-02
-9.453151e-02
-9.432512e-02
-9.400607e-02
-9.358235e-02
-9.306403e-02
-9.246207e-02
-9.178707e-02
-9.104838e-02
-9.025359e-02
-8.940870e-02
-8.851866e-02
-8.758807e-02
-8.662171e-02
-8.562542e-02
-8.460738e-02
-8.357932e-02
-8.255653e-02
-8.155630e-02
-8.059487e-02
-7.968433e-02
-7.883082e-02
-7.803478e-02
-7.729288e-02
-7.660034e-02
-7.595270e-02
-7.534624e-02
-7.477746e-02
-7.424198e-02
-7.373405e-02
-7.324752e-02
-7.277875e-02
-7.233038e-02
-7.191444e-02
-7.155312e-02
-7.127659e-02
-7.111853e-02
-7.111134e-02
-7.128302e-02
-7.165629e-02
-7.225005e-02
-7.308148e-02
-7.416748e-02
-7.552383e-02
-7.716198e-02
-7.908496e-02
-8.128427e-02
-8.373942e-02
-8.642025e-02
-8.929140e-02
-9.231800e-02
-9.547116e-02
-9.873203e-02
-1.020932e-01
-1.055565e-01
-1.091281e-01
-1.128131e-01
-1.166121e-01
-1.205208e-01
-1.245322e-01
-1.286388e-01
-1.328327e-01
-1.371039e-01
-1.414368e-01
-1.458073e-01
-1.501809e-01
-1.545143e-01
-1.587590e-01
-1.628661e-01
-1.667914e-01
-1.704980e-01
-1.739582e-01
-1.771545e-01
-1.800795e-01
-1.827348e-01
-1.851288e-01
-1.872744e-01
-1.891872e-01
-1.908854e-01
-1.923888e-01
-1.937186e-01
-1.948961e-01
-1.959423e-01
-1.968767e-01
-1.977170e-01
-1.984796e-01
-1.991803e-01
-1.998357e-01
-2.004643e-01
-2.010876e-01
-2.017302e-01
-2.024199e-01
-2.031868e-01
-2.040622e-01
-2.050766e-01
-2.062578e-01
-2.076274e-01
-2.092004e-01
-2.109841e-01
-2.129804e-01
-2.151869e-01
-2.175986e-01
-2.202083e-01
-2.230083e-01
-2.259904e-01
-2.291463e-01
-2.324657e-01
-2.359358e-01
-2.395409e-01
-2.432634e-01
-2.470865e-01
-2.509964e-01
-2.549838e-01
-2.590439e-01
-2.631751e-01
-2.673771e-01
-2.716484e-01
-2.759831e-01
-2.803693e-01
-2.847896e-01
-2.892235e-01
-2.936512e-01
-2.980573e-01
-3.024323e-01
-3.067731e-01
-3.110819e-01
-3.153661e-01
-3.196360e-01
-3.239027e-01
-3.281746e-01
-3.324550e-01
-3.367399e-01
-3.410183e-01
-3.452731e-01
-3.494827e-01
-3.536223e-01
-3.576663e-01
-3.615892e-01
-3.653675e-01
-3.689814e-01
-3.724167e-01
-3.756663e-01
-3.787306e-01
-3.816164e-01
-3.843350e-01
-3.868993e-01
-3.893223e-01
-3.916147e-01
-3.937845e-01
-3.958373e-01
-3.977779e-01
-3.996104e-01
-4.013383e-01
-4.029647e-01
-4.044915e-01
-4.059205e-01
-4.072549e-01
-4.085012e-01
-4.096710e-01
-4.107819e-01
-4.118573e-01
-4.129232e-01
-4.140057e-01
-4.151258e-01
-4.162959e-01
-4.175169e-01
-4.187776e-01
-4.200566e-01
-4.213257e-01
-4.225535e-01
-4.237077e-01
-4.247567e-01
-4.256694e-01
-4.264164e-01
-4.269702e-01
-4.273070e-01
-4.274084e-01
-4.272615e-01
-4.268578e-01
-4.261919e-01
-4.252598e-01
-4.240578e-01
-4.225825e-01
-4.208292e-01
-4.187912e-01
-4.164591e-01
-4.138206e-01
-4.108607e-01
-4.075637e-01
-4.039136e-01
-3.998966e-01
-3.955029e-01
-3.907274e-01
-3.855698e-01
-3.800343e-01
-3.741289e-01
-3.678650e-01
-3.612563e-01
-3.543191e-01
-3.470720e-01
-3.395365e-01
-3.317368e-01
-3.237010e-01
-3.154616e-01
-3.070563e-01
-2.985275e-01
-2.899208e-01
-2.812829e-01
-2.726575e-01
-2.640819e-01
-2.555850e-01
-2.471875e-01
-2.389044e-01
-2.307473e-01
-2.227259e-01
-2.148490e-01
-2.071250e-01
-1.995618e-01
-1.921657e-01
-1.849414e-01
-1.778921e-01
-1.710194e-01
-1.643252e-01
-1.578116e-01
-1.514809e-01
-1.453353e-01
-1.393765e-01
-1.336074e-01
-1.280328e-01
-1.226604e-01
-1.175002e-01
-1.125632e-01
-1.078594e-01
-1.033971e-01
-9.918274e-02
-9.522188e-02
-9.151974e-02
-8.808126e-02
-8.491117e-02
-8.201395e-02
-7.939322e-02
-7.705078e-02
-7.498619e-02
-7.319687e-02
-7.167935e-02
-7.043076e-02
-6.944937e-02
-6.873362e-02
-6.827997e-02
-6.808078e-02
-6.812348e-02
-6.839116e-02
-6.886401e-02
-6.952068e-02
-7.033894e-02
-7.129591e-02
-7.236748e-02
-7.352801e-02
-7.475051e-02
-7.600697e-02
-7.726890e-02
-7.850873e-02
-7.970196e-02
-8.082904e-02
-8.187687e-02
-8.283925e-02
-8.371679e-02
-8.451629e-02
-8.524947e-02
-8.593087e-02
-8.657565e-02
-8.719783e-02
-8.780932e-02
-8.842030e-02
-8.904065e-02
-8.968071e-02
-9.035136e-02
-9.106327e-02
-9.182511e-02
-9.264094e-02
-9.350807e-02
-9.441624e-02
-9.534855e-02
-9.628415e-02
-9.720235e-02
-9.808653e-02
-9.892601e-02
-9.971539e-02
-1.004518e-01
-1.011320e-01
-1.017503e-01
-1.022984e-01
-1.027664e-01
-1.031444e-01
-1.034243e-01
-1.035999e-01
-1.036668e-01
-1.036208e-01
-1.034573e-01
-1.031707e-01
-1.027544e-01
-1.022008e-01
-1.015036e-01
-1.006590e-01
-9.966844e-02
-9.853893e-02
-9.728287e-02
-9.591556e-02
-9.445230e-02
-9.290563e-02
-9.128299e-02
-8.958543e-02
-8.780748e-02
-8.593830e-02
-8.396362e-02
-8.186755e-02
-7.963316e-02
-7.724238e-02
-7.467664e-02
-7.191855e-02
-6.895403e-02
-6.577432e-02
-6.237758e-02
-5.876988e-02
-5.496605e-02
-5.098949e-02
-4.687068e-02
-4.264482e-02
-3.834960e-02
-3.402310e-02
-2.970201e-02
-2.542034e-02
-2.120823e-02
-1.709098e-02
-1.308888e-02
-9.217995e-03
-5.491497e-03
-1.921091e-03
1.482260e-03
4.708475e-03
7.748835e-03
1.059609e-02
1.324397e-02
1.568656e-02
1.791782e-02
1.993084e-02
2.171714e-02
2.326676e-02
2.456904e-02
2.561393e-02
2.639383e-02
2.690543e-02
2.715109e-02
2.713915e-02
2.688381e-02
2.640482e-02
2.572732e-02
2.488132e-02
2.389992e-02
2.281645e-02
2.166153e-02
2.046107e-02
1.923571e-02
1.800140e-02
1.676983e-02
1.554840e-02
1.434023e-02
1.314496e-02
1.196023e-02
1.078428e-02
9.618788e-03
8.471104e-03
7.354701e-03
6.287461e-03
5.288777e-03
4.376571e-03
3.564984e-03
2.863121e-03
2.274683e-03
1.798176e-03
1.427271e-03
1.150745e-03
9.520662e-04
8.092484e-04
6.953181e-04
5.800712e-04
4.336388e-04
2.310023e-04
-4.433954e-05
-3.992953e-04
-8.328902e-04
-1.339065e-03
-1.909068e-03
-2.533286e-03
-3.203074e-03
-3.912731e-03
-4.661119e-03
-5.452498e-03
-6.296406e-03
-7.207047e-03
-8.202694e-03
-9.304601e-03
-1.053492e-02
-1.191378e-02
-1.345587e-02
-1.516750e-02
-1.704602e-02
-1.908162e-02
-2.126088e-02
-2.357077e-02
-2.600144e-02
-2.854688e-02
-3.120358e-02
-3.396838e-02
-3.683638e-02
-3.979933e-02
-4.284573e-02
-4.596243e-02
-4.913663e-02
-5.235808e-02
-5.562063e-02
-5.892222e-02
-6.226398e-02
-6.564867e-02
-6.907880e-02
-7.255503e-02
-7.607558e-02
-7.963608e-02
-8.322943e-02
-8.684607e-02
-9.047435e-02
-9.410034e-02
-9.770775e-02
-1.012781e-01
-1.047911e-01
-1.082269e-01
-1.115689e-01
-1.148059e-01
-1.179334e-01
-1.209525e-01
-1.238672e-01
-1.266813e-01
-1.293960e-01
-1.320102e-01
-1.345212e-01
-1.369270e-01
-1.392279e-01
-1.414267e-01
-1.435282e-01
-1.455388e-01
-1.474655e-01
-1.493155e-01
-1.510964e-01
-1.528178e-01
-1.544915e-01
-1.561314e-01
-1.577528e-01
-1.593694e-01
-1.609913e-01
-1.626232e-01
-1.642646e-01
-1.659088e-01
-1.675457e-01
-1.691629e-01
-1.707485e-01
-1.722932e-01
-1.737917e-01
-1.752427e-01
-1.766482e-01
-1.780119e-01
-1.793372e-01
-1.806257e-01
-1.818770e-01
-1.830891e-01
-1.842596e-01
-1.853868e-01
-1.864711e-01
-1.875149e-01
-1.885219e-01
-1.894962e-01
-1.904410e-01
-1.913577e-01
-1.922464e-01
-1.931070e-01
-1.939399e-01
-1.947477e-01
-1.955361e-01
-1.963136e-01
-1.970904e-01
-1.978766e-01
-1.986808e-01
-1.995078e-01
-2.003590e-01
-2.012310e-01
-2.021167e-01
-2.030070e-01
-2.038929e-01
-2.047678e-01
-2.056289e-01
-2.064780e-01
-2.073193e-01
-2.081582e-01
-2.090007e-01
-2.098527e-01
-2.107208e-01
-2.116119e-01
-2.125326e-01
-2.134884e-01
-2.144834e-01
-2.155197e-01
-2.165975e-01
-2.177156e-01
-2.188717e-01
-2.200629e-01
-2.212856e-01
-2.225359e-01
-2.238099e-01
-2.251052e-01
-2.264218e-01
-2.277634e-01
-2.291377e-01
-2.305563e-01
-2.320335e-01
-2.335847e-01
-2.352247e-01
-2.369664e-01
-2.388194e-01
-2.407889e-01
-2.428753e-01
-2.450746e-01
-2.473787e-01
-2.497754e-01
-2.522484e-01
-2.547773e-01
-2.573387e-01
-2.599078e-01
-2.624613e-01
-2.649811e-01
-2.674565e-01
-2.698858e-01
-2.722756e-01
-2.746384e-01
-2.769890e-01
-2.793422e-01
-2.817107e-01
-2.841048e-01
-2.865327e-01
-2.890015e-01
-2.915183e-01
-2.940910e-01
-2.967287e-01
-2.994410e-01
-3.022374e-01
-3.051271e-01
-3.081169e-01
-3.112103e-01
-3.144062e-01
-3.176985e-01
-3.210773e-01
-3.245304e-01
-3.280446e-01
-3.316065e-01
-3.352022e-01
-3.388168e-01
-3.424335e-01
-3.460340e-01
-3.495992e-01
-3.531119e-01
-3.565575e-01
-3.599254e-01
-3.632089e-01
-3.664042e-01
-3.695097e-01
-3.725241e-01
-3.754457e-01
-3.782707e-01
-3.809928e-01
-3.836019e-01
-3.860844e-01
-3.884240e-01
-3.906039e-01
-3.926097e-01
-3.944317e-01
-3.960670e-01
-3.975204e-01
-3.988042e-01
-3.999373e-01
-4.009432e-01
-4.018490e-01
-4.026826e-01
-4.034708e-01
-4.042382e-01
-4.050067e-01
-4.057961e-01
-4.066248e-01
-4.075104e-01
-4.084699e-01
-4.095202e-01
-4.106782e-01
-4.119597e-01
-4.133794e-01
-4.149505e-01
-4.166841e-01
-4.185897e-01
-4.206762e-01
-4.229517e-01
-4.254233e-01
-4.280960e-01
-4.309718e-01
-4.340482e-01
-4.373175e-01
-4.407649e-01
-4.443687e-01
-4.480999e-01
-4.519246e-01
-4.558069e-01
-4.597121e-01
-4.636104e-01
-4.674784e-01
-4.713007e-01
-4.750695e-01
-4.787838e-01
-4.824480e-01
-4.860710e-01
-4.896656e-01
-4.932480e-01
-4.968372e-01
-5.004531e-01
-5.041152e-01
-5.078401e-01
-5.116407e-01
-5.155256e-01
-5.194989e-01
-5.235614e-01
-5.277121e-01
-5.319494e-01
-5.362724e-01
-5.406807e-01
-5.451739e-01
-5.497508e-01
-5.544087e-01
-5.591442e-01
-5.639526e-01
-5.688287e-01
-5.737672e-01
-5.787616e-01
-5.838053e-01
-5.888909e-01
-5.940112e-01
-5.991603e-01
-6.043337e-01
-6.095297e-01
-6.147497e-01
-6.199986e-01
-6.252852e-01
-6.306218e-01
-6.360228e-01
-6.415021e-01
-6.470705e-01
-6.527331e-01
-6.584880e-01
-6.643264e-01
-6.702332e-01
-6.761888e-01
-6.821716e-01
-6.881595e-01
-6.941321e-01
-7.000702e-01
-7.059565e-01
-7.117741e-01
-7.175075e-01
-7.231421e-01
-7.286651e-01
-7.340661e-01
-7.393374e-01
-7.444738e-01
-7.494725e-01
-7.543339e-01
-7.590610e-01
-7.636587e-01
-7.681320e-01
-7.724836e-01
-7.767122e-01
-7.808104e-01
-7.847647e-01
-7.885559e-01
-7.921600e-01
-7.955501e-01
-7.986976e-01
-8.015736e-01
-8.041507e-01
-8.064052e-01
-8.083180e-01
-8.098761e-01
-8.110723e-01
-8.119059e-01
-8.123830e-01
-8.125167e-01
-8.123272e-01
-8.118417e-01
-8.110932e-01
-8.101196e-01
-8.089615e-01
-8.076598e-01
-8.062548e-01
-8.047843e-01
-8.032844e-01
-8.017888e-01
-8.003296e-01
-7.989372e-01
-7.976403e-01
-7.964644e-01
-7.954312e-01
-7.945580e-01
-7.938575e-01
-7.933381e-01
-7.930048e-01
-7.928611e-01
-7.929095e-01
-7.931514e-01
-7.935863e-01
-7.942103e-01
-7.950151e-01
-7.959878e-01
-7.971126e-01
-7.983721e-01
-7.997500e-01
-8.012327e-01
-8.028103e-01
-8.044771e-01
-8.062309e-01
-8.080715e-01
-8.099994e-01
-8.120155e-01
-8.141209e-01
-8.163167e-01
-8.186037e-01
-8.209832e-01
-8.234565e-01
-8.260255e-01
-8.286919e-01
-8.314568e-01
-8.343201e-01
-8.372800e-01
-8.403320e-01
-8.434696e-01
-8.466844e-01
-8.499665e-01
-8.533054e-01
-8.566904e-01
-8.601111e-01
-8.635569e-01
-8.670171e-01
-8.704810e-01
-8.739380e-01
-8.773790e-01
-8.807967e-01
-8.841869e-01
-8.875493e-01
-8.908873e-01
-8.942077e-01
-8.975199e-01
-9.008357e-01
-9.041689e-01
-9.075357e-01
-9.109536e-01
-9.144399e-01
-9.180110e-01
-9.216793e-01
-9.254520e-01
-9.293297e-01
-9.333061e-01
-9.373685e-01
-9.414996e-01
-9.456792e-01
-9.498868e-01
-9.541018e-01
-9.583044e-01
-9.624750e-01
-9.665948e-01
-9.706461e-01
-9.746134e-01
-9.784845e-01
-9.822500e-01
-9.859028e-01
-9.894377e-01
-9.928506e-01
-9.961389e-01
-9.993014e-01
-1.002338e+00
-1.005251e+00
-1.008042e+00
-1.010712e+00
-1.013266e+00
-1.015704e+00
-1.018026e+00
-1.020231e+00
-1.022316e+00
-1.024275e+00
-1.026101e+00
-1.027788e+00
-1.029330e+00
-1.030719e+00
-1.031953e+00
-1.033029e+00
-1.033949e+00
-1.034712e+00
-1.035324e+00
-1.035788e+00
-1.036108e+00
-1.036286e+00
-1.036321e+00
-1.036213e+00
-1.035957e+00
-1.035546e+00
-1.034975e+00
-1.034239e+00
-1.033334e+00
-1.032260e+00
-1.031016e+00
-1.029606e+00
-1.028034e+00
-1.026303e+00
-1.024421e+00
-1.022393e+00
-1.020230e+00
-1.017942e+00
-1.015545e+00
-1.013052e+00
-1.010480e+00
-1.007840e+00
-1.005145e+00
-1.002401e+00
-9.996137e-01
-9.967840e-01
-9.939132e-01
-9.910011e-01
-9.880467e-01
-9.850480e-01
-9.820026e-01
-9.789073e-01
-9.757594e-01
-9.725567e-01
-9.692992e-01
-9.659901e-01
-9.626365e-01
-9.592496e-01
-9.558437e-01
-9.524339e-01
-9.490351e-01
-9.456605e-01
-9.423211e-01
-9.390248e-01
-9.357769e-01
-9.325796e-01
-9.294325e-01
-9.263327e-01
-9.232761e-01
-9.202581e-01
-9.172756e-01
-9.143274e-01
-9.114159e-01
-9.085467e-01
-9.057287e-01
-9.029728e-01
-9.002904e-01
-8.976914e-01
-8.951825e-01
-8.927664e-01
-8.904413e-01
-8.882022e-01
-8.860412e-01
-8.839475e-01
-8.819078e-01
-8.799055e-01
-8.779209e-01
-8.759322e-01
-8.739169e-01
-8.718536e-01
-8.697238e-01
-8.675124e-01
-8.652083e-01
-8.628040e-01
-8.602945e-01
-8.576770e-01
-8.549500e-01
-8.521138e-01
-8.491702e-01
-8.461235e-01
-8.429799e-01
-8.397468e-01
-8.364315e-01
-8.330401e-01
-8.295765e-01
-8.260436e-01
-8.224433e-01
-8.187778e-01
-8.150502e-01
-8.112647e-01
-8.074272e-01
-8.035455e-01
-7.996289e-01
-7.956877e-01
-7.917334e-01
-7.877773e-01
-7.838304e-01
-7.799033e-01
-7.760062e-01
-7.721480e-01
-7.683355e-01
-7.645728e-01
-7.608601e-01
-7.571935e-01
-7.535651e-01
-7.499639e-01
-7.463772e-01
-7.427926e-01
-7.392005e-01
-7.355952e-01
-7.319761e-01
-7.283460e-01
-7.247101e-01
-7.210736e-01
-7.174403e-01
-7.138124e-01
-7.101903e-01
-7.065733e-01
-7.029603e-01
-6.993511e-01
-6.957469e-01
-6.921494e-01
-6.885602e-01
-6.849829e-01
-6.814221e-01
-6.778833e-01
-6.743720e-01
-6.708932e-01
-6.674507e-01
-6.640474e-01
-6.606856e-01
-6.573642e-01
-6.540787e-01
-6.508211e-01
-6.475802e-01
-6.443412e-01
-6.410873e-01
-6.378009e-01
-6.344667e-01
-6.310727e-01
-6.276113e-01
-6.240775e-01
-6.204679e-01
-6.167807e-01
-6.130151e-01
-6.091726e-01
-6.052565e-01
-6.012728e-01
-5.972310e-01
-5.931437e-01
-5.890272e-01
-5.848999e-01
-5.807810e-01
-5.766886e-01
-5.726384e-01
-5.686430e-01
-5.647119e-01
-5.608520e-01
-5.570680e-01
-5.533627e-01
-5.497367e-01
-5.461878e-01
-5.427109e-01
-5.392981e-01
-5.359387e-01
-5.326191e-01
-5.293216e-01
-5.260251e-01
-5.227071e-01
-5.193467e-01
-5.159261e-01
-5.124313e-01
-5.088524e-01
-5.051829e-01
-5.014192e-01
-4.975591e-01
-4.936005e-01
-4.895413e-01
-4.853792e-01
-4.811120e-01
-4.767375e-01
-4.722534e-01
-4.676572e-01
-4.629452e-01
-4.581131e-01
-4.531567e-01
-4.480737e-01
-4.428635e-01
-4.375271e-01
-4.320671e-01
-4.264886e-01
-4.207996e-01
-4.150105e-01
-4.091339e-01
-4.031829e-01
-3.971716e-01
-3.911142e-01
-3.850251e-01
-3.789186e-01
-3.728081e-01
-3.667049e-01
-3.606178e-01
-3.545528e-01
-3.485123e-01
-3.424957e-01
-3.364998e-01
-3.305201e-01
-3.245517e-01
-3.185891e-01
-3.126269e-01
-3.066595e-01
-3.006815e-01
-2.946880e-01
-2.886749e-01
-2.826387e-01
-2.765765e-01
-2.704853e-01
-2.643619e-01
-2.582024e-01
-2.520019e-01
-2.457559e-01
-2.394603e-01
-2.331133e-01
-2.267148e-01
-2.202672e-01
-2.137744e-01
-2.072422e-01
-2.006782e-01
-1.940921e-01
-1.874959e-01
-1.809032e-01
-1.743294e-01
-1.677907e-01
-1.613033e-01
-1.548816e-01
-1.485377e-01
-1.422804e-01
-1.361147e-01
-1.300420e-01
-1.240596e-01
-1.181613e-01
-1.123380e-01
-1.065785e-01
-1.008693e-01
-9.519599e-02
-8.954554e-02
-8.390726e-02
-7.827164e-02
-7.262984e-02
-6.697366e-02
-6.129549e-02
-5.558889e-02
-4.984821e-02
-4.406745e-02
-3.823978e-02
-3.235848e-02
-2.641803e-02
-2.041429e-02
-1.434430e-02
-8.206190e-03
-1.999045e-03
4.277027e-03
1.062055e-02
1.702863e-02
2.349682e-02
3.001853e-02
3.658484e-02
4.318509e-02
4.980739e-02
5.643884e-02
6.306574e-02
6.967408e-02
7.624986e-02
8.277971e-02
8.925143e-02
9.565449e-02
1.019804e-01
1.082230e-01
1.143794e-01
1.204499e-01
1.264377e-01
1.323479e-01
1.381874e-01
1.439637e-01
1.496835e-01
1.553516e-01
1.609710e-01
1.665419e-01
1.720618e-01
1.775255e-01
1.829251e-01
1.882511e-01
1.934933e-01
1.986423e-01
2.036895e-01
2.086288e-01
2.134560e-01
2.181687e-01
2.227646e-01
2.272399e-01
2.315888e-01
2.358039e-01
2.398758e-01
2.437947e-01
2.475504e-01
2.511346e-01
2.545421e-01
2.577717e-01
2.608267e-01
2.637147e-01
2.664482e-01
2.690426e-01
2.715156e-01
2.738855e-01
2.761703e-01
2.783874e-01
2.805528e-01
2.826802e-01
2.847812e-01
2.868649e-01
2.889381e-01
2.910054e-01
2.930693e-01
2.951310e-01
2.971903e-01
2.992470e-01
3.013015e-01
3.033566e-01
3.054178e-01
3.074930e-01
3.095923e-01
3.117262e-01
3.139046e-01
3.161359e-01
3.184264e-01
3.207801e-01
3.231976e-01
3.256770e-01
3.282141e-01
3.308029e-01
3.334358e-01
3.361033e-01
3.387925e-01
3.414874e-01
3.441687e-01
3.468150e-01
3.494042e-01
3.519158e-01
3.543322e-01
3.566406e-01
3.588335e-01
3.609092e-01
3.628709e-01
3.647266e-01
3.664871e-01
3.681648e-01
3.697727e-01
3.713231e-01
3.728282e-01
3.742994e-01
3.757477e-01
3.771827e-01
3.786118e-01
3.800394e-01
3.814672e-01
3.828942e-01
3.843174e-01
3.857325e-01
3.871352e-01
3.885211e-01
3.898872e-01
3.912311e-01
3.925514e-01
3.938474e-01
3.951195e-01
3.963690e-01
3.975977e-01
3.988082e-01
4.000030e-01
4.011849e-01
4.023574e-01
4.035240e-01
4.046887e-01
4.058570e-01
4.070348e-01
4.082288e-01
4.094463e-01
4.106945e-01
