EVENT_NAME: L_AQUILA
EVENT_ID: IT-2009-0009
EVENT_DATE_YYYYMMDD: 20090406
EVENT_TIME_HHMMSS: 013240
EVENT_LATITUDE_DEGREE: 42.3420
EVENT_LONGITUDE_DEGREE: 13.3800
EVENT_DEPTH_KM: 8.3
HYPOCENTER_REFERENCE: INGV-CNT_Seismic_Bulletin
MAGNITUDE_W: 6.1
MAGNITUDE_W_REFERENCE: INGV-CNT_Seismic_Bulletin
MAGNITUDE_L: 
MAGNITUDE_L_REFERENCE: 
FOCAL_MECHANISM: Normal faulting
NETWORK: IT
STATION_CODE: CSO1
STATION_NAME: 
STATION_LATITUDE_DEGREE: 42.100933
STATION_LONGITUDE_DEGREE: 13.088044
STATION_ELEVATION_M: 700
LOCATION: 
SENSOR_DEPTH_M: 0.0
VS30_M/S: 
SITE_CLASSIFICATION_EC8: B (inferred from geology)
MORPHOLOGIC_CLASSIFICATION: 
EPICENTRAL_DISTANCE_KM: 36.0
EARTHQUAKE_BACKAZIMUTH_DEGREE: 222.1
DATE_TIME_FIRST_SAMPLE_YYYYMMDD_HHMMSS: 20090406_013212.500
DATE_TIME_FIRST_SAMPLE_PRECISION: seconds
SAMPLING_INTERVAL_S: 0.005000
NDATA: 19960
DURATION_S: 99.800
STREAM: HNN
UNITS: cm/s
INSTRUMENT: sensor = FBA-3 [Kinemetrics] | digitizer = Etna [Kinemetrics]
INSTRUMENT_ANALOG/DIGITAL: D
INSTRUMENTAL_FREQUENCY_HZ: 204.000
INSTRUMENTAL_DAMPING: 0.700000
FULL_SCALE_G: 1.0
N_BIT_DIGITAL_CONVERTER: 18
PGV_CM/S: 1.487642
TIME_PGV_S: 45.685000
BASELINE_CORRECTION: BASELINE REMOVED
FILTER_TYPE: BUTTERWORTH
FILTER_ORDER: 2
LOW_CUT_FREQUENCY_HZ: 0.030
HIGH_CUT_FREQUENCY_HZ: 40.000
LATE/NORMAL_TRIGGERED: NT
DATABASE_VERSION: 0.5
HEADER_FORMAT: DYNA 1.2
DATA_TYPE: VELOCITY
PROCESSING: manual (Paolucci et al., 2011)
DATA_TIMESTAMP_YYYYMMDD_HHMMSS: 20211011_160100.753
DATA_LICENSE: CC-BY3_0-IT (http://creativecommons.org/licenses/by/3.0/deed.en)
DATA_CITATION: Luzi L, Pacor F, Puglia R (2019). Italian Accelerometric Archive v 3.0 - Istituto Nazionale di Geofisica e Vulcanologia, Dipartimento della Protezione Civile Nazionale. doi: 10.13127/itaca.3.1
DATA_CREATOR: ITACA working group
ORIGINAL_DATA_MEDIATOR_CITATION: data obtained within the DPC-INGV data exchange agreements
ORIGINAL_DATA_MEDIATOR: Archive of Italian Department of Civil Protection
ORIGINAL_DATA_CREATOR_CITATION: Presidency Of Counsil Of Ministers-Civil Protection Department. (1972). Italian Strong Motion Network. Presidency of Counsil of Ministers - Civil Protection Department. https://doi.org/10.7914/SN/IT http://www.fdsn.org/networks/detail/IT/
ORIGINAL_DATA_CREATOR: network: IT (Italian Strong Motion Network (RAN)); owner: Presidency of Counsil of Ministers - Civil Protection Department (PCM - DPC)
USER1: 
USER2: 
USER3: 
USER4: 
USER5: 
[...]
-0.503659
-0.517225
-0.529613
-0.540371
-0.549194
-0.555930
-0.560585
-0.563364
-0.564741
-0.565436
-0.566285
-0.567998
-0.570973
-0.575254
-0.580679
-0.587037
-0.594059
-0.601270
-0.607925
-0.613233
-0.616713
-0.618359
-0.618558
-0.617925
-0.617180
-0.617050
-0.618215
-0.621264
-0.626602
-0.634333
-0.644200
-0.655573
-0.667498
-0.678818
-0.688393
-0.695358
-0.699317
-0.700450
-0.699505
-0.697626
-0.696054
-0.695875
-0.697881
-0.702477
-0.709613
-0.718774
-0.729098
-0.739580
-0.749218
-0.757144
-0.762765
-0.765865
-0.766597
-0.765406
-0.762918
-0.759835
-0.756866
-0.754674
-0.753783
-0.754388
-0.756121
-0.758018
-0.758888
-0.757863
-0.754759
-0.750093
-0.744898
-0.740396
-0.737593
-0.736945
-0.738262
-0.740900
-0.744119
-0.747420
-0.750626
-0.753760
-0.756828
-0.759667
-0.761888
-0.762932
-0.762266
-0.759642
-0.755261
-0.749711
-0.743706
-0.737808
-0.732331
-0.727435
-0.723256
-0.719965
-0.717782
-0.716967
-0.717720
-0.720015
-0.723482
-0.727409
-0.730922
-0.733328
-0.734420
-0.734560
-0.734507
-0.735096
-0.736970
-0.740409
-0.745217
-0.750734
-0.756018
-0.760077
-0.761982
-0.760940
-0.756438
-0.748412
-0.737330
-0.724099
-0.709862
-0.695745
-0.682664
-0.671237
-0.661759
-0.654225
-0.648405
-0.643990
-0.640744
-0.638605
-0.637618
-0.637731
-0.638690
-0.640143
-0.641815
-0.643614
-0.645642
-0.648173
-0.651623
-0.656520
-0.663374
-0.672403
-0.683270
-0.695011
-0.706225
-0.715416
-0.721419
-0.723754
-0.722757
-0.719342
-0.714553
-0.709129
-0.703342
-0.697161
-0.690554
-0.683652
-0.676718
-0.670027
-0.663789
-0.658121
-0.653054
-0.648573
-0.644670
-0.641336
-0.638524
-0.636102
-0.633858
-0.631573
-0.629169
-0.626816
-0.624877
-0.623715
-0.623490
-0.624104
-0.625299
-0.626787
-0.628291
-0.629511
-0.630048
-0.629407
-0.627144
-0.623033
-0.617154
-0.609830
-0.601472
-0.592429
-0.582906
-0.572984
-0.562748
-0.552408
-0.542254
-0.532389
-0.522500
-0.511895
-0.499834
-0.485941
-0.470523
-0.454636
-0.439755
-0.427205
-0.417675
-0.411109
-0.406966
-0.404637
-0.403757
-0.404257
-0.406162
-0.409336
-0.413387
-0.417715
-0.421567
-0.424081
-0.424409
-0.421935
-0.416449
-0.408193
-0.397840
-0.386396
-0.374924
-0.364263
-0.354927
-0.347194
-0.341167
-0.336763
-0.333668
-0.331331
-0.328966
-0.325644
-0.320558
-0.313304
-0.303993
-0.293144
-0.281467
-0.269682
-0.258452
-0.248342
-0.239746
-0.232781
-0.227167
-0.222209
-0.216943
-0.210424
-0.202042
-0.191786
-0.180340
-0.168875
-0.158601
-0.150311
-0.144134
-0.139645
-0.136191
-0.133157
-0.130012
-0.126281
-0.121597
-0.115784
-0.108944
-0.101495
-0.094097
-0.087460
-0.082150
-0.078488
-0.076547
-0.076188
-0.077139
-0.079071
-0.081676
-0.084643
-0.087573
-0.089995
-0.091530
-0.092053
-0.091731
-0.090953
-0.090177
-0.089788
-0.090061
-0.091219
-0.093447
-0.096824
-0.101231
-0.106307
-0.111489
-0.116157
-0.119800
-0.122115
-0.122978
-0.122410
-0.120588
-0.117832
-0.114536
-0.111076
-0.107804
-0.105105
-0.103307
-0.102502
-0.102501
-0.102961
-0.103585
-0.104309
-0.105380
-0.107266
-0.110431
-0.115088
-0.121085
-0.127949
-0.135015
-0.141570
-0.147061
-0.151294
-0.154458
-0.156931
-0.159025
-0.160851
-0.162298
-0.163035
-0.162555
-0.160355
-0.156153
-0.150027
-0.142405
-0.133896
-0.125044
-0.116186
-0.107550
-0.099421
-0.092143
-0.085987
-0.081024
-0.077051
-0.073590
-0.069970
-0.065545
-0.059922
-0.052983
-0.044679
-0.034867
-0.023362
-0.010091
0.004785
0.020805
0.037261
0.053377
0.068573
0.082670
0.095900
0.108708
0.121489
0.134392
0.147333
0.160240
0.173276
0.186776
0.200978
0.215880
0.231303
0.247027
0.262894
0.278881
0.295064
0.311473
0.327952
0.344125
0.359464
0.373384
0.385395
0.395294
0.403274
0.409846
0.415682
0.421541
0.428262
0.436686
0.447472
0.460913
0.476863
0.494775
0.513822
0.533055
0.551561
0.568628
0.583876
0.597338
0.609411
0.620676
0.631679
0.642800
0.654193
0.665722
0.676990
0.687507
0.696993
0.705554
0.713605
0.721644
0.730060
0.739063
0.748693
0.758876
0.769496
0.780454
0.791680
0.803058
0.814338
0.825055
0.834537
0.842004
0.846686
0.847923
0.845303
0.838861
0.829241
0.817628
0.805403
0.793676
0.782940
0.772949
0.762846
0.751471
0.737693
0.720716
0.700355
0.677163
0.652260
0.626965
0.602524
0.580018
0.560321
0.544019
0.531310
0.522020
0.515807
0.512372
0.511482
0.512893
0.516286
0.521275
0.527419
0.534220
0.541109
0.547477
0.552808
0.556862
0.559800
0.562155
0.564634
0.567910
0.572535
0.578946
0.587431
0.598000
0.610259
0.623419
0.636510
0.648707
0.659612
0.669331
0.678385
0.687567
0.697743
0.709645
0.723694
0.739915
0.757916
0.776894
0.795715
0.813084
0.827794
0.838964
0.846213
0.849684
0.849969
0.848003
0.844963
0.842160
0.840878
0.842144
0.846481
0.853783
0.863425
0.874509
0.886119
0.897522
0.908257
0.918068
0.926699
0.933712
0.938472
0.940348
0.938997
0.934571
0.927678
0.919106
0.909483
0.899109
0.888012
0.876107
0.863404
0.850180
0.836959
0.824288
0.812499
0.801564
0.791048
0.780190
0.768082
0.753908
0.737113
0.717450
0.694999
0.670177
0.643677
0.616255
0.588482
0.560650
0.532865
0.505200
0.477845
0.451166
0.425656
0.401755
0.379679
0.359333
0.340345
0.322173
0.304303
0.286499
0.268919
0.252014
0.236260
0.221967
0.209246
0.198084
0.188387
0.179982
0.172596
0.165804
0.158991
0.151417
0.142425
0.131720
0.119535
0.106580
0.093782
0.081909
0.071254
0.061611
0.052522
0.043563
0.034485
0.025245
0.015955
0.006729
-0.002439
-0.011633
-0.020798
-0.029558
-0.037226
-0.042997
-0.046140
-0.046140
-0.042786
-0.036163
-0.026597
-0.014580
-0.000715
0.014364
0.030059
0.045842
0.061256
0.075927
0.089546
0.101830
0.112499
0.121319
0.128155
0.132998
0.136019
0.137652
0.138548
0.139384
0.140654
0.142555
0.144986
0.147573
0.149771
0.151109
0.151435
0.150993
0.150313
0.149974
0.150319
0.151219
0.152069
0.152010
0.150179
0.145821
0.138425
0.127953
0.115019
0.100817
0.086799
0.074329
0.064523
0.058186
0.055740
0.057242
0.062491
0.071105
0.082496
0.095889
0.110417
0.125214
0.139481
0.152591
0.164236
0.174467
0.183554
0.191769
0.199182
0.205553
0.210328
0.212759
0.212141
0.208129
0.200972
0.191577
0.181406
0.172208
0.165608
0.162726
0.164008
0.169272
0.177876
0.188928
0.201431
0.214347
0.226569
0.236877
0.243974
0.246672
0.244183
0.236415
0.224105
0.208654
0.191698
0.174659
0.158422
0.143210
0.128682
0.114243
0.099367
0.083729
0.067146
0.049439
0.030347
0.009539
-0.013327
-0.038503
-0.066011
-0.095563
-0.126534
-0.157954
-0.188642
-0.217534
-0.243993
-0.267903
-0.289585
-0.309597
-0.328472
-0.346473
-0.363464
-0.378975
-0.392435
-0.403346
-0.411312
-0.416049
-0.417464
-0.415723
-0.411225
-0.404520
-0.396177
-0.386640
-0.376131
-0.364674
-0.352230
-0.338789
-0.324355
-0.308888
-0.292264
-0.274282
-0.254760
-0.233731
-0.211576
-0.188985
-0.166798
-0.145838
-0.126760
-0.109934
-0.095428
-0.083105
-0.072836
-0.064705
-0.059054
-0.056278
-0.056489
-0.059277
-0.063707
-0.068569
-0.072712
-0.075250
-0.075529
-0.072990
-0.067094
-0.057352
-0.043423
-0.025281
-0.003368
0.021425
0.047924
0.074852
0.101004
0.125424
0.147521
0.167084
0.184247
0.199432
0.213238
0.226273
0.238966
0.251464
0.263683
0.275456
0.286681
0.297325
0.307236
0.315962
0.322766
0.326830
0.327466
0.324272
0.317261
0.306946
0.294259
0.280301
0.266052
0.252193
0.239054
0.226602
0.214442
0.201883
0.188092
0.172237
0.153531
0.131278
0.104957
0.074351
0.039649
0.001486
-0.039115
-0.080887
-0.122489
-0.162627
-0.200158
-0.234217
-0.264272
-0.290031
-0.311286
-0.327798
-0.339306
-0.345599
-0.346677
-0.342937
-0.335253
-0.324839
-0.312984
-0.300766
-0.288861
-0.277492
-0.266508
-0.255550
-0.244259
-0.232386
-0.219794
-0.206350
-0.191769
-0.175483
-0.156681
-0.134548
-0.108602
-0.078943
-0.046360
-0.012259
0.021546
0.053132
0.080817
0.103459
0.120588
0.132400
0.139670
0.143615
0.145703
0.147466
0.150315
0.155380
0.163383
0.174538
0.188520
0.204500
0.221303
0.237696
0.252721
0.265904
0.277308
0.287472
0.297272
0.307666
0.319426
0.332988
0.348471
0.365717
0.384276
0.403390
0.422081
0.439374
0.454566
0.467434
0.478314
0.487999
0.497536
0.508038
0.520541
0.535866
0.554455
0.576291
0.600892
0.627375
0.654585
0.681307
0.706491
0.729393
0.749604
0.766932
0.781178
0.791936
0.798608
0.800650
0.797805
0.790211
0.778423
0.763370
0.746206
0.728054
0.709795
0.692022
0.675113
0.659251
0.644357
0.630081
0.615981
0.601772
0.587416
0.573084
0.559074
0.545708
0.533148
0.521293
0.509834
0.498414
0.486798
0.474994
0.463244
0.451839
0.440892
0.430215
0.419378
0.407846
0.395132
0.380897
0.364997
0.347471
0.328418
0.307907
0.286038
0.263112
0.239802
0.217182
0.196525
0.178979
0.165256
0.155463
0.149155
0.145539
0.143724
0.142915
0.142519
0.142143
0.141588
0.140807
0.139797
0.138489
0.136728
0.134386
0.131488
0.128216
0.124872
0.121858
0.119650
0.118730
0.119518
0.122394
0.127758
0.136009
0.147444
0.162184
0.180160
0.201120
0.224673
0.250336
0.277491
0.305335
0.332902
0.359197
0.383376
0.404870
0.423390
0.438872
0.451420
0.461214
0.468394
0.472979
0.474879
0.473955
0.470084
0.463187
0.453206
0.440089
0.423818
0.404474
0.382308
0.357669
0.330851
0.302033
0.271360
0.238994
0.205080
0.169682
0.132734
0.094016
0.053205
0.010055
-0.035423
-0.082912
-0.131816
-0.181301
-0.230374
-0.278061
-0.323603
-0.366602
-0.406999
-0.444915
-0.480433
-0.513453
-0.543687
-0.570813
-0.594687
-0.615478
-0.633675
-0.650003
-0.665273
-0.680189
-0.695180
-0.710354
-0.725584
-0.740574
-0.754825
-0.767635
-0.778210
-0.785835
-0.790002
-0.790543
-0.787697
-0.782009
-0.774061
-0.764175
-0.752265
-0.737897
-0.720477
-0.699485
-0.674579
-0.645526
-0.612060
-0.573842
-0.530511
-0.481829
-0.427854
-0.369103
-0.306597
-0.241701
-0.175797
-0.109922
-0.044554
0.020367
0.085199
0.150277
0.215677
0.281129
0.346062
0.409772
0.471607
0.531066
0.587809
0.641590
0.692185
0.739368
0.782983
0.822986
0.859448
0.892559
0.922648
0.950169
0.975673
0.999730
1.022802
1.045128
1.066780
1.087887
1.108816
1.130131
1.152366
1.175794
1.200310
1.225433
1.250405
1.274335
1.296365
1.315749
1.331819
1.343953
1.351625
1.354574
1.352964
1.347449
1.339061
1.328964
1.318170
1.307341
1.296748
1.286354
1.275970
1.265391
1.254432
1.242844
1.230247
1.216150
1.200043
1.181442
1.159935
1.135286
1.107539
1.077078
1.044617
1.011115
0.977688
0.945538
0.915859
0.889714
0.867965
0.851203
0.839651
0.833146
0.831149
0.832743
0.836686
0.841602
0.846225
0.849565
0.850959
0.850026
0.846577
0.840498
0.831680
0.820050
0.805646
0.788656
0.769468
0.748774
0.727626
0.707404
0.689667
0.675842
0.666848
0.662850
0.663245
0.666907
0.672590
0.679284
0.686395
0.693827
0.701971
0.711518
0.723160
0.737356
0.754205
0.773422
0.794359
0.816007
0.837041
0.855975
0.871422
0.882321
0.888024
0.888303
0.883296
0.873399
0.859036
0.840405
0.817355
0.789447
0.756089
0.716640
0.670533
0.617480
0.557712
0.492070
0.421942
0.349130
0.275663
0.203564
0.134679
0.070607
0.012563
-0.038832
-0.083643
-0.122459
-0.156072
-0.185190
-0.210341
-0.231979
-0.250663
-0.267194
-0.282571
-0.297740
-0.313356
-0.329672
-0.346491
-0.363201
-0.378977
-0.393000
-0.404636
-0.413531
-0.419615
-0.423131
-0.424662
-0.425035
-0.425186
-0.426139
-0.429029
-0.434982
-0.444932
-0.459525
-0.479105
-0.503686
-0.532934
-0.566194
-0.602591
-0.641179
-0.681029
-0.721321
-0.761487
-0.801206
-0.840221
-0.878207
-0.914769
-0.949420
-0.981562
-1.010599
-1.036061
-1.057582
-1.074806
-1.087303
-1.094606
-1.096393
-1.092653
-1.083735
-1.070295
-1.053214
-1.033522
-1.012278
-0.990403
-0.968570
-0.947218
-0.926659
-0.907183
-0.889049
-0.872394
-0.857139
-0.842932
-0.829188
-0.815233
-0.800420
-0.784245
-0.766411
-0.746804
-0.725498
-0.702715
-0.678720
-0.653817
-0.628537
-0.603765
-0.580590
-0.560040
-0.542880
-0.529478
-0.519703
-0.512924
-0.508134
-0.504075
-0.499372
-0.492656
-0.482664
-0.468388
-0.449161
-0.424609
-0.394601
-0.359225
-0.318721
-0.273419
-0.223755
-0.170284
-0.113625
-0.054398
0.006754
0.069071
0.131568
0.193037
0.252174
0.307753
0.358830
0.404973
0.446401
0.483911
0.518557
0.551246
0.582520
0.612459
0.640601
0.666021
0.687617
0.704473
0.716165
0.722890
0.725371
0.724654
0.721890
0.718047
0.713704
0.709117
0.704456
0.699941
0.695836
0.692416
0.689891
0.688351
0.687765
0.688008
0.688899
0.690323
0.692337
0.695148
0.699053
0.704386
0.711431
0.720263
0.730692
0.742374
0.755013
0.768477
0.782864
0.798498
0.815845
0.835377
0.857484
0.882412
0.910160
0.940409
0.972630
1.006306
1.041019
1.076379
1.111909
1.147091
1.181501
1.214899
1.247214
1.278478
1.308711
1.337775
1.365360
1.391077
1.414542
1.435395
1.453304
1.467943
1.478931
1.485739
1.487642
1.483763
1.473206
1.455243
1.429492
1.395984
1.355108
1.307533
1.254197
1.196314
1.135311
1.072766
1.010403
0.950063
0.893589
0.842621
0.798456
0.762017
0.733864
0.714183
0.702769
0.699097
0.702499
0.712286
0.727797
0.748394
0.773422
0.802137
0.833655
0.867005
0.901217
0.935407
0.968828
1.000870
1.030990
1.058555
1.082780
1.102788
1.117675
1.126599
1.128894
1.124147
1.112262
1.093568
1.068854
1.039322
1.006465
0.971906
0.937204
0.903714
0.872578
0.844804
0.821373
0.803279
0.791413
0.786357
0.788283
0.796911
0.811460
0.830627
0.852664
0.875516
0.897006
0.915077
0.927963
0.934305
0.933244
0.924426
0.907979
0.884500
0.854910
0.820326
0.782074
0.741613
0.700339
0.659485
0.620087
0.582901
0.548319
0.516350
0.486659
0.458664
0.431625
0.404684
0.376964
0.347785
0.316797
0.283982
0.249710
0.214795
0.180424
0.147981
0.118895
0.094406
0.075257
0.061520
0.052611
0.047419
0.044607
0.042867
0.041031
0.038152
0.033506
0.026476
0.016540
0.003440
-0.012727
-0.031584
-0.052566
-0.075005
-0.098245
-0.121681
-0.144726
-0.166836
-0.187566
-0.206534
-0.223415
-0.238022
-0.250403
-0.260817
-0.269667
-0.277390
-0.284356
-0.290873
-0.297191
-0.303461
-0.309767
-0.316202
-0.322912
-0.330072
-0.337873
-0.346431
-0.355654
-0.365208
-0.374585
-0.383215
-0.390540
-0.396101
-0.399596
-0.400926
-0.400222
-0.397831
-0.394279
-0.390210
-0.386309
-0.383221
-0.381499
-0.381527
-0.383455
-0.387203
-0.392504
-0.398954
-0.406060
-0.413250
-0.419924
-0.425536
-0.429644
-0.431973
-0.432529
-0.431729
-0.430436
-0.429843
-0.431279
-0.435948
-0.444632
-0.457445
-0.473797
-0.492603
-0.512611
-0.532670
-0.551921
-0.569932
-0.586680
-0.602344
-0.617111
-0.631115
-0.644440
-0.657178
-0.669506
-0.681732
-0.694234
-0.707366
-0.721355
-0.736237
-0.751789
-0.767487
-0.782555
-0.796126
-0.807405
-0.815751
-0.820702
-0.821917
-0.819070
-0.811789
-0.799690
-0.782420
-0.759727
-0.731507
-0.697830
-0.658915
-0.615075
-0.566714
-0.514385
-0.458856
-0.401117
-0.342322
-0.283710
-0.226537
-0.171992
-0.121150
-0.074924
-0.033981
0.001324
0.030953
0.055207
0.074784
0.090724
0.104292
0.116811
0.129465
0.143147
0.158403
0.175407
0.193984
0.213742
0.234289
0.255381
0.276980
0.299303
0.322743
0.347638
0.374103
0.402007
0.430990
0.460513
0.489935
0.518580
0.545772
0.570781
0.592781
0.610990
0.624767
0.633601
0.637107
0.635106
0.627650
0.615001
0.597649
0.576300
0.551867
0.525420
0.498061
0.470848
0.444803
0.420818
0.399512
0.381253
0.366184
0.354121
0.344524
0.336618
0.329518
0.322345
0.314402
0.305295
0.294873
0.283092
0.269899
0.255209
0.238929
0.220933
0.201071
0.179204
0.155210
0.128920
0.100075
0.068363
0.033534
-0.004527
-0.045835
-0.090315
-0.137776
-0.187962
-0.240604
-0.295361
-0.351716
-0.408923
-0.465990
-0.521736
-0.574897
-0.624231
-0.668653
-0.707420
-0.740262
-0.767421
-0.789582
-0.807712
-0.822919
-0.836374
-0.849199
-0.862325
-0.876409
-0.891831
-0.908674
-0.926680
-0.945240
-0.963430
-0.980093
-0.993992
-1.003965
-1.009085
-1.008781
-1.002850
-0.991429
-0.975008
-0.954457
-0.930995
-0.906160
-0.881742
-0.859647
-0.841678
-0.829305
-0.823490
-0.824572
-0.832235
-0.845636
-0.863514
-0.884272
-0.906124
-0.927252
-0.945961
-0.960805
-0.970670
-0.974789
-0.972692
-0.964183
-0.949332
-0.928454
-0.902071
-0.870875
-0.835663
-0.797235
-0.756259
-0.713108
-0.667743
-0.619756
-0.568526
-0.513408
-0.453895
-0.389646
-0.320483
-0.246484
-0.168001
-0.085628
-0.000264
0.086876
0.174367
0.260633
0.343968
0.422615
0.494888
0.559333
0.614903
0.661013
0.697560
0.724907
0.743742
0.754906
0.759339
0.758043
0.751931
0.741715
0.727857
0.710595
0.690017
0.666152
0.639049
0.608808
0.575550
0.539435
0.500737
0.459839
0.417098
0.372751
0.326951
0.279783
0.231262
0.181437
0.130484
0.078740
0.026710
-0.024945
-0.075480
-0.124112
-0.170129
-0.213052
-0.252650
-0.288892
-0.321984
-0.352389
-0.380709
-0.407562
-0.433450
-0.458585
-0.482854
-0.506004
-0.527876
-0.548439
-0.567650
-0.585377
-0.601405
-0.615393
-0.626819
-0.635071
-0.639679
-0.640417
-0.637258
-0.630360
-0.620046
-0.606735
-0.590867
-0.572854
-0.553075
-0.531963
-0.510056
-0.487906
-0.465999
-0.444715
-0.424233
-0.404463
-0.385100
-0.365710
-0.345771
-0.324708
-0.301915
-0.276729
-0.248429
-0.216319
-0.179878
-0.138925
-0.093738
-0.045046
0.006054
0.058198
0.109924
0.159883
0.206978
0.250446
0.289863
0.325002
0.355622
0.381380
0.401897
0.416822
0.425881
0.428934
0.426003
0.417213
0.402730
0.382759
0.357542
0.327349
0.292490
0.253400
0.210742
0.165437
0.118553
0.071143
0.024114
-0.021854
-0.066373
-0.109313
-0.150656
-0.190307
-0.227994
-0.263334
-0.295927
-0.325445
-0.351724
-0.374824
-0.395034
-0.412867
-0.429062
-0.444554
-0.460408
-0.477759
-0.497712
-0.521184
-0.548763
-0.580632
-0.616557
-0.655916
-0.697751
-0.740863
-0.783928
-0.825586
-0.864498
-0.899433
-0.929434
-0.953963
-0.972925
-0.986598
-0.995529
-1.000429
-1.002054
-1.001115
-0.998201
-0.993743
-0.988007
-0.981142
-0.973250
-0.964457
-0.954930
-0.944850
-0.934400
-0.923791
-0.913253
-0.902983
-0.893102
-0.883629
-0.874446
-0.865342
-0.856142
-0.846801
-0.837401
-0.828099
-0.819109
-0.810708
-0.803187
-0.796800
-0.791768
-0.788259
-0.786325
-0.785892
-0.786827
-0.789010
-0.792370
-0.796875
-0.802503
-0.809195
-0.816805
-0.825072
-0.833612
-0.841898
-0.849263
-0.854928
-0.858082
-0.857971
-0.854017
-0.845922
-0.833748
