EVENT_NAME: L_AQUILA
EVENT_ID: IT-2009-0009
EVENT_DATE_YYYYMMDD: 20090406
EVENT_TIME_HHMMSS: 013240
EVENT_LATITUDE_DEGREE: 42.3420
EVENT_LONGITUDE_DEGREE: 13.3800
EVENT_DEPTH_KM: 8.3
HYPOCENTER_REFERENCE: INGV-CNT_Seismic_Bulletin
MAGNITUDE_W: 6.1
MAGNITUDE_W_REFERENCE: INGV-CNT_Seismic_Bulletin
MAGNITUDE_L: 
MAGNITUDE_L_REFERENCE: 
FOCAL_MECHANISM: Normal faulting
NETWORK: IT
STATION_CODE: CSO1
STATION_NAME: 
STATION_LATITUDE_DEGREE: 42.100933
STATION_LONGITUDE_DEGREE: 13.088044
STATION_ELEVATION_M: 700
LOCATION: 
SENSOR_DEPTH_M: 0.0
VS30_M/S: 
SITE_CLASSIFICATION_EC8: B (inferred from geology)
MORPHOLOGIC_CLASSIFICATION: 
EPICENTRAL_DISTANCE_KM: 36.0
EARTHQUAKE_BACKAZIMUTH_DEGREE: 222.1
DATE_TIME_FIRST_SAMPLE_YYYYMMDD_HHMMSS: 20090406_013212.500
DATE_TIME_FIRST_SAMPLE_PRECISION: seconds
SAMPLING_INTERVAL_S: 0.005000
NDATA: 19960
DURATION_S: 99.800
STREAM: HNE
UNITS: cm
INSTRUMENT: sensor = FBA-3 [Kinemetrics] | digitizer = Etna [Kinemetrics]
INSTRUMENT_ANALOG/DIGITAL: D
INSTRUMENTAL_FREQUENCY_HZ: 214.000
INSTRUMENTAL_DAMPING: 0.700000
FULL_SCALE_G: 1.0
N_BIT_DIGITAL_CONVERTER: 18
PGD_CM: 0.883995
TIME_PGD_S: 46.805000
BASELINE_CORRECTION: BASELINE REMOVED
FILTER_TYPE: BUTTERWORTH
FILTER_ORDER: 2
LOW_CUT_FREQUENCY_HZ: 0.030
HIGH_CUT_FREQUENCY_HZ: 40.000
LATE/NORMAL_TRIGGERED: NT
DATABASE_VERSION: 0.5
HEADER_FORMAT: DYNA 1.2
DATA_TYPE: DISPLACEMENT
PROCESSING: manual (Paolucci et al., 2011)
DATA_TIMESTAMP_YYYYMMDD_HHMMSS: 20211011_160100.080
DATA_LICENSE: CC-BY3_0-IT (http://creativecommons.org/licenses/by/3.0/deed.en)
DATA_CITATION: Luzi L, Pacor F, Puglia R (2019). Italian Accelerometric Archive v 3.0 - Istituto Nazionale di Geofisica e Vulcanologia, Dipartimento della Protezione Civile Nazionale. doi: 10.13127/itaca.3.1
DATA_CREATOR: ITACA working group
ORIGINAL_DATA_MEDIATOR_CITATION: data obtained within the DPC-INGV data exchange agreements
ORIGINAL_DATA_MEDIATOR: Archive of Italian Department of Civil Protection
ORIGINAL_DATA_CREATOR_CITATION: Presidency Of Counsil Of Ministers-Civil Protection Department. (1972). Italian Strong Motion Network. Presidency of Counsil of Ministers - Civil Protection Department. https://doi.org/10.7914/SN/IT http://www.fdsn.org/networks/detail/IT/
ORIGINAL_DATA_CREATOR: network: IT (Italian Strong Motion Network (RAN)); owner: Presidency of Counsil of Ministers - Civil Protection Department (PCM - DPC)
USER1: 
USER2: 
USER3: 
USER4: 
USER5: 
[...]
-7.286678e-01
-7.294965e-01
-7.302038e-01
-7.307987e-01
-7.312865e-01
-7.316682e-01
-7.319424e-01
-7.321071e-01
-7.321605e-01
-7.321011e-01
-7.319282e-01
-7.316421e-01
-7.312451e-01
-7.307418e-01
-7.301388e-01
-7.294441e-01
-7.286669e-01
-7.278183e-01
-7.269118e-01
-7.259638e-01
-7.249928e-01
-7.240190e-01
-7.230629e-01
-7.221452e-01
-7.212856e-01
-7.205007e-01
-7.198022e-01
-7.191954e-01
-7.186797e-01
-7.182504e-01
-7.179004e-01
-7.176214e-01
-7.174045e-01
-7.172395e-01
-7.171147e-01
-7.170173e-01
-7.169339e-01
-7.168514e-01
-7.167578e-01
-7.166429e-01
-7.164992e-01
-7.163226e-01
-7.161118e-01
-7.158667e-01
-7.155872e-01
-7.152702e-01
-7.149091e-01
-7.144934e-01
-7.140110e-01
-7.134509e-01
-7.128050e-01
-7.120688e-01
-7.112430e-01
-7.103335e-01
-7.093527e-01
-7.083182e-01
-7.072510e-01
-7.061732e-01
-7.051060e-01
-7.040682e-01
-7.030757e-01
-7.021405e-01
-7.012702e-01
-7.004675e-01
-6.997312e-01
-6.990575e-01
-6.984402e-01
-6.978718e-01
-6.973438e-01
-6.968473e-01
-6.963734e-01
-6.959135e-01
-6.954598e-01
-6.950049e-01
-6.945426e-01
-6.940686e-01
-6.935802e-01
-6.930772e-01
-6.925620e-01
-6.920390e-01
-6.915156e-01
-6.910008e-01
-6.905052e-01
-6.900403e-01
-6.896176e-01
-6.892469e-01
-6.889352e-01
-6.886856e-01
-6.884972e-01
-6.883651e-01
-6.882827e-01
-6.882431e-01
-6.882410e-01
-6.882732e-01
-6.883378e-01
-6.884333e-01
-6.885587e-01
-6.887133e-01
-6.888973e-01
-6.891121e-01
-6.893603e-01
-6.896454e-01
-6.899728e-01
-6.903501e-01
-6.907883e-01
-6.913007e-01
-6.919026e-01
-6.926097e-01
-6.934369e-01
-6.943961e-01
-6.954965e-01
-6.967446e-01
-6.981448e-01
-6.996999e-01
-7.014105e-01
-7.032748e-01
-7.052892e-01
-7.074482e-01
-7.097450e-01
-7.121710e-01
-7.147142e-01
-7.173588e-01
-7.200849e-01
-7.228698e-01
-7.256886e-01
-7.285155e-01
-7.313250e-01
-7.340928e-01
-7.367973e-01
-7.394193e-01
-7.419414e-01
-7.443478e-01
-7.466244e-01
-7.487586e-01
-7.507408e-01
-7.525656e-01
-7.542331e-01
-7.557497e-01
-7.571267e-01
-7.583792e-01
-7.595231e-01
-7.605737e-01
-7.615436e-01
-7.624425e-01
-7.632770e-01
-7.640511e-01
-7.647660e-01
-7.654212e-01
-7.660154e-01
-7.665464e-01
-7.670109e-01
-7.674045e-01
-7.677219e-01
-7.679576e-01
-7.681066e-01
-7.681659e-01
-7.681351e-01
-7.680171e-01
-7.678185e-01
-7.675491e-01
-7.672206e-01
-7.668453e-01
-7.664342e-01
-7.659974e-01
-7.655439e-01
-7.650816e-01
-7.646178e-01
-7.641591e-01
-7.637118e-01
-7.632824e-01
-7.628767e-01
-7.624989e-01
-7.621501e-01
-7.618278e-01
-7.615253e-01
-7.612322e-01
-7.609346e-01
-7.606152e-01
-7.602551e-01
-7.598348e-01
-7.593374e-01
-7.587490e-01
-7.580606e-01
-7.572685e-01
-7.563753e-01
-7.553892e-01
-7.543236e-01
-7.531955e-01
-7.520239e-01
-7.508274e-01
-7.496216e-01
-7.484170e-01
-7.472173e-01
-7.460186e-01
-7.448104e-01
-7.435785e-01
-7.423077e-01
-7.409850e-01
-7.396013e-01
-7.381520e-01
-7.366371e-01
-7.350609e-01
-7.334308e-01
-7.317566e-01
-7.300495e-01
-7.283218e-01
-7.265866e-01
-7.248581e-01
-7.231503e-01
-7.214761e-01
-7.198463e-01
-7.182690e-01
-7.167482e-01
-7.152836e-01
-7.138697e-01
-7.124979e-01
-7.111573e-01
-7.098377e-01
-7.085300e-01
-7.072281e-01
-7.059285e-01
-7.046296e-01
-7.033312e-01
-7.020331e-01
-7.007342e-01
-6.994314e-01
-6.981200e-01
-6.967930e-01
-6.954426e-01
-6.940606e-01
-6.926397e-01
-6.911742e-01
-6.896602e-01
-6.880950e-01
-6.864777e-01
-6.848090e-01
-6.830917e-01
-6.813312e-01
-6.795344e-01
-6.777104e-01
-6.758693e-01
-6.740229e-01
-6.721850e-01
-6.703715e-01
-6.686001e-01
-6.668890e-01
-6.652550e-01
-6.637121e-01
-6.622701e-01
-6.609351e-01
-6.597103e-01
-6.585967e-01
-6.575924e-01
-6.566922e-01
-6.558868e-01
-6.551631e-01
-6.545058e-01
-6.538986e-01
-6.533261e-01
-6.527740e-01
-6.522287e-01
-6.516772e-01
-6.511063e-01
-6.505035e-01
-6.498582e-01
-6.491627e-01
-6.484129e-01
-6.476074e-01
-6.467462e-01
-6.458290e-01
-6.448530e-01
-6.438125e-01
-6.426984e-01
-6.414987e-01
-6.402000e-01
-6.387899e-01
-6.372594e-01
-6.356046e-01
-6.338284e-01
-6.319400e-01
-6.299541e-01
-6.278888e-01
-6.257637e-01
-6.235978e-01
-6.214093e-01
-6.192156e-01
-6.170345e-01
-6.148856e-01
-6.127909e-01
-6.107734e-01
-6.088539e-01
-6.070485e-01
-6.053666e-01
-6.038099e-01
-6.023737e-01
-6.010496e-01
-5.998277e-01
-5.987001e-01
-5.976635e-01
-5.967205e-01
-5.958799e-01
-5.951549e-01
-5.945608e-01
-5.941131e-01
-5.938256e-01
-5.937105e-01
-5.937780e-01
-5.940373e-01
-5.944977e-01
-5.951698e-01
-5.960661e-01
-5.972010e-01
-5.985889e-01
-6.002418e-01
-6.021669e-01
-6.043656e-01
-6.068336e-01
-6.095610e-01
-6.125339e-01
-6.157353e-01
-6.191475e-01
-6.227535e-01
-6.265373e-01
-6.304843e-01
-6.345801e-01
-6.388098e-01
-6.431570e-01
-6.476053e-01
-6.521381e-01
-6.567397e-01
-6.613956e-01
-6.660935e-01
-6.708229e-01
-6.755745e-01
-6.803395e-01
-6.851084e-01
-6.898703e-01
-6.946112e-01
-6.993140e-01
-7.039587e-01
-7.085250e-01
-7.129934e-01
-7.173474e-01
-7.215734e-01
-7.256603e-01
-7.295978e-01
-7.333748e-01
-7.369781e-01
-7.403927e-01
-7.436030e-01
-7.465943e-01
-7.493535e-01
-7.518697e-01
-7.541340e-01
-7.561394e-01
-7.578813e-01
-7.593585e-01
-7.605731e-01
-7.615300e-01
-7.622363e-01
-7.627006e-01
-7.629323e-01
-7.629406e-01
-7.627355e-01
-7.623278e-01
-7.617301e-01
-7.609557e-01
-7.600189e-01
-7.589327e-01
-7.577070e-01
-7.563483e-01
-7.548588e-01
-7.532373e-01
-7.514805e-01
-7.495853e-01
-7.475507e-01
-7.453798e-01
-7.430792e-01
-7.406597e-01
-7.381352e-01
-7.355224e-01
-7.328408e-01
-7.301108e-01
-7.273524e-01
-7.245824e-01
-7.218136e-01
-7.190542e-01
-7.163083e-01
-7.135770e-01
-7.108584e-01
-7.081488e-01
-7.054437e-01
-7.027381e-01
-7.000277e-01
-6.973093e-01
-6.945821e-01
-6.918488e-01
-6.891172e-01
-6.864002e-01
-6.837166e-01
-6.810897e-01
-6.785455e-01
-6.761089e-01
-6.738006e-01
-6.716343e-01
-6.696171e-01
-6.677508e-01
-6.660332e-01
-6.644601e-01
-6.630263e-01
-6.617262e-01
-6.605533e-01
-6.594997e-01
-6.585555e-01
-6.577088e-01
-6.569480e-01
-6.562646e-01
-6.556548e-01
-6.551207e-01
-6.546697e-01
-6.543134e-01
-6.540645e-01
-6.539345e-01
-6.539306e-01
-6.540550e-01
-6.543043e-01
-6.546704e-01
-6.551417e-01
-6.557042e-01
-6.563413e-01
-6.570347e-01
-6.577664e-01
-6.585200e-01
-6.592806e-01
-6.600352e-01
-6.607711e-01
-6.614762e-01
-6.621383e-01
-6.627453e-01
-6.632847e-01
-6.637432e-01
-6.641077e-01
-6.643657e-01
-6.645082e-01
-6.645316e-01
-6.644392e-01
-6.642410e-01
-6.639524e-01
-6.635918e-01
-6.631775e-01
-6.627251e-01
-6.622447e-01
-6.617401e-01
-6.612087e-01
-6.606435e-01
-6.600345e-01
-6.593689e-01
-6.586303e-01
-6.577980e-01
-6.568469e-01
-6.557482e-01
-6.544708e-01
-6.529836e-01
-6.512566e-01
-6.492633e-01
-6.469801e-01
-6.443859e-01
-6.414620e-01
-6.381914e-01
-6.345582e-01
-6.305459e-01
-6.261380e-01
-6.213177e-01
-6.160693e-01
-6.103793e-01
-6.042374e-01
-5.976384e-01
-5.905822e-01
-5.830750e-01
-5.751306e-01
-5.667707e-01
-5.580240e-01
-5.489256e-01
-5.395142e-01
-5.298311e-01
-5.199182e-01
-5.098167e-01
-4.995673e-01
-4.892100e-01
-4.787840e-01
-4.683270e-01
-4.578756e-01
-4.474646e-01
-4.371262e-01
-4.268884e-01
-4.167734e-01
-4.067963e-01
-3.969653e-01
-3.872820e-01
-3.777437e-01
-3.683466e-01
-3.590889e-01
-3.499733e-01
-3.410071e-01
-3.322002e-01
-3.235630e-01
-3.151035e-01
-3.068269e-01
-2.987346e-01
-2.908241e-01
-2.830884e-01
-2.755163e-01
-2.680933e-01
-2.608030e-01
-2.536281e-01
-2.465520e-01
-2.395593e-01
-2.326377e-01
-2.257792e-01
-2.189813e-01
-2.122472e-01
-2.055856e-01
-1.990097e-01
-1.925366e-01
-1.861873e-01
-1.799858e-01
-1.739585e-01
-1.681327e-01
-1.625347e-01
-1.571884e-01
-1.521148e-01
-1.473319e-01
-1.428539e-01
-1.386902e-01
-1.348458e-01
-1.313199e-01
-1.281059e-01
-1.251914e-01
-1.225595e-01
-1.201898e-01
-1.180597e-01
-1.161469e-01
-1.144301e-01
-1.128915e-01
-1.115187e-01
-1.103057e-01
-1.092534e-01
-1.083700e-01
-1.076706e-01
-1.071762e-01
-1.069120e-01
-1.069055e-01
-1.071850e-01
-1.077773e-01
-1.087065e-01
-1.099930e-01
-1.116525e-01
-1.136941e-01
-1.161199e-01
-1.189252e-01
-1.221006e-01
-1.256329e-01
-1.295058e-01
-1.336989e-01
-1.381873e-01
-1.429416e-01
-1.479291e-01
-1.531147e-01
-1.584622e-01
-1.639358e-01
-1.695004e-01
-1.751227e-01
-1.807709e-01
-1.864155e-01
-1.920276e-01
-1.975795e-01
-2.030446e-01
-2.083976e-01
-2.136146e-01
-2.186709e-01
-2.235403e-01
-2.281931e-01
-2.325969e-01
-2.367179e-01
-2.405226e-01
-2.439802e-01
-2.470656e-01
-2.497617e-01
-2.520598e-01
-2.539591e-01
-2.554654e-01
-2.565884e-01
-2.573400e-01
-2.577324e-01
-2.577781e-01
-2.574906e-01
-2.568849e-01
-2.559798e-01
-2.547986e-01
-2.533696e-01
-2.517245e-01
-2.498955e-01
-2.479134e-01
-2.458056e-01
-2.435947e-01
-2.412979e-01
-2.389273e-01
-2.364903e-01
-2.339903e-01
-2.314267e-01
-2.287950e-01
-2.260876e-01
-2.232937e-01
-2.204004e-01
-2.173930e-01
-2.142548e-01
-2.109687e-01
-2.075171e-01
-2.038828e-01
-2.000496e-01
-1.960034e-01
-1.917327e-01
-1.872291e-01
-1.824897e-01
-1.775178e-01
-1.723238e-01
-1.669247e-01
-1.613426e-01
-1.556029e-01
-1.497314e-01
-1.437542e-01
-1.376960e-01
-1.315800e-01
-1.254265e-01
-1.192527e-01
-1.130730e-01
-1.068997e-01
-1.007452e-01
-9.462295e-02
-8.854813e-02
-8.253642e-02
-7.660264e-02
-7.075950e-02
-6.501714e-02
-5.938313e-02
-5.386172e-02
-4.845313e-02
-4.315358e-02
-3.795546e-02
-3.284733e-02
-2.781482e-02
-2.284270e-02
-1.791647e-02
-1.302296e-02
-8.149963e-03
-3.285497e-03
1.583238e-03
6.469818e-03
1.138746e-02
1.634806e-02
2.136183e-02
2.643738e-02
3.158186e-02
3.680073e-02
4.209685e-02
4.746971e-02
5.291473e-02
5.842269e-02
6.397983e-02
6.956849e-02
7.516803e-02
8.075596e-02
8.630920e-02
9.180504e-02
9.722206e-02
1.025412e-01
1.077474e-01
1.128316e-01
1.177918e-01
1.226336e-01
1.273699e-01
1.320191e-01
1.366038e-01
1.411484e-01
1.456775e-01
1.502142e-01
1.547794e-01
1.593912e-01
1.640661e-01
1.688201e-01
1.736695e-01
1.786314e-01
1.837227e-01
1.889599e-01
1.943572e-01
1.999255e-01
2.056722e-01
2.116006e-01
2.177097e-01
2.239953e-01
2.304515e-01
2.370728e-01
2.438548e-01
2.507955e-01
2.578959e-01
2.651606e-01
2.725977e-01
2.802190e-01
2.880391e-01
2.960754e-01
3.043481e-01
3.128779e-01
3.216840e-01
3.307832e-01
3.401888e-01
3.499085e-01
3.599435e-01
3.702874e-01
3.809253e-01
3.918335e-01
4.029812e-01
4.143325e-01
4.258489e-01
4.374912e-01
4.492209e-01
4.610026e-01
4.728057e-01
4.846053e-01
4.963808e-01
5.081140e-01
5.197874e-01
5.313831e-01
5.428819e-01
5.542635e-01
5.655070e-01
5.765910e-01
5.874946e-01
5.981969e-01
6.086761e-01
6.189087e-01
6.288692e-01
6.385311e-01
6.478681e-01
6.568552e-01
6.654707e-01
6.736974e-01
6.815244e-01
6.889472e-01
6.959669e-01
7.025901e-01
7.088268e-01
7.146904e-01
7.201963e-01
7.253623e-01
7.302070e-01
7.347502e-01
7.390128e-01
7.430166e-01
7.467852e-01
7.503432e-01
7.537170e-01
7.569346e-01
7.600255e-01
7.630193e-01
7.659427e-01
7.688168e-01
7.716556e-01
7.744631e-01
7.772327e-01
7.799462e-01
7.825745e-01
7.850792e-01
7.874176e-01
7.895464e-01
7.914258e-01
7.930223e-01
7.943111e-01
7.952758e-01
7.959092e-01
7.962123e-01
7.961944e-01
7.958723e-01
7.952707e-01
7.944205e-01
7.933578e-01
7.921217e-01
7.907516e-01
7.892843e-01
7.877512e-01
7.861780e-01
7.845844e-01
7.829841e-01
7.813864e-01
7.797981e-01
7.782251e-01
7.766741e-01
7.751532e-01
7.736717e-01
7.722394e-01
7.708654e-01
7.695565e-01
7.683161e-01
7.671447e-01
7.660400e-01
7.649974e-01
7.640109e-01
7.630742e-01
7.621803e-01
7.613212e-01
7.604872e-01
7.596675e-01
7.588507e-01
7.580261e-01
7.571856e-01
7.563253e-01
7.554456e-01
7.545522e-01
7.536551e-01
7.527673e-01
7.519040e-01
7.510811e-01
7.503147e-01
7.496202e-01
7.490117e-01
7.485024e-01
7.481045e-01
7.478301e-01
7.476904e-01
7.476950e-01
7.478514e-01
7.481644e-01
7.486344e-01
7.492578e-01
7.500281e-01
7.509363e-01
7.519713e-01
7.531213e-01
7.543739e-01
7.557174e-01
7.571415e-01
7.586384e-01
7.602019e-01
7.618274e-01
7.635113e-01
7.652503e-01
7.670418e-01
7.688832e-01
7.707726e-01
7.727087e-01
7.746910e-01
7.767195e-01
7.787957e-01
7.809224e-01
7.831041e-01
7.853468e-01
7.876569e-01
7.900410e-01
7.925057e-01
7.950569e-01
7.976994e-01
8.004362e-01
8.032689e-01
8.061976e-01
8.092219e-01
8.123402e-01
8.155497e-01
8.188455e-01
8.222206e-01
8.256655e-01
8.291675e-01
8.327108e-01
8.362753e-01
8.398379e-01
8.433732e-01
8.468561e-01
8.502627e-01
8.535713e-01
8.567627e-01
8.598204e-01
8.627292e-01
8.654754e-01
8.680468e-01
8.704327e-01
8.726242e-01
8.746150e-01
8.764024e-01
8.779870e-01
8.793726e-01
8.805651e-01
8.815718e-01
8.823995e-01
8.830536e-01
8.835372e-01
8.838513e-01
8.839951e-01
8.839671e-01
8.837665e-01
8.833937e-01
8.828512e-01
8.821426e-01
8.812712e-01
8.802388e-01
8.790462e-01
8.776931e-01
8.761786e-01
8.745014e-01
8.726592e-01
8.706493e-01
8.684695e-01
8.661187e-01
8.635972e-01
8.609062e-01
8.580472e-01
8.550217e-01
8.518308e-01
8.484742e-01
8.449502e-01
8.412575e-01
8.373951e-01
8.333639e-01
8.291668e-01
8.248093e-01
8.202993e-01
8.156472e-01
8.108649e-01
8.059649e-01
8.009605e-01
7.958663e-01
7.906990e-01
7.854789e-01
7.802312e-01
7.749855e-01
7.697761e-01
7.646407e-01
7.596188e-01
7.547490e-01
7.500667e-01
7.456011e-01
7.413737e-01
7.373968e-01
7.336722e-01
7.301915e-01
7.269357e-01
7.238768e-01
7.209788e-01
7.182001e-01
7.154948e-01
7.128151e-01
7.101131e-01
7.073414e-01
7.044541e-01
7.014076e-01
6.981616e-01
6.946799e-01
6.909314e-01
6.868912e-01
6.825406e-01
6.778689e-01
6.728724e-01
6.675532e-01
6.619188e-01
6.559815e-01
6.497579e-01
6.432689e-01
6.365386e-01
6.295940e-01
6.224652e-01
6.151844e-01
6.077861e-01
6.003058e-01
5.927795e-01
5.852419e-01
5.777236e-01
5.702484e-01
5.628310e-01
5.554778e-01
5.481877e-01
5.409533e-01
5.337622e-01
5.265971e-01
5.194374e-01
5.122606e-01
5.050441e-01
4.977660e-01
4.904065e-01
4.829493e-01
4.753812e-01
4.676917e-01
4.598734e-01
4.519225e-01
4.438401e-01
4.356326e-01
4.273114e-01
4.188932e-01
4.103993e-01
4.018544e-01
3.932858e-01
3.847207e-01
3.761842e-01
3.676961e-01
3.592706e-01
3.509163e-01
3.426371e-01
3.344347e-01
3.263108e-01
3.182693e-01
3.103189e-01
3.024727e-01
2.947479e-01
2.871639e-01
2.797400e-01
2.724940e-01
2.654403e-01
2.585910e-01
2.519552e-01
2.455395e-01
2.393478e-01
2.333806e-01
2.276342e-01
2.220997e-01
2.167642e-01
2.116108e-01
2.066198e-01
2.017704e-01
1.970412e-01
1.924119e-01
1.878639e-01
1.833797e-01
1.789436e-01
1.745412e-01
1.701591e-01
1.657836e-01
1.613998e-01
1.569925e-01
1.525460e-01
1.480445e-01
1.434722e-01
1.388139e-01
1.340554e-01
1.291840e-01
1.241889e-01
1.190616e-01
1.137968e-01
1.083930e-01
1.028531e-01
9.718426e-02
9.139832e-02
8.551161e-02
7.954452e-02
7.352057e-02
6.746595e-02
6.140879e-02
5.537799e-02
4.940230e-02
4.350965e-02
3.772587e-02
3.207380e-02
2.657306e-02
2.123960e-02
1.608550e-02
1.111959e-02
6.347652e-03
1.772097e-03
-2.607717e-03
-6.795344e-03
-1.079761e-02
-1.462410e-02
-1.828603e-02
-2.179543e-02
-2.516450e-02
-2.840487e-02
-3.152705e-02
-3.454027e-02
-3.745264e-02
-4.027132e-02
-4.300273e-02
-4.565244e-02
-4.822486e-02
-5.072305e-02
-5.314886e-02
-5.550359e-02
-5.778879e-02
-6.000717e-02
-6.216300e-02
-6.426181e-02
-6.630900e-02
-6.830808e-02
-7.025907e-02
-7.215786e-02
-7.399665e-02
-7.576564e-02
-7.745427e-02
-7.905145e-02
-8.054594e-02
-8.192718e-02
-8.318594e-02
-8.431508e-02
-8.530990e-02
-8.616784e-02
-8.688786e-02
-8.746970e-02
-8.791301e-02
-8.821693e-02
-8.838032e-02
-8.840206e-02
-8.828070e-02
-8.801434e-02
-8.760082e-02
-8.703734e-02
-8.631991e-02
-8.544340e-02
-8.440181e-02
-8.318833e-02
-8.179563e-02
-8.021663e-02
-7.844527e-02
-7.647722e-02
-7.431017e-02
-7.194436e-02
-6.938338e-02
-6.663532e-02
-6.371306e-02
-6.063321e-02
-5.741474e-02
-5.407720e-02
-5.063902e-02
-4.711636e-02
-4.352313e-02
-3.987108e-02
-3.617015e-02
-3.242956e-02
-2.865948e-02
-2.487196e-02
-2.108132e-02
-1.730417e-02
-1.355912e-02
-9.866190e-03
-6.246011e-03
-2.719018e-03
6.950420e-04
3.977421e-03
7.110654e-03
1.007861e-02
1.286632e-02
1.545991e-02
1.784677e-02
2.001558e-02
2.195617e-02
2.365987e-02
2.511980e-02
2.633063e-02
2.728841e-02
2.799091e-02
2.843818e-02
2.863293e-02
2.858058e-02
2.828898e-02
2.776775e-02
2.702748e-02
2.607869e-02
2.493114e-02
2.359357e-02
2.207377e-02
2.037895e-02
1.851645e-02
1.649487e-02
1.432456e-02
1.201718e-02
9.584782e-03
7.039461e-03
4.393282e-03
1.658176e-03
-1.153877e-03
-4.030331e-03
-6.957960e-03
-9.923113e-03
-1.291217e-02
-1.591259e-02
-1.891438e-02
-2.191144e-02
-2.490251e-02
-2.789201e-02
-3.089035e-02
-3.391354e-02
-3.698150e-02
-4.011588e-02
-4.333793e-02
-4.666704e-02
-5.012003e-02
-5.371120e-02
-5.745313e-02
-6.135745e-02
-6.543541e-02
-6.969781e-02
-7.415461e-02
-7.881404e-02
-8.368174e-02
-8.876011e-02
-9.404789e-02
-9.953977e-02
-1.052267e-01
-1.110969e-01
-1.171370e-01
-1.233336e-01
-1.296740e-01
-1.361464e-01
-1.427401e-01
-1.494450e-01
-1.562515e-01
-1.631493e-01
-1.701276e-01
-1.771740e-01
-1.842747e-01
-1.914141e-01
-1.985752e-01
-2.057403e-01
-2.128909e-01
-2.200082e-01
-2.270740e-01
-2.340710e-01
-2.409842e-01
-2.478019e-01
-2.545163e-01
-2.611250e-01
-2.676308e-01
-2.740403e-01
-2.803632e-01
-2.866114e-01
-2.927974e-01
-2.989337e-01
-3.050315e-01
-3.111004e-01
-3.171485e-01
-3.231823e-01
-3.292067e-01
-3.352256e-01
-3.412409e-01
-3.472527e-01
-3.532585e-01
-3.592551e-01
-3.652385e-01
-3.712046e-01
-3.771490e-01
-3.830687e-01
-3.889616e-01
-3.948269e-01
-4.006642e-01
-4.064734e-01
-4.122538e-01
-4.180039e-01
-4.237221e-01
-4.294058e-01
-4.350532e-01
-4.406634e-01
-4.462385e-01
-4.517854e-01
-4.573149e-01
-4.628399e-01
-4.683750e-01
-4.739391e-01
-4.795549e-01
-4.852457e-01
-4.910313e-01
-4.969270e-01
-5.029416e-01
-5.090762e-01
-5.153246e-01
-5.216755e-01
-5.281145e-01
-5.346241e-01
-5.411848e-01
-5.477762e-01
-5.543792e-01
-5.609773e-01
-5.675565e-01
-5.741042e-01
-5.806085e-01
-5.870572e-01
-5.934373e-01
-5.997353e-01
-6.059373e-01
-6.120298e-01
-6.179998e-01
-6.238355e-01
-6.295278e-01
-6.350711e-01
