EVENT_NAME: L_AQUILA
EVENT_ID: IT-2009-0009
EVENT_DATE_YYYYMMDD: 20090406
EVENT_TIME_HHMMSS: 013240
EVENT_LATITUDE_DEGREE: 42.3420
EVENT_LONGITUDE_DEGREE: 13.3800
EVENT_DEPTH_KM: 8.3
HYPOCENTER_REFERENCE: INGV-CNT_Seismic_Bulletin
MAGNITUDE_W: 6.1
MAGNITUDE_W_REFERENCE: INGV-CNT_Seismic_Bulletin
MAGNITUDE_L: 
MAGNITUDE_L_REFERENCE: 
FOCAL_MECHANISM: Normal faulting
NETWORK: IT
STATION_CODE: CSO1
STATION_NAME: 
STATION_LATITUDE_DEGREE: 42.100933
STATION_LONGITUDE_DEGREE: 13.088044
STATION_ELEVATION_M: 700
LOCATION: 
SENSOR_DEPTH_M: 0.0
VS30_M/S: 
SITE_CLASSIFICATION_EC8: B (inferred from geology)
MORPHOLOGIC_CLASSIFICATION: 
EPICENTRAL_DISTANCE_KM: 36.0
EARTHQUAKE_BACKAZIMUTH_DEGREE: 222.1
DATE_TIME_FIRST_SAMPLE_YYYYMMDD_HHMMSS: 
DATE_TIME_FIRST_SAMPLE_PRECISION: 
SAMPLING_INTERVAL_S: 
NDATA: 105
DURATION_S: 
STREAM: HNZ
UNITS: cm
INSTRUMENT: sensor = FBA-3 [Kinemetrics] | digitizer = Etna [Kinemetrics]
INSTRUMENT_ANALOG/DIGITAL: D
INSTRUMENTAL_FREQUENCY_HZ: 202.000
INSTRUMENTAL_DAMPING: 0.700000
FULL_SCALE_G: 1.0
N_BIT_DIGITAL_CONVERTER: 18
PGD_CM: -1.036321
TIME_PGD_S: 
BASELINE_CORRECTION: BASELINE REMOVED
FILTER_TYPE: BUTTERWORTH
FILTER_ORDER: 2
LOW_CUT_FREQUENCY_HZ: 0.030
HIGH_CUT_FREQUENCY_HZ: 40.000
LATE/NORMAL_TRIGGERED: NT
DATABASE_VERSION: 0.5
HEADER_FORMAT: DYNA 1.2
DATA_TYPE: DISPLACEMENT RESPONSE SPECTRUM
PROCESSING: manual (Paolucci et al., 2011)
DATA_TIMESTAMP_YYYYMMDD_HHMMSS: 20211011_160102.174
DATA_LICENSE: CC-BY3_0-IT (http://creativecommons.org/licenses/by/3.0/deed.en)
DATA_CITATION: Luzi L, Pacor F, Puglia R (2019). Italian Accelerometric Archive v 3.0 - Istituto Nazionale di Geofisica e Vulcanologia, Dipartimento della Protezione Civile Nazionale. doi: 10.13127/itaca.3.1
DATA_CREATOR: ITACA working group
ORIGINAL_DATA_MEDIATOR_CITATION: data obtained within the DPC-INGV data exchange agreements
ORIGINAL_DATA_MEDIATOR: Archive of Italian Department of Civil Protection
ORIGINAL_DATA_CREATOR_CITATION: Presidency Of Counsil Of Ministers-Civil Protection Department. (1972). Italian Strong Motion Network. Presidency of Counsil of Ministers - Civil Protection Department. https://doi.org/10.7914/SN/IT http://www.fdsn.org/networks/detail/IT/
ORIGINAL_DATA_CREATOR: network: IT (Italian Strong Motion Network (RAN)); owner: Presidency of Counsil of Ministers - Civil Protection Department (PCM - DPC)
USER1: 
USER2: 
USER3: 
USER4: 
USER5: 
    0.010000     0.000041
    0.020000     0.000163
    0.022000     0.000198
    0.025000     0.000256
    0.029000     0.000346
    0.030000     0.000370
    0.032000     0.000421
    0.035001     0.000504
    0.036000     0.000535
    0.040000     0.000668
    0.041999     0.000742
    0.044001     0.000816
    0.045000     0.000854
    0.046000     0.000895
    0.048001     0.000986
    0.050000     0.001076
    0.054999     0.001334
    0.059999     0.001619
    0.064998     0.001913
    0.067002     0.002091
    0.069999     0.002315
    0.075002     0.002849
    0.080000     0.003828
    0.084998     0.004976
    0.090001     0.005230
    0.095003     0.006081
    0.100000     0.006208
    0.109999     0.007943
    0.120005     0.009408
    0.130005     0.012447
    0.132996     0.012891
    0.139997     0.013438
    0.149993     0.017077
    0.160000     0.017822
    0.170010     0.021486
    0.179986     0.026966
    0.190006     0.032536
    0.200000     0.033177
    0.220022     0.032256
    0.239981     0.048389
    0.250000     0.063713
    0.260010     0.072696
    0.280034     0.096011
    0.290023     0.097994
    0.300030     0.107151
    0.320000     0.120048
    0.340020     0.123559
    0.350017     0.114977
    0.359971     0.114528
    0.379939     0.118539
    0.400000     0.136471
    0.419992     0.149129
    0.439947     0.168966
    0.450045     0.183702
    0.459982     0.195138
    0.480077     0.200603
    0.500000     0.260849
    0.550055     0.339271
    0.599880     0.298133
    0.650195     0.329370
    0.667111     0.324249
    0.699790     0.427994
    0.750188     0.451359
    0.800000     0.403904
    0.850340     0.462041
    0.900090     0.446479
    0.949668     0.457977
    1.000000     0.451624
    1.100110     0.349675
    1.200480     0.393526
    1.300390     0.459210
    1.400560     0.557929
    1.499250     0.599323
    1.600000     0.566275
    1.700680     0.529080
    1.798561     0.533180
    1.901141     0.513326
    2.000000     0.524529
    2.197802     0.494819
    2.398082     0.678600
    2.500000     0.683599
    2.597403     0.756140
    2.801121     0.975969
    3.003003     1.340966
    3.205128     1.954221
    3.401361     2.212449
    3.496503     2.157206
    3.597122     2.060864
    3.802281     1.847127
    4.000000     1.713757
    4.201681     1.676036
    4.405286     1.687615
    4.608295     1.799672
    4.807692     1.957527
    5.000000     2.075606
    5.494505     2.119167
    5.988024     1.825867
    6.493506     1.649748
    6.993007     1.531036
    7.518797     1.341893
    8.000000     1.152506
    8.474576     1.027533
    9.009009     0.988438
    9.523809     1.024044
   10.000000     1.109296
