EVENT_NAME: L_AQUILA
EVENT_ID: IT-2009-0009
EVENT_DATE_YYYYMMDD: 20090406
EVENT_TIME_HHMMSS: 013240
EVENT_LATITUDE_DEGREE: 42.3420
EVENT_LONGITUDE_DEGREE: 13.3800
EVENT_DEPTH_KM: 8.3
HYPOCENTER_REFERENCE: INGV-CNT_Seismic_Bulletin
MAGNITUDE_W: 6.1
MAGNITUDE_W_REFERENCE: INGV-CNT_Seismic_Bulletin
MAGNITUDE_L: 
MAGNITUDE_L_REFERENCE: 
FOCAL_MECHANISM: Normal faulting
NETWORK: IT
STATION_CODE: CSO1
STATION_NAME: 
STATION_LATITUDE_DEGREE: 42.100933
STATION_LONGITUDE_DEGREE: 13.088044
STATION_ELEVATION_M: 700
LOCATION: 
SENSOR_DEPTH_M: 0.0
VS30_M/S: 
SITE_CLASSIFICATION_EC8: B (inferred from geology)
MORPHOLOGIC_CLASSIFICATION: 
EPICENTRAL_DISTANCE_KM: 36.0
EARTHQUAKE_BACKAZIMUTH_DEGREE: 222.1
DATE_TIME_FIRST_SAMPLE_YYYYMMDD_HHMMSS: 20090406_013212.500
DATE_TIME_FIRST_SAMPLE_PRECISION: seconds
SAMPLING_INTERVAL_S: 0.005000
NDATA: 19960
DURATION_S: 99.800
STREAM: HNE
UNITS: cm/s
INSTRUMENT: sensor = FBA-3 [Kinemetrics] | digitizer = Etna [Kinemetrics]
INSTRUMENT_ANALOG/DIGITAL: D
INSTRUMENTAL_FREQUENCY_HZ: 214.000
INSTRUMENTAL_DAMPING: 0.700000
FULL_SCALE_G: 1.0
N_BIT_DIGITAL_CONVERTER: 18
PGV_CM/S: 2.360621
TIME_PGV_S: 45.965000
BASELINE_CORRECTION: BASELINE REMOVED
FILTER_TYPE: BUTTERWORTH
FILTER_ORDER: 2
LOW_CUT_FREQUENCY_HZ: 0.030
HIGH_CUT_FREQUENCY_HZ: 40.000
LATE/NORMAL_TRIGGERED: NT
DATABASE_VERSION: 0.5
HEADER_FORMAT: DYNA 1.2
DATA_TYPE: VELOCITY
PROCESSING: manual (Paolucci et al., 2011)
DATA_TIMESTAMP_YYYYMMDD_HHMMSS: 20211011_160100.221
DATA_LICENSE: CC-BY3_0-IT (http://creativecommons.org/licenses/by/3.0/deed.en)
DATA_CITATION: Luzi L, Pacor F, Puglia R (2019). Italian Accelerometric Archive v 3.0 - Istituto Nazionale di Geofisica e Vulcanologia, Dipartimento della Protezione Civile Nazionale. doi: 10.13127/itaca.3.1
DATA_CREATOR: ITACA working group
ORIGINAL_DATA_MEDIATOR_CITATION: data obtained within the DPC-INGV data exchange agreements
ORIGINAL_DATA_MEDIATOR: Archive of Italian Department of Civil Protection
ORIGINAL_DATA_CREATOR_CITATION: Presidency Of Counsil Of Ministers-Civil Protection Department. (1972). Italian Strong Motion Network. Presidency of Counsil of Ministers - Civil Protection Department. https://doi.org/10.7914/SN/IT http://www.fdsn.org/networks/detail/IT/
ORIGINAL_DATA_CREATOR: network: IT (Italian Strong Motion Network (RAN)); owner: Presidency of Counsil of Ministers - Civil Protection Department (PCM - DPC)
USER1: 
USER2: 
USER3: 
USER4: 
USER5: 
[...]
-0.714899
-0.704954
-0.694488
-0.684494
-0.675694
-0.668355
-0.662417
-0.657797
-0.654546
-0.652722
-0.652153
-0.652356
-0.652684
-0.652551
-0.651571
-0.649572
-0.646584
-0.642824
-0.638656
-0.634497
-0.630715
-0.627578
-0.625222
-0.623633
-0.622663
-0.622070
-0.621590
-0.621012
-0.620124
-0.618583
-0.615942
-0.611900
-0.606535
-0.600252
-0.593526
-0.586672
-0.579815
-0.572954
-0.565970
-0.558609
-0.550494
-0.541254
-0.530707
-0.518937
-0.506192
-0.492767
-0.479068
-0.465825
-0.454121
-0.445072
-0.439373
-0.437103
-0.437828
-0.440781
-0.445005
-0.449462
-0.453192
-0.455490
-0.455998
-0.454701
-0.451903
-0.448182
-0.444278
-0.440904
-0.438533
-0.437319
-0.437289
-0.438646
-0.441874
-0.447510
-0.455798
-0.466539
-0.479153
-0.492816
-0.506614
-0.519748
-0.531729
-0.542483
-0.552262
-0.561446
-0.570363
-0.579191
-0.587935
-0.596537
-0.605016
-0.613509
-0.622147
-0.630942
-0.639770
-0.648436
-0.656769
-0.664740
-0.672495
-0.680261
-0.688178
-0.696181
-0.704015
-0.711373
-0.718059
-0.724056
-0.729416
-0.733963
-0.737102
-0.737934
-0.735625
-0.729784
-0.720619
-0.708864
-0.695542
-0.681720
-0.668310
-0.656053
-0.645673
-0.637921
-0.633380
-0.632222
-0.634098
-0.638152
-0.643206
-0.648128
-0.652157
-0.654908
-0.656122
-0.655487
-0.652715
-0.647742
-0.640866
-0.632661
-0.623651
-0.613929
-0.603019
-0.590110
-0.574529
-0.556118
-0.535306
-0.512957
-0.490136
-0.467832
-0.446733
-0.427146
-0.409095
-0.392461
-0.377027
-0.362486
-0.348476
-0.334657
-0.320845
-0.307132
-0.293875
-0.281540
-0.270540
-0.261142
-0.253453
-0.247425
-0.242908
-0.239773
-0.237982
-0.237537
-0.238358
-0.240200
-0.242695
-0.245448
-0.248049
-0.250081
-0.251235
-0.251439
-0.250911
-0.250114
-0.249571
-0.249539
-0.249793
-0.249730
-0.248790
-0.246895
-0.244591
-0.242780
-0.242236
-0.243279
-0.245766
-0.249263
-0.253245
-0.257215
-0.260634
-0.262938
-0.263675
-0.262570
-0.259578
-0.254981
-0.249332
-0.243191
-0.236818
-0.230107
-0.222825
-0.214936
-0.206775
-0.198889
-0.191657
-0.185053
-0.178762
-0.172433
-0.165941
-0.159549
-0.153775
-0.149120
-0.145921
-0.144329
-0.144290
-0.145658
-0.148443
-0.152933
-0.159545
-0.168598
-0.180098
-0.193580
-0.208258
-0.223386
-0.238509
-0.253490
-0.268364
-0.283113
-0.297568
-0.311463
-0.324466
-0.336154
-0.346058
-0.353800
-0.359217
-0.362471
-0.364104
-0.364881
-0.365541
-0.366677
-0.368680
-0.371671
-0.375487
-0.379771
-0.384048
-0.387774
-0.390357
-0.391197
-0.389751
-0.385644
-0.378747
-0.369220
-0.357491
-0.344096
-0.329445
-0.313739
-0.297068
-0.279511
-0.261204
-0.242429
-0.223688
-0.205664
-0.189134
-0.174923
-0.163791
-0.156272
-0.152549
-0.152371
-0.155060
-0.159729
-0.165594
-0.172228
-0.179587
-0.187779
-0.196746
-0.206132
-0.215378
-0.223927
-0.231387
-0.237595
-0.242617
-0.246629
-0.249863
-0.252655
-0.255457
-0.258690
-0.262514
-0.266692
-0.270646
-0.273627
-0.274868
-0.273695
-0.269609
-0.262392
-0.252206
-0.239590
-0.225249
-0.209790
-0.193638
-0.177208
-0.161136
-0.146336
-0.133809
-0.124366
-0.118414
-0.115755
-0.115500
-0.116250
-0.116495
-0.114980
-0.110898
-0.103977
-0.094529
-0.083361
-0.071558
-0.060254
-0.050457
-0.042853
-0.037629
-0.034406
-0.032353
-0.030469
-0.027873
-0.024005
-0.018631
-0.011706
-0.003213
0.006818
0.018165
0.030310
0.042486
0.053770
0.063263
0.070295
0.074566
0.076107
0.075158
0.072093
0.067487
0.062196
0.057291
0.053930
0.053234
0.056142
0.063222
0.074507
0.089508
0.107363
0.127054
0.147593
0.168091
0.187770
0.205986
0.222260
0.236220
0.247486
0.255614
0.260237
0.261272
0.258977
0.253809
0.246288
0.236981
0.226549
0.215683
0.204908
0.194419
0.184187
0.174190
0.164560
0.155503
0.147114
0.139260
0.131691
0.124226
0.116730
0.109013
0.100916
0.092533
0.084239
0.076521
0.069791
0.064336
0.060340
0.057906
0.057040
0.057590
0.059202
0.061393
0.063734
0.065955
0.067913
0.069493
0.070593
0.071215
0.071558
0.071993
0.072962
0.074944
0.078461
0.084034
0.092088
0.102808
0.115993
0.131059
0.147194
0.163573
0.179563
0.194743
0.208714
0.220983
0.230980
0.238127
0.241989
0.242460
0.239750
0.234220
0.226278
0.216337
0.204812
0.192157
0.178917
0.165743
0.153283
0.141950
0.131792
0.122631
0.114315
0.106860
0.100420
0.095210
0.091482
0.089508
0.089545
0.091765
0.096193
0.102711
0.111142
0.121313
0.132970
0.145720
0.159169
0.173080
0.187394
0.202123
0.217191
0.232293
0.246924
0.260579
0.272983
0.284178
0.294414
0.303953
0.313001
0.321732
0.330249
0.338537
0.346439
0.353637
0.359591
0.363471
0.364282
0.361198
0.353914
0.342772
0.328656
0.312747
0.296306
0.280584
0.266779
0.255932
0.248796
0.245767
0.246892
0.251932
0.260443
0.271859
0.285603
0.301184
0.318173
0.336066
0.354217
0.371912
0.388499
0.403486
0.416578
0.427684
0.436906
0.444543
0.451028
0.456792
0.462132
0.467200
0.472073
0.476781
0.481257
0.485269
0.488393
0.490064
0.489686
0.486772
0.481125
0.472976
0.462891
0.451439
0.438917
0.425295
0.410289
0.393450
0.374326
0.352704
0.328816
0.303358
0.277354
0.251896
0.227900
0.205966
0.186366
0.169090
0.153820
0.139985
0.127010
0.114580
0.102710
0.091581
0.081262
0.071541
0.061893
0.051624
0.040210
0.027558
0.013980
0.000035
-0.013616
-0.026357
-0.037659
-0.047114
-0.054545
-0.060112
-0.064291
-0.067722
-0.070996
-0.074530
-0.078630
-0.083580
-0.089570
-0.096571
-0.104379
-0.112756
-0.121443
-0.130101
-0.138422
-0.146332
-0.154082
-0.162197
-0.171358
-0.182258
-0.195482
-0.211443
-0.230381
-0.252363
-0.277221
-0.304407
-0.332953
-0.361625
-0.389160
-0.414431
-0.436555
-0.454991
-0.469526
-0.480174
-0.487037
-0.490191
-0.489527
-0.484670
-0.475087
-0.460336
-0.440292
-0.415301
-0.386182
-0.354094
-0.320376
-0.286348
-0.253134
-0.221621
-0.192419
-0.165756
-0.141455
-0.118982
-0.097547
-0.076340
-0.054846
-0.032937
-0.010678
0.011866
0.034587
0.057228
0.079397
0.100652
0.120597
0.138946
0.155438
0.169720
0.181298
0.189612
0.194193
0.194765
0.191214
0.183539
0.171931
0.156970
0.139692
0.121363
0.103142
0.085862
0.070003
0.055791
0.043380
0.033001
0.024959
0.019490
0.016683
0.016491
0.018719
0.022989
0.028736
0.035313
0.042172
0.049013
0.055912
0.063385
0.072225
0.083148
0.096470
0.112013
0.129198
0.147231
0.165166
0.181885
0.196163
0.206913
0.213441
0.215547
0.213440
0.207564
0.198509
0.187029
0.174059
0.160544
0.147251
0.134750
0.123463
0.113685
0.105595
0.099293
0.094783
0.091974
0.090751
0.090981
0.092446
0.094815
0.097680
0.100588
0.103054
0.104581
0.104686
0.102964
0.099118
0.092975
0.084550
0.074140
0.062335
0.049913
0.037699
0.026411
0.016482
0.007925
0.000418
-0.006440
-0.012918
-0.019117
-0.025079
-0.030908
-0.036798
-0.042972
-0.049640
-0.057025
-0.065466
-0.075472
-0.087632
-0.102479
-0.120376
-0.141432
-0.165424
-0.191848
-0.220089
-0.249616
-0.280042
-0.311017
-0.342117
-0.372871
-0.402866
-0.431795
-0.459373
-0.485196
-0.508641
-0.528913
-0.545226
-0.556974
-0.563761
-0.565386
-0.561889
-0.553570
-0.540908
-0.524390
-0.504413
-0.481288
-0.455311
-0.426843
-0.396440
-0.364956
-0.333515
-0.303317
-0.275408
-0.250486
-0.228791
-0.210119
-0.193976
-0.179771
-0.166910
-0.154815
-0.142979
-0.131052
-0.118840
-0.106189
-0.092895
-0.078721
-0.063486
-0.047134
-0.029804
-0.011861
0.006156
0.023592
0.039724
0.053891
0.065692
0.075071
0.082209
0.087353
0.090710
0.092455
0.092762
0.091750
0.089451
0.085875
0.081137
0.075569
0.069759
0.064468
0.060496
0.058613
0.059530
0.063867
0.072034
0.084044
0.099489
0.117673
0.137689
0.158419
0.178643
0.197208
0.213117
0.225619
0.234327
0.239311
0.241156
0.240911
0.239944
0.239747
0.241629
0.246388
0.254162
0.264534
0.276742
0.289866
0.302976
0.315242
0.326012
0.334834
0.341421
0.345557
0.347032
0.345694
0.341560
0.334848
0.325958
0.315468
0.304150
0.292933
0.282764
0.274372
0.268105
0.263935
0.261531
0.260373
0.259925
0.259774
0.259683
0.259624
0.259791
0.260546
0.262295
0.265394
0.270080
0.276398
0.284176
0.293096
0.302815
0.313035
0.323462
0.333743
0.343446
0.352113
0.359345
0.364816
0.368223
0.369265
0.367575
0.362706
0.354285
0.342222
0.326791
0.308590
0.288404
0.266994
0.244947
0.222728
0.200859
0.180040
0.161085
0.144734
0.131470
0.121434
0.114497
0.110427
0.109047
0.110302
0.114186
0.120565
0.129062
0.139087
0.149961
0.161105
0.172231
0.183451
0.195202
0.208101
0.222818
0.239936
0.259733
0.282019
0.306113
0.330950
0.355240
0.377681
0.397185
0.413054
0.425029
0.433177
0.437700
0.438744
0.436225
0.429774
0.418931
0.403515
0.383901
0.361064
0.336387
0.311351
0.287227
0.264829
0.244379
0.225506
0.207321
0.188601
0.168126
0.145008
0.118817
0.089545
0.057487
0.023029
-0.013495
-0.051866
-0.092084
-0.134411
-0.179260
-0.226979
-0.277585
-0.330579
-0.385022
-0.439751
-0.493594
-0.545486
-0.594563
-0.640279
-0.682457
-0.721198
-0.756757
-0.789394
-0.819171
-0.845926
-0.869453
-0.889654
-0.906560
-0.920309
-0.931183
-0.939580
-0.945883
-0.950330
-0.952996
-0.953783
-0.952373
-0.948189
-0.940548
-0.928946
-0.913250
-0.893695
-0.870802
-0.845196
-0.817373
-0.787504
-0.755397
-0.720653
-0.682920
-0.642068
-0.598252
-0.551842
-0.503255
-0.452862
-0.401062
-0.348379
-0.295448
-0.242920
-0.191373
-0.141260
-0.092873
-0.046333
-0.001668
0.041029
0.081532
0.119555
0.154862
0.187360
0.217257
0.245123
0.271740
0.297906
0.324306
0.351358
0.379046
0.406906
0.434196
0.460108
0.483894
0.504908
0.522552
0.536327
0.545994
0.551695
0.553991
0.553752
0.551888
0.549179
0.546270
0.543715
0.541909
0.541036
0.541118
0.542073
0.543675
0.545449
0.546654
0.546333
0.543394
0.536723
0.525375
0.508844
0.487311
0.461673
0.433260
0.403422
0.373262
0.343526
0.314626
0.286756
0.260028
0.234580
0.210703
0.188844
0.169349
0.152155
0.136683
0.121957
0.106824
0.090192
0.071266
0.049769
0.026011
0.000775
-0.024885
-0.049857
-0.073207
-0.094269
-0.112502
-0.127411
-0.138685
-0.146349
-0.150708
-0.152135
-0.150908
-0.147181
-0.141018
-0.132431
-0.121403
-0.107866
-0.091711
-0.072890
-0.051608
-0.028503
-0.004678
0.018486
0.039638
0.057721
0.072129
0.082848
0.090478
0.096077
0.100930
0.106283
0.113043
0.121792
0.133113
0.147729
0.166466
0.190216
0.219741
0.255468
0.297454
0.345384
0.398661
0.456653
0.518840
0.584780
0.654109
0.726650
0.802446
0.881593
0.964064
1.049670
1.138006
1.228368
1.319807
1.411246
1.501432
1.588874
1.671992
1.749329
1.819697
1.882270
1.936612
1.982597
2.020302
2.049873
2.071453
2.085213
2.091394
2.090279
2.082198
2.067674
2.047559
2.023016
1.995414
1.966195
1.936656
1.907662
1.879434
1.851540
1.823113
1.793244
1.761368
1.727446
1.691893
1.655329
1.618456
1.582097
1.547145
1.514423
1.484589
1.458063
1.434978
1.415230
1.398532
1.384319
1.371701
1.359590
1.346823
1.332317
1.315178
1.294615
1.269868
1.240294
1.205453
1.165166
1.119609
1.069259
1.014706
0.956576
0.895617
0.832725
0.768881
0.705181
0.642812
0.582892
0.526372
0.473956
0.426006
0.382560
0.343359
0.307721
0.274561
0.242599
0.210460
0.176688
0.139879
0.098875
0.052850
0.001296
-0.055905
-0.118463
-0.185836
-0.257305
-0.331894
-0.408324
-0.485152
-0.561062
-0.635070
-0.706466
-0.774579
-0.838619
-0.897677
-0.950871
-0.997503
-1.037111
-1.069502
-1.094718
-1.112934
-1.124443
-1.129656
-1.128914
-1.122424
-1.110376
-1.093012
-1.070613
-1.043384
-1.011275
-0.973876
-0.930554
-0.880759
-0.824207
-0.760941
-0.691513
-0.617079
-0.539216
-0.459621
-0.379876
-0.301256
-0.224602
-0.150309
-0.078479
-0.009153
0.057513
0.121134
0.181022
0.236234
0.285797
0.329037
0.365796
0.396411
0.421565
0.442183
0.459351
0.474129
0.487405
0.499991
0.512717
0.526335
0.541495
0.558778
0.578648
0.601489
0.627632
0.657234
0.690321
0.726856
0.766631
0.809235
0.854154
0.900707
0.947884
0.994377
1.038800
1.079835
1.116414
1.147950
1.174285
1.195451
1.211627
1.223198
1.230703
1.234761
1.235953
1.234655
1.230904
1.224443
1.214964
1.202343
1.186755
1.168628
1.148471
1.126803
1.104282
1.081717
1.059910
1.039625
1.021626
1.006501
0.994426
0.985245
0.978703
0.974599
0.972893
0.973747
0.977316
0.983529
0.992119
1.002755
1.015109
1.028897
1.043774
1.059224
1.074572
1.089003
1.101592
1.111429
1.117733
1.119908
1.117586
1.110646
1.099169
1.083403
1.063827
1.041249
1.016835
0.992028
0.968364
0.947258
0.929853
0.916941
0.908922
0.905817
0.907345
0.913030
0.922358
0.934979
0.950796
0.969889
0.992369
1.018272
1.047441
1.079449
1.113664
1.149347
1.185678
1.221818
1.257113
1.291252
1.324258
1.356401
1.388138
1.420079
1.452933
1.487434
1.524257
1.564008
1.607271
1.654539
1.705950
1.761221
1.819851
1.881113
1.943938
2.007001
2.068786
2.127579
2.181645
2.229533
2.270257
2.303289
2.328459
2.345942
2.356333
2.360621
2.359917
2.355096
2.346642
2.334689
2.319132
2.299756
2.276333
2.248690
2.216795
2.180724
2.140469
2.095840
2.046510
1.992110
1.932386
1.867381
1.797428
1.723095
1.645341
1.565411
1.484550
1.403947
1.324632
1.247353
1.172706
1.101194
1.033188
0.968940
0.908647
0.852510
0.800774
0.753707
0.711602
0.674760
0.643518
0.618189
0.598764
0.584670
0.574831
0.567750
0.561502
0.553910
0.542714
0.525658
0.500944
0.467676
0.425767
0.375870
0.319308
0.257747
0.192950
0.126676
0.060624
-0.003593
-0.064412
-0.120326
-0.170030
-0.212539
-0.247229
-0.274009
-0.293467
-0.306620
-0.314631
-0.318726
-0.320063
-0.319535
-0.317662
-0.314598
-0.310201
-0.304185
-0.296304
-0.286455
-0.274791
-0.261790
-0.248081
-0.234272
-0.220935
-0.208530
-0.197304
-0.187342
-0.178769
-0.171829
-0.166799
-0.163932
-0.163365
-0.164926
-0.168089
-0.172073
-0.175932
-0.178676
-0.179431
-0.177558
-0.172667
-0.164571
-0.153270
-0.138909
-0.121701
-0.101870
-0.079570
-0.054881
-0.027947
0.000922
0.031294
0.062587
0.093997
0.124696
0.154058
0.181623
0.207015
0.229997
0.250517
0.268694
0.284834
0.299371
0.312702
0.325102
0.336768
0.347819
0.358299
0.368276
0.377878
0.387227
0.396445
0.405706
0.415237
0.425337
0.436353
0.448542
0.462013
0.476818
0.492942
0.510248
0.528491
0.547363
0.566533
0.585749
0.604850
0.623660
0.641897
0.659169
0.675024
0.688967
0.700411
0.708650
0.712910
0.712512
0.707072
0.696581
0.681316
0.661715
0.638288
0.611524
0.581764
0.549252
0.514281
0.477178
0.438296
0.398161
0.357477
0.316928
0.277106
0.238498
0.201340
0.165554
0.130823
0.096718
0.062809
0.028757
-0.005586
-0.040129
-0.074567
-0.108501
-0.141711
-0.174287
-0.206477
-0.238524
-0.270620
-0.302892
-0.335449
-0.368441
-0.401971
-0.435958
-0.470156
-0.504296
-0.538204
-0.571809
-0.605095
-0.638172
-0.671329
-0.704791
-0.738552
-0.772471
-0.806244
-0.839413
-0.871501
-0.902008
-0.930430
-0.956457
-0.979987
-1.000879
-1.018850
-1.033465
-1.044008
-1.049548
-1.049133
-1.041882
-1.027084
-1.004383
-0.973946
-0.936472
-0.893122
-0.845469
-0.795388
-0.744914
-0.696147
-0.651148
-0.611786
-0.579598
-0.555748
-0.541056
-0.535937
-0.540405
-0.554332
-0.577463
-0.609300
-0.649195
-0.696343
-0.749695
-0.808057
-0.870105
-0.934339
-0.999311
-1.063832
-1.126878
-1.187473
-1.244710
-1.297802
-1.346068
-1.388908
-1.425767
-1.456151
-1.479669
-1.496066
-1.505259
-1.507516
-1.503651
-1.495055
-1.483470
-1.470634
-1.458032
-1.446878
-1.438228
-1.433019
-1.431941
-1.435343
-1.443300
-1.455632
-1.471891
-1.491441
-1.513632
-1.537898
-1.563664
-1.590178
-1.616476
-1.641504
-1.664232
-1.683637
-1.698788
-1.708972
-1.713732
-1.713006
-1.707310
-1.697619
-1.685093
-1.670868
-1.655840
-1.640476
-1.624786
-1.608284
-1.590088
-1.569241
-1.544961
-1.516803
-1.484768
-1.449218
-1.410722
-1.369865
-1.327164
-1.283140
-1.238342
-1.193430
-1.149289
-1.106890
-1.067104
-1.030686
-0.998191
-0.969896
-0.945841
-0.925852
-0.909607
-0.896821
-0.887230
-0.880486
-0.876411
-0.875112
-0.876749
-0.881456
-0.889303
-0.900303
-0.914456
-0.931664
-0.951703
-0.974275
-0.999018
-1.025461
-1.052966
-1.080758
-1.107983
-1.133764
-1.157189
-1.177341
-1.193419
-1.204790
-1.210923
-1.211432
-1.206162
-1.195137
-1.178530
-1.156755
-1.130414
-1.100148
-1.066691
-1.030821
-0.993182
-0.954388
-0.915111
-0.875963
-0.837525
-0.800452
-0.765299
-0.732386
-0.701879
-0.673815
-0.648075
-0.624435
-0.602645
-0.582472
-0.563736
-0.546282
-0.529942
-0.514485
-0.499637
-0.485164
-0.470945
-0.457040
-0.443677
-0.431166
-0.419761
-0.409439
-0.399814
-0.390199
-0.379758
-0.367758
-0.353797
-0.337726
-0.319435
-0.298898
-0.276249
-0.251752
-0.225827
-0.198965
-0.171589
-0.144003
-0.116368
-0.088664
-0.060783
-0.032679
-0.004348
0.024273
0.053271
0.082705
0.112696
0.143485
0.175302
0.208319
0.242696
0.278539
0.315802
0.354270
0.393612
0.433410
0.473162
0.512196
0.549612
0.584453
0.615969
0.643695
0.667506
0.687638
0.704532
0.718647
0.730409
0.740186
0.748117
0.754017
0.757504
0.758127
0.755430
0.749011
0.738586
0.724036
0.705399
0.682812
0.656476
0.626647
0.593591
0.557541
0.518718
0.477374
0.433760
0.388118
0.340741
0.291985
0.242166
0.191557
0.140500
0.089453
0.038950
-0.010469
-0.058321
-0.104245
-0.148055
-0.189758
-0.229509
-0.267515
-0.303959
-0.338965
-0.372499
-0.404316
-0.434062
-0.461477
-0.486479
-0.509064
-0.529236
-0.547021
-0.562411
-0.575291
-0.585526
-0.593030
-0.597812
-0.600084
-0.600358
-0.599411
-0.598215
-0.597899
-0.599669
-0.604638
-0.613592
-0.626875
-0.644409
-0.665822
-0.690598
-0.718236
-0.748385
-0.780865
-0.815592
-0.852480
-0.891359
-0.931886
-0.973540
-1.015674
-1.057555
-1.098377
-1.137389
-1.174033
-1.208018
-1.239324
-1.268085
-1.294485
-1.318730
-1.340983
-1.361292
-1.379575
-1.395655
-1.409282
-1.420136
-1.427873
-1.432223
-1.433014
-1.430119
-1.423474
-1.413149
-1.399398
-1.382653
-1.363526
-1.342879
-1.321758
-1.301161
-1.281897
-1.264581
-1.249624
-1.237208
-1.227266
-1.219557
-1.213782
-1.209623
-1.206753
-1.204887
-1.203769
-1.203069
-1.202342
-1.201170
-1.199320
-1.196690
-1.193205
-1.188893
-1.183938
-1.178580
-1.173046
-1.167473
-1.161845
-1.156067
-1.150033
-1.143623
-1.136755
-1.129472
-1.122031
-1.115029
-1.109385
-1.105904
-1.104983
-1.107026
-1.112822
-1.123162
-1.138153
-1.157135
-1.179136
-1.202920
-1.226919
-1.249673
-1.270185
-1.287788
-1.301923
-1.312140
