EVENT_NAME: L_AQUILA
EVENT_ID: IT-2009-0009
EVENT_DATE_YYYYMMDD: 20090406
EVENT_TIME_HHMMSS: 013240
EVENT_LATITUDE_DEGREE: 42.3420
EVENT_LONGITUDE_DEGREE: 13.3800
EVENT_DEPTH_KM: 8.3
HYPOCENTER_REFERENCE: INGV-CNT_Seismic_Bulletin
MAGNITUDE_W: 6.1
MAGNITUDE_W_REFERENCE: INGV-CNT_Seismic_Bulletin
MAGNITUDE_L: 
MAGNITUDE_L_REFERENCE: 
FOCAL_MECHANISM: Normal faulting
NETWORK: IT
STATION_CODE: CSO1
STATION_NAME: 
STATION_LATITUDE_DEGREE: 42.100933
STATION_LONGITUDE_DEGREE: 13.088044
STATION_ELEVATION_M: 700
LOCATION: 
SENSOR_DEPTH_M: 0.0
VS30_M/S: 
SITE_CLASSIFICATION_EC8: B (inferred from geology)
MORPHOLOGIC_CLASSIFICATION: 
EPICENTRAL_DISTANCE_KM: 36.0
EARTHQUAKE_BACKAZIMUTH_DEGREE: 222.1
DATE_TIME_FIRST_SAMPLE_YYYYMMDD_HHMMSS: 20090406_013212.500
DATE_TIME_FIRST_SAMPLE_PRECISION: seconds
SAMPLING_INTERVAL_S: 0.005000
NDATA: 19960
DURATION_S: 99.800
STREAM: HNE
UNITS: cm/s^2
INSTRUMENT: sensor = FBA-3 [Kinemetrics] | digitizer = Etna [Kinemetrics]
INSTRUMENT_ANALOG/DIGITAL: D
INSTRUMENTAL_FREQUENCY_HZ: 214.000
INSTRUMENTAL_DAMPING: 0.700000
FULL_SCALE_G: 1.0
N_BIT_DIGITAL_CONVERTER: 18
PGA_CM/S^2: 18.287800
TIME_PGA_S: 44.715000
BASELINE_CORRECTION: BASELINE REMOVED
FILTER_TYPE: BUTTERWORTH
FILTER_ORDER: 2
LOW_CUT_FREQUENCY_HZ: 0.030
HIGH_CUT_FREQUENCY_HZ: 40.000
LATE/NORMAL_TRIGGERED: NT
DATABASE_VERSION: 0.5
HEADER_FORMAT: DYNA 1.2
DATA_TYPE: ACCELERATION
PROCESSING: manual (Paolucci et al., 2011)
DATA_TIMESTAMP_YYYYMMDD_HHMMSS: 20211011_160059.952
DATA_LICENSE: CC-BY3_0-IT (http://creativecommons.org/licenses/by/3.0/deed.en)
DATA_CITATION: Luzi L, Pacor F, Puglia R (2019). Italian Accelerometric Archive v 3.0 - Istituto Nazionale di Geofisica e Vulcanologia, Dipartimento della Protezione Civile Nazionale. doi: 10.13127/itaca.3.1
DATA_CREATOR: ITACA working group
ORIGINAL_DATA_MEDIATOR_CITATION: data obtained within the DPC-INGV data exchange agreements
ORIGINAL_DATA_MEDIATOR: Archive of Italian Department of Civil Protection
ORIGINAL_DATA_CREATOR_CITATION: Presidency Of Counsil Of Ministers-Civil Protection Department. (1972). Italian Strong Motion Network. Presidency of Counsil of Ministers - Civil Protection Department. https://doi.org/10.7914/SN/IT http://www.fdsn.org/networks/detail/IT/
ORIGINAL_DATA_CREATOR: network: IT (Italian Strong Motion Network (RAN)); owner: Presidency of Counsil of Ministers - Civil Protection Department (PCM - DPC)
USER1: 
USER2: 
USER3: 
USER4: 
USER5: 
[...]
0.547384
0.635556
0.739143
0.805340
0.783534
0.681402
0.559498
0.481735
0.483366
0.563003
0.678200
0.760362
0.763714
0.704010
0.635499
0.591986
0.558517
0.492638
0.358194
0.139382
-0.154072
-0.482476
-0.791323
-1.037625
-1.196826
-1.255223
-1.214087
-1.103152
-0.978053
-0.897114
-0.895492
-0.964412
-1.043741
-1.046998
-0.911272
-0.628592
-0.232570
0.230749
0.714140
1.171139
1.563766
1.872206
2.096197
2.244813
2.324982
2.336491
2.272807
2.129240
1.911650
1.633722
1.312129
0.972683
0.652709
0.382005
0.157604
-0.050981
-0.261796
-0.453019
-0.577116
-0.592577
-0.488865
-0.299909
-0.101130
0.015348
-0.017761
-0.206218
-0.490578
-0.781762
-1.007436
-1.135672
-1.170560
-1.137133
-1.071663
-1.018307
-1.022482
-1.117540
-1.312610
-1.588444
-1.902466
-2.200176
-2.427899
-2.548661
-2.561371
-2.503527
-2.418429
-2.315258
-2.168650
-1.951648
-1.668096
-1.360774
-1.082155
-0.855098
-0.666352
-0.490134
-0.313283
-0.146389
-0.011858
0.080492
0.136760
0.165212
0.177260
0.191344
0.221121
0.270395
0.342804
0.441994
0.555440
0.642914
0.652421
0.554083
0.357167
0.101774
-0.161193
-0.392651
-0.579148
-0.730049
-0.861515
-0.978569
-1.068960
-1.110865
-1.081464
-0.966178
-0.778289
-0.564841
-0.376927
-0.238982
-0.150220
-0.099293
-0.066845
-0.023248
0.058403
0.179181
0.312266
0.423343
0.481850
0.463689
0.364835
0.213503
0.060441
-0.041627
-0.049742
0.062448
0.296995
0.632610
1.037920
1.477343
1.900440
2.249842
2.495018
2.639170
2.689102
2.641221
2.505844
2.326852
2.155436
2.005555
1.850164
1.657873
1.417513
1.129515
0.790569
0.400278
-0.012895
-0.380181
-0.618992
-0.678661
-0.569487
-0.356631
-0.122221
0.076407
0.219932
0.315904
0.386175
0.454374
0.527647
0.586727
0.601130
0.554856
0.450006
0.288319
0.061366
-0.235282
-0.577335
-0.903022
-1.132733
-1.208547
-1.135067
-0.981803
-0.831862
-0.732358
-0.686983
-0.671315
-0.653473
-0.614491
-0.561619
-0.523201
-0.517324
-0.536165
-0.576338
-0.659378
-0.807479
-1.019724
-1.285504
-1.611613
-2.017087
-2.495068
-2.986186
-3.392616
-3.625556
-3.654691
-3.522284
-3.314758
-3.121564
-3.005681
-2.988458
-3.050852
-3.150353
-3.239905
-3.278251
-3.237885
-3.115108
-2.927395
-2.697888
-2.450550
-2.215638
-2.031148
-1.934651
-1.939326
-2.009441
-2.067936
-2.039806
-1.892558
-1.635521
-1.288247
-0.860805
-0.363297
0.180200
0.733907
1.255668
1.693860
1.989171
2.093131
1.998703
1.760028
1.467797
1.187613
0.924106
0.650217
0.364719
0.113735
-0.040602
-0.065521
0.026555
0.196084
0.399730
0.597666
0.752026
0.833449
0.831867
0.756413
0.627398
0.471299
0.317755
0.193900
0.118687
0.096029
0.115568
0.177483
0.308253
0.528325
0.808216
1.073098
1.256492
1.345252
1.370933
1.371227
1.372226
1.396820
1.472311
1.622918
1.847997
2.109455
2.353999
2.548926
2.685092
2.739716
2.648699
2.340776
1.809821
1.139785
0.453913
-0.144884
-0.590638
-0.844867
-0.891443
-0.745854
-0.459612
-0.101763
0.259403
0.559643
0.744238
0.780818
0.674705
0.474263
0.242739
0.006001
-0.271324
-0.645661
-1.127145
-1.657644
-2.148232
-2.522795
-2.732472
-2.759713
-2.626762
-2.396198
-2.150722
-1.955901
-1.836715
-1.783389
-1.765545
-1.748991
-1.720210
-1.695855
-1.698647
-1.727647
-1.758874
-1.765743
-1.733206
-1.666591
-1.594191
-1.550998
-1.553080
-1.583445
-1.600631
-1.566769
-1.471704
-1.337032
-1.199472
-1.071917
-0.909500
-0.627844
-0.166309
0.461658
1.168332
1.832892
2.351133
2.664395
2.764407
2.681948
2.451331
2.076082
1.550357
0.908218
0.231583
-0.375167
-0.810750
-1.010805
-0.984429
-0.805757
-0.550210
-0.242841
0.126902
0.554552
0.994535
1.375156
1.641062
1.801987
1.944292
2.182097
2.581890
3.116111
3.682145
4.162543
4.469723
4.564198
4.460792
4.219844
3.917444
3.610068
3.326786
3.086872
2.908255
2.802009
2.763691
2.762345
2.742587
2.651545
2.466946
2.200061
1.879541
1.537755
1.205741
0.903358
0.626983
0.358205
0.088924
-0.164233
-0.368330
-0.499022
-0.550587
-0.520154
-0.406467
-0.230808
-0.040818
0.105663
0.159327
0.108722
0.006266
-0.050828
0.012725
0.188016
0.378900
0.460858
0.362275
0.108808
-0.208605
-0.497540
-0.699249
-0.796555
-0.793843
-0.683815
-0.460833
-0.147489
0.220989
0.598505
0.919382
1.129708
1.228339
1.274588
1.342100
1.456423
1.577715
1.632389
1.577134
1.446430
1.320735
1.258182
1.265906
1.298255
1.278391
1.154847
0.931087
0.639694
0.318499
0.007731
-0.273532
-0.557021
-0.898084
-1.322269
-1.810694
-2.300002
-2.696363
-2.935537
-3.025648
-3.024547
-2.996305
-2.974837
-2.949668
-2.891004
-2.779105
-2.600615
-2.337505
-1.980858
-1.548419
-1.083276
-0.650859
-0.326593
-0.155383
-0.132133
-0.227135
-0.400643
-0.598074
-0.763209
-0.856806
-0.855560
-0.745038
-0.516718
-0.167916
0.289227
0.821324
1.379408
1.905495
2.345733
2.679000
2.930237
3.141071
3.334304
3.511454
3.661315
3.754928
3.748192
3.604915
3.305962
2.842238
2.226334
1.503780
0.744581
0.035752
-0.537958
-0.933776
-1.173022
-1.326744
-1.471811
-1.638274
-1.793529
-1.877230
-1.849046
-1.709934
-1.491868
-1.241766
-1.004296
-0.802521
-0.646736
-0.558287
-0.560461
-0.646620
-0.764829
-0.835659
-0.790781
-0.596094
-0.248263
0.234615
0.817142
1.443521
2.037184
2.523250
2.868013
3.091800
3.230484
3.286066
3.214406
2.959913
2.505529
1.888576
1.190420
0.531771
0.051012
-0.150029
-0.049010
0.303038
0.816395
1.384029
1.889736
2.233587
2.360639
2.260727
1.959448
1.520835
1.044714
0.644624
0.410489
0.376997
0.519076
0.773657
1.074765
1.385072
1.698439
2.006339
2.269296
2.429124
2.435047
2.256904
1.898534
1.406538
0.854031
0.308240
-0.189736
-0.613073
-0.921096
-1.058273
-0.980997
-0.672200
-0.139276
0.581785
1.415919
2.256992
3.000140
3.571004
3.938249
4.107705
4.099701
3.935707
3.643259
3.254836
2.792055
2.253064
1.625764
0.924603
0.206935
-0.459065
-1.033490
-1.504226
-1.861394
-2.086521
-2.173034
-2.155132
-2.097703
-2.046541
-1.999224
-1.926123
-1.811422
-1.677784
-1.570804
-1.513683
-1.493172
-1.499120
-1.543455
-1.619361
-1.676650
-1.658632
-1.543692
-1.345957
-1.090953
-0.799247
-0.486886
-0.173145
0.110084
0.322232
0.438350
0.468180
0.444219
0.391567
0.315996
0.220029
0.124425
0.068573
0.086872
0.193835
0.396497
0.703365
1.114511
1.610938
2.144005
2.636879
3.013220
3.226922
3.275856
3.198135
3.035801
2.794367
2.453781
1.999332
1.429333
0.772433
0.094339
-0.542103
-1.106060
-1.588363
-1.988103
-2.304998
-2.531021
-2.647973
-2.634818
-2.492082
-2.266658
-2.031478
-1.832185
-1.663193
-1.491017
-1.288117
-1.041893
-0.745620
-0.394776
0.007411
0.443946
0.885602
1.303522
1.686294
2.034283
2.331343
2.550037
2.689797
2.782231
2.862676
2.945895
3.013539
3.020348
2.926216
2.731104
2.480702
2.239067
2.047206
1.907662
1.809736
1.746136
1.703356
1.657645
1.580469
1.439640
1.190621
0.776110
0.162141
-0.616663
-1.456870
-2.228449
-2.823112
-3.181774
-3.288209
-3.144460
-2.761084
-2.169352
-1.427109
-0.605789
0.224985
1.007947
1.702200
2.283249
2.748667
3.116172
3.397842
3.578624
3.630157
3.538983
3.317510
2.997382
2.618468
2.221056
1.844444
1.527385
1.297042
1.152722
1.068016
1.013662
0.974552
0.941556
0.895278
0.802395
0.624716
0.334236
-0.075545
-0.582811
-1.129435
-1.629712
-2.017008
-2.290336
-2.504432
-2.724392
-3.001195
-3.367785
-3.824942
-4.324287
-4.777757
-5.091403
-5.200822
-5.091752
-4.799058
-4.386917
-3.919985
-3.455080
-3.054098
-2.767068
-2.594827
-2.486170
-2.373965
-2.225665
-2.063840
-1.944288
-1.929627
-2.053752
-2.282704
-2.530444
-2.715706
-2.788836
-2.730374
-2.548094
-2.260488
-1.891006
-1.486190
-1.113393
-0.835717
-0.686302
-0.654829
-0.706792
-0.819947
-0.989958
-1.198086
-1.400184
-1.561508
-1.675480
-1.737301
-1.731552
-1.664242
-1.582088
-1.549897
-1.622977
-1.832342
-2.180007
-2.644665
-3.192269
-3.787513
-4.396511
-4.971562
-5.437275
-5.709145
-5.734349
-5.507143
-5.054067
-4.424855
-3.687104
-2.907169
-2.129560
-1.372639
-0.630646
0.132670
0.971504
1.916640
2.950186
4.008810
4.998219
5.823785
6.417546
6.743552
6.805693
6.642818
6.302452
5.840415
5.332556
4.860248
4.494678
4.287037
4.241284
4.298927
4.381733
4.451741
4.508866
4.544186
4.528155
4.433864
4.250874
3.989137
3.669692
3.298477
2.856479
2.315550
1.662671
0.916252
0.114458
-0.710149
-1.535018
-2.321746
-2.992174
-3.455514
-3.665811
-3.644267
-3.455861
-3.171888
-2.842431
-2.482229
-2.075680
-1.608500
-1.093802
-0.561261
-0.038583
0.445618
0.854167
1.149305
1.315320
1.371838
1.368295
1.379844
1.494424
1.768129
2.184574
2.664446
3.108437
3.437168
3.606523
3.587103
3.343783
2.855574
2.149863
1.305598
0.421367
-0.421558
-1.175098
-1.811111
-2.295843
-2.594020
-2.703122
-2.658541
-2.500246
-2.257249
-1.955781
-1.617958
-1.260295
-0.902129
-0.561671
-0.244584
0.045899
0.292981
0.473898
0.573020
0.581480
0.493324
0.305227
0.021003
-0.344294
-0.769185
-1.228659
-1.684890
-2.081998
-2.361181
-2.484367
-2.442797
-2.257442
-1.985901
-1.711465
-1.501291
-1.371651
-1.295590
-1.239702
-1.192462
-1.165925
-1.177852
-1.234851
-1.333524
-1.476989
-1.688339
-2.001085
-2.432058
-2.969331
-3.579556
-4.211081
-4.798532
-5.284795
-5.648023
-5.905466
-6.085239
-6.194954
-6.220082
-6.150664
-5.999010
-5.785813
-5.515698
-5.164668
-4.688990
-4.054311
-3.262657
-2.349542
-1.357302
-0.325156
0.699462
1.663728
2.532526
3.303481
3.995383
4.625001
5.195547
5.693454
6.080648
6.296804
6.288263
6.039590
5.581833
4.984346
4.338966
3.734484
3.228610
2.840924
2.572181
2.419065
2.367138
2.385336
2.442558
2.530111
2.658844
2.834751
3.046988
3.270479
3.466025
3.588610
3.603335
3.487144
3.226399
2.833411
2.360325
1.875798
1.427458
1.028795
0.671456
0.349056
0.061408
-0.202370
-0.459942
-0.715149
-0.947587
-1.113575
-1.161951
-1.058361
-0.794272
-0.376607
0.183263
0.867539
1.633369
2.402077
3.088958
3.636772
4.003253
4.145973
4.044777
3.712904
3.181796
2.500496
1.741538
0.996837
0.369046
-0.048998
-0.193365
-0.039543
0.376453
0.951751
1.554815
2.074533
2.441560
2.624753
2.621925
2.453202
2.153989
1.764519
1.317328
0.827134
0.295017
-0.267606
-0.826775
-1.342293
-1.778141
-2.097899
-2.263663
-2.243424
-2.033658
-1.678439
-1.253350
-0.833990
-0.480954
-0.231548
-0.089496
-0.030254
-0.018180
-0.011901
0.033488
0.150975
0.349747
0.619816
0.937149
1.263580
1.555729
1.784002
1.943840
2.043920
2.085340
2.056249
1.940590
1.733339
1.446585
1.094005
0.681406
0.208539
-0.337949
-0.973931
-1.684101
-2.412569
-3.086244
-3.640201
-4.037179
-4.282046
-4.409407
-4.443874
-4.373753
-4.163794
-3.791073
-3.270136
-2.652757
-2.007218
-1.387392
-0.813942
-0.276142
0.251028
0.776910
1.275806
1.699396
2.004856
2.174893
2.228678
2.225195
2.244006
2.350320
2.579727
2.943491
3.423503
3.959453
4.457224
4.818815
4.967318
4.858123
4.488162
3.900657
3.173833
2.394987
1.629654
0.904643
0.208780
-0.503709
-1.290381
-2.168578
-3.083049
-3.922854
-4.567492
-4.935344
-5.007273
-4.824765
-4.479494
-4.090020
-3.774706
-3.637009
-3.743966
-4.094978
-4.623562
-5.238195
-5.854331
-6.411691
-6.891561
-7.304798
-7.674201
-8.043649
-8.465485
-8.969637
-9.543963
-10.121065
-10.598849
-10.888608
-10.945801
-10.768520
-10.378517
-9.815377
-9.143169
-8.435633
-7.748189
-7.111838
-6.527260
-5.955476
-5.351100
-4.705267
-4.040310
-3.381174
-2.749735
-2.174717
-1.679580
-1.260442
-0.889501
-0.533108
-0.157401
0.281956
0.836699
1.528346
2.320268
3.139314
3.910934
4.578629
5.121176
5.564571
5.973745
6.421520
6.948789
7.546662
8.170354
8.763188
9.282040
9.717312
10.078578
10.360072
10.536591
10.586156
10.505588
10.309427
10.022535
9.677403
9.308130
8.932908
8.539504
8.100520
7.604604
7.061329
6.499629
5.979444
5.573190
5.323369
5.233241
5.280016
5.410409
5.537674
5.571885
5.458086
5.182260
4.757354
4.202821
3.528711
2.755013
1.933413
1.140079
0.459366
-0.047929
-0.372695
-0.541876
-0.581777
-0.511055
-0.361057
-0.174632
0.016250
0.191136
0.320299
0.354878
0.240907
-0.064153
-0.587716
-1.334341
-2.269561
-3.306096
-4.306646
-5.127548
-5.682753
-5.967507
-6.032010
-5.947197
-5.780028
-5.573897
-5.345654
-5.089612
-4.775329
-4.371888
-3.898926
-3.438831
-3.094478
-2.945209
-3.026593
-3.326422
-3.785050
-4.299493
-4.751503
-5.047230
-5.132056
-4.994303
-4.670059
-4.212364
-3.646596
-2.981829
-2.254780
-1.532774
-0.871847
-0.285434
0.245326
0.745417
1.232699
1.717276
2.205751
2.707417
3.230948
3.764221
4.256332
4.620922
4.765086
4.632716
4.230431
3.616599
2.881723
2.143713
1.526012
1.119706
0.970699
1.070638
1.351907
1.749835
2.264168
2.923224
3.747494
4.749937
5.905028
7.145456
8.397141
9.585966
10.655442
11.598393
12.437353
13.187970
13.865803
14.508224
15.159197
15.829383
16.494192
17.121174
17.667294
18.072393
18.287800
18.287769
18.037149
17.488478
16.623634
15.467443
14.073464
12.514724
10.868226
9.197050
7.541092
5.914251
4.315870
2.751936
1.236381
-0.223051
-1.616208
-2.904791
-4.023089
-4.908575
-5.520454
-5.843781
-5.907655
-5.798952
-5.645603
-5.578648
-5.685413
-5.973818
-6.375332
-6.784239
-7.110696
-7.312854
-7.374436
-7.271921
-6.990407
-6.544302
-5.966882
-5.305100
-4.616999
-3.949708
-3.339566
-2.842612
-2.523556
-2.422271
-2.553409
-2.901158
-3.427702
-4.112649
-4.949543
-5.914684
-6.968253
-8.057389
-9.111441
-10.069882
-10.910577
-11.626132
-12.191679
-12.578491
-12.768869
-12.739881
-12.473830
-11.983930
-11.304007
-10.483218
-9.590132
-8.689080
-7.840177
-7.127672
-6.632054
-6.392250
-6.427892
-6.754453
-7.361736
-8.200727
-9.205164
-10.310798
-11.440044
-12.511666
-13.474589
-14.293834
-14.917764
-15.285976
-15.365731
-15.181826
-14.801662
-14.279203
-13.622594
-12.807920
-11.811623
-10.638955
-9.326241
-7.921707
-6.478107
-5.043268
-3.643137
-2.301864
-1.042538
0.148409
1.297902
2.409655
3.472802
4.479713
5.445848
6.421849
7.479730
8.664518
9.958816
11.310402
12.653222
13.885755
14.886767
15.572554
15.918931
15.949045
15.723959
15.330804
14.858637
14.366088
13.865189
13.333108
12.724220
11.977627
11.042312
9.912684
8.648001
7.351802
6.123074
5.030792
4.123545
3.433513
2.955635
2.655202
2.517138
2.545232
2.723752
3.031888
3.456603
3.974006
4.568186
5.228535
5.920442
6.617347
7.307134
7.954922
8.520908
8.983693
9.310610
9.435378
9.298562
8.884639
8.207024
7.315773
6.307349
5.266977
4.233050
3.235329
2.314099
1.501023
0.811585
0.238497
-0.259620
-0.750273
-1.292140
-1.895913
-2.524006
-3.117624
-3.625482
-4.031402
-4.333589
-4.504150
-4.513059
-4.361378
-4.057001
-3.599808
-3.025091
-2.414940
-1.836273
-1.308287
-0.820853
-0.341098
0.170729
0.713810
1.242553
1.718138
2.127066
2.470866
2.757553
2.975408
3.090009
3.069573
2.886213
2.517813
1.967305
1.260888
0.435021
-0.464409
-1.387937
-2.295502
-3.153170
-3.915122
-4.515742
-4.882730
-4.961317
-4.732974
-4.221179
-3.481005
-2.582412
-1.603637
-0.620998
0.305520
1.136959
1.865671
2.524074
3.163496
3.818672
4.495979
5.180463
5.833838
6.401737
6.842891
7.136618
7.266108
7.228006
7.059054
6.827882
6.601176
6.428506
6.347433
6.388185
6.570874
6.900125
7.364691
7.950139
8.652678
9.453587
10.282116
11.054319
11.725921
12.252497
12.564952
12.612479
12.357121
11.758516
10.813240
9.577665
8.144834
6.606280
5.033999
3.496695
2.078209
0.857542
-0.140847
-0.964101
-1.690894
-2.390628
-3.111421
-3.875206
-4.684478
-5.528605
-6.378984
-7.214315
-8.051001
-8.925672
-9.866004
-10.880162
-11.944786
-13.000830
-13.990769
-14.866527
-15.550872
-15.985841
-16.172207
-16.120605
-15.863106
-15.455689
-14.929422
-14.302404
-13.601260
-12.849513
-12.058753
-11.227268
-10.347308
-9.413269
-8.421158
-7.368282
-6.248365
-5.065904
-3.884918
-2.818937
-1.967762
-1.416084
-1.249608
-1.518486
-2.239154
-3.411314
-4.942611
-6.653669
-8.381882
-9.979310
-11.312476
-12.312213
-12.959368
-13.254737
-13.210531
-12.843308
-12.163750
-11.182939
-9.940714
-8.501882
-6.937848
-5.355974
-3.891690
-2.630696
-1.602089
-0.819050
-0.267424
0.105631
0.374560
0.612881
0.879352
1.203313
1.576181
1.969746
2.332892
2.600130
2.741837
2.761712
2.667389
2.481020
2.245242
1.992331
1.714689
1.388034
1.005915
0.573302
0.113518
-0.312127
-0.632607
-0.796803
-0.771803
-0.548825
-0.150980
0.374621
0.978197
1.619125
2.260121
2.872319
3.441594
3.966234
4.459825
4.937822
5.386941
5.773634
6.074587
6.258564
6.281871
6.139933
5.872426
5.512968
5.078378
4.596315
4.104050
3.635402
3.227908
2.907587
2.666147
2.479969
2.333175
2.210213
2.096051
1.995258
1.920449
1.869929
1.843554
1.852155
1.906175
2.019990
2.203322
2.437727
2.694290
2.960844
3.224812
3.461176
3.648761
3.774260
3.834073
3.843235
3.820081
3.762009
3.647489
3.454371
3.171018
2.788557
2.288759
1.647807
0.852086
-0.079663
-1.088008
-2.098205
-3.052860
-3.920326
-4.685344
-5.352783
-5.951985
-6.502360
-6.994302
-7.420657
-7.776363
-8.027025
-8.136742
-8.109825
-7.964484
-7.721530
-7.431482
-7.157328
-6.946149
-6.820983
-6.781797
-6.810526
-6.868517
-6.908498
-6.887608
-6.786920
-6.642007
-6.515089
-6.437998
-6.409506
-6.419229
-6.454369
-6.511316
-6.598467
-6.705994
-6.797345
-6.839687
-6.828000
-6.781577
-6.720989
-6.657105
-6.615415
-6.631551
-6.692286
-6.752164
-6.783928
-6.754538
-6.633734
-6.417701
-6.101355
-5.684461
-5.205350
-4.706036
-4.178378
-3.594273
-2.922972
-2.108560
-1.107955
0.082987
1.450206
2.959639
4.540070
6.087389
7.494961
8.670016
9.530547
10.016194
10.094861
9.753286
8.999762
7.872508
6.437503
4.770096
2.938275
1.023928
-0.893715
-2.785290
-4.626174
-6.367502
-7.979026
-9.429639
-10.670344
-11.672364
-12.409677
-12.846821
-12.994326
-12.904100
-12.609224
-12.119000
-11.447444
-10.618308
-9.653371
-8.567872
-7.371949
-6.076771
-4.703608
-3.279247
-1.838673
-0.451328
0.772912
1.719218
2.317037
2.567215
2.520415
2.230813
1.729947
1.041666
0.215777
-0.680440
-1.591376
-2.466501
-3.251846
-3.909916
-4.438179
-4.853196
-5.153128
-5.302995
-5.259476
-5.005611
-4.545528
-3.881059
-3.030266
-2.036833
-0.951857
0.145054
1.139284
1.938112
2.505191
2.845032
3.005622
3.072870
3.138029
3.300236
3.639303
4.169297
4.856156
5.631510
6.407082
7.110011
7.699088
8.171456
8.540158
8.804866
8.959659
8.982400
8.828037
8.479889
