EVENT_NAME: L_AQUILA
EVENT_ID: IT-2009-0009
EVENT_DATE_YYYYMMDD: 20090406
EVENT_TIME_HHMMSS: 013240
EVENT_LATITUDE_DEGREE: 42.3420
EVENT_LONGITUDE_DEGREE: 13.3800
EVENT_DEPTH_KM: 8.3
HYPOCENTER_REFERENCE: INGV-CNT_Seismic_Bulletin
MAGNITUDE_W: 6.1
MAGNITUDE_W_REFERENCE: INGV-CNT_Seismic_Bulletin
MAGNITUDE_L: 
MAGNITUDE_L_REFERENCE: 
FOCAL_MECHANISM: Normal faulting
NETWORK: IT
STATION_CODE: CSO1
STATION_NAME: 
STATION_LATITUDE_DEGREE: 42.100933
STATION_LONGITUDE_DEGREE: 13.088044
STATION_ELEVATION_M: 700
LOCATION: 
SENSOR_DEPTH_M: 0.0
VS30_M/S: 
SITE_CLASSIFICATION_EC8: B (inferred from geology)
MORPHOLOGIC_CLASSIFICATION: 
EPICENTRAL_DISTANCE_KM: 36.0
EARTHQUAKE_BACKAZIMUTH_DEGREE: 222.1
DATE_TIME_FIRST_SAMPLE_YYYYMMDD_HHMMSS: 20090406_013218.000
DATE_TIME_FIRST_SAMPLE_PRECISION: seconds
SAMPLING_INTERVAL_S: 0.005000
NDATA: 19280
DURATION_S: 96.400
STREAM: HNN
UNITS: cm/s^2
INSTRUMENT: sensor = FBA-3 [Kinemetrics] | digitizer = Etna [Kinemetrics]
INSTRUMENT_ANALOG/DIGITAL: D
INSTRUMENTAL_FREQUENCY_HZ: 204.000
INSTRUMENTAL_DAMPING: 0.700000
FULL_SCALE_G: 1.0
N_BIT_DIGITAL_CONVERTER: 18
PGA_CM/S^2: 17.483521
TIME_PGA_S: 41.960000
BASELINE_CORRECTION: BASELINE NOT REMOVED
FILTER_TYPE: 
FILTER_ORDER: 
LOW_CUT_FREQUENCY_HZ: 
HIGH_CUT_FREQUENCY_HZ: 
LATE/NORMAL_TRIGGERED: NT
DATABASE_VERSION: 0.5
HEADER_FORMAT: DYNA 1.2
DATA_TYPE: ACCELERATION
PROCESSING: converted to cm/s^2
DATA_TIMESTAMP_YYYYMMDD_HHMMSS: 20211011_160100.349
DATA_LICENSE: CC-BY3_0-IT (http://creativecommons.org/licenses/by/3.0/deed.en)
DATA_CITATION: Luzi L, Pacor F, Puglia R (2019). Italian Accelerometric Archive v 3.0 - Istituto Nazionale di Geofisica e Vulcanologia, Dipartimento della Protezione Civile Nazionale. doi: 10.13127/itaca.3.1
DATA_CREATOR: ITACA working group
ORIGINAL_DATA_MEDIATOR_CITATION: data obtained within the DPC-INGV data exchange agreements
ORIGINAL_DATA_MEDIATOR: Archive of Italian Department of Civil Protection
ORIGINAL_DATA_CREATOR_CITATION: Presidency Of Counsil Of Ministers-Civil Protection Department. (1972). Italian Strong Motion Network. Presidency of Counsil of Ministers - Civil Protection Department. https://doi.org/10.7914/SN/IT http://www.fdsn.org/networks/detail/IT/
ORIGINAL_DATA_CREATOR: network: IT (Italian Strong Motion Network (RAN)); owner: Presidency of Counsil of Ministers - Civil Protection Department (PCM - DPC)
USER1: 
USER2: 
USER3: 
USER4: 
USER5: 
[...]
3.601236
3.818899
3.868230
3.712756
3.426825
3.062104
2.683356
2.412622
2.255511
2.211090
2.227690
2.282398
2.324013
2.280761
2.131132
1.892661
1.703755
1.612809
1.611172
1.696273
1.811301
1.934978
2.054681
2.130898
2.192621
2.255278
2.273747
2.261824
2.166669
1.905988
1.504094
0.952805
0.262408
-0.498128
-1.278769
-1.940410
-2.340199
-2.452187
-2.343706
-2.133057
-1.967997
-1.995118
-2.260709
-2.728065
-3.371469
-4.078466
-4.654069
-4.989799
-5.043806
-4.879916
-4.498829
-3.933980
-3.263924
-2.510402
-1.832630
-1.239726
-0.685865
-0.173620
0.296776
0.684408
1.008448
1.236632
1.362648
1.399120
1.291574
1.081159
0.823984
0.579668
0.464641
0.503217
0.671549
0.930361
1.285262
1.694169
2.118975
2.477617
2.652495
2.652262
2.445587
2.179996
1.950409
1.808729
1.836083
2.030367
2.391580
2.816152
3.252647
3.610822
3.811652
3.788272
3.491586
2.962274
2.244757
1.447749
0.700072
0.065085
-0.394323
-0.599828
-0.563123
-0.265969
0.255394
0.881497
1.489365
1.944330
2.236340
2.339678
2.281463
2.147264
1.953682
1.734148
1.425539
0.975951
0.399880
-0.264332
-0.891605
-1.395199
-1.714797
-1.903002
-2.062217
-2.201559
-2.356331
-2.528171
-2.660265
-2.646237
-2.525833
-2.359370
-2.168126
-2.090506
-2.145916
-2.401453
-2.832338
-3.346687
-3.924629
-4.476151
-4.968290
-5.315242
-5.474924
-5.535711
-5.553713
-5.537815
-5.517708
-5.469313
-5.332309
-5.107866
-4.777279
-4.394791
-4.063971
-3.781546
-3.600355
-3.563415
-3.556635
-3.522501
-3.392979
-3.132297
-2.842391
-2.539159
-2.219327
-1.933162
-1.675753
-1.469780
-1.353350
-1.339556
-1.489185
-1.776987
-2.137733
-2.442368
-2.595971
-2.582411
-2.361942
-2.101728
-1.902535
-1.803639
-1.790547
-1.795924
-1.854607
-1.864192
-1.826084
-1.816264
-1.812290
-1.822109
-1.766934
-1.527527
-1.149948
-0.631157
0.017858
0.677161
1.341372
1.923288
2.410517
2.795578
3.017216
3.150713
3.165910
3.091563
2.940999
2.725673
2.473175
2.146797
1.771322
1.372233
0.995356
0.607723
0.322961
0.176138
0.166084
0.277371
0.378137
0.499710
0.541326
0.466277
0.279241
0.064617
-0.088285
-0.144396
-0.070282
0.066254
0.216116
0.195075
-0.010431
-0.352006
-0.848119
-1.453882
-2.089337
-2.597608
-2.859458
-2.794697
-2.476736
-1.968231
-1.258429
-0.465396
0.313609
1.049596
1.731343
2.296192
2.693176
2.912709
2.968586
2.880913
2.630519
2.329391
2.042524
1.813872
1.650216
1.487494
1.291808
0.970340
0.515608
-0.096935
-0.799489
-1.424424
-1.875882
-2.054034
-1.855074
-1.310566
-0.569435
0.278306
1.074145
1.732512
2.226521
2.504269
2.585864
2.454237
2.078061
1.444242
0.566809
-0.481294
-1.548101
-2.482113
-3.110788
-3.386199
-3.412617
-3.235868
-3.009321
-2.878396
-2.872317
-2.975420
-3.125049
-3.318398
-3.525307
-3.803757
-4.162632
-4.539042
-5.029077
-5.501109
-5.885234
-6.195013
-6.292272
-6.155502
-5.767168
-5.273860
-4.771668
-4.305715
-3.987754
-3.753491
-3.592640
-3.410981
-3.105644
-2.676864
-2.165554
-1.600705
-0.939065
-0.271580
0.359433
0.915632
1.356102
1.685519
1.915573
2.099570
2.289178
2.507075
2.699255
2.895876
3.103486
3.333307
3.590715
3.896987
4.226872
4.446172
4.535247
4.451549
4.208168
3.828017
3.364869
2.902890
2.456575
2.056786
1.647177
1.162987
0.578733
-0.037785
-0.557278
-0.903061
-0.978810
-0.807438
-0.489945
-0.043162
0.512335
1.185899
1.949474
2.778044
3.639345
4.406660
4.975250
5.307706
5.411278
5.245751
4.883836
4.433547
3.915924
3.435709
3.042700
2.752794
2.610412
2.554068
2.512920
2.465927
2.366798
2.237509
2.121781
1.990388
1.774361
1.378546
0.822114
0.146446
-0.626014
-1.391926
-2.072504
-2.548277
-2.785813
-2.845664
-2.757056
-2.624260
-2.483516
-2.407298
-2.497543
-2.749341
-3.165730
-3.725435
-4.435471
-5.251183
-6.107340
-6.938715
-7.626073
-8.126863
-8.351071
-8.304546
-8.037085
-7.501226
-6.793529
-5.994417
-5.133583
-4.247734
-3.297123
-2.294375
-1.270353
-0.212430
0.768808
1.555529
2.109857
2.387839
2.453068
2.385268
2.273747
2.194257
2.188412
2.275618
2.383397
2.535364
2.710944
2.921594
3.255453
3.741513
4.429806
5.189640
5.941291
6.543314
6.832051
6.794410
6.339912
5.550853
4.532442
3.430332
2.367967
1.447749
0.793590
0.415076
0.354991
0.571953
1.018268
1.604392
2.242653
2.809606
3.214773
3.398302
3.288418
3.016982
2.640572
2.283333
2.034341
1.940823
2.088114
2.361421
2.727310
3.104655
3.445529
3.730057
3.840642
3.760684
3.479195
3.051116
2.575811
2.170644
1.934511
1.915106
2.103778
2.493749
3.073794
3.725381
4.378137
4.932933
5.314487
5.465986
5.356570
5.047493
4.582942
4.039368
3.454880
2.855897
2.183035
1.357504
0.412271
-0.556576
-1.509525
-2.359604
-3.010022
-3.449557
-3.614383
-3.636359
-3.545179
-3.376145
-3.181862
-2.947131
-2.833741
-2.805452
-2.844261
-2.867641
-2.849171
-2.820181
-2.666577
-2.498946
-2.355864
-2.270762
-2.275204
-2.306065
-2.367787
-2.360539
-2.274503
-2.180050
-2.117159
-2.149656
-2.298350
-2.531677
-2.833039
-3.185836
-3.506135
-3.795340
-4.085480
-4.354110
-4.571306
-4.666461
-4.538107
-4.134109
-3.515254
-2.734144
-1.929655
-1.250948
-0.699893
-0.347564
-0.166606
-0.062801
-0.069815
-0.110729
-0.153280
-0.203078
-0.238849
-0.334705
-0.465630
-0.575046
-0.646821
-0.658043
-0.600062
-0.442484
-0.172685
0.174735
0.582006
1.069001
1.654892
2.300400
2.949415
3.606613
4.209805
4.709659
5.134698
5.441204
5.582650
5.530747
5.277547
4.841052
4.294906
3.721173
3.093901
2.510114
1.964904
1.439099
0.938310
0.379539
-0.162164
-0.780084
-1.370417
-1.979921
-2.628936
-3.219269
-3.877636
-4.433601
-4.930182
-5.340726
-5.749399
-6.141240
-6.457799
-6.788853
-7.060289
-7.397889
-7.716084
-8.135747
-8.637003
-9.079109
-9.499941
-9.767169
-9.902303
-9.820474
-9.532438
-9.109269
-8.573176
-8.063503
-7.567858
-7.092085
-6.608129
-6.053100
-5.425827
-4.763485
-4.148371
-3.624202
-3.250597
-3.032467
-2.974018
-3.000437
-3.034805
-3.032700
-2.979161
-2.861562
-2.559265
-2.111080
-1.526125
-0.830117
-0.102780
0.597904
1.163688
1.601820
1.980568
2.380826
2.864080
3.482468
4.216351
4.999097
5.819016
6.696216
7.645658
8.662666
9.736254
10.795110
11.764890
12.528700
13.004480
13.204840
13.173980
13.073210
12.967540
12.959350
13.031360
13.073210
13.120670
12.999100
12.754080
12.376270
11.888570
11.361360
10.744850
10.148430
9.440737
8.723219
8.016223
7.295199
6.634026
6.016340
5.519291
5.092849
4.810892
4.623388
4.484982
4.361538
4.215182
4.181749
4.255395
4.448977
4.695163
4.914229
5.039310
5.008683
4.803878
4.401751
3.882024
3.221319
2.444418
1.554594
0.595800
-0.314131
-1.115814
-1.682066
-2.025745
-2.151994
-2.150591
-2.108976
-2.055904
-2.072504
-2.114119
-2.192908
-2.310040
-2.499414
-2.814102
-3.220672
-3.700419
-4.287713
-4.928545
-5.530567
-6.098923
-6.492401
-6.685515
-6.689256
-6.430211
-5.930825
-5.217983
-4.358786
-3.343882
-2.292739
-1.307059
-0.389179
0.336521
0.808787
1.001201
0.926620
0.676225
0.279943
-0.189518
-0.682358
-1.217749
-1.734436
-2.329912
-2.877928
-3.367729
-3.843969
-4.121718
-4.233472
-4.048072
-3.568325
-2.773188
-1.782832
-0.795983
0.122599
0.756183
1.143348
1.347451
1.438164
1.481650
1.608366
1.916508
2.321675
2.846779
3.386378
3.839473
4.198583
4.339093
4.229210
3.811885
3.089926
2.189114
1.144049
0.058772
-1.001488
-1.998157
-2.869979
-3.710005
-4.598426
-5.568910
-6.665877
-7.873428
-9.196007
-10.597610
-11.959470
-13.127270
-14.017100
-14.580540
-14.695100
-14.402860
-13.779790
-12.824270
-11.611580
-10.260480
-8.937898
-7.737593
-6.711467
-5.832163
-5.025570
-4.339148
-3.728709
-3.280757
-3.051170
-3.031064
-3.121309
-3.232128
-3.399057
-3.329153
-3.158482
-2.818778
-2.292739
-1.796158
-1.201383
-0.706439
-0.272749
-0.071218
-0.050410
-0.153514
-0.573877
-1.171691
-1.994416
-2.906685
-3.906159
-4.917557
-5.834968
-6.672189
-7.267198
-7.706966
-7.985182
-8.056724
-8.003184
-7.926032
-7.814745
-7.585860
-7.291746
-6.937547
-6.444706
-5.777689
-5.094306
-4.290284
-3.425009
-2.528872
-1.444998
-0.367904
0.767172
1.796571
2.682655
3.442489
3.938602
4.278073
4.366915
4.366915
4.279008
4.094076
3.941174
3.608951
3.350842
3.072625
2.797215
2.795578
2.759574
2.970924
3.259194
3.551204
3.942343
4.259603
4.592761
4.765536
4.976653
5.082562
4.969872
4.658224
4.102726
3.462595
2.679382
1.947603
1.363115
0.955844
0.808320
0.946726
1.348620
1.975425
2.887460
3.853969
4.896227
6.032471
7.074263
8.108806
9.057078
9.946670
10.707440
11.328870
11.853970
12.220330
12.469790
12.513040
12.314550
11.824980
11.150710
10.222550
9.228918
8.292569
7.445997
6.958768
6.531858
6.250369
5.997636
5.644372
5.123944
4.317818
3.411161
2.314194
1.344412
0.503217
-0.164034
-0.557512
-0.768395
-0.824272
-0.918959
-0.931350
-0.892306
-0.821232
-0.688437
-0.494387
-0.293323
-0.131069
0.077944
0.188529
0.281579
0.408530
0.558860
0.800604
1.041413
1.418759
1.777166
2.104480
2.353238
2.515491
2.728011
2.850754
3.140660
3.463297
3.910313
4.435183
4.956079
5.584988
6.057721
6.465694
6.725440
6.936090
7.084549
7.118216
7.055793
6.869692
6.692943
6.462655
6.240783
6.051409
5.833512
5.521395
5.146388
4.703113
4.169358
3.590715
2.921360
2.199634
1.370597
0.390294
-0.759744
-2.098221
-3.578144
-5.157898
-6.699309
-8.170582
-9.504149
-10.665410
-11.585390
-12.181800
-12.510990
-12.465870
-12.079870
-11.301570
-10.177480
-8.835729
-7.273276
-5.638580
-3.926733
-2.261644
-0.726545
0.687681
1.957656
3.111435
4.115819
5.003773
5.754255
6.315130
6.674706
6.854261
6.836493
6.696450
6.396023
6.012365
5.550152
4.830531
4.014352
2.996876
1.784414
0.464875
-0.934623
-2.365215
-3.749750
-4.928077
-5.922642
-6.566046
-6.922116
-6.937547
-6.672423
-6.239668
-5.521450
-4.698724
-3.633086
-2.368489
-0.998917
0.378137
1.725030
2.932114
3.824043
4.442197
4.563069
4.339327
3.594222
2.598021
1.294613
-0.268775
-1.682534
-3.347155
-4.688437
-5.894587
-6.922584
-7.655765
-8.113069
-8.203313
-8.220613
-7.844672
-7.450727
-6.908556
-6.373165
-5.948827
-5.562129
-5.446869
-5.332309
-5.534074
-5.868167
-6.149423
-6.583580
-6.831403
-6.999502
-6.890787
-6.443537
-5.895054
-4.860978
-3.825733
-2.765940
-1.726487
-1.036791
-0.552134
-0.350837
-0.336108
-0.603569
-0.932285
-1.368547
-1.982259
-2.632209
-3.228387
-3.762842
-4.209625
-4.485503
-4.630456
-4.683527
-4.628586
-4.390115
-4.154449
-3.785754
-3.387367
-2.916270
-2.447979
-2.111548
-1.713395
-1.574754
-1.388653
-1.271756
-1.291394
-1.228036
-1.284848
-1.259364
-1.346336
-1.436113
-1.521683
-1.726253
-1.833799
-1.920771
-1.868868
-1.725318
-1.471417
-1.095006
-0.715089
-0.246096
0.140835
0.481240
0.727193
0.811125
0.799435
0.604450
0.377669
-0.019081
-0.385906
-0.726545
-1.094773
-1.248142
-1.441023
-1.436815
-1.321788
-1.135687
-0.804165
-0.488308
-0.102312
0.171462
0.270357
0.132652
-0.268073
-0.910776
-1.733968
-2.567916
-3.289641
-3.771493
-3.994300
-4.024693
-3.850983
-3.573468
-3.336868
-3.130193
-2.952275
-2.792827
-2.672422
-2.547809
-2.452655
-2.440965
-2.487490
-2.621455
-2.795866
-2.960224
-3.111957
-3.146792
-3.017737
-2.715441
-2.246214
-1.675052
-0.966653
-0.236511
0.558159
1.474168
2.407478
3.460725
4.542963
5.639228
6.757704
7.777284
8.770212
9.673596
10.463820
11.115640
11.560790
11.755780
11.732630
11.453250
10.886760
10.201970
9.243414
8.186192
7.072392
5.926562
4.870977
3.882024
3.216877
2.687331
2.496788
2.554769
2.711879
3.081042
3.384274
3.750631
3.968294
4.083088
4.260071
4.307297
4.448510
4.686513
4.982731
5.305368
5.567921
5.831875
5.882141
5.910430
5.734850
5.396081
5.066196
4.376033
3.661321
2.738532
1.787687
0.720413
-0.442017
-1.432139
-2.570020
-3.448388
-4.258722
-4.910543
-5.280641
-5.464637
-5.430036
-5.246740
-4.770032
-4.241655
-3.681014
-3.005814
-2.393738
-1.912354
-1.581300
-1.405253
-1.406188
-1.614733
-1.808783
-2.094714
-2.360773
-2.608129
-2.966069
-3.230725
-3.606200
-3.958529
-4.378659
-4.803231
-5.243935
-5.772779
-6.307703
-6.995995
-7.595446
-8.251943
-8.901659
-9.493862
-10.033460
-10.503390
-10.964670
-11.252000
-11.444880
-11.421030
-11.142820
-10.635950
-9.872844
-8.896282
-7.734320
-6.584282
-5.403851
-4.414430
-3.649218
-3.001839
-2.705855
-2.536353
-2.635950
-2.819012
-3.055378
-3.393914
-3.571598
-3.731748
-3.631917
-3.340842
-2.782540
-1.996287
-1.032349
0.092673
1.162753
2.298296
3.286782
4.112546
4.700307
4.971042
4.900903
4.433547
3.609653
2.462654
1.206239
-0.257786
-1.527294
-2.652316
-3.622098
-4.114470
-4.404844
-4.210560
-3.747178
-2.974018
-1.948125
-0.838066
0.439625
1.685051
3.000383
4.157902
5.289704
6.259253
7.022360
7.732396
8.175905
8.655653
9.048662
9.595041
10.258320
10.976070
11.989570
12.769740
13.864610
14.833690
15.639350
16.526131
17.040480
17.483521
17.444010
17.300930
16.667339
15.707380
14.532330
12.822350
11.168720
9.200629
7.316708
5.454998
3.757177
2.279592
0.824218
-0.216638
-1.245804
-2.036266
-2.747236
-3.473638
-4.077765
-4.790372
-5.408292
-6.055438
-6.635951
-7.213191
-7.755128
-8.185077
-8.536939
-8.849523
-9.195306
-9.390992
-9.706615
-9.969401
-10.174440
-10.353760
-10.402620
-10.341840
-10.077410
-9.773248
-9.182681
-8.560084
-7.948476
-7.230492
-6.619585
-6.055203
-5.679261
-5.340492
-5.167717
-5.048482
-4.855367
-4.652433
-4.322548
-4.133174
-3.833683
-3.539334
-3.206878
-2.766642
-2.343472
-1.625020
-0.913581
-0.152812
0.638584
1.382520
2.081100
2.647820
3.199576
3.588611
3.942811
4.250251
4.385151
4.421623
4.397542
4.270591
4.085426
3.954267
3.874075
3.884362
3.979517
4.224768
4.566108
5.025516
5.668686
6.403270
7.292160
8.189231
9.049598
9.747476
10.213430
10.469900
10.332200
10.004420
9.429982
8.682072
7.874543
7.015580
6.151239
5.145687
4.109507
2.990563
1.822990
0.603281
-0.590710
-1.745191
-2.901308
-3.985182
-5.051989
-6.019900
-6.969343
-7.808667
-8.530626
-9.083786
-9.361768
-9.492927
-9.403852
-9.190163
-8.896749
-8.567566
-8.260359
-7.934449
-7.547751
-7.054210
-6.531678
-5.902769
-5.248377
-4.619468
-4.038253
-3.569026
-3.223010
-3.101670
-3.163392
-3.457272
-3.980272
-4.689606
-5.513033
-6.373633
-7.183967
-7.869454
-8.378659
-8.615961
-8.617831
-8.323718
-7.792068
-7.000671
-5.986234
-4.908205
-3.775935
-2.733676
-1.778156
-0.965484
-0.331198
0.202556
0.581538
0.889213
1.152700
1.363115
1.584519
1.765009
1.905988
2.020547
2.083672
2.136977
2.110325
2.050239
1.992024
1.889856
1.833979
1.811534
1.847539
1.878166
1.879569
1.860865
1.800546
1.697910
1.491703
1.284326
1.018268
0.700306
0.389359
0.078177
-0.180166
-0.436172
-0.667161
-0.896514
-1.120256
-1.332075
-1.525891
-1.643256
-1.708017
-1.655180
-1.473053
-1.138726
-0.626715
0.012481
0.791720
1.622394
2.437871
3.176664
3.760451
4.157201
4.361070
4.359434
4.147148
3.796922
3.385443
2.962508
2.566926
2.310921
2.158720
2.200336
2.373812
2.590072
2.976536
3.265506
3.529695
3.674180
3.607782
3.474285
3.135750
2.691305
2.268838
1.883309
1.435124
1.160181
0.915398
0.745429
0.522388
0.454588
0.790551
0.371123
0.438690
0.853910
0.805748
1.382988
1.733914
2.085542
2.462186
2.612283
2.914112
3.097408
3.370714
3.538579
3.674881
3.798793
4.058773
4.533144
4.894123
5.339736
5.794702
6.399296
6.921127
7.247505
7.518941
7.506082
7.371182
6.997344
6.454939
5.751216
4.959352
4.076308
3.170585
2.452133
1.701183
1.282690
0.705917
0.007805
-0.374684
-0.958002
-1.325061
-1.695158
-2.191272
-2.523261
-2.892423
-3.079927
-3.155443
-3.124582
-2.926324
-2.716376
-2.525365
-2.269359
-1.884766
-1.452012
-0.968757
-0.330029
0.398009
1.266558
2.239146
2.969755
3.709717
4.356862
4.706386
4.873081
4.638819
4.219624
3.611523
2.877874
2.215065
1.595274
1.143114
0.798033
0.568913
0.436118
0.400581
0.394268
0.325065
0.228741
0.079814
-0.075192
-0.230198
-0.357851
-0.460720
-0.483165
-0.436172
-0.349901
-0.199571
-0.019081
0.233651
0.479604
0.758054
1.089341
1.454997
1.855020
2.238678
2.659743
3.088056
3.497197
3.849059
4.159305
4.337691
4.372993
4.365746
4.147615
3.745020
3.236516
2.608776
1.870685
1.009150
0.145744
-0.706673
-1.548335
-2.256033
-2.949002
-3.641035
-4.226458
-4.824974
-5.385614
-5.887339
-6.233823
-6.561838
-6.606726
-6.135396
-6.052632
-5.732099
-4.990500
-4.389413
-3.463819
-2.597140
-1.651205
-0.919426
-0.563824
-0.055553
0.284852
0.627596
0.852039
0.842921
0.683941
0.348678
0.137561
-0.020017
-0.201442
-0.412325
-0.532729
-0.539042
-0.589308
-0.549329
-0.425651
-0.288647
-0.226691
-0.302441
-0.405778
-0.627416
-0.963380
-1.370183
-1.778623
-2.076011
-2.278711
-2.367320
-2.432314
-2.226341
-1.984597
-1.865595
-1.388186
-0.953093
-0.593048
-0.189986
0.101323
0.378137
0.518647
0.664536
0.783304
0.839414
0.867937
0.760158
0.628765
0.396840
0.013182
-0.390348
-0.889501
-1.412266
-1.817200
-2.181219
-2.445641
-2.623559
-2.728767
-2.777396
-2.727598
-2.501518
-2.264450
-1.964257
-1.587145
-1.180342
-0.740573
-0.357149
0.078411
0.529636
0.894824
1.198056
1.437930
1.637591
1.671257
1.523499
1.296484
0.985302
0.566809
0.155797
-0.202143
-0.420274
-0.476151
-0.484334
-0.348031
-0.194895
0.084957
0.443599
0.844324
1.342541
1.815743
2.439274
2.977237
3.491820
3.964554
4.256797
4.504854
4.554886
4.509530
4.341899
4.088933
3.896286
3.494392
3.079405
2.780615
2.447691
2.214597
1.933108
1.681544
1.403328
1.030425
0.747299
0.463472
0.199517
-0.143928
-0.536236
-0.936493
-1.350077
-1.678092
-2.011016
-2.315417
-2.515312
-2.588256
-2.540328
-2.386257
-2.090974
-1.733033
-1.360364
-0.913581
-0.426586
0.040770
0.517946
1.029256
1.475805
1.985946
2.503100
2.907566
3.353179
3.706444
4.082152
4.379306
4.698904
5.032997
5.278015
5.701184
6.005117
6.399530
6.736429
7.068651
7.402745
7.581598
7.848825
7.839240
7.814925
7.582767
7.129672
6.601762
5.828602
5.027620
4.070463
3.137387
2.194257
1.250192
0.387488
-0.490412
-1.268015
-2.036733
-2.735547
-3.372638
-3.914809
-4.358085
-4.714856
-4.901892
-5.079576
-5.127972
-5.145507
-5.141298
-5.070225
-5.013412
-4.900256
-4.814219
-4.628352
-4.482464
-4.363696
-4.213132
-4.147669
-4.135512
-4.196065
-4.280231
-4.491816
-4.795048
-5.120725
-5.520514
-6.026915
-6.584516
-7.250364
-7.978869
-8.659915
-9.339791
-9.901134
-10.403330
-10.761730
