EVENT_NAME: L_AQUILA
EVENT_ID: IT-2009-0009
EVENT_DATE_YYYYMMDD: 20090406
EVENT_TIME_HHMMSS: 013240
EVENT_LATITUDE_DEGREE: 42.3420
EVENT_LONGITUDE_DEGREE: 13.3800
EVENT_DEPTH_KM: 8.3
HYPOCENTER_REFERENCE: INGV-CNT_Seismic_Bulletin
MAGNITUDE_W: 6.1
MAGNITUDE_W_REFERENCE: INGV-CNT_Seismic_Bulletin
MAGNITUDE_L: 
MAGNITUDE_L_REFERENCE: 
FOCAL_MECHANISM: Normal faulting
NETWORK: IT
STATION_CODE: CSO1
STATION_NAME: 
STATION_LATITUDE_DEGREE: 42.100933
STATION_LONGITUDE_DEGREE: 13.088044
STATION_ELEVATION_M: 700
LOCATION: 
SENSOR_DEPTH_M: 0.0
VS30_M/S: 
SITE_CLASSIFICATION_EC8: B (inferred from geology)
MORPHOLOGIC_CLASSIFICATION: 
EPICENTRAL_DISTANCE_KM: 36.0
EARTHQUAKE_BACKAZIMUTH_DEGREE: 222.1
DATE_TIME_FIRST_SAMPLE_YYYYMMDD_HHMMSS: 20090406_013218.000
DATE_TIME_FIRST_SAMPLE_PRECISION: seconds
SAMPLING_INTERVAL_S: 0.005000
NDATA: 19280
DURATION_S: 96.400
STREAM: HNZ
UNITS: cm/s^2
INSTRUMENT: sensor = FBA-3 [Kinemetrics] | digitizer = Etna [Kinemetrics]
INSTRUMENT_ANALOG/DIGITAL: D
INSTRUMENTAL_FREQUENCY_HZ: 202.000
INSTRUMENTAL_DAMPING: 0.700000
FULL_SCALE_G: 1.0
N_BIT_DIGITAL_CONVERTER: 18
PGA_CM/S^2: -16.050631
TIME_PGA_S: 44.835000
BASELINE_CORRECTION: BASELINE NOT REMOVED
FILTER_TYPE: 
FILTER_ORDER: 
LOW_CUT_FREQUENCY_HZ: 
HIGH_CUT_FREQUENCY_HZ: 
LATE/NORMAL_TRIGGERED: NT
DATABASE_VERSION: 0.5
HEADER_FORMAT: DYNA 1.2
DATA_TYPE: ACCELERATION
PROCESSING: converted to cm/s^2
DATA_TIMESTAMP_YYYYMMDD_HHMMSS: 20211011_160100.886
DATA_LICENSE: CC-BY3_0-IT (http://creativecommons.org/licenses/by/3.0/deed.en)
DATA_CITATION: Luzi L, Pacor F, Puglia R (2019). Italian Accelerometric Archive v 3.0 - Istituto Nazionale di Geofisica e Vulcanologia, Dipartimento della Protezione Civile Nazionale. doi: 10.13127/itaca.3.1
DATA_CREATOR: ITACA working group
ORIGINAL_DATA_MEDIATOR_CITATION: data obtained within the DPC-INGV data exchange agreements
ORIGINAL_DATA_MEDIATOR: Archive of Italian Department of Civil Protection
ORIGINAL_DATA_CREATOR_CITATION: Presidency Of Counsil Of Ministers-Civil Protection Department. (1972). Italian Strong Motion Network. Presidency of Counsil of Ministers - Civil Protection Department. https://doi.org/10.7914/SN/IT http://www.fdsn.org/networks/detail/IT/
ORIGINAL_DATA_CREATOR: network: IT (Italian Strong Motion Network (RAN)); owner: Presidency of Counsil of Ministers - Civil Protection Department (PCM - DPC)
USER1: 
USER2: 
USER3: 
USER4: 
USER5: 
[...]
3.027930
2.975134
3.105721
3.482298
3.992265
4.491486
4.813632
4.966412
4.977625
4.912915
4.878108
4.818304
4.822042
4.731869
4.502699
4.216529
3.761694
3.353814
2.928646
2.527541
2.250014
2.004258
1.812700
1.622075
1.425611
1.188498
0.897890
0.414320
-0.195164
-0.880103
-1.585367
-2.047911
-2.296470
-2.308384
-2.143924
-1.963111
-1.781364
-1.638396
-1.510612
-1.339844
-1.133335
-0.862349
-0.695085
-0.803713
-1.246635
-2.160510
-3.390458
-4.749825
-6.068076
-7.169539
-8.073370
-8.809703
-9.479224
-10.145240
-10.801680
-11.285250
-11.415370
-11.088790
-10.237520
-9.050787
-7.602649
-6.193057
-5.060056
-4.243128
-3.985458
-4.075631
-4.351756
-4.582795
-4.573917
-4.397310
-4.070492
-3.782453
-3.475959
-3.082329
-2.492000
-1.524395
-0.155450
1.599882
3.556118
5.529174
7.293617
8.738952
9.870784
10.579080
10.858710
10.790030
10.455270
9.919608
9.301247
8.607664
7.794474
6.942971
6.089834
5.257721
4.466490
3.759357
3.101283
2.483623
1.825782
1.064919
0.232340
-0.767270
-1.884151
-3.079993
-4.320920
-5.558577
-6.677794
-7.552891
-8.153498
-8.419578
-8.494566
-8.408364
-8.195313
-7.927832
-7.594707
-7.271860
-6.938267
-6.558887
-6.040277
-5.406965
-4.701702
-3.997139
-3.461709
-3.087234
-2.896143
-2.835638
-2.823023
-2.779572
-2.553673
-2.090662
-1.371382
-0.531326
0.262008
0.901394
1.231015
1.382860
1.286847
0.981989
0.619662
0.092642
-0.210348
-0.335562
-0.218291
0.285836
0.929894
1.826716
2.790117
3.828038
4.870632
5.741524
6.597465
7.181952
7.406450
7.443828
7.162330
6.663342
6.173466
5.662564
5.194180
4.900301
4.701967
4.496625
4.318850
4.195738
4.059778
3.956757
3.925453
3.785288
3.527852
3.086799
2.373593
1.437291
0.378812
-0.641823
-1.525563
-2.024784
-2.044874
-1.613166
-0.728024
0.419693
1.663424
2.959249
4.217230
5.430357
6.636944
7.721354
8.692230
9.451457
9.925916
10.277030
10.482140
10.648230
10.804280
10.932530
11.132740
11.372180
11.756940
12.266200
12.855360
13.470450
14.130400
14.700400
15.059690
15.306850
15.264100
15.120900
14.815800
14.321720
13.801010
13.131720
12.412910
11.530800
10.541470
9.493273
8.137177
6.619658
5.002854
3.109926
1.239425
-0.481567
-2.041137
-3.159887
-3.975880
-4.548687
-5.029220
-5.459527
-5.706684
-6.152175
-6.441616
-6.632007
-6.926119
-6.978915
-7.078198
-7.097354
-7.219765
-7.348717
-7.378385
-7.504767
-7.554526
-7.776220
-8.065427
-8.479614
-8.947298
-9.322941
-9.681763
-9.896214
-10.131460
-10.349180
-10.547980
-10.725990
-10.886250
-11.096030
-11.103740
-11.132470
-11.039030
-10.814530
-10.772480
-10.647970
-10.625770
-10.507570
-10.177710
-9.701153
-8.971828
-8.204424
-7.350819
-6.441382
-5.543625
-4.608725
-3.545807
-2.453689
-1.400349
-0.208246
0.897189
1.852179
2.679153
3.171599
3.419457
3.401703
3.146369
2.649952
2.059390
1.485648
0.871959
0.413853
0.045686
-0.359157
-0.797406
-1.196642
-1.634424
-1.997685
-2.181301
-2.059592
-1.640265
-1.017699
-0.088872
0.694417
1.405520
1.828118
1.971086
2.155637
2.189977
2.484557
2.816514
3.186083
3.625500
3.940170
4.192467
4.329596
4.514613
4.708742
4.936743
5.150495
5.489694
5.786143
5.855058
5.892668
5.585474
5.044671
4.471162
3.824301
3.342133
3.018586
2.992188
3.219722
3.625500
4.266755
4.873435
5.503477
6.254528
7.007214
7.676034
8.290892
8.607664
8.673075
8.463060
7.853109
6.942971
5.660929
4.301095
2.777268
1.230781
-0.194229
-1.580461
-2.784945
-3.806982
-4.601250
-5.254653
-5.759012
-6.226696
-6.678729
-7.081002
-7.451504
-7.713379
-7.964976
-8.214703
-8.458823
-8.711354
-9.049385
-9.475019
-9.875892
-10.288910
-10.603110
-10.745150
-10.635350
-10.299190
-9.737128
-8.921835
-7.975021
-6.743204
-5.408133
-4.080070
-2.825359
-1.811032
-0.987329
-0.383452
0.127216
0.419226
0.528555
0.545608
0.420628
0.355685
0.404275
0.678999
1.250872
1.974824
2.743629
3.484634
4.033847
4.390100
4.555495
4.468359
4.210455
3.799304
3.117635
2.228055
1.217232
-0.062708
-1.241028
-2.260495
-2.980709
-3.146570
-3.156850
-2.877921
-2.547132
-2.196720
-1.779495
-1.613633
-1.520424
-1.701236
-2.125469
-2.653891
-3.369667
-4.260181
-5.119860
-5.913895
-6.591826
-6.778713
-6.695782
-6.291873
-5.719299
-5.208865
-4.784866
-4.597979
-4.453142
-4.305969
-4.141509
-3.856507
-3.269916
-2.854560
-2.299507
-1.812434
-1.701236
-1.492858
-1.647506
-1.679511
-1.834860
-1.889992
-1.678343
-1.678576
-1.289618
-0.886177
-0.509601
0.111097
0.767770
1.436824
2.287392
3.128849
3.716374
4.271660
4.397342
4.309271
4.238255
3.914707
4.028007
4.015159
4.067487
4.337772
4.124020
4.104864
3.923117
3.612184
3.363391
3.042881
2.792219
2.403495
1.865729
1.426311
0.768938
0.072785
-0.104524
-0.443723
-0.421997
-0.048224
0.232106
0.830844
1.267691
1.633055
1.898200
1.866663
1.860823
1.681178
1.473267
1.516952
1.483078
1.530267
1.712482
1.729068
1.721826
1.639129
1.467894
1.330299
1.141543
1.116547
1.178920
1.059780
1.127293
1.067956
0.731093
0.480198
0.023260
-0.386956
-0.704196
-0.933599
-0.939907
-0.873328
-0.537867
-0.163860
0.146839
0.487440
0.581817
0.469218
0.309197
0.080961
-0.125081
-0.381350
-0.646962
-0.881038
-1.206220
-1.413898
-1.533973
-1.678810
-1.660822
-1.571117
-1.553362
-1.377455
-1.250606
-1.146417
-0.908370
-0.864451
-0.842025
-0.970042
-1.328164
-1.732306
-2.355807
-2.965992
-3.522213
-4.094787
-4.441228
-4.661755
-4.683012
-4.495425
-4.192903
-3.702325
-3.051492
-2.230826
-1.326996
-0.308697
0.644892
1.355762
1.806159
1.868532
1.592874
1.071460
0.476227
-0.100319
-0.628507
-1.019100
-1.347086
-1.635125
-1.905176
-2.231293
-2.585444
-2.982344
-3.370134
-3.698821
-4.013725
-4.158329
-4.085910
-3.902761
-3.413352
-2.950807
-2.489197
-1.837897
-1.376521
-0.750451
-0.094946
0.625035
1.455513
2.081115
2.712091
3.120205
3.372736
3.546073
3.589057
3.635312
3.728288
3.873358
4.093417
4.529330
5.055183
5.700643
6.408709
6.952316
7.400376
7.455041
7.287544
6.837147
5.942661
5.190208
3.974044
2.834736
1.902872
0.742774
0.012047
-0.859546
-1.557333
-2.246479
-3.009910
-3.547209
-4.348485
-4.950961
-5.474477
-6.098211
-6.507727
-6.836881
-7.236351
-7.574850
-7.808458
-8.045103
-8.135276
-8.008660
-7.704503
-7.139637
-6.291172
-5.055384
-3.768670
-2.332680
-0.812824
0.215286
1.238023
1.879278
2.111017
2.193715
1.982767
1.692859
1.092252
0.522247
-0.234410
-1.116281
-1.815704
-2.521201
-3.042615
-3.362425
-3.529221
-3.598836
-3.492311
-3.443020
-3.443020
-3.370368
-3.431573
-3.341634
-3.215252
-3.131854
-2.882126
-2.726310
-2.468873
-2.245544
-1.986706
-1.640732
-1.418103
-1.126560
-0.973313
-0.890616
-0.974948
-1.130531
-1.484915
-2.022915
-2.517931
-3.164325
-3.568701
-3.757223
-3.721481
-3.327150
-2.740560
-1.953066
-1.066990
-0.203574
0.641388
1.381459
2.054017
2.770026
3.348674
3.975679
4.463219
4.864091
5.250012
5.330140
5.552535
5.497403
5.375226
5.215905
4.923895
4.929268
4.869464
5.221045
5.775164
6.475287
7.546148
8.546692
9.672918
10.896320
11.961810
12.898820
13.694020
14.174080
14.493430
14.517950
14.197680
13.859650
12.839950
11.849680
10.648470
8.821883
7.549185
5.664199
4.087577
2.735686
1.052772
-0.058970
-1.529301
-2.623055
-3.777547
-4.946756
-5.596889
-6.448157
-6.932894
-7.209019
-7.448468
-7.567608
-7.679273
-7.711511
-7.724593
-7.586297
-7.232380
-6.706060
-6.109659
-5.359542
-4.715951
-4.222103
-3.736198
-3.570336
-3.496049
-3.459606
-3.487405
-3.549779
-3.540434
-3.611685
-3.691813
-3.625001
-3.794366
-3.816092
-3.863281
-3.964901
-3.922151
-3.869822
-3.664247
-3.456569
-3.065275
-2.670244
-2.295069
-1.829021
-1.405955
-1.012793
-0.600007
-0.093310
0.230237
0.655404
0.954189
1.080338
1.163269
0.934566
0.751884
0.295647
-0.156618
-0.620798
-1.402218
-2.017075
-2.692436
-3.426901
-3.894818
-4.145480
-4.229345
-3.960696
-3.426434
-2.742662
-1.938115
-1.094555
-0.283935
0.476927
1.288716
2.036730
2.731715
3.378342
3.874059
4.213959
4.498728
4.733271
4.865960
5.006125
5.031822
5.023412
4.986269
4.863624
4.827648
4.668094
4.640061
4.650807
4.626745
4.859653
5.035793
5.296734
5.565617
5.831697
6.098244
6.223458
6.301717
6.290504
6.241446
6.062969
5.927943
5.787545
5.658126
5.683355
5.742926
5.947333
6.170662
6.414783
6.625031
6.735994
6.823364
6.740900
6.645588
6.533689
6.311295
6.075818
5.814877
5.446243
4.960571
4.408555
3.807481
3.218087
2.654157
2.235531
1.933709
1.764109
1.696596
1.643567
1.657350
1.689354
1.786068
1.864561
1.989308
2.119895
2.175260
2.207731
2.075509
1.799150
1.336372
0.763798
0.159687
-0.453067
-0.959530
-1.406657
-1.725064
-1.928070
-2.027587
-2.003292
-1.896767
-1.722728
-1.548924
-1.398246
-1.376287
-1.453378
-1.669699
-2.062161
-2.461398
-2.937959
-3.352146
-3.593931
-3.731059
-3.626636
-3.432975
-3.122042
-2.667674
-2.183170
-1.489120
-0.711672
0.157118
1.079170
1.917356
2.690600
3.259436
3.709132
4.027306
4.201344
4.316747
4.370944
4.386829
4.296423
4.134766
3.889010
3.575274
3.292141
3.034471
2.874683
2.791986
2.705317
2.596222
2.492266
2.334814
2.072706
1.774154
1.407623
0.984091
0.526686
0.068113
-0.362894
-0.782922
-1.190335
-1.558502
-1.825049
-1.981800
-2.020579
-1.839066
-1.510378
-1.123523
-0.561228
-0.083265
0.315271
0.569203
0.521547
0.474358
0.233508
-0.005941
-0.115971
-0.220861
-0.229037
-0.192127
-0.201004
-0.085368
-0.138163
-0.482035
-0.149844
-0.411718
-0.914911
-0.614023
-1.166974
-1.459218
-1.247102
-1.610596
-1.716888
-1.574387
-1.441230
-1.123056
-0.656306
-0.092376
0.591162
1.302499
1.942119
2.423118
2.674247
2.905519
3.016950
3.101283
3.170665
3.034004
2.979573
2.693403
2.325003
1.858020
1.138740
0.479497
-0.360325
-1.077502
-1.675306
-2.185740
-2.578202
-2.870213
-2.967860
-3.182547
-3.172969
-3.059201
-2.923008
-2.515595
-2.125702
-1.615969
-0.907903
-0.037945
0.878033
1.715986
2.409335
2.962987
3.397265
3.602606
3.795567
3.846026
3.899756
4.081036
4.101593
4.175180
4.333800
4.397809
4.443363
4.645668
4.801017
4.975989
5.108679
5.038830
5.067097
4.955666
4.726262
4.457379
3.987593
3.497716
2.986815
2.400925
1.855684
1.286147
0.677363
0.176974
-0.297250
-0.644626
-0.872628
-1.006719
-0.942243
-0.820767
-0.647663
-0.443489
-0.226467
-0.019023
0.206643
0.433243
0.617560
0.798840
0.918447
1.047165
1.166773
1.274700
1.448738
1.636793
1.819007
1.995148
2.072005
2.047009
1.975057
1.805224
1.579325
1.272130
0.888545
0.419226
-0.161291
-0.724754
-1.399414
-2.075477
-2.605534
-3.118538
-3.471520
-3.668452
-3.693214
-3.618927
-3.423163
-2.905487
-2.553439
-2.152100
-1.308774
-0.862816
-0.595802
-0.039814
0.248225
0.527387
0.921951
1.158129
1.351790
1.570448
1.879512
2.179932
2.365183
2.510488
2.679386
2.719567
2.734518
2.795490
2.692235
2.560480
2.419147
2.163579
1.781396
1.335905
0.903963
0.371336
-0.198201
-0.723352
-1.301299
-1.845606
-2.314925
-2.750605
-3.081861
-3.317806
-3.470352
-3.451196
-3.256834
-3.132788
-2.875585
-2.436168
-2.296937
-2.093932
-1.880414
-1.989742
-2.029690
-2.203494
-2.594087
-2.938893
-3.341400
-3.736432
-4.060447
-4.339375
-4.490520
-4.573917
-4.654979
-4.818973
-5.055618
-5.345759
-5.729811
-6.098211
-6.531088
-6.875193
-7.059042
-7.127723
-6.972374
-6.691343
-6.190721
-5.551802
-4.855649
-4.105299
-3.417089
-2.716498
-2.035530
-1.526965
-1.076568
-0.654438
-0.437416
-0.240717
-0.107093
-0.109429
-0.078360
-0.102888
-0.088872
0.008309
0.240516
0.575744
0.931062
1.420938
1.767613
2.120829
2.385040
2.494369
2.612808
2.438303
2.312855
2.072238
1.743084
1.411828
0.851869
0.257803
-0.541138
-1.400582
-2.287359
-3.104755
-3.787592
-4.373715
-4.586533
-4.682312
-4.608491
-4.204583
-3.800207
-3.336728
-2.764622
-2.281052
-1.844205
-1.344984
-0.917247
-0.543006
-0.203574
-0.066913
0.004805
-0.019724
-0.160122
-0.312201
-0.503760
-0.674528
-0.799275
-0.872394
-0.947149
-0.980788
-0.945747
-0.899259
-0.847632
-0.717045
-0.606314
-0.554687
-0.347710
-0.218291
-0.117606
0.161556
0.389091
0.638351
0.955824
1.211625
1.570448
1.886053
2.226887
2.642710
2.838474
3.269247
3.531823
3.737165
4.173779
4.354825
4.615065
4.712713
4.737242
4.605487
4.312542
4.110237
3.739034
3.471552
3.253829
2.996159
2.785678
2.595054
2.373359
2.177129
2.076677
2.034861
2.090927
2.247678
2.572861
2.891269
3.251493
3.663578
3.862379
4.080802
4.089913
3.956289
3.833879
3.534159
3.322744
3.029332
2.781240
2.548799
2.258424
1.983935
1.550591
1.173080
0.705163
0.111798
-0.386489
-0.876833
-1.484448
-1.919426
-2.274745
-2.745466
-3.006172
-3.290707
-3.606078
-3.821933
-4.056942
-4.286346
-4.511778
-4.717353
-5.008896
-5.402526
-5.856427
-6.395595
-7.086608
-7.837893
-8.617443
-9.601869
-10.616200
-11.595250
-12.674280
-13.650070
-14.486850
-15.206600
-15.692970
-15.986850
-16.050631
-15.918170
-15.642980
-15.200990
-14.705040
-14.151390
-13.514340
-12.816320
-12.075310
-11.309780
-10.501490
-9.722878
-8.974163
-8.203489
-7.463886
-6.808848
-6.104052
-5.393649
-4.733472
-4.005782
-3.338597
-2.687063
-2.072674
-1.546354
-0.976116
-0.466149
0.119740
0.763798
1.350155
2.109149
2.849453
3.555184
4.338005
5.062191
5.757175
6.394226
6.965398
7.420934
7.679071
7.821806
7.786064
7.522320
7.200875
6.705158
6.077686
5.392980
4.606888
3.806079
2.964389
2.190912
1.475136
0.844160
0.337697
-0.059904
-0.327152
-0.473858
-0.496285
-0.432276
-0.273189
-0.070650
0.182815
0.455669
0.748847
1.045530
1.295024
1.582362
1.846339
2.149096
2.505816
2.878187
3.333957
3.774542
4.195271
4.566007
4.885817
4.986969
5.002154
4.879977
4.520220
4.195037
3.670820
3.182812
2.649485
2.070369
1.494992
0.797204
0.163659
-0.603745
-1.369746
-2.054919
-2.709490
-3.475024
-4.206685
-4.839764
-5.506248
-5.885395
-6.170397
-6.437411
-6.503989
-6.525948
-6.469182
-6.319438
-6.052658
-5.773730
-5.489895
-5.110749
-4.810796
-4.490753
-4.085910
-3.667284
-3.311031
-2.967860
-2.692904
-2.536853
-2.451353
-2.435467
-2.452053
-2.560214
-2.562784
-2.561382
-2.579603
-2.424488
-2.185973
-1.822012
-1.344750
-0.791566
-0.200303
0.345639
0.849065
1.334503
1.706875
2.054718
2.429659
2.706485
3.062504
3.405908
3.634377
3.887375
4.085241
4.262083
4.451773
4.664356
4.909878
5.168950
5.465399
5.827725
6.231868
6.598399
7.074493
7.486578
7.802416
8.135542
8.271034
8.326400
8.253514
8.072468
7.763871
7.347581
6.947644
6.451459
5.963218
5.441103
4.876005
4.229144
3.495380
2.792920
2.036263
1.318151
0.697454
0.088904
-0.444190
-0.922153
-1.438427
-1.889057
-2.274978
-2.650854
-2.944967
-3.229035
-3.364995
-3.527119
-3.636915
-3.571037
-3.667984
-3.617058
-3.702792
-3.857675
-3.994569
-4.296391
-4.483978
-4.807292
-5.038565
-5.241570
-5.486158
-5.559043
-5.647815
-5.698508
-5.609503
-5.486158
-5.363513
-5.093930
-4.840931
-4.610828
-4.279104
-4.033114
-3.743674
-3.449795
-3.179510
-2.850589
-2.606702
-2.253019
-2.014972
-1.794212
-1.577190
-1.521124
-1.395677
-1.411328
-1.349422
-1.346619
-1.316250
-1.160200
-1.136371
-0.968174
-0.825439
-0.678499
-0.404243
-0.150311
0.171835
0.538133
0.873127
1.187564
1.487283
1.757568
1.943053
2.136481
2.314957
2.434798
2.611640
2.658595
2.702280
2.793854
2.690600
2.746432
2.732182
2.689665
2.789649
2.700878
2.729145
2.699944
2.644112
2.635468
2.559312
2.618882
2.625189
2.590148
2.732182
2.868843
2.885195
3.102685
3.297514
3.365027
3.544672
3.586487
3.648861
3.586955
3.452396
3.376941
3.089602
2.900847
2.607435
2.265900
1.982066
1.709912
1.426545
1.169810
1.133133
0.966570
0.956525
1.081272
1.165838
1.343848
1.500833
1.726265
1.849376
1.898434
2.040468
2.080882
2.093029
2.229223
2.295568
2.418212
2.636636
2.763485
2.940561
3.096143
3.240280
3.328584
3.321342
3.352879
3.234673
3.098480
2.944298
2.750637
2.593886
2.361445
2.187174
1.963143
1.717154
1.550825
1.376553
1.265355
1.281474
1.372815
1.526763
1.769716
2.043271
2.310052
2.521935
2.783809
3.012745
3.145201
3.378342
3.593262
3.772907
4.067720
4.354124
4.626512
4.923428
5.165679
5.379665
5.522633
5.641773
5.713725
5.720733
5.727741
5.704614
5.617945
5.459325
5.292762
5.053781
4.737008
4.420936
4.033847
3.594430
3.168095
2.667472
2.176895
1.688420
1.197375
0.815893
0.421562
0.127449
-0.044954
-0.193061
-0.226701
-0.199135
-0.110364
0.057133
0.233040
0.450296
0.689044
0.937603
1.194806
1.393373
1.576989
1.677908
1.675104
1.590304
1.393606
1.146682
0.828508
0.523649
0.193093
-0.190024
-0.533662
-0.934067
-1.326996
-1.728335
-2.132244
-2.443644
-2.731683
-2.938659
-3.049390
-3.066443
-3.018553
-2.904786
-2.732851
-2.560681
-2.339921
-2.145559
-1.954935
-1.777393
-1.653580
-1.575321
-1.586535
-1.646806
-1.782298
-1.991144
-2.235732
-2.501345
-2.795224
-3.076254
-3.316170
-3.529922
-3.709567
-3.885240
-4.029143
-4.168607
-4.308305
-4.452208
-4.586065
-4.672500
-4.757067
-4.799583
-4.818272
-4.789538
-4.729267
-4.671800
-4.562938
-4.458281
-4.349186
-4.255743
-4.160898
-4.055074
-3.978684
-3.847162
-3.696718
-3.529688
-3.298650
-3.052427
-2.777703
-2.470041
-2.147895
-1.820610
-1.492858
-1.168142
-0.880103
-0.650233
-0.455170
-0.303091
-0.204742
-0.124848
-0.069716
-0.008511
0.066010
0.125347
0.230471
0.333726
0.450296
0.620830
0.757257
0.941808
1.121219
1.244564
1.413930
1.549890
1.649641
1.734908
1.789572
1.836528
1.840265
1.813167
1.799851
1.775556
1.726265
1.684682
1.608760
1.494992
1.380524
1.220736
1.041792
0.876398
0.703527
0.525284
0.328820
0.114601
-0.143303
-0.438817
-0.722184
-1.015596
-1.312512
-1.564108
-1.759405
-1.897000
-1.955169
-1.948861
-1.889291
-1.748192
-1.543551
-1.284245
-0.931497
-0.495584
-0.021125
0.491645
1.030345
1.551292
2.033226
2.461196
2.849220
3.203837
3.514302
3.791595
4.022634
4.233115
4.405985
4.488916
4.528630
4.499896
4.395006
4.231246
3.996937
3.719410
3.365260
2.957848
2.506750
2.005193
1.497095
0.981755
0.489542
0.038445
-0.393497
-0.773811
-1.072129
-1.315082
-1.504071
-1.661056
-1.792811
-1.917791
-2.050948
-2.154670
-2.253486
-2.299741
-2.313056
-2.324737
-2.298806
-2.267269
-2.209101
-2.149297
-2.056788
-1.921996
-1.785335
-1.623445
-1.476038
-1.351992
-1.253643
-1.168843
-1.095256
-1.036854
-0.987096
-0.986629
-1.014194
-1.087080
-1.227712
-1.408058
-1.639096
-1.892328
-2.166117
-2.431963
