EVENT_NAME: L_AQUILA
EVENT_ID: IT-2009-0009
EVENT_DATE_YYYYMMDD: 20090406
EVENT_TIME_HHMMSS: 013240
EVENT_LATITUDE_DEGREE: 42.3420
EVENT_LONGITUDE_DEGREE: 13.3800
EVENT_DEPTH_KM: 8.3
HYPOCENTER_REFERENCE: INGV-CNT_Seismic_Bulletin
MAGNITUDE_W: 6.1
MAGNITUDE_W_REFERENCE: INGV-CNT_Seismic_Bulletin
MAGNITUDE_L: 
MAGNITUDE_L_REFERENCE: 
FOCAL_MECHANISM: Normal faulting
NETWORK: IT
STATION_CODE: CSO1
STATION_NAME: 
STATION_LATITUDE_DEGREE: 42.100933
STATION_LONGITUDE_DEGREE: 13.088044
STATION_ELEVATION_M: 700
LOCATION: 
SENSOR_DEPTH_M: 0.0
VS30_M/S: 
SITE_CLASSIFICATION_EC8: B (inferred from geology)
MORPHOLOGIC_CLASSIFICATION: 
EPICENTRAL_DISTANCE_KM: 36.0
EARTHQUAKE_BACKAZIMUTH_DEGREE: 222.1
DATE_TIME_FIRST_SAMPLE_YYYYMMDD_HHMMSS: 20090406_013212.500
DATE_TIME_FIRST_SAMPLE_PRECISION: seconds
SAMPLING_INTERVAL_S: 0.005000
NDATA: 19960
DURATION_S: 99.800
STREAM: HNN
UNITS: cm/s^2
INSTRUMENT: sensor = FBA-3 [Kinemetrics] | digitizer = Etna [Kinemetrics]
INSTRUMENT_ANALOG/DIGITAL: D
INSTRUMENTAL_FREQUENCY_HZ: 204.000
INSTRUMENTAL_DAMPING: 0.700000
FULL_SCALE_G: 1.0
N_BIT_DIGITAL_CONVERTER: 18
PGA_CM/S^2: 17.498116
TIME_PGA_S: 47.465000
BASELINE_CORRECTION: BASELINE REMOVED
FILTER_TYPE: BUTTERWORTH
FILTER_ORDER: 2
LOW_CUT_FREQUENCY_HZ: 0.030
HIGH_CUT_FREQUENCY_HZ: 40.000
LATE/NORMAL_TRIGGERED: NT
DATABASE_VERSION: 0.5
HEADER_FORMAT: DYNA 1.2
DATA_TYPE: ACCELERATION
PROCESSING: manual (Paolucci et al., 2011)
DATA_TIMESTAMP_YYYYMMDD_HHMMSS: 20211011_160100.475
DATA_LICENSE: CC-BY3_0-IT (http://creativecommons.org/licenses/by/3.0/deed.en)
DATA_CITATION: Luzi L, Pacor F, Puglia R (2019). Italian Accelerometric Archive v 3.0 - Istituto Nazionale di Geofisica e Vulcanologia, Dipartimento della Protezione Civile Nazionale. doi: 10.13127/itaca.3.1
DATA_CREATOR: ITACA working group
ORIGINAL_DATA_MEDIATOR_CITATION: data obtained within the DPC-INGV data exchange agreements
ORIGINAL_DATA_MEDIATOR: Archive of Italian Department of Civil Protection
ORIGINAL_DATA_CREATOR_CITATION: Presidency Of Counsil Of Ministers-Civil Protection Department. (1972). Italian Strong Motion Network. Presidency of Counsil of Ministers - Civil Protection Department. https://doi.org/10.7914/SN/IT http://www.fdsn.org/networks/detail/IT/
ORIGINAL_DATA_CREATOR: network: IT (Italian Strong Motion Network (RAN)); owner: Presidency of Counsil of Ministers - Civil Protection Department (PCM - DPC)
USER1: 
USER2: 
USER3: 
USER4: 
USER5: 
[...]
3.413343
3.049564
2.692323
2.414770
2.252996
2.200461
2.224358
2.278430
2.305970
2.253496
2.103493
1.897144
1.712116
1.610310
1.607791
1.683212
1.800484
1.926049
2.036710
2.123809
2.191779
2.245136
2.275490
2.256008
2.143533
1.896284
1.493370
0.936520
0.247462
-0.523998
-1.288413
-1.924147
-2.322477
-2.445018
-2.345449
-2.147151
-1.998210
-2.020646
-2.275037
-2.755490
-3.395471
-4.072280
-4.638207
-4.980654
-5.059099
-4.888110
-4.501280
-3.939438
-3.260285
-2.541815
-1.858057
-1.242515
-0.687142
-0.177868
0.282162
0.678631
0.997794
1.228783
1.360224
1.377793
1.273553
1.066154
0.810832
0.587712
0.470955
0.495865
0.655192
0.924917
1.282239
1.696984
2.113840
2.451774
2.632042
2.618108
2.439478
2.180999
1.943654
1.810949
1.836286
2.035280
2.380440
2.809725
3.244246
3.600167
3.795644
3.764108
3.473849
2.941919
2.234090
1.449717
0.694300
0.057055
-0.393383
-0.607937
-0.560565
-0.256441
0.253333
0.867290
1.460341
1.928408
2.216812
2.322035
2.280566
2.147116
1.962121
1.726173
1.402606
0.952135
0.375069
-0.270213
-0.885215
-1.378514
-1.714359
-1.924705
-2.074781
-2.219374
-2.380951
-2.540617
-2.644847
-2.644253
-2.534117
-2.357729
-2.187153
-2.103090
-2.171686
-2.421631
-2.834637
-3.359056
-3.932541
-4.490252
-4.964508
-5.300028
-5.484261
-5.554689
-5.566436
-5.556985
-5.532839
-5.471188
-5.335651
-5.102138
-4.780086
-4.415205
-4.069317
-3.797526
-3.634311
-3.574000
-3.560943
-3.515840
-3.381188
-3.150648
-2.858667
-2.544243
-2.232361
-1.939473
-1.680951
-1.477124
-1.358505
-1.362619
-1.514788
-1.798358
-2.141012
-2.436924
-2.591009
-2.559634
-2.374684
-2.130935
-1.928626
-1.817781
-1.791828
-1.815596
-1.847946
-1.858055
-1.845043
-1.833775
-1.838778
-1.832943
-1.751921
-1.533774
-1.154194
-0.628432
-0.000118
0.670803
1.324569
1.913319
2.403255
2.773040
3.015814
3.139121
3.156569
3.082831
2.934082
2.723811
2.456833
2.133804
1.763948
1.367209
0.968536
0.604361
0.326552
0.179085
0.167396
0.253901
0.380142
0.486357
0.517350
0.439523
0.267621
0.065156
-0.088416
-0.136024
-0.067700
0.068968
0.180089
0.169848
-0.011652
-0.366182
-0.871613
-1.479246
-2.094394
-2.586786
-2.840352
-2.803710
-2.493995
-1.961142
-1.267508
-0.489108
0.300327
1.049943
1.722757
2.278171
2.678572
2.905526
2.959448
2.853350
2.622010
2.329132
2.046066
1.817419
1.643022
1.482683
1.274153
0.955041
0.486182
-0.123553
-0.802499
-1.431341
-1.878992
-2.034331
-1.839531
-1.319960
-0.576466
0.256473
1.052706
1.720886
2.210431
2.500630
2.583115
2.444388
2.061567
1.419548
0.539599
-0.497892
-1.553573
-2.461945
-3.090385
-3.391094
-3.407877
-3.247339
-3.042345
-2.905640
-2.887718
-2.975219
-3.127685
-3.316588
-3.541344
-3.818454
-4.161662
-4.573177
-5.035099
-5.501569
-5.910488
-6.194266
-6.283863
-6.137603
-5.778552
-5.291626
-4.781997
-4.336576
-4.002406
-3.774836
-3.600197
-3.398195
-3.102323
-2.691933
-2.182152
-1.593278
-0.947382
-0.283037
0.348270
0.899511
1.340971
1.668613
1.907419
2.101876
2.291297
2.488836
2.688276
2.886712
3.093388
3.324807
3.596457
3.904342
4.205862
4.430990
4.518199
4.437408
4.192004
3.815640
3.365041
2.901377
2.464622
2.053664
1.626157
1.130324
0.555201
-0.042337
-0.557460
-0.886070
-0.972374
-0.828527
-0.507643
-0.055857
0.507920
1.179123
1.948333
2.785928
3.628394
4.382599
4.958586
5.299692
5.385623
5.230336
4.884004
4.419524
3.912521
3.432577
3.037018
2.761233
2.607083
2.538583
2.499631
2.443746
2.354552
2.245089
2.128666
1.982178
1.745211
1.360859
0.812818
0.127268
-0.638913
-1.402182
-2.062996
-2.537316
-2.791593
-2.849884
-2.771742
-2.627778
-2.490385
-2.432052
-2.511901
-2.758055
-3.171168
-3.741161
-4.450606
-5.264133
-6.121239
-6.940372
-7.632608
-8.120273
-8.354377
-8.320266
-8.027627
-7.506319
-6.811784
-6.010895
-5.151947
-4.250833
-3.302456
-2.301575
-1.258687
-0.215477
0.747968
1.536836
2.082782
2.371032
2.443559
2.380940
2.273751
2.196957
2.191441
2.258337
2.374512
2.518355
2.688824
2.916310
3.257082
3.760417
4.426536
5.189305
5.931736
6.516574
6.820246
6.761003
6.317167
5.537102
4.528381
3.425780
2.362337
1.454093
0.788905
0.417622
0.352564
0.569797
1.013126
1.600463
2.231109
2.796440
3.196026
3.360499
3.278553
3.004982
2.636698
2.280686
2.032846
1.960004
2.078945
2.351871
2.712456
3.096599
3.449131
3.711902
3.822720
3.738132
3.458764
3.038347
2.573561
2.175935
1.937039
1.907529
2.100277
2.500706
3.064876
3.717844
4.367198
4.920256
5.296519
5.441973
5.344477
5.036690
4.580487
4.042208
3.465612
2.849275
2.151474
1.334438
0.408425
-0.568925
-1.518805
-2.357688
-3.010515
-3.432865
-3.630428
-3.651822
-3.554534
-3.381790
-3.172359
-2.978816
-2.855353
-2.819892
-2.841855
-2.871084
-2.866544
-2.801906
-2.673294
-2.512043
-2.370958
-2.291694
-2.284036
-2.323235
-2.360706
-2.350068
-2.280927
-2.189556
-2.135233
-2.167502
-2.306454
-2.542632
-2.847119
-3.179895
-3.505195
-3.810688
-4.102110
-4.373809
-4.585318
-4.661951
-4.524089
-4.131334
-3.509127
-2.744663
-1.958558
-1.261685
-0.723094
-0.363125
-0.161738
-0.079280
-0.075123
-0.110936
-0.156316
-0.201925
-0.261587
-0.352333
-0.468213
-0.579603
-0.654408
-0.668799
-0.602926
-0.441612
-0.183969
0.157630
0.575164
1.072822
1.650261
2.286929
2.948040
3.595270
4.191885
4.710649
5.132527
5.431106
5.568716
5.513348
5.259057
4.835800
4.298786
3.704035
3.096392
2.509548
1.958913
1.435924
0.917019
0.380034
-0.184844
-0.774152
-1.379348
-1.996235
-2.623403
-3.254335
-3.868627
-4.433204
-4.927836
-5.363679
-5.763477
-6.134640
-6.473245
-6.782788
-7.079661
-7.389563
-7.743553
-8.162232
-8.630054
-9.095583
-9.497754
-9.780863
-9.896870
-9.814723
-9.537304
-9.108514
-8.599669
-8.079433
-7.583218
-7.103577
-6.603971
-6.046890
-5.425267
-4.774784
-4.158133
-3.639397
-3.265541
-3.053958
-2.983290
-2.998152
-3.034767
-3.046060
-2.997979
-2.850331
-2.561898
-2.115116
-1.524822
-0.833415
-0.108342
0.569319
1.137589
1.589497
1.977367
2.381924
2.873598
3.483940
4.198456
4.981099
5.810750
6.693044
7.643659
8.666171
9.736527
10.795011
11.750037
12.501236
12.979271
13.180877
13.174943
13.073576
12.984156
12.966378
13.015609
13.080049
13.090354
12.986657
12.742081
12.366910
11.891850
11.348503
10.756293
10.118899
9.436642
8.722951
8.000698
7.292305
6.622210
6.017827
5.504304
5.100640
4.811470
4.614403
4.465112
4.330422
4.221393
4.185894
4.263035
4.446922
4.685663
4.903201
5.024653
4.994224
4.786058
4.406110
3.876620
3.214104
2.426777
1.534497
0.589639
-0.321993
-1.103017
-1.677565
-2.019352
-2.158855
-2.165763
-2.118603
-2.078743
-2.076827
-2.115731
-2.191947
-2.317497
-2.519434
-2.819397
-3.221492
-3.720186
-4.301297
-4.929817
-5.549376
-6.092229
-6.492264
-6.700316
-6.685495
-6.429895
-5.935861
-5.229056
-4.349621
-3.352512
-2.310421
-1.301048
-0.399272
0.318804
0.788498
0.983156
0.924602
0.668164
0.278741
-0.186616
-0.689829
-1.215820
-1.763567
-2.326023
-2.880753
-3.398043
-3.837561
-4.138738
-4.229619
-4.044453
-3.547480
-2.764994
-1.798672
-0.799679
0.079051
0.732394
1.136543
1.338788
1.422216
1.486383
1.628933
1.909364
2.328357
2.839229
3.369855
3.843409
4.187245
4.329604
4.206786
3.786822
3.089500
2.179680
1.140768
0.055770
-1.001374
-1.979542
-2.872537
-3.726144
-4.610138
-5.581536
-6.671569
-7.889820
-9.221491
-10.610468
-11.953684
-13.128380
-14.025570
-14.562501
-14.693256
-14.419833
-13.777084
-12.814380
-11.608726
-10.279123
-8.962189
-7.763155
-6.722633
-5.823503
-5.030279
-4.327594
-3.736650
-3.306291
-3.075417
-3.033733
-3.123162
-3.263356
-3.363660
-3.342093
-3.155175
-2.804527
-2.327310
-1.779001
-1.216797
-0.703260
-0.306088
-0.074638
-0.030194
-0.190599
-0.578073
-1.190613
-1.989844
-2.918748
-3.915986
-4.916100
-5.849650
-6.651973
-7.279487
-7.717592
-7.969886
-8.058508
-8.033178
-7.943777
-7.803057
-7.597176
-7.312389
-6.930261
-6.428355
-5.807380
-5.092342
-4.304245
-3.444776
-2.499347
-1.460744
-0.357394
0.748145
1.783530
2.687925
3.416297
3.938447
4.248786
4.374885
4.366621
4.270475
4.111691
3.895310
3.626852
3.330984
3.050884
2.841520
2.748715
2.791008
2.962690
3.234868
3.566861
3.921345
4.261280
4.556590
4.798914
4.980648
5.056026
4.954438
4.634878
4.110042
3.432076
2.680264
1.955100
1.355757
0.958054
0.811783
0.940501
1.343339
1.998272
2.855182
3.845534
4.910357
6.001688
7.075174
8.100758
9.060462
9.932803
10.694057
11.331863
11.845484
12.230413
12.463231
12.499464
12.293892
11.827321
11.115742
10.215472
9.228611
8.285478
7.502063
6.929146
6.537795
6.254931
5.987698
5.628377
5.084151
4.319201
3.371108
2.338389
1.345098
0.496046
-0.143396
-0.552736
-0.768525
-0.868662
-0.917471
-0.932083
-0.902979
-0.820964
-0.684161
-0.504898
-0.308082
-0.117140
0.048665
0.178138
0.284784
0.402728
0.562356
0.780951
1.066615
1.408917
1.766525
2.085616
2.336518
2.527777
2.692882
2.877245
3.126908
3.469447
3.906333
4.421359
4.985606
5.549617
6.049709
6.444344
6.735059
6.942764
7.071927
7.106089
7.036288
6.881932
6.679666
6.462947
6.252863
6.046582
5.812925
5.516906
5.143408
4.692986
4.170659
3.581815
2.927781
2.197496
1.361650
0.380692
-0.775803
-2.111503
-3.592635
-5.150209
-6.701503
-8.175196
-9.515089
-10.667078
-11.576626
-12.200677
-12.508889
-12.472703
-12.067903
-11.294870
-10.193589
-8.832941
-7.287862
-5.630575
-3.936146
-2.282988
-0.734217
0.680361
1.957396
3.102216
4.119300
5.005608
5.742939
6.303786
6.669921
6.842326
6.838145
6.684058
6.408383
6.023970
5.513108
4.845032
4.001489
2.977450
1.784816
0.459091
-0.949506
-2.376942
-3.738917
-4.942700
-5.906433
-6.571330
-6.911780
-6.940476
-6.698008
-6.227285
-5.554647
-4.686187
-3.618884
-2.373276
-1.011091
0.385082
1.725695
2.909743
3.833389
4.407564
4.570211
4.298104
3.614180
2.577204
1.268454
-0.212288
-1.763622
-3.289259
-4.695849
-5.918116
-6.916780
-7.650403
-8.092211
-8.254709
-8.170885
-7.879543
-7.437094
-6.916426
-6.393950
-5.938121
-5.598900
-5.407908
-5.388271
-5.544006
-5.835675
-6.197576
-6.563015
-6.854409
-6.982965
-6.874352
-6.488480
-5.817256
-4.897724
-3.829940
-2.747338
-1.781864
-1.038357
-0.562434
-0.347980
-0.367052
-0.575892
-0.929272
-1.405878
-1.987216
-2.620071
-3.233290
-3.771407
-4.196468
-4.487765
-4.647946
-4.687299
-4.608943
-4.422106
-4.145956
-3.793674
-3.376067
-2.921513
-2.476090
-2.082899
-1.770036
-1.544409
-1.393203
-1.303544
-1.263623
-1.253992
-1.261057
-1.287137
-1.341852
-1.432156
-1.560186
-1.711485
-1.844728
-1.910653
-1.875564
-1.725842
-1.465003
-1.112245
-0.699039
-0.265952
0.140846
0.478079
0.710453
0.813762
0.780217
0.617506
0.344446
-0.005552
-0.385571
-0.749690
-1.060231
-1.290003
-1.421085
-1.437954
-1.334912
-1.122419
-0.821586
-0.465834
-0.111157
0.160012
0.258623
0.118532
-0.287054
-0.933861
-1.736872
-2.562563
-3.270340
-3.761254
-4.001585
-4.011820
-3.850173
-3.602236
-3.349549
-3.132746
-2.953521
-2.800718
-2.665101
-2.547514
-2.465675
-2.445086
-2.500529
-2.626392
-2.797825
-2.976307
-3.110491
-3.139576
-3.013529
-2.714288
-2.255728
-1.669168
-0.990133
-0.243166
0.569435
1.456170
2.419959
3.453846
4.538612
5.644065
6.735375
7.782939
8.768002
9.672273
10.465726
11.105908
11.547825
11.758883
11.722363
11.434733
10.908886
10.168523
9.245167
8.188501
7.061089
5.925697
4.850987
3.915218
3.188065
2.713584
2.503751
2.530799
2.736463
3.051171
3.400848
3.715492
3.951523
4.109364
4.218451
4.319733
4.464618
4.688081
4.978861
5.293056
5.580905
5.796539
5.904607
5.884480
5.728936
5.438450
5.001625
4.400175
3.641641
2.755456
1.766835
0.701212
-0.400199
-1.491290
-2.529743
-3.470387
-4.269744
-4.886742
-5.289297
-5.471754
-5.442712
-5.208979
-4.796991
-4.261125
-3.651867
-3.013812
-2.412493
-1.919489
-1.581258
-1.419868
-1.434621
-1.588620
-1.821456
-2.084290
-2.356238
-2.638720
-2.937833
-3.256105
-3.599237
-3.972444
-4.373249
-4.798886
-5.257991
-5.768946
-6.342453
-6.965724
-7.612168
-8.261692
-8.896012
-9.492204
-10.037210
-10.528372
-10.951326
-11.271128
-11.441399
-11.413386
-11.149187
-10.632206
-9.866688
-8.884391
-7.753496
-6.568483
-5.431633
-4.432211
-3.626058
-3.041330
-2.691032
-2.565052
-2.625116
-2.816881
-3.084478
-3.368555
-3.601108
-3.712152
-3.637911
-3.332656
-2.779825
-1.994584
-1.023984
0.060881
1.186097
2.284261
3.284117
4.110373
4.692419
4.966950
4.883593
4.418994
3.593679
2.474779
1.162867
-0.216439
-1.532615
-2.680129
-3.575579
-4.151658
-4.370326
-4.225700
-3.741759
-2.968674
-1.973049
-0.823754
0.419303
1.701916
2.970179
4.175431
5.276711
6.239262
7.042308
7.685640
8.195103
8.630293
9.073046
9.597385
10.245995
11.023536
11.902639
12.849766
13.832631
14.799832
15.696451
16.474646
17.072887
17.427956
17.498116
17.253340
16.667009
15.729418
14.454496
12.889033
11.114055
9.222028
7.309295
5.469445
3.767053
2.232671
0.886721
-0.259295
-1.222328
-2.043233
-2.771637
-3.452476
-4.115486
-4.773015
-5.420541
-6.048215
-6.651647
-7.222960
-7.739633
-8.179683
-8.548212
-8.869354
-9.159977
-9.433615
-9.704097
-9.965109
-10.190480
-10.348954
-10.405887
-10.331004
-10.107033
-9.726404
-9.203442
-8.584537
-7.919656
-7.248283
-6.618535
-6.080881
-5.663977
-5.370787
-5.177440
-5.027003
-4.853888
-4.629969
-4.374429
-4.112613
-3.842179
-3.545431
-3.205533
-2.797702
-2.285153
-1.650280
-0.921660
-0.147678
0.631766
1.379742
2.062797
2.662184
3.173589
3.602587
3.955775
4.222379
4.381470
4.429935
4.381336
4.256877
4.096470
3.953943
3.872529
3.878075
3.987889
4.212522
4.558507
5.037207
5.660068
6.421964
7.288296
8.190504
9.037378
9.738534
10.219998
10.428741
10.345206
9.991766
9.419097
8.693578
7.883350
7.027864
6.123956
5.151592
4.103300
2.985148
1.811781
0.610573
-0.586144
-1.757987
-2.896583
-3.994375
-5.043299
-6.038525
-6.971817
-7.818063
-8.531583
-9.061108
-9.376695
-9.482079
-9.405692
-9.193673
-8.903814
-8.587893
-8.268691
-7.930176
-7.537501
-7.067822
-6.518604
-5.903753
-5.255756
-4.619914
-4.042012
-3.566642
-3.239052
-3.098303
-3.170813
-3.470251
-3.990508
-4.694418
-5.515906
-6.373773
-7.184936
-7.871769
-8.367064
-8.622412
-8.612988
-8.331672
-7.782397
-6.987003
-6.000172
-4.905702
-3.792393
-2.734653
-1.786297
-0.979860
-0.325157
0.187900
0.582738
0.891600
1.147168
1.373056
1.578430
1.758564
1.905367
2.016129
2.089937
2.121758
2.107655
2.054059
1.976031
1.894646
1.836699
1.820677
1.840038
1.868241
1.879911
1.860513
1.798032
1.680124
1.504253
1.277456
1.006329
0.701802
0.386871
0.086543
-0.186991
-0.436676
-0.672015
-0.900958
-1.125607
-1.338486
-1.521994
-1.653379
-1.707864
-1.657340
-1.472967
-1.133035
-0.630643
0.022024
0.790871
1.619020
2.434852
3.166101
3.752897
4.155896
4.354331
4.343170
4.141932
3.800149
3.382999
2.954987
2.577289
2.304616
2.174687
2.197770
2.357484
2.623215
2.949413
3.271584
3.522684
3.650531
3.626484
3.444952
3.123579
2.712455
2.274236
1.850655
1.470233
1.155544
0.903129
0.702137
0.579112
0.547852
0.535473
0.499769
0.526531
0.683621
0.956664
1.320446
1.724339
2.098148
2.406463
2.659624
2.892776
3.126117
3.343633
3.517713
3.657771
3.830256
4.103129
4.473325
4.890421
5.339379
5.842253
6.383512
6.886586
7.270503
7.489317
7.521011
7.355593
6.993926
6.450481
5.753739
4.940835
4.064913
3.202502
2.429688
1.779823
1.212829
0.655033
0.091363
-0.437867
-0.909093
-1.334121
-1.745340
-2.159735
-2.551252
-2.872479
-3.082136
-3.157224
-3.100571
-2.946576
-2.746424
-2.521401
-2.247263
-1.898122
-1.470915
-0.958010
-0.332833
0.423743
1.284871
2.169757
2.998631
3.732233
4.328894
4.716176
4.828354
4.647430
4.211550
3.596484
2.897149
2.210849
1.612202
1.138277
0.793766
0.568552
0.447527
0.399888
0.374073
0.321188
0.220915
0.081276
-0.076934
-0.232229
-0.364735
-0.453383
-0.481056
-0.444244
-0.349763
-0.203794
-0.011252
0.218282
0.475698
0.763544
1.090205
1.453671
1.841479
2.245009
2.662528
3.085657
3.492937
3.855975
4.143385
4.329162
4.400710
4.342714
4.129882
3.755584
3.239929
2.601632
1.851902
1.017468
0.145762
-0.713480
-1.522885
-2.269549
-2.964982
-3.621240
-4.242264
-4.832605
-5.387727
-5.885307
-6.283867
-6.509011
-6.501868
-6.313322
-6.031433
-5.637728
-5.071844
-4.338035
-3.478140
-2.559168
-1.696923
-1.002942
-0.486898
-0.068399
0.309773
0.628086
0.819036
0.824369
0.654746
0.399266
0.156260
-0.044812
-0.227405
-0.393255
-0.513349
-0.574744
-0.581683
-0.528449
-0.420742
-0.306482
-0.249138
-0.282173
-0.411654
-0.643918
-0.977102
-1.372515
-1.759112
-2.072712
-2.285361
-2.390298
-2.377059
-2.252918
-2.050468
-1.773651
-1.407482
-0.987023
-0.574540
-0.204211
0.108318
0.352024
0.532649
0.670925
0.778185
0.843790
0.847916
0.777481
0.624142
0.375600
0.026425
-0.409514
-0.898753
-1.388321
-1.824330
-2.177936
-2.444337
-2.630385
-2.743064
-2.773377
-2.700966
-2.525276
-2.270444
-1.955301
-1.587247
-1.182268
-0.763437
-0.339760
0.090170
0.509893
0.887271
1.204732
1.456516
1.617699
1.648763
1.535934
1.298996
0.964178
0.563734
0.155626
-0.185674
-0.405797
-0.495187
-0.475595
-0.369101
-0.182630
0.086246
0.434312
0.849898
1.323766
1.851195
2.415295
2.978655
3.499220
3.941099
4.275631
4.483457
4.555404
4.499696
4.345994
4.124990
3.840485
3.491008
3.114566
2.765457
2.464185
2.197904
1.942550
1.673051
1.373777
1.056617
0.752583
0.470039
0.179436
-0.154080
-0.535689
-0.939147
-1.330864
-1.693919
-2.025445
-2.309001
-2.507624
-2.589492
-2.543324
-2.373248
-2.098378
-1.749688
-1.350264
-0.909559
-0.440276
0.040604
0.524011
1.008264
1.496964
1.991035
2.474141
2.925147
3.338401
3.717337
4.065331
4.389283
4.699173
5.005514
5.323876
5.665558
6.024193
6.386072
6.740503
7.075667
7.376424
7.626362
7.801828
7.870144
7.799356
7.563474
7.151678
6.572850
5.847165
5.004765
4.086746
3.136637
2.188205
1.262491
0.371961
-0.476711
-1.280414
-2.036890
-2.738728
-3.370912
-3.916646
-4.361295
-4.695777
-4.924806
-5.065182
-5.135456
-5.153170
-5.132454
-5.082237
-5.008845
-4.913075
-4.790148
-4.643459
-4.489910
-4.346133
-4.226939
-4.152243
-4.135974
-4.182058
-4.299574
-4.499983
-4.778099
-5.120841
-5.530559
-6.020981
-6.600313
-7.259689
-7.965485
-8.669419
-9.328205
-9.910308
-10.394147
-10.767041
