EVENT_NAME: L_AQUILA
EVENT_ID: IT-2009-0009
EVENT_DATE_YYYYMMDD: 20090406
EVENT_TIME_HHMMSS: 013240
EVENT_LATITUDE_DEGREE: 42.3420
EVENT_LONGITUDE_DEGREE: 13.3800
EVENT_DEPTH_KM: 8.3
HYPOCENTER_REFERENCE: INGV-CNT_Seismic_Bulletin
MAGNITUDE_W: 6.1
MAGNITUDE_W_REFERENCE: INGV-CNT_Seismic_Bulletin
MAGNITUDE_L: 
MAGNITUDE_L_REFERENCE: 
FOCAL_MECHANISM: Normal faulting
NETWORK: IT
STATION_CODE: CSO1
STATION_NAME: 
STATION_LATITUDE_DEGREE: 42.100933
STATION_LONGITUDE_DEGREE: 13.088044
STATION_ELEVATION_M: 700
LOCATION: 
SENSOR_DEPTH_M: 0.0
VS30_M/S: 
SITE_CLASSIFICATION_EC8: B (inferred from geology)
MORPHOLOGIC_CLASSIFICATION: 
EPICENTRAL_DISTANCE_KM: 36.0
EARTHQUAKE_BACKAZIMUTH_DEGREE: 222.1
DATE_TIME_FIRST_SAMPLE_YYYYMMDD_HHMMSS: 20090406_013212.500
DATE_TIME_FIRST_SAMPLE_PRECISION: seconds
SAMPLING_INTERVAL_S: 0.005000
NDATA: 19960
DURATION_S: 99.800
STREAM: HNN
UNITS: cm
INSTRUMENT: sensor = FBA-3 [Kinemetrics] | digitizer = Etna [Kinemetrics]
INSTRUMENT_ANALOG/DIGITAL: D
INSTRUMENTAL_FREQUENCY_HZ: 204.000
INSTRUMENTAL_DAMPING: 0.700000
FULL_SCALE_G: 1.0
N_BIT_DIGITAL_CONVERTER: 18
PGD_CM: -1.178775
TIME_PGD_S: 40.845000
BASELINE_CORRECTION: BASELINE REMOVED
FILTER_TYPE: BUTTERWORTH
FILTER_ORDER: 2
LOW_CUT_FREQUENCY_HZ: 0.030
HIGH_CUT_FREQUENCY_HZ: 40.000
LATE/NORMAL_TRIGGERED: NT
DATABASE_VERSION: 0.5
HEADER_FORMAT: DYNA 1.2
DATA_TYPE: DISPLACEMENT
PROCESSING: manual (Paolucci et al., 2011)
DATA_TIMESTAMP_YYYYMMDD_HHMMSS: 20211011_160100.602
DATA_LICENSE: CC-BY3_0-IT (http://creativecommons.org/licenses/by/3.0/deed.en)
DATA_CITATION: Luzi L, Pacor F, Puglia R (2019). Italian Accelerometric Archive v 3.0 - Istituto Nazionale di Geofisica e Vulcanologia, Dipartimento della Protezione Civile Nazionale. doi: 10.13127/itaca.3.1
DATA_CREATOR: ITACA working group
ORIGINAL_DATA_MEDIATOR_CITATION: data obtained within the DPC-INGV data exchange agreements
ORIGINAL_DATA_MEDIATOR: Archive of Italian Department of Civil Protection
ORIGINAL_DATA_CREATOR_CITATION: Presidency Of Counsil Of Ministers-Civil Protection Department. (1972). Italian Strong Motion Network. Presidency of Counsil of Ministers - Civil Protection Department. https://doi.org/10.7914/SN/IT http://www.fdsn.org/networks/detail/IT/
ORIGINAL_DATA_CREATOR: network: IT (Italian Strong Motion Network (RAN)); owner: Presidency of Counsil of Ministers - Civil Protection Department (PCM - DPC)
USER1: 
USER2: 
USER3: 
USER4: 
USER5: 
[...]
4.290100e-01
4.281360e-01
4.272547e-01
4.263671e-01
4.254742e-01
4.245770e-01
4.236762e-01
4.227713e-01
4.218609e-01
4.209431e-01
4.200157e-01
4.190770e-01
4.181248e-01
4.171577e-01
4.161753e-01
4.151797e-01
4.141750e-01
4.131673e-01
4.121632e-01
4.111691e-01
4.101897e-01
4.092276e-01
4.082830e-01
4.073537e-01
4.064372e-01
4.055302e-01
4.046299e-01
4.037334e-01
4.028382e-01
4.019433e-01
4.010494e-01
4.001583e-01
3.992718e-01
3.983903e-01
3.975131e-01
3.966385e-01
3.957648e-01
3.948906e-01
3.940141e-01
3.931332e-01
3.922450e-01
3.913462e-01
3.904341e-01
3.895090e-01
3.885751e-01
3.876398e-01
3.867125e-01
3.858019e-01
3.849143e-01
3.840524e-01
3.832158e-01
3.824014e-01
3.816053e-01
3.808232e-01
3.800523e-01
3.792916e-01
3.785425e-01
3.778075e-01
3.770888e-01
3.763870e-01
3.756991e-01
3.750196e-01
3.743409e-01
3.736559e-01
3.729580e-01
3.722426e-01
3.715071e-01
3.707509e-01
3.699759e-01
3.691859e-01
3.683865e-01
3.675846e-01
3.667865e-01
3.659968e-01
3.652172e-01
3.644463e-01
3.636805e-01
3.629143e-01
3.621415e-01
3.613571e-01
3.605578e-01
3.597426e-01
3.589129e-01
3.580722e-01
3.572247e-01
3.563742e-01
3.555225e-01
3.546688e-01
3.538095e-01
3.529391e-01
3.520520e-01
3.511435e-01
3.502113e-01
3.492554e-01
3.482772e-01
3.472782e-01
3.462594e-01
3.452218e-01
3.441674e-01
3.430995e-01
3.420221e-01
3.409380e-01
3.398482e-01
3.387522e-01
3.376491e-01
3.365395e-01
3.354253e-01
3.343100e-01
3.331969e-01
3.320883e-01
3.309843e-01
3.298829e-01
3.287816e-01
3.276776e-01
3.265685e-01
3.254517e-01
3.243247e-01
3.231862e-01
3.220368e-01
3.208795e-01
3.197197e-01
3.185637e-01
3.174181e-01
3.162878e-01
3.151741e-01
3.140748e-01
3.129846e-01
3.118972e-01
3.108073e-01
3.097116e-01
3.086094e-01
3.075029e-01
3.063967e-01
3.052971e-01
3.042107e-01
3.031439e-01
3.021008e-01
3.010818e-01
3.000839e-01
2.991016e-01
2.981286e-01
2.971600e-01
2.961918e-01
2.952211e-01
2.942462e-01
2.932656e-01
2.922784e-01
2.912839e-01
2.902812e-01
2.892690e-01
2.882449e-01
2.872055e-01
2.861459e-01
2.850611e-01
2.839464e-01
2.827985e-01
2.816169e-01
2.804034e-01
2.791619e-01
2.778980e-01
2.766188e-01
2.753328e-01
2.740493e-01
2.727769e-01
2.715217e-01
2.702865e-01
2.690703e-01
2.678694e-01
2.666786e-01
2.654917e-01
2.643031e-01
2.631078e-01
2.619018e-01
2.606815e-01
2.594435e-01
2.581860e-01
2.569093e-01
2.556157e-01
2.543090e-01
2.529941e-01
2.516757e-01
2.503577e-01
2.490424e-01
2.477302e-01
2.464204e-01
2.451109e-01
2.437995e-01
2.424840e-01
2.411623e-01
2.398332e-01
2.384965e-01
2.371537e-01
2.358070e-01
2.344580e-01
2.331061e-01
2.317475e-01
2.303755e-01
2.289832e-01
2.275658e-01
2.261223e-01
2.246556e-01
2.231716e-01
2.216786e-01
2.201854e-01
2.186993e-01
2.172259e-01
2.157680e-01
2.143264e-01
2.129000e-01
2.114859e-01
2.100804e-01
2.086793e-01
2.072779e-01
2.058708e-01
2.044520e-01
2.030150e-01
2.015535e-01
2.000619e-01
1.985361e-01
1.969746e-01
1.953790e-01
1.937541e-01
1.921068e-01
1.904457e-01
1.887805e-01
1.871215e-01
1.854782e-01
1.838586e-01
1.822676e-01
1.807065e-01
1.791727e-01
1.776607e-01
1.761633e-01
1.746739e-01
1.731888e-01
1.717082e-01
1.702364e-01
1.687802e-01
1.673477e-01
1.659463e-01
1.645812e-01
1.632542e-01
1.619641e-01
1.607072e-01
1.594777e-01
1.582688e-01
1.570736e-01
1.558858e-01
1.547013e-01
1.535178e-01
1.523342e-01
1.511502e-01
1.499661e-01
1.487830e-01
1.476013e-01
1.464210e-01
1.452409e-01
1.440601e-01
1.428782e-01
1.416967e-01
1.405193e-01
1.393518e-01
1.382020e-01
1.370781e-01
1.359880e-01
1.349374e-01
1.339291e-01
1.329637e-01
1.320404e-01
1.311586e-01
1.303175e-01
1.295155e-01
1.287484e-01
1.280095e-01
1.272893e-01
1.265769e-01
1.258609e-01
1.251305e-01
1.243767e-01
1.235916e-01
1.227680e-01
1.218984e-01
1.209762e-01
1.199975e-01
1.189613e-01
1.178711e-01
1.167339e-01
1.155599e-01
1.143602e-01
1.131436e-01
1.119155e-01
1.106775e-01
1.094290e-01
1.081687e-01
1.068963e-01
1.056128e-01
1.043223e-01
1.030311e-01
1.017475e-01
1.004802e-01
9.923677e-02
9.802313e-02
9.684359e-02
9.570080e-02
9.459576e-02
9.352767e-02
9.249421e-02
9.149234e-02
9.051921e-02
8.957262e-02
8.865090e-02
8.775242e-02
8.687495e-02
8.601551e-02
8.517064e-02
8.433666e-02
8.350976e-02
8.268597e-02
8.186108e-02
8.103063e-02
8.019016e-02
7.933579e-02
7.846519e-02
7.757798e-02
7.667512e-02
7.575764e-02
7.482554e-02
7.387757e-02
7.291201e-02
7.192812e-02
7.092749e-02
6.991449e-02
6.889532e-02
6.787651e-02
6.686346e-02
6.585959e-02
6.486598e-02
6.388170e-02
6.290445e-02
6.193093e-02
6.095704e-02
5.997802e-02
5.898918e-02
5.798662e-02
5.696737e-02
5.592891e-02
5.486867e-02
5.378383e-02
5.267190e-02
5.153137e-02
5.036220e-02
4.916575e-02
4.794430e-02
4.670051e-02
4.543693e-02
4.415569e-02
4.285820e-02
4.154500e-02
4.021611e-02
3.887177e-02
3.751288e-02
3.614079e-02
3.475676e-02
3.336161e-02
3.195550e-02
3.053788e-02
2.910756e-02
2.766331e-02
2.620482e-02
2.473332e-02
2.325136e-02
2.176157e-02
2.026522e-02
1.876143e-02
1.724756e-02
1.572055e-02
1.417861e-02
1.262259e-02
1.105615e-02
9.484627e-03
7.912787e-03
6.342658e-03
4.772757e-03
3.199155e-03
1.617495e-03
2.451422e-05
-1.581827e-03
-3.203380e-03
-4.842956e-03
-6.504533e-03
-8.192413e-03
-9.910188e-03
-1.166042e-02
-1.344507e-02
-1.526608e-02
-1.712552e-02
-1.902562e-02
-2.096829e-02
-2.295409e-02
-2.498113e-02
-2.704466e-02
-2.913766e-02
-3.125196e-02
-3.337909e-02
-3.551120e-02
-3.764186e-02
-3.976651e-02
-4.188225e-02
-4.398721e-02
-4.608011e-02
-4.815978e-02
-5.022453e-02
-5.227156e-02
-5.429709e-02
-5.629730e-02
-5.826981e-02
-6.021466e-02
-6.213453e-02
-6.403396e-02
-6.591824e-02
-6.779246e-02
-6.966089e-02
-7.152660e-02
-7.339133e-02
-7.525550e-02
-7.711836e-02
-7.897807e-02
-8.083248e-02
-8.268089e-02
-8.452598e-02
-8.637464e-02
-8.823691e-02
-9.012391e-02
-9.204575e-02
-9.400997e-02
-9.602010e-02
-9.807501e-02
-1.001693e-01
-1.022946e-01
-1.044419e-01
-1.066037e-01
-1.087744e-01
-1.109509e-01
-1.131320e-01
-1.153179e-01
-1.175102e-01
-1.197105e-01
-1.219203e-01
-1.241398e-01
-1.263681e-01
-1.286031e-01
-1.308420e-01
-1.330817e-01
-1.353190e-01
-1.375508e-01
-1.397745e-01
-1.419885e-01
-1.441922e-01
-1.463865e-01
-1.485734e-01
-1.507567e-01
-1.529417e-01
-1.551348e-01
-1.573430e-01
-1.595723e-01
-1.618270e-01
-1.641090e-01
-1.664184e-01
-1.687552e-01
-1.711200e-01
-1.735144e-01
-1.759403e-01
-1.783991e-01
-1.808914e-01
-1.834167e-01
-1.859739e-01
-1.885607e-01
-1.911742e-01
-1.938111e-01
-1.964676e-01
-1.991401e-01
-2.018252e-01
-2.045200e-01
-2.072222e-01
-2.099301e-01
-2.126418e-01
-2.153546e-01
-2.180649e-01
-2.207692e-01
-2.234645e-01
-2.261487e-01
-2.288205e-01
-2.314784e-01
-2.341216e-01
-2.367494e-01
-2.393604e-01
-2.419528e-01
-2.445232e-01
-2.470671e-01
-2.495788e-01
-2.520518e-01
-2.544802e-01
-2.568600e-01
-2.591897e-01
-2.614708e-01
-2.637072e-01
-2.659047e-01
-2.680705e-01
-2.702113e-01
-2.723338e-01
-2.744434e-01
-2.765445e-01
-2.786406e-01
-2.807332e-01
-2.828219e-01
-2.849034e-01
-2.869721e-01
-2.890217e-01
-2.910465e-01
-2.930436e-01
-2.950140e-01
-2.969638e-01
-2.989022e-01
-3.008401e-01
-3.027874e-01
-3.047511e-01
-3.067350e-01
-3.087392e-01
-3.107605e-01
-3.127940e-01
-3.148341e-01
-3.168761e-01
-3.189165e-01
-3.209541e-01
-3.229884e-01
-3.250200e-01
-3.270502e-01
-3.290810e-01
-3.311151e-01
-3.331557e-01
-3.352054e-01
-3.372664e-01
-3.393396e-01
-3.414241e-01
-3.435168e-01
-3.456133e-01
-3.477088e-01
-3.497993e-01
-3.518818e-01
-3.539552e-01
-3.560201e-01
-3.580797e-01
-3.601392e-01
-3.622044e-01
-3.642805e-01
-3.663705e-01
-3.684758e-01
-3.705971e-01
-3.727347e-01
-3.748878e-01
-3.770535e-01
-3.792270e-01
-3.814019e-01
-3.835726e-01
-3.857363e-01
-3.878953e-01
-3.900575e-01
-3.922352e-01
-3.944431e-01
-3.966961e-01
-3.990066e-01
-4.013835e-01
-4.038309e-01
-4.063492e-01
-4.089353e-01
-4.115834e-01
-4.142852e-01
-4.170312e-01
-4.198108e-01
-4.226138e-01
-4.254306e-01
-4.282543e-01
-4.310815e-01
-4.339129e-01
-4.367529e-01
-4.396078e-01
-4.424840e-01
-4.453874e-01
-4.483226e-01
-4.512929e-01
-4.542992e-01
-4.573389e-01
-4.604050e-01
-4.634886e-01
-4.665804e-01
-4.696732e-01
-4.727628e-01
-4.758487e-01
-4.789340e-01
-4.820250e-01
-4.851314e-01
-4.882644e-01
-4.914360e-01
-4.946570e-01
-4.979349e-01
-5.012724e-01
-5.046665e-01
-5.081084e-01
-5.115852e-01
-5.150818e-01
-5.185841e-01
-5.220816e-01
-5.255697e-01
-5.290500e-01
-5.325294e-01
-5.360188e-01
-5.395312e-01
-5.430792e-01
-5.466731e-01
-5.503186e-01
-5.540165e-01
-5.577626e-01
-5.615483e-01
-5.653621e-01
-5.691914e-01
-5.730244e-01
-5.768515e-01
-5.806661e-01
-5.844652e-01
-5.882496e-01
-5.920229e-01
-5.957918e-01
-5.995638e-01
-6.033444e-01
-6.071345e-01
-6.109289e-01
-6.147182e-01
-6.184920e-01
-6.222425e-01
-6.259670e-01
-6.296690e-01
-6.333569e-01
-6.370417e-01
-6.407330e-01
-6.444375e-01
-6.481581e-01
-6.518952e-01
-6.556483e-01
-6.594171e-01
-6.632012e-01
-6.669996e-01
-6.708090e-01
-6.746237e-01
-6.784350e-01
-6.822332e-01
-6.860095e-01
-6.897581e-01
-6.934766e-01
-6.971656e-01
-7.008273e-01
-7.044645e-01
-7.080808e-01
-7.116806e-01
-7.152695e-01
-7.188543e-01
-7.224429e-01
-7.260430e-01
-7.296604e-01
-7.332975e-01
-7.369521e-01
-7.406187e-01
-7.442908e-01
-7.479636e-01
-7.516361e-01
-7.553116e-01
-7.589965e-01
-7.626985e-01
-7.664246e-01
-7.701783e-01
-7.739584e-01
-7.777588e-01
-7.815687e-01
-7.853734e-01
-7.891556e-01
-7.928976e-01
-7.965843e-01
-8.002048e-01
-8.037541e-01
-8.072328e-01
-8.106461e-01
-8.140023e-01
-8.173111e-01
-8.205822e-01
-8.238242e-01
-8.270442e-01
-8.302479e-01
-8.334409e-01
-8.366290e-01
-8.398177e-01
-8.430111e-01
-8.462118e-01
-8.494209e-01
-8.526390e-01
-8.558672e-01
-8.591081e-01
-8.623662e-01
-8.656488e-01
-8.689656e-01
-8.723277e-01
-8.757440e-01
-8.792191e-01
-8.827502e-01
-8.863273e-01
-8.899344e-01
-8.935531e-01
-8.971669e-01
-9.007636e-01
-9.043364e-01
-9.078820e-01
-9.113988e-01
-9.148846e-01
-9.183373e-01
-9.217556e-01
-9.251392e-01
-9.284893e-01
-9.318083e-01
-9.350989e-01
-9.383641e-01
-9.416070e-01
-9.448303e-01
-9.480370e-01
-9.512296e-01
-9.544102e-01
-9.575794e-01
-9.607373e-01
-9.638832e-01
-9.670172e-01
-9.701416e-01
-9.732602e-01
-9.763776e-01
-9.794982e-01
-9.826247e-01
-9.857586e-01
-9.889000e-01
-9.920476e-01
-9.951978e-01
-9.983449e-01
-1.001481e+00
-1.004596e+00
-1.007682e+00
-1.010731e+00
-1.013738e+00
-1.016700e+00
-1.019615e+00
-1.022480e+00
-1.025293e+00
-1.028055e+00
-1.030767e+00
-1.033429e+00
-1.036041e+00
-1.038601e+00
-1.041100e+00
-1.043529e+00
-1.045882e+00
-1.048155e+00
-1.050354e+00
-1.052490e+00
-1.054578e+00
-1.056634e+00
-1.058669e+00
-1.060692e+00
-1.062711e+00
-1.064732e+00
-1.066763e+00
-1.068810e+00
-1.070877e+00
-1.072965e+00
-1.075073e+00
-1.077193e+00
-1.079315e+00
-1.081425e+00
-1.083507e+00
-1.085548e+00
-1.087537e+00
-1.089469e+00
-1.091344e+00
-1.093165e+00
-1.094940e+00
-1.096676e+00
-1.098382e+00
-1.100066e+00
-1.101734e+00
-1.103391e+00
-1.105035e+00
-1.106664e+00
-1.108266e+00
-1.109833e+00
-1.111353e+00
-1.112819e+00
-1.114226e+00
-1.115574e+00
-1.116867e+00
-1.118108e+00
-1.119307e+00
-1.120471e+00
-1.121607e+00
-1.122718e+00
-1.123803e+00
-1.124855e+00
-1.125865e+00
-1.126824e+00
-1.127726e+00
-1.128570e+00
-1.129363e+00
-1.130115e+00
-1.130835e+00
-1.131533e+00
-1.132214e+00
-1.132880e+00
-1.133530e+00
-1.134162e+00
-1.134770e+00
-1.135349e+00
-1.135893e+00
-1.136401e+00
-1.136871e+00
-1.137308e+00
-1.137719e+00
-1.138112e+00
-1.138494e+00
-1.138875e+00
-1.139261e+00
-1.139656e+00
-1.140065e+00
-1.140488e+00
-1.140926e+00
-1.141376e+00
-1.141833e+00
-1.142294e+00
-1.142752e+00
-1.143207e+00
-1.143658e+00
-1.144107e+00
-1.144557e+00
-1.145013e+00
-1.145481e+00
-1.145965e+00
-1.146471e+00
-1.147002e+00
-1.147560e+00
-1.148141e+00
-1.148740e+00
-1.149350e+00
-1.149965e+00
-1.150577e+00
-1.151180e+00
-1.151769e+00
-1.152342e+00
-1.152897e+00
-1.153436e+00
-1.153962e+00
-1.154478e+00
-1.154991e+00
-1.155503e+00
-1.156018e+00
-1.156536e+00
-1.157058e+00
-1.157585e+00
-1.158121e+00
-1.158673e+00
-1.159249e+00
-1.159854e+00
-1.160494e+00
-1.161169e+00
-1.161877e+00
-1.162612e+00
-1.163368e+00
-1.164141e+00
-1.164925e+00
-1.165720e+00
-1.166525e+00
-1.167336e+00
-1.168151e+00
-1.168964e+00
-1.169766e+00
-1.170547e+00
-1.171297e+00
-1.172009e+00
-1.172678e+00
-1.173304e+00
-1.173884e+00
-1.174422e+00
-1.174919e+00
-1.175380e+00
-1.175810e+00
-1.176215e+00
-1.176600e+00
-1.176968e+00
-1.177318e+00
-1.177646e+00
-1.177946e+00
-1.178210e+00
-1.178434e+00
-1.178608e+00
-1.178725e+00
-1.178775e+00
-1.178751e+00
-1.178647e+00
-1.178461e+00
-1.178194e+00
-1.177851e+00
-1.177438e+00
-1.176959e+00
-1.176415e+00
-1.175808e+00
-1.175136e+00
-1.174399e+00
-1.173598e+00
-1.172731e+00
-1.171797e+00
-1.170793e+00
-1.169713e+00
-1.168557e+00
-1.167322e+00
-1.166007e+00
-1.164613e+00
-1.163137e+00
-1.161580e+00
-1.159940e+00
-1.158220e+00
-1.156422e+00
-1.154555e+00
-1.152628e+00
-1.150652e+00
-1.148636e+00
-1.146586e+00
-1.144508e+00
-1.142400e+00
-1.140259e+00
-1.138075e+00
-1.135838e+00
-1.133534e+00
-1.131149e+00
-1.128675e+00
-1.126106e+00
-1.123441e+00
-1.120683e+00
-1.117840e+00
-1.114921e+00
-1.111934e+00
-1.108887e+00
-1.105784e+00
-1.102625e+00
-1.099411e+00
-1.096140e+00
-1.092812e+00
-1.089427e+00
-1.085989e+00
-1.082504e+00
-1.078976e+00
-1.075408e+00
-1.071800e+00
-1.068150e+00
-1.064454e+00
-1.060711e+00
-1.056917e+00
-1.053069e+00
-1.049167e+00
-1.045208e+00
-1.041193e+00
-1.037121e+00
-1.032996e+00
-1.028824e+00
-1.024614e+00
-1.020380e+00
-1.016140e+00
-1.011914e+00
-1.007720e+00
-1.003573e+00
-9.994853e-01
-9.954583e-01
-9.914899e-01
-9.875752e-01
-9.837104e-01
-9.798962e-01
-9.761389e-01
-9.724504e-01
-9.688468e-01
-9.653450e-01
-9.619592e-01
-9.586979e-01
-9.555631e-01
-9.525505e-01
-9.496504e-01
-9.468488e-01
-9.441287e-01
-9.414721e-01
-9.388620e-01
-9.362830e-01
-9.337212e-01
-9.311637e-01
-9.285993e-01
-9.260178e-01
-9.234115e-01
-9.207744e-01
-9.181033e-01
-9.153977e-01
-9.126603e-01
-9.098963e-01
-9.071120e-01
-9.043130e-01
-9.015022e-01
-8.986790e-01
-8.958395e-01
-8.929768e-01
-8.900821e-01
-8.871449e-01
-8.841549e-01
-8.811036e-01
-8.779865e-01
-8.748040e-01
-8.715605e-01
-8.682624e-01
-8.649157e-01
-8.615238e-01
-8.580860e-01
-8.545973e-01
-8.510490e-01
-8.474306e-01
-8.437310e-01
-8.399414e-01
-8.360569e-01
-8.320784e-01
-8.280129e-01
-8.238740e-01
-8.196792e-01
-8.154481e-01
-8.111997e-01
-8.069498e-01
-8.027098e-01
-7.984850e-01
-7.942742e-01
-7.900698e-01
-7.858591e-01
-7.816267e-01
-7.773578e-01
-7.730406e-01
-7.686681e-01
-7.642375e-01
-7.597499e-01
-7.552086e-01
-7.506183e-01
-7.459848e-01
-7.413162e-01
-7.366239e-01
-7.319221e-01
-7.272271e-01
-7.225543e-01
-7.179159e-01
-7.133204e-01
-7.087729e-01
-7.042774e-01
-6.998373e-01
-6.954568e-01
-6.911398e-01
-6.868889e-01
-6.827041e-01
-6.785826e-01
-6.745201e-01
-6.705123e-01
-6.665571e-01
-6.626561e-01
-6.588157e-01
-6.550462e-01
-6.513606e-01
-6.477734e-01
-6.442984e-01
-6.409475e-01
-6.377291e-01
-6.346478e-01
-6.317054e-01
-6.289022e-01
-6.262379e-01
-6.237118e-01
-6.213226e-01
-6.190668e-01
-6.169385e-01
-6.149297e-01
-6.130313e-01
-6.112347e-01
-6.095330e-01
-6.079221e-01
-6.064006e-01
-6.049681e-01
-6.036235e-01
-6.023634e-01
-6.011821e-01
-6.000723e-01
-5.990261e-01
-5.980356e-01
-5.970937e-01
-5.961938e-01
-5.953308e-01
-5.945018e-01
-5.937068e-01
-5.929498e-01
-5.922376e-01
-5.915790e-01
-5.909814e-01
-5.904485e-01
-5.899795e-01
-5.895700e-01
-5.892137e-01
-5.889057e-01
-5.886431e-01
-5.884253e-01
-5.882528e-01
-5.881266e-01
-5.880468e-01
-5.880132e-01
-5.880254e-01
-5.880836e-01
-5.881875e-01
-5.883353e-01
-5.885215e-01
-5.887364e-01
-5.889671e-01
-5.891978e-01
-5.894118e-01
-5.895926e-01
-5.897256e-01
-5.897985e-01
-5.898021e-01
-5.897302e-01
-5.895799e-01
-5.893507e-01
-5.890444e-01
-5.886648e-01
-5.882171e-01
-5.877079e-01
-5.871454e-01
-5.865388e-01
-5.858981e-01
-5.852331e-01
-5.845530e-01
-5.838647e-01
-5.831720e-01
-5.824751e-01
-5.817718e-01
-5.810590e-01
-5.803341e-01
-5.795962e-01
-5.788474e-01
-5.780918e-01
-5.773347e-01
-5.765797e-01
-5.758281e-01
-5.750783e-01
-5.743267e-01
-5.735706e-01
-5.728102e-01
-5.720502e-01
-5.712993e-01
-5.705702e-01
-5.698780e-01
-5.692383e-01
-5.686632e-01
-5.681591e-01
-5.677251e-01
-5.673535e-01
-5.670308e-01
-5.667399e-01
-5.664612e-01
-5.661750e-01
-5.658625e-01
-5.655070e-01
-5.650945e-01
-5.646151e-01
-5.640630e-01
-5.634369e-01
-5.627395e-01
-5.619766e-01
-5.611554e-01
-5.602831e-01
-5.593653e-01
-5.584065e-01
-5.574105e-01
-5.563828e-01
-5.553311e-01
-5.542673e-01
-5.532066e-01
-5.521660e-01
-5.511611e-01
-5.502032e-01
-5.492962e-01
-5.484352e-01
-5.476071e-01
-5.467935e-01
-5.459735e-01
-5.451271e-01
-5.442377e-01
-5.432931e-01
-5.422859e-01
-5.412142e-01
-5.400813e-01
-5.388970e-01
-5.376771e-01
-5.364437e-01
-5.352228e-01
-5.340407e-01
-5.329202e-01
-5.318769e-01
-5.309185e-01
-5.300452e-01
-5.292531e-01
-5.285370e-01
-5.278936e-01
-5.273224e-01
-5.268255e-01
-5.264069e-01
-5.260712e-01
-5.258240e-01
-5.256722e-01
-5.256245e-01
-5.256912e-01
-5.258837e-01
-5.262137e-01
-5.266916e-01
-5.273242e-01
-5.281140e-01
-5.290572e-01
-5.301449e-01
-5.313648e-01
-5.327043e-01
-5.341523e-01
-5.357003e-01
-5.373426e-01
-5.390750e-01
-5.408923e-01
-5.427872e-01
-5.447494e-01
-5.467661e-01
-5.488226e-01
-5.509029e-01
-5.529902e-01
-5.550688e-01
-5.571249e-01
-5.591475e-01
-5.611284e-01
-5.630616e-01
-5.649423e-01
-5.667657e-01
-5.685268e-01
-5.702208e-01
-5.718425e-01
-5.733870e-01
-5.748483e-01
-5.762197e-01
-5.774935e-01
-5.786622e-01
-5.797200e-01
-5.806650e-01
-5.814990e-01
-5.822281e-01
-5.828619e-01
-5.834116e-01
-5.838887e-01
-5.843043e-01
-5.846685e-01
-5.849920e-01
-5.852872e-01
-5.855686e-01
-5.858511e-01
-5.861475e-01
-5.864660e-01
-5.868088e-01
-5.871724e-01
-5.875487e-01
-5.879263e-01
-5.882912e-01
-5.886267e-01
-5.889135e-01
