EVENT_NAME: L_AQUILA
EVENT_ID: IT-2009-0009
EVENT_DATE_YYYYMMDD: 20090406
EVENT_TIME_HHMMSS: 013240
EVENT_LATITUDE_DEGREE: 42.3420
EVENT_LONGITUDE_DEGREE: 13.3800
EVENT_DEPTH_KM: 8.3
HYPOCENTER_REFERENCE: INGV-CNT_Seismic_Bulletin
MAGNITUDE_W: 6.1
MAGNITUDE_W_REFERENCE: INGV-CNT_Seismic_Bulletin
MAGNITUDE_L: 
MAGNITUDE_L_REFERENCE: 
FOCAL_MECHANISM: Normal faulting
NETWORK: IT
STATION_CODE: CSO1
STATION_NAME: 
STATION_LATITUDE_DEGREE: 42.100933
STATION_LONGITUDE_DEGREE: 13.088044
STATION_ELEVATION_M: 700
LOCATION: 
SENSOR_DEPTH_M: 0.0
VS30_M/S: 
SITE_CLASSIFICATION_EC8: B (inferred from geology)
MORPHOLOGIC_CLASSIFICATION: 
EPICENTRAL_DISTANCE_KM: 36.0
EARTHQUAKE_BACKAZIMUTH_DEGREE: 222.1
DATE_TIME_FIRST_SAMPLE_YYYYMMDD_HHMMSS: 
DATE_TIME_FIRST_SAMPLE_PRECISION: 
SAMPLING_INTERVAL_S: 
NDATA: 105
DURATION_S: 
STREAM: HNN
UNITS: cm/s^2
INSTRUMENT: sensor = FBA-3 [Kinemetrics] | digitizer = Etna [Kinemetrics]
INSTRUMENT_ANALOG/DIGITAL: D
INSTRUMENTAL_FREQUENCY_HZ: 204.000
INSTRUMENTAL_DAMPING: 0.700000
FULL_SCALE_G: 1.0
N_BIT_DIGITAL_CONVERTER: 18
PGA_CM/S^2: 17.498116
TIME_PGA_S: 
BASELINE_CORRECTION: BASELINE REMOVED
FILTER_TYPE: BUTTERWORTH
FILTER_ORDER: 2
LOW_CUT_FREQUENCY_HZ: 0.030
HIGH_CUT_FREQUENCY_HZ: 40.000
LATE/NORMAL_TRIGGERED: NT
DATABASE_VERSION: 0.5
HEADER_FORMAT: DYNA 1.2
DATA_TYPE: ACCELERATION RESPONSE SPECTRUM
PROCESSING: manual (Paolucci et al., 2011)
DATA_TIMESTAMP_YYYYMMDD_HHMMSS: 20211011_160101.735
DATA_LICENSE: CC-BY3_0-IT (http://creativecommons.org/licenses/by/3.0/deed.en)
DATA_CITATION: Luzi L, Pacor F, Puglia R (2019). Italian Accelerometric Archive v 3.0 - Istituto Nazionale di Geofisica e Vulcanologia, Dipartimento della Protezione Civile Nazionale. doi: 10.13127/itaca.3.1
DATA_CREATOR: ITACA working group
ORIGINAL_DATA_MEDIATOR_CITATION: data obtained within the DPC-INGV data exchange agreements
ORIGINAL_DATA_MEDIATOR: Archive of Italian Department of Civil Protection
ORIGINAL_DATA_CREATOR_CITATION: Presidency Of Counsil Of Ministers-Civil Protection Department. (1972). Italian Strong Motion Network. Presidency of Counsil of Ministers - Civil Protection Department. https://doi.org/10.7914/SN/IT http://www.fdsn.org/networks/detail/IT/
ORIGINAL_DATA_CREATOR: network: IT (Italian Strong Motion Network (RAN)); owner: Presidency of Counsil of Ministers - Civil Protection Department (PCM - DPC)
USER1: 
USER2: 
USER3: 
USER4: 
USER5: 
    0.010000    17.514481
    0.020000    17.618855
    0.022000    17.643955
    0.025000    17.669834
    0.029000    17.776434
    0.030000    17.807652
    0.032000    17.864462
    0.035001    17.983025
    0.036000    18.008364
    0.040000    17.877829
    0.041999    17.950474
    0.044001    17.941622
    0.045000    17.850872
    0.046000    17.841547
    0.048001    18.045879
    0.050000    18.365376
    0.054999    18.992926
    0.059999    20.187349
    0.064998    19.694658
    0.067002    19.655233
    0.069999    19.931419
    0.075002    20.285803
    0.080000    22.585062
    0.084998    24.157276
    0.090001    28.689791
    0.095003    31.347103
    0.100000    30.040693
    0.109999    27.350731
    0.120005    26.477964
    0.130005    28.579918
    0.132996    29.834803
    0.139997    32.626259
    0.149993    34.816299
    0.160000    40.873547
    0.170010    38.694378
    0.179986    37.924469
    0.190006    35.392437
    0.200000    38.729759
    0.220022    35.599812
    0.239981    42.965328
    0.250000    40.634689
    0.260010    44.694012
    0.280034    33.172993
    0.290023    26.762390
    0.300030    29.001589
    0.320000    32.081047
    0.340020    32.867626
    0.350017    36.485489
    0.359971    42.339489
    0.379939    43.670185
    0.400000    40.947369
    0.419992    35.661015
    0.439947    36.956776
    0.450045    39.542358
    0.459982    42.858234
    0.480077    39.769863
    0.500000    41.355579
    0.550055    37.135578
    0.599880    31.021456
    0.650195    32.089226
    0.667111    31.158346
    0.699790    28.308569
    0.750188    26.927174
    0.800000    26.003595
    0.850340    22.638758
    0.900090    23.069139
    0.949668    23.591742
    1.000000    25.208782
    1.100110    25.254406
    1.200480    22.523333
    1.300390    21.331499
    1.400560    17.814831
    1.499250    15.020854
    1.600000    11.932445
    1.700680    11.301557
    1.798561     9.207212
    1.901141     9.820766
    2.000000     9.777538
    2.197802     5.921661
    2.398082     5.153296
    2.500000     4.787948
    2.597403     4.590596
    2.801121     4.643591
    3.003003     3.623026
    3.205128     3.360671
    3.401361     3.315031
    3.496503     3.183466
    3.597122     2.964676
    3.802281     2.658817
    4.000000     2.709823
    4.201681     2.531519
    4.405286     2.539467
    4.608295     2.284593
    4.807692     1.894217
    5.000000     1.504418
    5.494505     1.362643
    5.988024     1.248061
    6.493506     1.138041
    6.993007     1.023397
    7.518797     0.940340
    8.000000     0.870411
    8.474576     0.936740
    9.009009     0.897566
    9.523809     0.890321
   10.000000     0.868195
