EVENT_NAME: L_AQUILA
EVENT_ID: IT-2009-0009
EVENT_DATE_YYYYMMDD: 20090406
EVENT_TIME_HHMMSS: 013240
EVENT_LATITUDE_DEGREE: 42.3420
EVENT_LONGITUDE_DEGREE: 13.3800
EVENT_DEPTH_KM: 8.3
HYPOCENTER_REFERENCE: INGV-CNT_Seismic_Bulletin
MAGNITUDE_W: 6.1
MAGNITUDE_W_REFERENCE: INGV-CNT_Seismic_Bulletin
MAGNITUDE_L: 
MAGNITUDE_L_REFERENCE: 
FOCAL_MECHANISM: Normal faulting
NETWORK: IT
STATION_CODE: CSO1
STATION_NAME: 
STATION_LATITUDE_DEGREE: 42.100933
STATION_LONGITUDE_DEGREE: 13.088044
STATION_ELEVATION_M: 700
LOCATION: 
SENSOR_DEPTH_M: 0.0
VS30_M/S: 
SITE_CLASSIFICATION_EC8: B (inferred from geology)
MORPHOLOGIC_CLASSIFICATION: 
EPICENTRAL_DISTANCE_KM: 36.0
EARTHQUAKE_BACKAZIMUTH_DEGREE: 222.1
DATE_TIME_FIRST_SAMPLE_YYYYMMDD_HHMMSS: 
DATE_TIME_FIRST_SAMPLE_PRECISION: 
SAMPLING_INTERVAL_S: 
NDATA: 105
DURATION_S: 
STREAM: HNZ
UNITS: cm/s^2
INSTRUMENT: sensor = FBA-3 [Kinemetrics] | digitizer = Etna [Kinemetrics]
INSTRUMENT_ANALOG/DIGITAL: D
INSTRUMENTAL_FREQUENCY_HZ: 202.000
INSTRUMENTAL_DAMPING: 0.700000
FULL_SCALE_G: 1.0
N_BIT_DIGITAL_CONVERTER: 18
PGA_CM/S^2: -16.048772
TIME_PGA_S: 
BASELINE_CORRECTION: BASELINE REMOVED
FILTER_TYPE: BUTTERWORTH
FILTER_ORDER: 2
LOW_CUT_FREQUENCY_HZ: 0.030
HIGH_CUT_FREQUENCY_HZ: 40.000
LATE/NORMAL_TRIGGERED: NT
DATABASE_VERSION: 0.5
HEADER_FORMAT: DYNA 1.2
DATA_TYPE: ACCELERATION RESPONSE SPECTRUM
PROCESSING: manual (Paolucci et al., 2011)
DATA_TIMESTAMP_YYYYMMDD_HHMMSS: 20211011_160102.025
DATA_LICENSE: CC-BY3_0-IT (http://creativecommons.org/licenses/by/3.0/deed.en)
DATA_CITATION: Luzi L, Pacor F, Puglia R (2019). Italian Accelerometric Archive v 3.0 - Istituto Nazionale di Geofisica e Vulcanologia, Dipartimento della Protezione Civile Nazionale. doi: 10.13127/itaca.3.1
DATA_CREATOR: ITACA working group
ORIGINAL_DATA_MEDIATOR_CITATION: data obtained within the DPC-INGV data exchange agreements
ORIGINAL_DATA_MEDIATOR: Archive of Italian Department of Civil Protection
ORIGINAL_DATA_CREATOR_CITATION: Presidency Of Counsil Of Ministers-Civil Protection Department. (1972). Italian Strong Motion Network. Presidency of Counsil of Ministers - Civil Protection Department. https://doi.org/10.7914/SN/IT http://www.fdsn.org/networks/detail/IT/
ORIGINAL_DATA_CREATOR: network: IT (Italian Strong Motion Network (RAN)); owner: Presidency of Counsil of Ministers - Civil Protection Department (PCM - DPC)
USER1: 
USER2: 
USER3: 
USER4: 
USER5: 
    0.010000    16.053583
    0.020000    16.115282
    0.022000    16.132607
    0.025000    16.161909
    0.029000    16.227369
    0.030000    16.240011
    0.032000    16.243479
    0.035001    16.262192
    0.036000    16.296803
    0.040000    16.481230
    0.041999    16.605453
    0.044001    16.644693
    0.045000    16.652466
    0.046000    16.715950
    0.048001    16.903404
    0.050000    16.962442
    0.054999    17.373411
    0.059999    17.767824
    0.064998    17.958418
    0.067002    18.357876
    0.069999    18.664663
    0.075002    20.025042
    0.080000    23.602043
    0.084998    27.180822
    0.090001    25.610409
    0.095003    26.645508
    0.100000    24.740141
    0.109999    26.038538
    0.120005    25.806709
    0.130005    29.265438
    0.132996    28.971849
    0.139997    27.214830
    0.149993    29.984287
    0.160000    27.573366
    0.170010    29.430960
    0.179986    32.910149
    0.190006    35.622288
    0.200000    32.903095
    0.220022    26.442015
    0.239981    33.300472
    0.250000    40.408005
    0.260010    42.579575
    0.280034    48.539249
    0.290023    46.179726
    0.300030    47.188461
    0.320000    46.457474
    0.340020    42.364292
    0.350017    37.210560
    0.359971    35.071014
    0.379939    32.562340
    0.400000    33.855835
    0.419992    33.558720
    0.439947    34.625816
    0.450045    35.980206
    0.459982    36.588577
    0.480077    34.546654
    0.500000    41.382107
    0.550055    44.526558
    0.599880    32.849602
    0.650195    30.926811
    0.667111    28.924978
    0.699790    34.685410
    0.750188    31.830576
    0.800000    25.049534
    0.850340    25.408405
    0.900090    21.884186
    0.949668    20.139828
    1.000000    17.928299
    1.100110    11.490977
    1.200480    10.868074
    1.300390    10.818676
    1.400560    11.337961
    1.499250    10.620531
    1.600000     8.831737
    1.700680     7.284140
    1.798561     6.530336
    1.901141     5.645082
    2.000000     5.215378
    2.197802     4.061575
    2.398082     4.700818
    2.500000     4.331653
    2.597403     4.446041
    2.801121     4.947415
    3.003003     5.920681
    3.205128     7.585757
    3.401361     7.615694
    3.496503     6.988112
    3.597122     6.303656
    3.802281     5.072389
    4.000000     4.260741
    4.201681     3.777029
    4.405286     3.474264
    4.608295     3.372553
    4.807692     3.381595
    5.000000     3.307700
    5.494505     2.789226
    5.988024     2.024267
    6.493506     1.564370
    6.993007     1.257598
    7.518797     0.970648
    8.000000     0.740185
    8.474576     0.588735
    9.009009     0.506456
    9.523809     0.470571
   10.000000     0.459331
