EVENT_NAME: L_AQUILA
EVENT_ID: IT-2009-0009
EVENT_DATE_YYYYMMDD: 20090406
EVENT_TIME_HHMMSS: 013240
EVENT_LATITUDE_DEGREE: 42.3420
EVENT_LONGITUDE_DEGREE: 13.3800
EVENT_DEPTH_KM: 8.3
HYPOCENTER_REFERENCE: INGV-CNT_Seismic_Bulletin
MAGNITUDE_W: 6.1
MAGNITUDE_W_REFERENCE: INGV-CNT_Seismic_Bulletin
MAGNITUDE_L: 
MAGNITUDE_L_REFERENCE: 
FOCAL_MECHANISM: Normal faulting
NETWORK: IT
STATION_CODE: CSO1
STATION_NAME: 
STATION_LATITUDE_DEGREE: 42.100933
STATION_LONGITUDE_DEGREE: 13.088044
STATION_ELEVATION_M: 700
LOCATION: 
SENSOR_DEPTH_M: 0.0
VS30_M/S: 
SITE_CLASSIFICATION_EC8: B (inferred from geology)
MORPHOLOGIC_CLASSIFICATION: 
EPICENTRAL_DISTANCE_KM: 36.0
EARTHQUAKE_BACKAZIMUTH_DEGREE: 222.1
DATE_TIME_FIRST_SAMPLE_YYYYMMDD_HHMMSS: 20090406_013212.500
DATE_TIME_FIRST_SAMPLE_PRECISION: seconds
SAMPLING_INTERVAL_S: 0.005000
NDATA: 19960
DURATION_S: 99.800
STREAM: HNZ
UNITS: cm/s
INSTRUMENT: sensor = FBA-3 [Kinemetrics] | digitizer = Etna [Kinemetrics]
INSTRUMENT_ANALOG/DIGITAL: D
INSTRUMENTAL_FREQUENCY_HZ: 202.000
INSTRUMENTAL_DAMPING: 0.700000
FULL_SCALE_G: 1.0
N_BIT_DIGITAL_CONVERTER: 18
PGV_CM/S: 1.727574
TIME_PGV_S: 44.995000
BASELINE_CORRECTION: BASELINE REMOVED
FILTER_TYPE: BUTTERWORTH
FILTER_ORDER: 2
LOW_CUT_FREQUENCY_HZ: 0.030
HIGH_CUT_FREQUENCY_HZ: 40.000
LATE/NORMAL_TRIGGERED: NT
DATABASE_VERSION: 0.5
HEADER_FORMAT: DYNA 1.2
DATA_TYPE: VELOCITY
PROCESSING: manual (Paolucci et al., 2011)
DATA_TIMESTAMP_YYYYMMDD_HHMMSS: 20211011_160101.282
DATA_LICENSE: CC-BY3_0-IT (http://creativecommons.org/licenses/by/3.0/deed.en)
DATA_CITATION: Luzi L, Pacor F, Puglia R (2019). Italian Accelerometric Archive v 3.0 - Istituto Nazionale di Geofisica e Vulcanologia, Dipartimento della Protezione Civile Nazionale. doi: 10.13127/itaca.3.1
DATA_CREATOR: ITACA working group
ORIGINAL_DATA_MEDIATOR_CITATION: data obtained within the DPC-INGV data exchange agreements
ORIGINAL_DATA_MEDIATOR: Archive of Italian Department of Civil Protection
ORIGINAL_DATA_CREATOR_CITATION: Presidency Of Counsil Of Ministers-Civil Protection Department. (1972). Italian Strong Motion Network. Presidency of Counsil of Ministers - Civil Protection Department. https://doi.org/10.7914/SN/IT http://www.fdsn.org/networks/detail/IT/
ORIGINAL_DATA_CREATOR: network: IT (Italian Strong Motion Network (RAN)); owner: Presidency of Counsil of Ministers - Civil Protection Department (PCM - DPC)
USER1: 
USER2: 
USER3: 
USER4: 
USER5: 
[...]
0.200077
0.199154
0.197390
0.195455
0.193884
0.192896
0.192460
0.192479
0.192981
0.194257
0.196821
0.201152
0.207391
0.215237
0.224085
0.233231
0.242028
0.249984
0.256787
0.262202
0.265898
0.267377
0.266116
0.261823
0.254657
0.245249
0.234499
0.223266
0.212169
0.201620
0.191921
0.183285
0.175836
0.169687
0.165020
0.162039
0.160782
0.160933
0.161797
0.162396
0.161650
0.158652
0.152933
0.144590
0.134198
0.122622
0.110824
0.099659
0.089720
0.081323
0.074610
0.069653
0.066465
0.064922
0.064721
0.065456
0.066735
0.068238
0.069677
0.070798
0.071504
0.072009
0.072855
0.074712
0.078029
0.082734
0.088220
0.093657
0.098453
0.102565
0.106472
0.110838
0.116100
0.122229
0.128827
0.135472
0.142056
0.148887
0.156529
0.165544
0.176227
0.188431
0.201517
0.214454
0.226047
0.235250
0.241431
0.244454
0.244578
0.242374
0.238708
0.234643
0.231128
0.228694
0.227385
0.227001
0.227409
0.228660
0.230893
0.234253
0.238923
0.245146
0.252986
0.261895
0.270456
0.276726
0.279062
0.276885
0.270910
0.262770
0.254291
0.246895
0.241427
0.238338
0.237907
0.240251
0.245121
0.251715
0.258746
0.264847
0.269134
0.271615
0.273231
0.275528
0.280066
0.287775
0.298539
0.311236
0.324249
0.336163
0.346245
0.354534
0.361587
0.368036
0.374157
0.379622
0.383589
0.385154
0.383918
0.380294
0.375326
0.370168
0.365612
0.361970
0.359264
0.357395
0.356098
0.354749
0.352333
0.347687
0.339939
0.328986
0.315714
0.301802
0.289166
0.279356
0.273203
0.270831
0.271924
0.276054
0.282889
0.292235
0.303854
0.317148
0.330978
0.343801
0.354062
0.360620
0.363068
0.361848
0.358071
0.353055
0.347854
0.343019
0.338650
0.334562
0.330345
0.325341
0.318694
0.309622
0.297869
0.284064
0.269614
0.256048
0.244307
0.234573
0.226690
0.220614
0.216416
0.213932
0.212492
0.210987
0.208159
0.202941
0.194734
0.183571
0.170158
0.155791
0.142133
0.130832
0.123076
0.119268
0.118944
0.121001
0.124238
0.127924
0.132011
0.136844
0.142618
0.148983
0.155046
0.159624
0.161542
0.159923
0.154435
0.145440
0.133933
0.121265
0.108739
0.097250
0.087179
0.078552
0.071194
0.064686
0.058301
0.051256
0.043175
0.034418
0.026002
0.019205
0.015062
0.013918
0.015199
0.017641
0.019895
0.021092
0.021004
0.019787
0.017547
0.014120
0.009251
0.002950
-0.004345
-0.011880
-0.018850
-0.024519
-0.028183
-0.029147
-0.026856
-0.021116
-0.012243
-0.001111
0.010938
0.022259
0.031164
0.036293
0.037052
0.033890
0.028104
0.021174
0.014066
0.006991
-0.000277
-0.007852
-0.015347
-0.021857
-0.026278
-0.027806
-0.026355
-0.022620
-0.017705
-0.012498
-0.007208
-0.001308
0.005999
0.015041
0.025184
0.035033
0.043161
0.048807
0.052072
0.053556
0.053799
0.053014
0.051249
0.048724
0.045965
0.043576
0.041828
0.040416
0.038640
0.035885
0.032108
0.027992
0.024695
0.023332
0.024495
0.028089
0.033522
0.039990
0.046574
0.052148
0.055266
0.054311
0.047981
0.035962
0.019382
0.000630
-0.017540
-0.033122
-0.045485
-0.055215
-0.063391
-0.070787
-0.077382
-0.082466
-0.085299
-0.085887
-0.085279
-0.085117
-0.086762
-0.090606
-0.095997
-0.101702
-0.106512
-0.109626
-0.110676
-0.109619
-0.106632
-0.102036
-0.096220
-0.089581
-0.082512
-0.075438
-0.068914
-0.063704
-0.060772
-0.061075
-0.065198
-0.073104
-0.084194
-0.097533
-0.112041
-0.126620
-0.140225
-0.151842
-0.160408
-0.164883
-0.164616
-0.159770
-0.151393
-0.140997
-0.129931
-0.119023
-0.108683
-0.099278
-0.091399
-0.085792
-0.083039
-0.083308
-0.086301
-0.091415
-0.098164
-0.106754
-0.118296
-0.134321
-0.155805
-0.182336
-0.212084
-0.242631
-0.272068
-0.299674
-0.325880
-0.351630
-0.377557
-0.403560
-0.428921
-0.452739
-0.474389
-0.493705
-0.510758
-0.525486
-0.537490
-0.546074
-0.550586
-0.550971
-0.548117
-0.543618
-0.539106
-0.535594
-0.533226
-0.531547
-0.529987
-0.528164
-0.525923
-0.523286
-0.520444
-0.517785
-0.515763
-0.514488
-0.513316
-0.510870
-0.505608
-0.496624
-0.484209
-0.469814
-0.455367
-0.442362
-0.431215
-0.421042
-0.409862
-0.395281
-0.375435
-0.349717
-0.318974
-0.285219
-0.251022
-0.218809
-0.190424
-0.167002
-0.148989
-0.136144
-0.127515
-0.121588
-0.116768
-0.112001
-0.107115
-0.102720
-0.099813
-0.099250
-0.101328
-0.105690
-0.111510
-0.117809
-0.123780
-0.128993
-0.133425
-0.137410
-0.141577
-0.146723
-0.153595
-0.162653
-0.173941
-0.187157
-0.201915
-0.217989
-0.235374
-0.254157
-0.274277
-0.295325
-0.316562
-0.337226
-0.356987
-0.376146
-0.395411
-0.415426
-0.436432
-0.458232
-0.480381
-0.502437
-0.524155
-0.545584
-0.566966
-0.588416
-0.609524
-0.629178
-0.645802
-0.657943
-0.664815
-0.666482
-0.663716
-0.657795
-0.650372
-0.643328
-0.638551
-0.637716
-0.642066
-0.652172
-0.667719
-0.687519
-0.709916
-0.733469
-0.757512
-0.782308
-0.808642
-0.836960
-0.866476
-0.894888
-0.918957
-0.935677
-0.943479
-0.942959
-0.936769
-0.928706
-0.922388
-0.920069
-0.922075
-0.927010
-0.932497
-0.936130
-0.936273
-0.932375
-0.924793
-0.914368
-0.902037
-0.888565
-0.874445
-0.860001
-0.845628
-0.831865
-0.819160
-0.807560
-0.796612
-0.785589
-0.773875
-0.761216
-0.747714
-0.733702
-0.719679
-0.706265
-0.694102
-0.683700
-0.675360
-0.669239
-0.665424
-0.663766
-0.663634
-0.663959
-0.663625
-0.661790
-0.657883
-0.651352
-0.641495
-0.627681
-0.609857
-0.588897
-0.566446
-0.544425
-0.524606
-0.508465
-0.497082
-0.490864
-0.489222
-0.490571
-0.492734
-0.493452
-0.490700
-0.482899
-0.469162
-0.449481
-0.424720
-0.396310
-0.365773
-0.334273
-0.302471
-0.270704
-0.239248
-0.208415
-0.178506
-0.149800
-0.122637
-0.097510
-0.075050
-0.055829
-0.040107
-0.027702
-0.018106
-0.010737
-0.005105
-0.000911
0.001787
0.002366
-0.000413
-0.008130
-0.022074
-0.042494
-0.068170
-0.096669
-0.125254
-0.151952
-0.176223
-0.198897
-0.221522
-0.245613
-0.272116
-0.301237
-0.332567
-0.365279
-0.398308
-0.430634
-0.461626
-0.491303
-0.520336
-0.549644
-0.579657
-0.609719
-0.638137
-0.662886
-0.682569
-0.697027
-0.707216
-0.714574
-0.720382
-0.725338
-0.729487
-0.732489
-0.733984
-0.733840
-0.732200
-0.729357
-0.725545
-0.720786
-0.714825
-0.707170
-0.697353
-0.685291
-0.671412
-0.656431
-0.640978
-0.625404
-0.609829
-0.594304
-0.578905
-0.563695
-0.548524
-0.532846
-0.515770
-0.496508
-0.474939
-0.451761
-0.428081
-0.404876
-0.382795
-0.362285
-0.343777
-0.327695
-0.314272
-0.303422
-0.294819
-0.288177
-0.283514
-0.281241
-0.281952
-0.286027
-0.293238
-0.302422
-0.311328
-0.316909
-0.316128
-0.306915
-0.288817
-0.263121
-0.232490
-0.200233
-0.169477
-0.142443
-0.120005
-0.101735
-0.086380
-0.072460
-0.058740
-0.044387
-0.028820
-0.011477
0.008236
0.030742
0.055972
0.083181
0.111077
0.138255
0.163632
0.186637
0.207105
0.225061
0.240640
0.254174
0.266241
0.277523
0.288573
0.299641
0.310617
0.321063
0.330333
0.337811
0.343132
0.346232
0.347167
0.345756
0.341326
0.332781
0.319056
0.299705
0.275296
0.247389
0.218128
0.189608
0.163319
0.139995
0.119878
0.103141
0.090133
0.081394
0.077552
0.079121
0.086243
0.098509
0.114937
0.134152
0.154748
0.175798
0.197132
0.219166
0.242429
0.267136
0.292953
0.318944
0.343618
0.365197
0.382182
0.393961
0.401040
0.404788
0.406913
0.408834
0.411190
0.413751
0.415737
0.416280
0.414841
0.411523
0.407248
0.403783
0.403426
0.408288
0.419482
0.436672
0.458134
0.481245
0.503198
0.521670
0.535234
0.543495
0.546994
0.546919
0.544693
0.541526
0.538161
0.534955
0.532186
0.530291
0.529846
0.531399
0.535267
0.541366
0.549198
0.557996
0.566896
0.574977
0.581208
0.584387
0.583238
0.576761
0.564688
0.547702
0.527295
0.505431
0.484144
0.465172
0.449674
0.438073
0.430035
0.424624
0.420708
0.417399
0.414230
0.410969
0.407251
0.402348
0.395300
0.385248
0.371692
0.354636
0.334616
0.312622
0.289933
0.267898
0.247662
0.229914
0.214811
0.202126
0.191526
0.182748
0.175533
0.169470
0.164005
0.158603
0.152881
0.146625
0.139726
0.132121
0.123813
0.114951
0.105917
0.097336
0.089941
0.084319
0.080705
0.078937
0.078608
0.079323
0.080835
0.082970
0.085514
0.088186
0.090669
0.092620
0.093638
0.093259
0.091131
0.087260
0.082023
0.075843
0.068787
0.060422
0.050104
0.037522
0.023189
0.008516
-0.004515
-0.013888
-0.018033
-0.016146
-0.008291
0.004728
0.021729
0.041573
0.063437
0.086854
0.111611
0.137611
0.164714
0.192565
0.220483
0.247501
0.272558
0.294832
0.314117
0.330972
0.346486
0.361777
0.377551
0.393879
0.410300
0.426151
0.440830
0.453858
0.464834
0.473379
0.479156
0.481993
0.482056
0.479950
0.476626
0.473006
0.469590
0.466371
0.463097
0.459579
0.455777
0.451689
0.447199
0.442043
0.435863
0.428182
0.418283
0.405149
0.387662
0.365017
0.337051
0.304274
0.267639
0.228299
0.187508
0.146556
0.106655
0.068762
0.033427
0.000728
-0.029575
-0.057734
-0.083773
-0.107525
-0.128874
-0.148000
-0.165471
-0.182163
-0.199125
-0.217403
-0.237864
-0.261084
-0.287380
-0.316956
-0.349998
-0.386609
-0.426619
-0.469397
-0.513731
-0.557856
-0.599631
-0.636882
-0.667845
-0.691509
-0.707737
-0.717218
-0.721290
-0.721624
-0.719868
-0.717322
-0.714716
-0.712216
-0.709670
-0.706882
-0.703724
-0.700102
-0.695903
-0.691024
-0.685515
-0.679705
-0.674151
-0.669390
-0.665685
-0.662941
-0.660795
-0.658735
-0.656155
-0.652414
-0.646980
-0.639626
-0.630499
-0.619954
-0.608293
-0.595567
-0.581438
-0.565083
-0.545242
-0.520459
-0.489455
-0.451567
-0.407132
-0.357609
-0.305273
-0.252535
-0.201184
-0.151858
-0.103971
-0.056104
-0.006743
0.044968
0.098855
0.153883
0.208753
0.262519
0.314732
0.365125
0.413294
0.458703
0.500840
0.539271
0.573549
0.603127
0.627382
0.645744
0.657802
0.663323
0.662311
0.655125
0.642517
0.625522
0.605239
0.582569
0.558065
0.532020
0.504746
0.476808
0.449022
0.422173
0.396705
0.372650
0.349865
0.328358
0.308420
0.290530
0.275157
0.262533
0.252475
0.244305
0.236952
0.229298
0.220670
0.211305
0.202472
0.196065
0.193753
0.196164
0.202607
0.211450
0.220807
0.229118
0.235453
0.239465
0.241132
0.240550
0.237895
0.233496
0.227797
0.221141
0.213515
0.204434
0.193026
0.178259
0.159279
0.135778
0.108174
0.077468
0.044804
0.011012
-0.023668
-0.059559
-0.097263
-0.137197
-0.179170
-0.222260
-0.265139
-0.306600
-0.345933
-0.382935
-0.417572
-0.449554
-0.478171
-0.502503
-0.521813
-0.535869
-0.545001
-0.549876
-0.551141
-0.549173
-0.544065
-0.535801
-0.524523
-0.510795
-0.495725
-0.480895
-0.468009
-0.458391
-0.452562
-0.450152
-0.450126
-0.451157
-0.451943
-0.451408
-0.448843
-0.443996
-0.437041
-0.428373
-0.418318
-0.406940
-0.394083
-0.379610
-0.363598
-0.346362
-0.328376
-0.310143
-0.292162
-0.274910
-0.258717
-0.243487
-0.228564
-0.212891
-0.195403
-0.175478
-0.153194
-0.129224
-0.104445
-0.079561
-0.054915
-0.030532
-0.006313
0.017724
0.041278
0.063810
0.084746
0.103663
0.120392
0.135001
0.147738
0.158957
0.168979
0.178007
0.186118
0.193272
0.199259
0.203608
0.205612
0.204556
0.200047
0.192286
0.182107
0.170703
0.159207
0.148381
0.138508
0.129528
0.121290
0.113756
0.107096
0.101587
0.097306
0.093754
0.089673
0.083188
0.072264
0.055306
0.031613
0.001437
-0.034334
-0.074656
-0.118752
-0.166286
-0.217199
-0.271269
-0.327632
-0.384596
-0.439861
-0.491031
-0.536166
-0.574229
-0.605320
-0.630633
-0.652174
-0.672230
-0.692656
-0.714321
-0.737002
-0.759795
-0.781742
-0.802291
-0.821322
-0.838782
-0.854236
-0.866586
-0.874094
-0.874723
-0.866682
-0.848928
-0.821427
-0.785061
-0.741321
-0.692043
-0.639258
-0.585003
-0.531062
-0.478795
-0.429106
-0.382573
-0.339636
-0.300679
-0.265952
-0.235514
-0.209242
-0.186872
-0.168064
-0.152524
-0.140142
-0.131074
-0.125720
-0.124651
-0.128521
-0.137944
-0.153383
-0.175074
-0.202894
-0.236225
-0.273935
-0.314584
-0.356744
-0.399262
-0.441310
-0.482323
-0.521943
-0.559997
-0.596435
-0.631168
-0.663884
-0.694030
-0.721014
-0.744497
-0.764615
-0.781982
-0.797486
-0.812015
-0.826236
-0.840411
-0.854259
-0.866938
-0.877247
-0.884058
-0.886769
-0.885543
-0.881222
-0.875008
-0.868145
-0.861770
-0.856834
-0.853980
-0.853339
-0.854395
-0.856073
-0.856980
-0.855684
-0.850962
-0.841905
-0.827930
-0.808792
-0.784574
-0.755664
-0.722781
-0.687060
-0.649930
-0.612864
-0.577157
-0.543704
-0.512876
-0.484601
-0.458477
-0.433947
-0.410568
-0.388118
-0.366494
-0.345594
-0.325272
-0.305359
-0.285806
-0.266882
-0.249256
-0.233955
-0.222194
-0.215066
-0.213194
-0.216490
-0.224021
-0.234025
-0.244198
-0.252137
-0.255801
-0.253826
-0.245557
-0.230844
-0.209784
-0.182553
-0.149396
-0.110751
-0.067367
-0.020286
0.029383
0.080732
0.133182
0.186437
0.240388
0.295065
0.350665
0.407592
0.466414
0.527717
0.591962
0.659408
0.730024
0.803393
0.878740
0.955107
1.031519
1.107098
1.181072
1.252793
1.321739
1.387443
1.449409
1.507101
1.559935
1.607170
1.647874
1.681053
1.705773
1.721332
1.727574
1.725081
1.715125
1.699392
1.679501
1.656615
1.631418
1.604285
1.575383
1.544784
1.512646
1.479230
1.444852
1.409866
1.374524
1.338847
1.302727
1.266129
1.229127
1.191748
1.153822
1.114923
1.074485
1.032035
0.987401
0.940755
0.892466
0.842875
0.792171
0.740428
0.687697
0.634018
0.579443
0.524148
0.468487
0.412919
0.357863
0.303504
0.249718
0.196277
0.143150
0.090731
0.039837
-0.008540
-0.053535
-0.094571
-0.131333
-0.163654
-0.191394
-0.214314
-0.232105
-0.244500
-0.251293
-0.252385
-0.247967
-0.238644
-0.225417
-0.209565
-0.192477
-0.175507
-0.159900
-0.146636
-0.136279
-0.128957
-0.124437
-0.122296
-0.122197
-0.124069
-0.128013
-0.134131
-0.142382
-0.152367
-0.163167
-0.173425
-0.181635
-0.186462
-0.187119
-0.183640
-0.176835
-0.167897
-0.157876
-0.147285
-0.136040
-0.123659
-0.109615
-0.093597
-0.075611
-0.055971
-0.035122
-0.013378
0.009197
0.032704
0.057318
0.083267
0.110703
0.139450
0.168910
0.198119
0.225902
0.251211
0.273463
0.292652
0.309335
0.324526
0.339513
0.355591
0.373836
0.394936
0.419214
0.446878
0.478157
0.513147
0.551617
0.592906
0.635941
0.679349
0.721540
0.760766
0.795311
0.823763
0.845172
0.859043
0.865300
0.864218
0.856333
0.842423
0.823451
0.800419
0.774177
0.745300
0.714081
0.680670
0.645243
0.608072
0.569451
0.529575
0.488519
0.446252
0.402602
0.357261
0.309925
0.260454
0.208978
0.155979
0.102322
0.049131
-0.002388
-0.051068
-0.095799
-0.135500
-0.169200
-0.196280
-0.216694
-0.230984
-0.240093
-0.245071
-0.246862
-0.246314
-0.244287
-0.241633
-0.239056
-0.236945
-0.235190
-0.233099
-0.229537
-0.223281
-0.213448
-0.199737
-0.182441
-0.162317
-0.140373
-0.117688
-0.095301
-0.074181
-0.055305
-0.039736
-0.028564
-0.022786
-0.023049
-0.029286
-0.040527
-0.055068
-0.070991
-0.086719
-0.101235
-0.114001
-0.124844
-0.133958
-0.141931
-0.149678
-0.158276
-0.168782
-0.182128
-0.199129
-0.220381
-0.246063
-0.275773
-0.308417
-0.342326
-0.375703
-0.407120
-0.435853
-0.461977
-0.486133
-0.509088
-0.531339
-0.552960
-0.573599
-0.592590
-0.609282
-0.623340
-0.634839
-0.644291
-0.652509
-0.660318
-0.668352
-0.676938
-0.686026
-0.695247
-0.704110
-0.712100
-0.718669
-0.723328
-0.725656
-0.725197
-0.721482
-0.714061
-0.702601
-0.687172
-0.668402
-0.647399
-0.625495
-0.603816
-0.582942
-0.562816
-0.542953
-0.522836
-0.502196
-0.481159
-0.460181
-0.439759
-0.420303
-0.402122
-0.385344
-0.369987
-0.356185
-0.344285
-0.334738
-0.327983
-0.324269
-0.323325
-0.324372
-0.326398
-0.328261
-0.328856
-0.327375
-0.323434
-0.317119
-0.308949
-0.299703
-0.290201
-0.281098
-0.272740
-0.265060
-0.257699
-0.250256
-0.242423
-0.234091
-0.225445
-0.216868
-0.208756
-0.201396
-0.194861
-0.188957
-0.183335
-0.177746
-0.172119
-0.166581
-0.161556
-0.157675
-0.155501
-0.155361
-0.157257
-0.160823
-0.165417
-0.170231
-0.174392
-0.177144
-0.178067
-0.177186
-0.174968
-0.172229
-0.169812
-0.168259
-0.167793
-0.168488
-0.170406
-0.173625
-0.178212
-0.184132
-0.191170
-0.199003
-0.207260
-0.215563
-0.223614
-0.231219
-0.238232
-0.244540
-0.250060
-0.254812
-0.259057
-0.263316
-0.268314
-0.274865
-0.283726
-0.295440
-0.310231
-0.327998
-0.348348
-0.370603
-0.393892
-0.417278
-0.439866
-0.460828
-0.479345
-0.494589
-0.505776
-0.512279
-0.513821
-0.510715
-0.503955
-0.495072
-0.485857
-0.477966
-0.472555
-0.470129
-0.470639
-0.473701
-0.478817
-0.485576
-0.493758
-0.503364
-0.514552
-0.527534
-0.542448
-0.559299
-0.577930
-0.597955
-0.618684
-0.639182
-0.658465
-0.675754
-0.690614
-0.702852
-0.712384
-0.719138
-0.722914
-0.723347
-0.720089
-0.713053
-0.702532
-0.689119
-0.673582
-0.656689
-0.639064
-0.621096
-0.602892
-0.584311
-0.565006
-0.544418
-0.521821
-0.496492
-0.467919
-0.435996
-0.401162
-0.364395
-0.327057
-0.290679
-0.256767
-0.226606
-0.201186
-0.181162
-0.166722
-0.157638
-0.153471
-0.153703
-0.157889
-0.165745
-0.177112
-0.191897
-0.210067
-0.231587
-0.256300
-0.283951
-0.314219
-0.346714
-0.381123
-0.417300
-0.455110
-0.494317
-0.534538
-0.575154
-0.615288
-0.653843
-0.689495
-0.720752
-0.746235
-0.764948
-0.776456
-0.781045
-0.779655
-0.773611
-0.764455
-0.753759
-0.742864
-0.732840
-0.724597
-0.718922
-0.716486
-0.717826
-0.723191
-0.732415
-0.744981
-0.760128
-0.776968
-0.794657
-0.812515
-0.830139
-0.847458
-0.864593
-0.881662
-0.898648
-0.915371
-0.931589
-0.947085
-0.961677
-0.975239
-0.987683
-0.998895
-1.008734
-1.017113
-1.024075
-1.029810
-1.034681
-1.039203
-1.043995
-1.049773
-1.057322
-1.067330
-1.080200
-1.095863
-1.113677
-1.132513
-1.150986
-1.167677
-1.181352
-1.191127
-1.196553
-1.197595
-1.194505
-1.187632
-1.177248
-1.163535
-1.146673
-1.126911
-1.104606
-1.080213
-1.054257
-1.027265
-0.999750
-0.972279
-0.945418
-0.919544
-0.894659
-0.870327
-0.845706
-0.819639
-0.790869
-0.758233
-0.720818
-0.678027
-0.629509
-0.575194
-0.515418
-0.450889
-0.382575
-0.311612
-0.239234
-0.166729
-0.095421
-0.026730
0.037894
0.097108
0.149694
0.194709
0.231633
0.260327
0.281008
0.294090
0.299993
0.299121
0.291840
0.278470
0.259386
0.235179
0.206643
0.174638
0.140091
0.103890
0.066656
0.028733
-0.009678
-0.048374
-0.086977
-0.124804
-0.160952
-0.194548
-0.224950
-0.251901
-0.275584
-0.296536
-0.315517
-0.333367
-0.350768
-0.368112
-0.385578
-0.403230
-0.421082
-0.439147
-0.457409
-0.475889
-0.494670
-0.513802
-0.533272
-0.552981
-0.572673
-0.591961
-0.610402
-0.627534
-0.642954
