EVENT_NAME: L_AQUILA
EVENT_ID: IT-2009-0009
EVENT_DATE_YYYYMMDD: 20090406
EVENT_TIME_HHMMSS: 013240
EVENT_LATITUDE_DEGREE: 42.3420
EVENT_LONGITUDE_DEGREE: 13.3800
EVENT_DEPTH_KM: 8.3
HYPOCENTER_REFERENCE: INGV-CNT_Seismic_Bulletin
MAGNITUDE_W: 6.1
MAGNITUDE_W_REFERENCE: INGV-CNT_Seismic_Bulletin
MAGNITUDE_L: 
MAGNITUDE_L_REFERENCE: 
FOCAL_MECHANISM: Normal faulting
NETWORK: IT
STATION_CODE: CSO1
STATION_NAME: 
STATION_LATITUDE_DEGREE: 42.100933
STATION_LONGITUDE_DEGREE: 13.088044
STATION_ELEVATION_M: 700
LOCATION: 
SENSOR_DEPTH_M: 0.0
VS30_M/S: 
SITE_CLASSIFICATION_EC8: B (inferred from geology)
MORPHOLOGIC_CLASSIFICATION: 
EPICENTRAL_DISTANCE_KM: 36.0
EARTHQUAKE_BACKAZIMUTH_DEGREE: 222.1
DATE_TIME_FIRST_SAMPLE_YYYYMMDD_HHMMSS: 20090406_013212.500
DATE_TIME_FIRST_SAMPLE_PRECISION: seconds
SAMPLING_INTERVAL_S: 0.005000
NDATA: 19960
DURATION_S: 99.800
STREAM: HNZ
UNITS: cm/s^2
INSTRUMENT: sensor = FBA-3 [Kinemetrics] | digitizer = Etna [Kinemetrics]
INSTRUMENT_ANALOG/DIGITAL: D
INSTRUMENTAL_FREQUENCY_HZ: 202.000
INSTRUMENTAL_DAMPING: 0.700000
FULL_SCALE_G: 1.0
N_BIT_DIGITAL_CONVERTER: 18
PGA_CM/S^2: -16.048773
TIME_PGA_S: 50.335000
BASELINE_CORRECTION: BASELINE REMOVED
FILTER_TYPE: BUTTERWORTH
FILTER_ORDER: 2
LOW_CUT_FREQUENCY_HZ: 0.030
HIGH_CUT_FREQUENCY_HZ: 40.000
LATE/NORMAL_TRIGGERED: NT
DATABASE_VERSION: 0.5
HEADER_FORMAT: DYNA 1.2
DATA_TYPE: ACCELERATION
PROCESSING: manual (Paolucci et al., 2011)
DATA_TIMESTAMP_YYYYMMDD_HHMMSS: 20211011_160101.013
DATA_LICENSE: CC-BY3_0-IT (http://creativecommons.org/licenses/by/3.0/deed.en)
DATA_CITATION: Luzi L, Pacor F, Puglia R (2019). Italian Accelerometric Archive v 3.0 - Istituto Nazionale di Geofisica e Vulcanologia, Dipartimento della Protezione Civile Nazionale. doi: 10.13127/itaca.3.1
DATA_CREATOR: ITACA working group
ORIGINAL_DATA_MEDIATOR_CITATION: data obtained within the DPC-INGV data exchange agreements
ORIGINAL_DATA_MEDIATOR: Archive of Italian Department of Civil Protection
ORIGINAL_DATA_CREATOR_CITATION: Presidency Of Counsil Of Ministers-Civil Protection Department. (1972). Italian Strong Motion Network. Presidency of Counsil of Ministers - Civil Protection Department. https://doi.org/10.7914/SN/IT http://www.fdsn.org/networks/detail/IT/
ORIGINAL_DATA_CREATOR: network: IT (Italian Strong Motion Network (RAN)); owner: Presidency of Counsil of Ministers - Civil Protection Department (PCM - DPC)
USER1: 
USER2: 
USER3: 
USER4: 
USER5: 
[...]
3.134707
3.497486
3.985001
4.456795
4.794134
4.955743
4.976841
4.929247
4.876471
4.843828
4.807442
4.710691
4.506516
4.187095
3.783404
3.345916
2.921718
2.547467
2.243697
2.004444
1.805666
1.622225
1.430739
1.197370
0.869829
0.400836
-0.211153
-0.901884
-1.552240
-2.035679
-2.280967
-2.299052
-2.165173
-1.974746
-1.795870
-1.647609
-1.506806
-1.332079
-1.101814
-0.856166
-0.710345
-0.816239
-1.296924
-2.184964
-3.391602
-4.738462
-6.035362
-7.154134
-8.064277
-8.819284
-9.506832
-10.182665
-10.813895
-11.272558
-11.392794
-11.053120
-10.233866
-9.027036
-7.612721
-6.218021
-5.062623
-4.308343
-4.011083
-4.085334
-4.332870
-4.536319
-4.558623
-4.389272
-4.109816
-3.806154
-3.491985
-3.090794
-2.470098
-1.501601
-0.125882
1.608301
3.550832
5.500246
7.273119
8.747941
9.855703
10.557003
10.851014
10.788087
10.453514
9.937721
9.306557
8.587358
7.791594
6.945345
6.087579
5.254379
4.473982
3.761541
3.108098
2.476467
1.813528
1.070740
0.213808
-0.773957
-1.884552
-3.087924
-4.338077
-5.564062
-6.666108
-7.542095
-8.129728
-8.432045
-8.503539
-8.409687
-8.202636
-7.923941
-7.610752
-7.287694
-6.946642
-6.543104
-6.029141
-5.396791
-4.696766
-4.023610
-3.473368
-3.100663
-2.905832
-2.844194
-2.834998
-2.769699
-2.535679
-2.061810
-1.362272
-0.542188
0.245283
0.864134
1.242822
1.372552
1.274992
0.987185
0.570882
0.128179
-0.211185
-0.335603
-0.181414
0.259071
0.944430
1.811513
2.794873
3.827690
4.843520
5.782143
6.576466
7.144247
7.426018
7.413172
7.141339
6.690711
6.165482
5.655060
5.224921
4.905809
4.675920
4.490061
4.324740
4.180041
4.064337
3.982566
3.910641
3.784812
3.525127
3.060289
2.352133
1.425628
0.374451
-0.659320
-1.506092
-2.000913
-2.034511
-1.587799
-0.732907
0.395052
1.653898
2.942641
4.211896
5.446220
6.631458
7.728995
8.676695
9.416331
9.933674
10.269807
10.490070
10.651055
10.790152
10.935288
11.120012
11.385398
11.764357
12.260744
12.849017
13.489077
14.123273
14.673698
15.069579
15.273328
15.282465
15.115664
14.794828
14.344133
13.789214
13.140933
12.393188
11.538420
10.566747
9.447019
8.140824
6.635757
4.943910
3.111921
1.248410
-0.498729
-1.991203
-3.146535
-3.978201
-4.577200
-5.039467
-5.426487
-5.780383
-6.119756
-6.427651
-6.683298
-6.875522
-6.997136
-7.068451
-7.135378
-7.223990
-7.319576
-7.400555
-7.475688
-7.585309
-7.779838
-8.087517
-8.490013
-8.926851
-9.329117
-9.657851
-9.918119
-10.140741
-10.348604
-10.546306
-10.735868
-10.914959
-11.058982
-11.132174
-11.113623
-11.011137
-10.871883
-10.757080
-10.688215
-10.625446
-10.483819
-10.178830
-9.675365
-8.998946
-8.207304
-7.352257
-6.464212
-5.548013
-4.584153
-3.558170
-2.478929
-1.358644
-0.218367
0.883652
1.864452
2.645516
3.170354
3.417715
3.393806
3.121422
2.652822
2.071389
1.464529
0.903887
0.428220
0.019759
-0.374394
-0.788639
-1.223620
-1.650289
-1.997073
-2.159836
-2.051702
-1.641916
-0.965500
-0.131400
0.695764
1.361160
1.787445
2.004270
2.118152
2.249114
2.476159
2.808693
3.203598
3.597226
3.928011
4.169779
4.348884
4.515034
4.701418
4.922710
5.189807
5.487155
5.749510
5.892030
5.841820
5.556599
5.061767
4.450241
3.837973
3.336452
3.038352
2.997224
3.215603
3.649100
4.219935
4.855581
5.532892
6.255799
6.998074
7.693874
8.257744
8.607067
8.681663
8.438116
7.845215
6.909026
5.690441
4.281721
2.774248
1.251474
-0.216508
-1.576883
-2.782189
-3.794338
-4.606303
-5.248385
-5.775562
-6.243694
-6.682149
-7.085492
-7.434175
-7.724220
-7.975096
-8.211214
-8.453425
-8.730004
-9.068238
-9.467292
-9.894040
-10.295190
-10.599785
-10.731535
-10.638109
-10.303826
-9.736071
-8.946116
-7.940198
-6.739964
-5.416081
-4.082870
-2.857887
-1.821740
-0.995663
-0.358156
0.109543
0.405305
0.530966
0.515355
0.422136
0.351101
0.418103
0.712475
1.251198
1.966525
2.742262
3.459106
4.024767
4.388932
4.537042
4.477235
4.224067
3.775135
3.113921
2.234431
1.155498
-0.052663
-1.247418
-2.248166
-2.908212
-3.184556
-3.145567
-2.903179
-2.553158
-2.168600
-1.822772
-1.594778
-1.549241
-1.719615
-2.101213
-2.669272
-3.400235
-4.250435
-5.136354
-5.941995
-6.528783
-6.781863
-6.675391
-6.283282
-5.746731
-5.224772
-4.831220
-4.590992
-4.450179
-4.324228
-4.127793
-3.798111
-3.338335
-2.811650
-2.299840
-1.890323
-1.643592
-1.561940
-1.606827
-1.717134
-1.817536
-1.844135
-1.772632
-1.598155
-1.313780
-0.931792
-0.465592
0.091778
0.742997
1.484340
2.291884
3.085819
3.754118
4.200513
4.380900
4.335760
4.174648
4.025265
3.972639
4.023304
4.128138
4.207436
4.195464
4.084424
3.891138
3.636216
3.355763
3.071341
2.760285
2.380028
1.909544
1.350813
0.742860
0.188866
-0.209411
-0.405174
-0.372654
-0.118921
0.296125
0.788223
1.262986
1.634068
1.849052
1.900390
1.820608
1.671752
1.535904
1.472314
1.488578
1.566495
1.666464
1.729150
1.715365
1.622392
1.472128
1.306915
1.180863
1.124266
1.117985
1.125333
1.107527
1.004957
0.776205
0.434930
0.027910
-0.379053
-0.713210
-0.918836
-0.962789
-0.832344
-0.550353
-0.184629
0.176266
0.443540
0.547768
0.483565
0.310556
0.093248
-0.139020
-0.383585
-0.643825
-0.917518
-1.183871
-1.407709
-1.566464
-1.651403
-1.660601
-1.610195
-1.520998
-1.402710
-1.261652
-1.103848
-0.950535
-0.849030
-0.851790
-0.999433
-1.310315
-1.772198
-2.342794
-2.958142
-3.553481
-4.069883
-4.451094
-4.657773
-4.677190
-4.517626
-4.192330
-3.703481
-3.048693
-2.237442
-1.300700
-0.308354
0.621199
1.352091
1.776424
1.843126
1.578255
1.082055
0.485291
-0.101958
-0.612388
-1.023369
-1.351628
-1.636518
-1.921113
-2.237741
-2.596320
-2.982808
-3.370107
-3.726207
-4.005076
-4.145788
-4.099608
-3.856622
-3.457730
-2.971976
-2.447749
-1.906311
-1.350781
-0.755202
-0.086666
0.651672
1.407072
2.104363
2.682454
3.107537
3.378591
3.524881
3.593651
3.640760
3.716227
3.860943
4.117699
4.519474
5.065645
5.714648
6.384693
6.966754
7.353281
7.467693
7.275615
6.782382
6.032192
5.084032
4.004727
2.887976
1.816791
0.833467
-0.046491
-0.837192
-1.571129
-2.273329
-2.957043
-3.633988
-4.303928
-4.942726
-5.530199
-6.053629
-6.498886
-6.881842
-7.235388
-7.562079
-7.841380
-8.044160
-8.123282
-8.026733
-7.711045
-7.130336
-6.251486
-5.096473
-3.742619
-2.301702
-0.917700
0.277978
1.208795
1.831185
2.139277
2.179024
2.004758
1.648559
1.134938
0.487276
-0.267931
-1.072991
-1.844847
-2.513342
-3.029262
-3.367972
-3.537838
-3.571617
-3.524891
-3.463701
-3.426955
-3.413852
-3.397196
-3.344564
-3.243726
-3.099129
-2.918335
-2.712532
-2.488697
-2.242350
-1.967877
-1.675851
-1.392268
-1.147114
-0.974131
-0.904396
-0.958449
-1.155687
-1.509642
-2.001765
-2.573918
-3.132686
-3.562657
-3.767198
-3.694658
-3.338214
-2.734883
-1.955087
-1.085252
-0.208314
0.617870
1.374680
2.076808
2.742516
3.372516
3.952330
4.461015
4.878669
5.191205
5.398324
5.502930
5.494313
5.372107
5.174905
4.977068
4.866230
4.924348
5.213233
5.754022
6.527300
7.483018
8.558240
9.703515
10.862922
11.955282
12.905731
13.662793
14.192712
14.475541
14.501095
14.261510
13.738143
12.924785
11.842849
10.517290
9.002891
7.384831
5.738906
4.136068
2.616391
1.180654
-0.174370
-1.456184
-2.674054
-3.816846
-4.841317
-5.707157
-6.400992
-6.909379
-7.240273
-7.446832
-7.584673
-7.682142
-7.739199
-7.720642
-7.565374
-7.229607
-6.719066
-6.080535
-5.390090
-4.736751
-4.190409
-3.796005
-3.570060
-3.480209
-3.468760
-3.493365
-3.530212
-3.570578
-3.612843
-3.652382
-3.696123
-3.756105
-3.826372
-3.894092
-3.941724
-3.938385
-3.857750
-3.688218
-3.426361
-3.083974
-2.691158
-2.274034
-1.847306
-1.424326
-1.004731
-0.576049
-0.143763
0.270392
0.641812
0.932412
1.098432
1.113421
0.976074
0.704616
0.325969
-0.141133
-0.699593
-1.344058
-2.038852
-2.741196
-3.388442
-3.890167
-4.174796
-4.201241
-3.948541
-3.439720
-2.744380
-1.945459
-1.115379
-0.298756
0.496984
1.278002
2.034750
2.740265
3.356892
3.851439
4.223564
4.503640
4.719078
4.879942
4.985351
5.031891
5.022643
4.968802
4.885226
4.787178
4.694359
4.631126
4.618789
4.679401
4.824902
5.038186
5.291930
5.566773
5.838310
6.068915
6.225460
6.298356
6.292342
6.213181
6.077726
5.918612
5.772701
5.678074
5.668774
5.759261
5.937654
6.169516
6.408570
6.610887
6.743982
6.790302
6.753564
6.654913
6.509196
6.319546
6.087434
5.800189
5.428550
4.957195
4.402864
3.803248
3.206132
2.667008
2.236456
1.938824
1.763518
1.676270
1.643727
1.650812
1.694414
1.770238
1.872012
1.991050
2.107724
2.189234
2.192059
2.066710
1.778016
1.329332
0.765583
0.153718
-0.440960
-0.969779
-1.403724
-1.727419
-1.934369
-2.024752
-2.005387
-1.894715
-1.726499
-1.548337
-1.414954
-1.375486
-1.463908
-1.693675
-2.048824
-2.485076
-2.939237
-3.335434
-3.604472
-3.707848
-3.644746
-3.440129
-3.120306
-2.696023
-2.159050
-1.494949
-0.708758
0.164171
1.064065
1.918791
2.663661
3.261231
3.706022
4.012357
4.206121
4.320270
4.377020
4.373712
4.293104
4.124126
3.875244
3.579543
3.287613
3.047624
2.882454
2.777156
2.694751
2.605048
2.486766
2.316410
2.077471
1.769459
1.399192
0.977925
0.527232
0.073208
-0.368406
-0.794474
-1.198062
-1.555185
-1.831240
-1.990799
-2.000271
-1.841985
-1.527554
-1.089308
-0.580812
-0.085065
0.305060
0.522625
0.554515
0.437546
0.235299
0.024870
-0.131708
-0.214145
-0.231709
-0.203951
-0.161131
-0.152333
-0.201021
-0.264268
-0.335193
-0.472295
-0.665143
-0.875251
-1.102729
-1.301701
-1.445988
-1.573791
-1.656134
-1.617466
-1.436620
-1.118835
-0.663015
-0.078710
0.598498
1.296312
1.917283
2.387070
2.698429
2.896701
3.028031
3.109147
3.130879
3.079810
2.943485
2.700656
2.328847
1.816007
1.171156
0.432032
-0.337882
-1.062178
-1.685349
-2.190058
-2.574922
-2.847655
-3.033800
-3.148252
-3.173021
-3.085818
-2.879600
-2.561092
-2.138642
-1.591101
-0.884439
-0.038197
0.857843
1.696632
2.408356
2.966519
3.366600
3.622027
3.768325
3.857354
3.938283
4.026631
4.113746
4.202610
4.294269
4.382057
4.485329
4.631412
4.808065
4.967258
5.063905
5.088244
5.051132
4.943186
4.738456
4.421266
3.999746
3.505538
2.971337
2.415355
1.845194
1.265570
0.693971
0.163761
-0.291833
-0.647164
-0.881817
-0.981901
-0.953179
-0.829075
-0.651093
-0.447844
-0.234041
-0.014723
0.207597
0.423665
0.619388
0.785456
0.922972
1.041908
1.157075
1.287416
1.448054
1.635586
1.825303
1.978827
2.060059
2.054606
1.968007
1.808112
1.576984
1.270744
0.881804
0.407677
-0.142682
-0.755100
-1.405889
-2.048376
-2.629885
-3.112202
-3.464281
-3.665490
-3.715276
-3.614968
-3.365391
-2.998954
-2.549990
-2.014478
-1.434361
-0.914610
-0.486732
-0.106335
0.246785
0.575814
0.878877
1.137799
1.363140
1.602989
1.876475
2.145212
2.365835
2.531675
2.650170
2.724626
2.761437
2.757119
2.698106
2.582269
2.404224
2.140826
1.784140
1.357389
0.882425
0.365674
-0.181838
-0.742873
-1.301825
-1.837383
-2.325111
-2.746714
-3.087422
-3.329323
-3.448768
-3.435166
-3.311191
-3.103526
-2.826760
-2.526049
-2.263073
-2.065483
-1.950787
-1.939770
-2.037648
-2.248573
-2.564730
-2.946105
-3.347136
-3.732641
-4.067941
-4.321004
-4.481030
-4.578020
-4.674111
-4.824865
-5.053323
-5.356810
-5.721603
-6.125132
-6.525593
-6.859987
-7.068651
-7.116251
-6.986649
-6.673526
-6.186014
-5.560928
-4.856199
-4.125830
-3.402430
-2.707044
-2.069871
-1.518254
-1.058067
-0.690898
-0.419911
-0.237134
-0.131744
-0.091918
-0.094766
-0.107134
-0.084216
0.023215
0.242010
0.564599
0.960359
1.382745
1.780681
2.117508
2.370787
2.522064
2.556044
2.475290
2.305562
2.069588
1.767426
1.378072
0.871483
0.228585
-0.543651
-1.403537
-2.281795
-3.105072
-3.805886
-4.321972
-4.617328
-4.691710
-4.556663
-4.242047
-3.807806
-3.311174
-2.795167
-2.294393
-1.816893
-1.354533
-0.916251
-0.531209
-0.236188
-0.057245
0.005146
-0.033662
-0.151907
-0.319422
-0.501661
-0.666709
-0.795250
-0.886875
-0.946360
-0.969914
-0.954688
-0.905984
-0.829099
-0.732389
-0.627097
-0.511273
-0.380279
-0.237577
-0.070951
0.138121
0.383731
0.650500
0.933292
1.233647
1.554240
1.894071
2.243142
2.583954
2.909020
3.219745
3.516039
3.811173
4.111198
4.386720
4.599731
4.719518
4.717366
4.585691
4.353986
4.067432
3.766151
3.483808
3.233185
3.004995
2.788725
2.576666
2.369728
2.190356
2.070054
2.031800
2.094418
2.271125
2.550651
2.898381
3.272284
3.621696
3.894115
4.051707
4.077608
3.983425
3.801164
3.564579
3.303836
3.041799
2.789061
2.538968
2.268390
1.953076
1.583394
1.157952
0.674871
0.150103
-0.387165
-0.922866
-1.439906
-1.909429
-2.325405
-2.695624
-3.021019
-3.312356
-3.582235
-3.831082
-4.061902
-4.281328
-4.496461
-4.730456
-5.020592
-5.392503
-5.855304
-6.415597
-7.072973
-7.819584
-8.658858
-9.592497
-10.595125
-11.631142
-12.663798
-13.639177
-14.498014
-15.194350
-15.694506
-15.979114
-16.048773
-15.922414
-15.631464
-15.215728
-14.713566
-14.144825
-13.511891
-12.818528
-12.076561
-11.301389
-10.512484
-9.728937
-8.959306
-8.208602
-7.486218
-6.789613
-6.100938
-5.408725
-4.712311
-4.016541
-3.335738
-2.689325
-2.089317
-1.530909
-0.993216
-0.448833
0.124013
0.734953
1.391327
2.095676
2.831464
3.579045
4.327596
5.061134
5.759236
6.402769
6.963620
7.403752
7.693021
7.815681
7.765044
7.549767
7.189307
6.697477
6.088304
5.384389
4.610733
3.795443
2.975256
2.190326
1.473777
0.849721
0.335627
-0.057890
-0.326116
-0.470140
-0.498848
-0.428216
-0.278267
-0.069358
0.181280
0.459108
0.748181
1.032365
1.305001
1.572710
1.849963
2.154315
2.500684
2.894808
3.327317
3.773030
4.200898
4.576237
4.855860
5.003134
5.001493
4.848361
4.558203
4.162272
3.694479
3.183980
2.646443
2.079690
1.474580
0.825040
0.128895
-0.603170
-1.336895
-2.046416
-2.749488
-3.470865
-4.194533
-4.872979
-5.450592
-5.891138
-6.202339
-6.407661
-6.515951
-6.533015
-6.462556
-6.303014
-6.066648
-5.780550
-5.466776
-5.141412
-4.812239
-4.464473
-4.082514
-3.682981
-3.301256
-2.967447
-2.706730
-2.535095
-2.449524
-2.435182
-2.471697
-2.527491
-2.571642
-2.587678
-2.552477
-2.426830
-2.182574
-1.815388
-1.339631
-0.789336
-0.213251
0.344577
0.857997
1.313879
1.712194
2.069438
2.405702
2.736331
3.066168
3.378084
3.650467
3.881317
4.081363
4.266240
4.456197
4.666652
4.903051
5.169857
5.476585
5.827395
6.215228
6.631724
7.061702
7.472827
7.830976
8.107974
8.277926
8.327488
8.255376
8.061956
7.757455
7.370575
6.932892
6.463172
5.968717
5.442932
4.864587
4.218197
3.513426
2.777191
2.040394
1.335891
0.687334
0.099045
-0.439257
-0.945365
-1.428501
-1.879031
-2.285413
-2.645145
-2.953858
-3.202999
-3.391873
-3.523716
-3.596229
-3.619570
-3.623944
-3.643769
-3.709841
-3.838453
-4.026221
-4.258767
-4.517766
-4.783815
-5.037687
-5.264123
-5.448671
-5.579967
-5.656127
-5.671435
-5.618463
-5.502694
-5.330572
-5.108419
-4.854072
-4.583376
-4.303949
-4.022767
-3.741306
-3.456073
-3.165819
-2.870798
-2.571837
-2.278128
-2.008863
-1.781468
-1.607577
-1.490939
-1.422896
-1.387637
-1.367012
-1.339497
-1.285993
-1.204386
-1.102932
-0.981872
-0.835203
-0.652119
-0.420969
-0.140339
0.181874
0.527536
0.871131
1.194709
1.488163
1.741827
1.955166
2.140279
2.307903
2.458441
2.582202
2.670237
2.723482
2.743900
2.739316
2.728755
2.725146
2.730848
2.738387
2.735602
2.719924
2.692711
2.655310
2.618144
2.596506
2.593750
2.604906
2.642394
2.719472
2.822709
2.945849
3.097289
3.259682
3.405150
3.523589
3.604407
3.628344
3.586165
3.485195
3.332461
3.129799
2.882136
2.596256
2.288565
1.982878
1.691528
1.427887
1.218193
1.073670
0.991801
0.983697
1.052942
1.178504
1.340555
1.523829
1.698966
1.836957
1.937509
2.013882
2.072397
2.128244
2.202544
2.306019
2.443220
2.606441
2.776724
2.943955
3.102083
3.233400
3.318429
3.350135
3.325355
3.240447
3.105479
2.941746
2.764387
2.577801
2.381782
2.174502
1.955691
1.736294
1.536147
1.376471
1.283777
1.280462
1.369331
1.539590
1.772234
2.035461
2.297411
2.545728
2.777831
2.987038
3.178584
3.371089
3.576100
3.803377
4.062961
4.347684
4.638505
4.917763
5.167707
5.373697
5.530900
5.640783
5.706238
5.734680
5.733616
5.697328
5.612481
5.475197
5.287190
5.046224
4.753269
4.413765
4.030942
3.609284
3.154902
2.673516
2.176645
1.683913
1.217705
0.795532
0.431764
0.143414
-0.060262
-0.182490
-0.227356
-0.197821
-0.101359
0.048466
0.236478
0.453076
0.692248
0.943079
1.187518
1.405267
1.575062
1.672673
1.677786
1.583504
1.398119
1.142781
0.844667
0.523264
0.183896
-0.172348
-0.543355
-0.929833
-1.330429
-1.733097
-2.114897
-2.452511
-2.729515
-2.930801
-3.043751
-3.068210
-3.015318
-2.900151
-2.739531
-2.549995
-2.346326
-2.141992
-1.948578
-1.779035
-1.650889
-1.581118
-1.579342
-1.648227
-1.786528
-1.986211
-2.231756
-2.506393
-2.792200
-3.067249
-3.313689
-3.527094
-3.713096
-3.878208
-4.027872
-4.169926
-4.311504
-4.450478
-4.575712
-4.677745
-4.753312
-4.799329
-4.811010
-4.787918
-4.735721
-4.659733
-4.564017
-4.457556
-4.351717
-4.251877
-4.157331
-4.064791
-3.965654
-3.847027
-3.699655
-3.518542
-3.301577
-3.051444
-2.772460
-2.468921
-2.147738
-1.817176
-1.486296
-1.169428
-0.884956
-0.645274
-0.453027
-0.306590
-0.201013
-0.125140
-0.063879
-0.004364
0.060738
0.136286
0.226630
0.334625
0.462471
0.609692
0.771931
0.941495
1.107523
1.264399
1.412288
1.545062
1.653684
1.736852
1.796654
1.830922
1.837795
1.824450
1.801837
1.773277
1.735380
1.682248
1.606609
1.504184
1.374539
1.220391
1.051240
0.878741
0.706127
0.527440
0.332418
0.109748
-0.146041
-0.428028
-0.723199
-1.020769
-1.306618
-1.559112
-1.757796
-1.890675
-1.954386
-1.951063
-1.882540
-1.748496
-1.547611
-1.274571
-0.923308
-0.498915
-0.018263
0.498998
1.030475
1.548761
2.030058
2.464443
2.854324
3.204400
3.516265
3.791227
4.032307
4.238011
4.396985
4.496403
4.530863
4.498555
4.398276
4.232193
4.004372
3.716258
3.367445
2.960677
2.503798
2.009958
1.497601
0.987150
0.495469
0.032850
-0.391479
-0.763021
-1.069567
-1.312082
-1.502831
-1.657898
-1.793435
-1.921780
-2.045580
-2.156794
-2.242767
-2.295666
-2.318232
-2.317919
-2.298993
-2.263634
-2.213112
-2.143823
-2.048247
-1.923856
-1.777712
-1.623524
-1.477671
-1.352499
-1.250106
-1.164923
-1.091625
-1.030911
-0.990518
-0.980928
-1.011492
-1.090705
-1.223763
-1.408400
-1.635867
-1.893276
-2.163331
