EVENT_NAME: L_AQUILA
EVENT_ID: IT-2009-0009
EVENT_DATE_YYYYMMDD: 20090406
EVENT_TIME_HHMMSS: 013240
EVENT_LATITUDE_DEGREE: 42.3420
EVENT_LONGITUDE_DEGREE: 13.3800
EVENT_DEPTH_KM: 8.3
HYPOCENTER_REFERENCE: INGV-CNT_Seismic_Bulletin
MAGNITUDE_W: 6.1
MAGNITUDE_W_REFERENCE: INGV-CNT_Seismic_Bulletin
MAGNITUDE_L: 
MAGNITUDE_L_REFERENCE: 
FOCAL_MECHANISM: Normal faulting
NETWORK: IT
STATION_CODE: CSO1
STATION_NAME: 
STATION_LATITUDE_DEGREE: 42.100933
STATION_LONGITUDE_DEGREE: 13.088044
STATION_ELEVATION_M: 700
LOCATION: 
SENSOR_DEPTH_M: 0.0
VS30_M/S: 
SITE_CLASSIFICATION_EC8: B (inferred from geology)
MORPHOLOGIC_CLASSIFICATION: 
EPICENTRAL_DISTANCE_KM: 36.0
EARTHQUAKE_BACKAZIMUTH_DEGREE: 222.1
DATE_TIME_FIRST_SAMPLE_YYYYMMDD_HHMMSS: 
DATE_TIME_FIRST_SAMPLE_PRECISION: 
SAMPLING_INTERVAL_S: 
NDATA: 105
DURATION_S: 
STREAM: HNE
UNITS: cm/s^2
INSTRUMENT: sensor = FBA-3 [Kinemetrics] | digitizer = Etna [Kinemetrics]
INSTRUMENT_ANALOG/DIGITAL: D
INSTRUMENTAL_FREQUENCY_HZ: 214.000
INSTRUMENTAL_DAMPING: 0.700000
FULL_SCALE_G: 1.0
N_BIT_DIGITAL_CONVERTER: 18
PGA_CM/S^2: 18.287800
TIME_PGA_S: 
BASELINE_CORRECTION: BASELINE REMOVED
FILTER_TYPE: BUTTERWORTH
FILTER_ORDER: 2
LOW_CUT_FREQUENCY_HZ: 0.030
HIGH_CUT_FREQUENCY_HZ: 40.000
LATE/NORMAL_TRIGGERED: NT
DATABASE_VERSION: 0.5
HEADER_FORMAT: DYNA 1.2
DATA_TYPE: ACCELERATION RESPONSE SPECTRUM
PROCESSING: manual (Paolucci et al., 2011)
DATA_TIMESTAMP_YYYYMMDD_HHMMSS: 20211011_160101.412
DATA_LICENSE: CC-BY3_0-IT (http://creativecommons.org/licenses/by/3.0/deed.en)
DATA_CITATION: Luzi L, Pacor F, Puglia R (2019). Italian Accelerometric Archive v 3.0 - Istituto Nazionale di Geofisica e Vulcanologia, Dipartimento della Protezione Civile Nazionale. doi: 10.13127/itaca.3.1
DATA_CREATOR: ITACA working group
ORIGINAL_DATA_MEDIATOR_CITATION: data obtained within the DPC-INGV data exchange agreements
ORIGINAL_DATA_MEDIATOR: Archive of Italian Department of Civil Protection
ORIGINAL_DATA_CREATOR_CITATION: Presidency Of Counsil Of Ministers-Civil Protection Department. (1972). Italian Strong Motion Network. Presidency of Counsil of Ministers - Civil Protection Department. https://doi.org/10.7914/SN/IT http://www.fdsn.org/networks/detail/IT/
ORIGINAL_DATA_CREATOR: network: IT (Italian Strong Motion Network (RAN)); owner: Presidency of Counsil of Ministers - Civil Protection Department (PCM - DPC)
USER1: 
USER2: 
USER3: 
USER4: 
USER5: 
    0.010000    18.322176
    0.020000    18.407413
    0.022000    18.431578
    0.025000    18.432314
    0.029000    18.461138
    0.030000    18.522697
    0.032000    18.632608
    0.035001    18.731600
    0.036000    18.758123
    0.040000    18.470741
    0.041999    18.623299
    0.044001    18.960840
    0.045000    19.356228
    0.046000    19.719360
    0.048001    20.075663
    0.050000    19.849447
    0.054999    20.319263
    0.059999    18.786034
    0.064998    19.491896
    0.067002    20.382502
    0.069999    21.094286
    0.075002    21.682882
    0.080000    22.575581
    0.084998    23.806911
    0.090001    23.313231
    0.095003    24.193888
    0.100000    26.882751
    0.109999    30.369690
    0.120005    33.922668
    0.130005    29.967915
    0.132996    29.193033
    0.139997    32.947121
    0.149993    31.422655
    0.160000    34.171902
    0.170010    43.514248
    0.179986    48.830276
    0.190006    41.421604
    0.200000    40.576771
    0.220022    39.005302
    0.239981    40.451351
    0.250000    41.070503
    0.260010    42.667179
    0.280034    46.042320
    0.290023    48.367695
    0.300030    50.285027
    0.320000    45.309143
    0.340020    46.731026
    0.350017    50.571762
    0.359971    51.394634
    0.379939    50.489258
    0.400000    45.177086
    0.419992    35.917118
    0.439947    36.566158
    0.450045    38.607761
    0.459982    41.554768
    0.480077    45.787605
    0.500000    49.162136
    0.550055    62.234737
    0.599880    56.661686
    0.650195    45.262672
    0.667111    41.839722
    0.699790    40.376301
    0.750188    36.572140
    0.800000    25.418530
    0.850340    26.137600
    0.900090    30.742290
    0.949668    30.513559
    1.000000    28.600012
    1.100110    35.950035
    1.200480    25.953665
    1.300390    18.788301
    1.400560    16.450493
    1.499250    18.664524
    1.600000    16.784901
    1.700680    13.591716
    1.798561    11.637202
    1.901141     9.455206
    2.000000     8.424159
    2.197802     7.460026
    2.398082     6.601723
    2.500000     5.923373
    2.597403     5.099434
    2.801121     4.324473
    3.003003     4.028862
    3.205128     4.501322
    3.401361     5.272888
    3.496503     5.399773
    3.597122     5.823979
    3.802281     6.175107
    4.000000     6.268512
    4.201681     5.887944
    4.405286     4.912348
    4.608295     4.446101
    4.807692     3.851950
    5.000000     3.353337
    5.494505     2.388336
    5.988024     1.816024
    6.493506     1.583110
    6.993007     1.469021
    7.518797     1.331204
    8.000000     1.262796
    8.474576     1.272166
    9.009009     1.237706
    9.523809     1.165739
   10.000000     1.070334
