EVENT_NAME: L_AQUILA
EVENT_ID: IT-2009-0009
EVENT_DATE_YYYYMMDD: 20090406
EVENT_TIME_HHMMSS: 013240
EVENT_LATITUDE_DEGREE: 42.3420
EVENT_LONGITUDE_DEGREE: 13.3800
EVENT_DEPTH_KM: 8.3
HYPOCENTER_REFERENCE: INGV-CNT_Seismic_Bulletin
MAGNITUDE_W: 6.1
MAGNITUDE_W_REFERENCE: INGV-CNT_Seismic_Bulletin
MAGNITUDE_L: 
MAGNITUDE_L_REFERENCE: 
FOCAL_MECHANISM: Normal faulting
NETWORK: IT
STATION_CODE: AQK
STATION_NAME: 
STATION_LATITUDE_DEGREE: 42.344967
STATION_LONGITUDE_DEGREE: 13.400949
STATION_ELEVATION_M: 726
LOCATION: 
SENSOR_DEPTH_M: 0.0
VS30_M/S: 705
SITE_CLASSIFICATION_EC8: B
MORPHOLOGIC_CLASSIFICATION: 
EPICENTRAL_DISTANCE_KM: 1.8
EARTHQUAKE_BACKAZIMUTH_DEGREE: 79.2
DATE_TIME_FIRST_SAMPLE_YYYYMMDD_HHMMSS: 20090406_013212.000
DATE_TIME_FIRST_SAMPLE_PRECISION: seconds
SAMPLING_INTERVAL_S: 0.005000
NDATA: 171200
DURATION_S: 856.000
STREAM: HNE
UNITS: cm/s^2
INSTRUMENT: sensor = FBA-3 [Kinemetrics] | digitizer = Etna [Kinemetrics]
INSTRUMENT_ANALOG/DIGITAL: D
INSTRUMENTAL_FREQUENCY_HZ: 212.000
INSTRUMENTAL_DAMPING: 0.700000
FULL_SCALE_G: 1.0
N_BIT_DIGITAL_CONVERTER: 18
PGA_CM/S^2: 323.820190
TIME_PGA_S: 33.245000
BASELINE_CORRECTION: BASELINE NOT REMOVED
FILTER_TYPE: 
FILTER_ORDER: 
LOW_CUT_FREQUENCY_HZ: 
HIGH_CUT_FREQUENCY_HZ: 
LATE/NORMAL_TRIGGERED: NT
DATABASE_VERSION: 0.5
HEADER_FORMAT: DYNA 1.2
DATA_TYPE: ACCELERATION
PROCESSING: converted to cm/s^2
DATA_TIMESTAMP_YYYYMMDD_HHMMSS: 20211011_155500.524
DATA_LICENSE: CC-BY3_0-IT (http://creativecommons.org/licenses/by/3.0/deed.en)
DATA_CITATION: Luzi L, Pacor F, Puglia R (2019). Italian Accelerometric Archive v 3.0 - Istituto Nazionale di Geofisica e Vulcanologia, Dipartimento della Protezione Civile Nazionale. doi: 10.13127/itaca.3.1
DATA_CREATOR: ITACA working group
ORIGINAL_DATA_MEDIATOR_CITATION: data obtained within the DPC-INGV data exchange agreements
ORIGINAL_DATA_MEDIATOR: Archive of Italian Department of Civil Protection
ORIGINAL_DATA_CREATOR_CITATION: Presidency Of Counsil Of Ministers-Civil Protection Department. (1972). Italian Strong Motion Network. Presidency of Counsil of Ministers - Civil Protection Department. https://doi.org/10.7914/SN/IT http://www.fdsn.org/networks/detail/IT/
ORIGINAL_DATA_CREATOR: network: IT (Italian Strong Motion Network (RAN)); owner: Presidency of Counsil of Ministers - Civil Protection Department (PCM - DPC)
USER1: 
USER2: 
USER3: 
USER4: 
USER5: 
[...]
0.060494
0.045045
0.054643
0.058622
0.043641
0.053004
0.049727
0.056984
0.050429
0.046216
0.057218
0.049259
0.047152
0.051600
0.056047
0.045982
0.054174
0.056281
0.051834
0.057452
0.051366
0.062601
0.049259
0.049727
0.056984
0.045045
0.059090
0.045280
0.048089
0.058388
0.046918
0.053004
0.051366
0.059324
0.054643
0.046450
0.049961
0.050663
0.053238
0.048791
0.054877
0.049493
0.047621
0.049025
0.045982
0.058154
0.046216
0.046918
0.057452
0.049025
0.056281
0.053472
0.046918
0.053706
0.056984
0.054174
0.051131
0.053004
0.049961
0.052770
0.053940
0.052536
0.057218
0.053238
0.052068
0.053706
0.052536
0.051131
0.051834
0.055579
0.051600
0.049025
0.052068
0.055813
0.053940
0.052536
0.055813
0.051834
0.047855
0.049025
0.053940
0.054174
0.054643
0.057920
0.048791
0.049493
0.058856
0.049961
0.046450
0.050897
0.053004
0.052536
0.053238
0.053004
0.047621
0.054409
0.050897
0.049259
0.058154
0.051366
0.050429
0.054877
0.056515
0.053238
0.047152
0.048791
0.050663
0.055579
0.060963
0.051600
0.050195
0.053004
0.050195
0.051366
0.049259
0.058388
0.060729
0.052068
0.052770
0.053472
0.049727
0.055813
0.061899
0.051366
0.056984
0.050897
0.051600
0.060963
0.047855
0.058622
0.057686
0.051366
0.053004
0.057920
0.056281
0.047152
0.050663
0.043641
0.049961
0.050195
0.050195
0.056750
0.047152
0.049493
0.051600
0.052770
0.055579
0.054174
0.055111
0.052536
0.048791
0.045982
0.046216
0.050195
0.046450
0.050429
0.054409
0.051131
0.057686
0.049727
0.049493
0.051600
0.052068
0.057686
0.049961
0.052770
0.048791
0.051600
0.049493
0.049961
0.055813
0.050195
0.055579
0.049259
0.048557
0.048323
0.053004
0.054877
0.052536
0.057686
0.047386
0.056281
0.050195
0.041066
0.057452
0.050663
0.050663
0.049727
0.049259
0.062133
0.053238
0.054877
0.048323
0.049961
0.061665
0.050663
0.056281
0.049727
0.052302
0.058154
0.049259
0.051600
0.052302
0.055579
0.049493
0.053706
0.062133
0.054643
0.049727
0.051131
0.050195
0.047386
0.055579
0.050195
0.051834
0.056984
0.045982
0.051600
0.053940
0.051834
0.056281
0.052302
0.046450
0.057218
0.060260
0.052068
0.052536
0.051600
0.046918
0.044811
0.053706
0.047152
0.048089
0.056047
0.050429
0.053706
0.045514
0.047386
0.055111
0.051366
0.050195
0.052068
0.055345
0.050195
0.046918
0.055579
0.058154
0.047152
0.048557
0.054643
0.050897
0.055813
0.053238
0.050897
0.055345
0.050663
0.056047
0.050663
0.046684
0.056515
0.053940
0.050897
0.045982
0.046918
0.052302
0.054409
0.052770
0.053472
0.053706
0.050429
0.053706
0.052770
0.049025
0.044109
0.054409
0.053706
0.039896
0.052068
0.054174
0.044811
0.044109
0.048089
0.050429
0.050429
0.052536
0.048791
0.054643
0.055111
0.046450
0.051834
0.047621
0.048557
0.054174
0.045514
0.052536
0.053706
0.049727
0.050897
0.046684
0.055579
0.056515
0.056515
0.054409
0.044811
0.055345
0.055579
0.048323
0.055579
0.053472
0.043641
0.049961
0.055813
0.049025
0.048323
0.049493
0.049025
0.054409
0.053004
0.055345
0.055813
0.045514
0.052536
0.053706
0.046450
0.053940
0.055345
0.054174
0.056047
0.047386
0.050663
0.056984
0.053238
0.051834
0.053472
0.060494
0.051366
0.056281
0.056515
0.046216
0.056750
0.051366
0.051834
0.053472
0.049727
0.054643
0.050429
0.048557
0.049493
0.049259
0.056750
0.053706
0.048791
0.055345
0.053472
0.053238
0.046684
0.053238
0.057452
0.049025
0.054174
0.046684
0.054643
0.055579
0.045748
0.052536
0.052068
0.052536
0.052302
0.053472
0.047621
0.049493
0.054174
0.046684
0.049259
0.050897
0.054643
0.056281
0.049259
0.054409
0.053004
0.044577
0.051366
0.058856
0.053472
0.051131
0.057452
0.055345
0.053706
0.049025
0.051834
0.052536
0.049259
0.052068
0.047621
0.058622
0.049025
0.046918
0.059324
0.049727
0.053238
0.047152
0.050195
0.059558
0.052302
0.049727
0.055111
0.049961
0.045748
0.055813
0.051834
0.050429
0.052536
0.052068
0.046684
0.045280
0.052770
0.053238
0.056281
0.053706
0.052302
0.053940
0.049259
0.052302
0.051131
0.048323
0.056984
0.052302
0.052770
0.056750
0.049493
0.047855
0.050897
0.055111
0.054409
0.056984
0.048323
0.046216
0.053004
0.050897
0.046684
0.042471
0.055579
0.055813
0.047386
0.048089
0.055345
0.053706
0.046684
0.053472
0.049025
0.047855
0.053472
0.054174
0.055345
0.055111
0.053004
0.048089
0.048557
0.053706
0.049727
0.048323
0.054643
0.050429
0.050663
0.045514
0.051366
0.058856
0.053238
0.056750
0.049259
0.055111
0.052536
0.047386
0.053940
0.045280
0.051131
0.049259
0.052068
0.055345
0.047621
0.053706
0.043173
0.048089
0.051366
0.045280
0.054643
0.047152
0.055345
0.050897
0.042237
0.051600
0.046450
0.051600
0.048557
0.049025
0.054643
0.051600
0.051366
0.053940
0.058622
0.051366
0.054877
0.054643
0.052068
0.056984
0.049727
0.054409
0.049727
0.047152
0.058388
0.052770
0.050663
0.051131
0.052302
0.055579
0.048557
0.050663
0.058388
0.052536
0.048791
0.049493
0.050429
0.053706
0.052770
0.051834
0.050195
0.047386
0.046450
0.049493
0.049025
0.052068
0.055111
0.046918
0.055345
0.056750
0.052068
0.053940
0.053472
0.055813
0.051834
0.055579
0.050663
0.053472
0.060026
0.053004
0.052302
0.049025
0.049727
0.049727
0.055813
0.054409
0.044577
0.050429
0.054877
0.051600
0.049961
0.053940
0.055345
0.054409
0.051366
0.048791
0.055579
0.056984
0.049961
0.050897
0.054409
0.052536
0.044811
0.049259
0.053472
0.046918
0.053238
0.048557
0.049961
0.056750
0.048089
0.052068
0.051600
0.053004
0.055579
0.046684
0.053238
0.053238
0.047855
0.052068
0.045982
0.055111
0.057452
0.043173
0.046684
0.050429
0.051131
0.056515
0.053238
0.049493
0.052302
0.045748
0.056047
0.053004
0.047855
0.057920
0.048323
0.050897
0.044109
0.048089
0.052068
0.051131
0.057686
0.052068
0.054877
0.050429
0.053004
0.053706
0.049025
0.053472
0.055345
0.047855
0.048323
0.055111
0.047855
0.043407
0.048323
0.051600
0.046918
0.049493
0.056750
0.051834
0.046918
0.054174
0.050195
0.043407
0.049259
0.052770
0.054174
0.048323
0.051366
0.053238
0.047621
0.057920
0.054877
0.051131
0.053472
0.050429
0.053706
0.049025
0.054877
0.055111
0.055579
0.059558
0.047621
0.053238
0.055111
0.050195
0.053238
0.055111
0.054174
0.052770
0.052068
0.053004
0.052536
0.046684
0.054174
0.053004
0.045280
0.052068
0.052536
0.051366
0.050897
0.052068
0.055111
0.048323
0.051131
0.056984
0.053472
0.052770
0.049727
0.050195
0.054174
0.050897
0.049493
0.056047
0.050195
0.054174
0.064240
0.045045
0.044109
0.055345
0.049493
0.051834
0.054409
0.050663
0.057686
0.049259
0.049493
0.056984
0.058154
0.057218
0.044109
0.065410
0.046918
0.052770
0.047152
0.054643
0.057686
0.029128
0.081562
0.009466
0.086009
0.013445
0.075943
0.086945
-0.060055
0.266481
-0.225780
0.303700
-0.214779
-0.029391
0.439229
-0.805118
1.547813
-0.231632
0.835052
0.572185
-0.914666
0.882101
-0.928008
2.638372
-1.522795
1.505445
-0.859892
-5.359533
2.426300
-4.254226
1.284477
3.515221
-0.729511
-1.124866
-0.969205
-2.162524
-3.296388
6.663073
0.041301
2.872682
2.576343
-1.827796
0.627660
-6.547234
-1.326405
-4.614703
5.032032
5.401639
-2.581286
6.136168
-4.965115
-2.788911
3.893253
-2.439436
-2.294543
3.645835
1.354934
1.244450
3.717696
-4.870080
3.579592
-0.031497
-8.581821
-1.771617
-4.655666
1.264581
5.864874
5.803547
-1.848628
-8.888227
-8.281502
-9.678701
6.383119
14.145780
7.738418
7.851243
1.339719
-9.899903
-3.586642
0.299252
-2.548983
10.796390
6.705441
-2.127647
-5.465335
-17.384951
-14.450810
3.852992
9.987887
-1.024915
10.937300
9.473154
-7.879126
-3.711404
-5.168059
2.075420
7.679899
3.123846
-7.201710
-13.757010
-4.915491
-11.045000
0.705842
18.007330
-2.909460
8.899669
8.099129
-25.460329
0.836222
4.234770
-10.758960
10.518300
14.345210
13.689330
10.826110
-0.139874
-3.333840
-9.457500
-11.876910
-9.123707
-11.526500
6.567571
3.154276
-7.826927
5.305902
-5.136458
-10.636070
3.917129
3.236437
-3.964909
4.934657
10.997920
10.996520
8.300200
9.117359
-9.780524
1.586435
13.365840
-12.936340
-2.782591
-7.908151
-6.094765
2.500970
4.031826
-5.907036
8.588347
8.978552
-15.923850
25.882580
15.282680
10.458150
18.194820
-1.774660
-16.697701
-4.588721
12.324430
-23.862061
6.201944
-7.006959
9.600492
54.569752
-15.010720
-52.193668
-80.363297
-42.277748
14.629610
28.522490
6.020769
-9.369019
19.622450
-3.038904
-4.944750
-43.941799
-24.804449
20.820921
23.088650
33.885159
-25.741220
-7.390843
-39.462749
-16.122110
41.880730
-32.222080
-9.889837
-5.050786
5.635480
9.529099
13.207600
2.816738
-24.647150
26.802959
-27.038469
-0.289449
24.688789
-2.459800
23.068750
-32.959888
-38.506550
-28.149160
3.243225
2.516653
0.013445
0.884208
-29.978701
38.990589
23.594481
-40.091251
-25.864111
-16.091909
-2.405495
39.043732
7.017464
-5.929742
28.656139
6.566166
0.719418
-11.042660
-21.821859
-31.117241
-11.159700
-32.326710
-27.329901
12.368440
-50.815430
-23.709681
24.645250
1.197401
6.534098
33.830391
5.803313
-21.636230
15.027780
4.226343
-25.325970
-30.021299
-24.898319
-45.683788
-10.288940
50.205872
11.471460
7.451441
8.078764
-47.733589
-41.201469
10.743020
7.281502
29.592911
38.166409
12.404950
35.836418
9.890512
-1.612212
-60.628601
-42.178730
37.338249
-10.370160
97.029953
61.252850
-61.035889
26.842760
-6.935566
-14.836800
62.063450
23.342150
-10.523010
25.148979
30.213209
26.653860
48.384529
52.446209
13.261440
32.861549
45.557831
-52.484390
12.893470
36.818840
-21.254690
37.590351
-9.860812
-2.004991
0.172851
-1.223646
36.387440
-69.016243
-86.720337
-69.414871
8.987915
12.680230
-64.926468
-10.197180
-57.021488
-17.014870
-37.438000
-71.655678
-7.069223
-22.850389
36.180038
-3.347884
48.800709
67.223427
19.646799
126.814903
10.100480
-45.097191
8.127920
-72.749512
9.666267
3.336855
-73.291634
49.877930
-11.824010
-87.508003
-93.981827
-153.931503
-72.516144
23.379601
117.942101
52.016220
34.412540
72.954773
-48.747841
74.172203
43.028172
-3.914582
124.735901
60.998180
53.935638
51.658779
67.550903
46.565289
66.507393
97.749260
-0.011601
32.027069
58.333691
57.006950
93.507797
62.340130
21.188181
49.961029
75.661392
28.349270
-18.707939
-26.078760
-3.626903
-36.545231
-29.693359
26.931240
-14.443080
9.755216
33.877670
-10.354710
4.762143
65.750847
57.567089
33.132141
125.837700
90.120033
72.358353
146.211899
65.416817
60.423752
54.378040
-30.499281
12.749980
25.176371
6.808903
21.659380
-33.890579
-47.863270
34.012272
26.291510
-35.206322
64.009087
54.879200
29.315769
205.735703
194.190201
180.399399
213.270599
131.923203
173.741302
117.751701
103.719101
220.769302
87.143051
118.458199
134.215698
-48.896950
23.748039
-54.257050
-70.069817
20.389280
-71.034912
-36.247719
-101.843300
-132.651199
-79.839439
-117.867599
-104.185699
-111.832703
-111.816299
-100.673401
-86.389587
-74.276161
-102.806503
-64.797020
-25.550449
-64.742249
-12.742990
38.506760
25.597000
117.258102
147.838196
64.139236
12.777600
-15.571560
-16.712681
-24.677111
-43.286621
-32.545109
-45.672550
-66.102463
11.995320
53.753521
68.051353
148.687195
59.303928
-48.783192
-40.701721
-55.193821
-68.455627
-73.167572
-8.715245
66.529846
105.016403
149.216202
144.303696
121.680199
113.081001
106.326698
112.590797
68.551804
5.531550
20.773170
-12.283260
-89.562019
-63.905430
-56.752071
-88.400528
-116.013298
-131.499496
-97.825829
-120.223900
-142.435104
-207.272202
-233.150299
-149.326996
-176.877502
-206.717697
-218.464996
-210.104797
-284.378204
-316.710388
-219.086700
-218.294601
-154.709305
-184.647202
-216.557297
-189.255203
-191.889694
-158.901398
-187.794296
-186.213394
-184.256302
-190.804993
-211.835098
-151.310501
-135.617905
-177.492401
-126.065002
-139.493500
-95.095100
-79.673477
-92.197479
-21.367750
-20.481070
-2.051104
-20.453920
-140.087097
-167.892197
-193.330399
-258.762787
-256.356110
-214.018997
-113.195999
-67.524239
-64.090347
-96.951317
-146.225494
-117.949799
-195.777206
-189.187500
-74.023354
-65.809402
-15.995240
26.106119
36.524841
53.002850
-3.908496
-52.628120
8.228807
13.094310
-28.897270
9.811628
-24.275669
-32.388039
13.314110
1.691769
16.295300
-1.645216
-51.191120
-68.129791
-74.524277
-31.101089
5.616520
11.464670
65.964798
77.978973
67.050667
80.337990
12.419230
-68.353333
-54.792381
-96.124802
-165.476303
-114.263298
-107.185402
-120.349098
-114.708801
-94.016243
-29.149839
20.020611
104.393303
146.711899
155.578400
157.171997
125.964302
109.636101
113.479599
84.512268
61.288898
145.692703
156.706696
125.390099
132.435104
79.925552
23.907209
-34.511341
-57.058701
-83.524498
-109.705399
-63.434460
-34.336262
-9.087425
40.132179
53.339451
60.397999
80.945419
111.071503
178.218903
196.203506
194.691605
209.355499
196.227798
189.449005
170.337402
233.029007
321.904999
323.820190
319.577911
304.909912
296.729492
284.140411
256.259094
233.672897
172.015900
94.744659
34.387730
-11.497240
-31.654449
-68.590446
-120.204399
-117.007896
-112.849800
-129.794800
-105.390503
-64.537430
-38.686562
-0.639627
38.644390
57.954021
78.864487
92.619263
126.423599
149.849396
157.959900
197.125000
207.847595
227.178696
241.605804
245.291306
270.544800
225.100098
147.393494
94.846024
31.052610
-9.089298
-11.666710
-44.310928
-56.494350
-55.451309
-89.947067
-96.413651
-111.175697
-118.239601
-113.346497
-134.215302
-162.045303
-184.427399
-160.129593
-98.968117
-21.568590
53.286781
128.168396
174.177597
171.951797
163.094101
151.741196
120.044502
69.604210
50.136120
18.901030
-5.698943
11.505400
15.395510
15.395040
22.277571
35.048519
35.485069
48.741020
45.620090
28.850430
40.083031
41.291561
42.260399
24.231871
1.578243
-0.009026
-17.596790
-18.104500
25.379080
64.644379
107.300301
160.536407
195.466095
201.168396
178.829605
147.007706
113.184700
71.941933
52.025341
85.034027
67.573357
40.970638
58.757370
36.035851
47.974190
48.777771
41.762520
59.879761
40.537128
29.429291
13.979580
49.758080
75.570099
70.383919
98.130096
103.921097
123.478600
101.582001
114.749496
167.346298
177.747696
191.062195
187.899796
191.292496
166.666397
117.887497
57.299541
84.810478
117.058403
67.060509
77.905479
39.367691
8.807209
-16.306089
-90.516342
-106.645599
-123.606499
-131.784607
-135.018204
-126.236801
-70.216110
-28.796379
7.447462
55.333542
61.673950
53.684711
46.664768
23.563120
4.481018
-9.851215
-13.867720
-41.228149
-48.167801
-32.579750
-60.981819
-91.059174
-84.186928
-53.117100
-54.213982
-54.166458
-55.926720
-87.687302
-119.446999
-167.029007
-181.284393
-198.300598
-200.337708
-179.559799
-215.593597
-198.399597
-168.547897
-177.680405
-186.253906
-217.039505
-237.561905
-251.909103
-233.382507
-223.220306
-209.033905
-161.004501
-136.951599
-97.506317
-73.874718
-50.395741
-14.643920
-9.499867
3.894658
40.699108
57.133579
20.632021
21.862320
44.169289
32.156509
36.398899
14.077190
-2.745842
-8.612018
-60.130951
-63.591999
13.859970
-53.815578
-127.323402
14.293710
-95.938011
-81.805679
72.257233
-87.989487
80.226570
69.669746
-71.836151
52.092758
-74.333504
-13.632010
16.804411
-34.828289
73.649742
24.161880
84.929161
133.074799
105.349503
151.720795
122.383400
128.904495
135.756393
110.616898
102.813698
69.556221
64.581177
49.811451
34.921890
46.126629
16.658110
-10.285660
-15.535980
-20.742769
-17.704929
-27.819349
-53.324959
-84.370216
-107.520103
-106.078201
-94.507339
-82.328133
-70.153610
-58.126560
-48.397430
-42.581810
-34.153210
-31.980049
-38.086151
-49.044182
-39.869808
-28.705090
-42.269321
-34.911850
-43.986031
-74.419884
-83.747101
-84.171494
-77.057907
-88.261726
-79.853951
-60.287319
-60.935001
-46.324219
-40.165920
-17.900150
10.127630
9.150598
12.381550
8.859174
-8.889163
-4.992268
6.579274
-20.823990
-43.990719
-47.164322
-62.759159
-86.943878
-97.837769
-100.341400
-133.826202
-132.567398
-104.296600
-105.861000
-75.506233
-34.444401
-1.742592
25.369480
5.003007
-8.460336
-0.900153
-14.704780
-10.301110
-15.817340
-29.159201
-27.619680
-59.699780
-59.226952
-46.866570
-69.023033
-88.355118
-123.110199
-137.293594
-160.139404
-188.315598
-161.419800
-147.172501
-156.325394
-133.807693
-103.614502
-116.074402
-120.160004
-105.516403
-125.358803
-141.133102
-138.962601
-135.716904
-116.090797
-84.596802
-82.789497
-77.778397
-45.191521
-42.105942
-23.161711
11.724960
28.514290
46.118439
54.857891
63.577461
41.422169
26.372259
32.120461
10.139330
-8.028934
-34.476700
-55.500229
-87.418114
-111.473900
-78.785629
-71.262657
-49.414249
14.288100
44.626911
39.244331
19.851839
12.352760
6.555867
13.757680
58.252930
117.703499
161.552704
174.348297
181.008698
164.041199
132.215103
116.328300
106.112099
119.878799
124.641296
141.802094
151.283096
123.923599
128.934494
98.961067
74.086304
83.076447
55.170860
60.399170
62.744610
42.035690
45.375950
55.580490
69.496773
69.192703
75.992142
78.317207
51.927731
52.846710
71.297043
60.478291
52.760571
71.432114
78.250038
45.698738
39.880310
75.528198
71.440773
48.585369
44.566280
73.682037
83.998940
57.127491
74.599854
101.347198
99.356422
97.445900
117.516998
131.723495
129.957397
128.301498
117.898300
91.734917
63.684662
64.587730
53.762192
43.185471
44.358421
27.473829
11.423940
-6.319478
-11.828220
0.512027
11.729180
15.705890
29.055241
40.123989
50.395241
52.805988
35.008030
32.286190
22.022430
3.168554
2.753070
8.451413
6.960818
20.160589
11.800340
-33.317322
-53.878078
-77.689919
-114.103500
-121.052200
-109.818703
-128.791504
-131.740402
-105.300598
-101.983002
-78.152458
-41.733761
-11.994180
2.726853
-11.885330
-10.843930
-6.510484
1.525342
36.320492
60.088089
74.286186
92.921448
108.361099
123.649498
128.889496
118.729202
110.603302
83.623947
60.209572
53.164120
20.056900
41.747540
65.322723
42.477859
64.627747
62.684219
53.955070
57.594940
46.623341
116.417503
141.034607
91.814270
135.513000
114.874702
47.924099
68.191803
46.453171
17.934059
32.903450
43.691540
42.264141
52.903831
91.585808
97.108124
82.123993
80.657509
69.768532
75.126999
71.266380
48.290199
47.251369
32.050709
17.643339
13.538350
-2.032378
-28.561600
-39.299370
-40.860889
-68.919098
-56.301701
-48.896011
-66.552353
-48.078381
-29.055269
