EVENT_NAME: L_AQUILA
EVENT_ID: IT-2009-0009
EVENT_DATE_YYYYMMDD: 20090406
EVENT_TIME_HHMMSS: 013240
EVENT_LATITUDE_DEGREE: 42.3420
EVENT_LONGITUDE_DEGREE: 13.3800
EVENT_DEPTH_KM: 8.3
HYPOCENTER_REFERENCE: INGV-CNT_Seismic_Bulletin
MAGNITUDE_W: 6.1
MAGNITUDE_W_REFERENCE: INGV-CNT_Seismic_Bulletin
MAGNITUDE_L: 
MAGNITUDE_L_REFERENCE: 
FOCAL_MECHANISM: Normal faulting
NETWORK: IT
STATION_CODE: AQK
STATION_NAME: 
STATION_LATITUDE_DEGREE: 42.344967
STATION_LONGITUDE_DEGREE: 13.400949
STATION_ELEVATION_M: 726
LOCATION: 
SENSOR_DEPTH_M: 0.0
VS30_M/S: 705
SITE_CLASSIFICATION_EC8: B
MORPHOLOGIC_CLASSIFICATION: 
EPICENTRAL_DISTANCE_KM: 1.8
EARTHQUAKE_BACKAZIMUTH_DEGREE: 79.2
DATE_TIME_FIRST_SAMPLE_YYYYMMDD_HHMMSS: 20090406_013212.000
DATE_TIME_FIRST_SAMPLE_PRECISION: seconds
SAMPLING_INTERVAL_S: 0.005000
NDATA: 20000
DURATION_S: 100.000
STREAM: HNZ
UNITS: cm
INSTRUMENT: sensor = FBA-3 [Kinemetrics] | digitizer = Etna [Kinemetrics]
INSTRUMENT_ANALOG/DIGITAL: D
INSTRUMENTAL_FREQUENCY_HZ: 204.000
INSTRUMENTAL_DAMPING: 0.700000
FULL_SCALE_G: 1.0
N_BIT_DIGITAL_CONVERTER: 18
PGD_CM: 4.137243
TIME_PGD_S: 31.055000
BASELINE_CORRECTION: BASELINE REMOVED
FILTER_TYPE: BUTTERWORTH
FILTER_ORDER: 2
LOW_CUT_FREQUENCY_HZ: 0.100
HIGH_CUT_FREQUENCY_HZ: 40.000
LATE/NORMAL_TRIGGERED: NT
DATABASE_VERSION: 0.5
HEADER_FORMAT: DYNA 1.2
DATA_TYPE: DISPLACEMENT
PROCESSING: manual (Paolucci et al., 2011)
DATA_TIMESTAMP_YYYYMMDD_HHMMSS: 20211011_155502.972
DATA_LICENSE: CC-BY3_0-IT (http://creativecommons.org/licenses/by/3.0/deed.en)
DATA_CITATION: Luzi L, Pacor F, Puglia R (2019). Italian Accelerometric Archive v 3.0 - Istituto Nazionale di Geofisica e Vulcanologia, Dipartimento della Protezione Civile Nazionale. doi: 10.13127/itaca.3.1
DATA_CREATOR: ITACA working group
ORIGINAL_DATA_MEDIATOR_CITATION: data obtained within the DPC-INGV data exchange agreements
ORIGINAL_DATA_MEDIATOR: Archive of Italian Department of Civil Protection
ORIGINAL_DATA_CREATOR_CITATION: Presidency Of Counsil Of Ministers-Civil Protection Department. (1972). Italian Strong Motion Network. Presidency of Counsil of Ministers - Civil Protection Department. https://doi.org/10.7914/SN/IT http://www.fdsn.org/networks/detail/IT/
ORIGINAL_DATA_CREATOR: network: IT (Italian Strong Motion Network (RAN)); owner: Presidency of Counsil of Ministers - Civil Protection Department (PCM - DPC)
USER1: 
USER2: 
USER3: 
USER4: 
USER5: 
[...]
-4.167327e-01
-4.167303e-01
-4.167238e-01
-4.167131e-01
-4.166983e-01
-4.166794e-01
-4.166562e-01
-4.166287e-01
-4.165971e-01
-4.165611e-01
-4.165210e-01
-4.164765e-01
-4.164277e-01
-4.163745e-01
-4.163169e-01
-4.162550e-01
-4.161886e-01
-4.161177e-01
-4.160423e-01
-4.159625e-01
-4.158781e-01
-4.157894e-01
-4.156961e-01
-4.155984e-01
-4.154962e-01
-4.153893e-01
-4.152779e-01
-4.151619e-01
-4.150411e-01
-4.149158e-01
-4.147858e-01
-4.146510e-01
-4.145116e-01
-4.143673e-01
-4.142181e-01
-4.140642e-01
-4.139054e-01
-4.137417e-01
-4.135732e-01
-4.133997e-01
-4.132214e-01
-4.130383e-01
-4.128502e-01
-4.126572e-01
-4.124592e-01
-4.122562e-01
-4.120482e-01
-4.118352e-01
-4.116172e-01
-4.113940e-01
-4.111657e-01
-4.109322e-01
-4.106937e-01
-4.104500e-01
-4.102011e-01
-4.099471e-01
-4.096878e-01
-4.094233e-01
-4.091535e-01
-4.088784e-01
-4.085981e-01
-4.083125e-01
-4.080215e-01
-4.077254e-01
-4.074239e-01
-4.071171e-01
-4.068050e-01
-4.064873e-01
-4.061642e-01
-4.058356e-01
-4.055015e-01
-4.051618e-01
-4.048166e-01
-4.044656e-01
-4.041091e-01
-4.037470e-01
-4.033792e-01
-4.030059e-01
-4.026269e-01
-4.022422e-01
-4.018518e-01
-4.014558e-01
-4.010541e-01
-4.006466e-01
-4.002333e-01
-3.998142e-01
-3.993893e-01
-3.989586e-01
-3.985221e-01
-3.980797e-01
-3.976313e-01
-3.971770e-01
-3.967167e-01
-3.962504e-01
-3.957782e-01
-3.952999e-01
-3.948156e-01
-3.943252e-01
-3.938287e-01
-3.933262e-01
-3.928175e-01
-3.923028e-01
-3.917819e-01
-3.912549e-01
-3.907216e-01
-3.901822e-01
-3.896365e-01
-3.890845e-01
-3.885263e-01
-3.879617e-01
-3.873909e-01
-3.868136e-01
-3.862299e-01
-3.856398e-01
-3.850432e-01
-3.844402e-01
-3.838307e-01
-3.832148e-01
-3.825923e-01
-3.819634e-01
-3.813279e-01
-3.806858e-01
-3.800370e-01
-3.793816e-01
-3.787196e-01
-3.780511e-01
-3.773758e-01
-3.766939e-01
-3.760051e-01
-3.753096e-01
-3.746072e-01
-3.738981e-01
-3.731822e-01
-3.724594e-01
-3.717297e-01
-3.709931e-01
-3.702495e-01
-3.694990e-01
-3.687414e-01
-3.679769e-01
-3.672053e-01
-3.664266e-01
-3.656409e-01
-3.648482e-01
-3.640482e-01
-3.632412e-01
-3.624269e-01
-3.616054e-01
-3.607767e-01
-3.599408e-01
-3.590976e-01
-3.582471e-01
-3.573894e-01
-3.565242e-01
-3.556517e-01
-3.547717e-01
-3.538842e-01
-3.529893e-01
-3.520869e-01
-3.511770e-01
-3.502594e-01
-3.493343e-01
-3.484016e-01
-3.474612e-01
-3.465132e-01
-3.455575e-01
-3.445941e-01
-3.436231e-01
-3.426442e-01
-3.416577e-01
-3.406633e-01
-3.396611e-01
-3.386511e-01
-3.376333e-01
-3.366077e-01
-3.355742e-01
-3.345328e-01
-3.334835e-01
-3.324261e-01
-3.313608e-01
-3.302874e-01
-3.292060e-01
-3.281165e-01
-3.270190e-01
-3.259133e-01
-3.247995e-01
-3.236776e-01
-3.225474e-01
-3.214090e-01
-3.202624e-01
-3.191075e-01
-3.179443e-01
-3.167729e-01
-3.155931e-01
-3.144049e-01
-3.132082e-01
-3.120029e-01
-3.107891e-01
-3.095668e-01
-3.083359e-01
-3.070964e-01
-3.058483e-01
-3.045915e-01
-3.033262e-01
-3.020522e-01
-3.007697e-01
-2.994787e-01
-2.981790e-01
-2.968705e-01
-2.955533e-01
-2.942273e-01
-2.928925e-01
-2.915488e-01
-2.901961e-01
-2.888345e-01
-2.874639e-01
-2.860843e-01
-2.846958e-01
-2.832983e-01
-2.818916e-01
-2.804759e-01
-2.790510e-01
-2.776170e-01
-2.761738e-01
-2.747216e-01
-2.732602e-01
-2.717897e-01
-2.703099e-01
-2.688209e-01
-2.673225e-01
-2.658149e-01
-2.642979e-01
-2.627715e-01
-2.612356e-01
-2.596902e-01
-2.581353e-01
-2.565710e-01
-2.549971e-01
-2.534137e-01
-2.518207e-01
-2.502182e-01
-2.486061e-01
-2.469844e-01
-2.453530e-01
-2.437120e-01
-2.420612e-01
-2.404007e-01
-2.387304e-01
-2.370503e-01
-2.353604e-01
-2.336606e-01
-2.319509e-01
-2.302313e-01
-2.285017e-01
-2.267623e-01
-2.250128e-01
-2.232533e-01
-2.214839e-01
-2.197044e-01
-2.179149e-01
-2.161154e-01
-2.143057e-01
-2.124858e-01
-2.106557e-01
-2.088154e-01
-2.069648e-01
-2.051041e-01
-2.032331e-01
-2.013518e-01
-1.994602e-01
-1.975581e-01
-1.956457e-01
-1.937228e-01
-1.917893e-01
-1.898453e-01
-1.878907e-01
-1.859255e-01
-1.839498e-01
-1.819634e-01
-1.799665e-01
-1.779588e-01
-1.759404e-01
-1.739112e-01
-1.718712e-01
-1.698205e-01
-1.677589e-01
-1.656865e-01
-1.636033e-01
-1.615093e-01
-1.594043e-01
-1.572882e-01
-1.551611e-01
-1.530230e-01
-1.508738e-01
-1.487136e-01
-1.465422e-01
-1.443596e-01
-1.421659e-01
-1.399610e-01
-1.377449e-01
-1.355174e-01
-1.332784e-01
-1.310281e-01
-1.287665e-01
-1.264937e-01
-1.242095e-01
-1.219138e-01
-1.196067e-01
-1.172880e-01
-1.149578e-01
-1.126160e-01
-1.102627e-01
-1.078979e-01
-1.055214e-01
-1.031332e-01
-1.007333e-01
-9.832155e-02
-9.589802e-02
-9.346270e-02
-9.101563e-02
-8.855681e-02
-8.608616e-02
-8.360361e-02
-8.110914e-02
-7.860275e-02
-7.608443e-02
-7.355411e-02
-7.101177e-02
-6.845742e-02
-6.589103e-02
-6.331256e-02
-6.072194e-02
-5.811911e-02
-5.550408e-02
-5.287682e-02
-5.023732e-02
-4.758557e-02
-4.492156e-02
-4.224525e-02
-3.955662e-02
-3.685565e-02
-3.414226e-02
-3.141638e-02
-2.867793e-02
-2.592694e-02
-2.316348e-02
-2.038753e-02
-1.759905e-02
-1.479797e-02
-1.198424e-02
-9.157846e-03
-6.318732e-03
-3.466886e-03
-6.023389e-04
2.274881e-03
5.164804e-03
8.067492e-03
1.098298e-02
1.391131e-02
1.685250e-02
1.980665e-02
2.277382e-02
2.575407e-02
2.874741e-02
3.175385e-02
3.477339e-02
3.780604e-02
4.085188e-02
4.391096e-02
4.698333e-02
5.006903e-02
5.316807e-02
5.628042e-02
5.940604e-02
6.254494e-02
6.569717e-02
6.886280e-02
7.204184e-02
7.523429e-02
7.844021e-02
8.165964e-02
8.489257e-02
8.813903e-02
9.139901e-02
9.467256e-02
9.795971e-02
1.012605e-01
1.045750e-01
1.079033e-01
1.112453e-01
1.146011e-01
1.179707e-01
1.213542e-01
1.247516e-01
1.281630e-01
1.315883e-01
1.350276e-01
1.384808e-01
1.419480e-01
1.454292e-01
1.489244e-01
1.524338e-01
1.559573e-01
1.594951e-01
1.630471e-01
1.666134e-01
1.701939e-01
1.737886e-01
1.773975e-01
1.810207e-01
1.846581e-01
1.883098e-01
1.919759e-01
1.956564e-01
1.993513e-01
2.030605e-01
2.067842e-01
2.105224e-01
2.142750e-01
2.180423e-01
2.218242e-01
2.256209e-01
2.294322e-01
2.332583e-01
2.370990e-01
2.409544e-01
2.448245e-01
2.487094e-01
2.526092e-01
2.565238e-01
2.604533e-01
2.643978e-01
2.683573e-01
2.723317e-01
2.763210e-01
2.803252e-01
2.843446e-01
2.883791e-01
2.924288e-01
2.964937e-01
3.005738e-01
3.046691e-01
3.087796e-01
3.129054e-01
3.170464e-01
3.212026e-01
3.253740e-01
3.295607e-01
3.337627e-01
3.379801e-01
3.422129e-01
3.464611e-01
3.507247e-01
3.550038e-01
3.592984e-01
3.636084e-01
3.679340e-01
3.722751e-01
3.766319e-01
3.810045e-01
3.853927e-01
3.897967e-01
3.942164e-01
3.986519e-01
4.031031e-01
4.075702e-01
4.120532e-01
4.165520e-01
4.210666e-01
4.255971e-01
4.301435e-01
4.347059e-01
4.392844e-01
4.438789e-01
4.484896e-01
4.531163e-01
4.577591e-01
4.624181e-01
4.670933e-01
4.717848e-01
4.764925e-01
4.812165e-01
4.859567e-01
4.907131e-01
4.954859e-01
5.002751e-01
5.050807e-01
5.099026e-01
5.147409e-01
5.195956e-01
5.244667e-01
5.293542e-01
5.342583e-01
5.391790e-01
5.441162e-01
5.490700e-01
5.540405e-01
5.590277e-01
5.640316e-01
5.690520e-01
5.740892e-01
5.791431e-01
5.842137e-01
5.893011e-01
5.944052e-01
5.995261e-01
6.046639e-01
6.098185e-01
6.149900e-01
6.201783e-01
6.253836e-01
6.306058e-01
6.358449e-01
6.411011e-01
6.463744e-01
6.516647e-01
6.569721e-01
6.622967e-01
6.676383e-01
6.729971e-01
6.783729e-01
6.837659e-01
6.891759e-01
6.946032e-01
7.000476e-01
7.055092e-01
7.109881e-01
7.164843e-01
7.219977e-01
7.275285e-01
7.330767e-01
7.386422e-01
7.442252e-01
7.498258e-01
7.554439e-01
7.610795e-01
7.667327e-01
7.724034e-01
7.780918e-01
7.837977e-01
7.895212e-01
7.952622e-01
8.010209e-01
8.067973e-01
8.125913e-01
8.184032e-01
8.242328e-01
8.300802e-01
8.359453e-01
8.418282e-01
8.477288e-01
8.536472e-01
8.595835e-01
8.655376e-01
8.715097e-01
8.774997e-01
8.835076e-01
8.895334e-01
8.955772e-01
9.016389e-01
9.077186e-01
9.138163e-01
9.199322e-01
9.260662e-01
9.322183e-01
9.383887e-01
9.445772e-01
9.507840e-01
9.570089e-01
9.632520e-01
9.695133e-01
9.757929e-01
9.820907e-01
9.884068e-01
9.947412e-01
1.001094e+00
1.007465e+00
1.013854e+00
1.020262e+00
1.026688e+00
1.033133e+00
1.039596e+00
1.046077e+00
1.052577e+00
1.059096e+00
1.065633e+00
1.072188e+00
1.078762e+00
1.085354e+00
1.091966e+00
1.098595e+00
1.105243e+00
1.111910e+00
1.118595e+00
1.125299e+00
1.132022e+00
1.138763e+00
1.145523e+00
1.152302e+00
1.159099e+00
1.165915e+00
1.172750e+00
1.179604e+00
1.186477e+00
1.193368e+00
1.200279e+00
1.207208e+00
1.214156e+00
1.221123e+00
1.228109e+00
1.235114e+00
1.242137e+00
1.249180e+00
1.256241e+00
1.263322e+00
1.270421e+00
1.277540e+00
1.284677e+00
1.291833e+00
1.299009e+00
1.306204e+00
1.313417e+00
1.320650e+00
1.327902e+00
1.335172e+00
1.342462e+00
1.349771e+00
1.357100e+00
1.364447e+00
1.371813e+00
1.379199e+00
1.386604e+00
1.394028e+00
1.401471e+00
1.408933e+00
1.416415e+00
1.423916e+00
1.431436e+00
1.438976e+00
1.446534e+00
1.454112e+00
1.461709e+00
1.469326e+00
1.476962e+00
1.484617e+00
1.492292e+00
1.499986e+00
1.507699e+00
1.515432e+00
1.523184e+00
1.530955e+00
1.538746e+00
1.546557e+00
1.554387e+00
1.562236e+00
1.570104e+00
1.577992e+00
1.585899e+00
1.593826e+00
1.601772e+00
1.609738e+00
1.617723e+00
1.625728e+00
1.633752e+00
1.641796e+00
1.649859e+00
1.657942e+00
1.666044e+00
1.674166e+00
1.682307e+00
1.690468e+00
1.698648e+00
1.706848e+00
1.715068e+00
1.723307e+00
1.731566e+00
1.739844e+00
1.748142e+00
1.756459e+00
1.764797e+00
1.773153e+00
1.781530e+00
1.789926e+00
1.798342e+00
1.806778e+00
1.815233e+00
1.823708e+00
1.832202e+00
1.840716e+00
1.849250e+00
1.857803e+00
1.866376e+00
1.874969e+00
1.883581e+00
1.892213e+00
1.900865e+00
1.909536e+00
1.918227e+00
1.926938e+00
1.935668e+00
1.944418e+00
1.953187e+00
1.961976e+00
1.970785e+00
1.979613e+00
1.988461e+00
1.997329e+00
2.006216e+00
2.015123e+00
2.024049e+00
2.032996e+00
2.041961e+00
2.050947e+00
2.059952e+00
2.068977e+00
2.078021e+00
2.087085e+00
2.096169e+00
2.105272e+00
2.114395e+00
2.123537e+00
2.132699e+00
2.141881e+00
2.151082e+00
2.160303e+00
2.169544e+00
2.178804e+00
2.188083e+00
2.197382e+00
2.206701e+00
2.216040e+00
2.225398e+00
2.234776e+00
2.244173e+00
2.253590e+00
2.263026e+00
2.272482e+00
2.281958e+00
2.291453e+00
2.300968e+00
2.310502e+00
2.320056e+00
2.329629e+00
2.339222e+00
2.348834e+00
2.358466e+00
2.368117e+00
2.377788e+00
2.387478e+00
2.397187e+00
2.406916e+00
2.416664e+00
2.426432e+00
2.436219e+00
2.446025e+00
2.455851e+00
2.465696e+00
2.475561e+00
2.485445e+00
2.495348e+00
2.505271e+00
2.515213e+00
2.525174e+00
2.535154e+00
2.545154e+00
2.555173e+00
2.565212e+00
2.575269e+00
2.585346e+00
2.595442e+00
2.605558e+00
2.615692e+00
2.625846e+00
2.636019e+00
2.646211e+00
2.656422e+00
2.666652e+00
2.676901e+00
2.687169e+00
2.697457e+00
2.707763e+00
2.718088e+00
2.728432e+00
2.738792e+00
2.749170e+00
2.759563e+00
2.769973e+00
2.780401e+00
2.790847e+00
2.801306e+00
2.811763e+00
2.822186e+00
2.832524e+00
2.842716e+00
2.852722e+00
2.862548e+00
2.872248e+00
2.881892e+00
2.891521e+00
2.901119e+00
2.910629e+00
2.920004e+00
2.929254e+00
2.938476e+00
2.947809e+00
2.957356e+00
2.967136e+00
2.977089e+00
2.987124e+00
2.997187e+00
3.007277e+00
3.017402e+00
3.027574e+00
3.037823e+00
3.048185e+00
3.058698e+00
3.069394e+00
3.080223e+00
3.091039e+00
3.101733e+00
3.112313e+00
3.122832e+00
3.133336e+00
3.143885e+00
3.154543e+00
3.165347e+00
3.176305e+00
3.187396e+00
3.198527e+00
3.209553e+00
3.220401e+00
3.231111e+00
3.241762e+00
3.252393e+00
3.262953e+00
3.273284e+00
3.283217e+00
3.292729e+00
3.302008e+00
3.311380e+00
3.321125e+00
3.331321e+00
3.341818e+00
3.352334e+00
3.362640e+00
3.372767e+00
3.383025e+00
3.393759e+00
3.405030e+00
3.416555e+00
3.427982e+00
3.439151e+00
3.450087e+00
3.460898e+00
3.471697e+00
3.482487e+00
3.493080e+00
3.503235e+00
3.512918e+00
3.522371e+00
3.531958e+00
3.541937e+00
3.552361e+00
3.563087e+00
3.573850e+00
3.584420e+00
3.594714e+00
3.604847e+00
3.615158e+00
3.626118e+00
3.638016e+00
3.650784e+00
3.664105e+00
3.677576e+00
3.690841e+00
3.703744e+00
3.716332e+00
3.728654e+00
3.740679e+00
3.752406e+00
3.763942e+00
3.775447e+00
3.786989e+00
3.798461e+00
3.809588e+00
3.820049e+00
3.829770e+00
3.839056e+00
3.848265e+00
3.857480e+00
3.866602e+00
3.875562e+00
3.884369e+00
3.893175e+00
3.902304e+00
3.912010e+00
3.922217e+00
3.932623e+00
3.942985e+00
3.953298e+00
3.963773e+00
3.974626e+00
3.985849e+00
3.997220e+00
4.008552e+00
4.019875e+00
4.031337e+00
4.042999e+00
4.054760e+00
4.066428e+00
4.077759e+00
4.088503e+00
4.098492e+00
4.107619e+00
4.115775e+00
4.122882e+00
4.128884e+00
4.133597e+00
4.136593e+00
4.137243e+00
4.134924e+00
4.129253e+00
4.120296e+00
4.108595e+00
4.094725e+00
4.078638e+00
4.059554e+00
4.036422e+00
4.008377e+00
3.975077e+00
3.936870e+00
3.894738e+00
3.850184e+00
3.804946e+00
3.760189e+00
3.715706e+00
3.670176e+00
3.622533e+00
3.573121e+00
3.523385e+00
3.474721e+00
3.427878e+00
3.383013e+00
3.339673e+00
3.296848e+00
3.253747e+00
3.210755e+00
3.169277e+00
3.130538e+00
3.094738e+00
3.061218e+00
3.029097e+00
2.997782e+00
2.967181e+00
2.937569e+00
2.909262e+00
2.882233e+00
2.855885e+00
2.829551e+00
2.803450e+00
2.778699e+00
2.756335e+00
2.736783e+00
2.720016e+00
2.705709e+00
2.693378e+00
2.682786e+00
2.674099e+00
2.667323e+00
2.661656e+00
2.655807e+00
2.648932e+00
2.640969e+00
2.632147e+00
2.622414e+00
2.611533e+00
2.599590e+00
2.587079e+00
2.574446e+00
2.561897e+00
2.549526e+00
2.537325e+00
2.525256e+00
2.513513e+00
2.502369e+00
2.491689e+00
2.480720e+00
2.468460e+00
2.454389e+00
2.438964e+00
2.423287e+00
2.408165e+00
2.393548e+00
2.378948e+00
2.364136e+00
2.349184e+00
2.334195e+00
2.319188e+00
2.303874e+00
2.287625e+00
2.269984e+00
2.251084e+00
2.231665e+00
2.213013e+00
2.196394e+00
2.182088e+00
2.169104e+00
2.155731e+00
2.140121e+00
2.120793e+00
2.097136e+00
2.069535e+00
2.038986e+00
2.006389e+00
1.971747e+00
1.933868e+00
1.890949e+00
1.841483e+00
1.784946e+00
1.722098e+00
1.654625e+00
1.584335e+00
1.512519e+00
1.439584e+00
1.365059e+00
1.288244e+00
1.209080e+00
1.128504e+00
1.048128e+00
9.694334e-01
8.929436e-01
8.180192e-01
7.432952e-01
6.674782e-01
5.902983e-01
5.125995e-01
4.351396e-01
3.575828e-01
2.785534e-01
1.962350e-01
1.092569e-01
1.740252e-02
-7.851583e-02
-1.772114e-01
-2.773099e-01
-3.776603e-01
-4.774779e-01
-5.761963e-01
-6.732657e-01
-7.681017e-01
-8.605687e-01
-9.515157e-01
-1.041861e+00
-1.130997e+00
-1.217083e+00
-1.298891e+00
-1.376608e+00
-1.451159e+00
-1.523673e+00
-1.595254e+00
-1.666051e+00
-1.734419e+00
-1.797553e+00
-1.852957e+00
-1.899475e+00
-1.937764e+00
-1.970125e+00
-1.999604e+00
-2.029072e+00
-2.060798e+00
-2.096253e+00
-2.135903e+00
-2.178977e+00
-2.223523e+00
-2.267177e+00
-2.308306e+00
-2.346767e+00
-2.384182e+00
-2.423545e+00
-2.467761e+00
-2.517931e+00
-2.572653e+00
-2.628816e+00
-2.683500e+00
-2.735627e+00
-2.786062e+00
-2.836262e+00
-2.886770e+00
-2.936774e+00
-2.984776e+00
-3.029510e+00
-3.070736e+00
-3.109694e+00
-3.148495e+00
-3.188755e+00
-3.230706e+00
-3.273343e+00
-3.315375e+00
-3.356276e+00
-3.396434e+00
-3.436557e+00
-3.476986e+00
-3.517100e+00
-3.555331e+00
-3.590205e+00
-3.621219e+00
-3.648495e+00
-3.671880e+00
-3.690579e+00
-3.703644e+00
-3.710934e+00
-3.713529e+00
-3.713090e+00
-3.710778e+00
-3.706525e+00
-3.699089e+00
-3.687051e+00
-3.669976e+00
-3.648664e+00
-3.624531e+00
-3.598907e+00
-3.572592e+00
-3.545676e+00
-3.517690e+00
-3.488009e+00
-3.456369e+00
-3.423477e+00
-3.391231e+00
-3.362222e+00
-3.339017e+00
-3.323431e+00
-3.315717e+00
-3.314366e+00
-3.316933e+00
-3.321271e+00
-3.326530e+00
-3.333313e+00
-3.342736e+00
-3.355399e+00
-3.371239e+00
-3.389974e+00
-3.411328e+00
-3.434663e+00
-3.458555e+00
-3.480948e+00
-3.499951e+00
-3.514784e+00
-3.526062e+00
-3.534922e+00
-3.541876e+00
-3.546308e+00
-3.546732e+00
-3.542064e+00
-3.533075e+00
-3.522220e+00
-3.511920e+00
-3.503148e+00
-3.495156e+00
-3.486035e+00
-3.473815e+00
-3.457738e+00
-3.438601e+00
-3.417826e+00
-3.396687e+00
-3.376325e+00
-3.357807e+00
-3.341934e+00
-3.328977e+00
-3.318323e+00
-3.308254e+00
-3.296366e+00
-3.280823e+00
-3.261627e+00
-3.240780e+00
-3.221141e+00
-3.205054e+00
-3.193856e+00
-3.188177e+00
-3.188163e+00
-3.193389e+00
-3.202969e+00
-3.216090e+00
-3.232580e+00
-3.252829e+00
-3.276979e+00
-3.304335e+00
-3.333759e+00
-3.364380e+00
-3.395863e+00
-3.428327e+00
-3.461848e+00
-3.495526e+00
-3.527130e+00
-3.554063e+00
-3.574693e+00
-3.588809e+00
-3.597106e+00
-3.600423e+00
-3.599370e+00
-3.594559e+00
-3.586938e+00
-3.577683e+00
-3.567940e+00
-3.558810e+00
-3.551396e+00
-3.546733e+00
-3.545628e+00
-3.548226e+00
-3.553711e+00
-3.560904e+00
-3.569324e+00
-3.579386e+00
-3.591701e+00
-3.606530e+00
-3.623775e+00
-3.643191e+00
-3.664728e+00
-3.688871e+00
-3.716422e+00
-3.747701e+00
-3.782042e+00
-3.817807e+00
-3.852570e+00
-3.883741e+00
-3.909769e+00
-3.930869e+00
-3.948453e+00
-3.963917e+00
-3.977960e+00
-3.990632e+00
-4.001498e+00
-4.009752e+00
-4.014729e+00
-4.016648e+00
-4.016637e+00
-4.016081e+00
-4.016310e+00
-4.018609e+00
-4.023690e+00
-4.031029e+00
-4.039167e+00
-4.046735e+00
-4.052951e+00
-4.057252e+00
-4.059059e+00
-4.058163e+00
-4.055126e+00
-4.051098e+00
-4.047146e+00
-4.043688e+00
-4.040315e+00
-4.035784e+00
-4.028192e+00
-4.015710e+00
-3.997456e+00
-3.973703e+00
-3.945439e+00
-3.913849e+00
-3.880099e+00
-3.845343e+00
-3.810696e+00
-3.777250e+00
-3.746316e+00
-3.719506e+00
-3.698140e+00
-3.682344e+00
-3.670821e+00
-3.661681e+00
-3.653330e+00
-3.644519e+00
-3.634187e+00
-3.621803e+00
-3.607803e+00
-3.593446e+00
-3.580113e+00
-3.568563e+00
-3.558468e+00
-3.548393e+00
-3.536450e+00
-3.521603e+00
-3.504514e+00
-3.486857e+00
-3.469953e+00
-3.454220e+00
-3.439474e+00
-3.425092e+00
-3.409966e+00
-3.392979e+00
-3.373756e+00
-3.352613e+00
-3.329886e+00
-3.305764e+00
-3.280748e+00
-3.255944e+00
-3.232705e+00
-3.212092e+00
-3.194659e+00
-3.180386e+00
-3.168464e+00
-3.157422e+00
-3.145965e+00
-3.133913e+00
-3.122166e+00
-3.111813e+00
-3.103445e+00
