EVENT_NAME: L_AQUILA
EVENT_ID: IT-2009-0009
EVENT_DATE_YYYYMMDD: 20090406
EVENT_TIME_HHMMSS: 013240
EVENT_LATITUDE_DEGREE: 42.3420
EVENT_LONGITUDE_DEGREE: 13.3800
EVENT_DEPTH_KM: 8.3
HYPOCENTER_REFERENCE: INGV-CNT_Seismic_Bulletin
MAGNITUDE_W: 6.1
MAGNITUDE_W_REFERENCE: INGV-CNT_Seismic_Bulletin
MAGNITUDE_L: 
MAGNITUDE_L_REFERENCE: 
FOCAL_MECHANISM: Normal faulting
NETWORK: IT
STATION_CODE: AQK
STATION_NAME: 
STATION_LATITUDE_DEGREE: 42.344967
STATION_LONGITUDE_DEGREE: 13.400949
STATION_ELEVATION_M: 726
LOCATION: 
SENSOR_DEPTH_M: 0.0
VS30_M/S: 705
SITE_CLASSIFICATION_EC8: B
MORPHOLOGIC_CLASSIFICATION: 
EPICENTRAL_DISTANCE_KM: 1.8
EARTHQUAKE_BACKAZIMUTH_DEGREE: 79.2
DATE_TIME_FIRST_SAMPLE_YYYYMMDD_HHMMSS: 20090406_013212.000
DATE_TIME_FIRST_SAMPLE_PRECISION: seconds
SAMPLING_INTERVAL_S: 0.005000
NDATA: 171200
DURATION_S: 856.000
STREAM: HNN
UNITS: cm/s^2
INSTRUMENT: sensor = FBA-3 [Kinemetrics] | digitizer = Etna [Kinemetrics]
INSTRUMENT_ANALOG/DIGITAL: D
INSTRUMENTAL_FREQUENCY_HZ: 214.000
INSTRUMENTAL_DAMPING: 0.700000
FULL_SCALE_G: 1.0
N_BIT_DIGITAL_CONVERTER: 18
PGA_CM/S^2: -353.417908
TIME_PGA_S: 32.620000
BASELINE_CORRECTION: BASELINE NOT REMOVED
FILTER_TYPE: 
FILTER_ORDER: 
LOW_CUT_FREQUENCY_HZ: 
HIGH_CUT_FREQUENCY_HZ: 
LATE/NORMAL_TRIGGERED: NT
DATABASE_VERSION: 0.5
HEADER_FORMAT: DYNA 1.2
DATA_TYPE: ACCELERATION
PROCESSING: converted to cm/s^2
DATA_TIMESTAMP_YYYYMMDD_HHMMSS: 20211011_155501.446
DATA_LICENSE: CC-BY3_0-IT (http://creativecommons.org/licenses/by/3.0/deed.en)
DATA_CITATION: Luzi L, Pacor F, Puglia R (2019). Italian Accelerometric Archive v 3.0 - Istituto Nazionale di Geofisica e Vulcanologia, Dipartimento della Protezione Civile Nazionale. doi: 10.13127/itaca.3.1
DATA_CREATOR: ITACA working group
ORIGINAL_DATA_MEDIATOR_CITATION: data obtained within the DPC-INGV data exchange agreements
ORIGINAL_DATA_MEDIATOR: Archive of Italian Department of Civil Protection
ORIGINAL_DATA_CREATOR_CITATION: Presidency Of Counsil Of Ministers-Civil Protection Department. (1972). Italian Strong Motion Network. Presidency of Counsil of Ministers - Civil Protection Department. https://doi.org/10.7914/SN/IT http://www.fdsn.org/networks/detail/IT/
ORIGINAL_DATA_CREATOR: network: IT (Italian Strong Motion Network (RAN)); owner: Presidency of Counsil of Ministers - Civil Protection Department (PCM - DPC)
USER1: 
USER2: 
USER3: 
USER4: 
USER5: 
[...]
0.089057
0.095146
0.097019
0.086950
0.094677
0.094677
0.097956
0.095848
0.089057
0.093740
0.089760
0.092804
0.093740
0.090931
0.099829
0.094209
0.087184
0.090696
0.103107
0.101000
0.089292
0.097487
0.091165
0.092101
0.093038
0.094443
0.103341
0.091165
0.091633
0.087886
0.088355
0.095146
0.089526
0.092804
0.092101
0.093506
0.093975
0.089526
0.099829
0.103107
0.085545
0.086247
0.096785
0.091399
0.090462
0.088589
0.090462
0.099829
0.097956
0.088120
0.089526
0.100297
0.094209
0.090228
0.094677
0.094912
0.097019
0.093506
0.093975
0.100532
0.096316
0.091867
0.095146
0.088355
0.090228
0.100532
0.095380
0.096785
0.102873
0.095380
0.088355
0.090931
0.095146
0.097956
0.098893
0.098424
0.094677
0.092335
0.099127
0.093975
0.097019
0.107322
0.092804
0.094677
0.096785
0.090228
0.094677
0.087418
0.098190
0.098190
0.089292
0.090696
0.088589
0.099829
0.092804
0.093975
0.089994
0.082266
0.096316
0.087886
0.098658
0.098190
0.083906
0.094677
0.094209
0.097956
0.095614
0.098658
0.098658
0.094209
0.098190
0.083437
0.091165
0.098424
0.092101
0.097253
0.096785
0.093975
0.092101
0.090228
0.085311
0.093740
0.096082
0.082500
0.093506
0.104512
0.093740
0.095614
0.100766
0.095380
0.100532
0.093740
0.080393
0.093038
0.099127
0.095380
0.097019
0.090462
0.092804
0.095614
0.090228
0.096785
0.099361
0.089057
0.086481
0.092101
0.094209
0.094912
0.096316
0.097487
0.093975
0.098190
0.096316
0.076646
0.089057
0.103810
0.093038
0.091399
0.091165
0.090696
0.088823
0.092570
0.097253
0.093740
0.091399
0.087418
0.090228
0.097019
0.096082
0.088589
0.094912
0.093038
0.084140
0.096082
0.093038
0.096785
0.107322
0.091399
0.087184
0.095848
0.092804
0.087184
0.099361
0.101937
0.087886
0.088120
0.088823
0.092101
0.099361
0.099829
0.095848
0.097956
0.099127
0.088823
0.092335
0.095614
0.090931
0.096785
0.094443
0.092101
0.092570
0.090462
0.093038
0.090696
0.091867
0.099127
0.094677
0.087652
0.094677
0.094912
0.086481
0.088589
0.093272
0.096316
0.091633
0.093740
0.098190
0.098658
0.097721
0.087652
0.092335
0.089760
0.089994
0.098424
0.089292
0.091867
0.095848
0.090462
0.090931
0.097487
0.092804
0.091867
0.097487
0.094912
0.093740
0.085076
0.090462
0.100766
0.097487
0.091633
0.091867
0.093975
0.088823
0.087184
0.090931
0.096785
0.096082
0.090931
0.088355
0.098190
0.097253
0.091399
0.096316
0.088589
0.091633
0.093506
0.089292
0.101000
0.099127
0.090228
0.091399
0.089760
0.097487
0.095848
0.089994
0.094443
0.090696
0.094443
0.089526
0.087418
0.097956
0.099595
0.094209
0.089994
0.096785
0.088589
0.086481
0.096082
0.099127
0.094209
0.083203
0.090228
0.092335
0.096785
0.097019
0.095146
0.096316
0.089760
0.093740
0.084140
0.091867
0.100297
0.086481
0.089057
0.092101
0.093272
0.090696
0.089526
0.097253
0.099361
0.089994
0.083203
0.093272
0.098190
0.094209
0.094677
0.094443
0.093975
0.096316
0.090696
0.086481
0.092570
0.095848
0.091633
0.090228
0.093038
0.095146
0.092101
0.092804
0.097956
0.087886
0.088355
0.090696
0.093272
0.097721
0.092101
0.097956
0.089526
0.094677
0.096082
0.091633
0.102639
0.090696
0.092804
0.091399
0.090462
0.099829
0.090696
0.097019
0.097019
0.095848
0.100063
0.087184
0.091165
0.093975
0.094443
0.099127
0.090696
0.094209
0.090931
0.086481
0.093975
0.093975
0.094677
0.093272
0.097253
0.093506
0.089526
0.097253
0.093740
0.094209
0.095146
0.090696
0.088120
0.095848
0.096082
0.091165
0.095146
0.088355
0.093506
0.088355
0.087418
0.098424
0.097253
0.099127
0.085545
0.086715
0.094443
0.094443
0.099127
0.091633
0.095146
0.097721
0.089057
0.093975
0.093038
0.090931
0.096082
0.086247
0.088589
0.095848
0.092804
0.091165
0.090696
0.099595
0.091165
0.090931
0.100766
0.091165
0.089994
0.093038
0.099361
0.094209
0.087652
0.089994
0.095848
0.098424
0.089292
0.094443
0.090931
0.090931
0.095848
0.089526
0.098658
0.100297
0.091867
0.087184
0.093740
0.095848
0.091399
0.093038
0.093272
0.097956
0.096082
0.089994
0.090931
0.098424
0.095380
0.085545
0.089760
0.093740
0.084374
0.089057
0.102171
0.094912
0.096316
0.097721
0.087886
0.096316
0.097019
0.087886
0.093975
0.086013
0.083437
0.091867
0.091165
0.098424
0.096082
0.094677
0.093272
0.089760
0.092101
0.093740
0.096551
0.093740
0.095848
0.094209
0.087886
0.092335
0.097487
0.094912
0.090696
0.094912
0.096316
0.088823
0.090462
0.096082
0.095614
0.097253
0.091633
0.090696
0.091867
0.090462
0.103810
0.101702
0.091867
0.103341
0.092570
0.083203
0.100766
0.091867
0.093740
0.099361
0.088823
0.089994
0.089526
0.096082
0.098190
0.107322
0.097721
0.085545
0.097956
0.087418
0.090462
0.093506
0.090696
0.099127
0.096551
0.089760
0.091633
0.098424
0.092335
0.094677
0.098424
0.092804
0.095848
0.093740
0.087886
0.098190
0.100532
0.093740
0.097487
0.094677
0.094912
0.096785
0.097956
0.093740
0.092804
0.100063
0.085779
0.090228
0.096082
0.087184
0.096551
0.093038
0.092570
0.092804
0.088823
0.095146
0.089760
0.094912
0.095848
0.082734
0.094443
0.097487
0.085076
0.096082
0.098190
0.089526
0.091399
0.089057
0.092570
0.091165
0.096082
0.097253
0.089292
0.099595
0.090931
0.085545
0.093038
0.090931
0.093038
0.089760
0.092804
0.099829
0.096785
0.094443
0.096785
0.095146
0.095614
0.096082
0.089292
0.093506
0.100532
0.094912
0.085779
0.092804
0.093038
0.083906
0.095380
0.101937
0.095146
0.089994
0.090228
0.092804
0.093038
0.093740
0.096082
0.088589
0.091633
0.097253
0.087652
0.095848
0.100297
0.095614
0.093272
0.092570
0.101234
0.094677
0.093038
0.096082
0.092101
0.095146
0.086481
0.090228
0.096551
0.089292
0.098658
0.094209
0.093272
0.100063
0.091165
0.093740
0.097487
0.099361
0.095848
0.091633
0.095614
0.096082
0.093740
0.091633
0.099127
0.102639
0.097253
0.094677
0.089994
0.089760
0.099595
0.096082
0.089526
0.096551
0.095380
0.090931
0.087652
0.096082
0.100063
0.088355
0.090931
0.092804
0.095848
0.097253
0.091633
0.099127
0.096785
0.092101
0.093038
0.091165
0.100297
0.097721
0.093038
0.094209
0.095848
0.100063
0.090696
0.097487
0.105683
0.101234
0.096082
0.085076
0.090696
0.092335
0.089760
0.095848
0.098190
0.096551
0.094443
0.093740
0.090462
0.099127
0.097487
0.090462
0.096316
0.093975
0.090696
0.088589
0.098893
0.102873
0.097487
0.095146
0.089292
0.094443
0.091399
0.087418
0.096785
0.092335
0.092101
0.097721
0.086715
0.093272
0.103107
0.099127
0.095848
0.093272
0.097019
0.093506
0.098893
0.104278
0.096082
0.090931
0.093975
0.098190
0.090931
0.090462
0.095146
0.095146
0.100297
0.093740
0.086013
0.095380
0.090931
0.090696
0.094443
0.096316
0.098424
0.085076
0.089994
0.097721
0.099127
0.093740
0.091165
0.098190
0.093975
0.094209
0.092570
0.098424
0.100297
0.089526
0.090931
0.092335
0.090931
0.099127
0.097487
0.090228
0.096551
0.086481
0.091399
0.099361
0.090931
0.101937
0.095146
0.094912
0.098658
0.089760
0.093272
0.091867
0.098190
0.097721
0.092101
0.091633
0.088589
0.095146
0.096082
0.094677
0.092101
0.091867
0.095614
0.088589
0.093038
0.097721
0.101234
0.095146
0.088120
0.091867
0.086950
0.097253
0.095614
0.096785
0.103810
0.095848
0.093272
0.091633
0.100532
0.099595
0.092804
0.095848
0.096316
0.092804
0.091633
0.094443
0.097956
0.096551
0.086013
0.083437
0.093272
0.095614
0.091165
0.092804
0.100297
0.099127
0.091399
0.094443
0.091633
0.092101
0.100766
0.089760
0.089526
0.093506
0.091633
0.096082
0.093272
0.104981
0.099829
0.088355
0.095614
0.097253
0.094912
0.083437
0.090696
0.093740
0.095848
0.094912
0.086481
0.099361
0.095614
0.092335
0.097253
0.096316
0.091399
0.090931
0.093506
0.092335
0.096316
0.095614
0.097721
0.095146
0.090462
0.094912
0.096551
0.091867
0.092335
0.089994
0.091165
0.099595
0.094677
0.095848
0.097019
0.099595
0.092804
0.086247
0.098658
0.096082
0.100766
0.098190
0.086013
0.089526
0.092335
0.095614
0.093975
0.097487
0.100297
0.087184
0.087886
0.099595
0.098190
0.091633
0.097956
0.094443
0.101234
0.100063
0.089292
0.096785
0.082969
0.104044
0.080627
0.101937
0.092804
0.079456
0.122309
0.039413
0.151815
0.045268
0.124417
0.061191
0.037540
0.288804
-0.248849
0.470988
-0.256811
0.086481
-0.131296
-0.987186
0.891088
-2.030646
0.830438
0.875867
0.534916
1.615843
-0.834508
1.017072
-4.360166
3.148015
0.049951
0.698366
7.974485
-5.781341
-0.289127
-1.046900
-2.342794
0.182257
5.824808
2.306878
-4.086890
6.978094
-6.672591
-2.863119
3.226228
3.459695
-6.823630
-5.331501
17.428850
-6.203315
-1.054159
-1.261165
-3.691377
1.470190
-8.490684
16.877150
2.252082
-8.156524
-0.399186
2.184173
1.576737
-9.262741
4.662624
-5.157279
1.175136
5.054859
-2.354737
11.602710
1.503208
-1.731846
-14.234160
-10.509930
0.010376
5.205430
23.027611
4.019595
-4.782608
-16.591780
-14.767370
9.671279
1.136732
5.543102
11.262230
1.964522
-11.045010
-10.527490
6.996593
7.288602
0.153922
-1.264443
10.333740
12.495360
-17.415119
-20.023069
11.745550
4.653726
-3.625810
13.395510
5.593917
-9.888911
-6.463009
0.746137
-12.162000
1.526390
25.407009
-5.517198
-19.360600
-9.289671
-7.826344
12.929980
3.792216
1.485411
22.064240
-11.290880
-15.647610
11.442300
4.131293
-13.953630
-8.675912
14.752530
6.760082
-2.660563
19.895361
25.645390
-15.453720
-23.793200
-7.790283
-4.668801
7.001745
5.448498
11.204850
13.012180
-4.914445
-10.196380
-1.933232
-1.362794
-10.979910
-18.399570
-6.718956
-3.886206
24.933050
13.672770
-22.196171
11.263870
3.229975
4.173210
-2.105347
-4.670909
-2.236482
-5.032467
-4.510503
-13.858550
38.150291
-3.219760
-18.106630
4.189133
-23.578470
-8.356739
18.054319
44.897179
20.579840
37.146400
2.856005
-13.567010
-16.551510
-67.700478
42.918449
60.695900
53.362179
43.817421
-19.964760
4.114199
-41.756592
-15.496340
37.586411
61.688789
42.909321
-28.801149
16.222170
3.910003
-45.488548
-45.586201
3.729224
46.124699
59.212669
5.688287
-116.196800
6.313520
102.958397
14.646680
-44.490051
-49.441330
-2.947889
-1.667683
11.540660
-0.217237
14.683910
-27.587219
-95.756340
-18.688299
-0.329638
17.150419
25.773491
-4.789867
-32.131981
-16.841881
14.002950
-3.916883
36.091000
12.392330
-41.238369
0.052995
32.307522
15.853590
-7.422636
-51.299469
-12.081210
38.299450
31.492840
58.759560
11.262700
-2.786546
43.775280
75.106941
17.740061
19.785999
65.695427
-47.852489
-23.979601
-1.688524
-43.024849
-1.360453
29.461420
33.212589
-1.052520
46.676170
42.109161
-16.921021
15.857570
8.490127
6.184258
35.073299
-0.016319
-24.628950
-24.487980
13.169770
58.791168
90.876846
134.590195
60.529881
48.882050
43.932171
-7.860299
15.452220
0.606104
62.866890
39.427212
86.627380
86.160912
-72.669792
17.096331
-81.786247
-78.942490
100.293999
9.007642
10.763210
41.413910
28.700140
24.964899
52.880959
76.594620
15.802070
12.278990
-30.014151
-79.474289
42.685680
75.907097
1.707638
90.391891
3.405133
-112.571404
49.208710
77.776001
4.713907
-69.361443
-45.083672
24.224449
-15.213460
50.526859
97.759338
85.329613
-84.302643
-163.062500
-44.698929
-94.000069
-13.592300
5.787809
5.657845
40.355228
4.014443
67.479797
-10.881560
35.969002
13.396680
-16.653370
78.457672
-63.200439
-19.556141
65.913437
67.380280
125.970001
9.871260
-47.541050
16.338320
-32.173660
31.839880
163.512497
115.194397
80.272476
19.336861
-141.452194
-235.664307
-50.460670
61.631882
33.000900
222.701202
75.261017
-10.010680
76.455276
-53.322460
26.508080
61.330040
25.756390
-69.527473
-23.687120
87.422150
29.020950
129.367996
105.670097
22.459520
-0.934733
-28.475189
6.662901
43.078152
57.560841
-27.982731
-40.201469
29.193060
87.759590
97.150726
72.005829
14.191690
-90.012863
-13.372420
21.486071
-16.407961
33.039070
42.970440
56.990410
67.781410
103.744499
36.624668
-45.529289
10.838150
12.906100
48.485359
91.174263
60.176521
64.405617
8.435565
-76.677132
-82.025803
-71.602211
-54.354210
-12.458450
-32.736610
-2.941097
148.391998
111.574600
72.110268
135.847702
0.522740
-67.149002
4.539685
37.495548
99.475800
79.176567
80.780632
103.375000
-124.402496
-96.267303
46.371510
-35.908669
35.050110
-57.286949
-114.568100
-118.758797
-189.723007
-87.266518
-74.525818
-45.001480
-117.241203
-205.644394
-188.437393
-207.295303
-164.841507
-122.890503
-51.495239
-6.239611
15.492740
50.081459
19.423269
-21.218981
70.621422
110.848999
57.676048
99.875061
90.718323
89.999657
99.057808
67.015213
23.799900
-36.588699
-41.933151
-30.580370
9.857444
76.081306
168.340393
133.438599
7.169878
-67.268433
-176.655899
-133.807007
-4.693389
112.306396
226.132294
253.322205
330.928802
287.067902
123.895897
78.260727
72.670174
87.527061
74.400917
95.848984
141.583298
85.643402
67.086403
60.678341
14.614830
-21.017820
-63.631538
-150.653397
-256.812805
-260.631012
-228.618301
-279.327789
-328.407806
-353.417908
-353.408508
-250.904007
-208.911804
-180.779099
-135.744797
-64.556282
-49.476688
-246.352493
-105.623497
-120.745300
-307.571014
-174.845306
-299.863312
-216.560196
-142.435501
-233.990906
-152.386703
-213.233398
-185.349396
-231.419495
-262.097107
-186.496094
-201.460297
-192.093307
-192.431900
-145.724899
-122.965401
-108.089996
-79.812187
-87.106583
-81.980843
-113.262398
-176.560501
-178.813004
-173.923599
-190.503693
-120.759598
-39.686291
-19.177950
-95.081230
-138.157196
-140.542007
-168.115204
-92.769737
-66.071121
-105.574799
-93.331978
26.188431
33.407650
-113.735397
-151.520599
-215.609497
-184.921600
-150.538193
-217.316803
-159.792603
-131.032806
-155.177597
-148.811905
-101.279503
-101.275497
-104.991997
-79.184860
-135.080002
-136.860794
-113.424004
-74.136864
9.621401
78.023987
184.517807
155.104004
78.061447
91.115013
53.966572
81.491570
111.064598
119.492897
165.785599
202.061996
124.259804
-61.494511
-78.803162
-126.911903
-176.996994
-82.058350
-24.060150
66.563957
129.973801
75.715073
-46.455200
-106.821297
-119.411201
-95.938988
-48.364391
-34.937801
-27.584881
-52.432850
-26.245890
-71.190071
-128.603500
-53.489422
-17.807119
-14.190140
33.176060
111.065300
109.803902
94.291519
112.123497
84.580742
69.725723
28.396891
-35.525330
-73.735497
-112.682602
-129.879807
-104.327003
-105.836197
-118.299400
-43.507000
-1.689461
-15.230090
69.883781
178.421402
183.952301
136.631302
156.061493
218.455994
231.212601
222.171997
204.488205
175.561996
178.604507
241.739502
291.597198
274.880615
221.892700
144.569595
104.551697
77.728470
36.623730
18.427820
26.759569
74.043114
108.050201
148.912003
173.174393
125.167000
76.303078
35.417290
18.598061
-9.135118
-36.251732
-21.037491
-32.677601
-1.622020
45.126900
63.927681
82.585854
39.207329
43.108360
111.513802
122.492996
113.545601
146.110397
205.034302
232.625397
229.659607
238.564804
243.199799
243.036499
235.093994
223.768402
227.409897
209.972504
201.207001
175.425201
118.262299
86.243111
62.379349
72.636917
80.780167
95.646187
132.727203
140.880493
127.156097
96.383133
102.556297
113.428802
133.452896
160.275101
138.251007
127.258202
128.490601
121.519600
79.569740
38.972462
23.292459
-19.846741
-51.525909
-49.758629
-20.954130
18.456150
50.014259
63.636608
32.993401
20.368380
16.111410
-13.125370
-35.065891
-87.623863
-70.666473
-88.491463
-153.866196
-68.383781
-24.196440
59.175442
174.887802
163.175797
143.647903
90.620667
87.325912
80.743401
42.482658
64.403511
49.293251
30.728750
-12.596610
-97.243080
-119.033302
-96.827431
-114.503304
-125.752296
-94.383636
-72.725288
-50.005920
-56.423569
-7.397580
63.484161
1.191528
-38.347080
-25.654381
-12.427080
62.549358
92.887207
90.239212
132.536804
83.333321
10.163270
20.609341
31.423759
33.904091
20.860371
29.356750
49.765572
51.533081
31.193810
12.112030
38.933578
37.093948
30.070030
34.383900
32.750340
38.250038
27.222530
34.296089
30.925220
-0.430565
-7.288223
-25.177139
-71.199203
-92.480309
-113.249496
-136.237503
-128.842896
-88.386551
-47.917351
-51.065769
-52.726501
-75.895241
-123.795303
-142.268997
-145.322601
-119.025101
-102.228302
-86.535912
-75.715401
-87.215469
-68.145401
-102.083099
-126.762703
-111.806297
-111.834702
-68.897552
-42.695141
-11.233040
-16.057171
-55.198631
-72.973740
-110.125504
-108.084396
-101.735603
-77.658073
-47.038280
-27.762609
10.952420
-1.545915
-19.614441
-56.806900
-57.685741
-15.252800
-52.196812
-33.319450
-19.487989
16.986971
36.350689
-1.251096
57.185471
-172.264496
-94.049011
237.009506
-74.940063
-6.461136
144.442703
-85.031372
34.607071
-80.880951
-115.344200
9.779231
-88.282349
31.352341
18.372089
-18.385290
34.642891
-20.481810
28.250759
22.217621
12.506370
40.157822
26.429390
58.090069
55.566181
77.404846
113.103798
92.785583
120.209602
120.853104
66.382011
33.531288
8.696898
-15.240160
-54.975700
-66.911324
-64.049301
-99.916130
-134.795700
-148.965805
-137.414200
-114.925201
-100.582298
-103.308296
-118.353203
-129.296402
-131.123703
-139.658005
-161.317703
-162.600494
-162.773102
-166.638504
-165.933502
-168.977402
-181.775299
-230.131500
-216.991592
-147.869598
-133.609894
-96.178780
-35.449230
-36.621719
-47.065910
-26.148951
-9.810699
10.842600
32.430462
41.056561
49.277088
41.635670
38.595440
51.083481
83.612450
116.460098
148.031296
163.756302
115.305901
97.224960
79.161583
8.676994
-34.815102
-26.764111
12.459300
20.352461
58.395889
96.864342
91.556648
118.265297
96.782379
64.759453
54.999962
44.235420
73.498428
46.828609
1.315638
0.832312
-5.350001
-1.867196
-12.036710
-3.727205
43.376949
50.390800
36.466370
19.783661
20.372129
50.145859
49.541229
70.355873
91.533707
62.005379
40.210979
16.023359
-7.924696
-46.447941
-81.752289
-100.245102
-129.598099
-124.902702
-118.384399
-106.878502
-75.674652
-64.859528
-54.857208
-43.515202
-24.599680
-2.014020
39.994370
92.099457
111.124298
128.774902
134.383896
119.192200
110.532402
115.654800
132.788300
127.357201
103.289703
91.124840
70.413712
40.930580
46.403130
39.260719
13.152910
42.338879
70.016792
41.063820
8.087355
20.471420
31.771040
17.086260
10.960620
-4.500199
-31.559669
-75.208656
-117.021301
-119.041901
-119.493401
-109.007301
-57.262829
-16.016190
1.342567
-5.857212
-28.237511
-25.950371
5.049238
61.392792
113.012199
152.885406
166.404800
156.667801
