EVENT_NAME: L_AQUILA
EVENT_ID: IT-2009-0009
EVENT_DATE_YYYYMMDD: 20090406
EVENT_TIME_HHMMSS: 013240
EVENT_LATITUDE_DEGREE: 42.3420
EVENT_LONGITUDE_DEGREE: 13.3800
EVENT_DEPTH_KM: 8.3
HYPOCENTER_REFERENCE: INGV-CNT_Seismic_Bulletin
MAGNITUDE_W: 6.1
MAGNITUDE_W_REFERENCE: INGV-CNT_Seismic_Bulletin
MAGNITUDE_L: 
MAGNITUDE_L_REFERENCE: 
FOCAL_MECHANISM: Normal faulting
NETWORK: IT
STATION_CODE: AQK
STATION_NAME: 
STATION_LATITUDE_DEGREE: 42.344967
STATION_LONGITUDE_DEGREE: 13.400949
STATION_ELEVATION_M: 726
LOCATION: 
SENSOR_DEPTH_M: 0.0
VS30_M/S: 705
SITE_CLASSIFICATION_EC8: B
MORPHOLOGIC_CLASSIFICATION: 
EPICENTRAL_DISTANCE_KM: 1.8
EARTHQUAKE_BACKAZIMUTH_DEGREE: 79.2
DATE_TIME_FIRST_SAMPLE_YYYYMMDD_HHMMSS: 20090406_013212.000
DATE_TIME_FIRST_SAMPLE_PRECISION: seconds
SAMPLING_INTERVAL_S: 0.005000
NDATA: 20000
DURATION_S: 100.000
STREAM: HNE
UNITS: cm/s^2
INSTRUMENT: sensor = FBA-3 [Kinemetrics] | digitizer = Etna [Kinemetrics]
INSTRUMENT_ANALOG/DIGITAL: D
INSTRUMENTAL_FREQUENCY_HZ: 212.000
INSTRUMENTAL_DAMPING: 0.700000
FULL_SCALE_G: 1.0
N_BIT_DIGITAL_CONVERTER: 18
PGA_CM/S^2: 323.731934
TIME_PGA_S: 33.245000
BASELINE_CORRECTION: BASELINE REMOVED
FILTER_TYPE: BUTTERWORTH
FILTER_ORDER: 2
LOW_CUT_FREQUENCY_HZ: 0.100
HIGH_CUT_FREQUENCY_HZ: 40.000
LATE/NORMAL_TRIGGERED: NT
DATABASE_VERSION: 0.5
HEADER_FORMAT: DYNA 1.2
DATA_TYPE: ACCELERATION
PROCESSING: manual (Paolucci et al., 2011)
DATA_TIMESTAMP_YYYYMMDD_HHMMSS: 20211011_155501.018
DATA_LICENSE: CC-BY3_0-IT (http://creativecommons.org/licenses/by/3.0/deed.en)
DATA_CITATION: Luzi L, Pacor F, Puglia R (2019). Italian Accelerometric Archive v 3.0 - Istituto Nazionale di Geofisica e Vulcanologia, Dipartimento della Protezione Civile Nazionale. doi: 10.13127/itaca.3.1
DATA_CREATOR: ITACA working group
ORIGINAL_DATA_MEDIATOR_CITATION: data obtained within the DPC-INGV data exchange agreements
ORIGINAL_DATA_MEDIATOR: Archive of Italian Department of Civil Protection
ORIGINAL_DATA_CREATOR_CITATION: Presidency Of Counsil Of Ministers-Civil Protection Department. (1972). Italian Strong Motion Network. Presidency of Counsil of Ministers - Civil Protection Department. https://doi.org/10.7914/SN/IT http://www.fdsn.org/networks/detail/IT/
ORIGINAL_DATA_CREATOR: network: IT (Italian Strong Motion Network (RAN)); owner: Presidency of Counsil of Ministers - Civil Protection Department (PCM - DPC)
USER1: 
USER2: 
USER3: 
USER4: 
USER5: 
[...]
0.015578
0.015235
0.014692
0.014922
0.014425
0.012795
0.012565
0.014145
0.014924
0.014051
0.013477
0.013621
0.013091
0.012711
0.013582
0.014289
0.014488
0.015520
0.016926
0.017659
0.018291
0.019098
0.018696
0.016738
0.015234
0.015143
0.015340
0.014776
0.013925
0.014276
0.015249
0.015395
0.016001
0.018137
0.019457
0.017671
0.014617
0.013622
0.014759
0.016031
0.016608
0.016306
0.014874
0.013274
0.013215
0.014758
0.015709
0.015162
0.015333
0.017124
0.018723
0.018793
0.017528
0.016886
0.018429
0.020301
0.020143
0.018603
0.017446
0.017372
0.018221
0.019472
0.020602
0.021028
0.020464
0.019631
0.019144
0.018810
0.018847
0.019516
0.019746
0.018778
0.018121
0.019212
0.020926
0.021726
0.021694
0.020859
0.018874
0.017114
0.017600
0.020030
0.022415
0.023248
0.022074
0.020414
0.020422
0.020883
0.019479
0.017830
0.018453
0.020445
0.021713
0.021577
0.020586
0.019913
0.020037
0.020602
0.021598
0.022370
0.022134
0.022243
0.023624
0.024118
0.021946
0.019004
0.018588
0.021569
0.025443
0.026620
0.024544
0.022127
0.021121
0.020788
0.021182
0.023538
0.026912
0.028044
0.026083
0.023586
0.022677
0.024000
0.026769
0.028339
0.027327
0.025342
0.024450
0.025122
0.026121
0.026758
0.027369
0.027190
0.026356
0.026740
0.027685
0.026488
0.023169
0.020231
0.019416
0.020739
0.023058
0.024888
0.024945
0.023522
0.022856
0.024160
0.026361
0.028069
0.028669
0.027900
0.025662
0.022735
0.020799
0.020684
0.021569
0.022814
0.024714
0.026934
0.028353
0.028037
0.026272
0.025075
0.025996
0.028036
0.028954
0.027999
0.026444
0.025499
0.025259
0.025695
0.026950
0.028415
0.029015
0.028186
0.026272
0.024897
0.025667
0.028060
0.030176
0.030928
0.030463
0.029461
0.027966
0.026071
0.025762
0.027569
0.028572
0.027733
0.027761
0.030394
0.033312
0.033198
0.030505
0.028893
0.030416
0.032798
0.033019
0.031552
0.030764
0.031403
0.031829
0.031029
0.030454
0.030867
0.031268
0.032079
0.034372
0.036109
0.034676
0.031487
0.029363
0.028977
0.029906
0.031325
0.032355
0.032721
0.032049
0.030911
0.031138
0.032816
0.034162
0.033824
0.032424
0.032741
0.035563
0.037475
0.036298
0.033630
0.031029
0.029242
0.029163
0.030134
0.031014
0.032396
0.034156
0.034389
0.032554
0.030830
0.031457
0.033446
0.034411
0.034576
0.035027
0.034858
0.033870
0.034316
0.036362
0.036668
0.034618
0.033608
0.034949
0.036758
0.037516
0.037221
0.036857
0.037102
0.037410
0.036780
0.035559
0.035760
0.037499
0.037758
0.035253
0.032745
0.033170
0.035986
0.038428
0.039151
0.038823
0.038349
0.038244
0.038175
0.037015
0.035258
0.035156
0.036269
0.035891
0.034989
0.035821
0.036197
0.034271
0.032852
0.034111
0.036485
0.037971
0.038558
0.039382
0.040359
0.039987
0.038297
0.036993
0.036895
0.037551
0.038082
0.038547
0.039592
0.040252
0.039385
0.038281
0.039268
0.042467
0.045136
0.044711
0.041963
0.040343
0.041309
0.042665
0.042964
0.042353
0.040562
0.039104
0.040061
0.041612
0.041112
0.039623
0.039450
0.041058
0.043452
0.045334
0.045595
0.043981
0.042183
0.041803
0.042047
0.042553
0.044272
0.046353
0.046724
0.045013
0.043359
0.043938
0.045620
0.046141
0.046231
0.047392
0.048605
0.048676
0.047899
0.046579
0.045554
0.045644
0.046013
0.045956
0.045899
0.046082
0.045923
0.044790
0.043485
0.043721
0.045791
0.047741
0.047922
0.047531
0.047944
0.047942
0.046720
0.046243
0.047689
0.048915
0.048183
0.046883
0.047005
0.048110
0.048074
0.046992
0.046980
0.048177
0.049146
0.049115
0.048092
0.047097
0.047084
0.047120
0.046498
0.046743
0.048825
0.051124
0.051769
0.051067
0.049898
0.048278
0.047686
0.049786
0.052433
0.053069
0.053015
0.053677
0.053623
0.052010
0.050437
0.050112
0.050229
0.050027
0.050210
0.051246
0.051816
0.051311
0.051591
0.052862
0.052744
0.051065
0.050509
0.052485
0.054716
0.054735
0.053486
0.052301
0.051245
0.051321
0.052724
0.053726
0.053783
0.053285
0.051714
0.049751
0.049870
0.052687
0.055880
0.057276
0.056846
0.055766
0.054784
0.054061
0.053649
0.053713
0.054697
0.056270
0.057378
0.057635
0.056638
0.054475
0.053338
0.054953
0.057906
0.059363
0.057880
0.055014
0.053834
0.054371
0.053793
0.052239
0.053097
0.056251
0.057533
0.056284
0.056051
0.057415
0.057768
0.056784
0.055857
0.055420
0.056064
0.058197
0.060613
0.061775
0.061003
0.058715
0.056728
0.056570
0.057352
0.057740
0.058235
0.058899
0.058325
0.056708
0.056656
0.059470
0.062741
0.063647
0.062495
0.061321
0.060812
0.060170
0.059174
0.058231
0.057655
0.058030
0.059542
0.061250
0.061770
0.060616
0.058541
0.057001
0.057058
0.058124
0.059270
0.060516
0.061695
0.061701
0.059896
0.058032
0.058053
0.059213
0.060029
0.060565
0.061593
0.062786
0.063394
0.064146
0.065618
0.066521
0.066183
0.065701
0.065749
0.065977
0.065822
0.064969
0.063638
0.062839
0.063839
0.065699
0.065942
0.064813
0.064535
0.065204
0.065243
0.064971
0.066028
0.067295
0.066336
0.064058
0.063277
0.064613
0.066397
0.066958
0.065915
0.063921
0.062148
0.061731
0.062864
0.064792
0.066341
0.066764
0.067088
0.068438
0.069559
0.069387
0.069064
0.069381
0.069649
0.069313
0.068742
0.069028
0.070692
0.071973
0.070842
0.068081
0.066032
0.066161
0.068163
0.069626
0.068506
0.066663
0.067043
0.068631
0.069160
0.069408
0.070660
0.071691
0.070946
0.069450
0.069606
0.071304
0.071901
0.070891
0.070311
0.070159
0.068804
0.067229
0.067415
0.068546
0.069011
0.068957
0.069299
0.070330
0.071003
0.070639
0.070477
0.071363
0.072197
0.071820
0.071038
0.071011
0.070908
0.069955
0.069441
0.070839
0.072843
0.072101
0.068836
0.067353
0.069464
0.072858
0.074698
0.073972
0.071943
0.070683
0.071254
0.072769
0.073611
0.073853
0.073770
0.072361
0.069859
0.068386
0.069397
0.072172
0.074939
0.076385
0.076185
0.075148
0.074420
0.074259
0.074202
0.074388
0.074879
0.074513
0.073372
0.073053
0.072843
0.071158
0.069637
0.070159
0.071471
0.072602
0.074319
0.075755
0.075446
0.074473
0.073674
0.072161
0.071052
0.072454
0.075019
0.075884
0.075116
0.074564
0.074961
0.076380
0.078136
0.078541
0.077467
0.076407
0.075924
0.075776
0.076323
0.077976
0.080030
0.080946
0.079767
0.077759
0.077018
0.077292
0.077580
0.078244
0.079088
0.079128
0.078474
0.077902
0.077336
0.076536
0.076304
0.076664
0.076249
0.075495
0.075989
0.077072
0.077483
0.077687
0.078033
0.077773
0.077371
0.078366
0.080036
0.080117
0.078503
0.077171
0.077275
0.077867
0.077901
0.077945
0.078726
0.080482
0.082379
0.081438
0.077382
0.074953
0.076123
0.078023
0.079095
0.079875
0.080323
0.079712
0.078600
0.079295
0.081972
0.083359
0.082211
0.081201
0.081054
0.079765
0.078072
0.078196
0.078914
0.078283
0.077229
0.076079
0.074706
0.075008
0.078602
0.082116
0.083614
0.086509
0.084656
0.071422
0.045340
0.016362
0.002254
0.038446
0.207870
0.460362
0.595443
0.507158
0.224661
-0.028543
0.052596
0.436718
0.723968
0.582392
-0.161484
-1.328371
-2.044039
-1.781857
-0.743440
0.701919
1.437083
0.645061
-0.829691
-1.898535
-1.848814
-0.224310
1.884141
2.831101
2.553617
1.570193
-0.069834
-2.117284
-3.670358
-3.427618
-0.914005
2.194581
3.415929
2.422097
0.479773
-1.128391
-1.266527
-0.620230
-0.509076
-0.123045
1.130108
2.058483
1.881202
1.012726
0.396915
-0.113219
-1.867198
-4.209276
-4.709629
-2.413618
1.670378
4.800422
3.774932
-1.563940
-7.470538
-9.293447
-4.686854
3.919487
10.378211
10.844490
6.273588
-0.287685
-4.976911
-5.238970
-1.942496
2.842466
6.541814
5.701997
-0.551847
-8.831178
-13.329493
-9.824910
-1.232009
5.282445
7.678145
7.551519
4.084132
-1.800112
-5.097842
-2.981372
2.075171
4.721978
1.458877
-5.379626
-10.245446
-10.262034
-5.505219
1.991370
7.509599
8.224760
4.783194
-1.882211
-7.259036
-6.743834
-3.248363
0.690707
6.762008
12.730308
13.865258
9.465583
2.368803
-4.397423
-9.270733
-11.538507
-10.298831
-5.449539
-0.159797
1.526313
0.093217
-2.074238
-4.069386
-3.971518
-1.459912
0.405489
1.535429
4.723936
9.105955
11.046361
8.729767
3.620848
0.356761
1.189327
1.346703
-2.466606
-6.407324
-6.789011
-3.938297
-0.437310
1.391036
2.201734
2.518127
1.925980
4.181427
11.119369
16.695885
16.075794
9.285384
-0.697424
-6.573938
-5.443089
-4.345616
-6.643041
-5.576940
5.364044
20.957462
20.640696
-9.160046
-48.698250
-62.238323
-38.315788
-1.364590
17.289688
13.966070
7.212358
5.123040
-1.644344
-16.980906
-26.891935
-16.197844
8.613661
24.330614
17.201889
-4.500697
-21.986925
-22.187143
-8.146113
1.078502
-4.333608
-10.549170
-5.980912
3.962559
10.125764
8.191932
1.157502
-3.671311
-5.144216
-4.541464
1.700737
10.962582
12.412218
-0.240200
-20.677382
-31.834276
-23.947004
-7.340112
1.775815
-0.607731
-4.378068
2.329800
12.562292
5.948195
-15.378827
-26.621237
-16.299526
4.103416
16.430351
15.089732
11.374665
11.998320
9.863959
0.619475
-11.527757
-20.864874
-24.526848
-24.331650
-22.193462
-19.167679
-20.299892
-23.160006
-15.708750
0.002459
11.474436
16.539993
15.255335
6.931261
0.537503
0.489538
-3.468875
-16.221764
-29.897663
-36.154057
-27.460979
-2.704079
20.969175
25.357782
11.229424
-11.794586
-30.289740
-28.680866
-8.225364
14.126567
27.272343
30.976582
29.844589
24.952230
9.370316
-17.816376
-37.714680
-29.822912
2.145842
38.279762
54.880314
36.775002
4.159023
-10.537397
-3.935465
12.789337
26.062660
23.389246
13.988033
14.987619
25.293505
36.238056
42.734352
41.436386
35.336483
26.696089
11.292076
-2.177101
0.339729
10.152138
13.135810
9.250659
2.435957
-0.869493
4.670614
8.911429
-8.974517
-47.418789
-70.278214
-52.839352
-19.818571
-9.720922
-22.788879
-34.426064
-36.107918
-37.153130
-42.715412
-43.031120
-28.814278
-7.277280
10.125935
23.621506
38.515091
54.722073
67.263809
61.372356
27.757050
-11.886667
-31.599550
-30.044575
-20.719732
-14.753978
-7.356430
-0.815263
-19.941217
-69.115967
-115.470757
-119.490860
-64.931213
18.227900
73.022324
76.392647
52.196648
28.148808
18.845472
25.346037
36.724964
52.037907
69.438850
72.684593
62.099663
54.609310
55.905834
62.791843
67.542618
57.586239
37.977165
32.639072
48.472523
68.038742
72.582764
59.794952
48.146809
50.459305
49.890717
28.232725
-2.211772
-20.326090
-25.540421
-24.382074
-15.501314
-2.712250
6.232347
10.606066
9.970983
8.948966
19.641165
39.087429
54.973015
70.038681
86.691757
97.574654
103.372322
103.156189
88.475838
60.570274
28.590446
6.221320
4.780028
14.583318
14.964409
-1.161110
-19.176111
-17.429581
-0.165981
9.998269
13.836635
25.063698
48.269699
92.471069
151.852875
193.498672
201.072723
186.458679
164.003571
142.978943
133.056931
139.733292
148.222229
140.855774
117.286690
75.959587
22.739708
-20.393864
-40.692619
-39.241459
-30.920542
-37.296467
-62.595005
-92.163925
-108.242073
-108.599808
-106.530373
-108.731232
-110.935829
-108.048225
-99.279152
-90.417175
-86.301826
-80.590508
-67.010468
-52.116100
-38.160660
-15.748441
18.911259
63.437363
105.168800
113.927498
77.365944
24.799917
-10.208524
-23.620691
-28.888201
-35.165085
-44.350174
-50.888638
-39.344955
-1.210890
51.389374
94.906975
100.547302
55.843887
-7.855746
-50.183578
-67.905357
-71.910690
-54.666084
-7.587318
55.681370
110.230659
139.576645
141.780289
129.057465
117.621445
110.521538
95.618340
66.067337
32.491821
2.353055
-29.342007
-56.680080
-68.111481
-73.763153
-89.628281
-108.779083
-115.086388
-112.786880
-123.819122
-157.450348
-192.507233
-200.477158
-186.280121
-180.051544
-191.753937
-212.539719
-242.399857
-274.148468
-279.685577
-247.599380
-203.637878
-179.831131
-183.810440
-196.380707
-196.542999
-185.074661
-176.435684
-177.704330
-184.361481
-191.492096
-194.857605
-186.188568
-167.496445
-154.338181
-149.988388
-142.203537
-125.664154
-106.299675
-88.467888
-66.640518
-36.727894
-10.554335
-9.600061
-46.478569
-108.079590
-168.047043
-216.244492
-248.669693
-246.736191
-199.126312
-128.710373
-77.481445
-68.849335
-92.618782
-125.907700
-157.057144
-174.807983
-159.127701
-111.234444
-56.987553
-11.423564
23.653515
40.521694
29.690691
0.683366
-17.374359
-12.417893
-3.162618
-4.067597
-11.714559
-18.612474
-16.089931
-2.498411
10.572097
9.459990
-11.545819
-43.874641
-66.623138
-63.799099
-38.330696
-4.918086
27.604292
56.722549
76.596245
79.225716
57.043484
11.790078
-37.628750
-77.416611
-109.822701
-129.329285
-128.419785
-120.116234
-117.674988
-111.942802
-86.266350
-35.941486
30.358509
95.623947
141.266968
158.240311
151.409302
133.330719
114.368164
96.688454
85.282776
94.445450
122.737267
144.840439
143.653214
120.321236
78.267891
24.841740
-25.905523
-64.834923
-88.910385
-92.281181
-72.290718
-37.852909
-0.804668
30.162851
49.834549
63.339191
84.855064
121.702110
163.351578
192.621918
204.338425
202.877914
191.976212
182.026352
194.979385
240.585022
294.566559
323.731934
323.137268
309.884735
296.328857
282.310577
261.179504
224.297607
167.494659
99.740311
38.590061
-6.570019
-41.831497
-75.797241
-104.619911
-120.408882
-124.847244
-120.207069
-102.433662
-72.003464
-35.755875
0.761544
33.108486
58.056747
77.978462
98.711121
121.997482
145.122330
167.352737
189.295532
209.218903
226.489777
243.119156
256.613739
253.208755
218.612320
157.621521
90.564995
35.000458
-1.958708
-24.104677
-39.576313
-52.793823
-66.790955
-83.351883
-98.963028
-108.907875
-113.763763
-121.241409
-139.566269
-164.317978
-176.029037
-155.669083
-100.660843
-24.037199
56.600307
124.172310
164.915146
176.523743
168.013718
146.847427
115.228111
78.272224
43.787086
17.621243
4.697698
5.138748
11.352651
17.378519
23.866993
31.911091
39.609856
43.315109
41.239967
37.756527
38.397614
40.669109
36.823582
24.084978
7.028799
-8.536935
-16.638138
-8.579617
19.810593
62.924309
112.271515
158.966278
190.806076
197.884308
180.378784
146.676895
107.992638
77.865303
66.186668
66.484367
63.547653
54.700455
47.064697
43.777149
44.157913
46.916531
49.947933
48.770546
39.511505
28.192371
28.378731
43.877628
64.159203
80.916885
94.976830
105.492645
109.112335
111.984535
126.810829
153.328659
177.592102
191.270416
194.892090
185.275497
155.821259
113.949715
85.066116
82.888290
90.150406
86.006004
68.838776
43.476910
10.056298
-31.770338
-75.020714
-107.862144
-126.802765
-136.136978
-134.730698
-115.369720
-77.400345
-30.604195
13.714825
46.327679
60.593655
57.387016
43.275200
24.582722
6.435395
-8.875489
-22.619577
-33.936676
-40.678967
-48.677288
-64.455528
-78.982140
-78.198517
-64.776390
-52.784000
-50.815300
-61.892464
-87.551292
-123.663284
-159.338425
-184.250427
-195.277740
-197.427460
-198.923477
-199.714783
-192.316147
-179.968475
-177.101044
-190.872543
-215.001495
-236.686539
-245.610214
-240.398376
-224.948349
-200.633316
-168.589935
-133.902863
-101.493103
-72.508339
-46.561234
-24.659447
-5.759880
14.782798
33.974667
40.281452
34.066387
29.880266
33.351868
36.144894
31.090734
17.834740
-2.049810
-25.645153
-41.426201
-39.992870
-37.599979
-50.789219
-63.973972
-65.413651
-60.539642
-44.335506
-17.787233
9.999494
31.846188
30.537855
6.420264
-17.134768
-27.455725
-23.287136
-9.630471
7.907215
29.081846
54.363674
83.860077
111.102531
127.407845
133.111969
133.160614
131.392303
126.859329
115.200584
96.667969
76.804626
60.685787
49.969669
42.873859
33.252125
16.003866
-3.611703
-15.656749
-18.635572
-20.759668
-32.019974
-55.393700
-83.095299
-102.310783
-105.912979
-97.049850
-83.427917
-70.132347
-58.636147
-48.886688
-40.727135
-35.385822
-35.242729
-39.539635
-42.484989
-40.183796
-35.905006
-34.526451
-38.929333
-51.293961
-68.276772
-80.744530
-84.818977
-84.712036
-82.775909
-76.803612
-67.528412
-58.467808
-49.061337
-35.123692
-15.902532
2.203866
11.694061
11.191322
4.834810
-0.669388
-2.231121
-6.208746
-18.913404
-36.031815
-51.595551
-66.515358
-81.960159
-96.964966
-112.183449
-124.676910
-126.978951
-117.628036
-99.512291
-71.468758
-35.142529
-2.394653
13.019670
9.657283
-0.617011
-7.565312
-10.532105
-12.790390
-17.245646
-25.804613
-38.178127
-49.513058
-54.416782
-57.212154
-68.341858
-90.354767
-117.144333
-143.115585
-164.065430
-173.163574
-168.342026
-157.449905
-145.350510
-130.525253
-117.284050
-111.751907
-112.014297
-116.124847
-125.756783
-136.889603
-140.630478
-132.066956
-113.950317
-95.066628
-81.245338
-69.357300
-55.361671
-38.745823
-18.084997
6.193149
29.176813
46.668415
56.153591
55.022804
45.240192
34.089306
24.253990
11.139847
-8.397319
-33.435551
-61.754772
-86.954941
-98.527824
-92.022362
-70.227951
-34.905670
6.399881
34.904896
38.641071
25.011246
9.617350
5.238165
21.678238
61.479298
112.674812
155.546112
177.716476
177.841583
160.736084
136.178955
116.596527
109.893806
115.760651
128.455719
139.933640
142.717880
134.861984
119.306229
100.206741
83.089745
71.262695
63.900242
59.057423
53.756729
48.067963
47.661144
55.009247
65.257820
72.873619
74.640877
69.155266
61.021088
58.013073
59.716522
61.138004
63.493717
66.673233
63.540245
55.408066
54.496548
61.191963
62.252480
56.375286
56.429401
64.748405
70.428497
71.976456
78.495476
89.756721
98.400993
105.642235
116.274193
127.301598
132.233078
127.727615
113.017494
91.573112
71.937531
59.675076
52.783920
47.203308
39.509308
26.670345
9.904783
-3.922763
-7.963840
-2.120728
7.898621
18.273140
29.425688
40.876434
48.482430
48.210579
40.869606
30.070087
17.980194
7.546715
3.268559
6.408455
13.140140
14.882175
2.481196
-23.791754
-55.025566
-84.127113
-106.102379
-117.510025
-122.280708
-125.451576
-124.252068
-115.179153
-98.463501
-73.394257
-42.356190
-15.953817
-4.435116
-6.380298
-10.738502
-7.298475
7.978743
31.857595
56.246517
76.335716
93.580475
109.636139
122.079483
126.660049
121.210373
106.396103
85.209496
62.415104
43.544708
35.393555
40.303818
50.049782
56.606659
59.631981
58.582390
53.703388
54.149868
71.479164
100.356651
120.619797
124.964996
118.395561
100.371521
75.575172
54.958405
40.043163
30.538008
29.860500
35.950783
46.276222
63.012264
81.840569
91.137772
87.686928
79.764030
74.756729
71.786407
65.723778
55.305573
43.491680
32.191189
21.495342
9.684118
-5.747172
-23.140289
-38.302589
-50.022537
-57.387466
-59.412159
-58.821419
-55.951618
-47.029575
-34.332527
-25.374771
