EVENT_NAME: L_AQUILA
EVENT_ID: IT-2009-0009
EVENT_DATE_YYYYMMDD: 20090406
EVENT_TIME_HHMMSS: 013240
EVENT_LATITUDE_DEGREE: 42.3420
EVENT_LONGITUDE_DEGREE: 13.3800
EVENT_DEPTH_KM: 8.3
HYPOCENTER_REFERENCE: INGV-CNT_Seismic_Bulletin
MAGNITUDE_W: 6.1
MAGNITUDE_W_REFERENCE: INGV-CNT_Seismic_Bulletin
MAGNITUDE_L: 
MAGNITUDE_L_REFERENCE: 
FOCAL_MECHANISM: Normal faulting
NETWORK: IT
STATION_CODE: AQK
STATION_NAME: 
STATION_LATITUDE_DEGREE: 42.344967
STATION_LONGITUDE_DEGREE: 13.400949
STATION_ELEVATION_M: 726
LOCATION: 
SENSOR_DEPTH_M: 0.0
VS30_M/S: 705
SITE_CLASSIFICATION_EC8: B
MORPHOLOGIC_CLASSIFICATION: 
EPICENTRAL_DISTANCE_KM: 1.8
EARTHQUAKE_BACKAZIMUTH_DEGREE: 79.2
DATE_TIME_FIRST_SAMPLE_YYYYMMDD_HHMMSS: 20090406_013212.000
DATE_TIME_FIRST_SAMPLE_PRECISION: seconds
SAMPLING_INTERVAL_S: 0.005000
NDATA: 20000
DURATION_S: 100.000
STREAM: HNN
UNITS: cm/s
INSTRUMENT: sensor = FBA-3 [Kinemetrics] | digitizer = Etna [Kinemetrics]
INSTRUMENT_ANALOG/DIGITAL: D
INSTRUMENTAL_FREQUENCY_HZ: 214.000
INSTRUMENTAL_DAMPING: 0.700000
FULL_SCALE_G: 1.0
N_BIT_DIGITAL_CONVERTER: 18
PGV_CM/S: -35.797611
TIME_PGV_S: 32.955000
BASELINE_CORRECTION: BASELINE REMOVED
FILTER_TYPE: BUTTERWORTH
FILTER_ORDER: 2
LOW_CUT_FREQUENCY_HZ: 0.100
HIGH_CUT_FREQUENCY_HZ: 40.000
LATE/NORMAL_TRIGGERED: NT
DATABASE_VERSION: 0.5
HEADER_FORMAT: DYNA 1.2
DATA_TYPE: VELOCITY
PROCESSING: manual (Paolucci et al., 2011)
DATA_TIMESTAMP_YYYYMMDD_HHMMSS: 20211011_155502.225
DATA_LICENSE: CC-BY3_0-IT (http://creativecommons.org/licenses/by/3.0/deed.en)
DATA_CITATION: Luzi L, Pacor F, Puglia R (2019). Italian Accelerometric Archive v 3.0 - Istituto Nazionale di Geofisica e Vulcanologia, Dipartimento della Protezione Civile Nazionale. doi: 10.13127/itaca.3.1
DATA_CREATOR: ITACA working group
ORIGINAL_DATA_MEDIATOR_CITATION: data obtained within the DPC-INGV data exchange agreements
ORIGINAL_DATA_MEDIATOR: Archive of Italian Department of Civil Protection
ORIGINAL_DATA_CREATOR_CITATION: Presidency Of Counsil Of Ministers-Civil Protection Department. (1972). Italian Strong Motion Network. Presidency of Counsil of Ministers - Civil Protection Department. https://doi.org/10.7914/SN/IT http://www.fdsn.org/networks/detail/IT/
ORIGINAL_DATA_CREATOR: network: IT (Italian Strong Motion Network (RAN)); owner: Presidency of Counsil of Ministers - Civil Protection Department (PCM - DPC)
USER1: 
USER2: 
USER3: 
USER4: 
USER5: 
[...]
-0.123105
-0.123572
-0.124029
-0.124463
-0.124891
-0.125329
-0.125777
-0.126230
-0.126681
-0.127126
-0.127564
-0.128008
-0.128470
-0.128943
-0.129411
-0.129865
-0.130311
-0.130751
-0.131190
-0.131629
-0.132078
-0.132551
-0.133042
-0.133519
-0.133972
-0.134421
-0.134885
-0.135362
-0.135844
-0.136322
-0.136788
-0.137247
-0.137711
-0.138191
-0.138677
-0.139155
-0.139622
-0.140086
-0.140557
-0.141035
-0.141521
-0.142011
-0.142493
-0.142957
-0.143403
-0.143850
-0.144317
-0.144802
-0.145292
-0.145779
-0.146257
-0.146721
-0.147186
-0.147673
-0.148179
-0.148683
-0.149168
-0.149633
-0.150090
-0.150549
-0.151014
-0.151490
-0.151979
-0.152473
-0.152964
-0.153450
-0.153933
-0.154419
-0.154911
-0.155410
-0.155913
-0.156416
-0.156916
-0.157408
-0.157894
-0.158386
-0.158885
-0.159387
-0.159894
-0.160410
-0.160926
-0.161432
-0.161931
-0.162429
-0.162922
-0.163404
-0.163884
-0.164377
-0.164888
-0.165409
-0.165928
-0.166440
-0.166947
-0.167456
-0.167967
-0.168479
-0.168992
-0.169504
-0.170012
-0.170519
-0.171024
-0.171526
-0.172032
-0.172555
-0.173086
-0.173606
-0.174107
-0.174605
-0.175114
-0.175634
-0.176163
-0.176699
-0.177238
-0.177764
-0.178277
-0.178792
-0.179316
-0.179841
-0.180356
-0.180865
-0.181380
-0.181905
-0.182438
-0.182974
-0.183505
-0.184024
-0.184531
-0.185040
-0.185566
-0.186103
-0.186636
-0.187159
-0.187680
-0.188209
-0.188741
-0.189276
-0.189816
-0.190361
-0.190900
-0.191422
-0.191936
-0.192457
-0.192989
-0.193531
-0.194082
-0.194628
-0.195158
-0.195680
-0.196219
-0.196778
-0.197336
-0.197879
-0.198404
-0.198924
-0.199447
-0.199979
-0.200525
-0.201082
-0.201640
-0.202187
-0.202729
-0.203279
-0.203835
-0.204390
-0.204941
-0.205493
-0.206037
-0.206569
-0.207104
-0.207659
-0.208225
-0.208780
-0.209318
-0.209851
-0.210387
-0.210926
-0.211466
-0.212012
-0.212570
-0.213133
-0.213690
-0.214240
-0.214791
-0.215346
-0.215899
-0.216448
-0.216994
-0.217540
-0.218091
-0.218654
-0.219225
-0.219790
-0.220340
-0.220882
-0.221424
-0.221972
-0.222524
-0.223076
-0.223622
-0.224161
-0.224699
-0.225248
-0.225807
-0.226370
-0.226926
-0.227474
-0.228020
-0.228562
-0.229099
-0.229635
-0.230181
-0.230743
-0.231310
-0.231867
-0.232413
-0.232956
-0.233508
-0.234070
-0.234642
-0.235215
-0.235780
-0.236335
-0.236885
-0.237434
-0.237984
-0.238541
-0.239099
-0.239654
-0.240204
-0.240755
-0.241315
-0.241882
-0.242450
-0.243008
-0.243560
-0.244115
-0.244677
-0.245246
-0.245821
-0.246399
-0.246967
-0.247515
-0.248053
-0.248605
-0.249180
-0.249761
-0.250327
-0.250877
-0.251422
-0.251970
-0.252521
-0.253075
-0.253635
-0.254198
-0.254759
-0.255320
-0.255888
-0.256463
-0.257036
-0.257600
-0.258161
-0.258723
-0.259281
-0.259836
-0.260390
-0.260942
-0.261494
-0.262053
-0.262615
-0.263168
-0.263716
-0.264272
-0.264841
-0.265407
-0.265960
-0.266507
-0.267061
-0.267623
-0.268187
-0.268750
-0.269309
-0.269857
-0.270395
-0.270934
-0.271488
-0.272053
-0.272614
-0.273169
-0.273723
-0.274276
-0.274823
-0.275364
-0.275911
-0.276465
-0.277017
-0.277563
-0.278114
-0.278679
-0.279250
-0.279824
-0.280396
-0.280953
-0.281490
-0.282017
-0.282549
-0.283091
-0.283638
-0.284183
-0.284726
-0.285277
-0.285841
-0.286419
-0.286998
-0.287564
-0.288109
-0.288640
-0.289167
-0.289703
-0.290249
-0.290802
-0.291351
-0.291890
-0.292422
-0.292951
-0.293485
-0.294029
-0.294577
-0.295119
-0.295651
-0.296182
-0.296715
-0.297249
-0.297786
-0.298330
-0.298871
-0.299400
-0.299920
-0.300442
-0.300976
-0.301520
-0.302061
-0.302584
-0.303086
-0.303581
-0.304081
-0.304594
-0.305124
-0.305660
-0.306189
-0.306706
-0.307219
-0.307737
-0.308268
-0.308808
-0.309341
-0.309851
-0.310335
-0.310813
-0.311309
-0.311827
-0.312355
-0.312886
-0.313415
-0.313936
-0.314445
-0.314945
-0.315448
-0.315960
-0.316472
-0.316977
-0.317477
-0.317974
-0.318467
-0.318963
-0.319464
-0.319971
-0.320475
-0.320965
-0.321445
-0.321926
-0.322412
-0.322899
-0.323385
-0.323865
-0.324345
-0.324828
-0.325313
-0.325804
-0.326304
-0.326807
-0.327305
-0.327797
-0.328283
-0.328767
-0.329253
-0.329744
-0.330235
-0.330722
-0.331203
-0.331682
-0.332167
-0.332657
-0.333141
-0.333620
-0.334095
-0.334563
-0.335028
-0.335500
-0.335981
-0.336463
-0.336939
-0.337404
-0.337859
-0.338311
-0.338762
-0.339218
-0.339684
-0.340158
-0.340628
-0.341091
-0.341552
-0.342009
-0.342454
-0.342885
-0.343313
-0.343743
-0.344173
-0.344603
-0.345034
-0.345471
-0.345909
-0.346338
-0.346759
-0.347188
-0.347629
-0.348076
-0.348524
-0.348963
-0.349383
-0.349787
-0.350196
-0.350622
-0.351053
-0.351479
-0.351894
-0.352304
-0.352717
-0.353133
-0.353549
-0.353961
-0.354367
-0.354760
-0.355144
-0.355530
-0.355922
-0.356309
-0.356689
-0.357068
-0.357451
-0.357836
-0.358223
-0.358617
-0.359016
-0.359411
-0.359796
-0.360171
-0.360539
-0.360903
-0.361264
-0.361626
-0.361989
-0.362348
-0.362697
-0.363039
-0.363387
-0.363739
-0.364091
-0.364441
-0.364791
-0.365133
-0.365457
-0.365771
-0.366091
-0.366430
-0.366779
-0.367120
-0.367448
-0.367772
-0.368098
-0.368423
-0.368751
-0.369084
-0.369414
-0.369730
-0.370040
-0.370359
-0.370682
-0.370996
-0.371299
-0.371594
-0.371885
-0.372172
-0.372460
-0.372756
-0.373054
-0.373342
-0.373616
-0.373886
-0.374162
-0.374437
-0.374706
-0.374972
-0.375234
-0.375480
-0.375707
-0.375939
-0.376196
-0.376475
-0.376757
-0.377030
-0.377289
-0.377532
-0.377763
-0.377994
-0.378232
-0.378473
-0.378709
-0.378934
-0.379154
-0.379377
-0.379602
-0.379831
-0.380064
-0.380287
-0.380486
-0.380667
-0.380852
-0.381052
-0.381262
-0.381475
-0.381686
-0.381893
-0.382089
-0.382278
-0.382465
-0.382655
-0.382843
-0.383014
-0.383164
-0.383308
-0.383461
-0.383620
-0.383778
-0.383923
-0.384051
-0.384174
-0.384306
-0.384449
-0.384591
-0.384730
-0.384871
-0.385011
-0.385140
-0.385253
-0.385362
-0.385482
-0.385611
-0.385740
-0.385862
-0.385975
-0.386075
-0.386166
-0.386263
-0.386371
-0.386472
-0.386553
-0.386622
-0.386693
-0.386766
-0.386835
-0.386900
-0.386963
-0.387017
-0.387060
-0.387102
-0.387156
-0.387217
-0.387274
-0.387314
-0.387339
-0.387359
-0.387387
-0.387423
-0.387460
-0.387486
-0.387497
-0.387494
-0.387483
-0.387469
-0.387455
-0.387445
-0.387441
-0.387436
-0.387418
-0.387385
-0.387349
-0.387322
-0.387303
-0.387279
-0.387240
-0.387189
-0.387137
-0.387086
-0.387036
-0.386984
-0.386929
-0.386859
-0.386769
-0.386669
-0.386580
-0.386508
-0.386440
-0.386362
-0.386265
-0.386147
-0.386013
-0.385874
-0.385743
-0.385620
-0.385491
-0.385346
-0.385193
-0.385043
-0.384893
-0.384743
-0.384595
-0.384441
-0.384275
-0.384099
-0.383932
-0.383783
-0.383637
-0.383472
-0.383290
-0.383098
-0.382893
-0.382674
-0.382451
-0.382236
-0.382025
-0.381810
-0.381582
-0.381347
-0.381117
-0.380890
-0.380658
-0.380415
-0.380155
-0.379875
-0.379582
-0.379293
-0.379013
-0.378731
-0.378443
-0.378162
-0.377890
-0.377611
-0.377312
-0.377000
-0.376687
-0.376371
-0.376044
-0.375707
-0.375363
-0.375013
-0.374663
-0.374317
-0.373971
-0.373617
-0.373251
-0.372871
-0.372480
-0.372085
-0.371693
-0.371300
-0.370900
-0.370492
-0.370085
-0.369681
-0.369273
-0.368850
-0.368409
-0.367958
-0.367499
-0.367032
-0.366566
-0.366109
-0.365653
-0.365177
-0.364678
-0.364170
-0.363673
-0.363193
-0.362714
-0.362220
-0.361705
-0.361173
-0.360633
-0.360097
-0.359571
-0.359039
-0.358486
-0.357920
-0.357350
-0.356774
-0.356184
-0.355581
-0.354978
-0.354385
-0.353799
-0.353208
-0.352607
-0.351996
-0.351377
-0.350753
-0.350128
-0.349503
-0.348866
-0.348211
-0.347563
-0.346942
-0.346317
-0.345653
-0.344973
-0.344269
-0.343584
-0.343166
-0.343341
-0.344240
-0.345803
-0.347973
-0.349727
-0.348961
-0.345002
-0.339544
-0.335278
-0.334851
-0.338751
-0.343063
-0.342442
-0.334533
-0.321474
-0.311515
-0.312285
-0.321281
-0.330997
-0.334951
-0.328345
-0.314405
-0.302701
-0.297789
-0.300171
-0.308311
-0.313537
-0.311971
-0.313922
-0.320988
-0.317011
-0.300227
-0.290222
-0.295682
-0.308826
-0.322677
-0.329928
-0.319452
-0.295133
-0.280879
-0.286121
-0.294219
-0.295742
-0.299315
-0.309079
-0.319009
-0.324018
-0.321673
-0.309901
-0.287060
-0.258830
-0.245616
-0.267417
-0.318126
-0.363750
-0.367674
-0.320363
-0.253532
-0.219963
-0.246407
-0.308183
-0.354819
-0.359256
-0.330958
-0.289878
-0.257781
-0.257798
-0.287909
-0.313620
-0.310249
-0.290179
-0.270811
-0.245650
-0.214127
-0.208356
-0.246657
-0.291527
-0.301293
-0.280508
-0.248499
-0.216645
-0.203071
-0.218627
-0.251487
-0.283562
-0.293922
-0.266036
-0.226189
-0.229049
-0.283782
-0.343088
-0.363623
-0.342935
-0.301367
-0.256960
-0.232157
-0.241778
-0.261801
-0.266012
-0.271447
-0.293652
-0.307747
-0.293219
-0.258387
-0.203229
-0.128036
-0.078297
-0.102896
-0.180458
-0.246884
-0.267043
-0.245173
-0.197522
-0.143362
-0.109239
-0.111412
-0.135172
-0.158623
-0.187721
-0.240464
-0.306456
-0.344501
-0.323460
-0.265531
-0.227717
-0.225978
-0.225470
-0.208549
-0.192578
-0.192470
-0.206499
-0.229952
-0.260323
-0.279711
-0.258272
-0.206611
-0.180187
-0.207686
-0.272449
-0.339111
-0.352100
-0.268093
-0.106728
0.069692
0.200795
0.238865
0.159589
0.002490
-0.099065
-0.010982
0.250325
0.534809
0.705500
0.721086
0.621423
0.499753
0.480632
0.628160
0.858519
1.025767
1.084805
1.075672
0.995103
0.834078
0.695962
0.725391
0.917790
1.072703
1.011214
0.843699
0.843341
1.029601
1.147139
1.056458
0.877378
0.769385
0.767643
0.825476
0.880389
0.848531
0.667394
0.404956
0.224140
0.207601
0.297575
0.375555
0.359754
0.269782
0.195431
0.199127
0.273883
0.354599
0.365896
0.322067
0.323725
0.401369
0.455642
0.394231
0.266667
0.217856
0.325460
0.531907
0.719803
0.832322
0.933646
1.111613
1.346141
1.563679
1.732714
1.817315
1.780950
1.662720
1.532054
1.438963
1.432398
1.518230
1.645934
1.788367
1.942230
2.064932
2.122105
2.148486
2.198028
2.285145
2.366136
2.367496
2.278395
2.198029
2.265528
2.558834
3.038905
3.561560
3.981453
4.249581
4.386230
4.432262
4.457963
4.548977
4.760916
5.092809
5.455462
5.683374
5.671444
5.458598
5.190350
5.061045
5.144052
5.316354
5.465633
5.596821
5.743534
5.940667
6.207055
6.482159
6.649415
6.630815
6.464860
6.328021
6.388703
6.631322
6.913615
7.080663
7.047737
6.948065
7.005445
7.178329
7.220731
7.062811
6.866960
6.787020
6.888530
7.196682
7.592826
7.768472
7.516045
6.982603
6.471543
6.144799
6.011188
6.019484
6.108214
6.239526
6.394389
6.544660
6.663420
6.752881
6.835689
6.915618
6.938579
6.880493
6.877040
7.096922
7.513350
7.902980
8.061330
7.992782
7.859746
7.854089
8.140140
8.723938
9.380912
9.786986
9.678336
9.043568
8.260879
7.825545
7.935124
8.465132
9.128188
9.622990
9.845260
9.895438
9.920620
10.028171
10.177972
10.208849
10.103352
10.057465
10.234803
10.634973
11.147146
11.584951
11.791532
11.782315
11.723000
11.774110
11.939449
12.062210
12.034042
11.973292
12.100116
12.477002
12.943117
13.252759
13.270978
13.095750
12.941380
12.904583
12.956736
13.082103
13.298549
13.619192
14.016844
14.371232
14.536187
14.517458
14.478875
14.570472
14.834404
15.216767
15.602477
15.850672
15.843275
15.574971
15.178830
14.812178
14.542914
14.361827
14.302660
14.484560
14.945065
15.546767
16.111366
16.482822
16.557880
16.437067
16.386234
16.578352
16.990433
17.497919
17.921396
18.042355
17.818384
17.515020
17.392797
17.427418
17.420622
17.192213
16.681547
15.974136
15.261026
14.724166
14.373957
14.016138
13.427930
12.559607
11.540982
10.544339
9.708709
9.131402
8.846326
8.812179
8.930357
9.073693
9.168199
9.285756
9.549554
9.952348
10.399036
10.851170
11.322121
11.810089
12.264686
12.585212
12.682440
12.562557
12.341381
12.194590
12.304274
12.768761
13.463101
14.039076
14.159923
13.742220
13.020525
12.427746
12.338522
12.877337
13.953791
15.384882
16.904404
18.173824
18.990829
19.451183
19.789114
20.153057
20.594082
21.123220
21.687426
22.188034
22.570538
22.828499
22.942026
22.850477
22.449116
21.656338
20.540852
19.290716
17.998247
16.583044
14.966091
13.232169
11.593859
10.219207
9.133592
8.307691
7.726924
7.283713
6.766920
6.094680
5.331976
4.447863
3.362625
2.132872
0.908922
-0.185000
-1.143814
-2.052232
-2.968275
-3.923593
-4.962764
-6.094415
-7.241407
-8.315333
-9.314886
-10.272179
-11.161352
-11.927419
-12.552794
-13.058557
-13.480963
-13.875458
-14.329266
-14.935834
-15.724811
-16.639503
-17.578518
-18.399487
-18.952848
-19.235876
-19.457941
-19.855583
-20.486982
-21.234457
-21.930317
-22.489952
-22.959911
-23.369370
-23.610510
-23.643539
-23.703321
-24.090382
-24.855398
-25.813116
-26.777224
-27.698990
-28.586901
-29.413195
-30.171850
-30.892202
-31.559586
-32.136173
-32.631863
-33.100529
-33.615253
-34.225201
-34.887249
-35.466404
-35.797611
-35.742496
-35.266964
-34.524006
-33.788033
-33.236416
-32.851250
-32.518936
-32.132072
-31.614700
-30.912588
-30.039862
-29.193686
-28.698996
-28.731812
-29.205641
-29.919167
-30.640522
-31.117527
-31.174473
-30.824907
-30.314743
-30.010096
-30.132322
-30.607649
-31.187286
-31.658665
-31.954762
-32.131733
-32.275852
-32.446869
-32.703110
-33.086353
-33.527073
-33.876381
-34.052376
-34.037773
-33.803604
-33.364414
-32.820366
-32.267921
-31.747692
-31.293083
-30.968069
-30.852072
-30.993710
-31.375008
-31.917156
-32.519199
-33.112587
-33.664612
-34.120213
-34.416656
-34.536274
-34.435745
-34.017185
-33.296272
-32.458874
-31.637358
-30.769485
-29.755253
-28.629021
-27.521252
-26.525045
-25.607695
-24.617304
-23.416693
-22.041861
-20.697224
-19.590162
-18.793253
-18.259073
-17.921989
-17.734640
-17.619028
-17.448553
-17.104139
-16.534941
-15.787628
-15.006416
-14.363131
-13.946152
-13.735380
-13.676592
-13.733164
-13.869502
-14.031283
-14.143207
-14.120660
-13.924236
-13.610660
-13.291444
-13.010086
-12.687774
-12.240607
-11.681892
-11.035886
-10.250648
-9.277486
-8.157421
-6.972236
-5.766997
-4.554452
-3.350501
-2.173524
-1.027711
0.089921
1.166727
2.157480
2.990009
3.613749
4.052154
4.392413
4.730400
5.138012
5.660078
6.293351
6.965235
7.582554
8.119168
8.635504
9.214772
9.890374
10.621830
11.341820
12.021912
12.658863
13.215332
13.630238
13.871742
13.935636
13.828708
13.603802
13.378917
13.280767
13.368073
13.599615
13.868085
14.082084
14.213943
14.260075
14.193780
13.989236
13.659426
13.222521
12.679164
12.101742
11.677493
11.604101
11.970885
12.686237
13.509500
14.223623
14.766152
15.183492
15.526626
15.830088
16.120203
16.373240
16.491165
16.363310
15.976417
15.438034
14.858979
14.276752
13.716851
13.229097
12.838157
12.542115
12.377561
12.389609
12.501042
12.537417
12.430147
12.293121
12.298464
12.535947
12.978168
13.532309
14.067308
14.445276
14.634639
14.737081
14.850142
14.985183
15.131369
15.309231
15.527805
15.743743
15.911362
16.046139
16.193171
16.361830
16.534031
16.703175
16.873253
17.044544
17.214832
17.373980
17.493214
17.541019
17.495678
17.328564
17.010799
16.539967
15.944081
15.290953
14.692837
14.245518
13.950616
13.721340
13.445003
13.029756
12.445178
11.748318
11.047258
10.427389
9.912082
9.477473
9.086746
8.705058
8.286343
7.783276
7.199617
6.604690
6.090872
5.729717
5.535580
5.442657
5.330324
5.094408
4.701555
4.189952
3.640047
3.137898
2.748041
2.505679
2.410598
2.407403
2.389756
2.269386
2.052387
1.815359
1.602229
1.404595
1.242267
1.180618
1.254338
1.406411
1.478459
1.305364
0.981953
0.854788
1.016017
1.233555
1.410323
1.566364
1.615815
1.474178
1.162551
0.799215
0.516379
0.372958
0.359434
0.410762
0.457963
0.487677
0.523655
0.589334
0.685440
0.802802
0.947009
1.132169
1.372624
1.686725
2.090904
2.581046
3.135356
3.715696
4.240954
4.617639
4.812236
4.843314
4.731610
4.503365
4.195088
3.807065
3.295256
2.647346
1.932402
1.252629
0.662034
0.136015
-0.391078
-0.965569
-1.592242
-2.263666
-2.986461
-3.764129
-4.577785
-5.401146
-6.220080
-7.043472
-7.916731
-8.895634
-9.958250
-10.977097
-11.826229
-12.460541
-12.886495
-13.152944
-13.348333
-13.526026
-13.663682
-13.714722
-13.658396
-13.506791
-13.296177
-13.072641
-12.865885
-12.658714
-12.384556
-11.967173
-11.373195
-10.647571
-9.902754
-9.248155
-8.746288
-8.448283
-8.385121
-8.488489
-8.606383
-8.617553
-8.476161
-8.176896
-7.741548
-7.220575
-6.687009
-6.221948
-5.865298
-5.579986
-5.300763
-5.025204
-4.823241
-4.739946
-4.742401
-4.779488
-4.828569
-4.860260
-4.813132
-4.655010
-4.441007
-4.257864
-4.126675
-3.993719
-3.797984
-3.512904
-3.147804
-2.757494
-2.425212
-2.207862
-2.124196
-2.188488
-2.417892
-2.811268
-3.340936
-3.956634
-4.593494
-5.189052
-5.698732
-6.108717
-6.437801
-6.710585
-6.927421
-7.056516
-7.040920
-6.827266
-6.410276
-5.842212
-5.200151
-4.556131
-3.951170
-3.371975
-2.774262
-2.146048
-1.531231
-0.986994
-0.544550
-0.207001
0.045620
0.239434
0.394813
0.554337
0.769163
1.018065
1.218204
1.341846
1.440095
1.550625
1.655943
1.716241
1.683005
1.496445
1.119203
0.578365
-0.044998
-0.652877
-1.143232
-1.439062
-1.548105
-1.570253
-1.620756
-1.735759
-1.838934
-1.795068
-1.501973
-0.947376
-0.203079
0.621739
1.426806
2.142232
2.748063
3.290056
3.836272
4.408521
4.987541
5.570895
6.189454
6.879903
7.665207
8.527959
9.381522
10.120429
10.702458
11.131944
11.409672
11.550330
11.571110
11.423699
11.027875
10.394737
9.639757
8.881717
8.204048
7.690018
7.393822
7.258088
7.128424
6.893312
6.565088
6.195259
5.799853
5.382348
4.944733
4.482045
3.982152
3.416567
2.758047
2.015835
1.231774
0.446663
-0.307310
-0.999635
-1.620754
-2.186964
-2.689074
-3.063669
-3.263236
-3.325727
-3.338403
-3.367333
-3.437069
-3.539723
-3.635312
-3.659604
-3.574177
-3.426109
-3.346741
-3.484476
-3.916351
-4.595721
-5.403467
-6.247892
-7.079844
-7.866896
-8.604039
-9.285894
-9.853787
-10.231649
-10.405862
-10.435674
-10.412968
-10.423784
-10.504665
-10.617345
-10.692950
-10.712565
-10.727724
-10.805969
-10.977531
-11.226880
-11.525439
-11.867329
-12.252053
-12.650867
-13.022289
-13.336237
-13.563061
-13.660045
-13.595435
-13.404110
-13.217382
-13.193932
-13.374230
-13.623729
-13.741905
-13.596216
-13.161143
-12.507776
-11.797049
-11.194371
-10.719615
-10.262252
-9.741782
-9.150527
-8.508166
-7.854506
-7.218283
