EVENT_NAME: L_AQUILA
EVENT_ID: IT-2009-0009
EVENT_DATE_YYYYMMDD: 20090406
EVENT_TIME_HHMMSS: 013240
EVENT_LATITUDE_DEGREE: 42.3420
EVENT_LONGITUDE_DEGREE: 13.3800
EVENT_DEPTH_KM: 8.3
HYPOCENTER_REFERENCE: INGV-CNT_Seismic_Bulletin
MAGNITUDE_W: 6.1
MAGNITUDE_W_REFERENCE: INGV-CNT_Seismic_Bulletin
MAGNITUDE_L: 
MAGNITUDE_L_REFERENCE: 
FOCAL_MECHANISM: Normal faulting
NETWORK: IT
STATION_CODE: AQK
STATION_NAME: 
STATION_LATITUDE_DEGREE: 42.344967
STATION_LONGITUDE_DEGREE: 13.400949
STATION_ELEVATION_M: 726
LOCATION: 
SENSOR_DEPTH_M: 0.0
VS30_M/S: 705
SITE_CLASSIFICATION_EC8: B
MORPHOLOGIC_CLASSIFICATION: 
EPICENTRAL_DISTANCE_KM: 1.8
EARTHQUAKE_BACKAZIMUTH_DEGREE: 79.2
DATE_TIME_FIRST_SAMPLE_YYYYMMDD_HHMMSS: 
DATE_TIME_FIRST_SAMPLE_PRECISION: 
SAMPLING_INTERVAL_S: 
NDATA: 105
DURATION_S: 
STREAM: HNE
UNITS: cm
INSTRUMENT: sensor = FBA-3 [Kinemetrics] | digitizer = Etna [Kinemetrics]
INSTRUMENT_ANALOG/DIGITAL: D
INSTRUMENTAL_FREQUENCY_HZ: 212.000
INSTRUMENTAL_DAMPING: 0.700000
FULL_SCALE_G: 1.0
N_BIT_DIGITAL_CONVERTER: 18
PGD_CM: -7.191410
TIME_PGD_S: 
BASELINE_CORRECTION: BASELINE REMOVED
FILTER_TYPE: BUTTERWORTH
FILTER_ORDER: 2
LOW_CUT_FREQUENCY_HZ: 0.100
HIGH_CUT_FREQUENCY_HZ: 40.000
LATE/NORMAL_TRIGGERED: NT
DATABASE_VERSION: 0.5
HEADER_FORMAT: DYNA 1.2
DATA_TYPE: DISPLACEMENT RESPONSE SPECTRUM
PROCESSING: manual (Paolucci et al., 2011)
DATA_TIMESTAMP_YYYYMMDD_HHMMSS: 20211011_155503.426
DATA_LICENSE: CC-BY3_0-IT (http://creativecommons.org/licenses/by/3.0/deed.en)
DATA_CITATION: Luzi L, Pacor F, Puglia R (2019). Italian Accelerometric Archive v 3.0 - Istituto Nazionale di Geofisica e Vulcanologia, Dipartimento della Protezione Civile Nazionale. doi: 10.13127/itaca.3.1
DATA_CREATOR: ITACA working group
ORIGINAL_DATA_MEDIATOR_CITATION: data obtained within the DPC-INGV data exchange agreements
ORIGINAL_DATA_MEDIATOR: Archive of Italian Department of Civil Protection
ORIGINAL_DATA_CREATOR_CITATION: Presidency Of Counsil Of Ministers-Civil Protection Department. (1972). Italian Strong Motion Network. Presidency of Counsil of Ministers - Civil Protection Department. https://doi.org/10.7914/SN/IT http://www.fdsn.org/networks/detail/IT/
ORIGINAL_DATA_CREATOR: network: IT (Italian Strong Motion Network (RAN)); owner: Presidency of Counsil of Ministers - Civil Protection Department (PCM - DPC)
USER1: 
USER2: 
USER3: 
USER4: 
USER5: 
    0.010000     0.000828
    0.020000     0.003618
    0.022000     0.004514
    0.025000     0.005951
    0.029000     0.008551
    0.030000     0.009536
    0.032000     0.011120
    0.035001     0.014409
    0.036000     0.015249
    0.040000     0.019860
    0.041999     0.024568
    0.044001     0.025342
    0.045000     0.025579
    0.046000     0.025976
    0.048001     0.026480
    0.050000     0.030288
    0.054999     0.038486
    0.059999     0.056422
    0.064998     0.061305
    0.067002     0.065902
    0.069999     0.073304
    0.075002     0.084445
    0.080000     0.079053
    0.084998     0.083616
    0.090001     0.110391
    0.095003     0.137636
    0.100000     0.152216
    0.109999     0.232660
    0.120005     0.260508
    0.130005     0.325493
    0.132996     0.364371
    0.139997     0.505767
    0.149993     0.565137
    0.160000     0.701111
    0.170010     0.669910
    0.179986     0.500286
    0.190006     0.510549
    0.200000     0.480581
    0.220022     0.561106
    0.239981     0.727562
    0.250000     0.867765
    0.260010     1.000877
    0.280034     1.228392
    0.290023     1.306817
    0.300030     1.352851
    0.320000     1.366715
    0.340020     1.424507
    0.350017     1.488091
    0.359971     1.517144
    0.379939     1.526818
    0.400000     1.622313
    0.419992     1.702188
    0.439947     2.067745
    0.450045     2.173627
    0.459982     2.221910
    0.480077     2.280864
    0.500000     2.414026
    0.550055     3.177027
    0.599880     4.415555
    0.650195     5.473111
    0.667111     5.656366
    0.699790     6.190432
    0.750188     5.415141
    0.800000     5.663125
    0.850340     6.569935
    0.900090     7.600709
    0.949668     8.685630
    1.000000    10.192522
    1.100110    11.079728
    1.200480    12.322213
    1.300390    14.644784
    1.400560    15.972503
    1.499250    17.838032
    1.600000    23.202419
    1.700680    23.044302
    1.798561    23.965548
    1.901141    24.026529
    2.000000    23.143034
    2.197802    20.648115
    2.398082    18.033127
    2.500000    17.142344
    2.597403    16.249510
    2.801121    14.555605
    3.003003    12.817581
    3.205128    11.557611
    3.401361    10.773600
    3.496503    10.623053
    3.597122    10.519123
    3.802281    10.323678
    4.000000    10.144151
    4.201681     9.980756
    4.405286     9.833810
    4.608295    10.099223
    4.807692    10.484936
    5.000000    10.675806
    5.494505    10.447439
    5.988024     9.588693
    6.493506     8.894625
    6.993007     8.763313
    7.518797     8.648352
    8.000000     8.543414
    8.474576     8.447681
    9.009009     8.360827
    9.523809     8.281479
   10.000000     8.205571
