EVENT_NAME: L_AQUILA
EVENT_ID: IT-2009-0009
EVENT_DATE_YYYYMMDD: 20090406
EVENT_TIME_HHMMSS: 013240
EVENT_LATITUDE_DEGREE: 42.3420
EVENT_LONGITUDE_DEGREE: 13.3800
EVENT_DEPTH_KM: 8.3
HYPOCENTER_REFERENCE: INGV-CNT_Seismic_Bulletin
MAGNITUDE_W: 6.1
MAGNITUDE_W_REFERENCE: INGV-CNT_Seismic_Bulletin
MAGNITUDE_L: 
MAGNITUDE_L_REFERENCE: 
FOCAL_MECHANISM: Normal faulting
NETWORK: IT
STATION_CODE: AQK
STATION_NAME: 
STATION_LATITUDE_DEGREE: 42.344967
STATION_LONGITUDE_DEGREE: 13.400949
STATION_ELEVATION_M: 726
LOCATION: 
SENSOR_DEPTH_M: 0.0
VS30_M/S: 705
SITE_CLASSIFICATION_EC8: B
MORPHOLOGIC_CLASSIFICATION: 
EPICENTRAL_DISTANCE_KM: 1.8
EARTHQUAKE_BACKAZIMUTH_DEGREE: 79.2
DATE_TIME_FIRST_SAMPLE_YYYYMMDD_HHMMSS: 20090406_013212.000
DATE_TIME_FIRST_SAMPLE_PRECISION: seconds
SAMPLING_INTERVAL_S: 0.005000
NDATA: 20000
DURATION_S: 100.000
STREAM: HNE
UNITS: cm
INSTRUMENT: sensor = FBA-3 [Kinemetrics] | digitizer = Etna [Kinemetrics]
INSTRUMENT_ANALOG/DIGITAL: D
INSTRUMENTAL_FREQUENCY_HZ: 212.000
INSTRUMENTAL_DAMPING: 0.700000
FULL_SCALE_G: 1.0
N_BIT_DIGITAL_CONVERTER: 18
PGD_CM: -7.191410
TIME_PGD_S: 33.395000
BASELINE_CORRECTION: BASELINE REMOVED
FILTER_TYPE: BUTTERWORTH
FILTER_ORDER: 2
LOW_CUT_FREQUENCY_HZ: 0.100
HIGH_CUT_FREQUENCY_HZ: 40.000
LATE/NORMAL_TRIGGERED: NT
DATABASE_VERSION: 0.5
HEADER_FORMAT: DYNA 1.2
DATA_TYPE: DISPLACEMENT
PROCESSING: manual (Paolucci et al., 2011)
DATA_TIMESTAMP_YYYYMMDD_HHMMSS: 20211011_155501.153
DATA_LICENSE: CC-BY3_0-IT (http://creativecommons.org/licenses/by/3.0/deed.en)
DATA_CITATION: Luzi L, Pacor F, Puglia R (2019). Italian Accelerometric Archive v 3.0 - Istituto Nazionale di Geofisica e Vulcanologia, Dipartimento della Protezione Civile Nazionale. doi: 10.13127/itaca.3.1
DATA_CREATOR: ITACA working group
ORIGINAL_DATA_MEDIATOR_CITATION: data obtained within the DPC-INGV data exchange agreements
ORIGINAL_DATA_MEDIATOR: Archive of Italian Department of Civil Protection
ORIGINAL_DATA_CREATOR_CITATION: Presidency Of Counsil Of Ministers-Civil Protection Department. (1972). Italian Strong Motion Network. Presidency of Counsil of Ministers - Civil Protection Department. https://doi.org/10.7914/SN/IT http://www.fdsn.org/networks/detail/IT/
ORIGINAL_DATA_CREATOR: network: IT (Italian Strong Motion Network (RAN)); owner: Presidency of Counsil of Ministers - Civil Protection Department (PCM - DPC)
USER1: 
USER2: 
USER3: 
USER4: 
USER5: 
[...]
-3.334580e-03
-3.059630e-03
-2.783353e-03
-2.505750e-03
-2.226806e-03
-1.946521e-03
-1.664935e-03
-1.382089e-03
-1.097990e-03
-8.126356e-04
-5.260303e-04
-2.381697e-04
5.097209e-05
3.414092e-04
6.331292e-04
9.261389e-04
1.220470e-03
1.516120e-03
1.813046e-03
2.111236e-03
2.410737e-03
2.711606e-03
3.013844e-03
3.317419e-03
3.622301e-03
3.928464e-03
4.235911e-03
4.544676e-03
4.854783e-03
5.166236e-03
5.479020e-03
5.793097e-03
6.108418e-03
6.424986e-03
6.742871e-03
7.062153e-03
7.382867e-03
7.705002e-03
8.028531e-03
8.353430e-03
8.679680e-03
9.007272e-03
9.336206e-03
9.666508e-03
9.998216e-03
1.033136e-02
1.066594e-02
1.100194e-02
1.133930e-02
1.167800e-02
1.201807e-02
1.235958e-02
1.270259e-02
1.304703e-02
1.339286e-02
1.374002e-02
1.408855e-02
1.443843e-02
1.478960e-02
1.514211e-02
1.549602e-02
1.585137e-02
1.620813e-02
1.656629e-02
1.692589e-02
1.728693e-02
1.764938e-02
1.801324e-02
1.837848e-02
1.874512e-02
1.911322e-02
1.948283e-02
1.985399e-02
2.022667e-02
2.060082e-02
2.097639e-02
2.135337e-02
2.173178e-02
2.211164e-02
2.249296e-02
2.287575e-02
2.325999e-02
2.364565e-02
2.403273e-02
2.442130e-02
2.481144e-02
2.520316e-02
2.559645e-02
2.599127e-02
2.638762e-02
2.678546e-02
2.718479e-02
2.758557e-02
2.798779e-02
2.839146e-02
2.879663e-02
2.920332e-02
2.961156e-02
3.002131e-02
3.043253e-02
3.084517e-02
3.125924e-02
3.167476e-02
3.209176e-02
3.251028e-02
3.293033e-02
3.335194e-02
3.377503e-02
3.419958e-02
3.462558e-02
3.505306e-02
3.548204e-02
3.591254e-02
3.634457e-02
3.677818e-02
3.721337e-02
3.765016e-02
3.808860e-02
3.852869e-02
3.897044e-02
3.941384e-02
3.985888e-02
4.030556e-02
4.075389e-02
4.120385e-02
4.165540e-02
4.210852e-02
4.256323e-02
4.301959e-02
4.347760e-02
4.393722e-02
4.439846e-02
4.486133e-02
4.532583e-02
4.579196e-02
4.625973e-02
4.672919e-02
4.720031e-02
4.767302e-02
4.814732e-02
4.862324e-02
4.910081e-02
4.958006e-02
5.006096e-02
5.054345e-02
5.102750e-02
5.151309e-02
5.200026e-02
5.248904e-02
5.297948e-02
5.347159e-02
5.396538e-02
5.446088e-02
5.495812e-02
5.545709e-02
5.595779e-02
5.646022e-02
5.696440e-02
5.747031e-02
5.797793e-02
5.848728e-02
5.899840e-02
5.951132e-02
6.002601e-02
6.054240e-02
6.106045e-02
6.158014e-02
6.210154e-02
6.262468e-02
6.314954e-02
6.367606e-02
6.420426e-02
6.473417e-02
6.526581e-02
6.579919e-02
6.633433e-02
6.687126e-02
6.740997e-02
6.795042e-02
6.849260e-02
6.903657e-02
6.958234e-02
7.012987e-02
7.067917e-02
7.123022e-02
7.178299e-02
7.233744e-02
7.289358e-02
7.345142e-02
7.401100e-02
7.457230e-02
7.513533e-02
7.570012e-02
7.626668e-02
7.683501e-02
7.740510e-02
7.797698e-02
7.855066e-02
7.912614e-02
7.970339e-02
8.028242e-02
8.086322e-02
8.144577e-02
8.203006e-02
8.261611e-02
8.320399e-02
8.379367e-02
8.438507e-02
8.497816e-02
8.557298e-02
8.616962e-02
8.676813e-02
8.736849e-02
8.797065e-02
8.857457e-02
8.918028e-02
8.978780e-02
9.039717e-02
9.100838e-02
9.162144e-02
9.223631e-02
9.285292e-02
9.347124e-02
9.409130e-02
9.471316e-02
9.533689e-02
9.596254e-02
9.659009e-02
9.721951e-02
9.785080e-02
9.848394e-02
9.911894e-02
9.975580e-02
1.003945e-01
1.010351e-01
1.016776e-01
1.023218e-01
1.029679e-01
1.036157e-01
1.042653e-01
1.049167e-01
1.055698e-01
1.062248e-01
1.068816e-01
1.075403e-01
1.082009e-01
1.088633e-01
1.095276e-01
1.101937e-01
1.108616e-01
1.115313e-01
1.122028e-01
1.128763e-01
1.135516e-01
1.142288e-01
1.149079e-01
1.155889e-01
1.162718e-01
1.169567e-01
1.176436e-01
1.183323e-01
1.190229e-01
1.197155e-01
1.204099e-01
1.211063e-01
1.218047e-01
1.225051e-01
1.232076e-01
1.239119e-01
1.246182e-01
1.253264e-01
1.260366e-01
1.267487e-01
1.274628e-01
1.281789e-01
1.288969e-01
1.296169e-01
1.303388e-01
1.310626e-01
1.317883e-01
1.325160e-01
1.332455e-01
1.339770e-01
1.347103e-01
1.354456e-01
1.361828e-01
1.369219e-01
1.376630e-01
1.384061e-01
1.391511e-01
1.398980e-01
1.406469e-01
1.413979e-01
1.421508e-01
1.429056e-01
1.436624e-01
1.444211e-01
1.451817e-01
1.459443e-01
1.467089e-01
1.474755e-01
1.482441e-01
1.490148e-01
1.497874e-01
1.505619e-01
1.513383e-01
1.521167e-01
1.528970e-01
1.536793e-01
1.544636e-01
1.552500e-01
1.560382e-01
1.568285e-01
1.576208e-01
1.584152e-01
1.592117e-01
1.600102e-01
1.608107e-01
1.616132e-01
1.624176e-01
1.632241e-01
1.640324e-01
1.648428e-01
1.656551e-01
1.664692e-01
1.672853e-01
1.681032e-01
1.689231e-01
1.697450e-01
1.705690e-01
1.713952e-01
1.722235e-01
1.730536e-01
1.738849e-01
1.747165e-01
1.755482e-01
1.763808e-01
1.772187e-01
1.780680e-01
1.789323e-01
1.798092e-01
1.806917e-01
1.815736e-01
1.824567e-01
1.833508e-01
1.842629e-01
1.851896e-01
1.861123e-01
1.870018e-01
1.878401e-01
1.886340e-01
1.894092e-01
1.902020e-01
1.910307e-01
1.918755e-01
1.926996e-01
1.934763e-01
1.942067e-01
1.949315e-01
1.957034e-01
1.965461e-01
1.974526e-01
1.983984e-01
1.993424e-01
2.002335e-01
2.010329e-01
2.017465e-01
2.024373e-01
2.031830e-01
2.040141e-01
2.049057e-01
2.058093e-01
2.066847e-01
2.075284e-01
2.083567e-01
2.091722e-01
2.099846e-01
2.108253e-01
2.117174e-01
2.126566e-01
2.136211e-01
2.145955e-01
2.155671e-01
2.164920e-01
2.173117e-01
2.180136e-01
2.186552e-01
2.193386e-01
2.201419e-01
2.210397e-01
2.218983e-01
2.225702e-01
2.230097e-01
2.233321e-01
2.237525e-01
2.244323e-01
2.253832e-01
2.264910e-01
2.275915e-01
2.285677e-01
2.294128e-01
2.302095e-01
2.310771e-01
2.321083e-01
2.332821e-01
2.344421e-01
2.353813e-01
2.359872e-01
2.363476e-01
2.366771e-01
2.371387e-01
2.377922e-01
2.386346e-01
2.395790e-01
2.404784e-01
2.412504e-01
2.419479e-01
2.426972e-01
2.435646e-01
2.444685e-01
2.452378e-01
2.457510e-01
2.460077e-01
2.461268e-01
2.462956e-01
2.466522e-01
2.472144e-01
2.478961e-01
2.485308e-01
2.489841e-01
2.492687e-01
2.494722e-01
2.496929e-01
2.500826e-01
2.507906e-01
2.518453e-01
2.531365e-01
2.544870e-01
2.557276e-01
2.567364e-01
2.574567e-01
2.579196e-01
2.582462e-01
2.585689e-01
2.589296e-01
2.592928e-01
2.596040e-01
2.598136e-01
2.599238e-01
2.599975e-01
2.600814e-01
2.602037e-01
2.604440e-01
2.609121e-01
2.616562e-01
2.626186e-01
2.636716e-01
2.647334e-01
2.658250e-01
2.669503e-01
2.680139e-01
2.689173e-01
2.696510e-01
2.702862e-01
2.709105e-01
2.715695e-01
2.722837e-01
2.730607e-01
2.738859e-01
2.748157e-01
2.760234e-01
2.776486e-01
2.796756e-01
2.819347e-01
2.841765e-01
2.862538e-01
2.881951e-01
2.900278e-01
2.916944e-01
2.932215e-01
2.948828e-01
2.970680e-01
2.997692e-01
3.022414e-01
3.034962e-01
3.031950e-01
3.019359e-01
3.006427e-01
2.997817e-01
2.992699e-01
2.989384e-01
2.987350e-01
2.984904e-01
2.978214e-01
2.964800e-01
2.947337e-01
2.932027e-01
2.922800e-01
2.917874e-01
2.911822e-01
2.900274e-01
2.883178e-01
2.864047e-01
2.845184e-01
2.825239e-01
2.802656e-01
2.778578e-01
2.755491e-01
2.734935e-01
2.716427e-01
2.698208e-01
2.679072e-01
2.658649e-01
2.637091e-01
2.615959e-01
2.597567e-01
2.582278e-01
2.566929e-01
2.546410e-01
2.517933e-01
2.483470e-01
2.447171e-01
2.411316e-01
2.375309e-01
2.338208e-01
2.301689e-01
2.268311e-01
2.236420e-01
2.200684e-01
2.158293e-01
2.111827e-01
2.066387e-01
2.025054e-01
1.987494e-01
1.952778e-01
1.921061e-01
1.891810e-01
1.862714e-01
1.830736e-01
1.793542e-01
1.750216e-01
1.700807e-01
1.645850e-01
1.586100e-01
1.521276e-01
1.450662e-01
1.376121e-01
1.301580e-01
1.229908e-01
1.162371e-01
1.098648e-01
1.036658e-01
9.748015e-02
9.130678e-02
8.504670e-02
7.838107e-02
7.096799e-02
6.265107e-02
5.364762e-02
4.457657e-02
3.602975e-02
2.811687e-02
2.048473e-02
1.255772e-02
3.873473e-03
-5.527798e-03
-1.513470e-02
-2.438844e-02
-3.296038e-02
-4.075789e-02
-4.780930e-02
-5.423690e-02
-6.043024e-02
-6.706898e-02
-7.465060e-02
-8.297779e-02
-9.125133e-02
-9.856788e-02
-1.045124e-01
-1.095376e-01
-1.144588e-01
-1.196434e-01
-1.249264e-01
-1.298897e-01
-1.342014e-01
-1.379284e-01
-1.413057e-01
-1.443083e-01
-1.466785e-01
-1.481428e-01
-1.485387e-01
-1.478988e-01
-1.463754e-01
-1.441846e-01
-1.417115e-01
-1.392929e-01
-1.368657e-01
-1.341848e-01
-1.311754e-01
-1.279348e-01
-1.246333e-01
-1.213535e-01
-1.179570e-01
-1.143376e-01
-1.109427e-01
-1.087332e-01
-1.082806e-01
-1.091491e-01
-1.105130e-01
-1.121199e-01
-1.142966e-01
-1.173339e-01
-1.212739e-01
-1.261427e-01
-1.320794e-01
-1.390919e-01
-1.468248e-01
-1.547396e-01
-1.624012e-01
-1.694723e-01
-1.755805e-01
-1.803207e-01
-1.833793e-01
-1.849035e-01
-1.857339e-01
-1.868614e-01
-1.887789e-01
-1.914475e-01
-1.946341e-01
-1.981895e-01
-2.019289e-01
-2.056886e-01
-2.099469e-01
-2.159331e-01
-2.248060e-01
-2.366662e-01
-2.501497e-01
-2.631775e-01
-2.743797e-01
-2.836722e-01
-2.916597e-01
-2.989435e-01
-3.057561e-01
-3.119351e-01
-3.171960e-01
-3.211559e-01
-3.233799e-01
-3.237867e-01
-3.226410e-01
-3.201302e-01
-3.162216e-01
-3.107433e-01
-3.035764e-01
-2.949699e-01
-2.854139e-01
-2.750419e-01
-2.634582e-01
-2.501734e-01
-2.350741e-01
-2.184799e-01
-2.006821e-01
-1.816228e-01
-1.613162e-01
-1.403037e-01
-1.193466e-01
-9.889764e-02
-7.908718e-02
-5.988627e-02
-4.107290e-02
-2.232733e-02
-3.425948e-03
1.574058e-02
3.515639e-02
5.479592e-02
7.492647e-02
9.603422e-02
1.185163e-01
1.427493e-01
1.691497e-01
1.979893e-01
2.294134e-01
2.634163e-01
2.996311e-01
3.373601e-01
3.758040e-01
4.144033e-01
4.531222e-01
4.922056e-01
5.316632e-01
5.710917e-01
6.100408e-01
6.485542e-01
6.870634e-01
7.258226e-01
7.649277e-01
8.046594e-01
8.455978e-01
8.888480e-01
9.358946e-01
9.877786e-01
1.044689e+00
1.106262e+00
1.171934e+00
1.241181e+00
1.313754e+00
1.389821e+00
1.469593e+00
1.552887e+00
1.639112e+00
1.727237e+00
1.815930e+00
1.904114e+00
1.991280e+00
2.077465e+00
2.162877e+00
2.247356e+00
2.330271e+00
2.410881e+00
2.488786e+00
2.563976e+00
2.636502e+00
2.706310e+00
2.773345e+00
2.837678e+00
2.899529e+00
2.959120e+00
3.016554e+00
3.071973e+00
3.125716e+00
3.178157e+00
3.229643e+00
3.280736e+00
3.332301e+00
3.385453e+00
3.441234e+00
3.499863e+00
3.560426e+00
3.621609e+00
3.682537e+00
3.742874e+00
3.802489e+00
3.861225e+00
3.918853e+00
3.975208e+00
4.030579e+00
4.085920e+00
4.142546e+00
4.201545e+00
4.263057e+00
4.325965e+00
4.388677e+00
4.450134e+00
4.509894e+00
4.567856e+00
4.624451e+00
4.680857e+00
4.738655e+00
4.799208e+00
4.863251e+00
4.930838e+00
5.001652e+00
5.075406e+00
5.151924e+00
5.230832e+00
5.311391e+00
5.392763e+00
5.474194e+00
5.554891e+00
5.634171e+00
5.711748e+00
5.787481e+00
5.860974e+00
5.931747e+00
5.999643e+00
6.064719e+00
6.126699e+00
6.184744e+00
6.237976e+00
6.286196e+00
6.329758e+00
6.368820e+00
6.403088e+00
6.432042e+00
6.454936e+00
6.470977e+00
6.480025e+00
6.482883e+00
6.480651e+00
6.473922e+00
6.462599e+00
6.446366e+00
6.425219e+00
6.399445e+00
6.369261e+00
6.334634e+00
6.295398e+00
6.251374e+00
6.202479e+00
6.148930e+00
6.091193e+00
6.029597e+00
5.964252e+00
5.895352e+00
5.823310e+00
5.748611e+00
5.671700e+00
5.593123e+00
5.513628e+00
5.433869e+00
5.353869e+00
5.272708e+00
5.188845e+00
5.100781e+00
5.007311e+00
4.907624e+00
4.801768e+00
4.690935e+00
4.576883e+00
4.460895e+00
4.343185e+00
4.223160e+00
4.099987e+00
3.972888e+00
3.841418e+00
3.705971e+00
3.567742e+00
3.428089e+00
3.288150e+00
3.148803e+00
3.010468e+00
2.872876e+00
2.735301e+00
2.597292e+00
2.458972e+00
2.320573e+00
2.182072e+00
2.043279e+00
1.904020e+00
1.764359e+00
1.624636e+00
1.485176e+00
1.345954e+00
1.206442e+00
1.065834e+00
9.235604e-01
7.796916e-01
6.348646e-01
4.899146e-01
3.456547e-01
2.028129e-01
6.188596e-02
-7.706031e-02
-2.145805e-01
-3.518059e-01
-4.899721e-01
-6.300736e-01
-7.729208e-01
-9.190011e-01
-1.068292e+00
-1.220586e+00
-1.375821e+00
-1.533856e+00
-1.694046e+00
-1.855136e+00
-2.015466e+00
-2.173406e+00
-2.327814e+00
-2.478266e+00
-2.624933e+00
-2.768267e+00
-2.908742e+00
-3.046799e+00
-3.182724e+00
-3.316288e+00
-3.446784e+00
-3.573658e+00
-3.696941e+00
-3.817217e+00
-3.935535e+00
-4.053233e+00
-4.171578e+00
-4.291544e+00
-4.413733e+00
-4.538228e+00
-4.664531e+00
-4.791781e+00
-4.919050e+00
-5.045566e+00
-5.170835e+00
-5.294521e+00
-5.416086e+00
-5.534608e+00
-5.649047e+00
-5.758669e+00
-5.863184e+00
-5.962626e+00
-6.057269e+00
-6.147362e+00
-6.232579e+00
-6.311783e+00
-6.383622e+00
-6.447368e+00
-6.503035e+00
-6.550955e+00
-6.591467e+00
-6.624921e+00
-6.651846e+00
-6.673163e+00
-6.690293e+00
-6.704930e+00
-6.718601e+00
-6.732437e+00
-6.747319e+00
-6.764096e+00
-6.783488e+00
-6.805890e+00
-6.831414e+00
-6.859943e+00
-6.891032e+00
-6.923922e+00
-6.957705e+00
-6.991470e+00
-7.024407e+00
-7.055892e+00
-7.085428e+00
-7.112496e+00
-7.136514e+00
-7.156905e+00
-7.173111e+00
-7.184585e+00
-7.190828e+00
-7.191410e+00
-7.185913e+00
-7.174001e+00
-7.155758e+00
-7.132051e+00
-7.104403e+00
-7.074490e+00
-7.043703e+00
-7.012965e+00
-6.982829e+00
-6.953683e+00
-6.925856e+00
-6.899699e+00
-6.875627e+00
-6.854028e+00
-6.835152e+00
-6.819120e+00
-6.806119e+00
-6.796607e+00
-6.791203e+00
-6.790200e+00
-6.793088e+00
-6.798493e+00
-6.804500e+00
-6.809091e+00
-6.810577e+00
-6.807941e+00
-6.800892e+00
-6.789642e+00
-6.774721e+00
-6.756920e+00
-6.737162e+00
-6.716309e+00
-6.695015e+00
-6.673604e+00
-6.652065e+00
-6.630242e+00
-6.607984e+00
-6.585129e+00
-6.561477e+00
-6.536835e+00
-6.511110e+00
-6.484353e+00
-6.456653e+00
-6.427993e+00
-6.398316e+00
-6.367719e+00
-6.336519e+00
-6.305144e+00
-6.273982e+00
-6.243236e+00
-6.212705e+00
-6.181678e+00
-6.149078e+00
-6.113672e+00
-6.074291e+00
-6.030140e+00
-5.981042e+00
-5.927435e+00
-5.870160e+00
-5.810186e+00
-5.748265e+00
-5.684690e+00
-5.619452e+00
-5.552626e+00
-5.484432e+00
-5.415061e+00
-5.344597e+00
-5.273028e+00
-5.200286e+00
-5.126296e+00
-5.051086e+00
-4.974888e+00
-4.897986e+00
-4.820374e+00
-4.741666e+00
-4.661353e+00
-4.579017e+00
-4.494307e+00
-4.406960e+00
-4.316885e+00
-4.224010e+00
-4.127965e+00
-4.028087e+00
-3.923769e+00
-3.814669e+00
-3.700697e+00
-3.582093e+00
-3.459593e+00
-3.334245e+00
-3.206770e+00
-3.077223e+00
-2.945422e+00
-2.811471e+00
-2.675799e+00
-2.539040e+00
-2.402030e+00
-2.265814e+00
-2.131473e+00
-1.999829e+00
-1.871355e+00
-1.746285e+00
-1.624583e+00
-1.505765e+00
-1.388882e+00
-1.272764e+00
-1.156303e+00
-1.038684e+00
-9.195501e-01
-7.989817e-01
-6.773313e-01
-5.550664e-01
-4.326406e-01
-3.104367e-01
-1.887983e-01
-6.800825e-02
5.176479e-02
1.703209e-01
2.872656e-01
4.022358e-01
5.152510e-01
6.266468e-01
7.367229e-01
8.455288e-01
9.527872e-01
1.057857e+00
1.159835e+00
1.257830e+00
1.351218e+00
1.439725e+00
1.523295e+00
1.601893e+00
1.675498e+00
1.744295e+00
1.808593e+00
1.868463e+00
1.923561e+00
1.973284e+00
2.017091e+00
2.054757e+00
2.086412e+00
2.112445e+00
2.133461e+00
2.150263e+00
2.163717e+00
2.174634e+00
2.183738e+00
2.191678e+00
2.199001e+00
2.206181e+00
2.213730e+00
2.222128e+00
2.231534e+00
2.241791e+00
2.252795e+00
2.264633e+00
2.277375e+00
2.290894e+00
2.304858e+00
2.318772e+00
2.332044e+00
2.344281e+00
2.355518e+00
2.365815e+00
2.374842e+00
2.382270e+00
2.388062e+00
2.392341e+00
2.395512e+00
2.398238e+00
2.401214e+00
2.404986e+00
2.409521e+00
2.414217e+00
2.418485e+00
2.422066e+00
2.425065e+00
2.427823e+00
2.430779e+00
2.434462e+00
2.439504e+00
2.446643e+00
2.456559e+00
2.469661e+00
2.486090e+00
2.505848e+00
2.528891e+00
2.555105e+00
2.584200e+00
2.615711e+00
2.649142e+00
2.684091e+00
2.720289e+00
2.757558e+00
2.795659e+00
2.834160e+00
2.872571e+00
2.910590e+00
2.948143e+00
2.985178e+00
3.021411e+00
3.056260e+00
3.089032e+00
3.119246e+00
3.146812e+00
3.171952e+00
3.195006e+00
3.216307e+00
3.236141e+00
3.254754e+00
3.272349e+00
3.289059e+00
3.304887e+00
3.319728e+00
3.333506e+00
3.346280e+00
3.358155e+00
3.369168e+00
3.379208e+00
3.387965e+00
3.395015e+00
3.400047e+00
3.402958e+00
3.403752e+00
3.402476e+00
3.399280e+00
3.394396e+00
3.388050e+00
3.380477e+00
3.372026e+00
3.363178e+00
3.354385e+00
3.345885e+00
3.337664e+00
3.329564e+00
3.321447e+00
3.313274e+00
3.304946e+00
3.296146e+00
3.286444e+00
3.275453e+00
3.262799e+00
3.248096e+00
3.230968e+00
3.211037e+00
3.187988e+00
3.161764e+00
3.132600e+00
3.100949e+00
3.067510e+00
3.033193e+00
2.998816e+00
2.964765e+00
2.930955e+00
2.897129e+00
2.863115e+00
2.828837e+00
2.794239e+00
2.759210e+00
2.723536e+00
2.686908e+00
2.649042e+00
2.609815e+00
2.569158e+00
2.526793e+00
2.482169e+00
2.434616e+00
2.383485e+00
2.328252e+00
2.268691e+00
2.204921e+00
2.137214e+00
2.065874e+00
1.991271e+00
1.913736e+00
1.833406e+00
1.750277e+00
1.664244e+00
1.575068e+00
1.482469e+00
1.386355e+00
1.286938e+00
1.184673e+00
1.080032e+00
9.733589e-01
8.649522e-01
7.551615e-01
6.444021e-01
5.331906e-01
4.221339e-01
3.118066e-01
2.026461e-01
9.488936e-02
-1.149179e-02
-1.167419e-01
-2.211398e-01
-3.249314e-01
-4.284445e-01
-5.321674e-01
-6.367263e-01
-7.428291e-01
-8.511057e-01
-9.618455e-01
-1.074886e+00
-1.189682e+00
-1.305351e+00
-1.420859e+00
-1.535496e+00
-1.649166e+00
-1.762210e+00
-1.875015e+00
-1.987688e+00
-2.099820e+00
-2.210414e+00
-2.318192e+00
-2.422081e+00
-2.521527e+00
-2.616527e+00
-2.707508e+00
-2.795085e+00
-2.879748e+00
-2.961662e+00
-3.040683e+00
-3.116493e+00
-3.188804e+00
-3.257547e+00
-3.322919e+00
-3.385308e+00
-3.445191e+00
-3.502998e+00
-3.559023e+00
-3.613450e+00
-3.666401e+00
-3.718008e+00
-3.768414e+00
-3.817628e+00
-3.865466e+00
-3.911674e+00
-3.956059e+00
-3.998578e+00
-4.039369e+00
-4.078634e+00
-4.116448e+00
-4.152770e+00
-4.187563e+00
-4.220769e+00
-4.252308e+00
-4.282259e+00
-4.310824e+00
-4.338027e+00
-4.363700e+00
-4.387817e+00
-4.410525e+00
-4.431821e+00
-4.451499e+00
-4.469417e+00
-4.485535e+00
-4.499690e+00
-4.511602e+00
-4.521053e+00
-4.527864e+00
-4.531767e+00
-4.532489e+00
-4.529904e+00
-4.524126e+00
-4.515523e+00
-4.504630e+00
-4.491939e+00
-4.477756e+00
-4.462253e+00
-4.445571e+00
-4.427900e+00
-4.409563e+00
-4.390978e+00
-4.372492e+00
-4.354204e+00
-4.335969e+00
-4.317537e+00
-4.298648e+00
-4.279024e+00
-4.258377e+00
-4.236519e+00
-4.213455e+00
-4.189370e+00
-4.164532e+00
-4.139246e+00
-4.113770e+00
-4.088213e+00
-4.062496e+00
-4.036450e+00
