EVENT_NAME: L_AQUILA
EVENT_ID: IT-2009-0009
EVENT_DATE_YYYYMMDD: 20090406
EVENT_TIME_HHMMSS: 013240
EVENT_LATITUDE_DEGREE: 42.3420
EVENT_LONGITUDE_DEGREE: 13.3800
EVENT_DEPTH_KM: 8.3
HYPOCENTER_REFERENCE: INGV-CNT_Seismic_Bulletin
MAGNITUDE_W: 6.1
MAGNITUDE_W_REFERENCE: INGV-CNT_Seismic_Bulletin
MAGNITUDE_L: 
MAGNITUDE_L_REFERENCE: 
FOCAL_MECHANISM: Normal faulting
NETWORK: IT
STATION_CODE: AQK
STATION_NAME: 
STATION_LATITUDE_DEGREE: 42.344967
STATION_LONGITUDE_DEGREE: 13.400949
STATION_ELEVATION_M: 726
LOCATION: 
SENSOR_DEPTH_M: 0.0
VS30_M/S: 705
SITE_CLASSIFICATION_EC8: B
MORPHOLOGIC_CLASSIFICATION: 
EPICENTRAL_DISTANCE_KM: 1.8
EARTHQUAKE_BACKAZIMUTH_DEGREE: 79.2
DATE_TIME_FIRST_SAMPLE_YYYYMMDD_HHMMSS: 
DATE_TIME_FIRST_SAMPLE_PRECISION: 
SAMPLING_INTERVAL_S: 
NDATA: 105
DURATION_S: 
STREAM: HNZ
UNITS: cm
INSTRUMENT: sensor = FBA-3 [Kinemetrics] | digitizer = Etna [Kinemetrics]
INSTRUMENT_ANALOG/DIGITAL: D
INSTRUMENTAL_FREQUENCY_HZ: 204.000
INSTRUMENTAL_DAMPING: 0.700000
FULL_SCALE_G: 1.0
N_BIT_DIGITAL_CONVERTER: 18
PGD_CM: 4.137243
TIME_PGD_S: 
BASELINE_CORRECTION: BASELINE REMOVED
FILTER_TYPE: BUTTERWORTH
FILTER_ORDER: 2
LOW_CUT_FREQUENCY_HZ: 0.100
HIGH_CUT_FREQUENCY_HZ: 40.000
LATE/NORMAL_TRIGGERED: NT
DATABASE_VERSION: 0.5
HEADER_FORMAT: DYNA 1.2
DATA_TYPE: DISPLACEMENT RESPONSE SPECTRUM
PROCESSING: manual (Paolucci et al., 2011)
DATA_TIMESTAMP_YYYYMMDD_HHMMSS: 20211011_155504.012
DATA_LICENSE: CC-BY3_0-IT (http://creativecommons.org/licenses/by/3.0/deed.en)
DATA_CITATION: Luzi L, Pacor F, Puglia R (2019). Italian Accelerometric Archive v 3.0 - Istituto Nazionale di Geofisica e Vulcanologia, Dipartimento della Protezione Civile Nazionale. doi: 10.13127/itaca.3.1
DATA_CREATOR: ITACA working group
ORIGINAL_DATA_MEDIATOR_CITATION: data obtained within the DPC-INGV data exchange agreements
ORIGINAL_DATA_MEDIATOR: Archive of Italian Department of Civil Protection
ORIGINAL_DATA_CREATOR_CITATION: Presidency Of Counsil Of Ministers-Civil Protection Department. (1972). Italian Strong Motion Network. Presidency of Counsil of Ministers - Civil Protection Department. https://doi.org/10.7914/SN/IT http://www.fdsn.org/networks/detail/IT/
ORIGINAL_DATA_CREATOR: network: IT (Italian Strong Motion Network (RAN)); owner: Presidency of Counsil of Ministers - Civil Protection Department (PCM - DPC)
USER1: 
USER2: 
USER3: 
USER4: 
USER5: 
    0.010000     0.000906
    0.020000     0.004314
    0.022000     0.005649
    0.025000     0.006361
    0.029000     0.010278
    0.030000     0.012004
    0.032000     0.017311
    0.035001     0.021653
    0.036000     0.021813
    0.040000     0.029522
    0.041999     0.038583
    0.044001     0.043453
    0.045000     0.046979
    0.046000     0.048452
    0.048001     0.055028
    0.050000     0.060649
    0.054999     0.074144
    0.059999     0.085250
    0.064998     0.075435
    0.067002     0.076386
    0.069999     0.082554
    0.075002     0.101094
    0.080000     0.095099
    0.084998     0.094234
    0.090001     0.105309
    0.095003     0.113613
    0.100000     0.149078
    0.109999     0.196199
    0.120005     0.251949
    0.130005     0.327221
    0.132996     0.377860
    0.139997     0.416077
    0.149993     0.442256
    0.160000     0.485562
    0.170010     0.461926
    0.179986     0.520314
    0.190006     0.605254
    0.200000     0.767629
    0.220022     0.856479
    0.239981     1.045874
    0.250000     1.204698
    0.260010     1.206821
    0.280034     1.053917
    0.290023     0.950708
    0.300030     0.938122
    0.320000     1.183631
    0.340020     1.385422
    0.350017     1.411928
    0.359971     1.373877
    0.379939     1.338452
    0.400000     1.688406
    0.419992     2.365577
    0.439947     2.910978
    0.450045     2.964970
    0.459982     2.873336
    0.480077     2.465214
    0.500000     2.524545
    0.550055     2.679604
    0.599880     2.613900
    0.650195     4.100101
    0.667111     4.542598
    0.699790     5.405100
    0.750188     5.715960
    0.800000     5.243785
    0.850340     5.341800
    0.900090     6.041849
    0.949668     7.706186
    1.000000    10.670172
    1.100110     8.605099
    1.200480     7.875113
    1.300390     5.003491
    1.400560     4.142589
    1.499250     4.804666
    1.600000     4.767086
    1.700680     5.044233
    1.798561     5.269096
    1.901141     5.146126
    2.000000     5.237949
    2.197802     6.414326
    2.398082     7.471251
    2.500000     7.632915
    2.597403     7.516368
    2.801121     7.942428
    3.003003     8.796171
    3.205128    10.431842
    3.401361    11.275219
    3.496503    11.373328
    3.597122    11.288675
    3.802281    10.814679
    4.000000    11.029596
    4.201681    10.286236
    4.405286     9.383802
    4.608295     9.772902
    4.807692     9.831153
    5.000000     9.727986
    5.494505     9.547985
    5.988024     9.570199
    6.493506     9.060985
    6.993007     8.246739
    7.518797     8.018078
    8.000000     7.849056
    8.474576     7.645821
    9.009009     7.421771
    9.523809     7.281949
   10.000000     7.163165
