EVENT_NAME: L_AQUILA
EVENT_ID: IT-2009-0009
EVENT_DATE_YYYYMMDD: 20090406
EVENT_TIME_HHMMSS: 013240
EVENT_LATITUDE_DEGREE: 42.3420
EVENT_LONGITUDE_DEGREE: 13.3800
EVENT_DEPTH_KM: 8.3
HYPOCENTER_REFERENCE: INGV-CNT_Seismic_Bulletin
MAGNITUDE_W: 6.1
MAGNITUDE_W_REFERENCE: INGV-CNT_Seismic_Bulletin
MAGNITUDE_L: 
MAGNITUDE_L_REFERENCE: 
FOCAL_MECHANISM: Normal faulting
NETWORK: IT
STATION_CODE: AQK
STATION_NAME: 
STATION_LATITUDE_DEGREE: 42.344967
STATION_LONGITUDE_DEGREE: 13.400949
STATION_ELEVATION_M: 726
LOCATION: 
SENSOR_DEPTH_M: 0.0
VS30_M/S: 705
SITE_CLASSIFICATION_EC8: B
MORPHOLOGIC_CLASSIFICATION: 
EPICENTRAL_DISTANCE_KM: 1.8
EARTHQUAKE_BACKAZIMUTH_DEGREE: 79.2
DATE_TIME_FIRST_SAMPLE_YYYYMMDD_HHMMSS: 20090406_013212.000
DATE_TIME_FIRST_SAMPLE_PRECISION: seconds
SAMPLING_INTERVAL_S: 0.005000
NDATA: 20000
DURATION_S: 100.000
STREAM: HNE
UNITS: cm/s
INSTRUMENT: sensor = FBA-3 [Kinemetrics] | digitizer = Etna [Kinemetrics]
INSTRUMENT_ANALOG/DIGITAL: D
INSTRUMENTAL_FREQUENCY_HZ: 212.000
INSTRUMENTAL_DAMPING: 0.700000
FULL_SCALE_G: 1.0
N_BIT_DIGITAL_CONVERTER: 18
PGV_CM/S: -32.217880
TIME_PGV_S: 33.055000
BASELINE_CORRECTION: BASELINE REMOVED
FILTER_TYPE: BUTTERWORTH
FILTER_ORDER: 2
LOW_CUT_FREQUENCY_HZ: 0.100
HIGH_CUT_FREQUENCY_HZ: 40.000
LATE/NORMAL_TRIGGERED: NT
DATABASE_VERSION: 0.5
HEADER_FORMAT: DYNA 1.2
DATA_TYPE: VELOCITY
PROCESSING: manual (Paolucci et al., 2011)
DATA_TIMESTAMP_YYYYMMDD_HHMMSS: 20211011_155501.308
DATA_LICENSE: CC-BY3_0-IT (http://creativecommons.org/licenses/by/3.0/deed.en)
DATA_CITATION: Luzi L, Pacor F, Puglia R (2019). Italian Accelerometric Archive v 3.0 - Istituto Nazionale di Geofisica e Vulcanologia, Dipartimento della Protezione Civile Nazionale. doi: 10.13127/itaca.3.1
DATA_CREATOR: ITACA working group
ORIGINAL_DATA_MEDIATOR_CITATION: data obtained within the DPC-INGV data exchange agreements
ORIGINAL_DATA_MEDIATOR: Archive of Italian Department of Civil Protection
ORIGINAL_DATA_CREATOR_CITATION: Presidency Of Counsil Of Ministers-Civil Protection Department. (1972). Italian Strong Motion Network. Presidency of Counsil of Ministers - Civil Protection Department. https://doi.org/10.7914/SN/IT http://www.fdsn.org/networks/detail/IT/
ORIGINAL_DATA_CREATOR: network: IT (Italian Strong Motion Network (RAN)); owner: Presidency of Counsil of Ministers - Civil Protection Department (PCM - DPC)
USER1: 
USER2: 
USER3: 
USER4: 
USER5: 
[...]
-0.007230
-0.007187
-0.007149
-0.007114
-0.007075
-0.007029
-0.006975
-0.006916
-0.006860
-0.006808
-0.006758
-0.006714
-0.006678
-0.006648
-0.006618
-0.006584
-0.006546
-0.006504
-0.006453
-0.006393
-0.006331
-0.006276
-0.006223
-0.006166
-0.006102
-0.006039
-0.005980
-0.005927
-0.005881
-0.005838
-0.005791
-0.005741
-0.005689
-0.005631
-0.005562
-0.005491
-0.005431
-0.005383
-0.005339
-0.005282
-0.005209
-0.005136
-0.005077
-0.005030
-0.004987
-0.004942
-0.004891
-0.004831
-0.004765
-0.004704
-0.004653
-0.004604
-0.004546
-0.004479
-0.004407
-0.004329
-0.004249
-0.004175
-0.004109
-0.004044
-0.003982
-0.003925
-0.003870
-0.003808
-0.003741
-0.003670
-0.003600
-0.003529
-0.003455
-0.003377
-0.003301
-0.003227
-0.003152
-0.003080
-0.003016
-0.002954
-0.002883
-0.002808
-0.002738
-0.002671
-0.002602
-0.002537
-0.002473
-0.002406
-0.002334
-0.002262
-0.002184
-0.002099
-0.002011
-0.001920
-0.001824
-0.001731
-0.001647
-0.001571
-0.001495
-0.001418
-0.001345
-0.001275
-0.001204
-0.001127
-0.001050
-0.000970
-0.000880
-0.000782
-0.000694
-0.000621
-0.000553
-0.000479
-0.000399
-0.000316
-0.000234
-0.000160
-0.000094
-0.000027
0.000046
0.000125
0.000201
0.000277
0.000363
0.000457
0.000551
0.000638
0.000723
0.000815
0.000916
0.001017
0.001110
0.001197
0.001284
0.001375
0.001473
0.001576
0.001681
0.001783
0.001881
0.001977
0.002071
0.002165
0.002263
0.002361
0.002455
0.002546
0.002642
0.002747
0.002855
0.002964
0.003068
0.003162
0.003248
0.003336
0.003436
0.003548
0.003664
0.003775
0.003877
0.003979
0.004083
0.004181
0.004270
0.004362
0.004464
0.004573
0.004681
0.004784
0.004883
0.004984
0.005087
0.005195
0.005306
0.005417
0.005528
0.005646
0.005767
0.005877
0.005972
0.006065
0.006173
0.006300
0.006433
0.006556
0.006666
0.006772
0.006876
0.006982
0.007099
0.007234
0.007374
0.007505
0.007622
0.007736
0.007856
0.007990
0.008131
0.008268
0.008395
0.008517
0.008643
0.008773
0.008907
0.009044
0.009180
0.009312
0.009445
0.009584
0.009716
0.009832
0.009933
0.010030
0.010134
0.010249
0.010374
0.010498
0.010616
0.010730
0.010851
0.010983
0.011123
0.011267
0.011406
0.011534
0.011648
0.011752
0.011855
0.011963
0.012077
0.012201
0.012336
0.012477
0.012618
0.012749
0.012874
0.013004
0.013144
0.013289
0.013429
0.013561
0.013689
0.013815
0.013944
0.014078
0.014221
0.014366
0.014507
0.014638
0.014762
0.014891
0.015031
0.015182
0.015337
0.015489
0.015636
0.015776
0.015906
0.016035
0.016173
0.016316
0.016455
0.016593
0.016745
0.016912
0.017078
0.017230
0.017375
0.017527
0.017691
0.017856
0.018014
0.018168
0.018325
0.018484
0.018639
0.018791
0.018946
0.019102
0.019262
0.019434
0.019615
0.019788
0.019945
0.020092
0.020237
0.020387
0.020543
0.020705
0.020869
0.021029
0.021184
0.021339
0.021503
0.021674
0.021843
0.022005
0.022169
0.022347
0.022534
0.022716
0.022884
0.023039
0.023185
0.023331
0.023482
0.023637
0.023799
0.023970
0.024141
0.024304
0.024458
0.024616
0.024783
0.024955
0.025128
0.025303
0.025477
0.025647
0.025818
0.026000
0.026183
0.026356
0.026524
0.026699
0.026883
0.027071
0.027257
0.027441
0.027626
0.027814
0.027997
0.028175
0.028354
0.028542
0.028730
0.028907
0.029070
0.029236
0.029416
0.029608
0.029804
0.029998
0.030190
0.030381
0.030572
0.030757
0.030933
0.031109
0.031290
0.031470
0.031645
0.031824
0.032005
0.032176
0.032341
0.032511
0.032694
0.032883
0.033076
0.033273
0.033475
0.033675
0.033866
0.034051
0.034236
0.034423
0.034614
0.034807
0.035005
0.035206
0.035403
0.035594
0.035791
0.036003
0.036229
0.036452
0.036662
0.036864
0.037070
0.037283
0.037498
0.037710
0.037913
0.038108
0.038309
0.038517
0.038722
0.038920
0.039118
0.039323
0.039540
0.039767
0.039995
0.040215
0.040426
0.040635
0.040845
0.041058
0.041279
0.041511
0.041744
0.041970
0.042186
0.042406
0.042634
0.042865
0.043096
0.043333
0.043576
0.043819
0.044059
0.044292
0.044519
0.044748
0.044978
0.045208
0.045437
0.045667
0.045897
0.046121
0.046338
0.046557
0.046786
0.047025
0.047264
0.047502
0.047742
0.047981
0.048215
0.048446
0.048685
0.048929
0.049170
0.049405
0.049640
0.049880
0.050121
0.050355
0.050590
0.050831
0.051077
0.051323
0.051563
0.051799
0.052034
0.052270
0.052502
0.052736
0.052980
0.053235
0.053494
0.053750
0.053999
0.054241
0.054479
0.054728
0.054990
0.055255
0.055520
0.055789
0.056057
0.056317
0.056569
0.056820
0.057071
0.057321
0.057572
0.057828
0.058087
0.058344
0.058602
0.058866
0.059130
0.059385
0.059638
0.059900
0.060174
0.060448
0.060715
0.060976
0.061233
0.061489
0.061753
0.062022
0.062290
0.062557
0.062815
0.063064
0.063314
0.063577
0.063856
0.064143
0.064427
0.064706
0.064980
0.065250
0.065518
0.065787
0.066060
0.066342
0.066629
0.066917
0.067200
0.067472
0.067739
0.068014
0.068303
0.068600
0.068890
0.069165
0.069434
0.069706
0.069975
0.070236
0.070501
0.070783
0.071070
0.071352
0.071632
0.071919
0.072208
0.072492
0.072771
0.073048
0.073328
0.073619
0.073922
0.074231
0.074536
0.074830
0.075114
0.075396
0.075683
0.075972
0.076263
0.076558
0.076849
0.077133
0.077416
0.077713
0.078027
0.078345
0.078658
0.078964
0.079268
0.079569
0.079865
0.080156
0.080445
0.080735
0.081032
0.081339
0.081648
0.081951
0.082243
0.082528
0.082814
0.083104
0.083401
0.083703
0.084012
0.084320
0.084620
0.084910
0.085200
0.085496
0.085796
0.086099
0.086407
0.086721
0.087038
0.087359
0.087687
0.088019
0.088350
0.088679
0.089008
0.089337
0.089667
0.089991
0.090310
0.090624
0.090943
0.091271
0.091601
0.091925
0.092248
0.092574
0.092900
0.093225
0.093555
0.093892
0.094223
0.094544
0.094860
0.095183
0.095515
0.095850
0.096179
0.096499
0.096810
0.097118
0.097433
0.097757
0.098088
0.098422
0.098758
0.099100
0.099448
0.099795
0.100140
0.100487
0.100835
0.101182
0.101525
0.101870
0.102224
0.102584
0.102938
0.103278
0.103608
0.103939
0.104280
0.104628
0.104971
0.105304
0.105639
0.105982
0.106328
0.106675
0.107029
0.107387
0.107742
0.108089
0.108437
0.108794
0.109153
0.109508
0.109859
0.110210
0.110554
0.110890
0.111227
0.111570
0.111915
0.112260
0.112606
0.112958
0.113313
0.113666
0.114018
0.114375
0.114736
0.115095
0.115451
0.115806
0.116160
0.116510
0.116857
0.117211
0.117576
0.117936
0.118280
0.118617
0.118964
0.119329
0.119702
0.120072
0.120432
0.120785
0.121141
0.121505
0.121873
0.122242
0.122611
0.122973
0.123322
0.123664
0.124011
0.124372
0.124747
0.125129
0.125510
0.125885
0.126258
0.126629
0.127000
0.127372
0.127746
0.128119
0.128486
0.128851
0.129215
0.129571
0.129919
0.130270
0.130627
0.130990
0.131362
0.131741
0.132118
0.132490
0.132859
0.133219
0.133575
0.133937
0.134312
0.134691
0.135067
0.135440
0.135815
0.136197
0.136587
0.136980
0.137367
0.137749
0.138129
0.138508
0.138889
0.139279
0.139679
0.140084
0.140483
0.140872
0.141257
0.141643
0.142031
0.142423
0.142818
0.143214
0.143606
0.143995
0.144382
0.144765
0.145146
0.145530
0.145911
0.146288
0.146668
0.147054
0.147441
0.147830
0.148220
0.148609
0.148995
0.149387
0.149787
0.150188
0.150581
0.150966
0.151353
0.151742
0.152132
0.152521
0.152915
0.153317
0.153729
0.154136
0.154523
0.154898
0.155279
0.155669
0.156064
0.156464
0.156865
0.157264
0.157657
0.158053
0.158463
0.158880
0.159291
0.159697
0.160102
0.160501
0.160892
0.161283
0.161677
0.162069
0.162455
0.162835
0.163209
0.163584
0.163977
0.164387
0.164805
0.165238
0.165661
0.166018
0.166245
0.166327
0.166338
0.166530
0.167570
0.169871
0.172849
0.175384
0.176508
0.176365
0.176628
0.178812
0.182431
0.185343
0.184536
0.177894
0.167674
0.158765
0.155047
0.158557
0.165742
0.168968
0.164819
0.155327
0.146083
0.144961
0.154382
0.168537
0.181305
0.189156
0.188807
0.178221
0.159869
0.142731
0.138161
0.149134
0.166213
0.178324
0.180723
0.175081
0.168748
0.165647
0.163102
0.162486
0.168137
0.178429
0.187835
0.192899
0.194883
0.194317
0.184981
0.163935
0.140387
0.128319
0.136671
0.160673
0.179547
0.171728
0.134375
0.087908
0.064474
0.084071
0.135962
0.190184
0.221552
0.220114
0.195229
0.169035
0.159322
0.173534
0.206243
0.234753
0.231994
0.187838
0.121191
0.072066
0.065906
0.092319
0.130709
0.168467
0.188888
0.179887
0.154398
0.139491
0.149867
0.173477
0.180771
0.153873
0.102646
0.051335
0.023809
0.033766
0.071314
0.112438
0.136354
0.126943
0.090648
0.056929
0.040687
0.044140
0.077950
0.141602
0.210928
0.258256
0.270100
0.248113
0.201759
0.144067
0.092573
0.065325
0.064526
0.072158
0.072624
0.062252
0.041906
0.022048
0.014748
0.016776
0.024453
0.048073
0.093602
0.148834
0.192483
0.210587
0.212371
0.218318
0.225051
0.212718
0.180682
0.146737
0.127045
0.124858
0.131814
0.142822
0.155413
0.165043
0.185950
0.241547
0.325026
0.405405
0.451832
0.448345
0.415475
0.388260
0.366532
0.333317
0.305432
0.332252
0.437039
0.540243
0.494443
0.250951
-0.060240
-0.251819
-0.258642
-0.172194
-0.102363
-0.066301
-0.040686
-0.048908
-0.133813
-0.268272
-0.349261
-0.306193
-0.184540
-0.098531
-0.121034
-0.230969
-0.341904
-0.382635
-0.377242
-0.398911
-0.451656
-0.481561
-0.461748
-0.411119
-0.370160
-0.364372
-0.382729
-0.408450
-0.431157
-0.422653
-0.367841
-0.305779
-0.306980
-0.410367
-0.569539
-0.689274
-0.725974
-0.717095
-0.720134
-0.742024
-0.730375
-0.667564
-0.637823
-0.714717
-0.847823
-0.929321
-0.908804
-0.826652
-0.751203
-0.694330
-0.634338
-0.585019
-0.581921
-0.639560
-0.743884
-0.866519
-0.988177
-1.099144
-1.194982
-1.296482
-1.412282
-1.490826
-1.490813
-1.433441
-1.350741
-1.274465
-1.239808
-1.237121
-1.234673
-1.252017
-1.333126
-1.482615
-1.663385
-1.800690
-1.814210
-1.709364
-1.582575
-1.526428
-1.585401
-1.736850
-1.880254
-1.921381
-1.850748
-1.714387
-1.559504
-1.410281
-1.285520
-1.238668
-1.327750
-1.516323
-1.665438
-1.654709
-1.463310
-1.188908
-1.005033
-0.984238
-1.036925
-1.056602
-0.992656
-0.862342
-0.745396
-0.675456
-0.600518
-0.474050
-0.292860
-0.079188
0.127994
0.304676
0.438156
0.494617
0.483731
0.485430
0.536191
0.601870
0.648123
0.660303
0.655955
0.679308
0.723866
0.678993
0.441899
0.090508
-0.173689
-0.272782
-0.321386
-0.435331
-0.607461
-0.788001
-0.973766
-1.187343
-1.402499
-1.546570
-1.582957
-1.532327
-1.414219
-1.221644
-0.948034
-0.611715
-0.304853
-0.166068
-0.225501
-0.383499
-0.533721
-0.637320
-0.711090
-0.747872
-0.751949
-0.851655
-1.197234
-1.774588
-2.372043
-2.696699
-2.605559
-2.240447
-1.858484
-1.597501
-1.456757
-1.362530
-1.235799
-1.052175
-0.791985
-0.444791
-0.081368
0.229130
0.502177
0.781706
1.095665
1.433379
1.721310
1.911196
2.074391
2.316754
2.656947
3.019861
3.318836
3.559570
3.811866
4.061320
4.202484
4.191425
4.089794
3.962092
3.840182
3.762675
3.749114
3.780276
3.833306
3.883161
3.927906
4.026112
4.221549
4.496414
4.846607
5.280066
5.767939
6.284801
6.800582
7.242961
7.545812
7.688765
7.719871
7.743771
7.816688
7.891510
7.885704
7.789824
7.702676
7.701846
7.751837
7.821021
7.946339
8.187688
8.650043
9.409307
10.376801
11.382164
12.314458
13.134476
13.849370
14.514655
15.213321
15.954432
16.658710
17.245146
17.624943
17.738642
17.636671
17.433208
17.237001
17.082399
16.895916
16.582941
16.122122
15.580911
15.037912
14.505261
13.961604
13.406925
12.866684
12.370288
11.918202
11.486693
11.083741
10.748689
10.488108
10.297305
10.218563
10.313119
10.630306
11.156150
11.725787
12.112617
12.236616
12.185574
12.067470
11.923029
11.747204
11.525453
11.271010
11.074285
11.068231
11.325177
11.799712
12.302449
12.581668
12.542390
12.291472
11.951945
11.592391
11.319061
11.281124
11.559531
12.110685
12.808568
13.517469
14.162757
14.750864
15.303472
15.781563
16.111900
16.274359
16.286123
16.139414
15.856014
15.515456
15.146641
14.698499
14.154604
13.579172
13.015238
12.396142
11.608890
10.646354
9.643968
8.712568
7.812310
6.853540
5.790842
4.578842
3.208100
1.809672
0.571675
-0.446514
-1.345670
-2.264722
-3.246626
-4.229341
-5.154714
-6.036892
-6.925414
-7.847221
-8.804682
-9.778970
-10.709913
-11.547395
-12.319086
-13.069028
-13.780045
-14.408366
-14.939865
-15.382204
-15.715407
-15.899046
-15.951818
-15.999818
-16.232210
-16.772610
-17.612844
-18.694067
-19.937414
-21.171097
-22.166727
-22.810280
-23.197687
-23.541933
-24.005028
-24.634565
-25.419851
-26.293892
-27.089531
-27.645702
-27.930639
-27.987759
-27.869490
-27.666882
-27.518429
-27.515011
-27.601883
-27.663973
-27.679787
-27.700125
-27.758698
-27.851759
-27.932209
-27.944700
-27.891840
-27.844540
-27.902269
-28.121643
-28.454758
-28.773754
-28.965406
-28.989998
-28.851976
-28.568363
-28.185383
-27.789253
-27.504036
-27.445086
-27.633228
-28.020313
-28.569426
-29.216072
-29.858171
-30.458754
-31.047127
-31.606840
-32.038174
-32.217880
-32.066090
-31.587969
-30.881634
-30.090431
-29.333385
-28.666733
-28.094891
-27.611448
-27.185036
-26.712809
-26.099121
-25.374920
-24.656652
-24.055046
-23.663708
-23.539499
-23.669025
-23.993200
-24.437754
-24.899158
-25.260612
-25.449877
-25.453899
-25.303085
-25.053913
-24.737217
-24.312943
-23.704432
-22.887674
-21.924564
-20.902872
-19.888481
-18.928600
-18.018469
-17.043571
-15.840647
-14.367815
-12.749155
-11.133468
-9.584045
-8.102400
-6.690848
-5.384950
-4.263462
-3.425989
-2.927287
-2.734337
-2.767187
-2.976344
-3.355331
-3.878430
-4.480475
-5.104711
-5.705746
-6.217915
-6.577932
-6.756711
-6.752903
-6.587361
-6.297077
-5.907185
-5.413629
-4.803642
-4.078030
-3.241267
-2.294789
-1.248694
-0.116246
1.099350
2.382419
3.648463
4.741524
5.529632
5.982457
6.157459
6.147666
6.027142
5.829261
5.565292
5.231337
4.814577
4.319762
3.775223
3.206404
2.600197
1.902366
1.080776
0.200631
-0.577715
-1.081019
-1.201205
-0.918203
-0.297342
0.527234
1.409853
2.249921
2.984158
3.560299
3.951660
4.170595
4.258702
4.282190
4.307884
4.364647
4.451540
4.570875
4.730430
4.928479
5.145055
5.351255
5.540037
5.732025
5.935371
6.119489
6.239914
6.275058
6.232373
6.149182
6.106284
6.205337
6.519959
7.081316
7.876148
8.830178
9.819600
10.721494
11.454878
11.994841
12.384168
12.715101
13.047523
13.365261
13.638764
13.874087
14.092973
14.313762
14.548345
14.798085
15.041938
15.239495
15.380457
15.522351
15.741739
16.062534
16.467119
16.942003
17.469467
18.015028
18.574951
19.209005
19.975649
20.863609
21.819962
22.794420
23.720798
24.499905
25.069654
25.494984
25.909426
26.360178
26.790209
27.134401
27.351786
27.402067
27.243216
26.868113
26.328802
25.694788
25.014103
24.340450
23.763601
23.376598
23.223577
23.292152
23.523790
23.826759
24.113693
24.330070
24.452984
24.485161
24.440783
24.327684
24.158003
23.954607
23.711222
23.388943
22.994032
22.603041
22.279158
22.015238
21.761162
21.451698
21.013943
20.395626
19.598934
18.677683
17.701294
16.714155
15.719538
14.720965
13.759384
12.859541
11.974036
11.019674
9.944666
8.761233
7.533182
6.331190
5.206449
4.203282
3.360332
2.690818
2.183353
1.820811
1.588005
1.464707
1.435908
1.509822
1.679695
1.881103
2.051435
2.200836
2.367595
2.548320
2.703773
2.792947
2.782698
2.654472
2.447341
2.247377
2.059377
1.805431
1.485561
1.158493
0.855795
0.634117
0.545181
0.595178
0.754409
0.907099
0.939200
0.853526
0.716247
0.599812
0.551659
0.591195
0.736605
1.008423
1.427723
1.983236
2.620275
3.285835
3.951638
4.608600
5.242896
5.818899
6.302239
6.686262
6.989691
7.239540
7.453909
7.620170
7.700189
7.682130
7.603847
7.510669
7.406870
7.246771
6.969802
6.554326
6.042772
5.513207
5.027958
4.610818
4.260156
3.966975
3.722542
3.518906
3.341977
3.165764
2.968065
2.755640
2.554722
2.375196
2.202564
2.007918
1.751448
1.410064
1.006341
0.582246
0.158686
-0.255193
-0.639211
-0.976853
-1.269193
-1.514499
-1.690118
-1.769630
-1.758611
-1.700141
-1.644184
-1.620010
-1.623357
-1.634513
-1.665556
-1.760123
-1.940282
-2.198260
-2.530837
-2.940638
-3.425463
-3.986380
-4.609764
-5.244659
-5.832799
-6.330361
-6.687704
-6.863417
-6.875390
-6.810292
-6.762006
-6.765091
-6.802917
-6.855578
-6.919530
-7.005758
-7.134781
-7.325672
-7.573237
-7.845321
-8.131382
-8.473091
-8.924865
-9.510586
-10.226164
-11.046491
-11.912309
-12.754019
-13.541269
-14.268022
-14.920648
-15.507068
-16.065828
-16.625898
-17.206524
-17.835306
-18.519754
-19.222908
-19.883242
-20.452993
-20.928328
-21.334555
-21.681339
-21.958149
-22.151878
-22.242304
-22.211336
-22.065453
-21.832111
-21.551344
-21.276230
-21.050028
-20.879581
-20.758312
-20.702612
-20.744598
-20.911777
-21.220551
-21.655325
-22.147964
-22.608076
-22.959215
-23.133743
-23.101746
-22.927219
-22.734015
-22.608959
-22.560871
-22.534681
-22.426291
-22.118895
-21.555519
-20.777788
-19.889206
-18.999998
-18.196318
-17.515423
-16.932442
-16.382973
-15.804168
-15.161890
-14.462222
-13.748632
-13.074322
-12.477791
-11.976758
-11.561309
-11.204995
-10.885494
-10.590207
-10.321423
-10.081084
-9.842778
-9.567732
-9.241443
-8.877074
-8.503870
-8.158094
-7.852988
-7.562923
-7.264340
-6.958650
-6.641182
-6.307816
-5.990114
-5.713074
-5.440591
-5.134631
-4.823369
-4.541493
-4.259346
-3.935604
-3.583461
-3.223579
-2.831101
-2.382318
-1.890313
-1.362102
-0.780731
-0.144223
0.516943
1.155581
1.720668
2.178534
2.538221
2.836597
3.100516
3.336533
3.534079
3.667431
3.716955
3.697341
3.657522
3.646918
3.686411
3.777777
3.924906
4.129288
4.371700
4.612753
4.817101
4.967451
5.057352
5.095086
5.111429
5.143471
5.209172
5.283583
5.295988
5.177030
4.901902
4.481266
3.950754
3.363204
2.751801
2.124543
1.503283
0.927387
0.435069
0.068098
-0.143683
-0.223452
-0.245628
-0.277529
-0.331222
-0.367714
-0.327820
-0.168532
0.112700
0.494379
0.962281
1.510462
2.120859
2.754160
3.360212
3.892192
4.318240
4.630315
4.848039
5.025006
5.226525
5.476774
5.759808
6.057968
6.350879
6.619396
6.890146
7.247542
7.749325
8.352424
8.977249
9.569227
10.071084
10.448960
10.723752
10.923968
11.076658
11.225960
11.405714
11.637095
11.952157
12.361360
12.817048
13.255483
13.654303
14.028087
14.387019
14.715638
14.992166
15.209624
15.370580
15.478057
15.526477
15.497742
15.382040
15.190527
14.940414
14.653477
14.356416
14.062309
13.782551
13.547403
13.375741
13.248867
13.131563
12.994818
12.831640
