EVENT_NAME: L_AQUILA
EVENT_ID: IT-2009-0009
EVENT_DATE_YYYYMMDD: 20090406
EVENT_TIME_HHMMSS: 013240
EVENT_LATITUDE_DEGREE: 42.3420
EVENT_LONGITUDE_DEGREE: 13.3800
EVENT_DEPTH_KM: 8.3
HYPOCENTER_REFERENCE: INGV-CNT_Seismic_Bulletin
MAGNITUDE_W: 6.1
MAGNITUDE_W_REFERENCE: INGV-CNT_Seismic_Bulletin
MAGNITUDE_L: 
MAGNITUDE_L_REFERENCE: 
FOCAL_MECHANISM: Normal faulting
NETWORK: IT
STATION_CODE: AQK
STATION_NAME: 
STATION_LATITUDE_DEGREE: 42.344967
STATION_LONGITUDE_DEGREE: 13.400949
STATION_ELEVATION_M: 726
LOCATION: 
SENSOR_DEPTH_M: 0.0
VS30_M/S: 705
SITE_CLASSIFICATION_EC8: B
MORPHOLOGIC_CLASSIFICATION: 
EPICENTRAL_DISTANCE_KM: 1.8
EARTHQUAKE_BACKAZIMUTH_DEGREE: 79.2
DATE_TIME_FIRST_SAMPLE_YYYYMMDD_HHMMSS: 20090406_013212.000
DATE_TIME_FIRST_SAMPLE_PRECISION: seconds
SAMPLING_INTERVAL_S: 0.005000
NDATA: 20000
DURATION_S: 100.000
STREAM: HNZ
UNITS: cm/s
INSTRUMENT: sensor = FBA-3 [Kinemetrics] | digitizer = Etna [Kinemetrics]
INSTRUMENT_ANALOG/DIGITAL: D
INSTRUMENTAL_FREQUENCY_HZ: 204.000
INSTRUMENTAL_DAMPING: 0.700000
FULL_SCALE_G: 1.0
N_BIT_DIGITAL_CONVERTER: 18
PGV_CM/S: -20.070084
TIME_PGV_S: 31.685000
BASELINE_CORRECTION: BASELINE REMOVED
FILTER_TYPE: BUTTERWORTH
FILTER_ORDER: 2
LOW_CUT_FREQUENCY_HZ: 0.100
HIGH_CUT_FREQUENCY_HZ: 40.000
LATE/NORMAL_TRIGGERED: NT
DATABASE_VERSION: 0.5
HEADER_FORMAT: DYNA 1.2
DATA_TYPE: VELOCITY
PROCESSING: manual (Paolucci et al., 2011)
DATA_TIMESTAMP_YYYYMMDD_HHMMSS: 20211011_155503.120
DATA_LICENSE: CC-BY3_0-IT (http://creativecommons.org/licenses/by/3.0/deed.en)
DATA_CITATION: Luzi L, Pacor F, Puglia R (2019). Italian Accelerometric Archive v 3.0 - Istituto Nazionale di Geofisica e Vulcanologia, Dipartimento della Protezione Civile Nazionale. doi: 10.13127/itaca.3.1
DATA_CREATOR: ITACA working group
ORIGINAL_DATA_MEDIATOR_CITATION: data obtained within the DPC-INGV data exchange agreements
ORIGINAL_DATA_MEDIATOR: Archive of Italian Department of Civil Protection
ORIGINAL_DATA_CREATOR_CITATION: Presidency Of Counsil Of Ministers-Civil Protection Department. (1972). Italian Strong Motion Network. Presidency of Counsil of Ministers - Civil Protection Department. https://doi.org/10.7914/SN/IT http://www.fdsn.org/networks/detail/IT/
ORIGINAL_DATA_CREATOR: network: IT (Italian Strong Motion Network (RAN)); owner: Presidency of Counsil of Ministers - Civil Protection Department (PCM - DPC)
USER1: 
USER2: 
USER3: 
USER4: 
USER5: 
[...]
-0.116196
-0.116095
-0.115989
-0.115883
-0.115777
-0.115668
-0.115551
-0.115428
-0.115301
-0.115173
-0.115052
-0.114937
-0.114822
-0.114697
-0.114562
-0.114422
-0.114283
-0.114143
-0.113998
-0.113853
-0.113722
-0.113602
-0.113479
-0.113343
-0.113197
-0.113051
-0.112909
-0.112767
-0.112622
-0.112473
-0.112322
-0.112171
-0.112016
-0.111853
-0.111677
-0.111492
-0.111307
-0.111131
-0.110959
-0.110783
-0.110604
-0.110425
-0.110243
-0.110054
-0.109856
-0.109655
-0.109457
-0.109263
-0.109066
-0.108861
-0.108653
-0.108448
-0.108241
-0.108028
-0.107814
-0.107601
-0.107386
-0.107165
-0.106937
-0.106705
-0.106475
-0.106249
-0.106024
-0.105799
-0.105580
-0.105360
-0.105129
-0.104889
-0.104646
-0.104402
-0.104152
-0.103902
-0.103663
-0.103433
-0.103198
-0.102954
-0.102706
-0.102453
-0.102192
-0.101927
-0.101656
-0.101379
-0.101099
-0.100819
-0.100541
-0.100264
-0.099988
-0.099716
-0.099446
-0.099172
-0.098895
-0.098619
-0.098344
-0.098061
-0.097771
-0.097479
-0.097188
-0.096893
-0.096594
-0.096292
-0.095983
-0.095665
-0.095338
-0.095010
-0.094685
-0.094366
-0.094050
-0.093731
-0.093404
-0.093068
-0.092730
-0.092395
-0.092065
-0.091736
-0.091405
-0.091070
-0.090728
-0.090370
-0.089999
-0.089624
-0.089248
-0.088868
-0.088488
-0.088112
-0.087735
-0.087352
-0.086962
-0.086575
-0.086197
-0.085825
-0.085453
-0.085078
-0.084697
-0.084309
-0.083916
-0.083523
-0.083137
-0.082756
-0.082368
-0.081966
-0.081553
-0.081133
-0.080710
-0.080287
-0.079872
-0.079459
-0.079043
-0.078620
-0.078193
-0.077760
-0.077318
-0.076873
-0.076434
-0.076000
-0.075561
-0.075112
-0.074656
-0.074197
-0.073736
-0.073269
-0.072796
-0.072321
-0.071846
-0.071374
-0.070904
-0.070435
-0.069961
-0.069481
-0.068995
-0.068504
-0.068010
-0.067518
-0.067032
-0.066554
-0.066070
-0.065570
-0.065059
-0.064544
-0.064025
-0.063501
-0.062976
-0.062450
-0.061923
-0.061395
-0.060869
-0.060344
-0.059814
-0.059276
-0.058730
-0.058180
-0.057635
-0.057096
-0.056558
-0.056017
-0.055472
-0.054920
-0.054358
-0.053790
-0.053225
-0.052662
-0.052095
-0.051523
-0.050948
-0.050369
-0.049783
-0.049190
-0.048594
-0.047995
-0.047393
-0.046790
-0.046182
-0.045561
-0.044926
-0.044291
-0.043668
-0.043059
-0.042450
-0.041833
-0.041212
-0.040589
-0.039959
-0.039317
-0.038669
-0.038019
-0.037358
-0.036684
-0.036012
-0.035349
-0.034681
-0.033995
-0.033307
-0.032629
-0.031956
-0.031278
-0.030593
-0.029908
-0.029220
-0.028522
-0.027813
-0.027099
-0.026387
-0.025680
-0.024971
-0.024256
-0.023535
-0.022806
-0.022071
-0.021333
-0.020602
-0.019880
-0.019159
-0.018428
-0.017682
-0.016924
-0.016164
-0.015410
-0.014659
-0.013902
-0.013133
-0.012357
-0.011586
-0.010818
-0.010040
-0.009247
-0.008449
-0.007659
-0.006876
-0.006086
-0.005280
-0.004462
-0.003636
-0.002806
-0.001980
-0.001164
-0.000349
0.000477
0.001308
0.002134
0.002958
0.003792
0.004639
0.005488
0.006335
0.007182
0.008033
0.008894
0.009764
0.010637
0.011511
0.012390
0.013278
0.014177
0.015079
0.015975
0.016864
0.017754
0.018647
0.019544
0.020449
0.021363
0.022285
0.023213
0.024143
0.025072
0.026004
0.026944
0.027896
0.028860
0.029826
0.030792
0.031761
0.032734
0.033711
0.034686
0.035657
0.036631
0.037616
0.038607
0.039598
0.040593
0.041594
0.042600
0.043613
0.044635
0.045663
0.046691
0.047715
0.048738
0.049768
0.050808
0.051856
0.052908
0.053959
0.055010
0.056065
0.057125
0.058184
0.059238
0.060291
0.061355
0.062435
0.063529
0.064625
0.065722
0.066822
0.067931
0.069053
0.070181
0.071308
0.072427
0.073544
0.074671
0.075805
0.076938
0.078069
0.079205
0.080349
0.081498
0.082655
0.083816
0.084977
0.086138
0.087306
0.088483
0.089671
0.090868
0.092066
0.093257
0.094446
0.095644
0.096858
0.098082
0.099303
0.100515
0.101724
0.102944
0.104177
0.105414
0.106649
0.107889
0.109139
0.110392
0.111648
0.112908
0.114176
0.115452
0.116736
0.118023
0.119311
0.120603
0.121898
0.123193
0.124486
0.125786
0.127102
0.128429
0.129756
0.131076
0.132392
0.133713
0.135047
0.136396
0.137753
0.139109
0.140465
0.141824
0.143188
0.144557
0.145936
0.147324
0.148716
0.150111
0.151507
0.152909
0.154318
0.155730
0.157140
0.158556
0.159983
0.161418
0.162855
0.164296
0.165741
0.167187
0.168635
0.170089
0.171553
0.173027
0.174511
0.176000
0.177488
0.178980
0.180480
0.181992
0.183510
0.185027
0.186549
0.188076
0.189604
0.191132
0.192670
0.194217
0.195766
0.197314
0.198869
0.200435
0.202005
0.203566
0.205124
0.206692
0.208276
0.209871
0.211471
0.213072
0.214674
0.216279
0.217890
0.219508
0.221131
0.222760
0.224396
0.226035
0.227676
0.229324
0.230977
0.232631
0.234287
0.235957
0.237646
0.239347
0.241053
0.242758
0.244466
0.246179
0.247898
0.249622
0.251350
0.253074
0.254787
0.256495
0.258211
0.259943
0.261692
0.263447
0.265201
0.266960
0.268736
0.270529
0.272328
0.274123
0.275913
0.277705
0.279508
0.281324
0.283148
0.284976
0.286805
0.288629
0.290450
0.292273
0.294107
0.295956
0.297812
0.299669
0.301528
0.303396
0.305280
0.307178
0.309081
0.310978
0.312871
0.314771
0.316684
0.318598
0.320503
0.322412
0.324338
0.326277
0.328217
0.330157
0.332100
0.334052
0.336012
0.337981
0.339960
0.341946
0.343929
0.345908
0.347892
0.349889
0.351895
0.353896
0.355892
0.357893
0.359911
0.361943
0.363981
0.366020
0.368061
0.370104
0.372148
0.374198
0.376259
0.378330
0.380406
0.382487
0.384581
0.386693
0.388811
0.390924
0.393034
0.395147
0.397265
0.399390
0.401530
0.403683
0.405839
0.407995
0.410154
0.412315
0.414474
0.416637
0.418811
0.421003
0.423209
0.425420
0.427626
0.429833
0.432050
0.434278
0.436509
0.438742
0.440980
0.443233
0.445503
0.447783
0.450058
0.452320
0.454576
0.456842
0.459128
0.461429
0.463736
0.466043
0.468350
0.470657
0.472971
0.475299
0.477639
0.479987
0.482343
0.484706
0.487064
0.489414
0.491764
0.494129
0.496510
0.498894
0.501278
0.503666
0.506063
0.508467
0.510872
0.513278
0.515693
0.518124
0.520565
0.523007
0.525451
0.527900
0.530350
0.532804
0.535262
0.537725
0.540195
0.542677
0.545177
0.547690
0.550197
0.552693
0.555189
0.557697
0.560217
0.562745
0.565280
0.567823
0.570369
0.572909
0.575444
0.577985
0.580537
0.583098
0.585665
0.588239
0.590828
0.593434
0.596050
0.598669
0.601289
0.603907
0.606530
0.609167
0.611817
0.614474
0.617139
0.619808
0.622471
0.625124
0.627779
0.630447
0.633126
0.635807
0.638491
0.641184
0.643885
0.646588
0.649290
0.651997
0.654710
0.657430
0.660160
0.662903
0.665653
0.668405
0.671158
0.673917
0.676692
0.679484
0.682279
0.685067
0.687852
0.690642
0.693438
0.696240
0.699050
0.701873
0.704710
0.707554
0.710405
0.713259
0.716105
0.718941
0.721778
0.724624
0.727480
0.730348
0.733222
0.736098
0.738975
0.741855
0.744737
0.747626
0.750531
0.753453
0.756388
0.759329
0.762273
0.765210
0.768141
0.771078
0.774027
0.776983
0.779946
0.782922
0.785910
0.788903
0.791891
0.794874
0.797860
0.800857
0.803870
0.806901
0.809941
0.812981
0.816020
0.819061
0.822108
0.825157
0.828198
0.831235
0.834280
0.837336
0.840402
0.843476
0.846557
0.849644
0.852731
0.855820
0.858910
0.862005
0.865110
0.868230
0.871364
0.874507
0.877653
0.880798
0.883941
0.887090
0.890252
0.893421
0.896589
0.899756
0.902924
0.906098
0.909282
0.912482
0.915696
0.918914
0.922128
0.925343
0.928567
0.931799
0.935040
0.938290
0.941545
0.944796
0.948042
0.951291
0.954554
0.957833
0.961115
0.964390
0.967660
0.970935
0.974219
0.977512
0.980817
0.984130
0.987446
0.990769
0.994100
0.997436
1.000767
1.004097
1.007434
1.010779
1.014126
1.017473
1.020824
1.024185
1.027551
1.030921
1.034294
1.037670
1.041050
1.044436
1.047831
1.051237
1.054651
1.058068
1.061488
1.064908
1.068328
1.071748
1.075170
1.078592
1.082016
1.085446
1.088884
1.092330
1.095780
1.099229
1.102687
1.106156
1.109631
1.113110
1.116602
1.120109
1.123620
1.127126
1.130636
1.134155
1.137673
1.141182
1.144690
1.148209
1.151737
1.155273
1.158817
1.162369
1.165923
1.169474
1.173023
1.176571
1.180124
1.183685
1.187256
1.190833
1.194411
1.197994
1.201580
1.205167
1.208756
1.212347
1.215941
1.219545
1.223165
1.226797
1.230432
1.234069
1.237709
1.241351
1.244990
1.248624
1.252259
1.255907
1.259565
1.263221
1.266871
1.270526
1.274197
1.277878
1.281559
1.285237
1.288920
1.292611
1.296304
1.299996
1.303686
1.307379
1.311079
1.314786
1.318501
1.322218
1.325930
1.329636
1.333338
1.337045
1.340766
1.344504
1.348251
1.351999
1.355747
1.359496
1.363248
1.367003
1.370767
1.374536
1.378307
1.382077
1.385844
1.389614
1.393392
1.397174
1.400950
1.404726
1.408508
1.412295
1.416087
1.419881
1.423681
1.427489
1.431296
1.435100
1.438909
1.442723
1.446537
1.450352
1.454174
1.457993
1.461802
1.465615
1.469445
1.473288
1.477128
1.480966
1.484809
1.488652
1.492491
1.496330
1.500178
1.504034
1.507887
1.511737
1.515591
1.519448
1.523307
1.527172
1.531046
1.534926
1.538802
1.542672
1.546547
1.550428
1.554311
1.558194
1.562075
1.565951
1.569821
1.573695
1.577577
1.581464
1.585351
1.589241
1.593137
1.597034
1.600935
1.604843
1.608751
1.612650
1.616546
1.620451
1.624362
1.628269
1.632170
1.636073
1.639981
1.643894
1.647812
1.651739
1.655669
1.659594
1.663512
1.667433
1.671367
1.675308
1.679246
1.683181
1.687113
1.691042
1.694963
1.698878
1.702800
1.706737
1.710676
1.714606
1.718528
1.722454
1.726389
1.730329
1.734267
1.738200
1.742124
1.746045
1.749970
1.753895
1.757819
1.761739
1.765653
1.769572
1.773508
1.777456
1.781394
1.785318
1.789236
1.793160
1.797087
1.801012
1.804934
1.808861
1.812793
1.816724
1.820647
1.824564
1.828484
1.832418
1.836357
1.840284
1.844193
1.848096
1.852002
1.855916
1.859835
1.863759
1.867689
1.871618
1.875542
1.879458
1.883373
1.887291
1.891212
1.895130
1.899045
1.902958
1.906867
1.910766
1.914654
1.918541
1.922439
1.926346
1.930247
1.934132
1.938006
1.941879
1.945754
1.949633
1.953513
1.957393
1.961273
1.965157
1.969039
1.972915
1.976789
1.980663
1.984539
1.988408
1.992262
1.996108
1.999956
2.003812
2.007669
2.011523
2.015373
2.019221
2.023068
2.026913
2.030754
2.034586
2.038404
2.042210
2.046018
2.049829
2.053639
2.057456
2.061276
2.065044
2.068675
2.072134
2.075459
2.078704
2.082011
2.085575
2.089206
2.091849
2.091380
2.084583
2.067541
2.038389
2.001188
1.965304
1.940029
1.928764
1.925801
1.919583
1.901999
1.874897
1.850108
1.844388
1.866667
1.909385
1.955897
1.990617
2.006996
2.012640
2.018049
2.024994
2.034289
2.049852
2.072376
2.102604
2.139278
2.165767
2.163092
2.138786
2.116064
2.103823
2.100746
2.109768
2.131788
2.160762
2.191484
2.218250
2.226122
2.205197
2.169676
2.142095
2.130066
2.126208
2.112068
2.066163
1.986639
1.902275
1.855803
1.874496
1.948971
2.039131
2.099499
2.103123
2.061213
2.025386
2.051658
2.146869
2.254153
2.305026
2.285407
2.233710
2.187312
2.162083
2.159812
2.158132
2.118475
2.031127
1.936489
1.890693
1.917383
1.995817
2.084825
2.145064
2.152683
2.113882
2.058966
2.026512
2.062249
2.191925
2.379685
2.553539
2.664136
2.694286
2.652925
2.580672
2.517575
2.464351
2.405136
2.345352
2.307165
2.300956
2.308444
2.294457
2.225381
2.092156
1.944213
1.857222
1.841803
1.842921
1.824500
1.792015
1.761272
1.761213
1.825937
1.941049
2.041391
2.081245
2.072458
2.062528
2.094978
2.170702
2.244518
2.274183
2.266532
2.264439
2.292513
2.332316
2.352172
2.333761
2.266176
2.148693
1.997767
1.825405
1.631196
1.421542
1.200381
0.942637
0.599086
0.129972
-0.463815
-1.134026
-1.791425
-2.340298
-2.773898
-3.217469
-3.816868
-4.626420
-5.608834
-6.660057
-7.641392
-8.426484
-8.910726
-9.047541
-8.951478
-8.896504
-9.106143
-9.528561
-9.882395
-9.947267
-9.732707
-9.368552
-8.973102
-8.667989
-8.564988
-8.620227
-8.598292
-8.295628
-7.747774
-7.160020
-6.704026
-6.424231
-6.262915
-6.120230
-5.922370
-5.661515
-5.405796
-5.269470
-5.266904
-5.220184
-4.950101
-4.472803
-3.910576
-3.353275
-2.861490
-2.466109
-2.118540
-1.737335
-1.355157
-1.133513
-1.169676
-1.375069
-1.592461
-1.764482
-1.946542
-2.176267
-2.388546
-2.502345
-2.526451
-2.509876
-2.474095
-2.440382
-2.413676
-2.348714
-2.228754
-2.135956
-2.193794
-2.452086
-2.814130
-3.084960
-3.135354
-3.024400
-2.923556
-2.919861
-2.962450
-2.990493
-2.997651
-3.001543
-3.062743
-3.249881
-3.528129
-3.780022
-3.883678
-3.730391
-3.323805
-2.861374
-2.596720
-2.674620
-3.121958
-3.865550
-4.731415
-5.520166
-6.109928
-6.519448
-6.928315
-7.575787
-8.583851
-9.893208
-11.307338
-12.569567
-13.494587
-14.058011
-14.363270
-14.587006
-14.905058
-15.362979
-15.832759
-16.115229
-16.075176
-15.738880
-15.297960
-14.984884
-14.944796
-15.163406
-15.435981
-15.539763
-15.491968
-15.511356
-15.805887
-16.463673
-17.395628
-18.370876
-19.183668
-19.739122
-20.019691
-20.070084
-19.963522
-19.743675
-19.413883
-18.967196
-18.493393
-18.189415
-18.068977
-17.827267
-17.217218
-16.361612
-15.543469
-14.910154
-14.502751
-14.316105
-14.159499
-13.673564
-12.626776
-11.080877
-9.303579
-7.657724
-6.472286
-5.895714
-5.893671
-6.345282
-7.091024
-7.929971
-8.614688
-8.909236
-8.730881
-8.225754
-7.692156
-7.483044
-7.872512
-8.843216
-10.034034
-10.944365
-11.232652
-10.936759
-10.425463
-10.086982
-10.040019
-10.101582
-10.000690
-9.600451
-8.946887
-8.245236
-7.791432
-7.760344
-8.051890
-8.390229
-8.527333
-8.406525
-8.180126
-8.031723
-8.024443
-8.085868
-8.022900
-7.646190
-6.974637
-6.202868
-5.455153
-4.676968
-3.739916
-2.613045
-1.457835
-0.519193
0.087835
0.462412
0.850609
1.487260
2.407574
3.414924
4.262446
4.826656
5.124874
5.262914
5.383201
5.597163
5.936202
6.327934
6.578407
6.449277
5.801737
4.641004
3.117232
1.542852
0.270236
-0.513405
-0.867556
-1.051986
-1.356592
-1.884466
-2.532727
-3.167900
-3.747100
-4.270796
-4.667006
-4.778245
-4.478752
-3.800455
-2.966629
-2.255650
-1.771934
-1.390859
-0.886318
-0.084884
0.933692
1.797635
2.171087
2.059976
1.754348
1.598417
1.824189
2.444084
3.215327
3.827458
4.154959
4.227802
4.072445
3.703643
3.174476
2.591561
2.130709
2.013843
2.377576
3.108566
3.839214
4.169384
3.927741
3.217526
2.239504
1.135761
0.002890
-1.045291
-1.915869
-2.624181
-3.297971
-4.049838
-4.829981
-5.471223
-5.884779
-6.124305
-6.296646
-6.492741
-6.704282
-6.735461
-6.320834
-5.386692
-4.126013
-2.823037
-1.659416
-0.663373
0.210507
0.962207
1.524271
1.850850
1.948771
1.825876
1.482789
0.932710
0.221039
-0.519783
-1.096892
-1.438591
-1.683988
-2.012389
-2.463069
-2.965808
-3.448943
-3.883174
-4.307365
-4.828773
-5.510100
-6.255763
-6.868212
-7.153114
-6.952504
-6.234140
-5.205617
-4.220157
-3.516788
-3.092678
-2.808588
-2.534469
-2.173275
-1.650755
-0.995425
-0.383685
0.002122
0.111195
-0.045788
-0.459817
-1.016077
-1.467797
-1.627610
-1.513701
-1.243139
-0.860259
-0.361413
0.179294
0.607389
0.805560
0.790320
0.691746
0.674427
0.906290
1.518398
2.496388
3.650916
4.750445
5.652790
6.318030
6.750094
6.951235
6.929349
6.689239
6.186626
5.362190
4.273158
3.159048
2.304790
1.827912
1.670152
1.762213
2.066508
2.476767
2.799887
2.871559
2.666492
2.310119
2.018967
2.014899
2.388729
2.969296
3.417836
3.531365
3.380841
3.146520
2.949192
2.876414
3.025232
3.397390
3.844688
4.228610
4.545225
4.824581
5.003094
4.960797
4.647761
4.122731
3.486458
2.854774
2.384374
2.208420
2.291227
2.410573
2.349221
2.070762
1.673580
1.243313
0.824519
0.502785
0.410463
0.617548
1.096875
1.801877
2.664501
3.531020
4.234830
4.733853
5.106493
5.459205
5.894058
6.508409
7.338562
8.277094
9.088915
9.559219
9.618773
9.326878
8.796545
8.156138
7.529633
7.041727
6.831675
6.984474
7.451891
8.112260
8.862227
9.597760
10.199753
10.604593
10.826642
10.902066
10.871688
10.817163
10.886522
11.259147
12.025928
13.065456
14.062353
14.690621
14.795825
14.420945
13.719942
12.880029
12.065487
11.343429
10.659914
9.941354
9.189851
8.441143
7.693832
6.925144
6.140326
5.387603
4.734419
4.218033
3.805632
3.416320
3.002452
2.601543
2.284057
2.056706
1.850708
1.607795
1.342108
1.115393
1.002510
1.087773
1.423565
1.964387
2.589672
3.196432
3.738738
4.209138
4.622880
5.003642
5.367538
5.725444
6.089730
6.452330
6.756549
6.927024
6.926154
6.739744
6.343506
5.750485
5.041989
4.294456
3.533887
2.792299
2.143029
1.648139
1.310405
1.105357
1.033274
1.103840
1.286435
1.509700
1.705448
1.844648
1.942224
2.026600
2.097541
2.120466
2.062009
1.916123
1.700749
1.450233
1.201668
0.966315
0.712621
0.380571
-0.068130
-0.589832
-1.076361
-1.461339
-1.770283
-2.042738
-2.256766
-2.361990
-2.348218
-2.254699
-2.138262
-2.048628
-2.013656
-2.030626
-2.063377
-2.044219
-1.907554
-1.648411
-1.332277
-1.045993
-0.858783
-0.809597
-0.894649
-1.066816
-1.254812
-1.378128
-1.367929
-1.215620
-0.994982
-0.804769
-0.699897
-0.697318
-0.810411
-1.034243
-1.326534
-1.651561
-2.021081
-2.437342
-2.804329
-2.962372
-2.831045
-2.452726
-1.884426
-1.151407
-0.327159
0.459475
1.135086
1.717411
2.221115
2.615838
2.913414
3.205499
3.554545
3.921670
4.252717
4.557404
4.845198
5.053132
5.118282
5.074448
4.993666
4.875791
4.668858
4.352905
3.940025
3.422867
2.782947
2.041223
1.247824
0.435125
-0.364159
-1.082078
-1.665799
-2.151314
-2.643383
-3.224914
-3.900864
-4.615749
-5.301992
-5.895195
-6.307346
-6.434698
-6.227687
-5.718796
-4.973087
-4.063897
-3.087550
-2.144461
-1.310518
-0.640707
-0.173592
0.070445
0.086160
-0.095335
-0.372135
-0.598729
-0.676835
-0.616291
-0.524642
-0.539471
-0.725131
-1.020043
-1.286587
-1.389799
-1.246624
-0.846840
-0.232909
0.535283
1.379411
2.199943
2.917500
3.513126
4.016806
4.472699
4.931133
5.444193
6.025219
6.626655
7.186557
7.661507
7.990428
8.100382
8.000809
7.822488
7.726187
7.797445
8.031384
8.376874
8.766282
9.100183
9.265745
9.261962
9.260634
9.434999
9.768227
10.103659
10.319502
10.407927
10.438438
10.468161
10.483233
10.431118
10.287004
10.064673
9.783320
9.460414
9.127071
8.826491
8.597142
8.455260
8.390394
8.374825
8.377006
8.378265
8.375531
8.343312
8.203618
7.881493
7.378872
6.759702
6.104664
5.503877
5.031635
4.698541
4.461380
4.279367
4.133916
4.011483
3.901873
3.813764
3.776852
3.817397
3.925415
4.056596
4.177658
4.297309
4.440628
4.608032
4.774483
4.908296
4.967349
4.906094
