EVENT_NAME: L_AQUILA
EVENT_ID: IT-2009-0009
EVENT_DATE_YYYYMMDD: 20090406
EVENT_TIME_HHMMSS: 013240
EVENT_LATITUDE_DEGREE: 42.3420
EVENT_LONGITUDE_DEGREE: 13.3800
EVENT_DEPTH_KM: 8.3
HYPOCENTER_REFERENCE: INGV-CNT_Seismic_Bulletin
MAGNITUDE_W: 6.1
MAGNITUDE_W_REFERENCE: INGV-CNT_Seismic_Bulletin
MAGNITUDE_L: 
MAGNITUDE_L_REFERENCE: 
FOCAL_MECHANISM: Normal faulting
NETWORK: IT
STATION_CODE: AQK
STATION_NAME: 
STATION_LATITUDE_DEGREE: 42.344967
STATION_LONGITUDE_DEGREE: 13.400949
STATION_ELEVATION_M: 726
LOCATION: 
SENSOR_DEPTH_M: 0.0
VS30_M/S: 705
SITE_CLASSIFICATION_EC8: B
MORPHOLOGIC_CLASSIFICATION: 
EPICENTRAL_DISTANCE_KM: 1.8
EARTHQUAKE_BACKAZIMUTH_DEGREE: 79.2
DATE_TIME_FIRST_SAMPLE_YYYYMMDD_HHMMSS: 20090406_013212.000
DATE_TIME_FIRST_SAMPLE_PRECISION: seconds
SAMPLING_INTERVAL_S: 0.005000
NDATA: 20000
DURATION_S: 100.000
STREAM: HNN
UNITS: cm
INSTRUMENT: sensor = FBA-3 [Kinemetrics] | digitizer = Etna [Kinemetrics]
INSTRUMENT_ANALOG/DIGITAL: D
INSTRUMENTAL_FREQUENCY_HZ: 214.000
INSTRUMENTAL_DAMPING: 0.700000
FULL_SCALE_G: 1.0
N_BIT_DIGITAL_CONVERTER: 18
PGD_CM: 11.636450
TIME_PGD_S: 32.685000
BASELINE_CORRECTION: BASELINE REMOVED
FILTER_TYPE: BUTTERWORTH
FILTER_ORDER: 2
LOW_CUT_FREQUENCY_HZ: 0.100
HIGH_CUT_FREQUENCY_HZ: 40.000
LATE/NORMAL_TRIGGERED: NT
DATABASE_VERSION: 0.5
HEADER_FORMAT: DYNA 1.2
DATA_TYPE: DISPLACEMENT
PROCESSING: manual (Paolucci et al., 2011)
DATA_TIMESTAMP_YYYYMMDD_HHMMSS: 20211011_155502.080
DATA_LICENSE: CC-BY3_0-IT (http://creativecommons.org/licenses/by/3.0/deed.en)
DATA_CITATION: Luzi L, Pacor F, Puglia R (2019). Italian Accelerometric Archive v 3.0 - Istituto Nazionale di Geofisica e Vulcanologia, Dipartimento della Protezione Civile Nazionale. doi: 10.13127/itaca.3.1
DATA_CREATOR: ITACA working group
ORIGINAL_DATA_MEDIATOR_CITATION: data obtained within the DPC-INGV data exchange agreements
ORIGINAL_DATA_MEDIATOR: Archive of Italian Department of Civil Protection
ORIGINAL_DATA_CREATOR_CITATION: Presidency Of Counsil Of Ministers-Civil Protection Department. (1972). Italian Strong Motion Network. Presidency of Counsil of Ministers - Civil Protection Department. https://doi.org/10.7914/SN/IT http://www.fdsn.org/networks/detail/IT/
ORIGINAL_DATA_CREATOR: network: IT (Italian Strong Motion Network (RAN)); owner: Presidency of Counsil of Ministers - Civil Protection Department (PCM - DPC)
USER1: 
USER2: 
USER3: 
USER4: 
USER5: 
[...]
-3.499040e-01
-3.513059e-01
-3.527107e-01
-3.541182e-01
-3.555282e-01
-3.569410e-01
-3.583564e-01
-3.597746e-01
-3.611956e-01
-3.626192e-01
-3.640456e-01
-3.654748e-01
-3.669069e-01
-3.683419e-01
-3.697797e-01
-3.712202e-01
-3.726634e-01
-3.741093e-01
-3.755578e-01
-3.770090e-01
-3.784630e-01
-3.799198e-01
-3.813792e-01
-3.828413e-01
-3.843061e-01
-3.857735e-01
-3.872437e-01
-3.887166e-01
-3.901922e-01
-3.916704e-01
-3.931513e-01
-3.946349e-01
-3.961211e-01
-3.976101e-01
-3.991017e-01
-4.005961e-01
-4.020931e-01
-4.035927e-01
-4.050949e-01
-4.065998e-01
-4.081074e-01
-4.096177e-01
-4.111306e-01
-4.126460e-01
-4.141639e-01
-4.156843e-01
-4.172073e-01
-4.187329e-01
-4.202612e-01
-4.217922e-01
-4.233257e-01
-4.248618e-01
-4.264005e-01
-4.279418e-01
-4.294859e-01
-4.310326e-01
-4.325818e-01
-4.341335e-01
-4.356876e-01
-4.372441e-01
-4.388032e-01
-4.403650e-01
-4.419294e-01
-4.434965e-01
-4.450662e-01
-4.466384e-01
-4.482131e-01
-4.497904e-01
-4.513702e-01
-4.529525e-01
-4.545374e-01
-4.561248e-01
-4.577147e-01
-4.593070e-01
-4.609018e-01
-4.624992e-01
-4.640990e-01
-4.657014e-01
-4.673062e-01
-4.689134e-01
-4.705231e-01
-4.721351e-01
-4.737496e-01
-4.753665e-01
-4.769859e-01
-4.786076e-01
-4.802317e-01
-4.818583e-01
-4.834873e-01
-4.851188e-01
-4.867529e-01
-4.883894e-01
-4.900284e-01
-4.916698e-01
-4.933136e-01
-4.949599e-01
-4.966086e-01
-4.982598e-01
-4.999134e-01
-5.015694e-01
-5.032278e-01
-5.048887e-01
-5.065519e-01
-5.082177e-01
-5.098858e-01
-5.115562e-01
-5.132290e-01
-5.149042e-01
-5.165817e-01
-5.182616e-01
-5.199439e-01
-5.216286e-01
-5.233156e-01
-5.250049e-01
-5.266965e-01
-5.283903e-01
-5.300864e-01
-5.317848e-01
-5.334856e-01
-5.351887e-01
-5.368942e-01
-5.386019e-01
-5.403120e-01
-5.420243e-01
-5.437387e-01
-5.454552e-01
-5.471740e-01
-5.488948e-01
-5.506178e-01
-5.523430e-01
-5.540704e-01
-5.557999e-01
-5.575316e-01
-5.592654e-01
-5.610013e-01
-5.627395e-01
-5.644799e-01
-5.662225e-01
-5.679673e-01
-5.697142e-01
-5.714632e-01
-5.732141e-01
-5.749672e-01
-5.767225e-01
-5.784799e-01
-5.802394e-01
-5.820009e-01
-5.837645e-01
-5.855301e-01
-5.872979e-01
-5.890677e-01
-5.908395e-01
-5.926133e-01
-5.943890e-01
-5.961667e-01
-5.979463e-01
-5.997279e-01
-6.015113e-01
-6.032966e-01
-6.050839e-01
-6.068731e-01
-6.086642e-01
-6.104573e-01
-6.122523e-01
-6.140494e-01
-6.158484e-01
-6.176492e-01
-6.194519e-01
-6.212564e-01
-6.230628e-01
-6.248709e-01
-6.266808e-01
-6.284926e-01
-6.303061e-01
-6.321213e-01
-6.339382e-01
-6.357569e-01
-6.375773e-01
-6.393996e-01
-6.412235e-01
-6.430492e-01
-6.448765e-01
-6.467053e-01
-6.485358e-01
-6.503679e-01
-6.522018e-01
-6.540374e-01
-6.558746e-01
-6.577135e-01
-6.595540e-01
-6.613961e-01
-6.632399e-01
-6.650853e-01
-6.669324e-01
-6.687810e-01
-6.706312e-01
-6.724830e-01
-6.743364e-01
-6.761914e-01
-6.780479e-01
-6.799059e-01
-6.817653e-01
-6.836261e-01
-6.854884e-01
-6.873522e-01
-6.892175e-01
-6.910842e-01
-6.929523e-01
-6.948217e-01
-6.966925e-01
-6.985647e-01
-7.004382e-01
-7.023131e-01
-7.041893e-01
-7.060667e-01
-7.079452e-01
-7.098249e-01
-7.117059e-01
-7.135882e-01
-7.154720e-01
-7.173572e-01
-7.192436e-01
-7.211313e-01
-7.230201e-01
-7.249101e-01
-7.268012e-01
-7.286936e-01
-7.305871e-01
-7.324818e-01
-7.343776e-01
-7.362745e-01
-7.381725e-01
-7.400716e-01
-7.419720e-01
-7.438734e-01
-7.457758e-01
-7.476791e-01
-7.495834e-01
-7.514887e-01
-7.533950e-01
-7.553024e-01
-7.572108e-01
-7.591202e-01
-7.610307e-01
-7.629421e-01
-7.648544e-01
-7.667677e-01
-7.686819e-01
-7.705970e-01
-7.725128e-01
-7.744293e-01
-7.763466e-01
-7.782647e-01
-7.801836e-01
-7.821032e-01
-7.840235e-01
-7.859444e-01
-7.878659e-01
-7.897881e-01
-7.917111e-01
-7.936348e-01
-7.955591e-01
-7.974842e-01
-7.994099e-01
-8.013361e-01
-8.032629e-01
-8.051904e-01
-8.071184e-01
-8.090471e-01
-8.109764e-01
-8.129063e-01
-8.148367e-01
-8.167675e-01
-8.186988e-01
-8.206307e-01
-8.225630e-01
-8.244958e-01
-8.264289e-01
-8.283624e-01
-8.302962e-01
-8.322304e-01
-8.341649e-01
-8.360997e-01
-8.380348e-01
-8.399701e-01
-8.419056e-01
-8.438414e-01
-8.457774e-01
-8.477138e-01
-8.496504e-01
-8.515871e-01
-8.535239e-01
-8.554608e-01
-8.573979e-01
-8.593352e-01
-8.612727e-01
-8.632101e-01
-8.651476e-01
-8.670850e-01
-8.690224e-01
-8.709596e-01
-8.728969e-01
-8.748341e-01
-8.767712e-01
-8.787083e-01
-8.806453e-01
-8.825820e-01
-8.845186e-01
-8.864551e-01
-8.883915e-01
-8.903277e-01
-8.922637e-01
-8.941994e-01
-8.961348e-01
-8.980700e-01
-9.000049e-01
-9.019395e-01
-9.038738e-01
-9.058077e-01
-9.077410e-01
-9.096739e-01
-9.116065e-01
-9.135387e-01
-9.154705e-01
-9.174018e-01
-9.193325e-01
-9.212626e-01
-9.231920e-01
-9.251207e-01
-9.270488e-01
-9.289762e-01
-9.309030e-01
-9.328289e-01
-9.347542e-01
-9.366786e-01
-9.386023e-01
-9.405253e-01
-9.424475e-01
-9.443689e-01
-9.462894e-01
-9.482090e-01
-9.501280e-01
-9.520461e-01
-9.539635e-01
-9.558800e-01
-9.577954e-01
-9.597099e-01
-9.616233e-01
-9.635355e-01
-9.654467e-01
-9.673568e-01
-9.692659e-01
-9.711738e-01
-9.730805e-01
-9.749861e-01
-9.768906e-01
-9.787939e-01
-9.806959e-01
-9.825967e-01
-9.844961e-01
-9.863940e-01
-9.882905e-01
-9.901855e-01
-9.920792e-01
-9.939714e-01
-9.958622e-01
-9.977517e-01
-9.996397e-01
-1.001526e+00
-1.003411e+00
-1.005295e+00
-1.007177e+00
-1.009057e+00
-1.010935e+00
-1.012812e+00
-1.014687e+00
-1.016561e+00
-1.018432e+00
-1.020302e+00
-1.022170e+00
-1.024036e+00
-1.025901e+00
-1.027763e+00
-1.029623e+00
-1.031482e+00
-1.033338e+00
-1.035193e+00
-1.037045e+00
-1.038896e+00
-1.040744e+00
-1.042591e+00
-1.044435e+00
-1.046277e+00
-1.048117e+00
-1.049954e+00
-1.051789e+00
-1.053622e+00
-1.055453e+00
-1.057281e+00
-1.059107e+00
-1.060930e+00
-1.062751e+00
-1.064569e+00
-1.066385e+00
-1.068199e+00
-1.070010e+00
-1.071819e+00
-1.073624e+00
-1.075428e+00
-1.077228e+00
-1.079026e+00
-1.080821e+00
-1.082614e+00
-1.084403e+00
-1.086190e+00
-1.087974e+00
-1.089755e+00
-1.091533e+00
-1.093308e+00
-1.095079e+00
-1.096848e+00
-1.098615e+00
-1.100378e+00
-1.102138e+00
-1.103894e+00
-1.105648e+00
-1.107399e+00
-1.109146e+00
-1.110891e+00
-1.112632e+00
-1.114370e+00
-1.116104e+00
-1.117836e+00
-1.119564e+00
-1.121289e+00
-1.123010e+00
-1.124728e+00
-1.126444e+00
-1.128161e+00
-1.129882e+00
-1.131611e+00
-1.133351e+00
-1.135099e+00
-1.136844e+00
-1.138569e+00
-1.140267e+00
-1.141943e+00
-1.143618e+00
-1.145311e+00
-1.147027e+00
-1.148739e+00
-1.150412e+00
-1.152019e+00
-1.153577e+00
-1.155138e+00
-1.156744e+00
-1.158399e+00
-1.160074e+00
-1.161716e+00
-1.163288e+00
-1.164801e+00
-1.166290e+00
-1.167791e+00
-1.169333e+00
-1.170900e+00
-1.172460e+00
-1.174030e+00
-1.175635e+00
-1.177220e+00
-1.178721e+00
-1.180172e+00
-1.181651e+00
-1.183195e+00
-1.184808e+00
-1.186458e+00
-1.188055e+00
-1.189531e+00
-1.190935e+00
-1.192366e+00
-1.193837e+00
-1.195315e+00
-1.196812e+00
-1.198357e+00
-1.199952e+00
-1.201573e+00
-1.203181e+00
-1.204730e+00
-1.206166e+00
-1.207460e+00
-1.208688e+00
-1.210025e+00
-1.211616e+00
-1.213434e+00
-1.215273e+00
-1.216875e+00
-1.218142e+00
-1.219242e+00
-1.220474e+00
-1.222015e+00
-1.223789e+00
-1.225585e+00
-1.227240e+00
-1.228690e+00
-1.229978e+00
-1.231267e+00
-1.232707e+00
-1.234275e+00
-1.235826e+00
-1.237277e+00
-1.238631e+00
-1.239860e+00
-1.240930e+00
-1.241972e+00
-1.243205e+00
-1.244663e+00
-1.246169e+00
-1.247572e+00
-1.248814e+00
-1.249898e+00
-1.250913e+00
-1.252006e+00
-1.253264e+00
-1.254681e+00
-1.256151e+00
-1.257481e+00
-1.258612e+00
-1.259757e+00
-1.261176e+00
-1.262892e+00
-1.264710e+00
-1.266424e+00
-1.267931e+00
-1.269216e+00
-1.270377e+00
-1.271586e+00
-1.272895e+00
-1.274225e+00
-1.275582e+00
-1.277050e+00
-1.278589e+00
-1.280055e+00
-1.281347e+00
-1.282363e+00
-1.283003e+00
-1.283395e+00
-1.283909e+00
-1.284812e+00
-1.286046e+00
-1.287381e+00
-1.288607e+00
-1.289595e+00
-1.290312e+00
-1.290858e+00
-1.291415e+00
-1.292091e+00
-1.292884e+00
-1.293822e+00
-1.295025e+00
-1.296557e+00
-1.298280e+00
-1.299897e+00
-1.301224e+00
-1.302363e+00
-1.303493e+00
-1.304620e+00
-1.305663e+00
-1.306626e+00
-1.307588e+00
-1.308621e+00
-1.309771e+00
-1.311072e+00
-1.312471e+00
-1.313762e+00
-1.314795e+00
-1.315696e+00
-1.316734e+00
-1.318097e+00
-1.319792e+00
-1.321553e+00
-1.322893e+00
-1.323427e+00
-1.323078e+00
-1.322074e+00
-1.320880e+00
-1.320082e+00
-1.320070e+00
-1.320565e+00
-1.320620e+00
-1.319368e+00
-1.316694e+00
-1.313167e+00
-1.309561e+00
-1.306454e+00
-1.303955e+00
-1.301552e+00
-1.298412e+00
-1.294119e+00
-1.288990e+00
-1.283566e+00
-1.278188e+00
-1.273212e+00
-1.269042e+00
-1.265562e+00
-1.261935e+00
-1.257346e+00
-1.251983e+00
-1.246927e+00
-1.242708e+00
-1.238491e+00
-1.233343e+00
-1.227608e+00
-1.222325e+00
-1.217938e+00
-1.214092e+00
-1.210253e+00
-1.206126e+00
-1.201724e+00
-1.197481e+00
-1.194144e+00
-1.192120e+00
-1.190999e+00
-1.189961e+00
-1.188473e+00
-1.186595e+00
-1.184796e+00
-1.183448e+00
-1.182470e+00
-1.181475e+00
-1.180105e+00
-1.178332e+00
-1.176503e+00
-1.174893e+00
-1.173274e+00
-1.171267e+00
-1.168989e+00
-1.167018e+00
-1.165684e+00
-1.164595e+00
-1.162968e+00
-1.160308e+00
-1.156709e+00
-1.152548e+00
-1.147879e+00
-1.142321e+00
-1.135591e+00
-1.127772e+00
-1.119109e+00
-1.110022e+00
-1.101117e+00
-1.092804e+00
-1.085143e+00
-1.077949e+00
-1.070787e+00
-1.063195e+00
-1.054966e+00
-1.046024e+00
-1.036313e+00
-1.025988e+00
-1.015378e+00
-1.004635e+00
-9.936451e-01
-9.822193e-01
-9.703887e-01
-9.585512e-01
-9.471592e-01
-9.361691e-01
-9.248414e-01
-9.120473e-01
-8.968527e-01
-8.790449e-01
-8.591377e-01
-8.378898e-01
-8.159586e-01
-7.937973e-01
-7.715075e-01
-7.487626e-01
-7.249580e-01
-6.994940e-01
-6.722167e-01
-6.437998e-01
-6.154426e-01
-5.881496e-01
-5.621978e-01
-5.368926e-01
-5.111723e-01
-4.845906e-01
-4.572624e-01
-4.292783e-01
-4.005606e-01
-3.708573e-01
-3.398220e-01
-3.074112e-01
-2.741642e-01
-2.410101e-01
-2.086858e-01
-1.770457e-01
-1.451022e-01
-1.119456e-01
-7.737748e-02
-4.197417e-02
-6.735481e-03
2.800484e-02
6.303207e-02
9.892371e-02
1.350274e-01
1.703414e-01
2.046762e-01
2.386113e-01
2.730540e-01
3.090374e-01
3.470015e-01
3.858439e-01
4.234241e-01
4.583371e-01
4.906948e-01
5.214188e-01
5.514748e-01
5.815722e-01
6.121133e-01
6.433109e-01
6.752828e-01
7.080061e-01
7.413232e-01
7.750876e-01
8.092661e-01
8.438442e-01
8.785371e-01
9.129395e-01
9.473247e-01
9.828093e-01
1.020376e+00
1.059891e+00
1.100198e+00
1.140162e+00
1.179460e+00
1.218731e+00
1.259431e+00
1.303051e+00
1.349956e+00
1.398891e+00
1.447282e+00
1.492500e+00
1.533805e+00
1.572932e+00
1.612608e+00
1.654934e+00
1.700574e+00
1.748689e+00
1.797916e+00
1.847393e+00
1.896996e+00
1.947137e+00
1.998027e+00
2.049071e+00
2.099588e+00
2.149875e+00
2.201049e+00
2.254224e+00
2.309960e+00
2.367884e+00
2.426842e+00
2.485754e+00
2.544369e+00
2.603239e+00
2.662936e+00
2.723248e+00
2.783418e+00
2.843284e+00
2.903785e+00
2.966170e+00
3.030885e+00
3.097149e+00
3.163504e+00
3.228983e+00
3.293690e+00
3.358213e+00
3.422996e+00
3.488407e+00
3.554900e+00
3.622996e+00
3.693080e+00
3.764936e+00
3.837617e+00
3.910204e+00
3.982598e+00
4.055451e+00
4.129623e+00
4.205707e+00
4.283719e+00
4.362972e+00
4.442189e+00
4.520064e+00
4.595958e+00
4.670019e+00
4.742733e+00
4.814542e+00
4.886056e+00
4.958479e+00
5.033204e+00
5.110938e+00
5.191495e+00
5.273909e+00
5.356698e+00
5.438883e+00
5.520815e+00
5.603706e+00
5.688658e+00
5.776148e+00
5.865755e+00
5.955967e+00
6.045059e+00
6.132634e+00
6.219598e+00
6.306735e+00
6.393838e+00
6.479799e+00
6.563207e+00
6.643078e+00
6.719383e+00
6.793003e+00
6.864873e+00
6.934954e+00
7.002094e+00
7.064892e+00
7.122597e+00
7.175318e+00
7.223862e+00
7.269519e+00
7.313750e+00
7.357811e+00
7.402463e+00
7.447832e+00
7.493673e+00
7.540101e+00
7.587849e+00
7.637611e+00
7.689606e+00
7.743862e+00
7.800472e+00
7.859523e+00
7.920846e+00
7.983772e+00
8.047185e+00
8.109997e+00
8.171704e+00
8.232677e+00
8.294199e+00
8.358042e+00
8.425358e+00
8.495553e+00
8.566353e+00
8.635064e+00
8.700167e+00
8.762305e+00
8.823998e+00
8.888385e+00
8.958154e+00
9.035078e+00
9.119600e+00
9.210469e+00
9.305423e+00
9.402679e+00
9.501625e+00
9.602390e+00
9.705361e+00
9.810977e+00
9.919414e+00
1.003035e+01
1.014321e+01
1.025735e+01
1.037206e+01
1.048631e+01
1.059856e+01
1.070684e+01
1.080954e+01
1.090600e+01
1.099599e+01
1.107890e+01
1.115373e+01
1.121989e+01
1.127786e+01
1.132896e+01
1.137463e+01
1.141617e+01
1.145480e+01
1.149122e+01
1.152505e+01
1.155553e+01
1.158219e+01
1.160443e+01
1.162124e+01
1.163190e+01
1.163645e+01
1.163552e+01
1.162980e+01
1.161954e+01
1.160470e+01
1.158508e+01
1.156027e+01
1.152980e+01
1.149359e+01
1.145201e+01
1.140544e+01
1.135408e+01
1.129827e+01
1.123864e+01
1.117587e+01
1.111058e+01
1.104317e+01
1.097380e+01
1.090215e+01
1.082747e+01
1.074885e+01
1.066565e+01
1.057776e+01
1.048576e+01
1.039100e+01
1.029482e+01
1.019753e+01
1.009825e+01
9.995813e+00
9.889641e+00
9.779989e+00
9.667540e+00
9.552740e+00
9.435893e+00
9.317841e+00
9.199623e+00
9.081106e+00
8.960654e+00
8.836377e+00
8.707312e+00
8.573426e+00
8.434931e+00
8.291996e+00
8.144930e+00
7.994071e+00
7.839610e+00
7.681812e+00
7.521131e+00
7.357972e+00
7.192469e+00
7.024393e+00
6.853267e+00
6.678831e+00
6.501499e+00
6.322511e+00
6.143798e+00
5.967463e+00
5.794843e+00
5.625903e+00
5.459721e+00
5.295465e+00
5.132870e+00
4.972210e+00
4.814136e+00
4.659573e+00
4.509374e+00
4.363406e+00
4.219911e+00
4.076252e+00
3.930223e+00
3.780628e+00
3.627425e+00
3.471837e+00
3.315965e+00
3.161840e+00
3.010267e+00
2.860216e+00
2.709555e+00
2.556516e+00
2.400580e+00
2.242287e+00
2.082513e+00
1.921854e+00
1.760475e+00
1.598241e+00
1.434725e+00
1.269293e+00
1.101658e+00
9.322760e-01
7.620141e-01
5.918253e-01
4.228072e-01
2.559852e-01
9.188335e-02
-6.945626e-02
-2.281947e-01
-3.846601e-01
-5.395005e-01
-6.937608e-01
-8.487294e-01
-1.005604e+00
-1.165190e+00
-1.327786e+00
-1.493349e+00
-1.661672e+00
-1.832273e+00
-2.004357e+00
-2.177038e+00
-2.349217e+00
-2.519303e+00
-2.685784e+00
-2.848078e+00
-3.006265e+00
-3.160113e+00
-3.308889e+00
-3.452034e+00
-3.589640e+00
-3.722265e+00
-3.850304e+00
-3.973390e+00
-4.090474e+00
-4.200683e+00
-4.304169e+00
-4.402120e+00
-4.496086e+00
-4.587382e+00
-4.676992e+00
-4.765665e+00
-4.853760e+00
-4.941003e+00
-5.026523e+00
-5.109198e+00
-5.188136e+00
-5.263168e+00
-5.334984e+00
-5.404715e+00
-5.473392e+00
-5.541775e+00
-5.610440e+00
-5.679788e+00
-5.749944e+00
-5.820660e+00
-5.891264e+00
-5.960885e+00
-6.028938e+00
-6.095395e+00
-6.160446e+00
-6.223885e+00
-6.285088e+00
-6.343497e+00
-6.398677e+00
-6.449930e+00
-6.496317e+00
-6.537104e+00
-6.571966e+00
-6.600801e+00
-6.623573e+00
-6.640325e+00
-6.651193e+00
-6.656332e+00
-6.655882e+00
-6.650048e+00
-6.639261e+00
-6.624311e+00
-6.606242e+00
-6.585981e+00
-6.564019e+00
-6.540367e+00
-6.514677e+00
-6.486377e+00
-6.454910e+00
-6.420084e+00
-6.382171e+00
-6.341575e+00
-6.298398e+00
-6.252324e+00
-6.202872e+00
-6.149763e+00
-6.093054e+00
-6.032944e+00
-5.969650e+00
-5.903573e+00
-5.835422e+00
-5.766063e+00
-5.696385e+00
-5.627242e+00
-5.559223e+00
-5.492328e+00
-5.425924e+00
-5.359084e+00
-5.291086e+00
-5.221745e+00
-5.151335e+00
-5.080265e+00
-5.008965e+00
-4.937996e+00
-4.868050e+00
-4.799753e+00
-4.733640e+00
-4.670244e+00
-4.609735e+00
-4.551348e+00
-4.493328e+00
-4.433473e+00
-4.370042e+00
-4.302494e+00
-4.231376e+00
-4.157546e+00
-4.081628e+00
-4.003995e+00
-3.924844e+00
-3.844243e+00
-3.762377e+00
-3.679921e+00
-3.598105e+00
-3.518223e+00
-3.441033e+00
-3.366738e+00
-3.295354e+00
-3.226770e+00
-3.160624e+00
-3.096433e+00
-3.033723e+00
-2.971835e+00
-2.909887e+00
-2.847382e+00
-2.784695e+00
-2.722544e+00
-2.661078e+00
-2.599586e+00
-2.536906e+00
-2.472016e+00
-2.404354e+00
-2.334017e+00
-2.261791e+00
-2.188618e+00
-2.114932e+00
-2.040682e+00
-1.965756e+00
-1.890099e+00
-1.813553e+00
-1.735914e+00
-1.657195e+00
-1.577638e+00
-1.497408e+00
-1.416442e+00
-1.334633e+00
-1.251962e+00
-1.168447e+00
-1.084080e+00
-9.988576e-01
-9.127834e-01
-8.259135e-01
-7.384475e-01
-6.507424e-01
-5.632640e-01
-4.766212e-01
-3.915672e-01
-3.088673e-01
-2.291469e-01
-1.526922e-01
-7.922797e-02
-8.000382e-03
6.175270e-02
1.303594e-01
1.975844e-01
2.627332e-01
3.249591e-01
3.837007e-01
4.389370e-01
4.910739e-01
5.406343e-01
5.880217e-01
6.334554e-01
6.769807e-01
7.184124e-01
7.573288e-01
7.933269e-01
8.263503e-01
8.568047e-01
8.854533e-01
9.131312e-01
9.403445e-01
9.669961e-01
9.924681e-01
1.015976e+00
1.036926e+00
1.055126e+00
1.070815e+00
1.084556e+00
1.097084e+00
1.109137e+00
1.121174e+00
1.133123e+00
1.144470e+00
1.154732e+00
1.163808e+00
1.171820e+00
1.178843e+00
1.185054e+00
1.190957e+00
1.197229e+00
1.204261e+00
1.211653e+00
1.218180e+00
1.223090e+00
1.227364e+00
1.232444e+00
1.238611e+00
1.245663e+00
1.253495e+00
1.261574e+00
1.268945e+00
1.274758e+00
1.278754e+00
1.281336e+00
1.283200e+00
1.284997e+00
1.287051e+00
1.289341e+00
1.291779e+00
1.294398e+00
1.297344e+00
1.300772e+00
1.304786e+00
1.309521e+00
1.315182e+00
1.322045e+00
1.330478e+00
1.340933e+00
1.353838e+00
1.369515e+00
1.388093e+00
1.409298e+00
1.432386e+00
1.456447e+00
1.480664e+00
1.504322e+00
1.526839e+00
1.547814e+00
1.566850e+00
1.583326e+00
1.596563e+00
1.606225e+00
1.612488e+00
1.615798e+00
1.616478e+00
1.614523e+00
1.609695e+00
1.601734e+00
1.590415e+00
1.575483e+00
1.556662e+00
1.533773e+00
1.506768e+00
1.475667e+00
1.440450e+00
1.400866e+00
1.356388e+00
1.306597e+00
1.251711e+00
1.192580e+00
1.130277e+00
1.065845e+00
1.000080e+00
9.333386e-01
8.657085e-01
7.973901e-01
7.288165e-01
6.605245e-01
5.929906e-01
5.265097e-01
4.611465e-01
3.968170e-01
3.335235e-01
2.716007e-01
2.117648e-01
1.548988e-01
1.016610e-01
5.214721e-02
5.906438e-03
-3.782500e-02
-8.006642e-02
-1.219920e-01
-1.644345e-01
-2.074664e-01
-2.505541e-01
-2.929350e-01
-3.338194e-01
-3.725272e-01
-4.086300e-01
-4.420651e-01
-4.731748e-01
