EVENT_NAME: L_AQUILA
EVENT_ID: IT-2009-0009
EVENT_DATE_YYYYMMDD: 20090406
EVENT_TIME_HHMMSS: 013240
EVENT_LATITUDE_DEGREE: 42.3420
EVENT_LONGITUDE_DEGREE: 13.3800
EVENT_DEPTH_KM: 8.3
HYPOCENTER_REFERENCE: INGV-CNT_Seismic_Bulletin
MAGNITUDE_W: 6.1
MAGNITUDE_W_REFERENCE: INGV-CNT_Seismic_Bulletin
MAGNITUDE_L: 
MAGNITUDE_L_REFERENCE: 
FOCAL_MECHANISM: Normal faulting
NETWORK: IT
STATION_CODE: AQK
STATION_NAME: 
STATION_LATITUDE_DEGREE: 42.344967
STATION_LONGITUDE_DEGREE: 13.400949
STATION_ELEVATION_M: 726
LOCATION: 
SENSOR_DEPTH_M: 0.0
VS30_M/S: 705
SITE_CLASSIFICATION_EC8: B
MORPHOLOGIC_CLASSIFICATION: 
EPICENTRAL_DISTANCE_KM: 1.8
EARTHQUAKE_BACKAZIMUTH_DEGREE: 79.2
DATE_TIME_FIRST_SAMPLE_YYYYMMDD_HHMMSS: 20090406_013212.000
DATE_TIME_FIRST_SAMPLE_PRECISION: seconds
SAMPLING_INTERVAL_S: 0.005000
NDATA: 171200
DURATION_S: 856.000
STREAM: HNZ
UNITS: cm/s^2
INSTRUMENT: sensor = FBA-3 [Kinemetrics] | digitizer = Etna [Kinemetrics]
INSTRUMENT_ANALOG/DIGITAL: D
INSTRUMENTAL_FREQUENCY_HZ: 204.000
INSTRUMENTAL_DAMPING: 0.700000
FULL_SCALE_G: 1.0
N_BIT_DIGITAL_CONVERTER: 18
PGA_CM/S^2: 366.284607
TIME_PGA_S: 31.785000
BASELINE_CORRECTION: BASELINE NOT REMOVED
FILTER_TYPE: 
FILTER_ORDER: 
LOW_CUT_FREQUENCY_HZ: 
HIGH_CUT_FREQUENCY_HZ: 
LATE/NORMAL_TRIGGERED: NT
DATABASE_VERSION: 0.5
HEADER_FORMAT: DYNA 1.2
DATA_TYPE: ACCELERATION
PROCESSING: converted to cm/s^2
DATA_TIMESTAMP_YYYYMMDD_HHMMSS: 20211011_155502.353
DATA_LICENSE: CC-BY3_0-IT (http://creativecommons.org/licenses/by/3.0/deed.en)
DATA_CITATION: Luzi L, Pacor F, Puglia R (2019). Italian Accelerometric Archive v 3.0 - Istituto Nazionale di Geofisica e Vulcanologia, Dipartimento della Protezione Civile Nazionale. doi: 10.13127/itaca.3.1
DATA_CREATOR: ITACA working group
ORIGINAL_DATA_MEDIATOR_CITATION: data obtained within the DPC-INGV data exchange agreements
ORIGINAL_DATA_MEDIATOR: Archive of Italian Department of Civil Protection
ORIGINAL_DATA_CREATOR_CITATION: Presidency Of Counsil Of Ministers-Civil Protection Department. (1972). Italian Strong Motion Network. Presidency of Counsil of Ministers - Civil Protection Department. https://doi.org/10.7914/SN/IT http://www.fdsn.org/networks/detail/IT/
ORIGINAL_DATA_CREATOR: network: IT (Italian Strong Motion Network (RAN)); owner: Presidency of Counsil of Ministers - Civil Protection Department (PCM - DPC)
USER1: 
USER2: 
USER3: 
USER4: 
USER5: 
[...]
-0.031770
-0.032706
-0.027088
-0.031770
-0.029195
-0.035281
-0.031067
-0.028024
-0.031301
-0.035749
-0.034344
-0.034813
-0.039962
-0.029897
-0.037153
-0.035515
-0.029429
-0.037856
-0.039494
-0.037153
-0.031536
-0.035281
-0.031067
-0.032003
-0.032472
-0.032472
-0.039026
-0.034110
-0.033876
-0.032706
-0.037387
-0.031536
-0.027790
-0.037621
-0.035047
-0.035515
-0.033408
-0.031067
-0.034344
-0.032706
-0.031301
-0.033174
-0.029663
-0.032706
-0.035515
-0.030131
-0.039026
-0.033642
-0.032003
-0.036919
-0.029429
-0.035047
-0.033876
-0.032238
-0.039962
-0.040664
-0.031536
-0.030131
-0.036217
-0.032940
-0.029195
-0.033408
-0.034344
-0.031770
-0.033642
-0.033642
-0.037856
-0.032706
-0.035047
-0.033876
-0.028727
-0.038792
-0.032003
-0.040430
-0.036685
-0.031301
-0.044644
-0.029195
-0.032472
-0.038324
-0.034813
-0.036919
-0.033642
-0.037153
-0.034578
-0.035749
-0.032472
-0.032706
-0.038324
-0.028961
-0.035047
-0.037387
-0.028961
-0.032238
-0.027088
-0.033174
-0.040430
-0.036217
-0.037387
-0.032238
-0.040664
-0.036685
-0.031301
-0.033876
-0.032238
-0.039728
-0.024279
-0.026854
-0.041601
-0.034110
-0.026854
-0.028493
-0.036919
-0.035749
-0.034110
-0.032706
-0.034578
-0.036919
-0.032472
-0.032238
-0.030131
-0.032940
-0.035749
-0.034110
-0.033876
-0.033174
-0.033642
-0.032706
-0.030131
-0.034110
-0.039026
-0.036451
-0.037621
-0.033876
-0.031301
-0.032706
-0.034344
-0.037387
-0.034344
-0.036685
-0.028258
-0.034110
-0.041835
-0.031536
-0.033642
-0.029195
-0.034813
-0.039728
-0.035281
-0.032238
-0.030833
-0.033876
-0.029195
-0.030131
-0.036217
-0.039962
-0.031301
-0.032706
-0.036919
-0.037856
-0.040196
-0.025918
-0.038090
-0.038090
-0.029663
-0.043005
-0.032706
-0.031770
-0.035515
-0.035047
-0.034578
-0.031536
-0.035749
-0.027556
-0.033408
-0.041601
-0.032472
-0.037621
-0.037856
-0.035281
-0.035281
-0.033408
-0.035749
-0.030599
-0.037621
-0.035515
-0.032238
-0.037387
-0.025918
-0.032706
-0.035983
-0.028258
-0.034578
-0.034578
-0.028493
-0.037387
-0.040664
-0.028024
-0.033642
-0.038792
-0.031536
-0.034344
-0.035515
-0.031536
-0.034344
-0.030833
-0.031301
-0.036451
-0.034344
-0.036685
-0.032003
-0.032940
-0.033642
-0.032472
-0.036217
-0.034813
-0.034578
-0.033642
-0.039026
-0.038558
-0.037387
-0.036451
-0.028727
-0.035047
-0.035515
-0.031067
-0.036919
-0.029897
-0.028961
-0.035281
-0.029897
-0.041133
-0.035515
-0.026386
-0.041367
-0.036451
-0.034110
-0.036217
-0.035983
-0.035515
-0.032238
-0.036451
-0.038324
-0.034578
-0.033642
-0.037856
-0.029897
-0.031770
-0.038792
-0.035047
-0.039260
-0.032238
-0.031067
-0.035515
-0.034813
-0.041601
-0.037621
-0.032238
-0.034578
-0.039494
-0.038090
-0.031301
-0.037387
-0.037856
-0.033642
-0.037153
-0.035749
-0.031770
-0.035047
-0.036919
-0.033408
-0.037387
-0.034110
-0.037387
-0.043473
-0.028727
-0.035281
-0.036685
-0.032706
-0.042537
-0.038324
-0.036919
-0.034110
-0.034344
-0.035047
-0.037153
-0.037856
-0.032472
-0.041601
-0.033642
-0.032238
-0.039026
-0.030833
-0.038090
-0.037621
-0.032003
-0.035047
-0.038792
-0.037856
-0.032706
-0.035047
-0.036451
-0.035047
-0.035515
-0.035749
-0.037856
-0.036685
-0.034578
-0.037153
-0.030833
-0.033876
-0.036451
-0.032003
-0.039026
-0.030131
-0.029897
-0.037856
-0.033642
-0.031301
-0.034813
-0.037621
-0.034110
-0.033408
-0.032003
-0.037387
-0.037153
-0.032238
-0.032003
-0.036919
-0.042069
-0.036217
-0.033876
-0.034578
-0.033876
-0.034813
-0.035983
-0.035749
-0.036919
-0.034344
-0.034578
-0.038324
-0.032940
-0.033408
-0.038792
-0.036685
-0.031536
-0.037153
-0.039962
-0.033876
-0.032003
-0.030599
-0.031770
-0.030833
-0.035515
-0.030599
-0.031770
-0.037387
-0.027322
-0.036451
-0.037856
-0.039962
-0.040899
-0.036217
-0.035749
-0.030833
-0.039026
-0.036919
-0.032238
-0.031770
-0.029663
-0.032706
-0.036451
-0.035983
-0.033876
-0.032706
-0.032472
-0.032940
-0.032706
-0.035515
-0.037387
-0.038324
-0.037387
-0.034110
-0.032706
-0.036919
-0.035749
-0.035047
-0.035047
-0.028258
-0.032706
-0.032238
-0.036451
-0.038558
-0.030365
-0.031770
-0.039494
-0.043005
-0.029663
-0.034344
-0.035515
-0.034813
-0.039026
-0.032238
-0.036451
-0.034110
-0.035281
-0.029663
-0.035047
-0.039026
-0.034110
-0.040664
-0.027322
-0.037387
-0.043707
-0.034344
-0.039728
-0.032472
-0.032472
-0.040430
-0.033876
-0.033876
-0.042537
-0.035749
-0.035983
-0.037153
-0.032472
-0.038558
-0.035749
-0.030365
-0.028961
-0.035047
-0.039728
-0.031536
-0.035515
-0.040430
-0.032003
-0.030365
-0.033876
-0.035749
-0.033642
-0.033408
-0.039260
-0.035983
-0.035749
-0.036217
-0.028961
-0.031067
-0.035281
-0.036217
-0.033876
-0.031301
-0.033876
-0.035047
-0.033174
-0.034578
-0.029429
-0.027790
-0.031536
-0.033876
-0.041133
-0.035515
-0.032940
-0.031536
-0.031067
-0.034578
-0.031536
-0.036685
-0.034813
-0.033876
-0.029663
-0.031067
-0.035749
-0.024981
-0.033876
-0.036451
-0.036217
-0.038090
-0.027088
-0.034578
-0.035749
-0.034813
-0.033408
-0.031770
-0.037387
-0.031770
-0.039728
-0.031770
-0.025684
-0.040430
-0.030599
-0.032003
-0.037387
-0.033408
-0.035281
-0.035983
-0.033876
-0.034578
-0.034813
-0.024279
-0.032003
-0.039260
-0.035983
-0.035281
-0.032706
-0.034578
-0.033408
-0.034344
-0.031067
-0.033876
-0.042537
-0.037387
-0.033408
-0.038324
-0.035749
-0.034110
-0.038090
-0.028258
-0.028727
-0.037387
-0.026854
-0.033174
-0.039962
-0.027556
-0.030131
-0.032472
-0.030365
-0.028961
-0.030833
-0.037856
-0.037621
-0.034813
-0.031301
-0.035047
-0.037153
-0.035047
-0.031067
-0.035047
-0.039260
-0.032472
-0.038324
-0.035047
-0.035047
-0.035047
-0.029195
-0.037387
-0.032940
-0.034578
-0.037153
-0.025918
-0.028961
-0.037856
-0.034344
-0.032940
-0.038558
-0.031301
-0.036217
-0.037153
-0.023577
-0.036217
-0.032472
-0.026854
-0.034344
-0.039026
-0.040899
-0.030365
-0.043005
-0.033876
-0.029897
-0.043473
-0.031301
-0.039026
-0.038324
-0.035983
-0.039260
-0.029663
-0.031770
-0.034813
-0.029429
-0.032238
-0.041835
-0.036451
-0.032472
-0.036217
-0.035983
-0.033408
-0.032003
-0.030833
-0.033876
-0.038558
-0.035281
-0.036685
-0.033876
-0.030131
-0.030599
-0.030365
-0.033876
-0.034110
-0.033408
-0.031301
-0.037153
-0.041601
-0.035749
-0.036685
-0.036451
-0.035047
-0.035983
-0.032940
-0.037387
-0.037387
-0.034344
-0.041133
-0.035281
-0.034110
-0.034110
-0.030131
-0.035281
-0.030833
-0.035983
-0.039260
-0.028727
-0.035047
-0.034344
-0.034344
-0.039962
-0.032940
-0.036451
-0.036217
-0.028258
-0.030365
-0.036217
-0.034813
-0.032003
-0.033174
-0.032706
-0.033174
-0.028493
-0.033174
-0.037621
-0.033876
-0.037153
-0.029897
-0.028727
-0.037856
-0.037621
-0.034344
-0.035749
-0.037153
-0.032003
-0.031770
-0.034578
-0.033408
-0.032706
-0.030131
-0.033642
-0.039260
-0.033408
-0.032940
-0.035515
-0.035281
-0.038792
-0.032940
-0.033876
-0.037856
-0.033408
-0.036919
-0.035281
-0.035983
-0.036685
-0.030833
-0.034344
-0.033408
-0.034110
-0.032940
-0.036217
-0.038792
-0.032940
-0.040664
-0.037856
-0.036919
-0.040664
-0.033876
-0.036451
-0.039026
-0.039260
-0.033642
-0.033174
-0.038558
-0.036451
-0.027322
-0.030131
-0.039026
-0.031301
-0.034578
-0.030365
-0.036451
-0.044644
-0.029429
-0.036919
-0.036685
-0.032472
-0.032940
-0.033642
-0.035749
-0.034813
-0.039962
-0.033876
-0.040196
-0.034344
-0.029663
-0.043473
-0.030365
-0.035749
-0.038324
-0.034344
-0.038558
-0.033876
-0.041835
-0.029897
-0.030131
-0.035749
-0.029195
-0.036451
-0.029897
-0.034578
-0.037153
-0.036217
-0.038558
-0.028493
-0.034578
-0.039494
-0.037621
-0.032940
-0.029897
-0.035983
-0.034813
-0.034578
-0.034110
-0.031770
-0.036451
-0.036451
-0.035281
-0.035515
-0.035515
-0.033408
-0.032472
-0.038090
-0.035749
-0.039026
-0.041601
-0.034344
-0.035047
-0.030833
-0.033642
-0.036217
-0.031067
-0.036217
-0.034344
-0.033174
-0.031770
-0.034110
-0.033876
-0.031536
-0.041367
-0.031301
-0.029663
-0.040899
-0.035047
-0.034344
-0.036685
-0.032940
-0.035515
-0.036451
-0.031067
-0.032003
-0.037621
-0.037856
-0.027322
-0.036919
-0.040196
-0.028727
-0.034344
-0.039494
-0.040664
-0.033174
-0.028493
-0.034813
-0.038558
-0.031301
-0.031770
-0.038324
-0.036919
-0.034813
-0.030599
-0.035749
-0.037856
-0.033642
-0.034110
-0.036685
-0.034110
-0.032706
-0.033408
-0.028493
-0.040196
-0.035281
-0.027322
-0.038558
-0.032940
-0.032940
-0.036685
-0.036919
-0.039962
-0.033408
-0.033174
-0.039026
-0.034578
-0.031536
-0.036451
-0.034578
-0.031770
-0.032472
-0.032940
-0.041133
-0.033642
-0.028493
-0.038792
-0.034110
-0.037856
-0.033642
-0.032706
-0.037153
-0.029663
-0.032003
-0.030131
-0.037387
-0.034813
-0.028961
-0.030833
-0.030131
-0.033174
-0.032706
-0.032003
-0.033408
-0.039026
-0.036217
-0.030599
-0.029195
-0.035047
-0.037621
-0.034110
-0.031536
-0.032003
-0.034578
-0.030131
-0.036451
-0.039962
-0.030365
-0.035749
-0.040664
-0.028727
-0.039260
-0.043473
-0.027088
-0.030599
-0.032003
-0.036685
-0.038792
-0.032472
-0.034813
-0.034578
-0.036685
-0.034813
-0.032003
-0.033408
-0.033876
-0.037387
-0.035281
-0.034110
-0.027790
-0.031067
-0.042303
-0.035749
-0.036451
-0.036217
-0.032472
-0.034344
-0.031770
-0.028961
-0.033408
-0.034344
-0.031770
-0.035281
-0.029195
-0.031536
-0.035281
-0.031067
-0.032238
-0.034110
-0.037621
-0.036685
-0.035281
-0.029897
-0.029663
-0.039260
-0.037621
-0.033876
-0.038558
-0.035515
-0.031301
-0.035749
-0.035515
-0.029429
-0.031770
-0.035515
-0.030833
-0.033876
-0.032238
-0.028493
-0.036919
-0.038090
-0.032940
-0.034110
-0.030131
-0.032940
-0.033642
-0.029897
-0.035047
-0.027088
-0.037387
-0.028258
-0.034813
-0.041835
-0.031301
-0.039728
-0.020300
-0.056582
-0.012809
-0.044644
-0.059156
-0.093097
-0.191175
0.003107
-0.307511
-0.008596
-0.092630
-0.333025
-0.656050
-2.600753
-3.153172
-6.923432
-8.847770
-7.721865
-6.643946
-2.543170
-1.119520
-0.697013
-5.668785
-5.538171
-5.647953
-5.577496
7.472236
7.364092
7.238160
9.430281
0.653839
-2.572664
3.319261
2.021310
-3.287063
5.334186
4.917531
1.161081
6.945096
10.340840
-2.183629
-13.517820
0.254973
-1.807235
-4.721012
2.241107
3.304982
7.730421
0.894235
5.629824
6.895941
-9.873022
-10.365050
-3.138425
-3.464727
-3.933815
0.798966
-9.122575
-19.839510
-16.672230
-13.909890
4.071113
17.574249
16.045031
13.426420
1.285141
-11.207020
-12.506140
2.841044
21.663321
27.589649
10.504450
-14.513810
-10.178020
-3.743511
-11.967070
-1.863413
5.820596
-7.838435
-21.309740
-23.337299
-10.779600
7.938749
16.902451
14.159080
15.004560
2.346910
-16.292320
-5.323758
-6.382248
-5.294732
30.791340
45.767521
29.524521
17.708139
12.810340
-11.639360
-25.454750
-4.851626
-7.453146
-18.041330
-9.774242
-13.646330
0.178197
6.570107
-12.040100
-4.560436
-24.180210
-49.022221
-15.513320
11.020360
-2.944142
-13.304810
-1.694411
-2.012052
-11.740710
9.787714
35.905430
18.259390
2.333567
0.312322
-7.935811
4.017509
20.561060
17.215879
4.606210
-7.008168
-5.005180
10.944750
9.934246
-0.373754
-5.644675
-7.040002
-29.972420
-35.452839
-23.554760
-46.627850
-44.239578
-42.786201
-51.908840
-65.079819
-95.187363
-122.226402
-130.511505
-136.183395
-130.020203
-65.475410
-77.238426
-137.278397
-155.278900
-195.416306
-222.723602
-192.798203
-148.149094
-118.311302
-29.917879
36.168301
26.553169
-33.801201
-123.539803
-83.668259
8.824492
52.829819
64.219963
65.582512
84.592987
31.651110
-37.668129
-17.683201
73.274246
130.346603
114.856903
85.685417
56.228611
27.594101
19.616791
51.650551
39.970161
52.979870
66.880928
-35.154160
-21.372940
86.513817
104.706398
96.280861
113.192596
108.156197
77.180740
56.144100
59.748638
107.494301
56.225559
-30.540291
-46.769699
-50.510700
-18.167030
-28.580839
-53.433140
-62.862190
-12.734370
17.158300
-26.265120
16.022091
24.185961
-16.245970
7.008531
35.850658
18.712090
-3.198582
-51.661659
-88.840401
-61.930801
-11.507110
46.831860
26.229910
-22.834040
-15.750900
17.784920
-15.117730
-17.215981
29.686270
-56.081940
-78.405296
-18.788509
-38.557850
5.615077
108.921402
107.586502
37.312469
-17.443501
-76.625847
-159.809402
-186.213394
-145.973206
-132.358902
-80.762444
-53.641701
-136.463593
-211.754105
-252.774994
-294.412415
-271.089508
-163.864502
-115.197601
-71.573318
-19.368080
-65.731247
-103.004097
-99.704330
-58.638760
-0.685543
76.332916
111.460899
36.312962
32.478100
-38.992531
-119.071297
11.344320
36.956669
-28.260389
-41.386890
-123.760803
-215.260803
-199.842194
-140.409897
-126.021896
-58.671059
14.141060
-1.611314
53.922020
73.858269
40.891251
143.873901
102.113098
-43.913280
20.182091
156.193497
207.941101
140.412094
99.281013
123.362000
43.801048
-13.795430
86.853691
240.739395
300.484192
349.265015
366.284607
216.577606
108.859200
5.130774
-96.673981
-140.545700
-173.953201
-138.366592
-84.675957
61.980549
106.994003
82.100548
90.849136
-85.123039
-216.948303
-237.800003
-211.635193
-54.603989
89.044640
116.336502
70.472816
-4.329403
-39.041920
30.652769
92.170959
105.836098
168.163895
116.511299
-26.577379
-58.719978
-71.127167
-50.292549
55.039970
61.076321
3.411487
19.085211
-9.020518
-26.677561
80.834198
171.297699
150.990204
135.177704
157.511093
167.486801
232.304199
261.671906
179.277603
116.250603
77.379471
55.044411
121.050499
207.019394
213.212097
163.002594
106.920097
64.562881
21.039511
15.830850
55.264679
55.691639
75.880676
78.461838
-33.542309
-143.895996
-207.325607
-313.016998
-349.415100
-235.044205
-162.160004
-74.780632
2.780184
-71.558807
-124.020103
-132.331207
-127.066200
-99.670853
-103.179001
-93.459419
-26.881210
60.273441
129.494598
199.286194
150.703003
57.172161
100.633301
85.432617
118.806503
263.386688
193.755203
50.430779
-27.493320
-77.203079
-19.902710
28.091280
121.844498
213.207596
92.430313
39.915859
43.078930
-42.828800
-68.048370
-106.973999
-112.947899
-95.072670
-46.066071
78.058762
154.375900
173.901794
67.098633
-69.051392
-150.356705
-194.036194
-202.847794
-238.718002
-216.076294
-171.409302
-141.945404
-111.609398
-150.959503
-184.877502
-130.047104
-59.675240
-54.919529
-40.561539
-10.402030
-52.682232
-38.019009
83.959579
203.505402
267.273987
256.817596
230.706207
191.542297
163.384995
172.046097
114.918503
46.495258
30.726740
-21.076599
-78.228569
-99.551247
-132.840103
-169.100800
-134.071793
-41.640160
-29.479691
-81.970497
-97.436600
-96.841347
-95.134697
-95.839973
-79.052277
-79.133270
-151.639008
-166.057098
-103.871300
-62.676571
17.542410
152.579895
232.082993
204.913101
127.409698
71.288116
61.281601
64.428993
63.919640
89.639900
145.509598
149.405594
56.149021
3.410551
-0.787133
-78.384003
-134.460602
-102.304901
-23.838930
51.917160
42.534000
56.167278
113.014000
108.811600
99.249184
37.434891
-17.724400
-12.030730
-1.261839
37.375198
107.651299
220.520599
237.557404
211.578003
187.267303
117.511597
97.136642
44.346451
-18.778910
-43.013721
-89.018532
-157.578003
-221.075500
-250.355804
-172.531204
-62.994438
-36.396160
2.605095
61.310162
94.439621
71.735657
13.028490
-44.536381
-76.075073
-55.565109
-20.861250
71.374718
156.061493
100.178001
-3.032857
-42.518181
-37.376942
-24.779209
-28.119471
8.648701
103.179802
107.109001
51.985741
57.902481
59.927471
47.292061
-0.257419
-79.231583
-104.532799
-115.365402
-130.547104
-107.414597
-43.235390
35.946629
45.012161
-25.058701
-69.628387
-78.643349
-75.372597
-75.949127
-82.370537
-25.196100
63.207111
95.272469
120.093597
183.489594
194.247696
132.713104
87.510742
80.144608
73.273781
83.764359
116.621101
160.424194
204.478195
173.806595
87.279472
3.613962
-53.933361
-105.635101
-136.548996
-109.816399
-103.182899
-61.009480
44.852280
107.312599
121.882202
141.188095
165.169403
122.560799
65.596321
51.474529
18.154520
-6.944967
-5.427453
3.944244
64.711983
152.816696
220.823502
218.382294
119.833298
13.919150
-77.214081
-140.044006
-168.918701
-175.987595
-130.263397
-121.299004
-157.492996
-156.314697
-142.886200
-145.643799
-154.426804
-156.462601
-153.156693
-134.461594
-102.214798
-75.905602
-70.602837
-87.126961
-90.096451
-64.332420
-35.419601
-34.345188
-54.924911
-57.526890
-38.573299
-22.590130
5.201699
69.456940
122.599899
123.453102
116.141701
112.788399
92.434303
80.781303
78.156143
74.032890
72.487053
67.226662
73.323402
72.447723
32.034760
-12.582220
-26.946280
-67.566879
-135.009796
-145.972198
-136.726196
-149.356506
-154.717102
-135.125595
-94.172882
-59.971119
-42.881699
-22.397720
17.466570
41.345360
44.774101
41.755692
25.783529
16.382799
15.718730
19.415720
7.523030
-15.177420
-27.614100
-41.447990
-53.819599
-50.421989
-43.874180
-51.811001
-58.301922
-85.695122
-118.371201
-102.504601
-65.811546
-52.418892
-61.561661
-49.480301
-17.929211
6.412808
18.961149
23.590231
21.043489
4.519368
-1.275883
-4.419991
-5.121282
27.204359
60.118481
63.839581
55.794399
40.196751
11.547500
-20.192730
-34.655571
-34.161442
-29.620131
-2.468734
36.662670
53.141380
34.928631
14.169610
5.535023
-17.291590
-48.963928
-66.652580
-58.411469
-62.619919
-83.374733
-87.960739
-41.951248
48.707981
82.024696
93.949699
147.184601
180.774506
162.845703
120.142097
110.373901
115.067299
88.622597
43.579380
46.735889
87.359062
82.069183
57.395710
48.990040
65.916069
60.393749
2.460437
-25.022421
-7.101564
-11.855880
-45.919540
-68.786423
-82.889488
-93.237747
-127.770500
-160.746597
-151.786896
-154.009201
-166.153595
-152.741501
-112.875801
-87.685699
-96.047592
-117.857597
-138.806198
-144.690704
-133.100403
-112.968002
-93.024513
-30.388611
54.518219
102.133202
141.081100
187.483200
201.122803
181.978394
169.478302
136.628296
89.608063
50.971958
7.775598
-33.654202
-66.927147
-47.874771
-9.183201
8.485785
29.598261
4.465530
-46.951820
-62.098400
-52.247551
-23.624041
28.578159
88.969971
118.893097
149.603607
176.990906
165.368805
144.480103
113.491997
101.833397
96.747147
85.324013
99.521881
120.770599
130.674805
101.136299
90.151352
83.365494
23.245911
-26.502239
-47.747669
-12.604920
16.927731
47.256710
74.806976
61.953629
85.809479
47.454510
-18.579941
-24.748779
47.083500
90.776337
