EVENT_NAME: L_AQUILA
EVENT_ID: IT-2009-0009
EVENT_DATE_YYYYMMDD: 20090406
EVENT_TIME_HHMMSS: 013240
EVENT_LATITUDE_DEGREE: 42.3420
EVENT_LONGITUDE_DEGREE: 13.3800
EVENT_DEPTH_KM: 8.3
HYPOCENTER_REFERENCE: INGV-CNT_Seismic_Bulletin
MAGNITUDE_W: 6.1
MAGNITUDE_W_REFERENCE: INGV-CNT_Seismic_Bulletin
MAGNITUDE_L: 
MAGNITUDE_L_REFERENCE: 
FOCAL_MECHANISM: Normal faulting
NETWORK: IT
STATION_CODE: AQK
STATION_NAME: 
STATION_LATITUDE_DEGREE: 42.344967
STATION_LONGITUDE_DEGREE: 13.400949
STATION_ELEVATION_M: 726
LOCATION: 
SENSOR_DEPTH_M: 0.0
VS30_M/S: 705
SITE_CLASSIFICATION_EC8: B
MORPHOLOGIC_CLASSIFICATION: 
EPICENTRAL_DISTANCE_KM: 1.8
EARTHQUAKE_BACKAZIMUTH_DEGREE: 79.2
DATE_TIME_FIRST_SAMPLE_YYYYMMDD_HHMMSS: 20090406_013212.000
DATE_TIME_FIRST_SAMPLE_PRECISION: seconds
SAMPLING_INTERVAL_S: 0.005000
NDATA: 20000
DURATION_S: 100.000
STREAM: HNN
UNITS: cm/s^2
INSTRUMENT: sensor = FBA-3 [Kinemetrics] | digitizer = Etna [Kinemetrics]
INSTRUMENT_ANALOG/DIGITAL: D
INSTRUMENTAL_FREQUENCY_HZ: 214.000
INSTRUMENTAL_DAMPING: 0.700000
FULL_SCALE_G: 1.0
N_BIT_DIGITAL_CONVERTER: 18
PGA_CM/S^2: -346.784271
TIME_PGA_S: 32.620000
BASELINE_CORRECTION: BASELINE REMOVED
FILTER_TYPE: BUTTERWORTH
FILTER_ORDER: 2
LOW_CUT_FREQUENCY_HZ: 0.100
HIGH_CUT_FREQUENCY_HZ: 40.000
LATE/NORMAL_TRIGGERED: NT
DATABASE_VERSION: 0.5
HEADER_FORMAT: DYNA 1.2
DATA_TYPE: ACCELERATION
PROCESSING: manual (Paolucci et al., 2011)
DATA_TIMESTAMP_YYYYMMDD_HHMMSS: 20211011_155501.946
DATA_LICENSE: CC-BY3_0-IT (http://creativecommons.org/licenses/by/3.0/deed.en)
DATA_CITATION: Luzi L, Pacor F, Puglia R (2019). Italian Accelerometric Archive v 3.0 - Istituto Nazionale di Geofisica e Vulcanologia, Dipartimento della Protezione Civile Nazionale. doi: 10.13127/itaca.3.1
DATA_CREATOR: ITACA working group
ORIGINAL_DATA_MEDIATOR_CITATION: data obtained within the DPC-INGV data exchange agreements
ORIGINAL_DATA_MEDIATOR: Archive of Italian Department of Civil Protection
ORIGINAL_DATA_CREATOR_CITATION: Presidency Of Counsil Of Ministers-Civil Protection Department. (1972). Italian Strong Motion Network. Presidency of Counsil of Ministers - Civil Protection Department. https://doi.org/10.7914/SN/IT http://www.fdsn.org/networks/detail/IT/
ORIGINAL_DATA_CREATOR: network: IT (Italian Strong Motion Network (RAN)); owner: Presidency of Counsil of Ministers - Civil Protection Department (PCM - DPC)
USER1: 
USER2: 
USER3: 
USER4: 
USER5: 
[...]
-0.078545
-0.075444
-0.074440
-0.075818
-0.078015
-0.079056
-0.078569
-0.077001
-0.074894
-0.074368
-0.076531
-0.079189
-0.080916
-0.082381
-0.083257
-0.082269
-0.080319
-0.080543
-0.083414
-0.085336
-0.083967
-0.081462
-0.081236
-0.083992
-0.087516
-0.088776
-0.086873
-0.083676
-0.081968
-0.083443
-0.085977
-0.085899
-0.083549
-0.081568
-0.080619
-0.080199
-0.080603
-0.082623
-0.086169
-0.088842
-0.088144
-0.085519
-0.083750
-0.083173
-0.083637
-0.085522
-0.088358
-0.090619
-0.090743
-0.089647
-0.089837
-0.090003
-0.087272
-0.084026
-0.083504
-0.083976
-0.083419
-0.083142
-0.085527
-0.090500
-0.093561
-0.091264
-0.086959
-0.085590
-0.087427
-0.089711
-0.090581
-0.090194
-0.088974
-0.087715
-0.088752
-0.092306
-0.094651
-0.093548
-0.090923
-0.089032
-0.088172
-0.087795
-0.087800
-0.089759
-0.094667
-0.098139
-0.095441
-0.090519
-0.089854
-0.092763
-0.095380
-0.096372
-0.095577
-0.093325
-0.091736
-0.092889
-0.095823
-0.097297
-0.095677
-0.093220
-0.092870
-0.094177
-0.095622
-0.097220
-0.098016
-0.096399
-0.092763
-0.089324
-0.089346
-0.093354
-0.097056
-0.097928
-0.097408
-0.095555
-0.092809
-0.093061
-0.097384
-0.101216
-0.100820
-0.096981
-0.093000
-0.091395
-0.091808
-0.093027
-0.095246
-0.097793
-0.098758
-0.098118
-0.097169
-0.096666
-0.097163
-0.098517
-0.099785
-0.100479
-0.100664
-0.100012
-0.098325
-0.097263
-0.098362
-0.099925
-0.100407
-0.101399
-0.103176
-0.103203
-0.101203
-0.099781
-0.099546
-0.098537
-0.096521
-0.096021
-0.098539
-0.102171
-0.104177
-0.103883
-0.102352
-0.101403
-0.101750
-0.102218
-0.102411
-0.102652
-0.102302
-0.101608
-0.101421
-0.101026
-0.100335
-0.101346
-0.104466
-0.106277
-0.103947
-0.100209
-0.099611
-0.101874
-0.104019
-0.105647
-0.107362
-0.107614
-0.105261
-0.102676
-0.102896
-0.104891
-0.105022
-0.102966
-0.101840
-0.102916
-0.104932
-0.106622
-0.107222
-0.106312
-0.103797
-0.101289
-0.101819
-0.105183
-0.107474
-0.106564
-0.104556
-0.104327
-0.105631
-0.106552
-0.106964
-0.107977
-0.109016
-0.107776
-0.104454
-0.102732
-0.104144
-0.106468
-0.108491
-0.110073
-0.109258
-0.105932
-0.104537
-0.107724
-0.111703
-0.111790
-0.108434
-0.105121
-0.103883
-0.104596
-0.106529
-0.109108
-0.111379
-0.111564
-0.109466
-0.108367
-0.109971
-0.111360
-0.110865
-0.110337
-0.110258
-0.108771
-0.106451
-0.107056
-0.111020
-0.113262
-0.110921
-0.107511
-0.106594
-0.107341
-0.107761
-0.107898
-0.109189
-0.111626
-0.112726
-0.111338
-0.109917
-0.110307
-0.111011
-0.110579
-0.109786
-0.109302
-0.109099
-0.110167
-0.112688
-0.114199
-0.112895
-0.110142
-0.108344
-0.108367
-0.109523
-0.110509
-0.110337
-0.109149
-0.107821
-0.107735
-0.109629
-0.111919
-0.112481
-0.111210
-0.109784
-0.109135
-0.108400
-0.107293
-0.107203
-0.109355
-0.112415
-0.113320
-0.111418
-0.109128
-0.108706
-0.110230
-0.112481
-0.114358
-0.114638
-0.112984
-0.111028
-0.110033
-0.109730
-0.110142
-0.111261
-0.111724
-0.110885
-0.110035
-0.110298
-0.111805
-0.113540
-0.113499
-0.111654
-0.110452
-0.111020
-0.112363
-0.113709
-0.115043
-0.115607
-0.113630
-0.109612
-0.107605
-0.110339
-0.114948
-0.116217
-0.113296
-0.109936
-0.108957
-0.109595
-0.110183
-0.110911
-0.112015
-0.112500
-0.112236
-0.112303
-0.113544
-0.114985
-0.114548
-0.112805
-0.112183
-0.112400
-0.111732
-0.110875
-0.110803
-0.110528
-0.110416
-0.111669
-0.112371
-0.110761
-0.109477
-0.111232
-0.113736
-0.113231
-0.110573
-0.109506
-0.110785
-0.112301
-0.112869
-0.112619
-0.111695
-0.109773
-0.107562
-0.107763
-0.110842
-0.113019
-0.112219
-0.110879
-0.110820
-0.110646
-0.109267
-0.108266
-0.109331
-0.110900
-0.110394
-0.109162
-0.110308
-0.112901
-0.114275
-0.114748
-0.114385
-0.111434
-0.107306
-0.105487
-0.106450
-0.108420
-0.109419
-0.108858
-0.108650
-0.110187
-0.112876
-0.115453
-0.115897
-0.113196
-0.109058
-0.106037
-0.105509
-0.107120
-0.109350
-0.110533
-0.109796
-0.107867
-0.106301
-0.105901
-0.106799
-0.108658
-0.109680
-0.108370
-0.106442
-0.106156
-0.106663
-0.106745
-0.107435
-0.108691
-0.108266
-0.105834
-0.103918
-0.104462
-0.106853
-0.108812
-0.108201
-0.104548
-0.100385
-0.098955
-0.100120
-0.102610
-0.105842
-0.107287
-0.105698
-0.103528
-0.102615
-0.103541
-0.106168
-0.108057
-0.106612
-0.101929
-0.096851
-0.095549
-0.099165
-0.103651
-0.105707
-0.106140
-0.105757
-0.104186
-0.101737
-0.100031
-0.100690
-0.102371
-0.102361
-0.101015
-0.100020
-0.099306
-0.098781
-0.099075
-0.100268
-0.101470
-0.100798
-0.098002
-0.095914
-0.096129
-0.097171
-0.097569
-0.097026
-0.096146
-0.096008
-0.096515
-0.096994
-0.098194
-0.100034
-0.100564
-0.099611
-0.098383
-0.097239
-0.096744
-0.097298
-0.098129
-0.098233
-0.097408
-0.096226
-0.095834
-0.096974
-0.097876
-0.096894
-0.095736
-0.095071
-0.093656
-0.092919
-0.094372
-0.096201
-0.096460
-0.095145
-0.092987
-0.091070
-0.090304
-0.090365
-0.091196
-0.093200
-0.094680
-0.094027
-0.092698
-0.092183
-0.091368
-0.088951
-0.086299
-0.085480
-0.085969
-0.086144
-0.085910
-0.086230
-0.087356
-0.087644
-0.085805
-0.084259
-0.085702
-0.088261
-0.089396
-0.089478
-0.087932
-0.083896
-0.080766
-0.081921
-0.085112
-0.086337
-0.085042
-0.083073
-0.082035
-0.082476
-0.083306
-0.083146
-0.082395
-0.081168
-0.078749
-0.076785
-0.077219
-0.078277
-0.077484
-0.075951
-0.075846
-0.076588
-0.076907
-0.077393
-0.078780
-0.079858
-0.079023
-0.076926
-0.075015
-0.073654
-0.072798
-0.072273
-0.072304
-0.072697
-0.071836
-0.069627
-0.068520
-0.069499
-0.070552
-0.070310
-0.069953
-0.069946
-0.068400
-0.064939
-0.062692
-0.064123
-0.067703
-0.069743
-0.068316
-0.065628
-0.064801
-0.065168
-0.065043
-0.065479
-0.066648
-0.065932
-0.063180
-0.062107
-0.063751
-0.064649
-0.062892
-0.060413
-0.059056
-0.058221
-0.057374
-0.057693
-0.059202
-0.059613
-0.057523
-0.054773
-0.054101
-0.055036
-0.055008
-0.053855
-0.053267
-0.052384
-0.049102
-0.045568
-0.046305
-0.051311
-0.055800
-0.056518
-0.054587
-0.051770
-0.048592
-0.046295
-0.046160
-0.047527
-0.048334
-0.047104
-0.044918
-0.044103
-0.044558
-0.045016
-0.045882
-0.046611
-0.044543
-0.039689
-0.036235
-0.036990
-0.040035
-0.042094
-0.042514
-0.042285
-0.041256
-0.039359
-0.037814
-0.037394
-0.037907
-0.037581
-0.034304
-0.030020
-0.028761
-0.030464
-0.031966
-0.031497
-0.029007
-0.025699
-0.024453
-0.026460
-0.028619
-0.028421
-0.027731
-0.028234
-0.028085
-0.025665
-0.022613
-0.021890
-0.023953
-0.025846
-0.025651
-0.024434
-0.022631
-0.019926
-0.018202
-0.019524
-0.021622
-0.020238
-0.016084
-0.013742
-0.014244
-0.014627
-0.013756
-0.013096
-0.012628
-0.010830
-0.008470
-0.008393
-0.010747
-0.012387
-0.011278
-0.008041
-0.004927
-0.004136
-0.005485
-0.007163
-0.007431
-0.005346
-0.002080
0.000604
0.002229
0.002834
0.002705
0.001919
0.000831
0.001095
0.003606
0.006542
0.007217
0.005441
0.003833
0.004758
0.007733
0.010141
0.010543
0.010103
0.010093
0.010272
0.011042
0.013951
0.018126
0.019906
0.017775
0.014509
0.013503
0.015621
0.019537
0.023547
0.026699
0.027798
0.026234
0.024557
0.025857
0.028998
0.030539
0.030179
0.029910
0.029904
0.029723
0.030672
0.033353
0.035181
0.033346
0.029753
0.029357
0.032898
0.036416
0.038392
0.040918
0.043859
0.044593
0.043124
0.042087
0.043112
0.045541
0.046912
0.046097
0.045312
0.046385
0.048724
0.051915
0.055925
0.058621
0.057828
0.055975
0.056521
0.057608
0.056150
0.054319
0.055885
0.059862
0.062387
0.062571
0.063149
0.065395
0.067504
0.068799
0.069883
0.070062
0.069274
0.069179
0.070666
0.073201
0.076003
0.078220
0.078973
0.078475
0.078525
0.080085
0.081541
0.081452
0.080814
0.081636
0.084598
0.088037
0.090258
0.091883
0.093383
0.093179
0.091326
0.091337
0.095094
0.099823
0.101628
0.099351
0.095995
0.095748
0.098945
0.102968
0.106315
0.108139
0.107180
0.105171
0.106366
0.110523
0.113313
0.113944
0.115195
0.118092
0.120635
0.120572
0.118534
0.117282
0.118171
0.120143
0.122154
0.123830
0.124784
0.124976
0.125053
0.127437
0.130893
0.129629
0.124162
0.125038
0.132869
0.135943
0.140748
0.137058
0.083566
-0.035000
-0.179785
-0.312574
-0.434011
-0.350845
0.153223
0.791806
1.091731
0.853034
0.085542
-0.780007
-0.862403
0.124217
1.581681
2.611906
1.991646
-0.153859
-1.799304
-1.943140
-0.790824
1.321145
2.788096
2.340718
0.982553
-0.476580
-1.627828
-1.045215
0.313199
-0.390279
-1.413252
0.795499
3.356790
2.001079
-1.092044
-2.628755
-2.770277
-1.450208
2.095118
4.863843
2.850915
-1.048484
-1.619651
-0.304493
-0.714570
-1.952814
-1.986023
-1.001951
0.469159
2.354247
4.568309
5.645949
2.642802
-4.360094
-10.141957
-9.124672
-0.784940
9.462360
13.366113
6.713894
-5.288793
-12.355271
-9.327167
-0.887434
5.659628
8.215947
6.419415
-0.003480
-6.022066
-5.142214
0.674246
4.013947
3.873479
5.032216
6.304642
1.154197
-7.660256
-8.973832
-1.953276
4.157046
6.401692
6.370882
2.714872
-3.111306
-6.572044
-6.414936
-2.072084
5.577293
7.969472
-0.572070
-10.946700
-11.861171
-4.106897
4.137626
8.313593
8.881392
4.960488
-1.924241
-4.004580
-0.842081
-1.086982
-4.441108
-2.818915
2.905598
6.966440
11.031531
15.038593
9.947706
-4.919618
-15.512503
-13.285225
-4.031829
4.373980
9.530188
10.832138
6.824502
-0.434488
-4.752126
-4.690105
-5.819539
-10.548651
-13.198475
-7.608894
4.208105
11.585731
7.562888
0.347849
0.101604
3.384115
3.194182
0.021745
-2.805979
-4.690470
-6.074184
-3.877635
4.287845
10.332046
5.284937
-5.499923
-12.952437
-13.332521
-2.597801
16.801477
32.272961
35.284027
26.220606
7.613864
-15.855047
-31.419928
-20.311024
17.616650
52.261398
56.896793
34.138195
3.117244
-19.932623
-24.333963
-3.824283
29.505674
46.071892
33.449459
11.807695
-1.826683
-16.113848
-32.204971
-27.623135
5.885895
38.479660
30.982737
-12.297815
-33.502983
-0.071730
37.252045
23.507551
-18.136089
-35.815971
-21.598703
-0.348422
11.566657
10.982609
-6.371729
-36.227242
-52.487720
-36.163197
-3.307743
17.994738
15.596003
-3.160162
-17.994354
-14.870223
0.739276
14.951121
16.143227
2.259454
-8.765899
0.331717
15.528613
10.854666
-12.282237
-25.512676
-9.762274
21.520767
41.289455
37.579266
22.503807
20.264750
35.593426
46.905468
43.507763
33.806873
16.920153
-7.272867
-23.646149
-26.133015
-18.618198
-1.313128
17.166426
25.540846
28.486517
30.772621
24.540434
11.434591
5.276234
9.908323
17.423523
16.198093
0.271987
-17.820068
-16.073217
13.499829
58.661076
96.014244
104.531013
83.978638
53.625492
27.329756
9.206500
5.140287
18.202677
42.387798
66.378700
72.530472
45.582451
-2.385966
-42.569305
-53.649490
-25.860979
16.601332
34.460327
29.855907
26.237480
29.342672
39.426617
53.277683
55.020710
33.451309
-3.720050
-33.191025
-27.367859
12.136454
48.523697
56.458626
33.409657
-6.585227
-19.934399
11.475945
34.576916
8.480332
-31.583897
-39.170349
-15.987877
20.301941
61.630329
79.228943
35.129242
-50.485455
-106.688354
-102.212090
-65.348709
-26.722309
1.659314
17.745905
26.262438
30.972612
30.054054
23.752022
17.892275
16.561636
15.985858
4.592189
-11.617288
-0.690654
43.976368
83.285690
77.926056
31.669968
-13.709603
-26.607201
-1.131506
57.210308
116.759613
131.394714
81.214912
-21.730057
-126.953613
-156.537720
-87.066856
21.915794
106.001617
132.611206
98.960335
44.453972
10.035587
5.036496
21.510208
29.960077
6.175549
-21.099400
-9.177485
35.467709
80.034004
102.434601
87.560921
41.316238
-1.843543
-11.862815
10.221944
33.067825
24.552240
-5.633665
-12.150067
25.364899
75.377144
93.223015
61.928345
3.643832
-35.045681
-30.873976
-7.359292
10.430512
25.073505
43.289124
64.128517
79.530479
70.877609
32.990944
-3.745712
-7.716546
18.319359
52.786324
76.472694
77.141891
49.638969
-1.479297
-53.660847
-79.228271
-73.330307
-53.852844
-36.217430
-11.833234
36.379959
92.100868
120.340401
112.919991
74.291389
15.011453
-24.162683
-10.166762
38.423733
82.416092
101.497215
84.695427
24.191898
-44.794159
-60.672634
-24.444778
6.923932
-1.359028
-45.681816
-102.133057
-141.482330
-142.621918
-107.372025
-70.041817
-71.563843
-117.641624
-173.664566
-203.724945
-199.328735
-167.125839
-115.461571
-57.015163
-6.829268
23.635559
28.667126
18.901154
23.511553
52.759434
80.558907
89.337547
90.426842
94.190239
97.593521
90.919350
64.105225
19.445719
-23.976704
-44.235214
-29.358091
21.936783
92.897461
138.867996
115.194870
24.169519
-83.540611
-144.339005
-118.555984
-17.844740
107.762947
215.290955
286.218140
303.904236
253.884140
163.401077
92.070969
67.586006
72.788811
88.204674
105.827835
112.841087
100.121544
76.500641
51.592152
22.705574
-18.309601
-80.272644
-158.555252
-223.097488
-250.026855
-258.493713
-283.040802
-323.390594
-346.784271
-327.661987
-274.930511
-217.122986
-165.180313
-116.153336
-88.642143
-103.358551
-134.448090
-152.540787
-176.822617
-217.047531
-245.950577
-244.789963
-218.784515
-191.762817
-181.683563
-183.208496
-191.063675
-207.834122
-226.330322
-229.398438
-214.785034
-199.910797
-191.458603
-177.834579
-153.213242
-125.075119
-101.152596
-84.481094
-78.899155
-90.761536
-121.313614
-157.795258
-182.938705
-187.802658
-164.193802
-110.672432
-56.605572
-44.412907
-79.528488
-126.279694
-149.495071
-139.171814
-111.927132
-93.991943
-81.891617
-48.227844
-6.606143
-11.956458
-77.411919
-153.003265
-191.543793
-192.821243
-184.353226
-177.582489
-165.258774
-151.731094
-144.070312
-133.476440
-115.317635
-99.138336
-93.733047
-102.945122
-121.988892
-132.409576
-115.831177
-66.241508
11.022634
95.106483
148.591843
147.195084
110.323112
77.033524
66.462128
77.372643
103.474815
140.422256
174.545197
169.235458
98.938034
-6.563201
-94.766029
-142.705048
-144.271194
-95.400978
-11.389198
69.913315
102.032814
60.929508
-24.445471
-95.065033
-115.927925
-94.275642
-59.219215
-35.394402
-28.823641
-34.203632
-51.247993
-76.648727
-88.143929
-69.861397
-35.199211
2.920595
46.834110
87.837563
108.809807
110.489059
104.045502
90.921722
65.003052
23.199381
-28.327497
-76.259361
-108.430008
-120.408730
-118.677551
-110.404854
-91.119797
-59.289070
-23.923403
20.105299
83.712440
144.182175
167.480255
164.303040
173.574448
202.846466
225.246338
221.554138
199.241104
183.470184
198.078110
240.122345
274.966339
268.927521
221.411819
159.382095
106.835953
67.416901
37.469624
23.122284
34.095112
68.882698
113.840050
149.462326
156.242355
128.657166
83.395714
42.154346
11.757662
-11.314371
-27.267672
-32.356087
-22.384840
4.509459
39.284630
62.715313
63.843178
56.271610
64.462357
89.433441
111.743034
129.201111
157.047729
194.632294
224.012985
237.037109
241.047653
242.509079
240.790146
235.395523
229.162491
223.526535
215.361084
198.150696
166.505630
124.748116
87.680901
68.051880
67.597412
81.522446
104.413200
126.654449
134.376968
123.463699
107.322769
103.267166
115.853668
135.120392
146.291245
143.997971
136.018402
127.390282
111.293716
82.981201
48.300900
12.778722
-21.385647
-44.981213
-44.976906
-19.630028
17.461145
46.308487
53.693935
42.799770
26.371788
9.226399
-13.258908
-40.908936
-65.961990
-87.380913
-108.671501
-115.484344
-84.849762
-14.678324
73.356735
143.070312
164.652649
142.824554
108.505798
83.467979
68.626892
60.692364
58.023041
50.607384
23.585007
-25.571190
-77.378517
-107.676544
-115.811028
-116.445305
-111.980255
-97.550674
-78.188026
-59.208401
-32.910767
2.409471
22.286592
7.274976
-21.453876
-27.405178
1.068425
47.496742
88.444099
110.828217
106.999908
75.593506
37.872681
20.488445
22.612057
27.008329
29.237089
35.572433
43.714817
43.187637
33.523643
26.955240
29.406502
33.731827
34.440063
33.828991
34.015484
34.258484
34.057674
31.829519
23.846619
9.561009
-9.068066
-33.423134
-63.552605
-94.166595
-119.177193
-130.625565
-119.623093
-89.463898
-58.980457
-45.855080
-55.267483
-83.049263
-116.915695
-139.372040
-140.212036
-123.973671
-103.061386
-86.921806
-78.145409
-76.337730
-83.742935
-100.613342
-116.731918
-118.985222
-102.763748
-72.230904
-38.827431
-18.584551
-22.466742
-47.183041
-78.570717
-102.320641
-109.980896
-100.429909
-77.971352
-48.472408
-19.016237
-0.638960
-3.529416
-24.073992
-43.399811
-47.405533
-42.626034
-39.526794
-32.465492
-12.329883
14.743951
30.414740
14.409541
-34.619076
-64.682213
-25.432909
32.245831
43.507587
35.353626
31.208109
9.890241
-28.327335
-62.325397
-72.667297
-56.567139
-28.684282
-2.704800
10.265670
9.440179
5.942753
7.195631
13.135719
19.221189
23.472511
28.841434
37.032032
48.090958
62.820068
80.835854
98.028473
110.861946
116.068069
105.051437
75.337105
38.919456
6.215634
-22.340946
-45.649025
-61.655231
-77.604782
-102.361649
-129.582016
-142.988815
-135.954590
-118.119118
-105.203789
-105.418594
-114.898216
-125.334450
-134.284897
-144.559006
-155.533600
-162.731064
-164.672195
-163.786911
-164.678375
-174.651764
-195.780716
-212.523026
-203.769516
-169.826462
-126.862381
-85.190727
-53.289894
-39.077705
-35.538631
-27.531084
-10.208125
11.265297
30.320959
42.122803
44.707214
41.351093
41.434227
54.831558
83.476639
118.795631
145.124832
148.963333
130.919830
100.373482
59.600899
12.632422
-20.673611
-23.578861
-2.233822
28.278255
59.853069
87.069588
104.194550
106.713150
93.012398
71.329887
57.062397
55.844601
55.111885
40.392582
16.659000
-0.491124
-7.417258
-9.816246
-6.338218
9.425618
31.624283
42.800739
36.628605
26.237743
26.591299
39.146873
57.016041
73.019920
78.062103
66.456421
43.469936
16.733130
-12.858286
-45.880901
-78.675156
-105.933548
-123.139694
-127.372002
-119.111504
-101.936066
-81.996986
-65.816795
-54.556816
-43.367184
-25.819065
3.119310
42.730801
83.397888
113.612862
128.412140
128.804123
120.992096
115.838997
119.542732
125.642708
122.963463
108.847290
88.488907
67.509666
50.524330
38.762718
31.075939
31.904633
42.965271
49.780384
40.027893
24.728426
19.649738
22.105904
21.063711
12.059548
-6.647268
-37.311989
-75.448357
-108.167671
-124.672501
-121.575844
-98.071060
-59.165916
-21.808558
-4.429567
-10.100634
-23.000738
-20.634890
8.773233
58.619038
110.919281
148.859344
164.963623
161.013397
