EVENT_NAME: L_AQUILA
EVENT_ID: IT-2009-0009
EVENT_DATE_YYYYMMDD: 20090406
EVENT_TIME_HHMMSS: 013240
EVENT_LATITUDE_DEGREE: 42.3420
EVENT_LONGITUDE_DEGREE: 13.3800
EVENT_DEPTH_KM: 8.3
HYPOCENTER_REFERENCE: INGV-CNT_Seismic_Bulletin
MAGNITUDE_W: 6.1
MAGNITUDE_W_REFERENCE: INGV-CNT_Seismic_Bulletin
MAGNITUDE_L: 
MAGNITUDE_L_REFERENCE: 
FOCAL_MECHANISM: Normal faulting
NETWORK: IT
STATION_CODE: AQK
STATION_NAME: 
STATION_LATITUDE_DEGREE: 42.344967
STATION_LONGITUDE_DEGREE: 13.400949
STATION_ELEVATION_M: 726
LOCATION: 
SENSOR_DEPTH_M: 0.0
VS30_M/S: 705
SITE_CLASSIFICATION_EC8: B
MORPHOLOGIC_CLASSIFICATION: 
EPICENTRAL_DISTANCE_KM: 1.8
EARTHQUAKE_BACKAZIMUTH_DEGREE: 79.2
DATE_TIME_FIRST_SAMPLE_YYYYMMDD_HHMMSS: 
DATE_TIME_FIRST_SAMPLE_PRECISION: 
SAMPLING_INTERVAL_S: 
NDATA: 105
DURATION_S: 
STREAM: HNZ
UNITS: cm/s^2
INSTRUMENT: sensor = FBA-3 [Kinemetrics] | digitizer = Etna [Kinemetrics]
INSTRUMENT_ANALOG/DIGITAL: D
INSTRUMENTAL_FREQUENCY_HZ: 204.000
INSTRUMENTAL_DAMPING: 0.700000
FULL_SCALE_G: 1.0
N_BIT_DIGITAL_CONVERTER: 18
PGA_CM/S^2: 355.459612
TIME_PGA_S: 
BASELINE_CORRECTION: BASELINE REMOVED
FILTER_TYPE: BUTTERWORTH
FILTER_ORDER: 2
LOW_CUT_FREQUENCY_HZ: 0.100
HIGH_CUT_FREQUENCY_HZ: 40.000
LATE/NORMAL_TRIGGERED: NT
DATABASE_VERSION: 0.5
HEADER_FORMAT: DYNA 1.2
DATA_TYPE: ACCELERATION RESPONSE SPECTRUM
PROCESSING: manual (Paolucci et al., 2011)
DATA_TIMESTAMP_YYYYMMDD_HHMMSS: 20211011_155503.861
DATA_LICENSE: CC-BY3_0-IT (http://creativecommons.org/licenses/by/3.0/deed.en)
DATA_CITATION: Luzi L, Pacor F, Puglia R (2019). Italian Accelerometric Archive v 3.0 - Istituto Nazionale di Geofisica e Vulcanologia, Dipartimento della Protezione Civile Nazionale. doi: 10.13127/itaca.3.1
DATA_CREATOR: ITACA working group
ORIGINAL_DATA_MEDIATOR_CITATION: data obtained within the DPC-INGV data exchange agreements
ORIGINAL_DATA_MEDIATOR: Archive of Italian Department of Civil Protection
ORIGINAL_DATA_CREATOR_CITATION: Presidency Of Counsil Of Ministers-Civil Protection Department. (1972). Italian Strong Motion Network. Presidency of Counsil of Ministers - Civil Protection Department. https://doi.org/10.7914/SN/IT http://www.fdsn.org/networks/detail/IT/
ORIGINAL_DATA_CREATOR: network: IT (Italian Strong Motion Network (RAN)); owner: Presidency of Counsil of Ministers - Civil Protection Department (PCM - DPC)
USER1: 
USER2: 
USER3: 
USER4: 
USER5: 
    0.010000   357.868103
    0.020000   427.190308
    0.022000   459.860840
    0.025000   403.067566
    0.029000   485.167603
    0.030000   524.875427
    0.032000   662.990601
    0.035001   701.967041
    0.036000   666.841370
    0.040000   732.190125
    0.041999   860.963074
    0.044001   882.274536
    0.045000   912.810364
    0.046000   914.051941
    0.048001   947.185425
    0.050000   978.450928
    0.054999   981.630981
    0.059999   932.838379
    0.064998   708.149414
    0.067002   677.806885
    0.069999   671.892700
    0.075002   704.614746
    0.080000   597.905518
    0.084998   524.269531
    0.090001   520.583679
    0.095003   503.031677
    0.100000   594.068054
    0.109999   643.029785
    0.120005   693.397949
    0.130005   769.890259
    0.132996   846.607727
    0.139997   845.763367
    0.149993   780.194214
    0.160000   754.183899
    0.170010   636.649963
    0.179986   636.234436
    0.190006   666.981567
    0.200000   763.670654
    0.220022   703.761902
    0.239981   720.393921
    0.250000   764.360352
    0.260010   710.298889
    0.280034   533.792847
    0.290023   447.757629
    0.300030   412.942596
    0.320000   458.061584
    0.340020   475.427277
    0.350017   457.096008
    0.359971   420.485321
    0.379939   367.536682
    0.400000   418.711456
    0.419992   531.851868
    0.439947   596.416626
    0.450045   580.959229
    0.459982   538.897156
    0.480077   424.557281
    0.500000   400.859680
    0.550055   351.092255
    0.599880   288.123596
    0.650195   385.018707
    0.667111   404.901123
    0.699790   438.030609
    0.750188   403.833405
    0.800000   324.931427
    0.850340   293.234741
    0.900090   296.195770
    0.949668   338.683319
    1.000000   423.251831
    1.100110   282.258698
    1.200480   217.286789
    1.300390   117.665009
    1.400560    84.072563
    1.499250    85.114159
    1.600000    74.936523
    1.700680    69.849503
    1.798561    64.872101
    1.901141    57.135067
    2.000000    52.478638
    2.197802    53.274509
    2.398082    51.791409
    2.500000    49.134354
    2.597403    44.794235
    2.801121    40.876068
    3.003003    39.536552
    3.205128    40.917747
    3.401361    39.314243
    3.496503    37.425999
    3.597122    35.081776
    3.802281    29.864637
    4.000000    28.039272
    4.201681    23.887779
    4.405286    19.554392
    4.608295    18.725328
    4.807692    17.309637
    5.000000    15.868583
    5.494505    12.846478
    5.988024    10.757553
    6.493506     8.808444
    6.993007     7.077577
    7.518797     6.144588
    8.000000     5.349614
    8.474576     4.673210
    9.009009     4.098625
    9.523809     3.609546
   10.000000     3.191370
