EVENT_NAME: L_AQUILA
EVENT_ID: IT-2009-0009
EVENT_DATE_YYYYMMDD: 20090406
EVENT_TIME_HHMMSS: 013240
EVENT_LATITUDE_DEGREE: 42.3420
EVENT_LONGITUDE_DEGREE: 13.3800
EVENT_DEPTH_KM: 8.3
HYPOCENTER_REFERENCE: INGV-CNT_Seismic_Bulletin
MAGNITUDE_W: 6.1
MAGNITUDE_W_REFERENCE: INGV-CNT_Seismic_Bulletin
MAGNITUDE_L: 
MAGNITUDE_L_REFERENCE: 
FOCAL_MECHANISM: Normal faulting
NETWORK: IT
STATION_CODE: SBC
STATION_NAME: 
STATION_LATITUDE_DEGREE: 41.913158
STATION_LONGITUDE_DEGREE: 13.105518
STATION_ELEVATION_M: 668
LOCATION: 
SENSOR_DEPTH_M: 0.0
VS30_M/S: 1298
SITE_CLASSIFICATION_EC8: A
MORPHOLOGIC_CLASSIFICATION: 
EPICENTRAL_DISTANCE_KM: 52.8
EARTHQUAKE_BACKAZIMUTH_DEGREE: 205.6
DATE_TIME_FIRST_SAMPLE_YYYYMMDD_HHMMSS: 20090406_013239.000
DATE_TIME_FIRST_SAMPLE_PRECISION: seconds
SAMPLING_INTERVAL_S: 0.005000
NDATA: 14800
DURATION_S: 74.000
STREAM: HNN
UNITS: cm
INSTRUMENT: sensor = Episensor FBA ES-T [Kinemetrics] | digitizer = Etna [Kinemetrics]
INSTRUMENT_ANALOG/DIGITAL: D
INSTRUMENTAL_FREQUENCY_HZ: 
INSTRUMENTAL_DAMPING: 
FULL_SCALE_G: 
N_BIT_DIGITAL_CONVERTER: 18
PGD_CM: -0.555511
TIME_PGD_S: 28.525000
BASELINE_CORRECTION: BASELINE REMOVED
FILTER_TYPE: BUTTERWORTH
FILTER_ORDER: 2
LOW_CUT_FREQUENCY_HZ: 0.080
HIGH_CUT_FREQUENCY_HZ: 50.000
LATE/NORMAL_TRIGGERED: NT
DATABASE_VERSION: 0.5
HEADER_FORMAT: DYNA 1.2
DATA_TYPE: DISPLACEMENT
PROCESSING: manual (Paolucci et al., 2011)
DATA_TIMESTAMP_YYYYMMDD_HHMMSS: 20211011_160231.288
DATA_LICENSE: CC-BY3_0-IT (http://creativecommons.org/licenses/by/3.0/deed.en)
DATA_CITATION: Luzi L, Pacor F, Puglia R (2019). Italian Accelerometric Archive v 3.0 - Istituto Nazionale di Geofisica e Vulcanologia, Dipartimento della Protezione Civile Nazionale. doi: 10.13127/itaca.3.1
DATA_CREATOR: ITACA working group
ORIGINAL_DATA_MEDIATOR_CITATION: data obtained within the DPC-INGV data exchange agreements
ORIGINAL_DATA_MEDIATOR: Archive of Italian Department of Civil Protection
ORIGINAL_DATA_CREATOR_CITATION: Presidency Of Counsil Of Ministers-Civil Protection Department. (1972). Italian Strong Motion Network. Presidency of Counsil of Ministers - Civil Protection Department. https://doi.org/10.7914/SN/IT http://www.fdsn.org/networks/detail/IT/
ORIGINAL_DATA_CREATOR: network: IT (Italian Strong Motion Network (RAN)); owner: Presidency of Counsil of Ministers - Civil Protection Department (PCM - DPC)
USER1: 
USER2: 
USER3: 
USER4: 
USER5: 
[...]
3.947457e-01
3.932665e-01
3.917536e-01
3.902223e-01
3.886901e-01
3.871747e-01
3.856927e-01
3.842572e-01
3.828759e-01
3.815511e-01
3.802810e-01
3.790626e-01
3.778925e-01
3.767666e-01
3.756798e-01
3.746268e-01
3.736030e-01
3.726065e-01
3.716406e-01
3.707127e-01
3.698331e-01
3.690155e-01
3.682756e-01
3.676302e-01
3.670955e-01
3.666858e-01
3.664110e-01
3.662754e-01
3.662771e-01
3.664078e-01
3.666528e-01
3.669963e-01
3.674257e-01
3.679312e-01
3.685035e-01
3.691321e-01
3.698066e-01
3.705191e-01
3.712647e-01
3.720421e-01
3.728526e-01
3.736974e-01
3.745755e-01
3.754843e-01
3.764206e-01
3.773814e-01
3.783629e-01
3.793621e-01
3.803760e-01
3.814008e-01
3.824294e-01
3.834523e-01
3.844580e-01
3.854356e-01
3.863759e-01
3.872713e-01
3.881157e-01
3.889039e-01
3.896319e-01
3.902962e-01
3.908926e-01
3.914162e-01
3.918616e-01
3.922234e-01
3.924973e-01
3.926797e-01
3.927673e-01
3.927581e-01
3.926527e-01
3.924550e-01
3.921714e-01
3.918087e-01
3.913718e-01
3.908622e-01
3.902783e-01
3.896180e-01
3.888809e-01
3.880699e-01
3.871915e-01
3.862542e-01
3.852663e-01
3.842344e-01
3.831621e-01
3.820511e-01
3.809041e-01
3.797262e-01
3.785252e-01
3.773102e-01
3.760892e-01
3.748663e-01
3.736423e-01
3.724169e-01
3.711903e-01
3.699646e-01
3.687439e-01
3.675359e-01
3.663512e-01
3.652042e-01
3.641125e-01
3.630949e-01
3.621688e-01
3.613472e-01
3.606382e-01
3.600452e-01
3.595673e-01
3.591991e-01
3.589306e-01
3.587478e-01
3.586335e-01
3.585698e-01
3.585410e-01
3.585355e-01
3.585456e-01
3.585669e-01
3.585975e-01
3.586374e-01
3.586874e-01
3.587496e-01
3.588256e-01
3.589163e-01
3.590206e-01
3.591368e-01
3.592643e-01
3.594047e-01
3.595622e-01
3.597429e-01
3.599544e-01
3.602056e-01
3.605054e-01
3.608617e-01
3.612791e-01
3.617581e-01
3.622949e-01
3.628813e-01
3.635056e-01
3.641555e-01
3.648204e-01
3.654932e-01
3.661700e-01
3.668489e-01
3.675289e-01
3.682093e-01
3.688893e-01
3.695679e-01
3.702426e-01
3.709083e-01
3.715558e-01
3.721723e-01
3.727431e-01
3.732539e-01
3.736927e-01
3.740512e-01
3.743255e-01
3.745162e-01
3.746276e-01
3.746673e-01
3.746464e-01
3.745778e-01
3.744743e-01
3.743475e-01
3.742081e-01
3.740645e-01
3.739207e-01
3.737760e-01
3.736271e-01
3.734705e-01
3.733055e-01
3.731353e-01
3.729651e-01
3.727996e-01
3.726425e-01
3.724948e-01
3.723539e-01
3.722152e-01
3.720725e-01
3.719187e-01
3.717465e-01
3.715495e-01
3.713230e-01
3.710637e-01
3.707702e-01
3.704426e-01
3.700810e-01
3.696856e-01
3.692566e-01
3.687960e-01
3.683057e-01
3.677853e-01
3.672309e-01
3.666364e-01
3.659966e-01
3.653097e-01
3.645795e-01
3.638155e-01
3.630312e-01
3.622417e-01
3.614617e-01
3.607036e-01
3.599767e-01
3.592871e-01
3.586386e-01
3.580336e-01
3.574740e-01
3.569608e-01
3.564931e-01
3.560673e-01
3.556774e-01
3.553176e-01
3.549836e-01
3.546746e-01
3.543941e-01
3.541478e-01
3.539425e-01
3.537832e-01
3.536731e-01
3.536124e-01
3.536006e-01
3.536367e-01
3.537191e-01
3.538461e-01
3.540162e-01
3.542275e-01
3.544779e-01
3.547638e-01
3.550798e-01
3.554180e-01
3.557688e-01
3.561209e-01
3.564610e-01
3.567734e-01
3.570398e-01
3.572395e-01
3.573508e-01
3.573539e-01
3.572335e-01
3.569808e-01
3.565923e-01
3.560677e-01
3.554095e-01
3.546236e-01
3.537199e-01
3.527128e-01
3.516186e-01
3.504548e-01
3.492381e-01
3.479820e-01
3.466953e-01
3.453816e-01
3.440424e-01
3.426795e-01
3.412974e-01
3.399021e-01
3.385010e-01
3.371011e-01
3.357064e-01
3.343161e-01
3.329250e-01
3.315240e-01
3.301009e-01
3.286419e-01
3.271341e-01
3.255678e-01
3.239392e-01
3.222511e-01
3.205130e-01
3.187398e-01
3.169497e-01
3.151618e-01
3.133930e-01
3.116560e-01
3.099578e-01
3.083011e-01
3.066866e-01
3.051152e-01
3.035884e-01
3.021086e-01
3.006793e-01
2.993041e-01
2.979862e-01
2.967267e-01
2.955234e-01
2.943717e-01
2.932659e-01
2.922001e-01
2.911688e-01
2.901672e-01
2.891907e-01
2.882345e-01
2.872956e-01
2.863745e-01
2.854765e-01
2.846112e-01
2.837912e-01
2.830297e-01
2.823379e-01
2.817229e-01
2.811881e-01
2.807344e-01
2.803617e-01
2.800705e-01
2.798631e-01
2.797441e-01
2.797188e-01
2.797921e-01
2.799679e-01
2.802479e-01
2.806325e-01
2.811222e-01
2.817171e-01
2.824161e-01
2.832166e-01
2.841146e-01
2.851046e-01
2.861805e-01
2.873356e-01
2.885634e-01
2.898565e-01
2.912076e-01
2.926100e-01
2.940578e-01
2.955459e-01
2.970710e-01
2.986316e-01
3.002279e-01
3.018617e-01
3.035361e-01
3.052549e-01
3.070224e-01
3.088415e-01
3.107127e-01
3.126360e-01
3.146112e-01
3.166391e-01
3.187220e-01
3.208640e-01
3.230698e-01
3.253441e-01
3.276911e-01
3.301132e-01
3.326095e-01
3.351765e-01
3.378082e-01
3.404970e-01
3.432342e-01
3.460104e-01
3.488150e-01
3.516355e-01
3.544574e-01
3.572641e-01
3.600369e-01
3.627569e-01
3.654072e-01
3.679735e-01
3.704450e-01
3.728144e-01
3.750788e-01
3.772389e-01
3.792990e-01
3.812656e-01
3.831476e-01
3.849546e-01
3.866955e-01
3.883767e-01
3.900001e-01
3.915643e-01
3.930659e-01
3.945004e-01
3.958636e-01
3.971522e-01
3.983657e-01
3.995068e-01
4.005810e-01
4.015963e-01
4.025626e-01
4.034913e-01
4.043944e-01
4.052835e-01
4.061676e-01
4.070521e-01
4.079393e-01
4.088304e-01
4.097260e-01
4.106270e-01
4.115345e-01
4.124480e-01
4.133642e-01
4.142752e-01
4.151693e-01
4.160316e-01
4.168467e-01
4.175988e-01
4.182720e-01
4.188509e-01
4.193220e-01
4.196737e-01
4.198970e-01
4.199870e-01
4.199432e-01
4.197694e-01
4.194733e-01
4.190663e-01
4.185622e-01
4.179758e-01
4.173225e-01
4.166171e-01
4.158725e-01
4.150999e-01
4.143091e-01
4.135077e-01
4.127022e-01
4.118983e-01
4.110997e-01
4.103081e-01
4.095232e-01
4.087422e-01
4.079597e-01
4.071672e-01
4.063530e-01
4.055034e-01
4.046051e-01
4.036463e-01
4.026174e-01
4.015113e-01
4.003243e-01
3.990570e-01
3.977154e-01
3.963114e-01
3.948622e-01
3.933906e-01
3.919240e-01
3.904924e-01
3.891260e-01
3.878530e-01
3.866981e-01
3.856811e-01
3.848165e-01
3.841121e-01
3.835686e-01
3.831806e-01
3.829366e-01
3.828205e-01
3.828125e-01
3.828905e-01
3.830311e-01
3.832116e-01
3.834115e-01
3.836147e-01
3.838105e-01
3.839924e-01
3.841575e-01
3.843043e-01
3.844322e-01
3.845415e-01
3.846337e-01
3.847107e-01
3.847735e-01
3.848229e-01
3.848608e-01
3.848918e-01
3.849232e-01
3.849633e-01
3.850198e-01
3.850985e-01
3.852028e-01
3.853343e-01
3.854924e-01
3.856745e-01
3.858758e-01
3.860908e-01
3.863125e-01
3.865328e-01
3.867437e-01
3.869386e-01
3.871111e-01
3.872552e-01
3.873647e-01
3.874324e-01
3.874497e-01
3.874075e-01
3.872970e-01
3.871121e-01
3.868512e-01
3.865177e-01
3.861178e-01
3.856591e-01
3.851489e-01
3.845939e-01
3.839995e-01
3.833707e-01
3.827128e-01
3.820325e-01
3.813387e-01
3.806423e-01
3.799558e-01
3.792922e-01
3.786643e-01
3.780834e-01
3.775595e-01
3.771000e-01
3.767098e-01
3.763908e-01
3.761424e-01
3.759608e-01
3.758393e-01
3.757683e-01
3.757352e-01
3.757251e-01
3.757216e-01
3.757098e-01
3.756775e-01
3.756171e-01
3.755253e-01
3.754015e-01
3.752461e-01
3.750589e-01
3.748384e-01
3.745806e-01
3.742797e-01
3.739285e-01
3.735194e-01
3.730444e-01
3.724967e-01
3.718715e-01
3.711664e-01
3.703800e-01
3.695116e-01
3.685609e-01
3.675287e-01
3.664170e-01
3.652296e-01
3.639725e-01
3.626522e-01
3.612754e-01
3.598473e-01
3.583719e-01
3.568521e-01
3.552905e-01
3.536893e-01
3.520501e-01
3.503726e-01
3.486551e-01
3.468942e-01
3.450851e-01
3.432219e-01
3.412988e-01
3.393103e-01
3.372511e-01
3.351163e-01
3.329015e-01
3.306020e-01
3.282136e-01
3.257329e-01
3.231583e-01
3.204908e-01
3.177357e-01
3.149022e-01
3.120025e-01
3.090514e-01
3.060653e-01
3.030598e-01
3.000489e-01
2.970435e-01
2.940505e-01
2.910730e-01
2.881100e-01
2.851564e-01
2.822051e-01
2.792474e-01
2.762741e-01
2.732771e-01
2.702485e-01
2.671828e-01
2.640786e-01
2.609382e-01
2.577652e-01
2.545654e-01
2.513464e-01
2.481177e-01
2.448906e-01
2.416790e-01
2.384989e-01
2.353676e-01
2.323019e-01
2.293171e-01
2.264248e-01
2.236326e-01
2.209441e-01
2.183605e-01
2.158804e-01
2.135004e-01
2.112166e-01
2.090253e-01
2.069204e-01
2.048944e-01
2.029380e-01
2.010412e-01
1.991927e-01
1.973808e-01
1.955928e-01
1.938152e-01
1.920353e-01
1.902425e-01
1.884297e-01
1.865929e-01
1.847319e-01
1.828485e-01
1.809457e-01
1.790267e-01
1.770944e-01
1.751519e-01
1.732026e-01
1.712523e-01
1.693086e-01
1.673796e-01
1.654718e-01
1.635912e-01
1.617428e-01
1.599313e-01
1.581615e-01
1.564384e-01
1.547672e-01
1.531524e-01
1.515978e-01
1.501049e-01
1.486712e-01
1.472906e-01
1.459533e-01
1.446477e-01
1.433616e-01
1.420823e-01
1.407981e-01
1.395001e-01
1.381839e-01
1.368491e-01
1.355003e-01
1.341472e-01
1.328020e-01
1.314771e-01
1.301836e-01
1.289305e-01
1.277258e-01
1.265758e-01
1.254855e-01
1.244578e-01
1.234926e-01
1.225870e-01
1.217356e-01
1.209287e-01
1.201531e-01
1.193936e-01
1.186349e-01
1.178630e-01
1.170649e-01
1.162293e-01
1.153471e-01
1.144106e-01
1.134140e-01
1.123518e-01
1.112180e-01
1.100044e-01
1.087003e-01
1.072937e-01
1.057737e-01
1.041314e-01
1.023600e-01
1.004546e-01
9.841083e-02
9.622390e-02
9.388922e-02
9.140278e-02
8.876104e-02
8.596125e-02
8.300236e-02
7.988517e-02
7.661084e-02
7.318012e-02
6.959396e-02
6.585434e-02
6.196437e-02
5.792813e-02
5.375105e-02
4.944032e-02
4.500493e-02
4.045615e-02
3.580731e-02
3.107221e-02
2.626428e-02
2.139747e-02
1.648703e-02
1.154903e-02
6.599446e-03
1.653280e-03
-3.276805e-03
-8.182063e-03
-1.305763e-02
-1.790039e-02
-2.270716e-02
-2.747377e-02
-3.219401e-02
-3.685945e-02
-4.146010e-02
-4.598511e-02
-5.042432e-02
-5.477002e-02
-5.901734e-02
-6.316390e-02
-6.720946e-02
-7.115518e-02
-7.500358e-02
-7.875889e-02
-8.242669e-02
-8.601341e-02
-8.952668e-02
-9.297608e-02
-9.637281e-02
-9.972807e-02
-1.030516e-01
-1.063518e-01
-1.096361e-01
-1.129107e-01
-1.161803e-01
-1.194485e-01
-1.227179e-01
-1.259903e-01
-1.292669e-01
-1.325495e-01
-1.358392e-01
-1.391372e-01
-1.424448e-01
-1.457648e-01
-1.491017e-01
-1.524625e-01
-1.558555e-01
-1.592898e-01
-1.627739e-01
-1.663146e-01
-1.699175e-01
-1.735861e-01
-1.773219e-01
-1.811243e-01
-1.849909e-01
-1.889175e-01
-1.928981e-01
-1.969250e-01
-2.009895e-01
-2.050826e-01
-2.091959e-01
-2.133219e-01
-2.174535e-01
-2.215837e-01
-2.257072e-01
-2.298193e-01
-2.339158e-01
-2.379920e-01
-2.420421e-01
-2.460599e-01
-2.500385e-01
-2.539703e-01
-2.578490e-01
-2.616710e-01
-2.654357e-01
-2.691455e-01
-2.728061e-01
-2.764261e-01
-2.800146e-01
-2.835796e-01
-2.871272e-01
-2.906604e-01
-2.941801e-01
-2.976858e-01
-3.011752e-01
-3.046453e-01
-3.080926e-01
-3.115145e-01
-3.149083e-01
-3.182722e-01
-3.216045e-01
-3.249028e-01
-3.281646e-01
-3.313872e-01
-3.345675e-01
-3.377025e-01
-3.407897e-01
-3.438273e-01
-3.468140e-01
-3.497494e-01
-3.526336e-01
-3.554683e-01
-3.582568e-01
-3.610031e-01
-3.637109e-01
-3.663829e-01
-3.690191e-01
-3.716172e-01
-3.741730e-01
-3.766805e-01
-3.791323e-01
-3.815203e-01
-3.838367e-01
-3.860735e-01
-3.882240e-01
-3.902833e-01
-3.922486e-01
-3.941200e-01
-3.959001e-01
-3.975933e-01
-3.992055e-01
-4.007440e-01
-4.022159e-01
-4.036269e-01
-4.049804e-01
-4.062775e-01
-4.075170e-01
-4.086968e-01
-4.098153e-01
-4.108725e-01
-4.118708e-01
-4.128158e-01
-4.137161e-01
-4.145825e-01
-4.154269e-01
-4.162615e-01
-4.170990e-01
-4.179518e-01
-4.188314e-01
-4.197479e-01
-4.207103e-01
-4.217260e-01
-4.228009e-01
-4.239391e-01
-4.251432e-01
-4.264140e-01
-4.277508e-01
-4.291509e-01
-4.306098e-01
-4.321222e-01
-4.336825e-01
-4.352849e-01
-4.369241e-01
-4.385957e-01
-4.402974e-01
-4.420282e-01
-4.437878e-01
-4.455757e-01
-4.473898e-01
-4.492274e-01
-4.510853e-01
-4.529590e-01
-4.548430e-01
-4.567316e-01
-4.586204e-01
-4.605060e-01
-4.623866e-01
-4.642624e-01
-4.661358e-01
-4.680102e-01
-4.698893e-01
-4.717761e-01
-4.736718e-01
-4.755758e-01
-4.774846e-01
-4.793928e-01
-4.812936e-01
-4.831795e-01
-4.850428e-01
-4.868761e-01
-4.886734e-01
-4.904313e-01
-4.921478e-01
-4.938220e-01
-4.954541e-01
-4.970460e-01
-4.986010e-01
-5.001227e-01
-5.016136e-01
-5.030760e-01
-5.045113e-01
-5.059206e-01
-5.073041e-01
-5.086599e-01
-5.099843e-01
-5.112730e-01
-5.125227e-01
-5.137315e-01
-5.148998e-01
-5.160299e-01
-5.171262e-01
-5.181951e-01
-5.192439e-01
-5.202807e-01
-5.213133e-01
-5.223495e-01
-5.233968e-01
-5.244629e-01
-5.255551e-01
-5.266794e-01
-5.278400e-01
-5.290384e-01
-5.302733e-01
-5.315407e-01
-5.328350e-01
-5.341500e-01
-5.354792e-01
-5.368171e-01
-5.381586e-01
-5.394980e-01
-5.408287e-01
-5.421435e-01
-5.434335e-01
-5.446884e-01
-5.458981e-01
-5.470534e-01
-5.481466e-01
-5.491716e-01
-5.501235e-01
-5.509983e-01
-5.517926e-01
-5.525040e-01
-5.531306e-01
-5.536717e-01
-5.541287e-01
-5.545054e-01
-5.548080e-01
-5.550442e-01
-5.552223e-01
-5.553508e-01
-5.554377e-01
-5.554896e-01
-5.555110e-01
-5.555038e-01
-5.554679e-01
-5.554023e-01
-5.553058e-01
-5.551783e-01
-5.550212e-01
-5.548381e-01
-5.546353e-01
-5.544197e-01
-5.541975e-01
-5.539733e-01
-5.537499e-01
-5.535289e-01
-5.533114e-01
-5.530990e-01
-5.528934e-01
-5.526966e-01
-5.525103e-01
-5.523359e-01
-5.521738e-01
-5.520244e-01
-5.518877e-01
-5.517645e-01
-5.516566e-01
-5.515674e-01
-5.515019e-01
-5.514664e-01
-5.514674e-01
-5.515110e-01
-5.516012e-01
-5.517390e-01
-5.519205e-01
-5.521375e-01
-5.523778e-01
-5.526267e-01
-5.528678e-01
-5.530848e-01
-5.532620e-01
-5.533850e-01
-5.534402e-01
-5.534149e-01
-5.532989e-01
-5.530843e-01
-5.527656e-01
-5.523391e-01
-5.518022e-01
-5.511527e-01
-5.503872e-01
-5.495007e-01
-5.484863e-01
-5.473364e-01
-5.460437e-01
-5.446016e-01
-5.430048e-01
-5.412504e-01
-5.393368e-01
-5.372639e-01
-5.350321e-01
-5.326420e-01
-5.300951e-01
-5.273942e-01
-5.245439e-01
-5.215503e-01
-5.184203e-01
-5.151617e-01
-5.117821e-01
-5.082886e-01
-5.046883e-01
-5.009874e-01
-4.971928e-01
-4.933113e-01
-4.893495e-01
-4.853129e-01
-4.812058e-01
-4.770318e-01
-4.727928e-01
-4.684893e-01
-4.641201e-01
-4.596827e-01
-4.551736e-01
-4.505893e-01
-4.459268e-01
-4.411837e-01
-4.363573e-01
-4.314447e-01
-4.264434e-01
-4.213515e-01
-4.161668e-01
-4.108871e-01
-4.055098e-01
-4.000325e-01
-3.944531e-01
-3.887716e-01
-3.829904e-01
-3.771141e-01
-3.711508e-01
-3.651112e-01
-3.590076e-01
-3.528529e-01
-3.466601e-01
-3.404422e-01
-3.342126e-01
-3.279849e-01
-3.217732e-01
-3.155918e-01
-3.094559e-01
-3.033808e-01
-2.973818e-01
-2.914740e-01
-2.856721e-01
-2.799896e-01
-2.744392e-01
-2.690313e-01
-2.637739e-01
-2.586721e-01
-2.537279e-01
-2.489397e-01
-2.443026e-01
-2.398100e-01
-2.354556e-01
-2.312334e-01
-2.271389e-01
-2.231688e-01
-2.193206e-01
-2.155922e-01
-2.119812e-01
-2.084843e-01
-2.050971e-01
-2.018147e-01
-1.986323e-01
-1.955452e-01
-1.925499e-01
-1.896437e-01
-1.868249e-01
-1.840927e-01
-1.814472e-01
-1.788888e-01
-1.764187e-01
-1.740390e-01
-1.717526e-01
-1.695624e-01
-1.674719e-01
-1.654849e-01
-1.636044e-01
-1.618340e-01
-1.601775e-01
-1.586389e-01
-1.572220e-01
-1.559296e-01
-1.547626e-01
-1.537194e-01
-1.527957e-01
-1.519847e-01
-1.512781e-01
-1.506663e-01
-1.501390e-01
-1.496865e-01
-1.493004e-01
-1.489741e-01
-1.487026e-01
-1.484823e-01
-1.483102e-01
-1.481821e-01
-1.480924e-01
-1.480331e-01
-1.479937e-01
-1.479618e-01
-1.479233e-01
-1.478635e-01
-1.477676e-01
-1.476227e-01
-1.474190e-01
-1.471505e-01
-1.468152e-01
-1.464140e-01
-1.459496e-01
-1.454258e-01
-1.448468e-01
-1.442169e-01
-1.435401e-01
-1.428200e-01
-1.420595e-01
-1.412594e-01
-1.404181e-01
-1.395322e-01
-1.385972e-01
-1.376086e-01
-1.365629e-01
-1.354582e-01
-1.342942e-01
-1.330727e-01
-1.317967e-01
-1.304701e-01
-1.290968e-01
-1.276811e-01
-1.262271e-01
-1.247387e-01
-1.232195e-01
-1.216729e-01
-1.201021e-01
-1.185098e-01
-1.168985e-01
-1.152714e-01
-1.136316e-01
-1.119834e-01
-1.103309e-01
-1.086791e-01
-1.070325e-01
-1.053954e-01
-1.037712e-01
-1.021631e-01
-1.005736e-01
-9.900625e-02
-9.746543e-02
-9.595718e-02
-9.448810e-02
-9.306510e-02
-9.169543e-02
-9.038595e-02
-8.914204e-02
-8.796668e-02
-8.686001e-02
-8.581889e-02
-8.483617e-02
-8.390091e-02
-8.300027e-02
-8.212136e-02
-8.125191e-02
-8.038058e-02
-7.949687e-02
-7.859033e-02
-7.765089e-02
-7.666944e-02
-7.563782e-02
-7.454881e-02
-7.339666e-02
-7.217745e-02
-7.088950e-02
-6.953335e-02
-6.811119e-02
-6.662633e-02
-6.508298e-02
-6.348595e-02
-6.184081e-02
-6.015434e-02
-5.843413e-02
-5.668795e-02
-5.492373e-02
-5.314930e-02
-5.137143e-02
-4.959528e-02
-4.782441e-02
-4.606084e-02
-4.430574e-02
-4.256006e-02
-4.082444e-02
-3.909911e-02
-3.738441e-02
-3.568044e-02
-3.398639e-02
-3.230102e-02
-3.062329e-02
-2.895203e-02
-2.728533e-02
-2.562046e-02
-2.395389e-02
-2.228161e-02
-2.059943e-02
-1.890288e-02
-1.718714e-02
-1.544768e-02
-1.368090e-02
-1.188458e-02
-1.005791e-02
-8.201359e-03
-6.316311e-03
-4.404850e-03
-2.469730e-03
-5.138608e-04
1.460282e-03
3.450957e-03
5.457434e-03
7.479647e-03
9.517438e-03
1.157019e-02
1.363649e-02
1.571411e-02
1.780067e-02
1.989383e-02
2.199112e-02
2.409006e-02
2.618900e-02
2.828755e-02
3.038637e-02
3.248702e-02
3.459192e-02
3.670413e-02
3.882724e-02
4.096548e-02
4.312369e-02
4.530696e-02
4.752027e-02
4.976795e-02
5.205342e-02
5.437944e-02
5.674823e-02
5.916136e-02
6.162013e-02
6.412645e-02
6.668342e-02
6.929559e-02
7.196863e-02
7.470869e-02
7.752159e-02
8.041199e-02
8.338297e-02
8.643633e-02
8.957260e-02
9.279040e-02
9.608618e-02
9.945476e-02
1.028893e-01
1.063817e-01
1.099236e-01
1.135066e-01
1.171220e-01
1.207613e-01
1.244170e-01
1.280817e-01
1.317481e-01
1.354098e-01
1.390611e-01
1.426966e-01
1.463102e-01
1.498959e-01
1.534472e-01
1.569573e-01
1.604187e-01
1.638232e-01
1.671624e-01
1.704283e-01
1.736135e-01
1.767112e-01
1.797157e-01
1.826226e-01
1.854278e-01
1.881281e-01
1.907203e-01
1.932012e-01
1.955672e-01
1.978144e-01
1.999396e-01
2.019409e-01
2.038180e-01
2.055736e-01
2.072125e-01
2.087421e-01
2.101717e-01
2.115121e-01
2.127746e-01
2.139707e-01
2.151112e-01
2.162053e-01
2.172615e-01
2.182871e-01
2.192882e-01
2.202690e-01
2.212318e-01
2.221768e-01
2.231033e-01
2.240097e-01
2.248944e-01
2.257564e-01
2.265948e-01
2.274086e-01
2.281962e-01
2.289553e-01
2.296825e-01
2.303742e-01
2.310267e-01
2.316363e-01
2.321995e-01
2.327126e-01
2.331713e-01
