EVENT_NAME: L_AQUILA
EVENT_ID: IT-2009-0009
EVENT_DATE_YYYYMMDD: 20090406
EVENT_TIME_HHMMSS: 013240
EVENT_LATITUDE_DEGREE: 42.3420
EVENT_LONGITUDE_DEGREE: 13.3800
EVENT_DEPTH_KM: 8.3
HYPOCENTER_REFERENCE: INGV-CNT_Seismic_Bulletin
MAGNITUDE_W: 6.1
MAGNITUDE_W_REFERENCE: INGV-CNT_Seismic_Bulletin
MAGNITUDE_L: 
MAGNITUDE_L_REFERENCE: 
FOCAL_MECHANISM: Normal faulting
NETWORK: IT
STATION_CODE: SBC
STATION_NAME: 
STATION_LATITUDE_DEGREE: 41.913158
STATION_LONGITUDE_DEGREE: 13.105518
STATION_ELEVATION_M: 668
LOCATION: 
SENSOR_DEPTH_M: 0.0
VS30_M/S: 1298
SITE_CLASSIFICATION_EC8: A
MORPHOLOGIC_CLASSIFICATION: 
EPICENTRAL_DISTANCE_KM: 52.8
EARTHQUAKE_BACKAZIMUTH_DEGREE: 205.6
DATE_TIME_FIRST_SAMPLE_YYYYMMDD_HHMMSS: 20090406_013239.000
DATE_TIME_FIRST_SAMPLE_PRECISION: seconds
SAMPLING_INTERVAL_S: 0.005000
NDATA: 14800
DURATION_S: 74.000
STREAM: HNN
UNITS: cm/s^2
INSTRUMENT: sensor = Episensor FBA ES-T [Kinemetrics] | digitizer = Etna [Kinemetrics]
INSTRUMENT_ANALOG/DIGITAL: D
INSTRUMENTAL_FREQUENCY_HZ: 
INSTRUMENTAL_DAMPING: 
FULL_SCALE_G: 
N_BIT_DIGITAL_CONVERTER: 18
PGA_CM/S^2: 6.647219
TIME_PGA_S: 31.020000
BASELINE_CORRECTION: BASELINE REMOVED
FILTER_TYPE: BUTTERWORTH
FILTER_ORDER: 2
LOW_CUT_FREQUENCY_HZ: 0.080
HIGH_CUT_FREQUENCY_HZ: 50.000
LATE/NORMAL_TRIGGERED: NT
DATABASE_VERSION: 0.5
HEADER_FORMAT: DYNA 1.2
DATA_TYPE: ACCELERATION
PROCESSING: manual (Paolucci et al., 2011)
DATA_TIMESTAMP_YYYYMMDD_HHMMSS: 20211011_160231.169
DATA_LICENSE: CC-BY3_0-IT (http://creativecommons.org/licenses/by/3.0/deed.en)
DATA_CITATION: Luzi L, Pacor F, Puglia R (2019). Italian Accelerometric Archive v 3.0 - Istituto Nazionale di Geofisica e Vulcanologia, Dipartimento della Protezione Civile Nazionale. doi: 10.13127/itaca.3.1
DATA_CREATOR: ITACA working group
ORIGINAL_DATA_MEDIATOR_CITATION: data obtained within the DPC-INGV data exchange agreements
ORIGINAL_DATA_MEDIATOR: Archive of Italian Department of Civil Protection
ORIGINAL_DATA_CREATOR_CITATION: Presidency Of Counsil Of Ministers-Civil Protection Department. (1972). Italian Strong Motion Network. Presidency of Counsil of Ministers - Civil Protection Department. https://doi.org/10.7914/SN/IT http://www.fdsn.org/networks/detail/IT/
ORIGINAL_DATA_CREATOR: network: IT (Italian Strong Motion Network (RAN)); owner: Presidency of Counsil of Ministers - Civil Protection Department (PCM - DPC)
USER1: 
USER2: 
USER3: 
USER4: 
USER5: 
[...]
1.984556
1.518470
1.019967
0.602330
0.315608
0.157161
0.086036
0.045287
0.013341
-0.012429
-0.056612
-0.157050
-0.362980
-0.725107
-1.239976
-1.827944
-2.398053
-2.882296
-3.214412
-3.363969
-3.345500
-3.173797
-2.862705
-2.427766
-1.908930
-1.395093
-0.932477
-0.504193
-0.165794
-0.010417
-0.033462
-0.167057
-0.311309
-0.336461
-0.204040
-0.003368
0.188598
0.336253
0.374221
0.274886
0.086182
-0.158081
-0.444674
-0.736582
-0.990833
-1.184069
-1.309816
-1.365640
-1.366461
-1.356086
-1.358005
-1.339151
-1.265646
-1.187119
-1.206559
-1.360496
-1.599044
-1.816058
-1.883352
-1.730762
-1.354490
-0.810972
-0.205843
0.377148
0.877210
1.249152
1.491730
1.641533
1.743671
1.814996
1.852221
1.823062
1.675861
1.438812
1.200563
1.031931
1.001329
1.135927
1.375041
1.632923
1.846898
1.962908
1.977756
1.954417
1.917553
1.853491
1.782885
1.720322
1.652771
1.562114
1.421839
1.201592
0.888937
0.503106
0.052756
-0.480979
-1.107662
-1.837677
-2.668366
-3.536758
-4.331665
-4.936209
-5.290950
-5.434126
-5.442473
-5.345096
-5.111184
-4.705447
-4.142521
-3.480449
-2.782756
-2.117761
-1.574609
-1.228525
-1.075805
-1.022219
-0.943362
-0.772900
-0.525380
-0.234050
0.047032
0.209870
0.178723
-0.034312
-0.397678
-0.884309
-1.433725
-1.953125
-2.338415
-2.494315
-2.377382
-2.000975
-1.405554
-0.672768
0.085364
0.764916
1.271466
1.552961
1.656522
1.691025
1.724827
1.781761
1.881504
2.018216
2.167247
2.291476
2.331448
2.250851
2.067232
1.833256
1.598046
1.382509
1.188214
1.001032
0.816004
0.689479
0.712289
0.924375
1.307372
1.811268
2.341911
2.786559
3.074208
3.206623
3.242324
3.242902
3.259622
3.351230
3.533434
3.750322
3.947446
4.094858
4.168071
4.188009
4.201490
4.206368
4.165736
4.062074
3.897881
3.681115
3.432252
3.173776
2.904091
2.613316
2.319713
2.051918
1.814609
1.614587
1.478530
1.419323
1.429946
1.500233
1.619935
1.780267
1.947936
2.058920
2.090175
2.081791
2.076244
2.105941
2.202542
2.363632
2.551446
2.739820
2.907734
3.001358
2.972862
2.826096
2.587798
2.282752
1.938039
1.561690
1.133048
0.635415
0.059568
-0.610198
-1.358171
-2.109956
-2.787592
-3.357623
-3.797582
-4.080413
-4.201524
-4.169834
-4.003444
-3.734367
-3.388668
-3.000190
-2.640068
-2.394220
-2.308734
-2.364888
-2.507116
-2.683216
-2.854911
-2.980245
-3.004556
-2.897419
-2.675079
-2.358001
-1.958268
-1.502587
-1.023409
-0.564292
-0.198436
0.016989
0.110640
0.152587
0.179218
0.216362
0.260152
0.244306
0.101904
-0.204267
-0.679138
-1.267205
-1.890020
-2.520812
-3.158460
-3.767745
-4.312947
-4.779420
-5.134141
-5.330618
-5.351157
-5.203241
-4.889944
-4.434267
-3.888386
-3.289705
-2.673097
-2.088830
-1.567333
-1.114790
-0.734249
-0.422998
-0.161021
0.061116
0.214354
0.279696
0.265684
0.158814
-0.061626
-0.401144
-0.865548
-1.414726
-1.952865
-2.418059
-2.802174
-3.088378
-3.236832
-3.210754
-2.972923
-2.499091
-1.802896
-0.897269
0.197127
1.400437
2.609385
3.737538
4.721167
5.519895
6.093975
6.404640
6.440374
6.217497
5.762518
5.113989
4.324301
3.439527
2.506091
1.592132
0.778125
0.135593
-0.301208
-0.552025
-0.674435
-0.731875
-0.757275
-0.743640
-0.682426
-0.607848
-0.566725
-0.539977
-0.457991
-0.273888
0.012873
0.349428
0.656580
0.885314
1.026213
1.087104
1.066336
0.955073
0.772827
0.546417
0.268442
-0.056914
-0.374127
-0.644781
-0.891174
-1.136167
-1.386680
-1.672411
-2.012992
-2.382222
-2.730006
-2.977185
-3.038875
-2.907654
-2.652852
-2.352268
-2.058811
-1.796410
-1.572264
-1.375640
-1.165834
-0.894853
-0.540841
-0.104588
0.396946
0.919373
1.421338
1.883566
2.278941
2.578974
2.769219
2.849580
2.822331
2.673384
2.402049
2.019881
1.520104
0.915086
0.267900
-0.335218
-0.818051
-1.125097
-1.255119
-1.278225
-1.267247
-1.268973
-1.334059
-1.491326
-1.726053
-2.009483
-2.318763
-2.632669
-2.910452
-3.098737
-3.196316
-3.250798
-3.283364
-3.288952
-3.260928
-3.180466
-3.024655
-2.793847
-2.523340
-2.262318
-2.050100
-1.894400
-1.773296
-1.672355
-1.585142
-1.522972
-1.525986
-1.603158
-1.736456
-1.928582
-2.162901
-2.396034
-2.615066
-2.827994
-3.024383
-3.203255
-3.383963
-3.557225
-3.691377
-3.758349
-3.712165
-3.505662
-3.138845
-2.645740
-2.053554
-1.405341
-0.772217
-0.214425
0.217332
0.496013
0.621077
0.576941
0.380379
0.089441
-0.257985
-0.617748
-0.953766
-1.261975
-1.484366
-1.538413
-1.451312
-1.299341
-1.077120
-0.764565
-0.387434
0.063030
0.618789
1.261632
1.947744
2.627824
3.234477
3.702823
4.000594
4.150764
4.195114
4.139148
4.003732
3.852462
3.692749
3.463285
3.149162
2.787470
2.383189
1.934590
1.461577
0.955782
0.416616
-0.093508
-0.510875
-0.806885
-0.956346
-0.967829
-0.895012
-0.778788
-0.648083
-0.528311
-0.413051
-0.266185
-0.042883
0.263331
0.585147
0.854936
1.082758
1.290580
1.475569
1.664772
1.871837
2.072954
2.258911
2.408337
2.464294
2.373287
2.119574
1.732960
1.270323
0.777121
0.272548
-0.197019
-0.547645
-0.732438
-0.742920
-0.557007
-0.177231
0.317527
0.816367
1.251441
1.618769
1.931758
2.191053
2.390351
2.501466
2.498172
2.387564
2.164173
1.784830
1.249032
0.641468
0.038252
-0.532604
-1.048524
-1.495814
-1.869089
-2.166807
-2.406608
-2.623851
-2.865313
-3.189895
-3.622621
-4.099211
-4.534367
-4.893398
-5.163109
-5.359326
-5.536525
-5.725632
-5.909708
-6.070704
-6.211847
-6.322322
-6.363657
-6.332409
-6.285240
-6.255597
-6.217643
-6.138614
-6.013797
-5.850925
-5.633526
-5.345825
-4.986745
-4.535499
-4.002070
-3.450808
-2.913070
-2.355056
-1.745405
-1.102340
-0.463270
0.136671
0.643226
0.993053
1.187702
1.312369
1.439489
1.606272
1.854893
2.192062
2.591299
3.025895
3.432268
3.739936
3.935513
4.030080
4.040150
3.993694
3.892735
3.723543
3.500452
3.243329
2.937768
2.554976
2.106437
1.659088
1.269968
0.932990
0.634119
0.389305
0.201115
0.055033
-0.050240
-0.116405
-0.171682
-0.235404
-0.288911
-0.328253
-0.385780
-0.494066
-0.678387
-0.952463
-1.292807
-1.651339
-1.987065
-2.269136
-2.485599
-2.629606
-2.686735
-2.663860
-2.569860
-2.398570
-2.156913
-1.855492
-1.505018
-1.141922
-0.809201
-0.508736
-0.219376
0.050042
0.273387
0.452525
0.622735
0.816885
1.041230
1.290334
1.569479
1.870974
2.126851
2.266260
2.289531
2.199407
1.967929
1.624385
1.258744
0.937711
0.700650
0.573735
0.536994
0.563226
0.650854
0.776134
0.904928
1.023490
1.120385
1.193663
1.266357
1.359121
1.462121
1.567672
1.689348
1.813879
1.912046
1.984680
2.033710
2.054388
2.045972
1.981613
1.847459
1.686327
1.539858
1.437293
1.427033
1.523710
1.695336
1.930926
2.227333
2.549217
2.869461
3.180290
3.452601
3.650682
3.756374
3.755637
3.653776
3.477080
3.238146
2.950754
2.662595
2.434659
2.298791
2.258962
2.304231
2.387758
2.449891
2.452523
2.357075
2.132361
1.786138
1.356173
0.882629
0.389030
-0.115398
-0.612068
-1.070063
-1.477123
-1.835399
-2.134868
-2.365675
-2.531109
-2.635076
-2.672757
-2.638316
-2.529809
-2.354209
-2.139131
-1.913865
-1.686537
-1.469807
-1.299775
-1.200724
-1.163242
-1.155545
-1.128913
-1.051066
-0.938837
-0.809491
-0.635586
-0.408858
-0.185484
-0.008611
0.126852
0.204298
0.189090
0.095468
-0.039923
-0.187929
-0.305373
-0.359551
-0.328827
-0.194233
0.025703
0.295357
0.593245
0.905091
1.203666
1.436883
1.577456
1.653098
1.694195
1.687134
1.605108
1.472299
1.338960
1.225971
1.142210
1.084351
1.039247
1.033299
1.108346
1.255717
1.424842
1.563402
1.634113
1.622009
1.527351
1.350175
1.099312
0.800524
0.483112
0.166870
-0.142702
-0.447743
-0.751190
-1.042110
-1.285326
-1.449092
-1.514333
-1.460552
-1.299474
-1.077429
-0.824337
-0.570610
-0.349191
-0.142301
0.087061
0.344200
0.636165
0.992273
1.403029
1.809669
2.175098
2.485328
2.729751
2.921690
3.083281
3.217574
3.319256
3.392062
3.420108
3.364534
3.210395
2.965774
2.655365
2.320968
1.986418
1.665585
1.397165
1.221256
1.144358
1.146306
1.190454
1.233002
1.241981
1.187357
1.035020
0.789079
0.511242
0.266324
0.081327
-0.035223
-0.095503
-0.141437
-0.201515
-0.273052
-0.350209
-0.423142
-0.473048
-0.496104
-0.504160
-0.509852
-0.537028
-0.613391
-0.749319
-0.947801
-1.198377
-1.463362
-1.701092
-1.867102
-1.900128
-1.751071
-1.416719
-0.933318
-0.343758
0.309187
0.968431
1.588444
2.166982
2.716141
3.217228
3.630921
3.941179
4.163704
4.314963
4.413405
4.505107
4.638875
4.840847
5.114270
5.421027
5.713476
5.976429
6.185156
6.308086
6.361885
6.376020
6.358797
6.326076
6.274083
6.161581
5.974438
5.733649
5.452632
5.147084
4.841507
4.550735
4.277943
4.017858
3.753365
3.473810
3.209362
2.994709
2.819847
2.678906
2.596494
2.581299
2.626218
2.728377
2.867781
3.009170
3.127887
3.225783
3.330428
3.446724
3.547351
3.628338
3.709684
3.800150
3.900315
4.005929
4.081248
4.080695
3.992508
3.802508
3.482673
3.049702
2.558747
2.044653
1.523393
1.004124
0.471750
-0.080053
-0.638601
-1.213625
-1.816511
-2.433189
-3.046130
-3.648043
-4.231902
-4.782103
-5.279814
-5.700708
-6.019362
-6.224762
-6.304597
-6.238912
-6.043158
-5.783770
-5.523916
-5.291532
-5.105584
-4.974822
-4.879101
-4.791394
-4.693720
-4.563887
-4.389985
-4.193306
-3.997211
-3.815070
-3.669695
-3.564956
-3.493377
-3.465801
-3.469860
-3.483377
-3.528383
-3.619744
-3.729666
-3.848570
-3.990214
-4.136634
-4.264698
-4.398530
-4.557617
-4.719143
-4.866462
-4.979343
-5.015313
-4.951038
-4.781108
-4.511535
-4.172543
-3.790602
-3.382371
-2.990072
-2.658537
-2.391775
-2.189259
-2.050352
-1.927137
-1.762861
-1.532373
-1.215363
-0.798904
-0.298238
0.261684
0.855980
1.440974
1.959296
2.354344
2.590009
2.672805
2.636670
2.526672
2.378370
2.207188
2.035068
1.876949
1.730318
1.618081
1.584635
1.645477
1.783386
1.965864
2.144567
2.281605
2.361622
2.370702
2.302901
2.176311
2.026283
1.868165
1.696854
1.529083
1.378704
1.232960
1.091856
0.969716
0.862685
0.754805
0.637248
0.502134
0.343077
0.164855
-0.022759
-0.209254
-0.379312
-0.520318
-0.638038
-0.749964
-0.880693
-1.063678
-1.302406
-1.566619
-1.843695
-2.132872
-2.407685
-2.622769
-2.742023
-2.747747
-2.621870
-2.335967
-1.898139
-1.385031
-0.869548
-0.377764
0.074469
0.495781
0.912984
1.316003
1.680363
2.006986
2.295332
2.525976
2.682019
2.749901
2.727859
2.640388
2.507836
2.339805
2.147440
1.923791
1.653542
1.349754
1.038520
0.721813
0.408400
0.137482
-0.068794
-0.211141
-0.292222
-0.338400
-0.377340
-0.401926
-0.411717
-0.425271
-0.429069
-0.397023
-0.347086
-0.305568
-0.258647
-0.182803
-0.072754
0.067820
0.228139
0.396172
0.575116
0.767024
0.949274
1.092584
1.181761
1.213893
1.195130
1.139992
1.056537
0.946357
0.829931
0.730964
0.661281
0.632076
0.629481
0.623074
0.598416
0.541967
0.453029
0.357015
0.264520
0.164898
0.066111
0.000084
-0.015590
0.010735
0.073113
0.170152
0.292513
0.435778
0.605174
0.798691
1.002728
1.201303
1.374984
1.511710
1.621685
1.711052
1.773520
1.825618
1.901743
2.026258
2.207886
2.434843
2.680953
2.913746
3.099413
3.223516
3.295299
3.316346
3.261094
3.119462
2.911721
2.639530
2.314136
1.979285
1.643715
1.294881
0.958189
0.654339
0.359731
0.068736
-0.187891
-0.412711
-0.637032
-0.872242
-1.118085
-1.376306
-1.649125
-1.945908
-2.274446
-2.614062
-2.933051
-3.227303
-3.498577
-3.727636
-3.908694
-4.062466
-4.198318
-4.322359
-4.453482
-4.598448
-4.748315
-4.879658
-4.960154
-4.962446
-4.865440
-4.665377
-4.372239
-3.999252
-3.569765
-3.113454
-2.656733
-2.227589
-1.850422
-1.519899
-1.223468
-0.979577
-0.810408
-0.722478
-0.707819
-0.742882
-0.804811
-0.866884
-0.909282
-0.942799
-0.985387
-1.047572
-1.140890
-1.271202
-1.422911
-1.571102
-1.713583
-1.855853
-2.003392
-2.176871
-2.381797
-2.604299
-2.833239
-3.052697
-3.245555
-3.394770
-3.478384
-3.491038
-3.453243
-3.383609
-3.295770
-3.214850
-3.155539
-3.122552
-3.126570
-3.167561
-3.253067
-3.406192
-3.617206
-3.846342
-4.080117
-4.318314
-4.532513
-4.707538
-4.849436
-4.938935
-4.962149
-4.937530
-4.882073
-4.803337
-4.713395
-4.606331
-4.462739
-4.292236
-4.098573
-3.866295
-3.612078
-3.354520
-3.089479
-2.834365
-2.606229
-2.382745
-2.159295
-1.960940
-1.784781
-1.630424
-1.517519
-1.446775
-1.418728
-1.438334
-1.495828
-1.585178
-1.702148
-1.823510
-1.920108
-1.978851
-2.007716
-2.028443
-2.053289
-2.083228
-2.126752
-2.190242
-2.262582
-2.321611
-2.363269
-2.405633
-2.449632
-2.476043
-2.471049
-2.423223
-2.305820
-2.098059
-1.823356
-1.527357
-1.251010
-1.025597
-0.851781
-0.710080
-0.588258
-0.478620
-0.375481
-0.284626
-0.213184
-0.152190
-0.089774
-0.018135
0.088820
0.267503
0.526046
0.850441
1.232470
1.644365
2.033456
2.373580
2.671775
2.944564
3.212205
3.490017
3.786896
4.110833
4.464426
4.827478
5.163808
5.458644
5.712584
5.913094
6.055056
6.162798
6.263181
6.358848
6.443173
6.518561
6.583642
6.627585
6.647219
6.641589
6.603717
6.528388
6.405341
6.227218
5.995958
5.705098
5.357585
4.976685
4.575100
4.165681
3.775719
3.415734
3.089161
2.808229
2.569290
2.367077
2.206545
2.074187
1.945219
1.806638
1.646766
1.450202
1.218718
0.971486
0.721717
0.476617
0.237535
-0.008561
-0.266032
-0.514888
-0.731727
-0.915646
-1.079902
-1.213040
-1.297904
-1.348039
-1.368843
-1.343672
-1.282727
-1.216794
-1.147302
-1.068555
-0.992991
-0.911238
-0.807340
-0.696717
-0.589611
-0.474986
-0.365294
-0.295966
-0.283036
-0.329447
-0.432395
-0.569428
-0.720170
-0.878707
-1.039624
-1.203270
-1.374890
-1.542272
-1.681667
-1.786722
-1.866568
-1.920325
-1.940325
-1.934714
-1.914231
-1.874801
-1.809923
-1.718184
-1.598827
-1.443365
-1.240873
-0.996878
-0.728595
-0.440825
-0.126085
0.209525
0.541630
0.840855
1.078598
1.239090
1.322614
1.333711
1.283139
1.182637
1.032881
0.849251
0.659563
0.467592
0.287721
0.155663
0.076388
0.041372
0.062378
0.149944
0.287624
0.439488
0.578822
0.700665
0.807746
0.885884
0.913890
0.882015
0.785622
0.635992
0.453451
0.251153
0.044068
-0.152493
-0.318073
-0.428418
-0.470408
-0.441249
-0.351668
-0.224929
-0.080218
0.068712
0.204829
0.326295
0.447928
0.560501
0.642081
0.699160
0.745466
0.776679
0.789413
0.789385
0.778026
0.761945
0.765654
0.809276
0.891147
0.993855
1.087528
1.150945
1.188416
1.203752
1.199950
1.193180
1.179797
1.141142
1.085540
1.033773
0.988820
0.941215
0.886110
0.820222
0.730609
0.613855
0.491660
0.378759
0.259142
0.127018
0.016741
-0.042071
-0.046486
0.011163
0.137046
0.320914
0.559654
0.853204
1.182491
1.532107
1.898124
2.261096
2.604629
2.933221
3.242627
3.524024
3.778918
3.994364
4.147016
4.230085
4.244257
4.182831
4.037714
3.812885
3.523938
3.190367
2.842375
2.504313
2.181122
1.876913
1.588495
1.309523
1.044573
0.792367
0.552156
0.337261
0.157244
0.010803
-0.100705
-0.173853
-0.203978
-0.182759
-0.122350
-0.059025
-0.017152
0.000539
-0.006388
-0.045826
-0.122998
-0.218268
-0.306832
-0.392192
-0.474021
-0.535641
-0.580185
-0.624612
-0.674692
-0.731843
-0.803967
-0.889946
-0.971188
-1.030285
-1.068233
-1.090519
-1.088265
-1.063896
-1.029352
-0.978393
-0.912652
-0.844135
-0.775843
-0.717622
-0.674068
-0.636717
-0.617415
-0.631752
-0.668550
-0.712835
-0.754712
-0.786995
-0.804448
-0.796720
-0.767630
-0.727628
-0.665172
-0.568269
-0.443742
-0.297911
-0.137283
0.018691
0.159900
0.290662
0.404058
0.491460
0.551742
0.573963
0.549478
0.475489
0.338401
0.141238
-0.088152
-0.333288
-0.590369
-0.856233
-1.138928
-1.449004
-1.785698
-2.154985
-2.555165
-2.955288
-3.328814
-3.662455
-3.934297
-4.124943
-4.246994
-4.319606
-4.331454
-4.282972
-4.194369
-4.067470
-3.907208
-3.735276
-3.561750
-3.384779
-3.208919
-3.030896
-2.839396
-2.640889
-2.443620
-2.229360
-1.978828
-1.703287
-1.409476
-1.085125
-0.745263
-0.424760
-0.139587
0.107581
0.304327
0.436807
0.519257
0.570403
0.572943
0.504525
0.376893
0.212591
0.019167
-0.197955
-0.418156
-0.605661
-0.737169
-0.816686
-0.839418
-0.785030
-0.661610
-0.502361
-0.325467
-0.140908
0.036774
0.205690
0.355285
0.458432
0.523196
0.567822
0.573393
0.549923
0.543671
0.550525
0.547498
0.557090
0.591131
0.626531
0.667620
0.738049
0.838456
0.976399
1.174727
1.432061
1.724684
2.037689
2.375925
2.742275
3.123896
3.513258
3.905976
4.284249
4.630843
4.933216
5.181062
5.372709
5.498487
5.540044
5.501808
5.409088
5.272828
5.090895
4.876682
4.642998
4.389386
4.133165
3.897456
3.673102
3.442626
3.209333
2.970362
2.720718
2.479841
2.256341
2.042435
1.848052
1.680004
1.536808
1.435851
1.390719
1.389839
1.426308
1.505945
1.615940
1.729364
1.831374
1.899665
1.898796
1.825301
1.697764
1.513006
1.281549
1.045234
0.817842
0.591913
0.379763
0.190694
0.029868
-0.088141
-0.163487
-0.211860
-0.236126
-0.217290
-0.149898
-0.063907
0.022921
0.125241
0.243185
0.348905
0.419468
0.446966
0.430351
0.374527
0.280968
0.161538
0.049794
-0.044634
-0.132487
-0.205544
-0.262944
-0.315209
-0.359095
-0.384745
-0.394055
-0.409388
-0.442071
-0.478385
-0.517624
-0.579797
-0.675084
-0.784853
-0.886638
-0.986591
-1.089202
-1.168006
-1.207239
-1.225630
-1.230317
-1.204279
-1.149470
-1.073895
-0.970747
-0.856103
-0.760131
-0.699381
-0.686200
-0.718298
-0.778578
-0.855293
-0.940039
-1.014401
-1.062152
-1.093750
-1.130354
-1.180683
-1.247207
-1.333609
-1.439443
-1.562594
-1.705826
-1.856278
-1.999327
-2.142258
-2.276183
-2.377856
-2.441145
-2.467851
-2.454468
-2.399890
-2.319588
-2.216639
-2.077872
-1.912071
-1.737980
-1.564712
-1.390757
-1.215331
-1.047877
-0.897549
-0.769232
-0.651925
-0.529031
-0.405448
-0.292437
-0.190263
-0.101499
-0.032126
0.027462
0.080105
0.109745
0.127413
0.156400
0.189380
0.211782
0.229024
0.264932
0.328947
0.410997
0.526096
0.688566
0.873422
1.054990
1.219406
1.348946
1.437115
1.488135
1.498995
1.471370
1.415413
1.328806
1.207577
1.064429
0.916331
0.770703
0.629789
0.499744
0.381710
0.268938
0.164680
0.071788
-0.021538
-0.122191
-0.234073
-0.364101
-0.510066
-0.666064
-0.819781
-0.952705
-1.058813
-1.143108
-1.204248
-1.244238
-1.283952
-1.332872
-1.382755
-1.434570
-1.492872
-1.556544
-1.611696
-1.647217
-1.676115
-1.708039
-1.739084
-1.769498
-1.804838
-1.859579
-1.948262
-2.071966
-2.234400
-2.434352
-2.646023
-2.854906
-3.065108
-3.258552
-3.408239
-3.505839
-3.551433
-3.545187
-3.483309
-3.363096
-3.194319
-2.979550
-2.708111
-2.387306
-2.039238
-1.679392
