EVENT_NAME: L_AQUILA
EVENT_ID: IT-2009-0009
EVENT_DATE_YYYYMMDD: 20090406
EVENT_TIME_HHMMSS: 013240
EVENT_LATITUDE_DEGREE: 42.3420
EVENT_LONGITUDE_DEGREE: 13.3800
EVENT_DEPTH_KM: 8.3
HYPOCENTER_REFERENCE: INGV-CNT_Seismic_Bulletin
MAGNITUDE_W: 6.1
MAGNITUDE_W_REFERENCE: INGV-CNT_Seismic_Bulletin
MAGNITUDE_L: 
MAGNITUDE_L_REFERENCE: 
FOCAL_MECHANISM: Normal faulting
NETWORK: IT
STATION_CODE: SBC
STATION_NAME: 
STATION_LATITUDE_DEGREE: 41.913158
STATION_LONGITUDE_DEGREE: 13.105518
STATION_ELEVATION_M: 668
LOCATION: 
SENSOR_DEPTH_M: 0.0
VS30_M/S: 1298
SITE_CLASSIFICATION_EC8: A
MORPHOLOGIC_CLASSIFICATION: 
EPICENTRAL_DISTANCE_KM: 52.8
EARTHQUAKE_BACKAZIMUTH_DEGREE: 205.6
DATE_TIME_FIRST_SAMPLE_YYYYMMDD_HHMMSS: 
DATE_TIME_FIRST_SAMPLE_PRECISION: 
SAMPLING_INTERVAL_S: 
NDATA: 105
DURATION_S: 
STREAM: HNZ
UNITS: cm
INSTRUMENT: sensor = Episensor FBA ES-T [Kinemetrics] | digitizer = Etna [Kinemetrics]
INSTRUMENT_ANALOG/DIGITAL: D
INSTRUMENTAL_FREQUENCY_HZ: 
INSTRUMENTAL_DAMPING: 
FULL_SCALE_G: 
N_BIT_DIGITAL_CONVERTER: 18
PGD_CM: 0.559844
TIME_PGD_S: 
BASELINE_CORRECTION: BASELINE REMOVED
FILTER_TYPE: BUTTERWORTH
FILTER_ORDER: 2
LOW_CUT_FREQUENCY_HZ: 0.080
HIGH_CUT_FREQUENCY_HZ: 50.000
LATE/NORMAL_TRIGGERED: NT
DATABASE_VERSION: 0.5
HEADER_FORMAT: DYNA 1.2
DATA_TYPE: DISPLACEMENT RESPONSE SPECTRUM
PROCESSING: manual (Paolucci et al., 2011)
DATA_TIMESTAMP_YYYYMMDD_HHMMSS: 20211011_160232.723
DATA_LICENSE: CC-BY3_0-IT (http://creativecommons.org/licenses/by/3.0/deed.en)
DATA_CITATION: Luzi L, Pacor F, Puglia R (2019). Italian Accelerometric Archive v 3.0 - Istituto Nazionale di Geofisica e Vulcanologia, Dipartimento della Protezione Civile Nazionale. doi: 10.13127/itaca.3.1
DATA_CREATOR: ITACA working group
ORIGINAL_DATA_MEDIATOR_CITATION: data obtained within the DPC-INGV data exchange agreements
ORIGINAL_DATA_MEDIATOR: Archive of Italian Department of Civil Protection
ORIGINAL_DATA_CREATOR_CITATION: Presidency Of Counsil Of Ministers-Civil Protection Department. (1972). Italian Strong Motion Network. Presidency of Counsil of Ministers - Civil Protection Department. https://doi.org/10.7914/SN/IT http://www.fdsn.org/networks/detail/IT/
ORIGINAL_DATA_CREATOR: network: IT (Italian Strong Motion Network (RAN)); owner: Presidency of Counsil of Ministers - Civil Protection Department (PCM - DPC)
USER1: 
USER2: 
USER3: 
USER4: 
USER5: 
    0.010000     0.000013
    0.020000     0.000051
    0.022000     0.000062
    0.025000     0.000082
    0.029000     0.000110
    0.030000     0.000118
    0.032000     0.000138
    0.035001     0.000171
    0.036000     0.000183
    0.040000     0.000219
    0.041999     0.000243
    0.044001     0.000296
    0.045000     0.000313
    0.046000     0.000326
    0.048001     0.000356
    0.050000     0.000395
    0.054999     0.000502
    0.059999     0.000624
    0.064998     0.000772
    0.067002     0.000878
    0.069999     0.001166
    0.075002     0.001491
    0.080000     0.001668
    0.084998     0.001583
    0.090001     0.001916
    0.095003     0.002199
    0.100000     0.002565
    0.109999     0.002800
    0.120005     0.004555
    0.130005     0.006546
    0.132996     0.006652
    0.139997     0.006751
    0.149993     0.007207
    0.160000     0.008347
    0.170010     0.008747
    0.179986     0.011848
    0.190006     0.011964
    0.200000     0.010488
    0.220022     0.012616
    0.239981     0.016354
    0.250000     0.019935
    0.260010     0.022632
    0.280034     0.028330
    0.290023     0.029833
    0.300030     0.035541
    0.320000     0.040577
    0.340020     0.046724
    0.350017     0.052849
    0.359971     0.056742
    0.379939     0.063050
    0.400000     0.058063
    0.419992     0.067941
    0.439947     0.066681
    0.450045     0.072970
    0.459982     0.081861
    0.480077     0.101805
    0.500000     0.106392
    0.550055     0.129357
    0.599880     0.117516
    0.650195     0.112404
    0.667111     0.109697
    0.699790     0.098403
    0.750188     0.105273
    0.800000     0.157910
    0.850340     0.164702
    0.900090     0.167863
    0.949668     0.164384
    1.000000     0.154659
    1.100110     0.253281
    1.200480     0.265528
    1.300390     0.266124
    1.400560     0.224335
    1.499250     0.190038
    1.600000     0.233527
    1.700680     0.268348
    1.798561     0.280892
    1.901141     0.282718
    2.000000     0.329434
    2.197802     0.430794
    2.398082     0.429200
    2.500000     0.454761
    2.597403     0.479353
    2.801121     0.581039
    3.003003     0.757312
    3.205128     0.897981
    3.401361     1.001612
    3.496503     1.066665
    3.597122     1.109207
    3.802281     1.136546
    4.000000     1.220517
    4.201681     1.436999
    4.405286     1.621743
    4.608295     1.675060
    4.807692     1.631354
    5.000000     1.619696
    5.494505     1.579480
    5.988024     1.796197
    6.493506     1.912029
    6.993007     1.759655
    7.518797     1.701328
    8.000000     1.637538
    8.474576     1.490608
    9.009009     1.295888
    9.523809     1.104786
   10.000000     1.010943
