EVENT_NAME: L_AQUILA
EVENT_ID: IT-2009-0009
EVENT_DATE_YYYYMMDD: 20090406
EVENT_TIME_HHMMSS: 013240
EVENT_LATITUDE_DEGREE: 42.3420
EVENT_LONGITUDE_DEGREE: 13.3800
EVENT_DEPTH_KM: 8.3
HYPOCENTER_REFERENCE: INGV-CNT_Seismic_Bulletin
MAGNITUDE_W: 6.1
MAGNITUDE_W_REFERENCE: INGV-CNT_Seismic_Bulletin
MAGNITUDE_L: 
MAGNITUDE_L_REFERENCE: 
FOCAL_MECHANISM: Normal faulting
NETWORK: IT
STATION_CODE: SBC
STATION_NAME: 
STATION_LATITUDE_DEGREE: 41.913158
STATION_LONGITUDE_DEGREE: 13.105518
STATION_ELEVATION_M: 668
LOCATION: 
SENSOR_DEPTH_M: 0.0
VS30_M/S: 1298
SITE_CLASSIFICATION_EC8: A
MORPHOLOGIC_CLASSIFICATION: 
EPICENTRAL_DISTANCE_KM: 52.8
EARTHQUAKE_BACKAZIMUTH_DEGREE: 205.6
DATE_TIME_FIRST_SAMPLE_YYYYMMDD_HHMMSS: 20090406_013239.000
DATE_TIME_FIRST_SAMPLE_PRECISION: seconds
SAMPLING_INTERVAL_S: 0.005000
NDATA: 14800
DURATION_S: 74.000
STREAM: HNN
UNITS: cm/s^2
INSTRUMENT: sensor = Episensor FBA ES-T [Kinemetrics] | digitizer = Etna [Kinemetrics]
INSTRUMENT_ANALOG/DIGITAL: D
INSTRUMENTAL_FREQUENCY_HZ: 
INSTRUMENTAL_DAMPING: 
FULL_SCALE_G: 
N_BIT_DIGITAL_CONVERTER: 18
PGA_CM/S^2: 6.680074
TIME_PGA_S: 31.025000
BASELINE_CORRECTION: BASELINE NOT REMOVED
FILTER_TYPE: 
FILTER_ORDER: 
LOW_CUT_FREQUENCY_HZ: 
HIGH_CUT_FREQUENCY_HZ: 
LATE/NORMAL_TRIGGERED: NT
DATABASE_VERSION: 0.5
HEADER_FORMAT: DYNA 1.2
DATA_TYPE: ACCELERATION
PROCESSING: converted to cm/s^2
DATA_TIMESTAMP_YYYYMMDD_HHMMSS: 20211011_160231.052
DATA_LICENSE: CC-BY3_0-IT (http://creativecommons.org/licenses/by/3.0/deed.en)
DATA_CITATION: Luzi L, Pacor F, Puglia R (2019). Italian Accelerometric Archive v 3.0 - Istituto Nazionale di Geofisica e Vulcanologia, Dipartimento della Protezione Civile Nazionale. doi: 10.13127/itaca.3.1
DATA_CREATOR: ITACA working group
ORIGINAL_DATA_MEDIATOR_CITATION: data obtained within the DPC-INGV data exchange agreements
ORIGINAL_DATA_MEDIATOR: Archive of Italian Department of Civil Protection
ORIGINAL_DATA_CREATOR_CITATION: Presidency Of Counsil Of Ministers-Civil Protection Department. (1972). Italian Strong Motion Network. Presidency of Counsil of Ministers - Civil Protection Department. https://doi.org/10.7914/SN/IT http://www.fdsn.org/networks/detail/IT/
ORIGINAL_DATA_CREATOR: network: IT (Italian Strong Motion Network (RAN)); owner: Presidency of Counsil of Ministers - Civil Protection Department (PCM - DPC)
USER1: 
USER2: 
USER3: 
USER4: 
USER5: 
[...]
2.234470
1.935260
1.449979
0.935244
0.536454
0.250334
0.071276
0.033407
-0.017085
-0.077862
-0.060096
-0.141911
-0.220454
-0.433173
-0.784278
-1.298077
-1.929690
-2.433672
-2.969445
-3.296706
-3.411247
-3.431350
-3.239201
-2.923161
-2.515020
-1.985792
-1.419164
-1.037671
-0.597271
-0.179313
-0.109653
-0.100303
-0.214844
-0.397175
-0.428966
-0.270478
-0.037655
0.073146
0.282125
0.334019
0.169921
0.029667
-0.226999
-0.515924
-0.808588
-1.062449
-1.256468
-1.373347
-1.448150
-1.437397
-1.406541
-1.444409
-1.396255
-1.373815
-1.228417
-1.261143
-1.469655
-1.607572
-1.943248
-1.940911
-1.781488
-1.483681
-0.821211
-0.308347
0.306436
0.834728
1.144224
1.459797
1.541144
1.671581
1.774434
1.724878
1.799680
1.611739
1.328425
1.171340
0.937114
0.924491
1.064278
1.309257
1.568260
1.750591
1.941805
1.876820
1.862327
1.895521
1.742643
1.724410
1.655686
1.562182
1.514028
1.327957
1.149834
0.820703
0.402277
0.016109
-0.572026
-1.182601
-1.885276
-2.754855
-3.594045
-4.408925
-5.021370
-5.364059
-5.496833
-5.508521
-5.415018
-5.187338
-4.785742
-4.204153
-3.556644
-2.852566
-2.196642
-1.633286
-1.291064
-1.149875
-1.086760
-1.040476
-0.833367
-0.585116
-0.333125
-0.015682
0.163844
0.089509
-0.102173
-0.463562
-0.953518
-1.504719
-2.025999
-2.400946
-2.594497
-2.421049
-2.088178
-1.487421
-0.717890
-0.011475
0.713642
1.195650
1.503743
1.574338
1.597246
1.692619
1.675789
1.822121
1.959571
2.066632
2.248028
2.251300
2.186783
2.003049
1.744513
1.543014
1.300841
1.118978
0.935712
0.758523
0.607048
0.629022
0.874935
1.213416
1.747786
2.276078
2.716011
3.018493
3.129294
3.168098
3.178851
3.196149
3.253186
3.477126
3.694053
3.851606
4.047494
4.103129
4.101259
4.134452
4.139128
4.100791
3.986717
3.832438
3.615510
3.355104
3.104983
2.836629
2.553315
2.237275
1.983881
1.759006
1.532261
1.412110
1.352736
1.357878
1.431746
1.558442
1.693554
1.885703
2.012400
1.999777
2.022685
2.008192
2.034841
2.126941
2.296649
2.497681
2.650091
2.846447
2.942755
2.902549
2.754814
2.523394
2.217171
1.857185
1.502340
1.068486
0.558427
-0.003059
-0.669736
-1.422436
-2.190097
-2.855839
-3.408442
-3.885775
-4.138233
-4.263995
-4.253710
-4.052678
-3.809570
-3.457063
-3.070428
-2.703896
-2.451438
-2.375700
-2.430867
-2.578134
-2.745972
-2.923161
-3.037235
-3.090531
-2.956354
-2.728674
-2.446763
-2.004025
-1.579989
-1.087228
-0.634205
-0.260193
-0.017552
-0.000254
0.114287
0.118495
0.113352
0.229296
0.163844
0.040887
-0.261128
-0.739864
-1.335946
-1.975039
-2.553823
-3.237799
-3.839024
-4.362173
-4.851662
-5.191078
-5.409875
-5.403330
-5.262608
-4.977891
-4.473909
-3.956370
-3.367768
-2.716986
-2.161111
-1.626273
-1.177926
-0.801108
-0.470575
-0.246635
0.004888
0.168986
0.197505
0.204985
0.111949
-0.140041
-0.461692
-0.899286
-1.502381
-2.013376
-2.475749
-2.862384
-3.145231
-3.314004
-3.243409
-3.066688
-2.548681
-1.843200
-0.999335
0.163844
1.330762
2.546770
3.692183
4.647317
5.465936
6.033500
6.349073
6.380864
6.152717
5.713719
5.047977
4.260682
3.393440
2.437839
1.539274
0.717850
0.065665
-0.352761
-0.619245
-0.725371
-0.784745
-0.818406
-0.798771
-0.757162
-0.647763
-0.612232
-0.619245
-0.501431
-0.341073
-0.054486
0.310644
0.592088
0.834261
0.972178
1.017994
1.022670
0.902986
0.702889
0.492975
0.225088
-0.111523
-0.450004
-0.690774
-0.935285
-1.208314
-1.437864
-1.713698
-2.074620
-2.439750
-2.761868
-3.056403
-3.098479
-2.948407
-2.719792
-2.388791
-2.120437
-1.848810
-1.616923
-1.433189
-1.215327
-0.959128
-0.580908
-0.165755
0.334954
0.895973
1.341048
1.844562
2.234470
2.506096
2.752009
2.763230
2.788008
2.635130
2.320493
1.997439
1.456524
0.878675
0.211063
-0.392032
-0.849262
-1.211119
-1.285454
-1.319583
-1.334543
-1.304155
-1.382230
-1.537912
-1.779618
-2.051712
-2.374765
-2.667897
-2.960094
-3.175152
-3.210215
-3.311198
-3.333639
-3.321951
-3.322419
-3.212085
-3.089129
-2.833865
-2.564109
-2.321936
-2.069010
-1.960546
-1.817954
-1.697803
-1.665544
-1.544458
-1.560353
-1.676297
-1.759515
-1.971767
-2.214875
-2.443022
-2.652937
-2.864254
-3.090531
-3.226111
-3.424337
-3.617421
-3.713729
-3.809103
-3.754403
-3.556177
-3.176554
-2.674443
-2.126982
-1.417294
-0.820744
-0.274686
0.222751
0.410224
0.594893
0.569647
0.289605
0.084366
-0.298061
-0.686567
-0.967544
-1.289662
-1.546795
-1.595417
-1.451890
-1.341556
-1.144732
-0.776330
-0.417745
-0.001189
0.595360
1.226506
1.896456
2.604742
3.191006
3.670677
3.981107
4.091441
4.161101
4.129310
3.947446
3.806724
3.666002
3.449542
3.091893
2.748269
2.380802
1.866535
1.438291
0.935244
0.381706
-0.141911
-0.532754
-0.831497
-1.025048
-0.963336
-0.942765
-0.817004
-0.658049
-0.578571
-0.426161
-0.307412
-0.078797
0.223218
0.572920
0.839403
1.005371
1.310192
1.430343
1.606129
1.889911
2.006322
2.244755
2.375192
2.433631
2.363036
2.073177
1.728618
1.215753
0.760861
0.261554
-0.242427
-0.575298
-0.754357
-0.759032
-0.611297
-0.189131
0.287268
0.798730
1.239129
1.563585
1.940402
2.140966
2.367712
2.497213
2.453734
2.377062
2.115253
1.806225
1.207806
0.594893
0.056315
-0.595869
-1.043281
-1.529497
-1.893224
-2.180279
-2.444892
-2.621613
-2.919421
-3.171412
-3.645005
-4.149921
-4.524868
-4.931139
-5.185468
-5.376215
-5.545455
-5.748357
-5.934895
-6.084033
-6.229430
-6.331348
-6.408956
-6.337893
-6.284129
-6.296752
-6.213067
-6.178471
-6.019048
-5.849340
-5.694592
-5.312632
-5.026980
-4.565543
-3.993771
-3.478101
-2.904928
-2.403284
-1.740814
-1.120421
-0.483665
0.131118
0.611256
1.022202
1.150769
1.286348
1.456056
1.572468
1.834276
2.203146
2.561263
3.004000
3.450477
3.714156
3.920330
4.038144
4.011963
3.982510
3.893682
3.709481
3.489281
3.226070
2.939015
2.545367
2.108708
1.629972
1.258765
0.952542
0.595828
0.399004
0.184882
0.054913
-0.059629
-0.140041
-0.144249
-0.267205
-0.291516
-0.331723
-0.393435
-0.498158
-0.687034
-0.939493
-1.320050
-1.641701
-1.993273
-2.292950
-2.456113
-2.663690
-2.683793
-2.648729
-2.601978
-2.378973
-2.171396
-1.854420
-1.514537
-1.140524
-0.794095
-0.536494
-0.205961
0.040420
0.282593
0.451366
0.609853
0.828651
1.026877
1.308321
1.553767
1.855315
2.165277
2.250365
2.276546
2.218107
1.975466
1.620622
1.244739
0.965633
0.679046
0.569180
0.574322
0.528973
0.668760
0.785172
0.895505
1.037630
1.118978
1.205936
1.260167
1.359281
1.483640
1.561715
1.680464
1.844562
1.904404
1.981076
2.062424
2.038581
2.050268
2.011932
1.840822
1.682334
1.568260
1.434551
1.416318
1.550027
1.703840
1.922169
2.243820
2.565003
2.866550
3.186331
3.474321
3.648704
3.764648
3.782413
3.642159
3.495359
3.251316
2.958184
2.678609
2.424281
2.331713
2.253170
2.306467
2.424748
2.436436
2.475240
2.370517
2.142837
1.803888
1.357411
0.902986
0.390121
-0.087680
-0.608492
-1.065722
-1.446280
-1.838057
-2.112021
-2.360272
-2.511747
-2.620211
-2.667430
-2.611328
-2.530448
-2.334091
-2.122774
-1.896964
-1.679570
-1.455630
-1.270026
-1.199899
-1.134914
-1.141927
-1.123694
-1.035333
-0.913312
-0.786615
-0.646828
-0.378942
-0.157807
-0.000254
0.132520
0.236309
0.217140
0.080626
0.013771
-0.188663
-0.299464
-0.306477
-0.352761
-0.154067
0.043692
0.300826
0.635567
0.894570
1.237259
1.465874
1.586026
1.679529
1.695892
1.722540
1.636050
1.466342
1.374709
1.247545
1.142354
1.127393
1.058668
1.041370
1.131601
1.274193
1.450914
1.579948
1.665036
1.635582
1.549092
1.381721
1.108692
0.834728
0.492507
0.194700
-0.119471
-0.433641
-0.713215
-1.028321
-1.264416
-1.423371
-1.484616
-1.463578
-1.253663
-1.052164
-0.830562
-0.506106
-0.346216
-0.116198
0.108677
0.371421
0.672500
0.975918
1.465407
1.822121
2.188653
2.534147
2.733309
2.962391
3.091425
3.252718
3.350897
3.387830
3.477593
3.375207
3.233083
3.010545
2.660376
2.353686
2.013335
1.696359
1.413045
1.247545
1.175547
1.159652
1.230246
1.254090
1.265310
1.216689
1.069889
0.818833
0.522896
0.300358
0.110547
-0.022227
-0.061031
-0.106848
-0.182585
-0.243362
-0.318632
-0.399045
-0.451407
-0.460757
-0.480393
-0.488808
-0.497691
-0.590259
-0.726773
-0.905364
-1.178393
-1.439267
-1.659467
-1.849745
-1.868913
-1.730996
-1.387840
-0.896481
-0.327515
0.342902
1.000696
1.622024
2.186783
2.743126
3.249913
3.662262
3.973160
4.180269
4.358860
4.441610
4.520153
4.683315
4.858166
5.133065
5.474352
5.731018
5.993294
6.237804
6.333178
6.376657
6.420135
6.388812
6.335048
6.318217
6.200871
5.985346
5.775899
5.481832
5.169531
4.879672
4.569709
4.318186
4.035807
3.790828
3.519670
3.207369
3.042336
2.854395
2.700583
2.624377
2.618300
2.654766
2.744529
2.920315
3.017091
3.179786
3.252251
3.336404
3.507982
3.558941
3.670210
3.728649
3.837580
3.933421
4.010561
4.148010
4.090038
4.020379
3.844125
3.514059
3.081608
2.570613
2.102630
1.527586
1.039033
0.524766
-0.081602
-0.589324
-1.184938
-1.789436
-2.397673
-3.025079
-3.606201
-4.208361
-4.751614
-5.241102
-5.681502
-5.984920
-6.189224
-6.278986
-6.214937
-6.015775
-5.737604
-5.503378
-5.262141
-5.063447
-4.952178
-4.846052
-4.764704
-4.654370
-4.545439
-4.363108
-4.141973
-3.992369
-3.772169
-3.626304
-3.562254
-3.444441
-3.427610
-3.462206
-3.446778
-3.481842
-3.602461
-3.704847
-3.808167
-3.955435
-4.118598
-4.242489
-4.338330
-4.550115
-4.691304
-4.808650
-4.980696
-4.969476
-4.920387
-4.764704
-4.470170
-4.145246
-3.757208
-3.369170
-2.937654
-2.630028
-2.385518
-2.124177
-2.035349
-1.904445
-1.721646
-1.509862
-1.182601
-0.779135
-0.252713
0.277917
0.885687
1.482705
1.967518
2.413060
2.604742
2.703855
2.682349
2.525264
2.435969
2.226054
2.055411
1.921234
1.755266
1.652413
1.596311
1.694489
1.796875
1.995569
2.194263
2.284026
2.414931
2.385945
2.340128
2.213431
2.026425
1.929650
1.712722
1.549559
1.420993
1.257362
1.123185
0.989943
0.902518
0.778627
0.663618
0.540194
0.363473
0.200777
0.001148
-0.176040
-0.351826
-0.500963
-0.593064
-0.738929
-0.845522
-1.018503
-1.293869
-1.530900
-1.812812
-2.103606
-2.377570
-2.601043
-2.708571
-2.721662
-2.585147
-2.326144
-1.874056
-1.324726
-0.871703
-0.335930
0.118027
0.495780
0.956750
1.339645
1.716462
2.021750
2.329843
2.561730
2.687960
2.809981
2.733309
2.671597
2.546302
2.352283
2.183978
1.945078
1.697294
1.361151
1.065681
0.767874
0.421912
0.160571
-0.027838
-0.193806
-0.272816
-0.289179
-0.361644
-0.380344
-0.376137
-0.389695
-0.416810
-0.373331
-0.300399
-0.291049
-0.227934
-0.158274
-0.043266
0.090911
0.256879
0.432198
0.584608
0.805742
0.971243
1.122250
1.210611
1.234922
1.234454
1.147496
1.098407
0.975918
0.836599
0.781432
0.673436
0.649592
0.678111
0.632294
0.627151
0.583205
0.464924
0.385446
0.291943
0.195167
0.093716
0.013771
0.020784
0.035744
0.093716
0.201245
0.317656
0.463054
0.626216
0.827716
1.029682
1.219961
1.411642
1.536469
1.635582
1.749189
1.800615
1.841757
1.936662
2.043723
2.231664
2.468695
2.693102
2.951638
3.121814
3.249913
3.320976
3.325183
3.320976
3.117139
2.934340
2.698712
2.303194
2.014737
1.675321
1.320944
0.973113
0.672968
0.416302
0.063328
-0.158742
-0.375669
-0.624855
-0.836172
-1.103591
-1.341556
-1.635623
-1.913795
-2.240588
-2.607588
-2.898382
-3.205540
-3.465011
-3.722612
-3.871750
-4.029770
-4.200413
-4.267735
-4.448664
-4.566945
-4.713745
-4.876441
-4.912439
-4.957321
-4.835766
-4.636137
-4.359368
-3.963850
-3.556644
-3.077441
-2.643587
-2.199447
-1.810006
-1.524355
-1.182133
-0.954921
-0.799706
-0.675346
-0.703398
-0.712748
-0.769317
-0.867963
-0.867028
-0.925467
-0.964271
-1.014763
-1.130239
-1.226080
-1.417761
-1.548198
-1.669752
-1.861901
-1.959144
-2.151760
-2.373363
-2.561771
-2.823112
-3.024144
-3.219566
-3.374781
-3.455193
-3.474361
-3.412649
-3.378988
-3.265382
-3.177957
-3.157854
-3.075103
-3.111102
-3.155983
-3.212553
-3.388339
-3.586565
-3.845569
-4.031172
-4.298124
-4.537959
-4.642215
-4.854467
-4.909166
-4.937685
-4.917114
-4.848857
-4.803041
-4.651098
-4.619307
-4.432301
-4.241554
-4.115325
-3.819855
-3.589838
-3.335042
-3.074636
-2.795529
-2.578602
-2.393933
-2.096593
-1.952131
-1.779618
-1.574846
-1.517809
-1.418696
-1.385970
-1.426176
-1.467785
-1.562691
-1.673024
-1.809539
-1.891822
-1.959611
-1.989065
-1.988130
-2.051244
-2.045167
-2.108281
-2.168591
-2.226563
-2.326144
-2.313988
-2.392998
-2.426192
-2.447698
-2.459853
-2.376168
-2.311651
-2.064802
-1.793643
-1.520614
-1.208314
-1.009620
-0.828692
-0.686567
-0.565480
-0.454212
-0.359306
-0.252245
-0.191936
-0.134899
-0.059629
0.005823
0.110079
0.281658
0.558427
0.875870
1.235389
1.687477
2.054476
2.389685
2.708063
2.953976
3.244303
3.508449
3.809997
4.139128
4.471531
4.865646
5.185894
5.475286
5.738030
5.940464
6.080252
6.177495
6.289699
6.381331
6.470160
6.533274
6.611817
6.655763
6.656231
6.680074
6.617427
6.548702
6.442109
6.235934
6.022747
5.737563
5.372433
4.994681
4.614591
4.176061
3.793166
3.459360
3.090490
2.838500
2.601002
2.376594
2.234470
2.097955
1.969388
1.825394
1.672049
1.478965
1.236324
0.992281
0.752913
0.488299
0.263425
0.024057
-0.255050
-0.479458
-0.726306
-0.882923
-1.044216
-1.218599
-1.254598
-1.328466
-1.346699
-1.329868
-1.254131
-1.177926
-1.157822
-1.016633
-0.975959
-0.902092
-0.773057
-0.676749
-0.560338
-0.473847
-0.320502
-0.279828
-0.269076
-0.288244
-0.423823
-0.542572
-0.699190
-0.853002
-1.024113
-1.175588
-1.347166
-1.529497
-1.653856
-1.770735
-1.831980
-1.909120
-1.918470
-1.900705
-1.904912
-1.841798
-1.795514
-1.692660
-1.572041
-1.429449
-1.214392
-0.978764
-0.697787
-0.424291
-0.108250
0.239114
0.555622
0.868390
1.102147
1.259232
1.344320
1.359748
1.301776
1.196585
1.078771
0.846416
0.683721
0.516350
0.273710
0.196570
0.096521
0.058653
0.092314
0.152623
0.329344
0.447626
0.611256
0.720187
0.813690
0.934777
0.909063
0.919349
0.811353
0.637437
0.499520
0.252204
0.075016
-0.126951
-0.310217
-0.393435
-0.461224
-0.414940
-0.333593
-0.200351
-0.059161
0.081093
0.245659
0.330747
0.466326
0.594893
0.656605
0.718317
0.765536
0.802937
0.805275
0.809015
0.805275
0.780497
0.780964
0.832858
0.910466
1.007709
1.121315
1.166664
1.198923
1.242402
1.208741
1.205001
1.217623
1.152171
1.106822
1.052591
1.006307
0.969373
0.895505
0.844546
0.754316
0.633229
0.506065
0.393861
0.294748
0.140935
0.025927
-0.011942
-0.027838
0.021719
0.162909
0.343370
0.570582
0.872597
1.212481
1.540209
1.914689
2.296182
2.609417
2.953041
3.270951
3.534163
3.795036
4.020846
4.163438
4.244786
4.268630
4.192892
4.069000
3.820750
3.544448
3.221862
2.832889
2.548640
2.185380
1.889443
1.626700
1.305049
1.076901
0.804807
0.573855
0.349447
0.175999
0.035277
-0.097030
-0.139574
-0.198481
-0.166690
-0.102640
-0.037655
-0.003059
0.017044
0.013304
-0.036720
-0.083939
-0.229337
-0.278426
-0.364449
-0.478523
-0.503301
-0.575766
-0.594934
-0.669736
-0.712748
-0.778200
-0.887598
-0.939493
-1.035801
-1.032061
-1.078812
-1.091435
-1.017100
-1.036268
-0.959596
-0.886664
-0.839912
-0.758564
-0.693580
-0.664594
-0.633270
-0.577168
-0.635608
-0.648698
-0.688437
-0.760902
-0.747344
-0.806718
-0.782408
-0.741266
-0.720696
-0.649633
-0.558000
-0.418681
-0.297127
-0.117601
0.040420
0.163376
0.307371
0.423315
0.500455
0.559829
0.605178
0.542999
0.497182
0.363940
0.136260
-0.061966
-0.329385
-0.568286
-0.856275
-1.113408
-1.435994
-1.793176
-2.105009
-2.574394
-2.927368
-3.318211
-3.655757
-3.906346
-4.148519
-4.189660
-4.333655
-4.324772
-4.246697
-4.205555
-4.040990
-3.908683
-3.705782
-3.564592
-3.371041
-3.183099
-3.041442
-2.811892
-2.639379
-2.418244
-2.232173
-1.972702
-1.666012
-1.427579
-1.062917
-0.733318
-0.417278
-0.121341
0.103067
0.329812
0.447158
0.518688
0.582270
0.589283
0.516818
0.377498
0.229296
0.026394
-0.186793
-0.402317
-0.611297
-0.719761
-0.801108
-0.838509
-0.779602
-0.647296
-0.488340
-0.328450
-0.122743
0.050237
0.195167
0.378433
0.478949
0.503260
0.588348
0.602841
0.530376
0.551414
0.578997
0.546739
0.551882
0.611256
0.642579
0.656138
0.754783
0.854831
0.967970
1.189573
1.435018
1.735631
2.049334
2.370517
2.757619
3.132567
3.511254
3.917058
4.294810
4.626746
4.951669
5.182155
5.371966
5.515493
5.541674
5.513155
5.401419
5.290151
5.098937
4.865646
4.665550
4.390183
4.134920
3.897422
3.688443
3.447672
3.197084
3.000727
2.712738
2.474305
2.281221
2.034841
1.849237
1.694489
1.538339
1.432681
1.398085
1.399019
1.425200
1.504210
1.627635
1.733293
1.823056
1.912351
1.910949
1.813706
1.701035
1.535066
1.269050
1.039033
0.843144
0.578530
0.381238
0.208258
0.014706
-0.077394
-0.164820
-0.207831
-0.225129
-0.236349
-0.136769
-0.055889
0.017511
0.124105
0.245191
0.356460
0.413497
0.453236
0.433600
0.362538
0.301761
0.154961
0.030134
-0.010540
-0.155937
-0.203623
-0.247102
-0.336398
-0.335930
-0.406525
-0.387825
-0.396240
-0.459354
-0.470107
-0.524339
-0.574363
-0.671139
-0.795965
-0.888533
-0.975024
-1.096110
-1.175588
-1.207379
-1.216262
-1.237768
-1.219535
-1.122759
-1.098915
-0.973154
-0.838042
-0.787550
-0.680489
-0.695450
-0.722566
-0.774927
-0.868430
-0.924532
-1.037203
-1.057774
-1.091903
-1.142394
-1.170913
-1.266286
-1.319115
-1.455630
-1.567834
-1.684245
-1.899302
-1.973169
-2.148488
-2.299495
-2.353727
-2.476684
-2.440685
-2.480891
-2.406089
-2.292015
-2.266302
-2.046102
-1.937638
-1.737074
-1.556146
-1.424306
-1.187743
-1.080215
-0.887131
-0.770252
-0.674879
-0.518261
-0.423356
-0.284971
-0.209234
-0.100770
-0.026903
-0.005397
0.096521
0.106339
0.100262
0.168051
0.174129
0.208258
0.234438
0.230231
0.347110
0.404614
0.495780
0.702889
0.858104
1.047915
1.213416
1.345723
1.426603
1.475692
1.506548
1.447641
1.414448
1.324217
1.195650
1.061006
0.901115
0.769744
0.619204
0.488767
0.374693
0.268567
0.141871
0.071743
-0.024097
-0.149859
-0.218116
-0.392032
-0.510314
-0.669736
-0.842249
-0.947441
-1.085358
-1.129771
-1.235430
-1.248053
-1.274701
-1.372880
-1.363997
-1.463110
-1.496304
-1.554276
-1.646376
-1.637961
-1.691258
-1.720711
-1.745022
-1.782423
-1.817954
-1.864238
-1.956806
-2.095659
-2.225160
-2.452373
-2.669300
-2.846956
-3.082583
-3.273330
-3.414987
-3.518775
-3.563657
-3.550566
-3.500542
-3.376651
-3.191982
-3.003573
-2.719792
-2.389726
-2.061062
-1.681907
-1.329868
-0.979232
