EVENT_NAME: L_AQUILA
EVENT_ID: IT-2009-0009
EVENT_DATE_YYYYMMDD: 20090406
EVENT_TIME_HHMMSS: 013240
EVENT_LATITUDE_DEGREE: 42.3420
EVENT_LONGITUDE_DEGREE: 13.3800
EVENT_DEPTH_KM: 8.3
HYPOCENTER_REFERENCE: INGV-CNT_Seismic_Bulletin
MAGNITUDE_W: 6.1
MAGNITUDE_W_REFERENCE: INGV-CNT_Seismic_Bulletin
MAGNITUDE_L: 
MAGNITUDE_L_REFERENCE: 
FOCAL_MECHANISM: Normal faulting
NETWORK: IT
STATION_CODE: SBC
STATION_NAME: 
STATION_LATITUDE_DEGREE: 41.913158
STATION_LONGITUDE_DEGREE: 13.105518
STATION_ELEVATION_M: 668
LOCATION: 
SENSOR_DEPTH_M: 0.0
VS30_M/S: 1298
SITE_CLASSIFICATION_EC8: A
MORPHOLOGIC_CLASSIFICATION: 
EPICENTRAL_DISTANCE_KM: 52.8
EARTHQUAKE_BACKAZIMUTH_DEGREE: 205.6
DATE_TIME_FIRST_SAMPLE_YYYYMMDD_HHMMSS: 20090406_013239.000
DATE_TIME_FIRST_SAMPLE_PRECISION: seconds
SAMPLING_INTERVAL_S: 0.005000
NDATA: 14800
DURATION_S: 74.000
STREAM: HNZ
UNITS: cm
INSTRUMENT: sensor = Episensor FBA ES-T [Kinemetrics] | digitizer = Etna [Kinemetrics]
INSTRUMENT_ANALOG/DIGITAL: D
INSTRUMENTAL_FREQUENCY_HZ: 
INSTRUMENTAL_DAMPING: 
FULL_SCALE_G: 
N_BIT_DIGITAL_CONVERTER: 18
PGD_CM: 0.559844
TIME_PGD_S: 23.555000
BASELINE_CORRECTION: BASELINE REMOVED
FILTER_TYPE: BUTTERWORTH
FILTER_ORDER: 2
LOW_CUT_FREQUENCY_HZ: 0.080
HIGH_CUT_FREQUENCY_HZ: 50.000
LATE/NORMAL_TRIGGERED: NT
DATABASE_VERSION: 0.5
HEADER_FORMAT: DYNA 1.2
DATA_TYPE: DISPLACEMENT
PROCESSING: manual (Paolucci et al., 2011)
DATA_TIMESTAMP_YYYYMMDD_HHMMSS: 20211011_160231.782
DATA_LICENSE: CC-BY3_0-IT (http://creativecommons.org/licenses/by/3.0/deed.en)
DATA_CITATION: Luzi L, Pacor F, Puglia R (2019). Italian Accelerometric Archive v 3.0 - Istituto Nazionale di Geofisica e Vulcanologia, Dipartimento della Protezione Civile Nazionale. doi: 10.13127/itaca.3.1
DATA_CREATOR: ITACA working group
ORIGINAL_DATA_MEDIATOR_CITATION: data obtained within the DPC-INGV data exchange agreements
ORIGINAL_DATA_MEDIATOR: Archive of Italian Department of Civil Protection
ORIGINAL_DATA_CREATOR_CITATION: Presidency Of Counsil Of Ministers-Civil Protection Department. (1972). Italian Strong Motion Network. Presidency of Counsil of Ministers - Civil Protection Department. https://doi.org/10.7914/SN/IT http://www.fdsn.org/networks/detail/IT/
ORIGINAL_DATA_CREATOR: network: IT (Italian Strong Motion Network (RAN)); owner: Presidency of Counsil of Ministers - Civil Protection Department (PCM - DPC)
USER1: 
USER2: 
USER3: 
USER4: 
USER5: 
[...]
-1.613560e-01
-1.605904e-01
-1.598346e-01
-1.590887e-01
-1.583512e-01
-1.576194e-01
-1.568902e-01
-1.561616e-01
-1.554316e-01
-1.546978e-01
-1.539562e-01
-1.532015e-01
-1.524267e-01
-1.516264e-01
-1.507989e-01
-1.499494e-01
-1.490894e-01
-1.482335e-01
-1.473955e-01
-1.465861e-01
-1.458107e-01
-1.450701e-01
-1.443611e-01
-1.436782e-01
-1.430140e-01
-1.423595e-01
-1.417035e-01
-1.410332e-01
-1.403354e-01
-1.395999e-01
-1.388212e-01
-1.380013e-01
-1.371503e-01
-1.362861e-01
-1.354318e-01
-1.346114e-01
-1.338452e-01
-1.331464e-01
-1.325208e-01
-1.319669e-01
-1.314784e-01
-1.310452e-01
-1.306551e-01
-1.302946e-01
-1.299498e-01
-1.296081e-01
-1.292597e-01
-1.288993e-01
-1.285263e-01
-1.281428e-01
-1.277514e-01
-1.273524e-01
-1.269433e-01
-1.265191e-01
-1.260744e-01
-1.256040e-01
-1.251041e-01
-1.245725e-01
-1.240085e-01
-1.234123e-01
-1.227851e-01
-1.221296e-01
-1.214512e-01
-1.207588e-01
-1.200634e-01
-1.193746e-01
-1.186980e-01
-1.180341e-01
-1.173787e-01
-1.167253e-01
-1.160660e-01
-1.153926e-01
-1.146969e-01
-1.139723e-01
-1.132151e-01
-1.124250e-01
-1.116055e-01
-1.107624e-01
-1.099018e-01
-1.090300e-01
-1.081521e-01
-1.072705e-01
-1.063840e-01
-1.054865e-01
-1.045674e-01
-1.036136e-01
-1.026124e-01
-1.015543e-01
-1.004348e-01
-9.925371e-02
-9.801467e-02
-9.672497e-02
-9.539470e-02
-9.403554e-02
-9.265932e-02
-9.127674e-02
-8.989698e-02
-8.852789e-02
-8.717637e-02
-8.584880e-02
-8.455113e-02
-8.328858e-02
-8.206522e-02
-8.088390e-02
-7.974670e-02
-7.865526e-02
-7.761134e-02
-7.661709e-02
-7.567456e-02
-7.478465e-02
-7.394605e-02
-7.315519e-02
-7.240710e-02
-7.169634e-02
-7.101713e-02
-7.036291e-02
-6.972624e-02
-6.909933e-02
-6.847509e-02
-6.784858e-02
-6.721788e-02
-6.658450e-02
-6.595330e-02
-6.533215e-02
-6.473082e-02
-6.415927e-02
-6.362557e-02
-6.313441e-02
-6.268628e-02
-6.227740e-02
-6.190029e-02
-6.154532e-02
-6.120287e-02
-6.086577e-02
-6.053148e-02
-6.020291e-02
-5.988701e-02
-5.959132e-02
-5.932019e-02
-5.907230e-02
-5.884027e-02
-5.861198e-02
-5.837288e-02
-5.810845e-02
-5.780550e-02
-5.745234e-02
-5.703848e-02
-5.655561e-02
-5.599981e-02
-5.537314e-02
-5.468315e-02
-5.394070e-02
-5.315694e-02
-5.234088e-02
-5.149857e-02
-5.063350e-02
-4.974744e-02
-4.884167e-02
-4.791798e-02
-4.697929e-02
-4.602957e-02
-4.507297e-02
-4.411227e-02
-4.314859e-02
-4.218266e-02
-4.121724e-02
-4.025897e-02
-3.931902e-02
-3.841208e-02
-3.755396e-02
-3.675843e-02
-3.603459e-02
-3.538575e-02
-3.481017e-02
-3.430315e-02
-3.385936e-02
-3.347450e-02
-3.314578e-02
-3.287134e-02
-3.264927e-02
-3.247693e-02
-3.235093e-02
-3.226714e-02
-3.222034e-02
-3.220353e-02
-3.220801e-02
-3.222426e-02
-3.224306e-02
-3.225671e-02
-3.226034e-02
-3.225258e-02
-3.223534e-02
-3.221262e-02
-3.218903e-02
-3.216861e-02
-3.215468e-02
-3.215021e-02
-3.215795e-02
-3.217968e-02
-3.221544e-02
-3.226309e-02
-3.231875e-02
-3.237793e-02
-3.243639e-02
-3.249091e-02
-3.253976e-02
-3.258261e-02
-3.261968e-02
-3.265019e-02
-3.267093e-02
-3.267589e-02
-3.265727e-02
-3.260683e-02
-3.251701e-02
-3.238180e-02
-3.219725e-02
-3.196218e-02
-3.167916e-02
-3.135590e-02
-3.100582e-02
-3.064687e-02
-3.029879e-02
-2.997995e-02
-2.970465e-02
-2.948191e-02
-2.931570e-02
-2.920607e-02
-2.915097e-02
-2.914817e-02
-2.919684e-02
-2.929787e-02
-2.945255e-02
-2.965979e-02
-2.991369e-02
-3.020310e-02
-3.051371e-02
-3.083147e-02
-3.114572e-02
-3.145070e-02
-3.174539e-02
-3.203204e-02
-3.231368e-02
-3.259104e-02
-3.286086e-02
-3.311680e-02
-3.335249e-02
-3.356472e-02
-3.375439e-02
-3.392503e-02
-3.408060e-02
-3.422391e-02
-3.435639e-02
-3.447884e-02
-3.459268e-02
-3.470045e-02
-3.480555e-02
-3.491165e-02
-3.502189e-02
-3.513787e-02
-3.525893e-02
-3.538188e-02
-3.550131e-02
-3.561031e-02
-3.570152e-02
-3.576816e-02
-3.580488e-02
-3.580832e-02
-3.577656e-02
-3.570722e-02
-3.559544e-02
-3.543316e-02
-3.521044e-02
-3.491840e-02
-3.455212e-02
-3.411211e-02
-3.360410e-02
-3.303797e-02
-3.242627e-02
-3.178237e-02
-3.111832e-02
-3.044318e-02
-2.976263e-02
-2.907980e-02
-2.839650e-02
-2.771396e-02
-2.703268e-02
-2.635188e-02
-2.566959e-02
-2.498321e-02
-2.429010e-02
-2.358826e-02
-2.287644e-02
-2.215351e-02
-2.141779e-02
-2.066786e-02
-1.990403e-02
-1.912925e-02
-1.834854e-02
-1.756772e-02
-1.679271e-02
-1.602980e-02
-1.528579e-02
-1.456746e-02
-1.388004e-02
-1.322601e-02
-1.260499e-02
-1.201503e-02
-1.145408e-02
-1.092072e-02
-1.041456e-02
-9.936447e-03
-9.487995e-03
-9.070170e-03
-8.681782e-03
-8.319191e-03
-7.976982e-03
-7.648548e-03
-7.326480e-03
-7.002962e-03
-6.670209e-03
-6.321458e-03
-5.952674e-03
-5.564020e-03
-5.160326e-03
-4.750332e-03
-4.344806e-03
-3.954255e-03
-3.586973e-03
-3.247796e-03
-2.937859e-03
-2.655674e-03
-2.399362e-03
-2.168811e-03
-1.966416e-03
-1.796195e-03
-1.662182e-03
-1.567143e-03
-1.512329e-03
-1.497900e-03
-1.523357e-03
-1.587759e-03
-1.689736e-03
-1.827730e-03
-2.000751e-03
-2.209335e-03
-2.456649e-03
-2.749472e-03
-3.098078e-03
-3.514509e-03
-4.009976e-03
-4.592685e-03
-5.266842e-03
-6.032817e-03
-6.887893e-03
-7.827190e-03
-8.844883e-03
-9.935617e-03
-1.109542e-02
-1.232183e-02
-1.361369e-02
-1.497072e-02
-1.639290e-02
-1.788020e-02
-1.943286e-02
-2.105182e-02
-2.273925e-02
-2.449811e-02
-2.633046e-02
-2.823503e-02
-3.020553e-02
-3.223063e-02
-3.429578e-02
-3.638571e-02
-3.848593e-02
-4.058299e-02
-4.266438e-02
-4.471844e-02
-4.673443e-02
-4.870302e-02
-5.061689e-02
-5.247115e-02
-5.426395e-02
-5.599687e-02
-5.767473e-02
-5.930476e-02
-6.089534e-02
-6.245462e-02
-6.398944e-02
-6.550425e-02
-6.700069e-02
-6.847803e-02
-6.993458e-02
-7.136938e-02
-7.278293e-02
-7.417630e-02
-7.554939e-02
-7.689965e-02
-7.822178e-02
-7.950882e-02
-8.075402e-02
-8.195234e-02
-8.310054e-02
-8.419600e-02
-8.523580e-02
-8.621702e-02
-8.713849e-02
-8.800284e-02
-8.881728e-02
-8.959260e-02
-9.034073e-02
-9.107229e-02
-9.179560e-02
-9.251660e-02
-9.323904e-02
-9.396434e-02
-9.469132e-02
-9.541650e-02
-9.613530e-02
-9.684330e-02
-9.753668e-02
-9.821178e-02
-9.886418e-02
-9.948778e-02
-1.000744e-01
-1.006140e-01
-1.010966e-01
-1.015138e-01
-1.018608e-01
-1.021367e-01
-1.023448e-01
-1.024922e-01
-1.025871e-01
-1.026357e-01
-1.026410e-01
-1.026026e-01
-1.025188e-01
-1.023883e-01
-1.022116e-01
-1.019928e-01
-1.017396e-01
-1.014642e-01
-1.011817e-01
-1.009090e-01
-1.006624e-01
-1.004554e-01
-1.002980e-01
-1.001944e-01
-1.001430e-01
-1.001367e-01
-1.001641e-01
-1.002114e-01
-1.002645e-01
-1.003104e-01
-1.003379e-01
-1.003385e-01
-1.003065e-01
-1.002389e-01
-1.001353e-01
-9.999733e-02
-9.982836e-02
-9.963184e-02
-9.941048e-02
-9.916564e-02
-9.889735e-02
-9.860462e-02
-9.828566e-02
-9.793823e-02
-9.756008e-02
-9.714963e-02
-9.670623e-02
-9.623017e-02
-9.572273e-02
-9.518650e-02
-9.462527e-02
-9.404332e-02
-9.344483e-02
-9.283395e-02
-9.221499e-02
-9.159308e-02
-9.097426e-02
-9.036447e-02
-8.976814e-02
-8.918763e-02
-8.862344e-02
-8.807435e-02
-8.753700e-02
-8.700536e-02
-8.647136e-02
-8.592678e-02
-8.536538e-02
-8.478466e-02
-8.418640e-02
-8.357580e-02
-8.295990e-02
-8.234599e-02
-8.174055e-02
-8.114792e-02
-8.056960e-02
-8.000483e-02
-7.945205e-02
-7.891016e-02
-7.837897e-02
-7.785941e-02
-7.735367e-02
-7.686497e-02
-7.639699e-02
-7.595357e-02
-7.553844e-02
-7.515473e-02
-7.480433e-02
-7.448734e-02
-7.420149e-02
-7.394222e-02
-7.370325e-02
-7.347785e-02
-7.326034e-02
-7.304698e-02
-7.283583e-02
-7.262541e-02
-7.241320e-02
-7.219501e-02
-7.196576e-02
-7.172102e-02
-7.145803e-02
-7.117591e-02
-7.087496e-02
-7.055521e-02
-7.021480e-02
-6.984916e-02
-6.945140e-02
-6.901362e-02
-6.852853e-02
-6.799023e-02
-6.739460e-02
-6.673957e-02
-6.602527e-02
-6.525390e-02
-6.442948e-02
-6.355708e-02
-6.264120e-02
-6.168364e-02
-6.068163e-02
-5.962728e-02
-5.850938e-02
-5.731691e-02
-5.604206e-02
-5.468164e-02
-5.323711e-02
-5.171379e-02
-5.012008e-02
-4.846721e-02
-4.676913e-02
-4.504241e-02
-4.330601e-02
-4.158040e-02
-3.988617e-02
-3.824219e-02
-3.666348e-02
-3.515935e-02
-3.373222e-02
-3.237773e-02
-3.108626e-02
-2.984528e-02
-2.864174e-02
-2.746406e-02
-2.630374e-02
-2.515627e-02
-2.402162e-02
-2.290368e-02
-2.180871e-02
-2.074240e-02
-1.970647e-02
-1.869684e-02
-1.770379e-02
-1.671395e-02
-1.571361e-02
-1.469227e-02
-1.364497e-02
-1.257266e-02
-1.148115e-02
-1.037905e-02
-9.275814e-03
-8.180396e-03
-7.100726e-03
-6.043528e-03
-5.014788e-03
-4.020895e-03
-3.069547e-03
-2.169665e-03
-1.330312e-03
-5.591292e-04
1.388983e-04
7.617443e-04
1.309882e-03
1.786101e-03
2.196213e-03
2.549861e-03
2.860118e-03
3.141668e-03
3.408494e-03
3.671818e-03
3.938583e-03
4.211096e-03
4.488630e-03
4.770484e-03
5.058776e-03
5.359635e-03
5.682683e-03
6.039114e-03
6.438700e-03
6.887163e-03
7.385608e-03
7.932207e-03
8.525013e-03
9.164294e-03
9.852927e-03
1.059484e-02
1.139309e-02
1.224919e-02
1.316406e-02
1.413955e-02
1.517939e-02
1.628884e-02
1.747281e-02
1.873393e-02
2.007136e-02
2.148116e-02
2.295785e-02
2.449659e-02
2.609501e-02
2.775350e-02
2.947368e-02
3.125608e-02
3.309836e-02
3.499473e-02
3.693691e-02
3.891634e-02
4.092621e-02
4.296237e-02
4.502299e-02
4.710709e-02
4.921258e-02
5.133499e-02
5.346737e-02
5.560086e-02
5.772542e-02
5.983076e-02
6.190741e-02
6.394763e-02
6.594610e-02
6.790017e-02
6.980992e-02
7.167777e-02
7.350713e-02
7.530065e-02
7.705854e-02
7.877799e-02
8.045408e-02
8.208183e-02
8.365782e-02
8.518132e-02
8.665461e-02
8.808226e-02
8.946949e-02
9.082046e-02
9.213763e-02
9.342273e-02
9.467777e-02
9.590569e-02
9.711058e-02
9.829736e-02
9.947113e-02
1.006370e-01
1.018002e-01
1.029669e-01
1.041446e-01
1.053418e-01
1.065680e-01
1.078326e-01
1.091444e-01
1.105110e-01
1.119376e-01
1.134268e-01
1.149778e-01
1.165864e-01
1.182461e-01
1.199492e-01
1.216883e-01
1.234570e-01
1.252506e-01
1.270665e-01
1.289042e-01
1.307650e-01
1.326518e-01
1.345688e-01
1.365203e-01
1.385093e-01
1.405377e-01
1.426060e-01
1.447145e-01
1.468642e-01
1.490572e-01
1.512955e-01
1.535789e-01
1.559034e-01
1.582614e-01
1.606425e-01
1.630367e-01
1.654360e-01
1.678355e-01
1.702322e-01
1.726237e-01
1.750076e-01
1.773816e-01
1.797441e-01
1.820960e-01
1.844417e-01
1.867892e-01
1.891488e-01
1.915310e-01
1.939449e-01
1.963977e-01
1.988957e-01
2.014459e-01
2.040571e-01
2.067396e-01
2.095032e-01
2.123548e-01
2.152972e-01
2.183298e-01
2.214488e-01
2.246482e-01
2.279198e-01
2.312534e-01
2.346374e-01
2.380595e-01
2.415067e-01
2.449659e-01
2.484240e-01
2.518685e-01
2.552879e-01
2.586726e-01
2.620163e-01
2.653171e-01
2.685775e-01
2.718042e-01
2.750073e-01
2.781999e-01
2.813969e-01
2.846137e-01
2.878645e-01
2.911607e-01
2.945101e-01
2.979173e-01
3.013837e-01
3.049091e-01
3.084917e-01
3.121285e-01
3.158143e-01
3.195412e-01
3.232981e-01
3.270716e-01
3.308472e-01
3.346099e-01
3.383458e-01
3.420424e-01
3.456893e-01
3.492779e-01
3.528020e-01
3.562583e-01
3.596464e-01
3.629687e-01
3.662300e-01
3.694368e-01
3.725967e-01
3.757174e-01
3.788054e-01
3.818653e-01
3.849008e-01
3.879143e-01
3.909081e-01
3.938826e-01
3.968368e-01
3.997682e-01
4.026742e-01
4.055526e-01
4.084000e-01
4.112107e-01
4.139759e-01
4.166842e-01
4.193238e-01
4.218836e-01
4.243544e-01
4.267296e-01
4.290052e-01
4.311799e-01
4.332551e-01
4.352343e-01
4.371232e-01
4.389288e-01
4.406593e-01
4.423233e-01
4.439280e-01
4.454787e-01
4.469779e-01
4.484265e-01
4.498249e-01
4.511747e-01
4.524806e-01
4.537514e-01
4.549983e-01
4.562333e-01
4.574668e-01
4.587060e-01
4.599542e-01
4.612116e-01
4.624756e-01
4.637427e-01
4.650088e-01
4.662690e-01
4.675179e-01
4.687492e-01
4.699568e-01
4.711357e-01
4.722823e-01
4.733948e-01
4.744734e-01
4.755214e-01
4.765450e-01
4.775531e-01
4.785565e-01
4.795678e-01
4.806006e-01
4.816686e-01
4.827841e-01
4.839555e-01
4.851860e-01
4.864731e-01
4.878105e-01
4.891897e-01
4.906021e-01
4.920401e-01
4.934984e-01
4.949749e-01
4.964715e-01
4.979941e-01
4.995511e-01
5.011512e-01
5.028010e-01
5.045032e-01
5.062576e-01
5.080612e-01
5.099085e-01
5.117915e-01
5.136993e-01
5.156196e-01
5.175406e-01
5.194530e-01
5.213511e-01
5.232313e-01
5.250911e-01
5.269276e-01
5.287370e-01
5.305157e-01
5.322606e-01
5.339706e-01
5.356463e-01
5.372894e-01
5.389010e-01
5.404801e-01
5.420236e-01
5.435261e-01
5.449806e-01
5.463800e-01
5.477173e-01
5.489857e-01
5.501790e-01
5.512916e-01
5.523190e-01
5.532576e-01
5.541049e-01
5.548599e-01
5.555236e-01
5.560991e-01
5.565920e-01
5.570101e-01
5.573632e-01
5.576630e-01
5.579213e-01
5.581487e-01
5.583540e-01
5.585435e-01
5.587219e-01
5.588924e-01
5.590571e-01
5.592167e-01
5.593700e-01
5.595131e-01
5.596396e-01
5.597418e-01
5.598124e-01
5.598440e-01
5.598288e-01
5.597577e-01
5.596210e-01
5.594100e-01
5.591176e-01
5.587387e-01
5.582690e-01
5.577045e-01
5.570409e-01
5.562732e-01
5.553960e-01
5.544035e-01
5.532904e-01
5.520538e-01
5.506955e-01
5.492232e-01
5.476510e-01
5.459971e-01
5.442813e-01
5.425220e-01
5.407351e-01
5.389338e-01
5.371290e-01
5.353292e-01
5.335411e-01
5.317698e-01
5.300193e-01
5.282923e-01
5.265899e-01
5.249104e-01
5.232488e-01
5.215960e-01
5.199401e-01
5.182683e-01
5.165699e-01
5.148381e-01
5.130704e-01
5.112675e-01
5.094316e-01
5.075637e-01
5.056627e-01
5.037267e-01
5.017545e-01
4.997482e-01
4.977134e-01
4.956591e-01
4.935960e-01
4.915355e-01
4.894884e-01
4.874636e-01
4.854670e-01
4.835014e-01
4.815664e-01
4.796598e-01
4.777776e-01
4.759155e-01
4.740692e-01
4.722348e-01
4.704099e-01
4.685941e-01
4.667892e-01
4.649981e-01
4.632237e-01
4.614668e-01
4.597250e-01
4.579924e-01
4.562621e-01
4.545278e-01
4.527865e-01
4.510379e-01
4.492836e-01
4.475261e-01
4.457666e-01
4.440037e-01
4.422339e-01
4.404530e-01
4.386577e-01
4.368466e-01
4.350203e-01
4.331797e-01
4.313255e-01
4.294571e-01
4.275721e-01
4.256672e-01
4.237389e-01
4.217851e-01
4.198043e-01
4.177959e-01
4.157590e-01
4.136924e-01
4.115954e-01
4.094677e-01
4.073099e-01
4.051233e-01
4.029080e-01
4.006635e-01
3.983885e-01
3.960799e-01
3.937327e-01
3.913393e-01
3.888896e-01
3.863711e-01
3.837695e-01
3.810700e-01
3.782598e-01
3.753295e-01
3.722744e-01
3.690945e-01
3.657927e-01
3.623734e-01
3.588410e-01
3.551993e-01
3.514522e-01
3.476042e-01
3.436594e-01
3.396217e-01
3.354944e-01
3.312806e-01
3.269835e-01
3.226064e-01
3.181523e-01
3.136246e-01
3.090264e-01
3.043613e-01
2.996323e-01
2.948425e-01
2.899941e-01
2.850895e-01
2.801312e-01
2.751220e-01
2.700645e-01
2.649609e-01
2.598128e-01
2.546212e-01
2.493861e-01
2.441065e-01
2.387811e-01
2.334087e-01
2.279895e-01
2.225267e-01
2.170258e-01
2.114952e-01
2.059451e-01
2.003874e-01
1.948349e-01
1.893000e-01
1.837944e-01
1.783283e-01
1.729108e-01
1.675508e-01
1.622579e-01
1.570426e-01
1.519157e-01
1.468876e-01
1.419676e-01
1.371632e-01
1.324791e-01
1.279161e-01
1.234707e-01
1.191359e-01
1.149024e-01
1.107605e-01
1.067009e-01
1.027155e-01
9.879737e-02
9.493993e-02
9.113694e-02
8.738329e-02
8.367575e-02
8.001285e-02
7.639423e-02
7.281973e-02
6.928877e-02
6.580056e-02
6.235477e-02
5.895210e-02
5.559402e-02
5.228188e-02
4.901603e-02
4.579532e-02
4.261690e-02
3.947675e-02
3.637082e-02
3.329622e-02
3.025206e-02
2.723982e-02
2.426314e-02
2.132708e-02
1.843707e-02
1.559772e-02
1.281151e-02
1.007829e-02
7.395584e-03
4.759145e-03
2.163120e-03
-3.998083e-04
-2.938029e-03
-5.460108e-03
-7.973263e-03
-1.048192e-02
-1.298727e-02
-1.548800e-02
-1.798160e-02
-2.046607e-02
-2.294164e-02
-2.541229e-02
-2.788648e-02
-3.037640e-02
-3.289601e-02
-3.545860e-02
-3.807434e-02
-4.074824e-02
-4.347961e-02
-4.626331e-02
-4.909137e-02
-5.195426e-02
-5.484212e-02
-5.774578e-02
-6.065656e-02
-6.356506e-02
-6.646061e-02
-6.933203e-02
-7.216964e-02
-7.496682e-02
-7.772091e-02
-8.043299e-02
-8.310676e-02
-8.574658e-02
-8.835569e-02
-9.093511e-02
-9.348382e-02
-9.599983e-02
-9.848186e-02
-1.009304e-01
-1.033472e-01
-1.057345e-01
-1.080930e-01
-1.104217e-01
-1.127171e-01
-1.149749e-01
-1.171914e-01
-1.193655e-01
-1.214983e-01
-1.235927e-01
-1.256530e-01
-1.276838e-01
-1.296888e-01
-1.316707e-01
-1.336304e-01
-1.355674e-01
-1.374797e-01
-1.393636e-01
-1.412140e-01
-1.430245e-01
-1.447873e-01
-1.464952e-01
-1.481425e-01
-1.497266e-01
-1.512472e-01
-1.527065e-01
-1.541084e-01
-1.554583e-01
-1.567630e-01
-1.580297e-01
-1.592656e-01
-1.604771e-01
-1.616705e-01
-1.628518e-01
-1.640274e-01
-1.652037e-01
-1.663867e-01
-1.675815e-01
-1.687912e-01
-1.700178e-01
-1.712640e-01
-1.725338e-01
-1.738330e-01
-1.751675e-01
-1.765426e-01
-1.779626e-01
-1.794304e-01
-1.809466e-01
-1.825095e-01
-1.841150e-01
-1.857577e-01
-1.874318e-01
-1.891326e-01
-1.908568e-01
-1.926027e-01
-1.943698e-01
-1.961579e-01
-1.979675e-01
-1.997999e-01
-2.016576e-01
-2.035445e-01
-2.054650e-01
-2.074237e-01
-2.094249e-01
-2.114725e-01
-2.135703e-01
-2.157232e-01
-2.179372e-01
-2.202193e-01
-2.225761e-01
-2.250119e-01
-2.275279e-01
-2.301217e-01
-2.327878e-01
-2.355181e-01
-2.383011e-01
-2.411230e-01
-2.439676e-01
-2.468179e-01
-2.496572e-01
-2.524703e-01
-2.552441e-01
-2.579674e-01
-2.606311e-01
-2.632292e-01
-2.657595e-01
-2.682241e-01
-2.706284e-01
-2.729802e-01
-2.752871e-01
-2.775547e-01
-2.797859e-01
-2.819806e-01
-2.841366e-01
-2.862502e-01
-2.883173e-01
-2.903347e-01
-2.922996e-01
-2.942101e-01
-2.960642e-01
-2.978596e-01
-2.995934e-01
-3.012618e-01
-3.028613e-01
-3.043896e-01
-3.058465e-01
-3.072352e-01
-3.085622e-01
-3.098377e-01
-3.110745e-01
-3.122872e-01
-3.134912e-01
-3.147015e-01
-3.159321e-01
-3.171956e-01
-3.185033e-01
-3.198648e-01
-3.212880e-01
-3.227792e-01
-3.243429e-01
-3.259810e-01
-3.276930e-01
-3.294760e-01
-3.313253e-01
-3.332358e-01
-3.352033e-01
-3.372249e-01
-3.392993e-01
-3.414265e-01
-3.436064e-01
-3.458387e-01
-3.481226e-01
-3.504567e-01
-3.528398e-01
-3.552695e-01
-3.577420e-01
-3.602510e-01
-3.627887e-01
-3.653462e-01
-3.679144e-01
-3.704850e-01
-3.730497e-01
-3.756002e-01
-3.781281e-01
-3.806257e-01
-3.830872e-01
-3.855090e-01
-3.878899e-01
-3.902299e-01
-3.925292e-01
-3.947884e-01
-3.970087e-01
-3.991920e-01
-4.013413e-01
-4.034599e-01
-4.055518e-01
-4.076205e-01
