EVENT_NAME: L_AQUILA
EVENT_ID: IT-2009-0009
EVENT_DATE_YYYYMMDD: 20090406
EVENT_TIME_HHMMSS: 013240
EVENT_LATITUDE_DEGREE: 42.3420
EVENT_LONGITUDE_DEGREE: 13.3800
EVENT_DEPTH_KM: 8.3
HYPOCENTER_REFERENCE: INGV-CNT_Seismic_Bulletin
MAGNITUDE_W: 6.1
MAGNITUDE_W_REFERENCE: INGV-CNT_Seismic_Bulletin
MAGNITUDE_L: 
MAGNITUDE_L_REFERENCE: 
FOCAL_MECHANISM: Normal faulting
NETWORK: IT
STATION_CODE: SBC
STATION_NAME: 
STATION_LATITUDE_DEGREE: 41.913158
STATION_LONGITUDE_DEGREE: 13.105518
STATION_ELEVATION_M: 668
LOCATION: 
SENSOR_DEPTH_M: 0.0
VS30_M/S: 1298
SITE_CLASSIFICATION_EC8: A
MORPHOLOGIC_CLASSIFICATION: 
EPICENTRAL_DISTANCE_KM: 52.8
EARTHQUAKE_BACKAZIMUTH_DEGREE: 205.6
DATE_TIME_FIRST_SAMPLE_YYYYMMDD_HHMMSS: 20090406_013239.000
DATE_TIME_FIRST_SAMPLE_PRECISION: seconds
SAMPLING_INTERVAL_S: 0.005000
NDATA: 14800
DURATION_S: 74.000
STREAM: HNZ
UNITS: cm/s^2
INSTRUMENT: sensor = Episensor FBA ES-T [Kinemetrics] | digitizer = Etna [Kinemetrics]
INSTRUMENT_ANALOG/DIGITAL: D
INSTRUMENTAL_FREQUENCY_HZ: 
INSTRUMENTAL_DAMPING: 
FULL_SCALE_G: 
N_BIT_DIGITAL_CONVERTER: 18
PGA_CM/S^2: -4.996781
TIME_PGA_S: 24.095000
BASELINE_CORRECTION: BASELINE REMOVED
FILTER_TYPE: BUTTERWORTH
FILTER_ORDER: 2
LOW_CUT_FREQUENCY_HZ: 0.080
HIGH_CUT_FREQUENCY_HZ: 50.000
LATE/NORMAL_TRIGGERED: NT
DATABASE_VERSION: 0.5
HEADER_FORMAT: DYNA 1.2
DATA_TYPE: ACCELERATION
PROCESSING: manual (Paolucci et al., 2011)
DATA_TIMESTAMP_YYYYMMDD_HHMMSS: 20211011_160231.657
DATA_LICENSE: CC-BY3_0-IT (http://creativecommons.org/licenses/by/3.0/deed.en)
DATA_CITATION: Luzi L, Pacor F, Puglia R (2019). Italian Accelerometric Archive v 3.0 - Istituto Nazionale di Geofisica e Vulcanologia, Dipartimento della Protezione Civile Nazionale. doi: 10.13127/itaca.3.1
DATA_CREATOR: ITACA working group
ORIGINAL_DATA_MEDIATOR_CITATION: data obtained within the DPC-INGV data exchange agreements
ORIGINAL_DATA_MEDIATOR: Archive of Italian Department of Civil Protection
ORIGINAL_DATA_CREATOR_CITATION: Presidency Of Counsil Of Ministers-Civil Protection Department. (1972). Italian Strong Motion Network. Presidency of Counsil of Ministers - Civil Protection Department. https://doi.org/10.7914/SN/IT http://www.fdsn.org/networks/detail/IT/
ORIGINAL_DATA_CREATOR: network: IT (Italian Strong Motion Network (RAN)); owner: Presidency of Counsil of Ministers - Civil Protection Department (PCM - DPC)
USER1: 
USER2: 
USER3: 
USER4: 
USER5: 
[...]
-1.184438
-1.338717
-1.496329
-1.572564
-1.479927
-1.201437
-0.822022
-0.477903
-0.280155
-0.274977
-0.432136
-0.648272
-0.785665
-0.744647
-0.527704
-0.238588
-0.009504
0.072607
-0.001512
-0.165493
-0.321560
-0.394611
-0.349052
-0.197830
-0.004786
0.163026
0.274493
0.314473
0.270264
0.158265
0.049734
0.052419
0.241147
0.592328
0.985497
1.268546
1.330913
1.137637
0.723192
0.169003
-0.414358
-0.908272
-1.230904
-1.366031
-1.337290
-1.169173
-0.877170
-0.477087
0.001042
0.505225
0.978352
1.374441
1.656650
1.799876
1.797677
1.678180
1.512825
1.387193
1.365395
1.476856
1.701620
1.956815
2.131932
2.150837
1.999817
1.725524
1.410583
1.121584
0.856268
0.549622
0.149300
-0.326720
-0.799771
-1.175752
-1.393225
-1.435372
-1.302255
-1.005523
-0.589659
-0.130254
0.288189
0.590789
0.715544
0.614764
0.275976
-0.254924
-0.871371
-1.422260
-1.747194
-1.737115
-1.385527
-0.772957
0.000994
0.850669
1.682003
2.379400
2.828833
2.962612
2.791181
2.389479
1.862429
1.317278
0.829725
0.417550
0.056080
-0.281381
-0.583795
-0.780649
-0.774624
-0.517052
-0.057596
0.479080
0.964022
1.312570
1.490424
1.510510
1.419996
1.260796
1.043281
0.766678
0.459495
0.194423
0.052394
0.065950
0.202280
0.396548
0.590356
0.750321
0.869849
0.957747
1.034098
1.129103
1.264587
1.430505
1.580002
1.669166
1.701736
1.707004
1.688845
1.612177
1.428390
1.109526
0.665804
0.152750
-0.336218
-0.696032
-0.842903
-0.759926
-0.520776
-0.244031
-0.025544
0.084090
0.079019
0.006829
-0.040040
0.033154
0.264211
0.603392
0.943000
1.165802
1.182490
0.964522
0.551398
0.023925
-0.532996
-1.054156
-1.490577
-1.796750
-1.941475
-1.920894
-1.750641
-1.470763
-1.149624
-0.852142
-0.612820
-0.438852
-0.320587
-0.248987
-0.230038
-0.263773
-0.309079
-0.283925
-0.109986
0.234845
0.707719
1.225280
1.686318
2.014296
2.199312
2.281504
2.313207
2.348202
2.429682
2.565174
2.715968
2.817759
2.813257
2.668071
2.383012
2.005972
1.616517
1.286635
1.041412
0.843975
0.621225
0.314337
-0.087674
-0.549057
-1.010830
-1.420387
-1.740469
-1.939317
-1.977243
-1.807953
-1.434654
-0.958245
-0.520091
-0.203718
-0.009604
0.098146
0.133903
0.075806
-0.084674
-0.304770
-0.522517
-0.701811
-0.839515
-0.945845
-1.034482
-1.125216
-1.233217
-1.346782
-1.412320
-1.344684
-1.067788
-0.566271
0.093441
0.784697
1.350542
1.636323
1.544126
1.097009
0.453716
-0.164301
-0.584047
-0.753467
-0.725729
-0.584248
-0.397047
-0.211857
-0.050762
0.090736
0.218473
0.311226
0.336707
0.290728
0.201816
0.100384
-0.012004
-0.151477
-0.309709
-0.451034
-0.537971
-0.529868
-0.388996
-0.115301
0.239553
0.589088
0.845799
0.976011
1.018550
1.025759
1.014178
0.979354
0.930844
0.911846
0.978178
1.151201
1.396971
1.631103
1.745341
1.663325
1.382780
0.980113
0.570670
0.236439
-0.007189
-0.183930
-0.313270
-0.390573
-0.399346
-0.335030
-0.223617
-0.110360
-0.021004
0.055909
0.154315
0.307582
0.529759
0.797171
1.026174
1.085554
0.877962
0.421383
-0.161461
-0.720516
-1.140484
-1.363314
-1.389863
-1.264559
-1.041122
-0.750512
-0.388985
0.059619
0.576936
1.094107
1.512157
1.725501
1.649240
1.242807
0.527612
-0.395450
-1.354839
-2.165669
-2.701220
-2.924379
-2.871779
-2.612195
-2.212743
-1.725413
-1.183905
-0.627440
-0.120792
0.264888
0.476745
0.507818
0.419175
0.317625
0.301344
0.407274
0.601096
0.822857
1.025795
1.179106
1.268449
1.298412
1.285618
1.239502
1.134710
0.915964
0.557944
0.121137
-0.265808
-0.487606
-0.504219
-0.345583
-0.077815
0.236659
0.566950
0.888823
1.154182
1.307595
1.312858
1.175598
0.949334
0.694877
0.448995
0.247002
0.144091
0.197495
0.440377
0.862513
1.389565
1.897295
2.271267
2.458622
2.466090
2.315965
2.026065
1.623436
1.155146
0.682586
0.254287
-0.112981
-0.426472
-0.702954
-0.957829
-1.195990
-1.405098
-1.567301
-1.681993
-1.764349
-1.830769
-1.900652
-1.986476
-2.069272
-2.104556
-2.052487
-1.909368
-1.711118
-1.493344
-1.261512
-0.999920
-0.702053
-0.389902
-0.107484
0.091466
0.167161
0.107257
-0.087352
-0.401655
-0.793026
-1.190947
-1.514363
-1.701277
-1.721360
-1.569874
-1.271013
-0.885497
-0.500792
-0.214080
-0.112111
-0.229085
-0.506870
-0.808329
-0.982174
-0.929855
-0.634369
-0.149218
0.431786
1.013735
1.540462
2.008393
2.428107
2.760473
2.916993
2.835240
2.532578
2.098234
1.652559
1.291896
1.049817
0.910745
0.839405
0.788616
0.716402
0.600470
0.440690
0.275659
0.163661
0.119654
0.089423
-0.019915
-0.286179
-0.732836
-1.320558
-1.952634
-2.503464
-2.867761
-3.000007
-2.930268
-2.742389
-2.529328
-2.357164
-2.245488
-2.171318
-2.094826
-1.989434
-1.853115
-1.688669
-1.479400
-1.199823
-0.851759
-0.470641
-0.101711
0.205744
0.400968
0.455314
0.379379
0.219078
0.035031
-0.127124
-0.259137
-0.378770
-0.488194
-0.560044
-0.560881
-0.475241
-0.321111
-0.140213
0.028681
0.157285
0.226921
0.240106
0.231402
0.262139
0.390894
0.630922
0.943419
1.273145
1.574666
1.815892
1.973257
2.021211
1.917959
1.609481
1.072732
0.355041
-0.435265
-1.169176
-1.741623
-2.102774
-2.260823
-2.263464
-2.180945
-2.092094
-2.058757
-2.094611
-2.145580
-2.102777
-1.866365
-1.420299
-0.847847
-0.286211
0.140310
0.370809
0.412019
0.321154
0.200608
0.171142
0.301425
0.555359
0.810029
0.938493
0.902310
0.760975
0.603214
0.489915
0.433659
0.401133
0.344292
0.242649
0.106998
-0.040070
-0.165472
-0.229814
-0.203062
-0.075652
0.140808
0.417142
0.711579
0.983020
1.196673
1.330976
1.408267
1.503298
1.697437
2.019994
2.417513
2.772884
2.969616
2.949427
2.719772
2.324760
1.822884
1.287839
0.805881
0.443941
0.216410
0.091048
0.018971
-0.030655
-0.050217
-0.019171
0.059451
0.163707
0.268985
0.349537
0.398756
0.444943
0.511074
0.568759
0.556074
0.437748
0.237032
0.004847
-0.232687
-0.483711
-0.756458
-1.026694
-1.236942
-1.335257
-1.320358
-1.242656
-1.160059
-1.103764
-1.088141
-1.121726
-1.186486
-1.225043
-1.177498
-1.031904
-0.815229
-0.551040
-0.254650
0.058011
0.369427
0.639885
0.801344
0.794804
0.601587
0.252002
-0.178743
-0.598960
-0.930787
-1.124220
-1.169545
-1.110132
-1.034870
-1.030474
-1.126223
-1.286996
-1.448281
-1.558985
-1.608968
-1.615428
-1.595426
-1.557794
-1.503035
-1.440666
-1.401055
-1.422543
-1.549205
-1.820347
-2.231322
-2.712975
-3.161456
-3.489689
-3.657936
-3.672704
-3.564035
-3.368837
-3.135858
-2.921621
-2.762660
-2.664426
-2.618110
-2.606549
-2.605968
-2.605274
-2.613919
-2.652218
-2.738448
-2.857688
-2.939388
-2.888614
-2.637622
-2.183866
-1.601582
-0.991459
-0.411772
0.126565
0.626810
1.093109
1.522774
1.895880
2.189029
2.384326
2.458578
2.395142
2.202215
1.913052
1.578557
1.251396
0.978635
0.800449
0.734913
0.763845
0.831676
0.870002
0.849906
0.807349
0.810873
0.913643
1.125093
1.403440
1.673636
1.875083
2.005165
2.109185
2.226478
2.343486
2.389641
2.284987
1.996615
1.564484
1.087788
0.662524
0.330316
0.092373
-0.057573
-0.114660
-0.067148
0.072188
0.255153
0.431918
0.584686
0.731293
0.908319
1.151713
1.480491
1.877627
2.282353
2.613774
2.810880
2.844824
2.707553
2.429812
2.103556
1.847325
1.733652
1.747508
1.817479
1.869781
1.842934
1.687655
1.372929
0.892406
0.279812
-0.391527
-1.039386
-1.590996
-1.979549
-2.152439
-2.088504
-1.803312
-1.347455
-0.798010
-0.233080
0.290858
0.735877
1.076087
1.303327
1.422965
1.441959
1.371763
1.242157
1.101566
0.993814
0.939229
0.937733
0.977996
1.048637
1.139257
1.228660
1.292072
1.317901
1.306606
1.255155
1.151466
0.999774
0.829309
0.661223
0.495938
0.322622
0.118462
-0.123622
-0.361365
-0.538362
-0.632762
-0.652587
-0.604375
-0.469429
-0.228062
0.093788
0.423482
0.672833
0.772813
0.701745
0.493028
0.212635
-0.080041
-0.338332
-0.512703
-0.572732
-0.541455
-0.479675
-0.435816
-0.428070
-0.465017
-0.552843
-0.681407
-0.829010
-0.982417
-1.131643
-1.256522
-1.332731
-1.336001
-1.246111
-1.062711
-0.812128
-0.543125
-0.315123
-0.166499
-0.088050
-0.029122
0.071336
0.239418
0.442248
0.619530
0.729867
0.765419
0.753237
0.752198
0.826264
1.008804
1.285360
1.600439
1.892539
2.128296
2.293484
2.375717
2.370792
2.282889
2.121961
1.919200
1.739236
1.667144
1.778120
2.093689
2.541769
2.982830
3.295243
3.422740
3.364457
3.151693
2.815363
2.366574
1.808587
1.145233
0.387447
-0.431634
-1.255351
-2.009747
-2.610966
-2.983171
-3.080116
-2.905584
-2.520745
-2.019679
-1.497280
-1.034885
-0.693877
-0.514507
-0.512324
-0.668541
-0.919053
-1.146071
-1.215537
-1.051696
-0.663291
-0.128449
0.420072
0.839704
1.038766
1.000096
0.768352
0.423287
0.045646
-0.312818
-0.629876
-0.898873
-1.138376
-1.393836
-1.701782
-2.058694
-2.421107
-2.726850
-2.926196
-3.007258
-2.988341
-2.876730
-2.644291
-2.258559
-1.735647
-1.148283
-0.588962
-0.140065
0.137625
0.229958
0.200812
0.172775
0.257573
0.502636
0.887559
1.335357
1.726192
1.955049
1.999306
1.926130
1.848325
1.858960
1.974090
2.131347
2.253220
2.314174
2.350804
2.424438
2.574665
2.783771
2.981050
3.086085
3.052516
2.894283
2.675944
2.482227
2.386733
2.403070
2.467757
2.488556
2.395147
2.163632
1.832673
1.489801
1.217467
1.051813
0.978435
0.939134
0.855481
0.676604
0.399227
0.044299
-0.357475
-0.768296
-1.148040
-1.457247
-1.669833
-1.775963
-1.772539
-1.676334
-1.539480
-1.433940
-1.424707
-1.537942
-1.734055
-1.934038
-2.070159
-2.099483
-2.008436
-1.825755
-1.616674
-1.450807
-1.351426
-1.283211
-1.202180
-1.084763
-0.921367
-0.724393
-0.520152
-0.317550
-0.104478
0.140135
0.436863
0.783868
1.157432
1.535576
1.891565
2.188780
2.400347
2.503998
2.473216
2.305307
2.040491
1.736843
1.440579
1.184911
0.996204
0.890740
0.870351
0.925043
1.043148
1.206388
1.375630
1.505853
1.574525
1.594663
1.606973
1.650231
1.732342
1.810618
1.803793
1.647255
1.334719
0.926504
0.523509
0.207747
0.004820
-0.114265
-0.205194
-0.303019
-0.399744
-0.457579
-0.423258
-0.248828
0.071840
0.484469
0.903962
1.266680
1.557404
1.809528
2.086701
2.438565
2.852134
3.244537
3.519612
3.634511
3.604076
3.458754
3.216539
2.886055
2.479498
2.018233
1.522617
1.004350
0.477569
-0.041899
-0.542339
-1.004198
-1.389147
-1.641211
-1.716445
-1.612320
-1.349213
-0.945414
-0.422276
0.178854
0.794429
1.357565
1.813888
2.131665
2.309322
2.371449
2.356152
2.289958
2.167428
1.960397
1.641164
1.202380
0.667263
0.079488
-0.514191
-1.073033
-1.569757
-1.991470
-2.331137
-2.577818
-2.713836
-2.728133
-2.629942
-2.440849
-2.180665
-1.875224
-1.568780
-1.309270
-1.118963
-0.982692
-0.873902
-0.792966
-0.767838
-0.815886
-0.912325
-1.012048
-1.106138
-1.238612
-1.468718
-1.822694
-2.271369
-2.749792
-3.193353
-3.558432
-3.824831
-3.984543
-4.034895
-3.981775
-3.837134
-3.615294
-3.330955
-3.001510
-2.662840
-2.369766
-2.164589
-2.056062
-2.022651
-2.010898
-1.943729
-1.752284
-1.409127
-0.953592
-0.475265
-0.061587
0.226975
0.363853
0.363276
0.267747
0.123528
-0.042752
-0.231819
-0.454631
-0.704327
-0.947289
-1.148218
-1.291304
-1.366907
-1.352895
-1.223865
-0.974754
-0.622351
-0.187098
0.314634
0.860555
1.409256
1.896112
2.238259
2.364576
2.266861
2.008336
1.673126
1.327338
1.023966
0.811217
0.729438
0.805842
1.037766
1.375651
1.725291
1.983738
2.100040
2.087135
1.968863
1.749366
1.423526
0.994306
0.500886
0.027387
-0.341552
-0.576689
-0.713349
-0.815497
-0.934181
-1.081378
-1.232301
-1.348197
-1.396360
-1.370753
-1.305845
-1.263018
-1.295569
-1.425174
-1.642691
-1.915542
-2.204969
-2.486783
-2.753763
-3.003976
-3.227661
-3.410834
-3.550749
-3.649312
-3.692561
-3.655694
-3.525592
-3.303908
-2.993470
-2.596529
-2.134461
-1.660106
-1.233455
-0.888666
-0.629712
-0.443979
-0.314709
-0.232796
-0.204203
-0.252621
-0.407686
-0.664700
-0.969340
-1.267591
-1.556485
-1.872767
-2.237851
-2.623012
-2.973054
-3.252804
-3.463150
-3.630866
-3.791330
-3.967015
-4.162597
-4.379496
-4.611609
-4.822618
-4.939973
-4.872910
-4.556595
-3.995881
-3.266005
-2.479317
-1.739823
-1.103235
-0.574637
-0.142170
0.201801
0.467685
0.672841
0.830897
0.940012
0.981266
0.919873
0.715134
0.352717
-0.127326
-0.634285
-1.062794
-1.337108
-1.436966
-1.404053
-1.323075
-1.281062
-1.320027
-1.404058
-1.444817
-1.365976
-1.138663
-0.782886
-0.349887
0.105462
0.534225
0.889368
1.130772
1.239076
1.227661
1.130877
0.980166
0.803295
0.628434
0.478932
0.380861
0.363291
0.432295
0.555044
0.668890
0.701075
0.600293
0.371677
0.086879
-0.153425
-0.282803
-0.295094
-0.223957
-0.128416
-0.082392
-0.135011
-0.275633
-0.445011
-0.575536
-0.629067
-0.613099
-0.568407
-0.542941
-0.570986
-0.662706
-0.798119
-0.931926
-1.025193
-1.075364
-1.106269
-1.140424
-1.183579
-1.220976
-1.228221
-1.198738
-1.159114
-1.143913
-1.165407
-1.225137
-1.341458
-1.543961
-1.847732
-2.252619
-2.752950
-3.325263
-3.912533
-4.430745
-4.802496
-4.988997
-4.996781
-4.875162
-4.698648
-4.526052
-4.370572
-4.212727
-4.040948
-3.869425
-3.717320
-3.584962
-3.458581
-3.330458
-3.202736
-3.076915
-2.948776
-2.815185
-2.679897
-2.550374
-2.436823
-2.342319
-2.250588
-2.146170
-2.034871
-1.931248
-1.845022
-1.780361
-1.742166
-1.739725
-1.775571
-1.834730
-1.882212
-1.867414
-1.749054
-1.518656
-1.190371
-0.780283
-0.304700
0.206275
0.708663
1.169461
1.579056
1.945876
2.300184
2.682030
3.103418
3.538595
3.952892
4.322531
4.622912
4.811978
4.844681
4.704751
4.421272
4.054551
3.663234
3.292173
2.969359
2.689866
2.427232
2.177945
1.973977
1.844110
1.785579
1.771300
1.764693
1.741704
1.709744
1.697044
1.724754
1.783596
1.837581
1.851934
1.805270
1.691579
1.530996
1.368624
1.253118
1.217661
1.276766
1.422537
1.624718
1.842280
2.025921
2.125842
2.119531
2.020727
1.850592
1.616536
1.323859
0.988310
0.645678
0.356968
0.180046
0.132009
0.185025
0.285040
0.365276
0.355865
0.196875
-0.141335
-0.629697
-1.187296
-1.719021
-2.126425
-2.326113
-2.298595
-2.093426
-1.774715
-1.392666
-0.999031
-0.632373
-0.284140
0.090580
0.518510
0.964757
1.352978
1.616762
1.723730
1.680188
1.532830
1.357504
1.228804
1.187173
1.228704
1.308184
1.358963
1.341067
1.266142
1.183115
1.148427
1.196801
1.329875
1.505014
1.647069
1.699806
1.654179
1.532250
1.364504
1.184118
1.027563
0.925188
0.887091
0.908478
0.990014
1.134773
1.338672
1.599491
1.903525
2.199140
2.420591
2.532321
2.536376
2.453705
2.298343
2.076599
1.807947
1.520134
1.236345
0.971608
0.724834
0.481705
0.230904
-0.025972
-0.271712
-0.470765
-0.596642
-0.676709
-0.779236
-0.949897
-1.174348
-1.409056
-1.624778
-1.799560
-1.909531
-1.936076
-1.866512
-1.706462
-1.487338
-1.257600
-1.065540
-0.936475
-0.869484
-0.845516
-0.842323
-0.858692
-0.911356
-1.013763
-1.165240
-1.346769
-1.529763
-1.697405
-1.852964
-2.012230
-2.201682
-2.444530
-2.725900
-2.986730
-3.160681
-3.206032
-3.112908
-2.894756
-2.562670
-2.114043
-1.553005
-0.907682
-0.226306
0.438868
1.045934
1.573469
2.020587
2.382000
2.625540
2.711782
2.630391
2.407240
2.100789
1.797494
1.572461
1.457703
1.456145
1.549887
1.697887
1.854968
1.992397
2.098300
2.177668
2.254059
2.348125
2.466768
2.611179
2.757218
2.852524
2.852075
2.728793
2.465559
2.063598
1.548824
0.961548
0.347925
-0.251134
-0.811921
-1.319460
-1.765211
-2.149481
-2.470354
-2.722710
-2.896714
-2.976732
-2.955101
-2.838822
-2.654371
-2.449941
-2.276215
-2.164057
-2.115808
-2.108646
-2.109610
-2.095574
-2.061426
-2.013181
-1.954626
-1.866857
-1.710102
-1.463764
-1.145558
-0.790317
-0.432527
-0.093026
0.234938
0.569304
0.905081
1.209596
1.444838
1.586552
1.638436
1.636869
1.623452
1.605694
1.560512
1.475460
1.361057
1.225457
1.072549
0.925254
0.821774
0.788573
0.833217
0.961844
1.185799
1.508174
1.912300
2.353708
2.763503
3.075577
3.254220
3.299814
3.238186
3.112826
2.975989
2.862580
2.779670
2.728316
2.710905
2.719110
2.736869
2.747864
2.733124
2.672097
2.545470
2.338987
2.056917
1.718360
1.335057
0.915419
0.476663
0.039519
-0.375021
-0.753978
-1.094349
-1.386037
-1.614480
-1.775146
-1.865125
-1.880965
-1.839186
-1.780690
-1.747028
-1.763348
-1.839421
-1.966187
-2.115965
-2.259667
-2.376300
-2.445956
-2.448240
-2.368012
-2.197793
-1.944905
-1.630407
-1.273964
-0.896066
-0.526703
-0.196372
0.080760
0.314457
0.525207
0.728471
0.935039
1.150506
1.362906
1.544008
1.662678
1.693944
1.641124
1.538878
1.418372
1.297988
1.207059
1.179596
1.223397
1.325062
1.460502
1.581896
1.635253
1.597137
1.488264
1.362944
1.281436
1.281292
1.359782
1.485937
1.624973
1.739871
1.804988
1.831229
1.848482
1.863960
1.848307
1.757039
1.558598
1.255929
0.898695
0.560251
0.296573
0.136651
0.095460
0.174794
0.353929
0.586097
0.813680
1.000577
1.146633
1.267044
1.366406
1.438386
1.477148
1.466501
1.373927
1.179575
0.898642
0.574860
0.258319
-0.024888
-0.286077
-0.558732
-0.869547
-1.215788
-1.566188
-1.872627
-2.082897
-2.170223
-2.153887
-2.068928
-1.932125
-1.759101
-1.575463
-1.388599
-1.180067
-0.931084
-0.638728
-0.314415
0.022536
0.350243
0.643001
0.872774
1.022927
1.099691
1.130297
1.145419
1.151856
1.126429
1.044823
0.900094
0.701638
0.493305
0.346194
0.313212
0.416110
0.648791
0.965048
1.281882
1.514888
1.617219
1.580329
1.420676
1.187366
0.954188
0.781762
0.691867
0.669862
0.679020
0.683986
0.666190
0.609848
0.491209
0.289281
-0.002534
-0.366086
-0.762154
-1.158127
-1.547136
-1.933395
-2.313162
-2.682334
-3.038515
-3.366603
-3.644919
-3.857804
-3.994827
-4.048763
-4.014790
-3.900892
-3.736810
-3.558358
-3.388627
-3.234717
-3.095831
-2.962799
-2.807498
-2.603148
-2.352468
-2.077925
-1.808090
-1.572524
-1.385943
-1.234760
-1.085849
-0.917434
-0.729871
-0.523786
-0.289470
-0.009964
0.329555
0.726733
1.167132
1.634147
2.103936
2.541422
2.903459
3.153970
3.280470
3.294711
3.223525
3.098220
2.949273
2.801647
2.666473
2.544842
2.444670
2.383299
2.371082
2.404622
2.469375
2.539195
2.582659
2.576191
2.515339
2.413789
2.290154
2.159843
2.036347
1.927716
1.826791
1.717568
1.596471
1.481472
1.392999
1.331883
1.300033
1.312188
1.352722
1.373006
1.344643
1.267751
1.150462
1.016526
0.899463
0.820192
0.793719
0.835024
0.948484
1.129433
1.367276
1.642293
1.925508
2.179493
2.359753
2.433606
2.409200
2.328950
2.237818
2.167122
2.125860
2.102652
2.080838
2.038210
1.951972
1.822346
1.667147
1.499521
1.332434
1.182978
1.059655
0.963891
