EVENT_NAME: L_AQUILA
EVENT_ID: IT-2009-0009
EVENT_DATE_YYYYMMDD: 20090406
EVENT_TIME_HHMMSS: 013240
EVENT_LATITUDE_DEGREE: 42.3420
EVENT_LONGITUDE_DEGREE: 13.3800
EVENT_DEPTH_KM: 8.3
HYPOCENTER_REFERENCE: INGV-CNT_Seismic_Bulletin
MAGNITUDE_W: 6.1
MAGNITUDE_W_REFERENCE: INGV-CNT_Seismic_Bulletin
MAGNITUDE_L: 
MAGNITUDE_L_REFERENCE: 
FOCAL_MECHANISM: Normal faulting
NETWORK: IT
STATION_CODE: SBC
STATION_NAME: 
STATION_LATITUDE_DEGREE: 41.913158
STATION_LONGITUDE_DEGREE: 13.105518
STATION_ELEVATION_M: 668
LOCATION: 
SENSOR_DEPTH_M: 0.0
VS30_M/S: 1298
SITE_CLASSIFICATION_EC8: A
MORPHOLOGIC_CLASSIFICATION: 
EPICENTRAL_DISTANCE_KM: 52.8
EARTHQUAKE_BACKAZIMUTH_DEGREE: 205.6
DATE_TIME_FIRST_SAMPLE_YYYYMMDD_HHMMSS: 20090406_013239.000
DATE_TIME_FIRST_SAMPLE_PRECISION: seconds
SAMPLING_INTERVAL_S: 0.005000
NDATA: 14800
DURATION_S: 74.000
STREAM: HNZ
UNITS: cm/s^2
INSTRUMENT: sensor = Episensor FBA ES-T [Kinemetrics] | digitizer = Etna [Kinemetrics]
INSTRUMENT_ANALOG/DIGITAL: D
INSTRUMENTAL_FREQUENCY_HZ: 
INSTRUMENTAL_DAMPING: 
FULL_SCALE_G: 
N_BIT_DIGITAL_CONVERTER: 18
PGA_CM/S^2: -5.001820
TIME_PGA_S: 24.095000
BASELINE_CORRECTION: BASELINE NOT REMOVED
FILTER_TYPE: 
FILTER_ORDER: 
LOW_CUT_FREQUENCY_HZ: 
HIGH_CUT_FREQUENCY_HZ: 
LATE/NORMAL_TRIGGERED: NT
DATABASE_VERSION: 0.5
HEADER_FORMAT: DYNA 1.2
DATA_TYPE: ACCELERATION
PROCESSING: converted to cm/s^2
DATA_TIMESTAMP_YYYYMMDD_HHMMSS: 20211011_160231.533
DATA_LICENSE: CC-BY3_0-IT (http://creativecommons.org/licenses/by/3.0/deed.en)
DATA_CITATION: Luzi L, Pacor F, Puglia R (2019). Italian Accelerometric Archive v 3.0 - Istituto Nazionale di Geofisica e Vulcanologia, Dipartimento della Protezione Civile Nazionale. doi: 10.13127/itaca.3.1
DATA_CREATOR: ITACA working group
ORIGINAL_DATA_MEDIATOR_CITATION: data obtained within the DPC-INGV data exchange agreements
ORIGINAL_DATA_MEDIATOR: Archive of Italian Department of Civil Protection
ORIGINAL_DATA_CREATOR_CITATION: Presidency Of Counsil Of Ministers-Civil Protection Department. (1972). Italian Strong Motion Network. Presidency of Counsil of Ministers - Civil Protection Department. https://doi.org/10.7914/SN/IT http://www.fdsn.org/networks/detail/IT/
ORIGINAL_DATA_CREATOR: network: IT (Italian Strong Motion Network (RAN)); owner: Presidency of Counsil of Ministers - Civil Protection Department (PCM - DPC)
USER1: 
USER2: 
USER3: 
USER4: 
USER5: 
[...]
-1.012318
-1.074991
-1.180224
-1.333630
-1.492649
-1.576835
-1.491246
-1.203141
-0.816819
-0.471187
-0.276623
-0.265865
-0.427223
-0.650317
-0.789692
-0.756953
-0.524505
-0.230788
-0.005355
0.083041
0.003999
-0.169051
-0.322925
-0.388404
-0.359406
-0.194307
0.008676
0.160212
0.277605
0.318295
0.278073
0.166292
0.051705
0.044689
0.236915
0.592836
0.993189
1.279423
1.335548
1.147999
0.722390
0.179387
-0.413659
-0.915036
-1.225123
-1.364498
-1.327082
-1.170870
-0.868266
-0.478202
0.002128
0.519875
0.972143
1.387930
1.658262
1.803718
1.813540
1.677438
1.519822
1.385592
1.372964
1.473988
1.698952
1.974897
2.133448
2.165252
2.006701
1.729353
1.414122
1.111986
0.869716
0.561032
0.159276
-0.319651
-0.795772
-1.177417
-1.386480
-1.422961
-1.307906
-0.994546
-0.588580
-0.120878
0.297248
0.592368
0.728470
0.621366
0.291168
-0.249964
-0.858912
-1.419687
-1.749417
-1.737725
-1.380400
-0.754614
-0.001614
0.860362
1.686324
2.387878
2.846694
2.971103
2.801327
2.394894
1.872470
1.314969
0.835106
0.428205
0.061059
-0.262591
-0.574549
-0.775661
-0.775661
-0.517489
-0.046045
0.490877
0.976352
1.320113
1.506259
1.516548
1.422073
1.271005
1.050717
0.783659
0.467960
0.199031
0.054043
0.072283
0.215868
0.402481
0.605932
0.757935
0.876732
0.973546
1.037621
1.139113
1.270069
1.432830
1.604009
1.676970
1.706436
1.716257
1.691469
1.629732
1.436571
1.121808
0.682635
0.157405
-0.322925
-0.690539
-0.844413
-0.752744
-0.506732
-0.228449
-0.018451
0.101281
0.092862
0.015224
-0.028740
0.028319
0.274331
0.614818
0.950628
1.184480
1.195705
0.979158
0.560097
0.032996
-0.525440
-1.042251
-1.477215
-1.795252
-1.926677
-1.910307
-1.748482
-1.455700
-1.136260
-0.840204
-0.601676
-0.425352
-0.314507
-0.239674
-0.211612
-0.252302
-0.293928
-0.280364
-0.106379
0.249075
0.713971
1.235459
1.707839
2.029618
2.205006
2.297144
2.323335
2.356074
2.438858
2.570750
2.732575
2.829389
2.823777
2.687675
2.393958
2.018861
1.624120
1.291584
1.051652
0.853814
0.642413
0.323907
-0.070366
-0.539004
-1.005771
-1.399576
-1.739128
-1.916387
-1.967367
-1.813493
-1.422493
-0.942163
-0.495040
-0.196646
0.006337
0.099878
0.144777
0.103620
-0.081591
-0.288315
-0.519360
-0.687733
-0.824302
-0.940760
-1.016060
-1.117552
-1.212495
-1.334565
-1.399108
-1.335033
-1.067975
-0.551632
0.100346
0.797222
1.365481
1.654053
1.573608
1.110583
0.462347
-0.160632
-0.586709
-0.734971
-0.712054
-0.573146
-0.380453
-0.199919
-0.033417
0.095669
0.228496
0.329987
0.350099
0.304264
0.211659
0.106426
0.005870
-0.132103
-0.306088
-0.433771
-0.523570
-0.522166
-0.381388
-0.103573
0.250946
0.600319
0.875796
0.982900
1.024526
1.040427
1.024526
0.996931
0.946887
0.919292
0.984303
1.166707
1.398220
1.651247
1.764431
1.675100
1.409912
0.979626
0.580208
0.246736
0.003063
-0.162503
-0.306088
-0.374372
-0.390742
-0.328070
-0.205064
-0.096089
-0.006758
0.068542
0.164421
0.319230
0.538583
0.801431
1.039024
1.111986
0.899181
0.432414
-0.151746
-0.712989
-1.130180
-1.356080
-1.377594
-1.247573
-1.030091
-0.729826
-0.383726
0.065268
0.593772
1.099358
1.529644
1.740110
1.662472
1.263521
0.542792
-0.376711
-1.352806
-2.158189
-2.692773
-2.918674
-2.849453
-2.608119
-2.192799
-1.711066
-1.183965
-0.606353
-0.112459
0.278540
0.498828
0.520810
0.431479
0.326713
0.302393
0.420254
0.618560
0.831364
1.041363
1.191963
1.280826
1.311695
1.294858
1.244813
1.148934
0.937533
0.575531
0.134488
-0.266801
-0.477267
-0.492701
-0.339295
-0.055399
0.248607
0.570387
0.903858
1.168110
1.316372
1.336483
1.185415
0.952967
0.711633
0.460009
0.264041
0.147116
0.213062
0.445978
0.863636
1.410848
1.904741
2.298547
2.463178
2.474403
2.335495
2.029150
1.646570
1.159224
0.691989
0.266380
-0.105911
-0.409918
-0.696152
-0.941228
-1.184433
-1.396302
-1.558595
-1.668973
-1.750821
-1.827991
-1.877568
-1.977189
-2.059972
-2.088969
-2.057166
-1.888325
-1.700309
-1.481892
-1.244767
-1.002497
-0.682121
-0.385597
-0.097960
0.114377
0.167695
0.124198
-0.075511
-0.391210
-0.776129
-1.186772
-1.503874
-1.692825
-1.710130
-1.563740
-1.263007
-0.872008
-0.494572
-0.198984
-0.094686
-0.210209
-0.496910
-0.802320
-0.978176
-0.924858
-0.624126
-0.142860
0.449252
1.025461
1.556771
2.012781
2.425294
2.780748
2.930413
2.852307
2.543623
2.107724
1.656859
1.292987
1.069425
0.911809
0.850540
0.806576
0.718180
0.617624
0.457670
0.275266
0.169566
0.127005
0.096604
0.000725
-0.278493
-0.717198
-1.305100
-1.950997
-2.491661
-2.868629
-2.993973
-2.918206
-2.734399
-2.513175
-2.346206
-2.234425
-2.162866
-2.089905
-1.979995
-1.841555
-1.676456
-1.473005
-1.197996
-0.837866
-0.461833
-0.097960
0.221013
0.409965
0.467960
0.390321
0.224287
0.044689
-0.126958
-0.245286
-0.363615
-0.485686
-0.546487
-0.558179
-0.470251
-0.307491
-0.133506
0.038609
0.165356
0.240189
0.248607
0.242527
0.267315
0.388918
0.645219
0.949693
1.283165
1.584833
1.821023
1.984719
2.021667
1.929062
1.626459
1.082053
0.366936
-0.430964
-1.164322
-1.739128
-2.096453
-2.252665
-2.258745
-2.170817
-2.081954
-2.045473
-2.082422
-2.134336
-2.106274
-1.866811
-1.413607
-0.843946
-0.267736
0.149922
0.380499
0.421657
0.333729
0.205579
0.163485
0.308941
0.553082
0.830897
0.958112
0.902455
0.771966
0.600787
0.498828
0.433817
0.413239
0.359453
0.238786
0.124666
-0.038562
-0.156891
-0.223772
-0.201790
-0.063350
0.139633
0.428205
0.719116
0.986174
1.207397
1.345369
1.413654
1.505324
1.699420
2.016522
2.427633
2.782619
2.983263
2.956136
2.724624
2.333625
1.828506
1.298131
0.800964
0.449719
0.222416
0.093798
0.034867
-0.025934
-0.047448
-0.017048
0.070413
0.166292
0.271992
0.366936
0.400143
0.445978
0.510988
0.578337
0.568048
0.445978
0.239253
0.003063
-0.222369
-0.479605
-0.744325
-1.021672
-1.238219
-1.333162
-1.318664
-1.228865
-1.156371
-1.101182
-1.079668
-1.113810
-1.176950
-1.228397
-1.179288
-1.018866
-0.812142
-0.548825
-0.246222
0.061994
0.365533
0.648493
0.811253
0.796287
0.616689
0.253284
-0.175599
-0.594193
-0.931406
-1.119890
-1.173208
-1.104924
-1.025414
-1.018399
-1.124099
-1.280780
-1.448685
-1.562804
-1.593205
-1.621735
-1.583851
-1.552982
-1.510422
-1.426235
-1.404253
-1.418752
-1.541758
-1.811622
-2.221797
-2.715691
-3.158137
-3.492077
-3.655305
-3.666530
-3.563167
-3.366732
-3.132413
-2.910722
-2.762928
-2.661437
-2.609990
-2.607651
-2.604845
-2.601104
-2.611861
-2.650680
-2.724577
-2.854131
-2.942059
-2.884063
-2.646471
-2.184848
-1.588528
-0.986595
-0.409450
0.127472
0.633059
1.090939
1.522161
1.908483
2.180686
2.390684
2.465517
2.393023
2.212490
1.910822
1.580156
1.256506
0.977288
0.800028
0.736421
0.759806
0.838848
0.880006
0.852411
0.807979
0.808915
0.912745
1.122275
1.406171
1.680712
1.884163
2.002023
2.109127
2.220908
2.341108
2.402377
2.283113
2.009974
1.565657
1.075973
0.667669
0.328584
0.094733
-0.052593
-0.116201
-0.072704
0.075090
0.259832
0.433817
0.589562
0.728002
0.911809
1.148467
1.476794
1.877615
2.281710
2.624068
2.805068
2.847162
2.718076
2.429503
2.103515
1.836457
1.727950
1.754609
1.815878
1.868728
1.848149
1.684454
1.376705
0.898246
0.277605
-0.394016
-1.038042
-1.590866
-1.984204
-2.153512
-2.091308
-1.806009
-1.349064
-0.794369
-0.232191
0.287426
0.739227
1.075973
1.300938
1.422540
1.441716
1.373899
1.241539
1.095149
0.994125
0.937065
0.933791
0.983368
1.040895
1.137709
1.232653
1.285971
1.322920
1.297196
1.255103
1.159691
0.989915
0.827155
0.660653
0.493683
0.313618
0.130746
-0.124152
-0.376711
-0.531520
-0.644704
-0.646107
-0.602144
-0.484750
-0.227514
0.087250
0.422125
0.676555
0.770095
0.706956
0.486200
0.204176
-0.074107
-0.345843
-0.518425
-0.582968
-0.539939
-0.477267
-0.442657
-0.429561
-0.469784
-0.548825
-0.691942
-0.831785
-0.981450
-1.138130
-1.259265
-1.335033
-1.341113
-1.254588
-1.062830
-0.822431
-0.543681
-0.313571
-0.169519
-0.089074
-0.035756
0.060123
0.231302
0.445042
0.614351
0.728002
0.764483
0.749984
0.743904
0.818269
1.002543
1.275214
1.604944
1.887904
2.118481
2.293870
2.369638
2.364493
2.279839
2.119417
1.917369
1.730756
1.662939
1.763495
2.077324
2.543623
2.983731
3.290544
3.419630
3.362102
3.135734
2.815358
2.359816
1.798105
1.147531
0.377693
-0.433771
-1.262072
-2.014605
-2.621215
-2.989764
-3.093127
-2.915867
-2.521127
-2.031442
-1.497794
-1.042719
-0.700361
-0.517022
-0.518892
-0.672299
-0.916439
-1.164789
-1.230736
-1.054879
-0.682588
-0.133973
0.416980
0.838380
1.034347
0.995060
0.760741
0.413239
0.032529
-0.317780
-0.637221
-0.917375
-1.138130
-1.403318
-1.703583
-2.066988
-2.430392
-2.735802
-2.943462
-3.008472
-2.997247
-2.877983
-2.662373
-2.272309
-1.742402
-1.158709
-0.592322
-0.154552
0.141971
0.224287
0.190144
0.158808
0.239253
0.498828
0.866442
1.327129
1.727950
1.949173
1.995008
1.914563
1.832715
1.839731
1.964140
2.127368
2.249906
2.304159
2.339237
2.412666
2.552509
2.781216
2.967829
3.081013
3.052483
2.872885
2.677386
2.461775
2.366364
2.394894
2.457098
2.482822
2.384136
2.164316
1.815878
1.474923
1.204591
1.036686
0.965595
0.926308
0.857556
0.657847
0.390321
0.036738
-0.376243
-0.771919
-1.165257
-1.470667
-1.679262
-1.788237
-1.790108
-1.689552
-1.547838
-1.450088
-1.426235
-1.545032
-1.754562
-1.944917
-2.081954
-2.119370
-2.020217
-1.841087
-1.628750
-1.448685
-1.370579
-1.300891
-1.208753
-1.103053
-0.937954
-0.732165
-0.530585
-0.335085
-0.111991
0.124198
0.415577
0.778982
1.142387
1.515145
1.885566
2.175073
2.380862
2.494982
2.463178
2.294338
2.021667
1.723273
1.428153
1.167642
0.984303
0.872990
0.857088
0.914148
1.023122
1.190560
1.368287
1.487083
1.569867
1.575947
1.588575
1.640022
1.700356
1.808862
1.789219
1.634877
1.331338
0.902455
0.506311
0.190144
-0.015645
-0.126022
-0.213015
-0.321054
-0.411321
-0.472122
-0.442189
-0.268672
0.050769
0.474975
0.891698
1.252297
1.548352
1.790622
2.067970
2.415005
2.832195
3.240032
3.505687
3.620742
3.583793
3.443015
3.202148
2.867741
2.469726
1.993137
1.511404
0.991319
0.452058
-0.047916
-0.564260
-1.016060
-1.400512
-1.671779
-1.726968
-1.629218
-1.366369
-0.959936
-0.446399
0.166759
0.778046
1.339289
1.804653
2.111466
2.297144
2.354203
2.333157
2.274226
2.148882
1.946367
1.625055
1.190560
0.645219
0.066203
-0.533391
-1.093231
-1.582448
-2.014137
-2.340593
-2.599700
-2.730189
-2.748430
-2.645068
-2.455180
-2.205427
-1.888325
-1.587592
-1.320534
-1.133921
-1.005771
-0.893054
-0.810271
-0.780806
-0.827108
-0.936551
-1.035704
-1.121761
-1.256459
-1.478150
-1.837813
-2.291485
-2.766670
-3.214261
-3.576731
-3.839112
-4.006082
-4.050981
-3.998131
-3.857820
-3.628178
-3.351766
-3.022503
-2.678742
-2.382219
-2.182042
-2.074003
-2.030974
-2.036119
-1.959416
-1.773270
-1.440266
-0.958533
-0.496443
-0.077849
0.217271
0.343083
0.350566
0.245801
0.104087
-0.060544
-0.249496
-0.466042
-0.722343
-0.969290
-1.164322
-1.307439
-1.381803
-1.372917
-1.245234
-0.987998
-0.641898
-0.201322
0.293507
0.842121
1.393075
1.872470
2.231198
2.353268
2.251309
1.985186
1.656859
1.313098
1.001608
0.799093
0.708359
0.785530
1.019381
1.353788
1.713451
1.979106
2.078259
2.065631
1.957592
1.727015
1.411315
0.984771
0.482926
0.007740
-0.367357
-0.590919
-0.729826
-0.829915
-0.942163
-1.103988
-1.242896
-1.368708
-1.415946
-1.387416
-1.325211
-1.269087
-1.316325
-1.435589
-1.657280
-1.936498
-2.218055
-2.506160
-2.766670
-3.017359
-3.246533
-3.427066
-3.563635
-3.661385
-3.711429
-3.672142
-3.538847
-3.319962
-3.005666
-2.619812
-2.147432
-1.672247
-1.245702
-0.902408
-0.645640
-0.455285
-0.336489
-0.240610
-0.227514
-0.262124
-0.412256
-0.682588
-0.986595
-1.289198
-1.565143
-1.883648
-2.244714
-2.644132
-2.987426
-3.267112
-3.479449
-3.640806
-3.803566
-3.978019
-4.182405
-4.382114
-4.627191
-4.831109
-4.950840
-4.897522
-4.568727
-4.014500
-3.275530
-2.488855
-1.745208
-1.115213
-0.591386
-0.149408
0.187806
0.458138
0.658782
0.816866
0.931920
0.962789
0.914148
0.707891
0.344019
-0.132103
-0.654058
-1.071717
-1.354677
-1.451959
-1.410333
-1.335968
-1.280312
-1.323808
-1.419687
-1.457103
-1.377594
-1.153565
-0.789224
-0.357535
0.092862
0.528761
0.878602
1.125549
1.234992
1.213477
1.123678
0.974014
0.792077
0.619963
0.475911
0.368807
0.351502
0.425399
0.543728
0.664395
0.696666
0.599852
0.368339
0.076493
-0.168583
-0.288783
-0.300943
-0.236400
-0.131167
-0.082526
-0.136780
-0.282235
-0.451543
-0.586709
-0.635818
-0.618513
-0.572678
-0.545084
-0.575952
-0.662945
-0.801852
-0.943098
-1.030559
-1.077329
-1.111004
-1.140469
-1.187707
-1.223252
-1.237751
-1.203609
-1.155435
-1.147952
-1.168999
-1.232606
-1.339242
-1.543628
-1.855118
-2.249859
-2.754042
-3.324172
-3.911138
-4.441513
-4.801176
-4.994804
-5.001820
-4.871799
-4.697814
-4.519151
-4.375566
-4.215612
-4.040691
-3.868109
-3.712364
-3.589359
-3.456999
-3.329784
-3.201633
-3.073483
-2.951880
-2.811102
-2.678274
-2.552463
-2.428054
-2.339658
-2.256407
-2.138546
-2.034248
-1.928080
-1.839216
-1.782624
-1.734919
-1.736322
-1.770464
-1.829862
-1.875229
-1.871488
-1.743805
-1.512760
-1.187707
-0.771452
-0.308894
0.218207
0.714907
1.174658
1.585768
1.956656
2.302289
2.680660
3.115623
3.541232
3.966374
4.321360
4.630511
4.824140
4.850331
4.722649
4.421448
4.062720
3.674060
3.294753
2.975312
2.700303
2.444002
2.184427
1.977703
1.855165
1.793428
1.779397
1.781736
1.751335
1.719064
1.708306
1.726079
1.801379
1.848149
1.860777
1.822894
1.701291
1.547417
1.374367
1.266328
1.230782
1.281762
1.440781
1.634409
1.853294
2.042714
2.142334
2.135787
2.026812
1.868261
1.632071
1.334144
1.011898
0.657379
0.368339
0.191548
0.145245
0.202772
0.295378
0.386579
0.369274
0.215868
-0.111524
-0.625061
-1.164789
-1.699373
-2.118902
-2.312999
-2.286340
-2.061843
-1.768593
-1.372449
-0.972564
-0.616174
-0.258850
0.094265
0.537647
0.985239
1.375302
1.636748
1.747126
1.702226
1.552094
1.377173
1.239201
1.215816
1.234524
1.338354
1.386995
1.354723
1.302808
1.186818
1.179335
1.213477
1.341160
1.538998
1.666213
1.731224
1.670423
1.558642
1.387463
1.205994
1.053055
0.940339
0.918825
0.930985
1.010962
1.161095
1.366416
1.616637
1.923917
2.234939
2.442132
2.562331
2.562799
2.469258
2.336431
2.097903
1.832248
1.552094
1.254635
1.003011
0.747178
0.514262
0.257026
0.000257
-0.233594
-0.459494
-0.567534
-0.647511
-0.746664
-0.910359
-1.161516
-1.372917
-1.593205
-1.779350
-1.870552
-1.913113
-1.839684
-1.672247
-1.465522
-1.219043
-1.033833
-0.910827
-0.827576
-0.827108
-0.808400
-0.826173
-0.882765
-0.975838
-1.137663
-1.309777
-1.507615
-1.658683
-1.824250
-1.982801
-2.162399
-2.409346
-2.689032
-2.963105
-3.121189
-3.181522
-3.076289
-2.855534
-2.534222
-2.077744
-1.523985
-0.871072
-0.191033
0.473104
1.085327
1.608218
2.050665
2.416408
2.663822
2.753621
2.660548
2.452421
2.137190
1.821023
1.616169
1.489889
1.490825
1.586704
1.736836
1.894920
2.026812
2.140463
2.218102
2.280307
2.397232
2.500594
2.638099
2.808810
2.884110
2.895803
2.764379
2.509948
2.103515
1.582962
1.010962
0.374419
-0.205064
-0.770984
-1.287795
-1.716211
-2.113290
-2.431328
-2.675000
-2.863017
-2.934108
-2.913061
-2.805022
-2.608587
-2.409813
-2.231151
-2.120773
-2.074003
-2.065584
-2.073067
-2.050150
-2.021620
-1.970173
-1.904227
-1.828927
-1.673182
-1.418284
-1.102585
-0.749002
-0.383726
-0.047916
0.274799
0.609673
0.950161
1.254635
1.488954
1.635813
1.683986
1.676970
1.662939
1.653118
1.611024
1.517016
1.402897
1.276149
1.119001
0.968869
0.865039
0.833703
0.883747
1.003479
1.232185
1.553965
1.952447
2.403312
2.811149
3.125445
3.303172
3.344329
3.290076
3.157716
3.016938
2.912640
2.829389
2.771394
2.759234
2.768120
2.783087
2.795715
2.782151
2.719479
2.592732
2.395361
2.097903
1.766302
1.390736
0.956709
0.530632
0.087718
-0.331344
-0.700361
-1.043187
-1.342049
-1.563272
-1.722758
-1.819573
-1.833136
-1.790575
-1.726032
-1.698906
-1.712937
-1.784027
-1.919661
-2.065117
-2.210572
-2.323288
-2.397653
-2.398588
-2.313467
-2.156786
-1.885519
-1.581980
-1.226526
-0.840204
-0.481009
-0.135844
0.127940
0.366936
0.575531
0.779917
0.988980
1.191963
1.425814
1.587172
1.717660
1.756480
1.683051
1.594655
1.466972
1.359400
1.250893
1.227041
1.288310
1.362207
1.518419
1.637216
1.687728
1.658262
1.535724
1.417863
1.330871
1.327129
1.420669
1.535724
1.673696
1.804653
1.855165
1.884630
1.896791
1.915031
1.907548
1.806056
1.621781
1.310292
0.949225
0.611077
0.351034
0.191080
0.145245
0.230367
0.402014
0.644751
0.871587
1.054458
1.200849
1.316372
1.424879
1.492696
1.524499
1.524499
1.432830
1.232185
0.958112
0.624640
0.308941
0.030190
-0.234529
-0.497846
-0.814480
-1.161048
-1.509486
-1.818637
-2.034248
-2.119838
-2.089437
-2.016475
-1.883648
-1.697970
-1.518373
-1.335033
-1.126906
-0.876685
-0.584371
-0.260253
0.079767
0.400610
0.701811
0.928179
1.079247
1.157353
1.180738
1.199446
1.201785
1.192898
1.091407
0.958112
0.770095
0.532970
0.406223
0.366936
0.465621
0.704149
1.014704
1.344902
1.573608
1.667616
1.641893
1.477729
1.241072
1.004882
0.834638
0.747178
0.720519
0.742033
0.736421
0.717713
0.669072
0.543728
0.346825
0.056382
-0.313571
-0.709247
-1.106327
-1.487972
-1.877568
-2.265293
-2.618876
-2.986023
-3.314350
-3.586553
-3.806840
-3.938265
-3.992518
-3.966794
-3.843789
-3.680561
-3.505172
-3.328381
-3.187602
-3.034196
-2.905578
-2.763864
-2.544044
-2.298968
-2.026765
-1.749417
-1.518840
-1.327550
-1.180224
-1.040848
-0.856106
-0.676976
-0.471654
-0.229385
0.036738
0.383773
0.784594
1.215348
1.691469
2.154495
2.594135
2.963152
3.204486
3.339185
3.345265
3.277448
3.153039
2.999165
2.855580
2.718076
2.603489
2.494046
2.434648
2.427165
2.452421
2.524915
2.590861
2.636696
2.632954
2.564670
2.468791
2.339705
2.215296
2.086210
1.976300
1.885098
1.766302
1.655924
1.525903
1.441716
1.397284
1.342095
1.356127
1.413654
1.427217
1.391204
1.321984
1.207865
1.059135
0.952499
0.876732
0.835574
0.892633
0.995060
1.181206
1.417863
1.690066
1.980042
2.222311
2.420617
2.485160
2.457098
2.378992
2.287790
2.211554
2.178347
2.154962
2.121288
2.098370
2.000153
1.869664
1.715790
1.552562
1.378576
1.228912
1.114792
1.006753
0.947355
0.902455
