EVENT_NAME: L_AQUILA
EVENT_ID: IT-2009-0009
EVENT_DATE_YYYYMMDD: 20090406
EVENT_TIME_HHMMSS: 013240
EVENT_LATITUDE_DEGREE: 42.3420
EVENT_LONGITUDE_DEGREE: 13.3800
EVENT_DEPTH_KM: 8.3
HYPOCENTER_REFERENCE: INGV-CNT_Seismic_Bulletin
MAGNITUDE_W: 6.1
MAGNITUDE_W_REFERENCE: INGV-CNT_Seismic_Bulletin
MAGNITUDE_L: 
MAGNITUDE_L_REFERENCE: 
FOCAL_MECHANISM: Normal faulting
NETWORK: IT
STATION_CODE: SBC
STATION_NAME: 
STATION_LATITUDE_DEGREE: 41.913158
STATION_LONGITUDE_DEGREE: 13.105518
STATION_ELEVATION_M: 668
LOCATION: 
SENSOR_DEPTH_M: 0.0
VS30_M/S: 1298
SITE_CLASSIFICATION_EC8: A
MORPHOLOGIC_CLASSIFICATION: 
EPICENTRAL_DISTANCE_KM: 52.8
EARTHQUAKE_BACKAZIMUTH_DEGREE: 205.6
DATE_TIME_FIRST_SAMPLE_YYYYMMDD_HHMMSS: 20090406_013239.000
DATE_TIME_FIRST_SAMPLE_PRECISION: seconds
SAMPLING_INTERVAL_S: 0.005000
NDATA: 14800
DURATION_S: 74.000
STREAM: HNN
UNITS: cm/s
INSTRUMENT: sensor = Episensor FBA ES-T [Kinemetrics] | digitizer = Etna [Kinemetrics]
INSTRUMENT_ANALOG/DIGITAL: D
INSTRUMENTAL_FREQUENCY_HZ: 
INSTRUMENTAL_DAMPING: 
FULL_SCALE_G: 
N_BIT_DIGITAL_CONVERTER: 18
PGV_CM/S: 1.245934
TIME_PGV_S: 29.035000
BASELINE_CORRECTION: BASELINE REMOVED
FILTER_TYPE: BUTTERWORTH
FILTER_ORDER: 2
LOW_CUT_FREQUENCY_HZ: 0.080
HIGH_CUT_FREQUENCY_HZ: 50.000
LATE/NORMAL_TRIGGERED: NT
DATABASE_VERSION: 0.5
HEADER_FORMAT: DYNA 1.2
DATA_TYPE: VELOCITY
PROCESSING: manual (Paolucci et al., 2011)
DATA_TIMESTAMP_YYYYMMDD_HHMMSS: 20211011_160231.414
DATA_LICENSE: CC-BY3_0-IT (http://creativecommons.org/licenses/by/3.0/deed.en)
DATA_CITATION: Luzi L, Pacor F, Puglia R (2019). Italian Accelerometric Archive v 3.0 - Istituto Nazionale di Geofisica e Vulcanologia, Dipartimento della Protezione Civile Nazionale. doi: 10.13127/itaca.3.1
DATA_CREATOR: ITACA working group
ORIGINAL_DATA_MEDIATOR_CITATION: data obtained within the DPC-INGV data exchange agreements
ORIGINAL_DATA_MEDIATOR: Archive of Italian Department of Civil Protection
ORIGINAL_DATA_CREATOR_CITATION: Presidency Of Counsil Of Ministers-Civil Protection Department. (1972). Italian Strong Motion Network. Presidency of Counsil of Ministers - Civil Protection Department. https://doi.org/10.7914/SN/IT http://www.fdsn.org/networks/detail/IT/
ORIGINAL_DATA_CREATOR: network: IT (Italian Strong Motion Network (RAN)); owner: Presidency of Counsil of Ministers - Civil Protection Department (PCM - DPC)
USER1: 
USER2: 
USER3: 
USER4: 
USER5: 
[...]
0.176238
0.153749
0.129435
0.103802
0.077783
0.052753
0.030166
0.011229
-0.003265
-0.013244
-0.019499
-0.023218
-0.025397
-0.026844
-0.028280
-0.030083
-0.032129
-0.033851
-0.034394
-0.032886
-0.028703
-0.021528
-0.011359
0.001316
0.015436
0.029649
0.042583
0.053003
0.060093
0.063541
0.063299
0.059421
0.052161
0.041985
0.029448
0.015333
0.000805
-0.012681
-0.023459
-0.029737
-0.030086
-0.023988
-0.011776
0.005782
0.027690
0.052823
0.080040
0.108247
0.136507
0.164141
0.190669
0.215631
0.238362
0.257960
0.273632
0.285085
0.292500
0.296258
0.296961
0.295577
0.293279
0.291157
0.290037
0.290398
0.292347
0.295841
0.300997
0.308049
0.317016
0.327407
0.338247
0.348589
0.357854
0.365748
0.372354
0.378341
0.384792
0.392682
0.402466
0.414071
0.427144
0.441290
0.456115
0.471211
0.486307
0.501295
0.516110
0.530709
0.545079
0.559275
0.573435
0.587613
0.601698
0.615501
0.628978
0.642371
0.656051
0.670186
0.684537
0.698593
0.711714
0.723079
0.731829
0.737412
0.739792
0.739487
0.737305
0.733855
0.729315
0.723527
0.716181
0.707104
0.696491
0.684748
0.672357
0.659992
0.648414
0.638149
0.629409
0.622319
0.617035
0.613541
0.611568
0.610902
0.611547
0.613469
0.616494
0.620357
0.624379
0.627343
0.627904
0.624939
0.617642
0.605690
0.589340
0.569302
0.546684
0.523009
0.500014
0.479391
0.462562
0.450379
0.443008
0.440119
0.441065
0.444962
0.450801
0.457644
0.464825
0.472047
0.479345
0.486835
0.494404
0.501741
0.508708
0.515501
0.522501
0.530242
0.539367
0.550330
0.563230
0.577948
0.594174
0.611523
0.629892
0.649367
0.669757
0.690447
0.710333
0.727956
0.742046
0.751790
0.756671
0.756504
0.751667
0.743000
0.731554
0.718509
0.705047
0.692112
0.680307
0.669922
0.661101
0.653991
0.648540
0.644128
0.639646
0.634069
0.626822
0.617714
0.606763
0.594004
0.579452
0.563231
0.545668
0.527234
0.508438
0.489846
0.472081
0.455772
0.441583
0.430158
0.421964
0.417207
0.415671
0.416630
0.419052
0.421802
0.423703
0.423623
0.420730
0.414634
0.405242
0.392682
0.377284
0.359539
0.340098
0.319739
0.299325
0.279752
0.261731
0.245515
0.230886
0.217411
0.204616
0.192132
0.179794
0.167599
0.155689
0.144203
0.132969
0.121434
0.108766
0.094014
0.076432
0.055797
0.032434
0.006956
-0.019896
-0.047195
-0.073813
-0.098567
-0.120503
-0.139212
-0.154868
-0.168055
-0.179529
-0.190088
-0.200560
-0.211608
-0.223520
-0.236221
-0.249384
-0.262545
-0.275133
-0.286465
-0.295830
-0.302594
-0.306251
-0.306446
-0.303072
-0.296399
-0.287108
-0.276247
-0.264966
-0.254027
-0.243677
-0.234009
-0.225192
-0.217362
-0.210591
-0.204768
-0.199295
-0.193184
-0.185585
-0.175901
-0.163529
-0.147976
-0.129082
-0.106943
-0.081944
-0.054956
-0.027130
0.000352
0.026135
0.049002
0.068703
0.085875
0.101109
0.114457
0.125714
0.134911
0.142486
0.149116
0.155493
0.162102
0.168956
0.175624
0.181746
0.187270
0.192153
0.196311
0.199829
0.202790
0.204949
0.205733
0.204569
0.201149
0.195524
0.188044
0.179088
0.168878
0.157632
0.145606
0.132866
0.119283
0.104721
0.089076
0.072363
0.054779
0.036475
0.017516
-0.001844
-0.021077
-0.039537
-0.056719
-0.072531
-0.087380
-0.101937
-0.116775
-0.132053
-0.147422
-0.162196
-0.175682
-0.187471
-0.197567
-0.206375
-0.214469
-0.222192
-0.229401
-0.235587
-0.240204
-0.242993
-0.244213
-0.244579
-0.244785
-0.245085
-0.245319
-0.245151
-0.244122
-0.241614
-0.236941
-0.229398
-0.218345
-0.203507
-0.185221
-0.164320
-0.141798
-0.118596
-0.095585
-0.073648
-0.053689
-0.036557
-0.022870
-0.012748
-0.005744
-0.001099
0.002006
0.004259
0.006133
0.007964
0.010010
0.012430
0.015213
0.018135
0.020865
0.023244
0.025493
0.028087
0.031501
0.036132
0.042303
0.050231
0.059970
0.071259
0.083475
0.095797
0.107358
0.117281
0.124873
0.129973
0.132984
0.134562
0.135348
0.135778
0.136005
0.136072
0.136009
0.135726
0.134941
0.133126
0.129501
0.123301
0.114161
0.102171
0.087759
0.071687
0.054867
0.038140
0.022271
0.007957
-0.004181
-0.013726
-0.020702
-0.025364
-0.027885
-0.028714
-0.028766
-0.028933
-0.029769
-0.031325
-0.033007
-0.034028
-0.034044
-0.033101
-0.031420
-0.029549
-0.028175
-0.027744
-0.028534
-0.030758
-0.034440
-0.039395
-0.045315
-0.051864
-0.058692
-0.065525
-0.072305
-0.079095
-0.085791
-0.092119
-0.098055
-0.104087
-0.110890
-0.118885
-0.127965
-0.137382
-0.146036
-0.152808
-0.156863
-0.157892
-0.156007
-0.151621
-0.145375
-0.137916
-0.129709
-0.120990
-0.111915
-0.102654
-0.093539
-0.085160
-0.077965
-0.071963
-0.066803
-0.061796
-0.056117
-0.049242
-0.041077
-0.031842
-0.022028
-0.012139
-0.002367
0.007221
0.016488
0.025403
0.034004
0.042268
0.050079
0.057188
0.063196
0.067641
0.070156
0.070420
0.068015
0.062477
0.053288
0.039946
0.022263
0.000604
-0.024077
-0.050531
-0.077702
-0.104914
-0.131640
-0.157196
-0.180723
-0.201436
-0.218838
-0.232752
-0.243341
-0.251214
-0.257356
-0.262735
-0.267846
-0.272563
-0.276428
-0.279055
-0.280225
-0.279990
-0.278940
-0.278047
-0.278218
-0.280207
-0.284628
-0.291797
-0.301562
-0.313255
-0.325726
-0.337613
-0.347618
-0.354646
-0.358009
-0.357583
-0.353758
-0.347401
-0.339636
-0.331353
-0.322898
-0.314274
-0.305365
-0.295958
-0.285867
-0.275030
-0.263573
-0.251916
-0.240662
-0.230325
-0.221159
-0.213169
-0.206256
-0.200315
-0.195310
-0.191230
-0.187783
-0.184221
-0.179599
-0.173063
-0.164006
-0.152297
-0.138364
-0.122993
-0.106960
-0.090748
-0.074534
-0.058235
-0.041479
-0.023812
-0.005060
0.014677
0.035151
0.055991
0.076931
0.097939
0.118971
0.139799
0.160110
0.179599
0.198005
0.215166
0.231035
0.245555
0.258622
0.270220
0.280480
0.289553
0.297626
0.305019
0.312115
0.319265
0.326766
0.334866
0.343767
0.353507
0.363802
0.374252
0.384661
0.395043
0.405572
0.416585
0.428403
0.441160
0.454859
0.469398
0.484405
0.499269
0.513400
0.526339
0.537752
0.547443
0.555251
0.560916
0.564093
0.564391
0.561340
0.554549
0.544000
0.530062
0.513274
0.494286
0.473884
0.452876
0.432027
0.412010
0.393338
0.376394
0.361393
0.348193
0.336222
0.324678
0.312854
0.300318
0.286902
0.272628
0.257726
0.242704
0.228217
0.214841
0.203051
0.193260
0.185747
0.180630
0.177808
0.176816
0.176901
0.177454
0.178217
0.179113
0.180195
0.181496
0.182718
0.183227
0.182206
0.178810
0.172474
0.163024
0.150420
0.134628
0.115789
0.094224
0.070327
0.044656
0.018003
-0.008753
-0.034769
-0.059219
-0.081390
-0.100832
-0.117280
-0.130646
-0.141090
-0.148927
-0.154501
-0.158172
-0.160287
-0.161092
-0.160786
-0.159715
-0.158316
-0.156988
-0.156194
-0.156502
-0.158507
-0.162835
-0.169909
-0.179673
-0.191763
-0.205774
-0.221216
-0.237400
-0.253454
-0.268319
-0.280814
-0.289829
-0.294315
-0.293329
-0.286327
-0.273280
-0.254593
-0.230987
-0.203387
-0.172917
-0.140894
-0.108692
-0.077605
-0.048792
-0.023222
-0.001601
0.015597
0.028127
0.036088
0.039979
0.040657
0.039150
0.036390
0.033018
0.029359
0.025572
0.021854
0.018442
0.015403
0.012569
0.009869
0.007579
0.006210
0.006274
0.008021
0.011304
0.015731
0.020862
0.026298
0.031629
0.036405
0.040269
0.043001
0.044343
0.044058
0.042188
0.038964
0.034508
0.028827
0.021894
0.013532
0.003467
-0.008444
-0.022094
-0.036980
-0.052175
-0.066713
-0.079977
-0.091739
-0.102033
-0.111015
-0.118876
-0.125754
-0.131583
-0.136058
-0.138762
-0.139285
-0.137300
-0.132703
-0.125596
-0.116179
-0.104784
-0.091889
-0.078043
-0.063795
-0.049683
-0.036317
-0.024306
-0.014207
-0.006606
-0.002031
-0.000691
-0.002367
-0.006458
-0.012083
-0.018359
-0.024750
-0.031086
-0.037431
-0.044101
-0.051558
-0.060188
-0.070236
-0.081829
-0.094993
-0.109545
-0.125039
-0.141020
-0.157274
-0.173691
-0.190136
-0.206441
-0.222343
-0.237466
-0.251435
-0.264052
-0.275364
-0.285614
-0.295086
-0.303953
-0.312314
-0.320240
-0.327855
-0.335485
-0.343501
-0.352183
-0.361826
-0.372640
-0.384621
-0.397696
-0.411836
-0.426958
-0.442974
-0.459894
-0.477680
-0.496137
-0.514929
-0.533489
-0.551018
-0.566712
-0.579941
-0.590208
-0.597235
-0.601096
-0.602168
-0.601082
-0.598602
-0.595496
-0.592612
-0.590710
-0.590262
-0.591552
-0.594641
-0.599410
-0.605720
-0.613142
-0.620834
-0.628090
-0.634587
-0.639973
-0.643795
-0.645733
-0.645417
-0.642324
-0.636015
-0.626277
-0.613138
-0.596965
-0.578451
-0.558448
-0.537694
-0.516719
-0.496023
-0.476004
-0.456742
-0.438278
-0.420962
-0.405216
-0.391279
-0.379363
-0.369690
-0.362382
-0.357603
-0.355520
-0.355987
-0.358542
-0.362576
-0.367358
-0.372197
-0.376672
-0.380566
-0.383806
-0.386448
-0.388513
-0.389844
-0.390059
-0.388742
-0.385816
-0.381542
-0.376128
-0.369675
-0.362297
-0.353973
-0.344614
-0.334249
-0.322955
-0.310913
-0.298591
-0.286725
-0.276127
-0.267462
-0.261111
-0.257225
-0.255862
-0.256848
-0.259586
-0.263248
-0.266963
-0.269748
-0.270634
-0.269046
-0.264964
-0.258707
-0.250613
-0.240954
-0.229999
-0.218047
-0.205540
-0.193049
-0.181111
-0.170291
-0.161366
-0.155121
-0.151914
-0.151723
-0.154386
-0.159628
-0.167107
-0.176453
-0.187287
-0.199320
-0.212439
-0.226766
-0.242715
-0.260828
-0.281324
-0.303996
-0.328463
-0.354279
-0.381075
-0.408758
-0.437386
-0.466935
-0.497288
-0.528347
-0.559959
-0.591777
-0.623439
-0.654866
-0.686144
-0.717232
-0.747925
-0.777994
-0.807248
-0.835416
-0.862145
-0.887079
-0.909756
-0.929767
-0.947021
-0.961586
-0.973361
-0.982088
-0.987600
-0.989916
-0.989233
-0.986017
-0.981052
-0.975113
-0.968551
-0.961354
-0.953323
-0.944048
-0.933088
-0.920131
-0.905002
-0.887840
-0.869141
-0.849463
-0.829313
-0.809112
-0.789144
-0.769680
-0.751062
-0.733560
-0.717343
-0.702654
-0.689880
-0.679347
-0.671052
-0.664702
-0.660037
-0.656867
-0.654920
-0.653914
-0.653639
-0.653891
-0.654473
-0.655331
-0.656508
-0.657953
-0.659594
-0.661523
-0.663993
-0.667385
-0.672147
-0.678611
-0.686868
-0.696803
-0.708149
-0.720577
-0.733725
-0.747159
-0.760478
-0.773327
-0.785320
-0.796105
-0.805382
-0.812907
-0.818617
-0.822663
-0.825207
-0.826303
-0.826053
-0.824686
-0.822424
-0.819310
-0.815226
-0.810019
-0.803568
-0.795720
-0.786365
-0.775731
-0.764400
-0.752952
-0.741955
-0.732116
-0.723994
-0.717700
-0.713011
-0.709508
-0.706639
-0.703955
-0.701138
-0.697884
-0.694003
-0.689479
-0.684361
-0.678759
-0.672791
-0.666459
-0.659664
-0.652353
-0.644515
-0.636068
-0.626999
-0.617438
-0.607515
-0.597346
-0.587074
-0.576845
-0.566937
-0.557699
-0.549268
-0.541568
-0.534382
-0.527247
-0.519628
-0.511151
-0.501497
-0.490360
-0.477614
-0.463267
-0.447365
-0.430102
-0.411849
-0.393067
-0.374289
-0.356020
-0.338635
-0.322444
-0.307690
-0.294377
-0.282204
-0.270710
-0.259415
-0.247894
-0.235955
-0.223706
-0.211443
-0.199658
-0.188996
-0.180065
-0.173284
-0.168871
-0.166926
-0.167503
-0.170563
-0.175914
-0.183299
-0.192476
-0.203151
-0.214979
-0.227635
-0.240810
-0.254174
-0.267365
-0.280014
-0.291785
-0.302481
-0.312050
-0.320483
-0.327832
-0.334331
-0.340335
-0.346151
-0.351928
-0.357573
-0.362828
-0.367523
-0.371570
-0.374748
-0.376792
-0.377720
-0.377763
-0.377128
-0.376107
-0.375162
-0.374684
-0.374884
-0.375823
-0.377350
-0.379148
-0.380792
-0.381763
-0.381635
-0.380158
-0.377192
-0.372666
-0.366648
-0.359464
-0.351576
-0.343311
-0.334840
-0.326404
-0.318379
-0.311017
-0.304322
-0.298193
-0.292481
-0.287060
-0.281863
-0.276697
-0.271155
-0.264877
-0.257752
-0.249935
-0.241765
-0.233655
-0.226018
-0.219267
-0.213771
-0.209768
-0.207352
-0.206518
-0.207232
-0.209470
-0.213226
-0.218437
-0.224863
-0.232109
-0.239681
-0.246983
-0.253481
-0.258868
-0.262990
-0.265843
-0.267589
-0.268300
-0.267865
-0.266144
-0.262963
-0.258002
-0.250986
-0.241938
-0.231063
-0.218636
-0.204987
-0.190379
-0.174962
-0.158874
-0.142278
-0.125318
-0.108217
-0.091395
-0.075343
-0.060514
-0.047237
-0.035632
-0.025700
-0.017372
-0.010386
-0.004280
0.001442
0.007173
0.013126
0.019291
0.025500
0.031437
0.036612
0.040558
0.043114
0.044446
0.044852
0.044676
0.044199
0.043491
0.042484
0.041119
0.039368
0.037252
0.034887
0.032406
0.029885
0.027336
0.024651
0.021584
0.017837
0.013098
0.007106
-0.000210
-0.008716
-0.018051
-0.027552
-0.036307
-0.043391
-0.048058
-0.049776
-0.048230
-0.043388
-0.035446
-0.024611
-0.011030
0.005056
0.023210
0.042916
0.063735
0.085310
0.107377
0.129902
0.153096
0.177301
0.202872
0.229977
0.258545
0.288427
0.319353
0.350893
0.382702
0.414582
0.446376
0.478007
0.509377
0.540185
0.570057
0.598726
0.625989
0.651724
0.675932
0.698685
0.720075
0.740164
0.758931
0.776300
0.792347
0.807321
0.821420
0.834814
0.847797
0.860703
0.873834
0.887476
0.901815
0.916861
0.932501
0.948629
0.965282
0.982515
1.000252
1.018394
1.036942
1.055943
1.075444
1.095474
1.115880
1.136284
1.156246
1.175259
1.192672
1.207921
1.220714
1.230938
1.238555
1.243575
1.245934
1.245534
1.242341
1.236273
1.227190
1.215024
1.199793
1.181553
1.160394
1.136483
1.110084
1.081581
1.051484
1.020360
0.988837
0.957642
0.927427
0.898508
0.870888
0.844431
0.818903
0.794029
0.769633
0.745676
0.722207
0.699388
0.677438
0.656472
0.636486
0.617410
0.599062
0.581237
0.563770
0.546441
0.529092
0.511675
0.494033
0.475934
0.457286
0.438043
0.418092
0.397409
0.376085
0.354093
0.331305
0.307709
0.283377
0.258480
0.233403
0.208648
0.184743
0.162185
0.141322
0.122369
0.105457
0.090507
0.077214
0.065255
0.054309
0.044057
0.034422
0.025607
0.017945
0.011869
0.007874
0.006383
0.007691
0.011971
0.019176
0.028973
0.040744
0.053694
0.067058
0.080242
0.092875
0.104767
0.115803
0.125978
0.135363
0.144015
0.152105
0.160028
0.168256
0.177172
0.187002
0.197725
0.209133
0.220941
0.232794
0.244309
0.255190
0.265322
0.274663
0.283147
0.290792
0.297686
0.303851
0.309310
0.314158
0.318472
0.322246
0.325432
0.327943
0.329658
0.330482
0.330369
0.329322
0.327426
0.324824
0.321634
0.317884
0.313481
0.308162
0.301650
0.293817
0.284599
0.273934
0.261896
0.248782
0.235072
0.221333
0.208224
0.196544
0.187053
0.180128
0.175780
0.173892
0.174264
0.176743
0.181308
0.187888
0.196290
0.206325
0.217801
0.230431
0.243841
0.257591
0.271230
0.284432
0.296971
0.308670
0.319407
0.329026
0.337294
0.344043
0.349235
0.352844
0.354886
0.355574
0.355230
0.354174
0.352713
0.351021
0.349134
0.347125
0.345066
0.342940
0.340794
0.338809
0.337074
0.335546
0.334253
0.333339
0.332975
0.333314
0.334455
0.336436
0.339311
0.343146
0.347893
0.353356
0.359265
0.365334
0.371310
0.377010
0.382292
0.387024
0.391174
0.394829
0.398135
0.401295
0.404443
0.407558
0.410550
0.413260
0.415525
0.417310
0.418633
0.419457
0.419788
0.419788
0.419710
0.419764
0.420130
0.420980
0.422443
0.424622
0.427648
0.431641
0.436655
0.442661
0.449536
0.457095
0.465203
0.473758
0.482626
0.491754
0.501263
0.511394
0.522434
0.534608
0.548013
0.562581
0.578078
0.594196
0.610672
0.627254
0.643560
0.659157
0.673716
0.686913
0.698484
0.708380
0.716599
0.723073
0.727864
0.731136
0.732935
0.733278
0.732339
0.730275
0.727090
0.722729
0.717138
0.710257
0.702011
0.692282
0.680910
0.667839
0.653174
0.637037
0.619545
0.600906
0.581363
0.561051
0.540059
0.518447
0.496180
0.473188
0.449446
0.425048
0.400247
0.375435
0.351107
0.327781
0.305919
0.285923
0.268074
0.252507
0.239223
0.228085
0.218833
0.211234
0.205117
0.200219
0.196167
0.192554
0.189015
0.185301
0.181277
0.176942
0.172396
0.167682
0.162755
0.157517
0.151813
0.145457
0.138342
0.130486
0.121919
0.112639
0.102622
0.091738
0.079829
0.066808
0.052641
0.037378
0.021150
0.004176
-0.013216
-0.030671
-0.047937
-0.064855
-0.081334
-0.097408
-0.113186
-0.128799
-0.144432
-0.160269
-0.176535
-0.193566
-0.211652
-0.230883
-0.251284
-0.272876
-0.295538
-0.319076
-0.343323
-0.368018
-0.392828
-0.417516
-0.441926
-0.465943
-0.489510
-0.512542
-0.534855
-0.556317
-0.576809
-0.596141
-0.614201
-0.630974
-0.646421
-0.660593
-0.673624
-0.685538
-0.696335
-0.706139
-0.715063
-0.723215
-0.730803
-0.738037
-0.745130
-0.752322
-0.759801
-0.767727
-0.776238
-0.785355
-0.794956
-0.804850
-0.814889
-0.825031
-0.835297
-0.845714
-0.856347
-0.867298
-0.878611
-0.890219
-0.902036
-0.914064
-0.926312
-0.938692
-0.951048
-0.963164
-0.974693
-0.985183
-0.994300
-1.001937
-1.008192
-1.013320
-1.017579
-1.021129
-1.024070
-1.026463
-1.028341
-1.029764
-1.030830
-1.031591
-1.032040
-1.032130
-1.031686
-1.030349
-1.027718
-1.023466
-1.017304
-1.009082
-0.998915
-0.987047
-0.973688
-0.958965
-0.942904
-0.925454
-0.906520
-0.885965
-0.863643
-0.839506
-0.813687
-0.786394
-0.757831
-0.728265
-0.697990
-0.667176
-0.635860
-0.604066
-0.571850
-0.539257
-0.506339
-0.473201
-0.439965
-0.406757
-0.373738
-0.341097
-0.309070
-0.277934
-0.247954
-0.219428
-0.192641
-0.167757
-0.144882
-0.124053
-0.105175
-0.088096
-0.072650
-0.058609
-0.045763
-0.033927
-0.022894
-0.012523
-0.002797
0.006236
0.014470
0.021721
0.027814
0.032672
0.036280
0.038663
0.039851
0.039808
0.038478
0.035904
0.032245
0.027667
0.022267
0.016202
0.009712
0.002972
-0.003872
-0.010590
-0.017004
-0.023088
-0.028824
-0.034167
-0.039132
-0.043688
-0.047725
-0.051209
-0.054157
-0.056532
-0.058358
-0.059838
-0.061253
-0.062900
-0.065062
-0.067909
-0.071510
-0.075904
-0.081102
-0.087118
-0.093993
-0.101704
-0.110112
-0.119046
-0.128379
-0.137980
-0.147682
-0.157356
-0.166927
-0.176301
-0.185350
-0.193941
-0.201936
-0.209152
-0.215357
-0.220341
-0.223984
-0.226188
-0.226819
-0.225771
-0.223063
-0.218859
-0.213466
-0.207270
-0.200657
-0.193988
-0.187573
-0.181660
-0.176495
-0.172249
-0.168951
-0.166613
-0.165175
-0.164396
-0.164014
-0.163807
-0.163496
-0.162746
-0.161308
-0.159110
-0.156216
-0.152713
-0.148674
-0.144245
-0.139675
-0.135265
-0.131337
-0.128157
-0.125890
-0.124634
-0.124414
-0.125176
-0.126767
-0.128909
-0.131261
-0.133467
-0.135225
-0.136350
-0.136751
-0.136407
-0.135383
-0.133752
-0.131512
-0.128710
-0.125499
-0.122003
-0.118276
-0.114393
-0.110446
-0.106499
-0.102609
-0.098799
-0.094971
-0.090924
-0.086469
-0.081499
-0.076062
-0.070307
-0.064365
-0.058346
-0.052346
-0.046380
-0.040481
-0.034776
-0.029348
-0.024179
-0.019235
-0.014529
-0.010098
-0.005997
-0.002344
0.000725
0.003183
0.005077
0.006373
0.007008
0.007092
0.006881
0.006649
0.006705
0.007390
0.008994
0.011793
