EVENT_NAME: L_AQUILA
EVENT_ID: IT-2009-0009
EVENT_DATE_YYYYMMDD: 20090406
EVENT_TIME_HHMMSS: 013240
EVENT_LATITUDE_DEGREE: 42.3420
EVENT_LONGITUDE_DEGREE: 13.3800
EVENT_DEPTH_KM: 8.3
HYPOCENTER_REFERENCE: INGV-CNT_Seismic_Bulletin
MAGNITUDE_W: 6.1
MAGNITUDE_W_REFERENCE: INGV-CNT_Seismic_Bulletin
MAGNITUDE_L: 
MAGNITUDE_L_REFERENCE: 
FOCAL_MECHANISM: Normal faulting
NETWORK: IT
STATION_CODE: SBC
STATION_NAME: 
STATION_LATITUDE_DEGREE: 41.913158
STATION_LONGITUDE_DEGREE: 13.105518
STATION_ELEVATION_M: 668
LOCATION: 
SENSOR_DEPTH_M: 0.0
VS30_M/S: 1298
SITE_CLASSIFICATION_EC8: A
MORPHOLOGIC_CLASSIFICATION: 
EPICENTRAL_DISTANCE_KM: 52.8
EARTHQUAKE_BACKAZIMUTH_DEGREE: 205.6
DATE_TIME_FIRST_SAMPLE_YYYYMMDD_HHMMSS: 20090406_013239.000
DATE_TIME_FIRST_SAMPLE_PRECISION: seconds
SAMPLING_INTERVAL_S: 0.005000
NDATA: 14800
DURATION_S: 74.000
STREAM: HNE
UNITS: cm/s^2
INSTRUMENT: sensor = Episensor FBA ES-T [Kinemetrics] | digitizer = Etna [Kinemetrics]
INSTRUMENT_ANALOG/DIGITAL: D
INSTRUMENTAL_FREQUENCY_HZ: 
INSTRUMENTAL_DAMPING: 
FULL_SCALE_G: 
N_BIT_DIGITAL_CONVERTER: 18
PGA_CM/S^2: 5.923247
TIME_PGA_S: 24.065000
BASELINE_CORRECTION: BASELINE NOT REMOVED
FILTER_TYPE: 
FILTER_ORDER: 
LOW_CUT_FREQUENCY_HZ: 
HIGH_CUT_FREQUENCY_HZ: 
LATE/NORMAL_TRIGGERED: NT
DATABASE_VERSION: 0.5
HEADER_FORMAT: DYNA 1.2
DATA_TYPE: ACCELERATION
PROCESSING: converted to cm/s^2
DATA_TIMESTAMP_YYYYMMDD_HHMMSS: 20211011_160230.570
DATA_LICENSE: CC-BY3_0-IT (http://creativecommons.org/licenses/by/3.0/deed.en)
DATA_CITATION: Luzi L, Pacor F, Puglia R (2019). Italian Accelerometric Archive v 3.0 - Istituto Nazionale di Geofisica e Vulcanologia, Dipartimento della Protezione Civile Nazionale. doi: 10.13127/itaca.3.1
DATA_CREATOR: ITACA working group
ORIGINAL_DATA_MEDIATOR_CITATION: data obtained within the DPC-INGV data exchange agreements
ORIGINAL_DATA_MEDIATOR: Archive of Italian Department of Civil Protection
ORIGINAL_DATA_CREATOR_CITATION: Presidency Of Counsil Of Ministers-Civil Protection Department. (1972). Italian Strong Motion Network. Presidency of Counsil of Ministers - Civil Protection Department. https://doi.org/10.7914/SN/IT http://www.fdsn.org/networks/detail/IT/
ORIGINAL_DATA_CREATOR: network: IT (Italian Strong Motion Network (RAN)); owner: Presidency of Counsil of Ministers - Civil Protection Department (PCM - DPC)
USER1: 
USER2: 
USER3: 
USER4: 
USER5: 
[...]
-0.021742
-0.464296
-0.724868
-0.818431
-0.752469
-0.636919
-0.460553
-0.250036
-0.025953
0.232749
0.396952
0.409583
0.447008
0.518583
0.670156
0.916694
1.057039
1.080429
0.921372
0.638344
0.329119
0.046559
-0.077412
-0.201850
-0.303367
-0.421724
-0.630369
-0.852581
-1.109412
-1.260983
-1.288117
-1.070583
-0.712705
-0.364183
-0.069460
0.002584
0.026442
0.028782
0.005859
0.063868
0.217779
0.441394
0.759508
1.097738
1.297495
1.315740
1.199254
1.049085
0.759976
0.463849
0.172401
-0.120919
-0.262198
-0.307577
-0.206061
-0.088640
0.080709
0.176143
0.138250
0.099422
-0.070862
-0.072734
-0.012386
-0.036245
-0.063378
-0.313659
-0.574699
-0.852581
-0.949887
-0.705220
-0.342663
0.233684
0.653314
0.863363
0.867573
0.688868
0.547588
0.350170
0.338475
0.361398
0.488643
0.694483
0.858217
1.083236
1.062652
0.972832
0.762783
0.495193
0.348767
0.306196
0.465253
0.672027
0.834826
0.865703
0.711323
0.292629
-0.195302
-0.643000
-0.934449
-0.953629
-0.825916
-0.478797
-0.091448
0.389935
0.876462
1.168378
1.268491
1.058442
0.671559
0.149478
-0.285122
-0.629902
-0.920414
-1.020995
-1.151515
-1.176309
-1.124382
-1.023801
-0.803929
-0.511544
-0.109692
0.186435
0.490047
0.761379
1.011660
1.288139
1.438307
1.554793
1.416788
1.185219
0.892835
0.527472
0.308535
0.070885
0.023636
0.050301
0.057318
0.170529
0.246315
0.437652
0.625713
0.731439
0.812371
0.677641
0.433441
0.120005
-0.283251
-0.599026
-0.824980
-0.868019
-0.661245
-0.352955
0.026442
0.297307
0.438587
0.501742
0.458703
0.526069
0.558816
0.657992
0.813775
0.890028
1.036923
1.011660
0.926518
0.766993
0.611679
0.588288
0.534489
0.565833
0.532618
0.470866
0.385724
0.129362
-0.185478
-0.563472
-0.821705
-0.866148
-0.739370
-0.290736
0.181757
0.537764
0.772607
0.684658
0.577996
0.496128
0.382450
0.330054
0.182225
-0.065717
-0.391784
-0.737499
-1.016316
-1.203910
-1.288585
-1.328817
-1.229641
-1.064501
-0.934449
-0.869423
-0.926963
-0.975617
-1.062162
-1.061227
-0.989183
-0.882989
-0.722061
-0.658906
-0.667327
-0.769778
-0.850710
-0.851646
-0.739370
-0.629902
-0.496574
-0.475523
-0.551777
-0.541485
-0.680893
-0.701009
-0.783813
-0.764164
-0.495171
-0.127936
0.453089
0.808161
1.058442
0.988737
0.638812
0.189242
-0.501252
-1.015849
-1.474775
-1.725991
-1.772305
-1.746575
-1.478985
-1.147772
-0.714576
-0.346874
-0.174718
-0.097528
-0.094722
-0.000223
0.321634
0.876930
1.553857
2.170905
2.561998
2.544689
2.138158
1.570230
0.899385
0.238363
-0.293543
-0.686507
-0.862873
-0.851646
-0.769778
-0.649082
-0.448857
-0.221966
-0.005837
0.138718
0.154624
0.106907
0.023168
-0.093786
-0.180332
-0.283719
-0.427806
-0.498446
-0.555051
-0.489557
-0.342195
-0.190156
0.004923
0.104567
0.091937
-0.187817
-0.638322
-1.110815
-1.532784
-1.759674
-1.791953
-1.641317
-1.328349
-0.853049
-0.375878
0.087726
0.417536
0.552734
0.584545
0.483965
0.435312
0.358591
0.253333
0.217311
0.184564
0.241637
0.375900
0.536828
0.643959
0.674366
0.683722
0.694013
0.865703
1.196915
1.516432
1.809284
1.827061
1.529531
1.097271
0.469931
-0.118112
-0.658438
-1.120171
-1.324139
-1.378873
-1.198764
-0.955500
-0.681361
-0.309449
0.008666
0.407244
0.726293
0.956459
1.073880
0.922775
0.672495
0.192985
-0.378685
-0.940063
-1.501441
-1.876628
-2.073110
-2.002470
-1.785404
-1.439689
-1.060291
-0.798783
-0.611657
-0.705220
-0.993861
-1.462612
-1.935572
-2.161995
-2.200823
-1.904228
-1.384019
-0.744048
-0.062442
0.496596
0.899853
1.025695
0.905935
0.645361
0.338475
0.083984
-0.081154
-0.136825
-0.102674
-0.025485
0.070885
0.269238
0.534957
0.801144
1.049085
1.206739
1.346616
1.393397
1.279250
1.105223
0.863831
0.691675
0.599048
0.489111
0.341282
0.048430
-0.217289
-0.528386
-0.771649
-0.844161
-1.009767
-0.969535
-0.928367
-0.910122
-0.808607
-0.958307
-1.042982
-1.218412
-1.377469
-1.333963
-1.407410
-1.355482
-1.417234
-1.512200
-1.564595
-1.615119
-1.300281
-0.962986
-0.489557
-0.111095
0.033928
0.095679
-0.183606
-0.370732
-0.529789
-0.465231
-0.083494
0.273449
0.793659
1.156683
1.433629
1.678296
1.711043
1.761099
1.567892
1.197383
0.760911
0.161641
-0.328161
-0.771649
-1.085085
-1.157129
-1.016316
-0.659842
-0.183606
0.381514
0.831084
1.100077
1.082768
0.806290
0.428763
0.034863
-0.209336
-0.340792
-0.347809
-0.413303
-0.662181
-1.016316
-1.387293
-1.638978
-1.797567
-1.811134
-1.883177
-2.075917
-2.291111
-2.567590
-2.631213
-2.504435
-2.278948
-1.985628
-1.823297
-1.703069
-1.672661
-1.704940
-1.599681
-1.489277
-1.243207
-0.798783
-0.352020
0.158834
0.586417
0.868041
1.045811
1.059377
0.934939
0.628988
0.242573
-0.134486
-0.437630
-0.639258
-0.786151
-0.831997
-0.734224
-0.516690
-0.265942
-0.029227
0.111585
0.228071
0.318827
0.332393
0.421746
0.462445
0.350638
0.096615
-0.364651
-0.987780
-1.663772
-2.220471
-2.619049
-2.830970
-2.729454
-2.498822
-2.145153
-1.711021
-1.413023
-1.122978
-0.944273
-0.847435
-0.826383
-0.943805
-1.077600
-1.223091
-1.138416
-0.870826
-0.411432
0.244912
0.926518
1.614205
2.104007
2.429139
2.505393
2.397327
2.206927
1.885070
1.597364
1.328839
1.184752
1.101481
1.089317
1.121597
1.201593
1.464037
1.725078
1.954307
1.978633
1.845306
1.547776
1.165103
0.853539
0.497064
0.310874
0.039541
-0.237873
-0.456342
-0.655632
-0.471780
-0.128872
0.463849
1.054231
1.485556
1.821915
1.825658
1.794782
1.566488
1.310594
1.110837
0.791319
0.513905
0.069014
-0.416110
-0.912462
-1.317121
-1.612313
-1.840606
-1.842945
-1.712425
-1.404135
-0.990587
-0.526515
-0.250036
-0.228049
-0.449325
-0.923689
-1.366242
-1.745640
-1.906100
-1.964109
-1.917328
-1.830314
-1.913585
-1.941186
-2.028200
-2.052994
-1.980950
-1.853704
-1.698858
-1.656287
-1.600617
-1.647398
-1.624008
-1.477114
-1.238996
-0.970938
-0.828723
-0.690717
-0.582184
-0.325822
0.056850
0.488176
0.905935
1.268023
1.551051
1.602978
1.566956
1.318546
0.997158
0.758572
0.497064
0.370754
0.325376
0.342685
0.376836
0.323505
0.186435
-0.125597
-0.555987
-0.970003
-1.327881
-1.450916
-1.255370
-0.841822
-0.315998
0.179886
0.505953
0.591095
0.425488
0.037202
-0.461020
-0.949419
-1.286713
-1.456530
-1.419573
-1.199700
-0.833869
-0.272960
0.304324
0.909209
1.414449
1.705429
1.842967
1.711510
1.433629
1.088850
0.846989
0.797869
0.853539
1.099609
1.428951
1.729288
1.912671
1.951500
1.837353
1.601575
1.396204
1.221709
1.139841
1.089317
1.075751
0.998094
0.859153
0.839037
0.786173
0.905466
1.055635
1.087446
1.061716
0.836230
0.575189
0.264092
-0.043730
-0.344535
-0.637854
-0.771649
-0.886731
-1.032690
-1.180052
-1.423783
-1.718038
-2.046912
-2.350524
-2.545603
-2.627938
-2.511920
-2.309824
-2.074513
-1.899083
-1.844348
-1.889726
-2.020247
-2.080127
-2.043638
-1.899083
-1.682953
-1.455127
-1.234318
-0.978891
-0.714108
-0.411432
-0.044665
0.366076
0.755298
1.027098
1.196447
1.165571
1.061249
0.854942
0.662203
0.553670
0.385256
0.288419
-0.003030
-0.413303
-0.844629
-1.359225
-1.760142
-2.072174
-2.232167
-2.321987
-2.378125
-2.452040
-2.501628
-2.490401
-2.506774
-2.319648
-2.056268
-1.621669
-1.051403
-0.513416
0.116731
0.595773
1.052828
1.500994
1.885070
2.235931
2.415572
2.467032
2.362709
2.211137
2.155467
2.259322
2.499779
2.821635
3.160333
3.364769
3.363833
3.118698
2.604101
1.970212
1.360182
0.763718
0.284676
-0.024549
-0.182204
-0.193898
-0.080219
0.138718
0.340814
0.499871
0.603258
0.501742
0.236024
-0.117177
-0.515287
-0.739370
-0.824045
-0.719722
-0.399269
-0.021275
0.505017
0.953651
1.326499
1.655841
1.769520
1.917349
1.940740
1.871504
1.739580
1.399010
1.102416
0.720212
0.446540
0.235556
-0.071799
-0.318337
-0.629902
-0.863341
-1.014445
-1.028480
-0.831062
-0.423127
0.236959
0.991544
1.687652
2.290198
2.605973
2.657432
2.535333
2.116171
1.677828
1.163700
0.704774
0.334732
-0.058700
-0.398801
-0.846032
-1.197829
-1.551965
-1.805520
-1.954284
-2.138136
-2.314970
-2.588642
-2.804304
-2.939503
-2.945584
-2.778574
-2.413211
-1.928555
-1.417701
-0.933045
-0.547098
-0.221966
0.091937
0.367947
0.550863
0.639748
0.504549
0.237427
-0.112031
-0.391784
-0.512948
-0.471312
-0.151327
0.153688
0.539167
0.991544
1.314804
1.521578
1.510351
1.316675
0.845117
0.147607
-0.738902
-1.771369
-2.593787
-3.135049
-3.310480
-3.122886
-2.706531
-2.163866
-1.648802
-1.056081
-0.567682
-0.166765
0.144800
0.221054
0.216843
0.021297
-0.275298
-0.606043
-0.973745
-1.332091
-1.693244
-2.060947
-2.442216
-2.719630
-2.778106
-2.620921
-2.224682
-1.759674
-1.389633
-1.062630
-0.947080
-0.773053
-0.520433
-0.195770
0.330054
0.925114
1.658648
2.311717
2.838944
3.145831
3.179046
2.911456
2.507264
2.042724
1.599235
1.370006
1.165571
1.230130
1.319950
1.375620
1.343341
1.124871
0.969089
0.694950
0.570511
0.476012
0.457768
0.585013
0.642555
0.757637
0.751087
0.752023
0.613082
0.321634
0.115795
-0.041391
0.085855
0.402566
0.867573
1.382169
1.823786
2.125527
2.145643
2.092312
1.970680
1.924367
1.925770
1.884135
1.841563
1.717593
1.662858
1.551986
1.429418
1.190365
0.785239
0.337071
-0.191559
-0.668262
-1.221219
-1.701197
-2.096033
-2.446426
-2.637294
-2.732728
-2.648522
-2.445490
-2.057672
-1.515943
-0.891410
-0.163022
0.441862
0.923243
1.313401
1.557600
1.755486
1.902846
2.034303
2.222365
2.477792
2.870756
3.373657
3.977137
4.634885
5.183164
5.644429
5.887692
5.712263
5.199070
4.357471
3.353541
2.363177
1.404157
0.571447
-0.162088
-0.749662
-1.206249
-1.509393
-1.663772
-1.888791
-2.245733
-2.815532
-3.502284
-4.110910
-4.552527
-4.780821
-4.811229
-4.638138
-4.293358
-3.783908
-3.182766
-2.578817
-1.910310
-1.162742
-0.491428
0.002116
0.221989
0.167723
-0.036245
-0.307109
-0.579845
-0.765568
-0.807203
-0.752469
-0.681361
-0.582184
-0.501720
-0.532128
-0.517158
-0.710366
-1.017252
-1.363435
-1.849962
-2.074513
-2.154042
-2.045977
-1.796631
-1.541204
-1.286245
-1.024269
-0.744516
-0.423594
0.026442
0.505017
1.055167
1.394333
1.534677
1.529063
1.334920
1.173992
1.056570
1.057506
1.082768
1.109434
1.167911
1.161829
1.234808
1.373749
1.422402
1.385912
1.208143
0.852135
0.385724
-0.146181
-0.681361
-1.140755
-1.504715
-1.746575
-1.948671
-2.101179
-2.282691
-2.543264
-2.771557
-3.069087
-3.203350
-3.194929
-3.041954
-2.615775
-2.150767
-1.538398
-1.002282
-0.650953
-0.376814
-0.309449
-0.175186
-0.083962
-0.038584
0.102229
0.294032
0.618228
0.972364
1.404625
1.801799
2.205523
2.498375
2.648075
2.711699
2.620475
2.583518
2.442705
2.300022
2.077810
1.738176
1.341470
0.769800
0.229006
-0.295882
-0.675279
-0.859131
-0.979827
-0.945209
-0.781006
-0.565811
-0.247697
0.121877
0.460575
0.754831
0.946634
0.990141
0.940552
0.848393
0.799272
0.742667
0.678108
0.701967
0.606533
0.576125
0.587820
0.540571
0.614018
0.572850
0.481626
0.315084
0.025507
-0.261731
-0.628498
-0.963453
-1.332091
-1.737687
-2.129715
-2.605015
-2.990494
-3.287557
-3.349308
-3.117272
-2.754716
-2.222343
-1.747043
-1.342851
-1.064969
-0.948483
-0.798315
-0.712705
-0.563472
-0.331436
-0.182671
-0.085833
-0.118580
-0.207933
-0.246294
-0.206997
-0.010983
0.305260
0.804418
1.383573
2.017462
2.678485
3.112148
3.343717
3.328279
3.063495
2.654625
2.213008
1.820512
1.547308
1.409302
1.378894
1.383573
1.350826
1.382637
1.271297
1.121129
1.034583
0.848393
0.709920
0.532150
0.252865
-0.044198
-0.323483
-0.420788
-0.316466
0.002584
0.480223
0.972832
1.427080
1.645081
1.753147
1.682974
1.425208
1.124404
0.683722
0.263624
-0.156005
-0.432484
-0.563472
-0.664520
-0.717383
-0.906847
-1.190811
-1.413023
-1.577694
-1.567870
-1.343787
-1.026608
-0.669198
-0.383362
-0.145246
-0.046537
-0.047004
-0.079751
-0.216821
-0.466166
-0.766971
-1.072922
-1.407410
-1.605295
-1.685759
-1.598278
-1.470097
-1.352675
-1.269873
-1.255370
-1.183326
-1.170227
-1.135609
-1.165082
-1.240400
-1.350337
-1.540737
-1.785872
-2.101646
-2.528294
-3.026516
-3.539241
-4.138979
-4.608198
-5.027359
-5.269220
-5.241151
-4.981981
-4.409844
-3.768938
-3.052714
-2.279416
-1.539333
-0.766035
-0.083026
0.388999
0.719744
0.803483
0.713194
0.502677
0.207487
-0.039052
-0.181267
-0.146181
-0.125130
-0.154134
-0.370732
-0.837143
-1.370453
-1.899551
-2.279884
-2.402451
-2.292515
-2.035685
-1.652545
-1.225897
-0.694460
-0.045601
0.643490
1.403221
2.073600
2.634977
3.039637
3.162205
3.146766
3.012504
2.942799
3.067238
3.307227
3.701595
4.020645
4.224611
4.304140
4.212916
4.091284
3.890124
3.744165
3.709548
3.759136
3.930356
4.046374
4.180637
4.335951
4.497815
4.674182
4.694766
4.598395
4.305543
3.838197
3.269802
2.631702
2.002959
1.483685
1.185219
1.006515
0.971428
1.082768
1.229662
1.410706
1.514093
1.493042
1.423337
1.331178
1.375152
1.529063
1.799928
2.299554
2.898357
3.637504
4.476296
5.166790
5.687468
5.923247
5.826409
5.424556
4.705525
3.872347
2.932975
2.145643
1.683910
1.474329
1.574441
1.791507
2.050209
2.279906
2.370662
2.314992
2.130673
1.870100
1.555261
1.259602
1.040197
0.933535
0.971428
1.113644
1.383573
1.763438
2.092312
2.387971
2.630299
2.727604
2.767369
2.648545
2.346336
1.886474
1.345212
0.783834
0.195791
-0.206529
-0.490961
-0.585927
-0.603704
-0.562536
-0.438097
-0.315998
-0.012854
0.275788
0.643022
0.923243
1.040197
0.973299
0.660799
0.371222
0.011940
-0.251907
-0.523240
-0.808607
-1.048596
-1.321332
-1.487406
-1.618862
-1.736283
-1.925748
-2.194742
-2.500692
-2.720098
-2.823017
-2.850150
-2.778106
-2.724776
-2.630277
-2.546538
-2.369236
-2.047380
-1.603892
-1.065905
-0.595751
-0.017532
0.421278
0.761379
1.068266
1.150133
1.207207
1.150133
1.117854
1.166039
1.229194
1.367667
1.503333
1.643678
1.739580
1.757825
1.714318
1.624497
1.547776
1.403689
1.135163
0.730971
0.082112
-0.699138
-1.593600
-2.409001
-3.024177
-3.432579
-3.486846
-3.484039
-3.395154
-3.394218
-3.648710
-3.904604
-4.249384
-4.426218
-4.478613
-4.388793
-4.120735
-3.953257
-3.579941
-3.240307
-2.867459
-2.299064
-1.824700
-1.329752
-0.899831
-0.605575
-0.489557
-0.353891
-0.330500
-0.352020
-0.253779
-0.275298
-0.174718
-0.093786
0.032992
0.124684
0.182225
0.317891
0.203276
0.114392
-0.081623
-0.292606
-0.384767
-0.460553
-0.401140
-0.324886
-0.136825
0.020361
0.230410
0.442329
0.580335
0.745006
0.857281
1.089317
1.357843
1.743790
2.092780
2.354756
2.682226
2.721055
2.745849
2.763626
2.740703
2.989581
3.174835
3.461138
3.695981
3.721711
3.811063
3.651071
3.494821
3.317051
2.972739
2.677548
2.210669
1.739112
1.289542
0.812371
0.388531
-0.134954
-0.508270
-0.837143
-1.170695
-1.257241
-1.425187
-1.614651
-1.704004
-1.865868
-1.816747
-1.603424
-1.226833
-0.584056
0.004923
0.678576
1.204868
1.510351
1.818641
1.996410
2.211605
2.356160
2.307975
2.032432
1.618884
1.152472
0.787577
0.610743
0.424553
0.276255
0.066207
-0.232258
-0.553180
-0.795040
-0.849307
-0.747791
-0.570021
-0.399269
-0.361376
-0.428741
-0.634580
-0.911994
-1.049999
-1.192215
-1.187537
-1.156193
-1.226365
-1.355014
-1.570677
-1.780258
-2.008551
-2.103518
-2.093226
-1.924813
-1.508458
-1.057951
-0.631305
-0.246294
-0.002562
0.281869
0.519051
0.748281
0.965347
1.052360
1.273636
1.452342
1.786829
2.223300
2.539075
2.798712
2.835670
2.771111
2.593342
2.392181
2.279906
2.274292
2.409023
2.535333
2.612054
2.595213
2.499311
2.441302
2.437092
2.505393
2.623750
2.701407
2.670063
2.545157
2.357095
2.180729
2.072196
1.982844
1.950564
1.946822
1.912671
1.900040
1.859808
1.749404
1.629643
1.416788
1.110369
0.756233
0.362333
0.000245
-0.298689
-0.511077
-0.642532
-0.682297
-0.662181
-0.542888
-0.327693
-0.004433
0.374964
0.649572
0.759976
0.669220
0.484901
0.237895
-0.017532
-0.222903
-0.356698
-0.381492
-0.324886
-0.194366
-0.033906
0.170997
0.367947
0.551798
0.689804
0.710855
0.676237
0.545717
0.365140
0.118134
-0.227113
-0.546163
-0.786151
-0.855856
-0.684168
-0.338453
0.149010
0.690272
1.169782
1.630579
2.005299
2.300022
2.506328
2.584453
2.638720
2.694857
2.774386
2.894614
3.053204
3.180917
3.309098
3.424181
3.540666
3.615517
3.562186
3.436811
3.138346
2.818828
2.453933
1.975826
1.541694
1.035987
0.588288
0.139186
-0.327693
-0.645340
-0.974681
-1.131399
-1.251627
-1.399925
-1.434543
-1.567402
-1.633832
-1.742832
-1.873353
-2.033345
-2.288305
-2.428182
-2.654603
-2.837519
-3.081250
-3.461584
-3.818058
-4.242834
-4.465046
-4.527733
-4.381308
-3.943901
-3.416674
-2.799626
-2.274270
-1.856979
-1.451384
-1.124382
-0.823109
-0.568150
-0.468505
-0.492364
-0.714108
-1.050935
-1.426590
-1.817215
-2.122698
-2.392159
-2.518469
-2.590045
-2.548878
-2.469817
-2.426310
-2.372043
-2.439877
-2.434263
-2.542328
-2.614839
-2.596127
-2.645715
-2.555895
-2.467478
-2.258364
-1.965045
-1.641785
-1.252095
-0.919011
-0.558326
-0.176121
0.229006
0.633665
0.976106
1.215160
1.370942
1.360182
1.237147
1.078558
0.913419
0.897046
0.871316
0.918565
0.917629
0.762783
0.538232
0.100358
-0.292606
-0.674812
-1.098653
-1.464951
-1.868675
-2.217197
-2.494611
-2.673784
-2.727115
-2.688754
-2.536714
-2.354266
-2.118956
-1.901890
-1.719910
-1.479453
-1.243207
-0.922754
-0.597622
-0.277169
-0.013322
0.145267
0.253333
0.169126
-0.037648
-0.375878
-0.814221
-1.169293
-1.503779
-1.813941
-1.988903
-2.097436
-2.091355
-1.980950
-1.763884
-1.437817
-1.159936
-0.896556
-0.788023
-0.817495
-0.906380
-1.153386
-1.353143
-1.551029
-1.805052
-2.022586
-2.364558
-2.663024
-2.909562
-3.067684
-2.956812
-2.721501
-2.321987
-1.933701
-1.548690
-1.163210
-0.900298
-0.633176
-0.473184
-0.474120
-0.533064
-0.602768
-0.651421
-0.548502
-0.347341
-0.119516
0.127958
0.264092
0.272513
0.217311
0.110182
0.018490
-0.029227
-0.005369
0.124684
0.290758
0.517648
0.722083
0.887689
1.099609
1.240889
1.297027
1.359714
1.355972
1.388719
1.380298
1.207674
0.975638
0.597176
0.217311
-0.151327
-0.371200
-0.401140
-0.356698
-0.106417
0.157898
0.474141
0.792723
1.057039
1.340066
1.498188
1.662858
1.670343
1.507076
1.397607
1.115515
0.748748
0.374964
-0.103610
-0.557390
-0.951758
-1.356886
-1.640849
-1.753124
-1.836396
-1.793356
-1.635703
-1.464015
-1.328817
-1.253966
-1.286713
-1.479921
-1.776983
-2.137668
-2.607354
-3.118208
-3.575731
-4.086584
-4.414522
-4.711117
-4.988999
-5.077415
-5.153202
-5.105484
-5.104081
-5.042798
