EVENT_NAME: L_AQUILA
EVENT_ID: IT-2009-0009
EVENT_DATE_YYYYMMDD: 20090406
EVENT_TIME_HHMMSS: 013240
EVENT_LATITUDE_DEGREE: 42.3420
EVENT_LONGITUDE_DEGREE: 13.3800
EVENT_DEPTH_KM: 8.3
HYPOCENTER_REFERENCE: INGV-CNT_Seismic_Bulletin
MAGNITUDE_W: 6.1
MAGNITUDE_W_REFERENCE: INGV-CNT_Seismic_Bulletin
MAGNITUDE_L: 
MAGNITUDE_L_REFERENCE: 
FOCAL_MECHANISM: Normal faulting
NETWORK: IT
STATION_CODE: SBC
STATION_NAME: 
STATION_LATITUDE_DEGREE: 41.913158
STATION_LONGITUDE_DEGREE: 13.105518
STATION_ELEVATION_M: 668
LOCATION: 
SENSOR_DEPTH_M: 0.0
VS30_M/S: 1298
SITE_CLASSIFICATION_EC8: A
MORPHOLOGIC_CLASSIFICATION: 
EPICENTRAL_DISTANCE_KM: 52.8
EARTHQUAKE_BACKAZIMUTH_DEGREE: 205.6
DATE_TIME_FIRST_SAMPLE_YYYYMMDD_HHMMSS: 
DATE_TIME_FIRST_SAMPLE_PRECISION: 
SAMPLING_INTERVAL_S: 
NDATA: 105
DURATION_S: 
STREAM: HNZ
UNITS: cm/s^2
INSTRUMENT: sensor = Episensor FBA ES-T [Kinemetrics] | digitizer = Etna [Kinemetrics]
INSTRUMENT_ANALOG/DIGITAL: D
INSTRUMENTAL_FREQUENCY_HZ: 
INSTRUMENTAL_DAMPING: 
FULL_SCALE_G: 
N_BIT_DIGITAL_CONVERTER: 18
PGA_CM/S^2: -4.996781
TIME_PGA_S: 
BASELINE_CORRECTION: BASELINE REMOVED
FILTER_TYPE: BUTTERWORTH
FILTER_ORDER: 2
LOW_CUT_FREQUENCY_HZ: 0.080
HIGH_CUT_FREQUENCY_HZ: 50.000
LATE/NORMAL_TRIGGERED: NT
DATABASE_VERSION: 0.5
HEADER_FORMAT: DYNA 1.2
DATA_TYPE: ACCELERATION RESPONSE SPECTRUM
PROCESSING: manual (Paolucci et al., 2011)
DATA_TIMESTAMP_YYYYMMDD_HHMMSS: 20211011_160232.583
DATA_LICENSE: CC-BY3_0-IT (http://creativecommons.org/licenses/by/3.0/deed.en)
DATA_CITATION: Luzi L, Pacor F, Puglia R (2019). Italian Accelerometric Archive v 3.0 - Istituto Nazionale di Geofisica e Vulcanologia, Dipartimento della Protezione Civile Nazionale. doi: 10.13127/itaca.3.1
DATA_CREATOR: ITACA working group
ORIGINAL_DATA_MEDIATOR_CITATION: data obtained within the DPC-INGV data exchange agreements
ORIGINAL_DATA_MEDIATOR: Archive of Italian Department of Civil Protection
ORIGINAL_DATA_CREATOR_CITATION: Presidency Of Counsil Of Ministers-Civil Protection Department. (1972). Italian Strong Motion Network. Presidency of Counsil of Ministers - Civil Protection Department. https://doi.org/10.7914/SN/IT http://www.fdsn.org/networks/detail/IT/
ORIGINAL_DATA_CREATOR: network: IT (Italian Strong Motion Network (RAN)); owner: Presidency of Counsil of Ministers - Civil Protection Department (PCM - DPC)
USER1: 
USER2: 
USER3: 
USER4: 
USER5: 
    0.010000     5.018441
    0.020000     5.056712
    0.022000     5.090164
    0.025000     5.163498
    0.029000     5.166036
    0.030000     5.183617
    0.032000     5.309316
    0.035001     5.519240
    0.036000     5.568636
    0.040000     5.396526
    0.041999     5.447638
    0.044001     6.045698
    0.045000     6.124837
    0.046000     6.079089
    0.048001     6.114071
    0.050000     6.211179
    0.054999     6.591896
    0.059999     6.892075
    0.064998     7.240422
    0.067002     7.790384
    0.069999     9.358083
    0.075002    10.526478
    0.080000    10.246117
    0.084998     8.618560
    0.090001     9.417860
    0.095003     9.599034
    0.100000    10.199915
    0.109999     9.159616
    0.120005    12.588860
    0.130005    15.319754
    0.132996    14.891765
    0.139997    13.609767
    0.149993    12.716839
    0.160000    12.893283
    0.170010    11.997046
    0.179986    14.457546
    0.190006    13.154306
    0.200000    10.406765
    0.220022    10.314731
    0.239981    11.240284
    0.250000    12.632482
    0.260010    13.261215
    0.280034    14.335684
    0.290023    14.070034
    0.300030    15.661700
    0.320000    15.713899
    0.340020    16.029461
    0.350017    17.106976
    0.359971    17.361607
    0.379939    17.315512
    0.400000    14.391167
    0.419992    15.274632
    0.439947    13.664877
    0.450045    14.294107
    0.459982    15.345486
    0.480077    17.534494
    0.500000    16.885080
    0.550055    16.959990
    0.599880    12.950677
    0.650195    10.567418
    0.667111     9.790501
    0.699790     7.961206
    0.750188     7.433031
    0.800000     9.786418
    0.850340     9.048159
    0.900090     8.232213
    0.949668     7.232275
    1.000000     6.130826
    1.100110     8.309164
    1.200480     7.310749
    1.300390     6.252379
    1.400560     4.541226
    1.499250     3.350284
    1.600000     3.620960
    1.700680     3.685534
    1.798561     3.443493
    1.901141     3.112608
    2.000000     3.279311
    2.197802     3.542635
    2.398082     2.966581
    2.500000     2.901119
    2.597403     2.824885
    2.801121     2.946884
    3.003003     3.342336
    3.205128     3.484313
    3.401361     3.432950
    3.496503     3.464468
    3.597122     3.392117
    3.802281     3.140933
    4.000000     3.028431
    4.201681     3.231267
    4.405286     3.325636
    4.608295     3.148118
    4.807692     2.802699
    5.000000     2.580094
    5.494505     2.071513
    5.988024     1.984154
    6.493506     1.800152
    6.993007     1.443338
    7.518797     1.202112
    8.000000     1.025907
    8.474576     0.826244
    9.009009     0.646490
    9.523809     0.496365
   10.000000     0.408263
