EVENT_NAME: L_AQUILA
EVENT_ID: IT-2009-0009
EVENT_DATE_YYYYMMDD: 20090406
EVENT_TIME_HHMMSS: 013240
EVENT_LATITUDE_DEGREE: 42.3420
EVENT_LONGITUDE_DEGREE: 13.3800
EVENT_DEPTH_KM: 8.3
HYPOCENTER_REFERENCE: INGV-CNT_Seismic_Bulletin
MAGNITUDE_W: 6.1
MAGNITUDE_W_REFERENCE: INGV-CNT_Seismic_Bulletin
MAGNITUDE_L: 
MAGNITUDE_L_REFERENCE: 
FOCAL_MECHANISM: Normal faulting
NETWORK: IT
STATION_CODE: SBC
STATION_NAME: 
STATION_LATITUDE_DEGREE: 41.913158
STATION_LONGITUDE_DEGREE: 13.105518
STATION_ELEVATION_M: 668
LOCATION: 
SENSOR_DEPTH_M: 0.0
VS30_M/S: 1298
SITE_CLASSIFICATION_EC8: A
MORPHOLOGIC_CLASSIFICATION: 
EPICENTRAL_DISTANCE_KM: 52.8
EARTHQUAKE_BACKAZIMUTH_DEGREE: 205.6
DATE_TIME_FIRST_SAMPLE_YYYYMMDD_HHMMSS: 20090406_013239.000
DATE_TIME_FIRST_SAMPLE_PRECISION: seconds
SAMPLING_INTERVAL_S: 0.005000
NDATA: 14800
DURATION_S: 74.000
STREAM: HNZ
UNITS: cm/s
INSTRUMENT: sensor = Episensor FBA ES-T [Kinemetrics] | digitizer = Etna [Kinemetrics]
INSTRUMENT_ANALOG/DIGITAL: D
INSTRUMENTAL_FREQUENCY_HZ: 
INSTRUMENTAL_DAMPING: 
FULL_SCALE_G: 
N_BIT_DIGITAL_CONVERTER: 18
PGV_CM/S: -1.111543
TIME_PGV_S: 24.275000
BASELINE_CORRECTION: BASELINE REMOVED
FILTER_TYPE: BUTTERWORTH
FILTER_ORDER: 2
LOW_CUT_FREQUENCY_HZ: 0.080
HIGH_CUT_FREQUENCY_HZ: 50.000
LATE/NORMAL_TRIGGERED: NT
DATABASE_VERSION: 0.5
HEADER_FORMAT: DYNA 1.2
DATA_TYPE: VELOCITY
PROCESSING: manual (Paolucci et al., 2011)
DATA_TIMESTAMP_YYYYMMDD_HHMMSS: 20211011_160231.910
DATA_LICENSE: CC-BY3_0-IT (http://creativecommons.org/licenses/by/3.0/deed.en)
DATA_CITATION: Luzi L, Pacor F, Puglia R (2019). Italian Accelerometric Archive v 3.0 - Istituto Nazionale di Geofisica e Vulcanologia, Dipartimento della Protezione Civile Nazionale. doi: 10.13127/itaca.3.1
DATA_CREATOR: ITACA working group
ORIGINAL_DATA_MEDIATOR_CITATION: data obtained within the DPC-INGV data exchange agreements
ORIGINAL_DATA_MEDIATOR: Archive of Italian Department of Civil Protection
ORIGINAL_DATA_CREATOR_CITATION: Presidency Of Counsil Of Ministers-Civil Protection Department. (1972). Italian Strong Motion Network. Presidency of Counsil of Ministers - Civil Protection Department. https://doi.org/10.7914/SN/IT http://www.fdsn.org/networks/detail/IT/
ORIGINAL_DATA_CREATOR: network: IT (Italian Strong Motion Network (RAN)); owner: Presidency of Counsil of Ministers - Civil Protection Department (PCM - DPC)
USER1: 
USER2: 
USER3: 
USER4: 
USER5: 
[...]
-0.293443
-0.294636
-0.294683
-0.294320
-0.294328
-0.295155
-0.296763
-0.298736
-0.300481
-0.301470
-0.301494
-0.300679
-0.299307
-0.297734
-0.296383
-0.295592
-0.295343
-0.295081
-0.293875
-0.290914
-0.285986
-0.279643
-0.272989
-0.267301
-0.263685
-0.262840
-0.264911
-0.269453
-0.275607
-0.282438
-0.289124
-0.294970
-0.299356
-0.301741
-0.301736
-0.299210
-0.294318
-0.287446
-0.279163
-0.270163
-0.261175
-0.252784
-0.245220
-0.238284
-0.231457
-0.224073
-0.215564
-0.205780
-0.195121
-0.184367
-0.174367
-0.165740
-0.158687
-0.153079
-0.148798
-0.146050
-0.145303
-0.146937
-0.150936
-0.156814
-0.163780
-0.170957
-0.177469
-0.182496
-0.185444
-0.186096
-0.184655
-0.181701
-0.178123
-0.175049
-0.173669
-0.174944
-0.179301
-0.186412
-0.195148
-0.203834
-0.210761
-0.214626
-0.214621
-0.210368
-0.201958
-0.190061
-0.175917
-0.161104
-0.147148
-0.135200
-0.125888
-0.119302
-0.115153
-0.113065
-0.112785
-0.114192
-0.117111
-0.121014
-0.124887
-0.127472
-0.127760
-0.125365
-0.120545
-0.113982
-0.106530
-0.098977
-0.091877
-0.085573
-0.080357
-0.076524
-0.074226
-0.073254
-0.072992
-0.072662
-0.071651
-0.069668
-0.066716
-0.062965
-0.058616
-0.053827
-0.048656
-0.043011
-0.036688
-0.029535
-0.021635
-0.013290
-0.004781
0.003754
0.012198
0.020259
0.027401
0.032949
0.036278
0.037042
0.035361
0.031880
0.027666
0.023866
0.021262
0.020042
0.019914
0.020335
0.020730
0.020764
0.020564
0.020730
0.022051
0.025068
0.029783
0.035612
0.041524
0.046347
0.049104
0.049223
0.046558
0.041288
0.033835
0.024851
0.015144
0.005539
-0.003214
-0.010568
-0.016316
-0.020577
-0.023641
-0.025835
-0.027438
-0.028683
-0.029833
-0.031152
-0.032697
-0.034117
-0.034667
-0.033493
-0.029954
-0.023828
-0.015396
-0.005325
0.005672
0.017079
0.028645
0.040386
0.052535
0.065361
0.078941
0.093029
0.107096
0.120436
0.132351
0.142381
0.150464
0.156897
0.162104
0.166324
0.169430
0.171001
0.170563
0.167818
0.162764
0.155662
0.146959
0.137263
0.127377
0.118337
0.111164
0.106372
0.103772
0.102753
0.102705
0.103196
0.103866
0.104245
0.103821
0.102297
0.099685
0.096176
0.091978
0.087249
0.082076
0.076450
0.070284
0.063550
0.056489
0.049765
0.044426
0.041595
0.042062
0.045986
0.052738
0.060920
0.068641
0.074126
0.076394
0.075573
0.072653
0.068885
0.065257
0.062335
0.060350
0.059291
0.059037
0.059491
0.060583
0.062139
0.063823
0.065276
0.066285
0.066787
0.066727
0.065970
0.064421
0.062166
0.059476
0.056827
0.054882
0.054306
0.055503
0.058449
0.062678
0.067558
0.072651
0.077779
0.082850
0.087747
0.092401
0.096961
0.101851
0.107607
0.114592
0.122748
0.131474
0.139791
0.146705
0.151606
0.154459
0.155641
0.155605
0.154686
0.153119
0.151166
0.149170
0.147494
0.146376
0.145825
0.145720
0.145999
0.146771
0.148309
0.150957
0.154943
0.160074
0.165502
0.169892
0.171999
0.171191
0.167589
0.161886
0.155070
0.148120
0.141798
0.136592
0.132839
0.130894
0.131193
0.134077
0.139548
0.147109
0.155736
0.163982
0.170196
0.172834
0.170857
0.164083
0.153255
0.139748
0.125127
0.110768
0.097707
0.086643
0.078016
0.072096
0.068959
0.068355
0.069680
0.072063
0.074603
0.076698
0.078287
0.079793
0.081830
0.084835
0.088949
0.094078
0.099974
0.106316
0.112808
0.119236
0.125434
0.131107
0.135687
0.138477
0.139083
0.137754
0.135315
0.132794
0.131066
0.130677
0.131861
0.134695
0.139140
0.144910
0.151448
0.158013
0.163891
0.168637
0.172112
0.174357
0.175592
0.176312
0.177300
0.179502
0.183814
0.190762
0.200248
0.211605
0.223898
0.236228
0.247808
0.257939
0.266056
0.271831
0.275244
0.276516
0.275951
0.273819
0.270304
0.265515
0.259535
0.252509
0.244673
0.236263
0.227441
0.218287
0.208784
0.198851
0.188505
0.177982
0.167720
0.158173
0.149617
0.142151
0.135843
0.130844
0.127333
0.125384
0.124846
0.125304
0.126140
0.126676
0.126239
0.124231
0.120266
0.114311
0.106739
0.098233
0.089626
0.081777
0.075421
0.070994
0.068490
0.067420
0.066859
0.065714
0.063179
0.059138
0.054227
0.049577
0.046406
0.045660
0.047818
0.052887
0.060589
0.070631
0.082772
0.096574
0.111159
0.125335
0.137998
0.148490
0.156752
0.163212
0.168461
0.173015
0.177212
0.181155
0.184737
0.187739
0.189943
0.191321
0.192139
0.192737
0.193185
0.193085
0.191654
0.187990
0.181387
0.171624
0.159107
0.144768
0.129768
0.115116
0.101404
0.088758
0.076972
0.065745
0.054888
0.044414
0.034467
0.025201
0.016758
0.009361
0.003362
-0.000897
-0.003250
-0.003759
-0.002730
-0.000725
0.001551
0.003448
0.004544
0.004719
0.004083
0.002787
0.000894
-0.001547
-0.004348
-0.007152
-0.009528
-0.011134
-0.011835
-0.011691
-0.010905
-0.009770
-0.008570
-0.007413
-0.006102
-0.004148
-0.000993
0.003724
0.010090
0.017963
0.027042
0.036909
0.047015
0.056605
0.064652
0.070016
0.071791
0.069615
0.063769
0.055061
0.044547
0.033243
0.021925
0.011021
0.000560
-0.009734
-0.020207
-0.030935
-0.041449
-0.050780
-0.057882
-0.062121
-0.063552
-0.062851
-0.060997
-0.058936
-0.057331
-0.056328
-0.055472
-0.053965
-0.051188
-0.047138
-0.042445
-0.037934
-0.034129
-0.031113
-0.028663
-0.026495
-0.024489
-0.022768
-0.021555
-0.021020
-0.021220
-0.022047
-0.023196
-0.024212
-0.024590
-0.023886
-0.021800
-0.018242
-0.013327
-0.007344
-0.000689
0.006352
0.013869
0.022356
0.032456
0.044543
0.058408
0.073256
0.088003
0.101602
0.113226
0.122340
0.128779
0.132809
0.135029
0.136111
0.136566
0.136661
0.136507
0.136256
0.136160
0.136458
0.137276
0.138621
0.140369
0.142363
0.144587
0.147143
0.149987
0.152767
0.154956
0.156141
0.156165
0.155002
0.152583
0.148801
0.143667
0.137483
0.130806
0.124204
0.117991
0.112191
0.106672
0.101231
0.095623
0.089690
0.083565
0.077678
0.072518
0.068442
0.065687
0.064414
0.064704
0.066551
0.069750
0.073757
0.077731
0.080739
0.081999
0.081105
0.078110
0.073456
0.067835
0.061988
0.056437
0.051263
0.046110
0.040479
0.034044
0.026803
0.019008
0.010963
0.002886
-0.005091
-0.012880
-0.020396
-0.027599
-0.034604
-0.041717
-0.049463
-0.058565
-0.069721
-0.083286
-0.099093
-0.116542
-0.134831
-0.153195
-0.171015
-0.187859
-0.203539
-0.218147
-0.231960
-0.245282
-0.258373
-0.271405
-0.284435
-0.297462
-0.310531
-0.323792
-0.337485
-0.351773
-0.366470
-0.380913
-0.394101
-0.405021
-0.413028
-0.417986
-0.420045
-0.419412
-0.416278
-0.410812
-0.403198
-0.393719
-0.382774
-0.370852
-0.358559
-0.346584
-0.335572
-0.326007
-0.318114
-0.311857
-0.306964
-0.302962
-0.299287
-0.295468
-0.291310
-0.286960
-0.282710
-0.278674
-0.274619
-0.270051
-0.264425
-0.257408
-0.249040
-0.239665
-0.229639
-0.219093
-0.207961
-0.196243
-0.184295
-0.172870
-0.162887
-0.155064
-0.149626
-0.146313
-0.144661
-0.144199
-0.144487
-0.145061
-0.145396
-0.145035
-0.143760
-0.141600
-0.138677
-0.135020
-0.130479
-0.124720
-0.117318
-0.107929
-0.096518
-0.083449
-0.069394
-0.055170
-0.041633
-0.029483
-0.018966
-0.009729
-0.001061
0.007677
0.016764
0.026113
0.035328
0.043766
0.050631
0.055093
0.056492
0.054534
0.049337
0.041382
0.031484
0.020722
0.010280
0.001263
-0.005474
-0.009464
-0.010630
-0.009175
-0.005496
-0.000115
0.006401
0.013516
0.020726
0.027585
0.033795
0.039303
0.044272
0.048968
0.053657
0.058547
0.063790
0.069487
0.075630
0.082090
0.088680
0.095213
0.101489
0.107246
0.112245
0.116391
0.119697
0.122177
0.123790
0.124382
0.123764
0.121958
0.119266
0.116102
0.112839
0.109817
0.107470
0.106330
0.106799
0.108916
0.112280
0.116144
0.119653
0.122118
0.123181
0.122781
0.121089
0.118526
0.115662
0.112955
0.110557
0.108378
0.106237
0.103912
0.101148
0.097741
0.093596
0.088684
0.083025
0.076743
0.070079
0.063399
0.057169
0.051855
0.047794
0.045079
0.043503
0.042671
0.042230
0.042085
0.042442
0.043639
0.045850
0.048948
0.052597
0.056424
0.060190
0.063951
0.068082
0.073126
0.079553
0.087555
0.097018
0.107660
0.119127
0.131006
0.142860
0.154274
0.164884
0.174480
0.183176
0.191512
0.200402
0.210871
0.223580
0.238494
0.254970
0.272084
0.288906
0.304664
0.318741
0.330574
0.339617
0.345343
0.347280
0.345122
0.338846
0.328797
0.315742
0.300826
0.285426
0.270898
0.258294
0.248195
0.240709
0.235535
0.232065
0.229493
0.226931
0.223588
0.218993
0.213263
0.207185
0.201927
0.198610
0.197968
0.200068
0.204267
0.209461
0.214461
0.218303
0.220419
0.220648
0.219083
0.215934
0.211440
0.205748
0.198779
0.190270
0.179976
0.167871
0.154236
0.139606
0.124569
0.109628
0.095244
0.082022
0.070730
0.062051
0.056310
0.053365
0.052665
0.053353
0.054503
0.055507
0.056371
0.057659
0.060172
0.064610
0.071286
0.079917
0.089693
0.099689
0.109320
0.118561
0.127856
0.137727
0.148383
0.159649
0.171220
0.182974
0.195096
0.207970
0.221889
0.236794
0.252224
0.267487
0.281958
0.295338
0.307749
0.319683
0.331698
0.344037
0.356480
0.368456
0.379274
0.388437
0.395886
0.401973
0.407232
0.412125
0.416820
0.421098
0.424481
0.426477
0.426698
0.424911
0.421069
0.415329
0.408043
0.399694
0.390814
0.381951
0.373570
0.365872
0.358703
0.351579
0.343889
0.335219
0.325549
0.315198
0.304701
0.294658
0.285530
0.277446
0.270192
0.263435
0.257019
0.251008
0.245584
0.240978
0.237356
0.234755
0.233167
0.232645
0.233345
0.235530
0.239449
0.245236
0.252914
0.262372
0.273316
0.285318
0.297838
0.310204
0.321730
0.331933
0.340617
0.347820
0.353744
0.358725
0.363179
0.367531
0.372156
0.377372
0.383404
0.390282
0.397811
0.405684
0.413657
0.421692
0.429943
0.438605
0.447658
0.456677
0.464913
0.471587
0.476219
0.478837
0.479875
0.479900
0.479328
0.478302
0.476787
0.474788
0.472501
0.470384
0.469140
0.469499
0.471922
0.476441
0.482775
0.490562
0.499610
0.510043
0.522236
0.536497
0.552719
0.570317
0.588490
0.606510
0.623804
0.639887
0.654317
0.666714
0.676806
0.684419
0.689440
0.691828
0.691619
0.688907
0.683886
0.676940
0.668734
0.660152
0.652091
0.645344
0.640617
0.638506
0.639400
0.643372
0.650160
0.659230
0.669888
0.681435
0.693292
0.705073
0.716522
0.727360
0.737162
0.745367
0.751379
0.754716
0.755113
0.752542
0.747177
0.739328
0.729371
0.717715
0.704826
0.691257
0.677616
0.664466
0.652262
0.641359
0.631983
0.624139
0.617592
0.611998
0.607084
0.602715
0.598750
0.594911
0.590831
0.586270
0.581209
0.575679
0.569486
0.562142
0.553029
0.541672
0.527923
0.511956
0.494164
0.475040
0.455117
0.434942
0.415034
0.395848
0.377771
0.361117
0.346109
0.332795
0.320946
0.310123
0.299843
0.289730
0.279675
0.269956
0.261195
0.254149
0.249381
0.247005
0.246697
0.247832
0.249651
0.251468
0.252806
0.253424
0.253210
0.252051
0.249778
0.246256
0.241520
0.235779
0.229322
0.222488
0.215723
0.209604
0.204730
0.201619
0.200683
0.202256
0.206559
0.213605
0.223086
0.234277
0.246100
0.257434
0.267476
0.275842
0.282478
0.287598
0.291654
0.295301
0.299331
0.304519
0.311398
0.320024
0.329943
0.340443
0.350879
0.360723
0.369470
0.376588
0.381559
0.384063
0.384200
0.382493
0.379609
0.376042
0.371965
0.367294
0.361887
0.355726
0.348985
0.342003
0.335149
0.328620
0.322305
0.315827
0.308701
0.300488
0.290910
0.279885
0.267451
0.253682
0.238662
0.222524
0.205470
0.187716
0.169470
0.151007
0.132728
0.115100
0.098581
0.083614
0.070631
0.059959
0.051658
0.045491
0.041047
0.037899
0.035679
0.034105
0.032941
0.031920
0.030657
0.028619
0.025295
0.020449
0.014111
0.006328
-0.003035
-0.014225
-0.027340
-0.042205
-0.058469
-0.075785
-0.093939
-0.112896
-0.132731
-0.153544
-0.175441
-0.198499
-0.222612
-0.247312
-0.271677
-0.294460
-0.314439
-0.330769
-0.343166
-0.351865
-0.357381
-0.360254
-0.360965
-0.359956
-0.357618
-0.354254
-0.350099
-0.345399
-0.340493
-0.335893
-0.332318
-0.330554
-0.331191
-0.334362
-0.339676
-0.346362
-0.353546
-0.360567
-0.367182
-0.373587
-0.380188
-0.387208
-0.394432
-0.401262
-0.406955
-0.410870
-0.412619
-0.412092
-0.409421
-0.404974
-0.399320
-0.393124
-0.386986
-0.381332
-0.376431
-0.372414
-0.369272
-0.366878
-0.364973
-0.363157
-0.360995
-0.358220
-0.354876
-0.351370
-0.348369
-0.346511
-0.346076
-0.346843
-0.348257
-0.349733
-0.350853
-0.351495
-0.351907
-0.352582
-0.353960
-0.356185
-0.359063
-0.362208
-0.365273
-0.368115
-0.370830
-0.373685
-0.376999
-0.380989
-0.385649
-0.390775
-0.396152
-0.401683
-0.407385
-0.413303
-0.419408
-0.425549
-0.431543
-0.437338
-0.443058
-0.448885
-0.455010
-0.461718
-0.469438
-0.478676
-0.489939
-0.503704
-0.520330
-0.539893
-0.562047
-0.586059
-0.611004
-0.635988
-0.660364
-0.683857
-0.706487
-0.728340
-0.749404
-0.769609
-0.788956
-0.807542
-0.825467
-0.842760
-0.859412
-0.875426
-0.890811
-0.905555
-0.919630
-0.933030
-0.945782
-0.957966
-0.969678
-0.980930
-0.991661
-1.001836
-1.011492
-1.020717
-1.029619
-1.038330
-1.047028
-1.055906
-1.065080
-1.074491
-1.083828
-1.092573
-1.100166
-1.106118
-1.110020
-1.111543
-1.110512
-1.106969
-1.101121
-1.093226
-1.083497
-1.071996
-1.058586
-1.043068
-1.025375
-1.005611
-0.983998
-0.960884
-0.936824
-0.912600
-0.889077
-0.866970
-0.846698
-0.828381
-0.811921
-0.797074
-0.783624
-0.771488
-0.760599
-0.750729
-0.741508
-0.732580
-0.723724
-0.714900
-0.706192
-0.697643
-0.689158
-0.680534
-0.671616
-0.662428
-0.653168
-0.644142
-0.635684
-0.628029
-0.621186
-0.614921
-0.608832
-0.602448
-0.595336
-0.587212
-0.578001
-0.567871
-0.557242
-0.546644
-0.536541
-0.527288
-0.519205
-0.512586
-0.507644
-0.504416
-0.502631
-0.501731
-0.501071
-0.500146
-0.498720
-0.496894
-0.495115
-0.494130
-0.494837
-0.497985
-0.503922
-0.512517
-0.523149
-0.534780
-0.546273
-0.556740
-0.565613
-0.572577
-0.577572
-0.580734
-0.582154
-0.581702
-0.579109
-0.574285
-0.567520
-0.559436
-0.550818
-0.542417
-0.534753
-0.527965
-0.521821
-0.515885
-0.509742
-0.503201
-0.496406
-0.489701
-0.483370
-0.477454
-0.471712
-0.465728
-0.459079
-0.451554
-0.443319
-0.434820
-0.426549
-0.418887
-0.412065
-0.406144
-0.401006
-0.396380
-0.391945
-0.387403
-0.382453
-0.376779
-0.370085
-0.362088
-0.352570
-0.341575
-0.329472
-0.316810
-0.304128
-0.291860
-0.280368
-0.269985
-0.260945
-0.253344
-0.247163
-0.242305
-0.238681
-0.236272
-0.235118
-0.235247
-0.236606
-0.238960
-0.241943
-0.245327
-0.249223
-0.253972
-0.259844
-0.266889
-0.275013
-0.284011
-0.293559
-0.303239
-0.312571
-0.321104
-0.328540
-0.334828
-0.340156
-0.344839
-0.349186
-0.353414
-0.357625
-0.361919
-0.366475
-0.371544
-0.377370
-0.384104
-0.391753
-0.400240
-0.409505
-0.419566
-0.430574
-0.442797
-0.456427
-0.471360
-0.487164
-0.503194
-0.518758
-0.533232
-0.546046
-0.556616
-0.564381
-0.568919
-0.570051
-0.567856
-0.562627
-0.554759
-0.544656
-0.532746
-0.519619
-0.506060
-0.492908
-0.480872
-0.470368
-0.461380
-0.453518
-0.446229
-0.438949
-0.431199
-0.422710
-0.413435
-0.403473
-0.392981
-0.382093
-0.370823
-0.359082
-0.346748
-0.333692
-0.319906
-0.305644
-0.291383
-0.277739
-0.265412
-0.255094
-0.247350
-0.242542
-0.240802
-0.242058
-0.246117
-0.252715
-0.261541
-0.272288
-0.284640
-0.298254
-0.312737
-0.327621
-0.342396
-0.356590
-0.369862
-0.382112
-0.393493
-0.404313
-0.414892
-0.425436
-0.435984
-0.446461
-0.456769
-0.466835
-0.476608
-0.485942
-0.494492
-0.501811
-0.507539
-0.511491
-0.513653
-0.514118
-0.512944
-0.510097
-0.505572
-0.499524
-0.492300
-0.484367
-0.476175
-0.467990
-0.459873
-0.451845
-0.444042
-0.436665
-0.429859
-0.423732
-0.418369
-0.413743
-0.409634
-0.405691
-0.401525
-0.396716
-0.390787
-0.383246
-0.373685
-0.361916
-0.348099
-0.332721
-0.316450
-0.299951
-0.283760
-0.268196
-0.253316
-0.239003
-0.225104
-0.211463
-0.197908
-0.184313
-0.170628
-0.156889
-0.143223
-0.129863
-0.117136
-0.105441
-0.095156
-0.086564
-0.079889
-0.075312
-0.072929
-0.072731
-0.074606
-0.078376
-0.083848
-0.090778
-0.098850
-0.107726
-0.117052
-0.126457
-0.135652
-0.144556
-0.153291
-0.162108
-0.171305
-0.181136
-0.191716
-0.203014
-0.214895
-0.227125
-0.239366
-0.251206
-0.262195
-0.271920
-0.280072
-0.286442
-0.290922
-0.293556
-0.294538
-0.294134
-0.292561
-0.289935
-0.286293
-0.281618
-0.275865
-0.269051
-0.261331
-0.253017
-0.244548
-0.236342
-0.228648
-0.221556
-0.215066
-0.209031
-0.203133
-0.197016
-0.190390
-0.183088
-0.175178
-0.167002
-0.159016
-0.151575
-0.144760
-0.138353
-0.131947
-0.125148
-0.117718
-0.109593
-0.100894
-0.091869
-0.082713
-0.073470
-0.064151
-0.054909
-0.046124
-0.038331
-0.032051
-0.027558
-0.024756
-0.023274
-0.022590
-0.022113
-0.021239
-0.019469
-0.016539
-0.012471
-0.007468
-0.001734
0.004601
0.011433
0.018625
0.026010
0.033343
0.040213
0.046110
0.050604
0.053478
0.054770
0.054645
0.053215
0.050421
0.046073
0.039994
0.032163
0.022800
0.012386
0.001535
-0.009235
-0.019579
-0.029240
-0.038035
-0.045913
-0.052856
-0.058756
-0.063412
-0.066605
-0.068177
-0.068065
-0.066313
-0.063098
-0.058734
-0.053620
-0.048121
-0.042470
-0.036743
-0.030984
-0.025351
-0.020127
-0.015627
-0.012119
-0.009652
-0.007921
-0.006355
-0.004275
-0.001031
0.003795
0.010204
0.017779
0.025865
0.033766
0.040870
0.046806
0.051577
0.055486
0.058946
0.062295
0.065690
0.069110
0.072441
0.075490
0.077946
0.079393
0.079380
0.077549
0.073739
0.067948
0.060212
0.050545
0.038980
0.025568
0.010375
-0.006458
-0.024682
-0.043971
-0.063945
-0.084189
-0.104263
-0.123768
-0.142452
-0.160243
-0.177187
-0.193360
-0.208839
-0.223653
-0.237691
-0.250707
-0.262469
-0.272859
-0.281899
-0.289762
-0.296691
-0.302865
-0.308294
-0.312882
-0.316531
-0.319150
-0.320597
-0.320647
-0.318999
-0.315366
-0.309530
-0.301359
-0.290840
-0.278132
-0.263615
-0.247845
-0.231443
-0.214969
-0.198852
-0.183361
-0.168614
-0.154606
-0.141274
-0.128549
-0.116326
-0.104410
-0.092554
-0.080531
-0.068184
-0.055488
-0.042575
-0.029694
-0.017117
-0.005048
0.006402
0.017202
0.027383
0.037022
0.046156
0.054744
0.062726
0.070133
0.077098
0.083758
0.090258
0.096819
0.103583
0.110448
0.117171
0.123510
0.129262
0.134345
0.138842
0.142943
0.146911
0.151087
0.155829
0.161476
0.168312
0.176524
0.186151
0.197049
0.208848
0.221016
0.233062
0.244706
0.255896
0.266731
0.277360
0.287874
0.298278
0.308469
0.318229
0.327341
0.335676
0.343174
0.349836
0.355751
0.361049
0.365869
0.370355
0.374623
0.378705
0.382527
0.385956
0.388897
0.391323
0.393309
0.395067
0.396860
0.398905
