EVENT_NAME: L_AQUILA
EVENT_ID: IT-2009-0009
EVENT_DATE_YYYYMMDD: 20090406
EVENT_TIME_HHMMSS: 013240
EVENT_LATITUDE_DEGREE: 42.3420
EVENT_LONGITUDE_DEGREE: 13.3800
EVENT_DEPTH_KM: 8.3
HYPOCENTER_REFERENCE: INGV-CNT_Seismic_Bulletin
MAGNITUDE_W: 6.1
MAGNITUDE_W_REFERENCE: INGV-CNT_Seismic_Bulletin
MAGNITUDE_L: 
MAGNITUDE_L_REFERENCE: 
FOCAL_MECHANISM: Normal faulting
NETWORK: IT
STATION_CODE: SBC
STATION_NAME: 
STATION_LATITUDE_DEGREE: 41.913158
STATION_LONGITUDE_DEGREE: 13.105518
STATION_ELEVATION_M: 668
LOCATION: 
SENSOR_DEPTH_M: 0.0
VS30_M/S: 1298
SITE_CLASSIFICATION_EC8: A
MORPHOLOGIC_CLASSIFICATION: 
EPICENTRAL_DISTANCE_KM: 52.8
EARTHQUAKE_BACKAZIMUTH_DEGREE: 205.6
DATE_TIME_FIRST_SAMPLE_YYYYMMDD_HHMMSS: 20090406_013239.000
DATE_TIME_FIRST_SAMPLE_PRECISION: seconds
SAMPLING_INTERVAL_S: 0.005000
NDATA: 14800
DURATION_S: 74.000
STREAM: HNE
UNITS: cm
INSTRUMENT: sensor = Episensor FBA ES-T [Kinemetrics] | digitizer = Etna [Kinemetrics]
INSTRUMENT_ANALOG/DIGITAL: D
INSTRUMENTAL_FREQUENCY_HZ: 
INSTRUMENTAL_DAMPING: 
FULL_SCALE_G: 
N_BIT_DIGITAL_CONVERTER: 18
PGD_CM: -0.553471
TIME_PGD_S: 24.020000
BASELINE_CORRECTION: BASELINE REMOVED
FILTER_TYPE: BUTTERWORTH
FILTER_ORDER: 2
LOW_CUT_FREQUENCY_HZ: 0.080
HIGH_CUT_FREQUENCY_HZ: 50.000
LATE/NORMAL_TRIGGERED: NT
DATABASE_VERSION: 0.5
HEADER_FORMAT: DYNA 1.2
DATA_TYPE: DISPLACEMENT
PROCESSING: manual (Paolucci et al., 2011)
DATA_TIMESTAMP_YYYYMMDD_HHMMSS: 20211011_160230.804
DATA_LICENSE: CC-BY3_0-IT (http://creativecommons.org/licenses/by/3.0/deed.en)
DATA_CITATION: Luzi L, Pacor F, Puglia R (2019). Italian Accelerometric Archive v 3.0 - Istituto Nazionale di Geofisica e Vulcanologia, Dipartimento della Protezione Civile Nazionale. doi: 10.13127/itaca.3.1
DATA_CREATOR: ITACA working group
ORIGINAL_DATA_MEDIATOR_CITATION: data obtained within the DPC-INGV data exchange agreements
ORIGINAL_DATA_MEDIATOR: Archive of Italian Department of Civil Protection
ORIGINAL_DATA_CREATOR_CITATION: Presidency Of Counsil Of Ministers-Civil Protection Department. (1972). Italian Strong Motion Network. Presidency of Counsil of Ministers - Civil Protection Department. https://doi.org/10.7914/SN/IT http://www.fdsn.org/networks/detail/IT/
ORIGINAL_DATA_CREATOR: network: IT (Italian Strong Motion Network (RAN)); owner: Presidency of Counsil of Ministers - Civil Protection Department (PCM - DPC)
USER1: 
USER2: 
USER3: 
USER4: 
USER5: 
[...]
2.668928e-01
2.675306e-01
2.681446e-01
2.687345e-01
2.693016e-01
2.698472e-01
2.703719e-01
2.708740e-01
2.713500e-01
2.717960e-01
2.722090e-01
2.725881e-01
2.729333e-01
2.732447e-01
2.735212e-01
2.737604e-01
2.739603e-01
2.741217e-01
2.742503e-01
2.743559e-01
2.744495e-01
2.745404e-01
2.746334e-01
2.747280e-01
2.748194e-01
2.749015e-01
2.749712e-01
2.750305e-01
2.750871e-01
2.751521e-01
2.752366e-01
2.753506e-01
2.755013e-01
2.756938e-01
2.759305e-01
2.762110e-01
2.765312e-01
2.768821e-01
2.772519e-01
2.776269e-01
2.779939e-01
2.783419e-01
2.786636e-01
2.789568e-01
2.792251e-01
2.794774e-01
2.797258e-01
2.799840e-01
2.802636e-01
2.805709e-01
2.809055e-01
2.812608e-01
2.816273e-01
2.819953e-01
2.823586e-01
2.827142e-01
2.830615e-01
2.833984e-01
2.837192e-01
2.840151e-01
2.842770e-01
2.844982e-01
2.846755e-01
2.848077e-01
2.848929e-01
2.849270e-01
2.849035e-01
2.848170e-01
2.846653e-01
2.844513e-01
2.841810e-01
2.838610e-01
2.834961e-01
2.830890e-01
2.826401e-01
2.821498e-01
2.816193e-01
2.810522e-01
2.804550e-01
2.798377e-01
2.792124e-01
2.785914e-01
2.779852e-01
2.774014e-01
2.768440e-01
2.763137e-01
2.758069e-01
2.753162e-01
2.748321e-01
2.743452e-01
2.738479e-01
2.733348e-01
2.728024e-01
2.722498e-01
2.716794e-01
2.710964e-01
2.705072e-01
2.699173e-01
2.693309e-01
2.687506e-01
2.681783e-01
2.676153e-01
2.670632e-01
2.665227e-01
2.659917e-01
2.654633e-01
2.649259e-01
2.643642e-01
2.637616e-01
2.631037e-01
2.623806e-01
2.615878e-01
2.607267e-01
2.598035e-01
2.588275e-01
2.578084e-01
2.567548e-01
2.556733e-01
2.545685e-01
2.534431e-01
2.522972e-01
2.511281e-01
2.499320e-01
2.487062e-01
2.474523e-01
2.461769e-01
2.448919e-01
2.436131e-01
2.423581e-01
2.411435e-01
2.399820e-01
2.388813e-01
2.378435e-01
2.368663e-01
2.359443e-01
2.350699e-01
2.342357e-01
2.334353e-01
2.326648e-01
2.319222e-01
2.312070e-01
2.305199e-01
2.298639e-01
2.292445e-01
2.286688e-01
2.281419e-01
2.276648e-01
2.272341e-01
2.268422e-01
2.264802e-01
2.261393e-01
2.258120e-01
2.254922e-01
2.251737e-01
2.248497e-01
2.245138e-01
2.241629e-01
2.238000e-01
2.234347e-01
2.230811e-01
2.227538e-01
2.224644e-01
2.222199e-01
2.220222e-01
2.218690e-01
2.217554e-01
2.216754e-01
2.216228e-01
2.215909e-01
2.215715e-01
2.215542e-01
2.215266e-01
2.214768e-01
2.213943e-01
2.212714e-01
2.211032e-01
2.208889e-01
2.206321e-01
2.203406e-01
2.200249e-01
2.196959e-01
2.193608e-01
2.190203e-01
2.186682e-01
2.182937e-01
2.178851e-01
2.174336e-01
2.169343e-01
2.163864e-01
2.157910e-01
2.151492e-01
2.144604e-01
2.137230e-01
2.129350e-01
2.120962e-01
2.112081e-01
2.102740e-01
2.092971e-01
2.082795e-01
2.072215e-01
2.061226e-01
2.049836e-01
2.038079e-01
2.026016e-01
2.013707e-01
2.001194e-01
1.988507e-01
1.975679e-01
1.962774e-01
1.949884e-01
1.937117e-01
1.924578e-01
1.912359e-01
1.900525e-01
1.889098e-01
1.878059e-01
1.867351e-01
1.856900e-01
1.846634e-01
1.836497e-01
1.826454e-01
1.816494e-01
1.806622e-01
1.796843e-01
1.787149e-01
1.777500e-01
1.767819e-01
1.758002e-01
1.747941e-01
1.737550e-01
1.726802e-01
1.715741e-01
1.704471e-01
1.693123e-01
1.681820e-01
1.670643e-01
1.659614e-01
1.648691e-01
1.637778e-01
1.626750e-01
1.615488e-01
1.603905e-01
1.591959e-01
1.579659e-01
1.567058e-01
1.554254e-01
1.541379e-01
1.528582e-01
1.516014e-01
1.503796e-01
1.492009e-01
1.480679e-01
1.469777e-01
1.459233e-01
1.448963e-01
1.438909e-01
1.429050e-01
1.419409e-01
1.410044e-01
1.401035e-01
1.392458e-01
1.384359e-01
1.376747e-01
1.369592e-01
1.362841e-01
1.356438e-01
1.350342e-01
1.344530e-01
1.338994e-01
1.333722e-01
1.328698e-01
1.323894e-01
1.319293e-01
1.314895e-01
1.310724e-01
1.306812e-01
1.303176e-01
1.299799e-01
1.296633e-01
1.293611e-01
1.290656e-01
1.287688e-01
1.284630e-01
1.281420e-01
1.278013e-01
1.274383e-01
1.270496e-01
1.266312e-01
1.261771e-01
1.256799e-01
1.251314e-01
1.245242e-01
1.238532e-01
1.231167e-01
1.223173e-01
1.214601e-01
1.205509e-01
1.195940e-01
1.185908e-01
1.175401e-01
1.164389e-01
1.152858e-01
1.140815e-01
1.128297e-01
1.115356e-01
1.102048e-01
1.088433e-01
1.074570e-01
1.060527e-01
1.046381e-01
1.032224e-01
1.018157e-01
1.004276e-01
9.906521e-02
9.773218e-02
9.642842e-02
9.515074e-02
9.389441e-02
9.265483e-02
9.142845e-02
9.021232e-02
8.900254e-02
8.779241e-02
8.657217e-02
8.533013e-02
8.405428e-02
8.273414e-02
8.136225e-02
7.993431e-02
7.844811e-02
7.690202e-02
7.529456e-02
7.362453e-02
7.189141e-02
7.009608e-02
6.824214e-02
6.633682e-02
6.439095e-02
6.241804e-02
6.043277e-02
5.844947e-02
5.648097e-02
5.453877e-02
5.263370e-02
5.077580e-02
4.897325e-02
4.723096e-02
4.554983e-02
4.392737e-02
4.236014e-02
4.084673e-02
3.938952e-02
3.799455e-02
3.667002e-02
3.542406e-02
3.426191e-02
3.318357e-02
3.218248e-02
3.124628e-02
3.035941e-02
2.950596e-02
2.867135e-02
2.784375e-02
2.701517e-02
2.618168e-02
2.534307e-02
2.450235e-02
2.366451e-02
2.283487e-02
2.201774e-02
2.121495e-02
2.042430e-02
1.963926e-02
1.885062e-02
1.804927e-02
1.722890e-02
1.638760e-02
1.552826e-02
1.465813e-02
1.378771e-02
1.292908e-02
1.209390e-02
1.129188e-02
1.053006e-02
9.812881e-03
9.142945e-03
8.521136e-03
7.946033e-03
7.413296e-03
6.915798e-03
6.444864e-03
5.992029e-03
5.550196e-03
5.113170e-03
4.674447e-03
4.226904e-03
3.763404e-03
3.277845e-03
2.766425e-03
2.228945e-03
1.670176e-03
1.100822e-03
5.368879e-04
-2.942717e-06
-5.006772e-04
-9.420845e-04
-1.318864e-03
-1.629235e-03
-1.877454e-03
-2.072634e-03
-2.226650e-03
-2.351894e-03
-2.459703e-03
-2.559937e-03
-2.661769e-03
-2.774702e-03
-2.908739e-03
-3.073584e-03
-3.277559e-03
-3.526848e-03
-3.825827e-03
-4.178558e-03
-4.590163e-03
-5.066746e-03
-5.613936e-03
-6.235214e-03
-6.930629e-03
-7.695799e-03
-8.521820e-03
-9.396674e-03
-1.030746e-02
-1.124237e-02
-1.219154e-02
-1.314659e-02
-1.409987e-02
-1.504459e-02
-1.597583e-02
-1.689205e-02
-1.779621e-02
-1.869515e-02
-1.959732e-02
-2.050980e-02
-2.143581e-02
-2.237337e-02
-2.331618e-02
-2.425558e-02
-2.518158e-02
-2.608383e-02
-2.695369e-02
-2.778627e-02
-2.858147e-02
-2.934462e-02
-3.008714e-02
-3.082665e-02
-3.158593e-02
-3.238953e-02
-3.325857e-02
-3.420655e-02
-3.523766e-02
-3.634749e-02
-3.752566e-02
-3.875906e-02
-4.003372e-02
-4.133582e-02
-4.265273e-02
-4.397418e-02
-4.529324e-02
-4.660692e-02
-4.791621e-02
-4.922564e-02
-5.054245e-02
-5.187519e-02
-5.323287e-02
-5.462448e-02
-5.605912e-02
-5.754628e-02
-5.909518e-02
-6.071255e-02
-6.240013e-02
-6.415351e-02
-6.596330e-02
-6.781816e-02
-6.970808e-02
-7.162616e-02
-7.356813e-02
-7.553002e-02
-7.750598e-02
-7.948712e-02
-8.146107e-02
-8.341211e-02
-8.532274e-02
-8.717629e-02
-8.895957e-02
-9.066505e-02
-9.229219e-02
-9.384708e-02
-9.534011e-02
-9.678296e-02
-9.818595e-02
-9.955630e-02
-1.008974e-01
-1.022087e-01
-1.034879e-01
-1.047335e-01
-1.059469e-01
-1.071321e-01
-1.082948e-01
-1.094401e-01
-1.105723e-01
-1.116935e-01
-1.128034e-01
-1.139002e-01
-1.149813e-01
-1.160447e-01
-1.170896e-01
-1.181168e-01
-1.191300e-01
-1.201355e-01
-1.211394e-01
-1.221446e-01
-1.231485e-01
-1.241432e-01
-1.251170e-01
-1.260571e-01
-1.269524e-01
-1.277961e-01
-1.285866e-01
-1.293259e-01
-1.300164e-01
-1.306596e-01
-1.312558e-01
-1.318055e-01
-1.323105e-01
-1.327730e-01
-1.331950e-01
-1.335788e-01
-1.339279e-01
-1.342485e-01
-1.345501e-01
-1.348444e-01
-1.351439e-01
-1.354615e-01
-1.358104e-01
-1.362025e-01
-1.366483e-01
-1.371559e-01
-1.377305e-01
-1.383741e-01
-1.390852e-01
-1.398581e-01
-1.406834e-01
-1.415476e-01
-1.424345e-01
-1.433270e-01
-1.442094e-01
-1.450695e-01
-1.458980e-01
-1.466883e-01
-1.474357e-01
-1.481366e-01
-1.487875e-01
-1.493839e-01
-1.499192e-01
-1.503837e-01
-1.507648e-01
-1.510472e-01
-1.512152e-01
-1.512542e-01
-1.511528e-01
-1.509058e-01
-1.505169e-01
-1.499993e-01
-1.493738e-01
-1.486651e-01
-1.478984e-01
-1.470975e-01
-1.462834e-01
-1.454743e-01
-1.446851e-01
-1.439270e-01
-1.432072e-01
-1.425303e-01
-1.419016e-01
-1.413305e-01
-1.408310e-01
-1.404198e-01
-1.401123e-01
-1.399196e-01
-1.398475e-01
-1.398968e-01
-1.400630e-01
-1.403375e-01
-1.407076e-01
-1.411588e-01
-1.416754e-01
-1.422403e-01
-1.428355e-01
-1.434441e-01
-1.440539e-01
-1.446595e-01
-1.452619e-01
-1.458661e-01
-1.464792e-01
-1.471079e-01
-1.477565e-01
-1.484264e-01
-1.491164e-01
-1.498244e-01
-1.505480e-01
-1.512857e-01
-1.520369e-01
-1.528029e-01
-1.535877e-01
-1.543987e-01
-1.552460e-01
-1.561396e-01
-1.570864e-01
-1.580881e-01
-1.591419e-01
-1.602420e-01
-1.613818e-01
-1.625548e-01
-1.637547e-01
-1.649744e-01
-1.662056e-01
-1.674374e-01
-1.686572e-01
-1.698523e-01
-1.710138e-01
-1.721378e-01
-1.732253e-01
-1.742802e-01
-1.753070e-01
-1.763082e-01
-1.772844e-01
-1.782347e-01
-1.791582e-01
-1.800542e-01
-1.809220e-01
-1.817598e-01
-1.825648e-01
-1.833353e-01
-1.840724e-01
-1.847806e-01
-1.854687e-01
-1.861484e-01
-1.868329e-01
-1.875356e-01
-1.882680e-01
-1.890391e-01
-1.898552e-01
-1.907210e-01
-1.916407e-01
-1.926189e-01
-1.936615e-01
-1.947753e-01
-1.959665e-01
-1.972391e-01
-1.985931e-01
-2.000236e-01
-2.015215e-01
-2.030737e-01
-2.046658e-01
-2.062846e-01
-2.079205e-01
-2.095679e-01
-2.112234e-01
-2.128847e-01
-2.145497e-01
-2.162167e-01
-2.178824e-01
-2.195418e-01
-2.211873e-01
-2.228094e-01
-2.243980e-01
-2.259425e-01
-2.274332e-01
-2.288630e-01
-2.302276e-01
-2.315262e-01
-2.327598e-01
-2.339306e-01
-2.350414e-01
-2.360960e-01
-2.371000e-01
-2.380616e-01
-2.389915e-01
-2.399031e-01
-2.408106e-01
-2.417265e-01
-2.426602e-01
-2.436173e-01
-2.445999e-01
-2.456073e-01
-2.466359e-01
-2.476797e-01
-2.487309e-01
-2.497805e-01
-2.508198e-01
-2.518416e-01
-2.528413e-01
-2.538175e-01
-2.547716e-01
-2.557054e-01
-2.566208e-01
-2.575191e-01
-2.584012e-01
-2.592679e-01
-2.601203e-01
-2.609595e-01
-2.617859e-01
-2.625993e-01
-2.633993e-01
-2.641861e-01
-2.649622e-01
-2.657321e-01
-2.665023e-01
-2.672807e-01
-2.680759e-01
-2.688967e-01
-2.697522e-01
-2.706522e-01
-2.716073e-01
-2.726286e-01
-2.737263e-01
-2.749074e-01
-2.761732e-01
-2.775186e-01
-2.789339e-01
-2.804064e-01
-2.819239e-01
-2.834765e-01
-2.850574e-01
-2.866628e-01
-2.882901e-01
-2.899363e-01
-2.915976e-01
-2.932690e-01
-2.949461e-01
-2.966270e-01
-2.983124e-01
-3.000042e-01
-3.017036e-01
-3.034094e-01
-3.051171e-01
-3.068182e-01
-3.085008e-01
-3.101502e-01
-3.117500e-01
-3.132849e-01
-3.147433e-01
-3.161195e-01
-3.174141e-01
-3.186335e-01
-3.197879e-01
-3.208884e-01
-3.219447e-01
-3.229636e-01
-3.239486e-01
-3.249007e-01
-3.258198e-01
-3.267060e-01
-3.275597e-01
-3.283830e-01
-3.291791e-01
-3.299515e-01
-3.307036e-01
-3.314393e-01
-3.321635e-01
-3.328828e-01
-3.336048e-01
-3.343361e-01
-3.350793e-01
-3.358317e-01
-3.365854e-01
-3.373286e-01
-3.380487e-01
-3.387352e-01
-3.393816e-01
-3.399857e-01
-3.405494e-01
-3.410785e-01
-3.415814e-01
-3.420684e-01
-3.425505e-01
-3.430377e-01
-3.435369e-01
-3.440519e-01
-3.445845e-01
-3.451370e-01
-3.457139e-01
-3.463216e-01
-3.469664e-01
-3.476520e-01
-3.483778e-01
-3.491388e-01
-3.499269e-01
-3.507334e-01
-3.515508e-01
-3.523734e-01
-3.531988e-01
-3.540265e-01
-3.548577e-01
-3.556960e-01
-3.565474e-01
-3.574192e-01
-3.583197e-01
-3.592566e-01
-3.602351e-01
-3.612569e-01
-3.623203e-01
-3.634220e-01
-3.645590e-01
-3.657294e-01
-3.669323e-01
-3.681665e-01
-3.694312e-01
-3.707259e-01
-3.720512e-01
-3.734089e-01
-3.748019e-01
-3.762349e-01
-3.777139e-01
-3.792471e-01
-3.808450e-01
-3.825197e-01
-3.842850e-01
-3.861547e-01
-3.881414e-01
-3.902552e-01
-3.925021e-01
-3.948816e-01
-3.973865e-01
-4.000037e-01
-4.027165e-01
-4.055070e-01
-4.083563e-01
-4.112451e-01
-4.141545e-01
-4.170679e-01
-4.199727e-01
-4.228613e-01
-4.257312e-01
-4.285847e-01
-4.314274e-01
-4.342662e-01
-4.371075e-01
-4.399542e-01
-4.428064e-01
-4.456630e-01
-4.485251e-01
-4.513984e-01
-4.542939e-01
-4.572253e-01
-4.602056e-01
-4.632440e-01
-4.663439e-01
-4.695027e-01
-4.727138e-01
-4.759680e-01
-4.792542e-01
-4.825591e-01
-4.858667e-01
-4.891594e-01
-4.924188e-01
-4.956278e-01
-4.987721e-01
-5.018425e-01
-5.048350e-01
-5.077507e-01
-5.105924e-01
-5.133616e-01
-5.160558e-01
-5.186684e-01
-5.211902e-01
-5.236130e-01
-5.259316e-01
-5.281444e-01
-5.302530e-01
-5.322612e-01
-5.341734e-01
-5.359933e-01
-5.377220e-01
-5.393578e-01
-5.408974e-01
-5.423371e-01
-5.436737e-01
-5.449034e-01
-5.460218e-01
-5.470252e-01
-5.479125e-01
-5.486864e-01
-5.493543e-01
-5.499275e-01
-5.504205e-01
-5.508493e-01
-5.512295e-01
-5.515736e-01
-5.518898e-01
-5.521823e-01
-5.524517e-01
-5.526957e-01
-5.529102e-01
-5.530909e-01
-5.532356e-01
-5.533442e-01
-5.534190e-01
-5.534615e-01
-5.534712e-01
-5.534443e-01
-5.533734e-01
-5.532468e-01
-5.530490e-01
-5.527613e-01
-5.523636e-01
-5.518380e-01
-5.511717e-01
-5.503588e-01
-5.494017e-01
-5.483107e-01
-5.471032e-01
-5.458008e-01
-5.444263e-01
-5.429991e-01
-5.415315e-01
-5.400281e-01
-5.384869e-01
-5.369023e-01
-5.352679e-01
-5.335780e-01
-5.318303e-01
-5.300262e-01
-5.281702e-01
-5.262689e-01
-5.243301e-01
-5.223612e-01
-5.203677e-01
-5.183521e-01
-5.163138e-01
-5.142490e-01
-5.121506e-01
-5.100099e-01
-5.078183e-01
-5.055681e-01
-5.032540e-01
-5.008727e-01
-4.984236e-01
-4.959099e-01
-4.933390e-01
-4.907222e-01
-4.880731e-01
-4.854061e-01
-4.827352e-01
-4.800709e-01
-4.774200e-01
-4.747853e-01
-4.721672e-01
-4.695643e-01
-4.669741e-01
-4.643926e-01
-4.618132e-01
-4.592278e-01
-4.566279e-01
-4.540062e-01
-4.513599e-01
-4.486912e-01
-4.460067e-01
-4.433146e-01
-4.406231e-01
-4.379394e-01
-4.352702e-01
-4.326224e-01
-4.300025e-01
-4.274166e-01
-4.248692e-01
-4.223634e-01
-4.199026e-01
-4.174914e-01
-4.151365e-01
-4.128452e-01
-4.106230e-01
-4.084729e-01
-4.063951e-01
-4.043883e-01
-4.024508e-01
-4.005806e-01
-3.987753e-01
-3.970304e-01
-3.953378e-01
-3.936865e-01
-3.920637e-01
-3.904563e-01
-3.888511e-01
-3.872367e-01
-3.856041e-01
-3.839467e-01
-3.822613e-01
-3.805474e-01
-3.788059e-01
-3.770374e-01
-3.752413e-01
-3.734155e-01
-3.715568e-01
-3.696617e-01
-3.677268e-01
-3.657497e-01
-3.637300e-01
-3.616687e-01
-3.595677e-01
-3.574292e-01
-3.552570e-01
-3.530575e-01
-3.508413e-01
-3.486240e-01
-3.464258e-01
-3.442685e-01
-3.421725e-01
-3.401535e-01
-3.382207e-01
-3.363768e-01
-3.346209e-01
-3.329510e-01
-3.313680e-01
-3.298768e-01
-3.284850e-01
-3.272000e-01
-3.260270e-01
-3.249670e-01
-3.240175e-01
-3.231732e-01
-3.224279e-01
-3.217738e-01
-3.212021e-01
-3.207023e-01
-3.202619e-01
-3.198680e-01
-3.195083e-01
-3.191724e-01
-3.188533e-01
-3.185467e-01
-3.182506e-01
-3.179641e-01
-3.176867e-01
-3.174177e-01
-3.171560e-01
-3.169000e-01
-3.166473e-01
-3.163951e-01
-3.161410e-01
-3.158826e-01
-3.156185e-01
-3.153496e-01
-3.150793e-01
-3.148123e-01
-3.145532e-01
-3.143052e-01
-3.140694e-01
-3.138450e-01
-3.136294e-01
-3.134187e-01
-3.132083e-01
-3.129931e-01
-3.127683e-01
-3.125296e-01
-3.122738e-01
-3.119972e-01
-3.116947e-01
-3.113587e-01
-3.109805e-01
-3.105513e-01
-3.100632e-01
-3.095104e-01
-3.088900e-01
-3.082019e-01
-3.074463e-01
-3.066220e-01
-3.057249e-01
-3.047488e-01
-3.036872e-01
-3.025350e-01
-3.012895e-01
-2.999509e-01
-2.985214e-01
-2.970053e-01
-2.954078e-01
-2.937362e-01
-2.919994e-01
-2.902080e-01
-2.883738e-01
-2.865086e-01
-2.846236e-01
-2.827307e-01
-2.808412e-01
-2.789656e-01
-2.771125e-01
-2.752883e-01
-2.734972e-01
-2.717429e-01
-2.700291e-01
-2.683598e-01
-2.667375e-01
-2.651615e-01
-2.636266e-01
-2.621226e-01
-2.606349e-01
-2.591472e-01
-2.576437e-01
-2.561116e-01
-2.545419e-01
-2.529282e-01
-2.512648e-01
-2.495469e-01
-2.477712e-01
-2.459388e-01
-2.440565e-01
-2.421347e-01
-2.401848e-01
-2.382153e-01
-2.362320e-01
-2.342386e-01
-2.322392e-01
-2.302391e-01
-2.282458e-01
-2.262671e-01
-2.243087e-01
-2.223723e-01
-2.204554e-01
-2.185534e-01
-2.166625e-01
-2.147812e-01
-2.129117e-01
-2.110590e-01
-2.092292e-01
-2.074270e-01
-2.056549e-01
-2.039130e-01
-2.022012e-01
-2.005208e-01
-1.988750e-01
-1.972691e-01
-1.957087e-01
-1.941989e-01
-1.927426e-01
-1.913394e-01
-1.899844e-01
-1.886682e-01
-1.873791e-01
-1.861065e-01
-1.848411e-01
-1.835761e-01
-1.823048e-01
-1.810211e-01
-1.797192e-01
-1.783946e-01
-1.770435e-01
-1.756620e-01
-1.742442e-01
-1.727821e-01
-1.712656e-01
-1.696859e-01
-1.680374e-01
-1.663183e-01
-1.645307e-01
-1.626790e-01
-1.607679e-01
-1.588005e-01
-1.567764e-01
-1.546929e-01
-1.525467e-01
-1.503358e-01
-1.480609e-01
-1.457238e-01
-1.433263e-01
-1.408683e-01
-1.383482e-01
-1.357630e-01
-1.331110e-01
-1.303929e-01
-1.276118e-01
-1.247722e-01
-1.218784e-01
-1.189336e-01
-1.159395e-01
-1.128972e-01
-1.098070e-01
-1.066692e-01
-1.034844e-01
-1.002539e-01
-9.697986e-02
-9.366568e-02
-9.031671e-02
-8.694035e-02
-8.354569e-02
-8.014239e-02
-7.673950e-02
-7.334452e-02
-6.996279e-02
-6.659751e-02
-6.324987e-02
-5.991919e-02
-5.660257e-02
-5.329442e-02
-4.998657e-02
-4.666995e-02
-4.333763e-02
-3.998699e-02
-3.661984e-02
-3.324099e-02
-2.985663e-02
-2.647304e-02
-2.309544e-02
-1.972704e-02
-1.636857e-02
-1.301857e-02
-9.673911e-03
-6.330345e-03
-2.982960e-03
3.733482e-04
3.743166e-03
7.129616e-03
1.053367e-02
1.395415e-02
1.738811e-02
2.083089e-02
2.427597e-02
2.771519e-02
3.114036e-02
3.454560e-02
3.792941e-02
4.129572e-02
4.465340e-02
4.801455e-02
5.139234e-02
5.479930e-02
5.824665e-02
6.174391e-02
6.529846e-02
6.891510e-02
7.259625e-02
7.634316e-02
8.015716e-02
8.404034e-02
8.799578e-02
9.202711e-02
9.613777e-02
1.003309e-01
1.046096e-01
1.089766e-01
1.134336e-01
1.179796e-01
1.226109e-01
1.273209e-01
1.321012e-01
1.369423e-01
1.418330e-01
1.467617e-01
1.517165e-01
1.566857e-01
1.616579e-01
1.666223e-01
1.715698e-01
1.764934e-01
1.813884e-01
1.862516e-01
1.910803e-01
1.958724e-01
2.006256e-01
2.053376e-01
2.100061e-01
2.146276e-01
2.191977e-01
2.237112e-01
2.281634e-01
2.325495e-01
2.368646e-01
2.411021e-01
2.452534e-01
2.493086e-01
2.532582e-01
2.570959e-01
2.608202e-01
2.644355e-01
2.679519e-01
2.713830e-01
2.747438e-01
2.780475e-01
2.813051e-01
2.845261e-01
2.877191e-01
2.908917e-01
2.940498e-01
