EVENT_NAME: L_AQUILA
EVENT_ID: IT-2009-0009
EVENT_DATE_YYYYMMDD: 20090406
EVENT_TIME_HHMMSS: 013240
EVENT_LATITUDE_DEGREE: 42.3420
EVENT_LONGITUDE_DEGREE: 13.3800
EVENT_DEPTH_KM: 8.3
HYPOCENTER_REFERENCE: INGV-CNT_Seismic_Bulletin
MAGNITUDE_W: 6.1
MAGNITUDE_W_REFERENCE: INGV-CNT_Seismic_Bulletin
MAGNITUDE_L: 
MAGNITUDE_L_REFERENCE: 
FOCAL_MECHANISM: Normal faulting
NETWORK: IT
STATION_CODE: SBC
STATION_NAME: 
STATION_LATITUDE_DEGREE: 41.913158
STATION_LONGITUDE_DEGREE: 13.105518
STATION_ELEVATION_M: 668
LOCATION: 
SENSOR_DEPTH_M: 0.0
VS30_M/S: 1298
SITE_CLASSIFICATION_EC8: A
MORPHOLOGIC_CLASSIFICATION: 
EPICENTRAL_DISTANCE_KM: 52.8
EARTHQUAKE_BACKAZIMUTH_DEGREE: 205.6
DATE_TIME_FIRST_SAMPLE_YYYYMMDD_HHMMSS: 
DATE_TIME_FIRST_SAMPLE_PRECISION: 
SAMPLING_INTERVAL_S: 
NDATA: 105
DURATION_S: 
STREAM: HNN
UNITS: cm/s^2
INSTRUMENT: sensor = Episensor FBA ES-T [Kinemetrics] | digitizer = Etna [Kinemetrics]
INSTRUMENT_ANALOG/DIGITAL: D
INSTRUMENTAL_FREQUENCY_HZ: 
INSTRUMENTAL_DAMPING: 
FULL_SCALE_G: 
N_BIT_DIGITAL_CONVERTER: 18
PGA_CM/S^2: 6.647219
TIME_PGA_S: 
BASELINE_CORRECTION: BASELINE REMOVED
FILTER_TYPE: BUTTERWORTH
FILTER_ORDER: 2
LOW_CUT_FREQUENCY_HZ: 0.080
HIGH_CUT_FREQUENCY_HZ: 50.000
LATE/NORMAL_TRIGGERED: NT
DATABASE_VERSION: 0.5
HEADER_FORMAT: DYNA 1.2
DATA_TYPE: ACCELERATION RESPONSE SPECTRUM
PROCESSING: manual (Paolucci et al., 2011)
DATA_TIMESTAMP_YYYYMMDD_HHMMSS: 20211011_160232.307
DATA_LICENSE: CC-BY3_0-IT (http://creativecommons.org/licenses/by/3.0/deed.en)
DATA_CITATION: Luzi L, Pacor F, Puglia R (2019). Italian Accelerometric Archive v 3.0 - Istituto Nazionale di Geofisica e Vulcanologia, Dipartimento della Protezione Civile Nazionale. doi: 10.13127/itaca.3.1
DATA_CREATOR: ITACA working group
ORIGINAL_DATA_MEDIATOR_CITATION: data obtained within the DPC-INGV data exchange agreements
ORIGINAL_DATA_MEDIATOR: Archive of Italian Department of Civil Protection
ORIGINAL_DATA_CREATOR_CITATION: Presidency Of Counsil Of Ministers-Civil Protection Department. (1972). Italian Strong Motion Network. Presidency of Counsil of Ministers - Civil Protection Department. https://doi.org/10.7914/SN/IT http://www.fdsn.org/networks/detail/IT/
ORIGINAL_DATA_CREATOR: network: IT (Italian Strong Motion Network (RAN)); owner: Presidency of Counsil of Ministers - Civil Protection Department (PCM - DPC)
USER1: 
USER2: 
USER3: 
USER4: 
USER5: 
    0.010000     6.649275
    0.020000     6.676848
    0.022000     6.676364
    0.025000     6.664176
    0.029000     6.659275
    0.030000     6.696346
    0.032000     6.762671
    0.035001     6.745630
    0.036000     6.768079
    0.040000     6.848999
    0.041999     6.874697
    0.044001     6.961352
    0.045000     7.216297
    0.046000     7.505354
    0.048001     7.753929
    0.050000     7.855735
    0.054999     8.577763
    0.059999     8.534513
    0.064998     9.680056
    0.067002     9.977374
    0.069999    11.599325
    0.075002    13.292750
    0.080000    13.252880
    0.084998    13.461837
    0.090001    15.677252
    0.095003    18.498678
    0.100000    18.244566
    0.109999    15.078444
    0.120005    19.081266
    0.130005    20.196173
    0.132996    20.351578
    0.139997    18.097771
    0.149993    23.703432
    0.160000    17.728264
    0.170010    14.789471
    0.179986    16.303267
    0.190006    15.128042
    0.200000    15.256948
    0.220022    16.815361
    0.239981    15.646484
    0.250000    15.277967
    0.260010    17.482933
    0.280034    21.380062
    0.290023    19.989151
    0.300030    17.850258
    0.320000    18.674494
    0.340020    18.694963
    0.350017    17.062168
    0.359971    15.931032
    0.379939    14.217336
    0.400000    11.789125
    0.419992    15.062297
    0.439947    16.875862
    0.450045    16.442362
    0.459982    16.745176
    0.480077    20.878975
    0.500000    21.162266
    0.550055    16.312351
    0.599880    14.508287
    0.650195    15.716030
    0.667111    17.363153
    0.699790    16.164745
    0.750188    14.204082
    0.800000    14.325202
    0.850340    14.498435
    0.900090    13.711380
    0.949668    14.487995
    1.000000    14.125384
    1.100110    16.745886
    1.200480    12.894292
    1.300390     9.953967
    1.400560     9.318605
    1.499250     7.573543
    1.600000     6.139884
    1.700680     5.849979
    1.798561     4.611446
    1.901141     3.414456
    2.000000     3.291140
    2.197802     2.908867
    2.398082     3.158848
    2.500000     3.347475
    2.597403     3.547481
    2.801121     4.172055
    3.003003     4.438890
    3.205128     4.488175
    3.401361     4.530682
    3.496503     4.549720
    3.597122     4.384255
    3.802281     3.966721
    4.000000     2.972468
    4.201681     2.078805
    4.405286     1.996599
    4.608295     1.983639
    4.807692     1.928783
    5.000000     2.011074
    5.494505     2.090684
    5.988024     1.832233
    6.493506     1.589601
    6.993007     1.124647
    7.518797     0.779351
    8.000000     0.614493
    8.474576     0.575166
    9.009009     0.564294
    9.523809     0.536208
   10.000000     0.495702
