EVENT_NAME: L_AQUILA
EVENT_ID: IT-2009-0009
EVENT_DATE_YYYYMMDD: 20090406
EVENT_TIME_HHMMSS: 013240
EVENT_LATITUDE_DEGREE: 42.3420
EVENT_LONGITUDE_DEGREE: 13.3800
EVENT_DEPTH_KM: 8.3
HYPOCENTER_REFERENCE: INGV-CNT_Seismic_Bulletin
MAGNITUDE_W: 6.1
MAGNITUDE_W_REFERENCE: INGV-CNT_Seismic_Bulletin
MAGNITUDE_L: 
MAGNITUDE_L_REFERENCE: 
FOCAL_MECHANISM: Normal faulting
NETWORK: IT
STATION_CODE: SBC
STATION_NAME: 
STATION_LATITUDE_DEGREE: 41.913158
STATION_LONGITUDE_DEGREE: 13.105518
STATION_ELEVATION_M: 668
LOCATION: 
SENSOR_DEPTH_M: 0.0
VS30_M/S: 1298
SITE_CLASSIFICATION_EC8: A
MORPHOLOGIC_CLASSIFICATION: 
EPICENTRAL_DISTANCE_KM: 52.8
EARTHQUAKE_BACKAZIMUTH_DEGREE: 205.6
DATE_TIME_FIRST_SAMPLE_YYYYMMDD_HHMMSS: 20090406_013239.000
DATE_TIME_FIRST_SAMPLE_PRECISION: seconds
SAMPLING_INTERVAL_S: 0.005000
NDATA: 14800
DURATION_S: 74.000
STREAM: HNE
UNITS: cm/s^2
INSTRUMENT: sensor = Episensor FBA ES-T [Kinemetrics] | digitizer = Etna [Kinemetrics]
INSTRUMENT_ANALOG/DIGITAL: D
INSTRUMENTAL_FREQUENCY_HZ: 
INSTRUMENTAL_DAMPING: 
FULL_SCALE_G: 
N_BIT_DIGITAL_CONVERTER: 18
PGA_CM/S^2: 5.861488
TIME_PGA_S: 24.065000
BASELINE_CORRECTION: BASELINE REMOVED
FILTER_TYPE: BUTTERWORTH
FILTER_ORDER: 2
LOW_CUT_FREQUENCY_HZ: 0.080
HIGH_CUT_FREQUENCY_HZ: 50.000
LATE/NORMAL_TRIGGERED: NT
DATABASE_VERSION: 0.5
HEADER_FORMAT: DYNA 1.2
DATA_TYPE: ACCELERATION
PROCESSING: manual (Paolucci et al., 2011)
DATA_TIMESTAMP_YYYYMMDD_HHMMSS: 20211011_160230.684
DATA_LICENSE: CC-BY3_0-IT (http://creativecommons.org/licenses/by/3.0/deed.en)
DATA_CITATION: Luzi L, Pacor F, Puglia R (2019). Italian Accelerometric Archive v 3.0 - Istituto Nazionale di Geofisica e Vulcanologia, Dipartimento della Protezione Civile Nazionale. doi: 10.13127/itaca.3.1
DATA_CREATOR: ITACA working group
ORIGINAL_DATA_MEDIATOR_CITATION: data obtained within the DPC-INGV data exchange agreements
ORIGINAL_DATA_MEDIATOR: Archive of Italian Department of Civil Protection
ORIGINAL_DATA_CREATOR_CITATION: Presidency Of Counsil Of Ministers-Civil Protection Department. (1972). Italian Strong Motion Network. Presidency of Counsil of Ministers - Civil Protection Department. https://doi.org/10.7914/SN/IT http://www.fdsn.org/networks/detail/IT/
ORIGINAL_DATA_CREATOR: network: IT (Italian Strong Motion Network (RAN)); owner: Presidency of Counsil of Ministers - Civil Protection Department (PCM - DPC)
USER1: 
USER2: 
USER3: 
USER4: 
USER5: 
[...]
-0.802660
-0.752187
-0.624296
-0.452107
-0.242453
0.000712
0.235046
0.385561
0.434787
0.454907
0.531498
0.698646
0.912305
1.069812
1.083200
0.929132
0.650227
0.336260
0.080750
-0.082000
-0.187766
-0.288124
-0.422032
-0.612844
-0.851833
-1.092598
-1.257376
-1.258228
-1.055783
-0.708649
-0.345186
-0.086352
0.027170
0.043907
0.028268
0.025138
0.079175
0.222008
0.462491
0.781490
1.098275
1.297339
1.328508
1.228910
1.040819
0.781453
0.478219
0.170225
-0.093517
-0.254727
-0.285213
-0.205975
-0.062472
0.086740
0.176150
0.168052
0.077217
-0.024150
-0.054721
-0.019409
-0.001598
-0.080439
-0.287006
-0.578738
-0.835275
-0.908285
-0.716276
-0.294272
0.224566
0.657857
0.875262
0.869878
0.723857
0.537262
0.391599
0.336350
0.380184
0.507387
0.694570
0.902520
1.059876
1.092155
0.981022
0.765434
0.522944
0.355400
0.339161
0.474785
0.682238
0.850725
0.881694
0.702477
0.313582
-0.180715
-0.627806
-0.903053
-0.953045
-0.795625
-0.483515
-0.065125
0.415625
0.875044
1.191031
1.267285
1.076419
0.673940
0.184274
-0.269768
-0.628058
-0.877836
-1.034153
-1.125794
-1.157713
-1.119224
-1.002604
-0.789648
-0.478005
-0.121262
0.211896
0.503508
0.774669
1.040433
1.288692
1.476339
1.540598
1.442288
1.205276
0.892446
0.570256
0.295837
0.112476
0.039161
0.047150
0.092273
0.165564
0.283703
0.450584
0.631059
0.768273
0.804760
0.698909
0.456839
0.120511
-0.253599
-0.590467
-0.807334
-0.834136
-0.652703
-0.325931
0.030715
0.309202
0.459579
0.502327
0.503724
0.523744
0.583823
0.683671
0.809795
0.937547
1.029339
1.034761
0.936476
0.782625
0.651361
0.585119
0.569761
0.568878
0.553087
0.502673
0.383493
0.153026
-0.181310
-0.536881
-0.796885
-0.864085
-0.683860
-0.286025
0.189212
0.570933
0.748409
0.724425
0.608201
0.499755
0.420243
0.338417
0.195409
-0.049618
-0.375583
-0.714090
-0.994271
-1.183070
-1.284477
-1.295787
-1.206391
-1.052189
-0.916471
-0.863311
-0.894990
-0.969412
-1.033145
-1.041077
-0.974892
-0.850174
-0.715536
-0.638649
-0.658652
-0.747867
-0.826270
-0.823036
-0.730427
-0.597066
-0.493646
-0.466634
-0.500193
-0.558131
-0.629182
-0.708489
-0.765968
-0.722154
-0.491111
-0.069967
0.431466
0.850920
1.060022
1.000083
0.681990
0.166754
-0.442531
-1.013580
-1.444772
-1.696860
-1.777444
-1.702292
-1.472897
-1.111564
-0.696643
-0.346950
-0.147562
-0.088292
-0.075134
0.031600
0.351197
0.899998
1.574396
2.195077
2.562729
2.547740
2.176438
1.587599
0.917214
0.266555
-0.280360
-0.657198
-0.832974
-0.841576
-0.757180
-0.619624
-0.428300
-0.199257
0.013677
0.148419
0.179387
0.129570
0.038502
-0.062462
-0.162990
-0.274311
-0.394214
-0.490494
-0.522501
-0.465884
-0.332410
-0.156944
0.020994
0.135783
0.091454
-0.172010
-0.609407
-1.095553
-1.500882
-1.737214
-1.774565
-1.620793
-1.295142
-0.843575
-0.346323
0.104578
0.427014
0.580803
0.590826
0.527474
0.449811
0.369631
0.288091
0.226162
0.211050
0.268754
0.399267
0.551876
0.660288
0.696700
0.691829
0.730326
0.899476
1.205451
1.557988
1.811998
1.830217
1.571136
1.097313
0.508747
-0.098918
-0.650806
-1.078203
-1.315143
-1.338678
-1.190181
-0.942456
-0.643565
-0.309062
0.051260
0.417840
0.749176
0.986665
1.071212
0.967328
0.673774
0.215930
-0.346773
-0.935009
-1.468539
-1.859680
-2.037889
-1.989970
-1.758044
-1.415793
-1.053159
-0.757683
-0.609884
-0.680608
-0.986954
-1.445533
-1.889519
-2.158029
-2.162057
-1.882292
-1.366927
-0.717360
-0.049647
0.525497
0.909385
1.039453
0.929189
0.667156
0.363589
0.105410
-0.057044
-0.112163
-0.086191
-0.014918
0.102827
0.294181
0.551773
0.823296
1.058537
1.242127
1.367532
1.399654
1.307427
1.114634
0.894548
0.722702
0.614926
0.512081
0.342277
0.088200
-0.213411
-0.502642
-0.724386
-0.869372
-0.950339
-0.962148
-0.917078
-0.856556
-0.837447
-0.903169
-1.042979
-1.203433
-1.317325
-1.356346
-1.353642
-1.355424
-1.397504
-1.488079
-1.572872
-1.540871
-1.312559
-0.920153
-0.476742
-0.110249
0.083490
0.064516
-0.128738
-0.369682
-0.500757
-0.412467
-0.104902
0.329881
0.784607
1.176708
1.471103
1.668007
1.769467
1.755663
1.581976
1.234099
0.752109
0.207115
-0.318632
-0.759118
-1.053524
-1.139154
-0.993558
-0.644676
-0.151308
0.391352
0.853220
1.108819
1.091263
0.830941
0.442938
0.066513
-0.193450
-0.304905
-0.333251
-0.414431
-0.645429
-0.997786
-1.358785
-1.625200
-1.757644
-1.805479
-1.877632
-2.048151
-2.298363
-2.525666
-2.605216
-2.492075
-2.250404
-1.989563
-1.793713
-1.692538
-1.667382
-1.659182
-1.605896
-1.467400
-1.202970
-0.802911
-0.319306
0.171267
0.593040
0.893977
1.059672
1.081087
0.940094
0.645391
0.262545
-0.112941
-0.415050
-0.632518
-0.771248
-0.808015
-0.712448
-0.502731
-0.249088
-0.025600
0.136995
0.246431
0.316363
0.373292
0.437855
0.465907
0.374444
0.106142
-0.357682
-0.975796
-1.634381
-2.208008
-2.611736
-2.790052
-2.730331
-2.480315
-2.115644
-1.723951
-1.381234
-1.115357
-0.927997
-0.826351
-0.824336
-0.924290
-1.080047
-1.185156
-1.128356
-0.858764
-0.383915
0.249334
0.952476
1.612219
2.126303
2.431438
2.517681
2.423927
2.204125
1.909580
1.604166
1.353903
1.193941
1.117416
1.096145
1.124545
1.240908
1.468380
1.744797
1.951532
1.995396
1.850545
1.557074
1.195390
0.842891
0.545443
0.298030
0.051818
-0.220391
-0.474999
-0.600028
-0.480208
-0.093562
0.467215
1.049710
1.517965
1.795618
1.870997
1.781006
1.583225
1.342782
1.096466
0.829159
0.501187
0.081691
-0.408282
-0.892628
-1.304873
-1.619197
-1.810716
-1.842301
-1.698903
-1.391975
-0.965384
-0.531659
-0.245526
-0.217072
-0.462701
-0.896586
-1.362038
-1.718537
-1.908088
-1.947005
-1.899073
-1.856888
-1.878620
-1.947973
-2.017362
-2.036827
-1.971423
-1.840739
-1.709485
-1.630172
-1.615501
-1.633805
-1.606529
-1.464841
-1.227012
-0.985217
-0.812782
-0.698389
-0.559620
-0.311386
0.059017
0.490400
0.915162
1.282383
1.536113
1.630481
1.550808
1.323249
1.026171
0.742376
0.516133
0.376144
0.331856
0.351398
0.374938
0.336946
0.178895
-0.126291
-0.542343
-0.979104
-1.317133
-1.429455
-1.252184
-0.836768
-0.311311
0.178397
0.505874
0.593186
0.423029
0.038854
-0.458187
-0.936365
-1.285397
-1.449266
-1.418479
-1.202616
-0.813965
-0.285258
0.317666
0.910528
1.403120
1.722716
1.828788
1.713016
1.428322
1.099876
0.861821
0.782261
0.869148
1.104664
1.425368
1.725335
1.914391
1.947766
1.828274
1.614263
1.393412
1.228336
1.136781
1.098957
1.063233
0.986087
0.883726
0.810097
0.813102
0.907561
1.036325
1.100973
1.038413
0.846792
0.572509
0.266713
-0.049410
-0.358501
-0.613246
-0.781283
-0.898338
-1.023451
-1.192105
-1.425512
-1.723483
-2.050833
-2.349103
-2.554843
-2.615840
-2.518999
-2.311666
-2.079935
-1.907810
-1.849000
-1.904943
-2.013896
-2.081782
-2.044992
-1.901356
-1.692657
-1.464529
-1.232463
-0.988373
-0.721108
-0.412240
-0.044747
0.361116
0.742207
1.028989
1.175243
1.170512
1.043275
0.853764
0.670376
0.527917
0.409922
0.253811
-0.013489
-0.404662
-0.872205
-1.352420
-1.771394
-2.070000
-2.241709
-2.331092
-2.394858
-2.455361
-2.502543
-2.523643
-2.488439
-2.344358
-2.055317
-1.621733
-1.081714
-0.494444
0.078537
0.592362
1.051802
1.485172
1.887144
2.213795
2.410363
2.446204
2.347330
2.208896
2.152553
2.248372
2.489277
2.817933
3.142558
3.352579
3.352211
3.090352
2.595039
1.973634
1.336806
0.753444
0.280229
-0.038902
-0.196502
-0.204725
-0.084405
0.115116
0.327880
0.500441
0.573877
0.485324
0.224631
-0.143980
-0.508795
-0.760574
-0.837033
-0.721711
-0.431829
-0.011458
0.471825
0.937737
1.326460
1.607900
1.785925
1.889574
1.925043
1.868261
1.694657
1.409559
1.062523
0.723967
0.440104
0.192285
-0.067932
-0.352758
-0.638269
-0.882386
-1.034436
-1.042406
-0.851549
-0.423394
0.216800
0.964131
1.683844
2.253086
2.585104
2.656347
2.486086
2.121581
1.646535
1.150850
0.697458
0.302948
-0.063887
-0.444044
-0.844180
-1.232308
-1.565184
-1.812600
-1.987545
-2.150136
-2.354928
-2.599125
-2.824292
-2.963484
-2.965514
-2.790205
-2.434004
-1.953370
-1.437421
-0.964743
-0.570299
-0.235360
0.070718
0.342654
0.539105
0.600443
0.482877
0.208541
-0.129187
-0.412408
-0.540821
-0.462339
-0.210015
0.136536
0.535690
0.950360
1.295476
1.490888
1.495768
1.281813
0.825022
0.120469
-0.790719
-1.772878
-2.617709
-3.157395
-3.325322
-3.148723
-2.733866
-2.208750
-1.650746
-1.097333
-0.592381
-0.181791
0.095585
0.215050
0.176070
-0.006190
-0.294676
-0.637479
-0.997332
-1.357428
-1.721203
-2.100865
-2.469566
-2.738758
-2.808314
-2.632221
-2.255923
-1.803096
-1.402652
-1.126134
-0.955581
-0.797006
-0.562338
-0.207818
0.287918
0.916385
1.616408
2.283318
2.810577
3.112216
3.133335
2.890155
2.474703
2.006869
1.594458
1.305286
1.171160
1.189148
1.286005
1.344484
1.288734
1.124523
0.905823
0.690488
0.525981
0.441391
0.448203
0.527688
0.627802
0.705378
0.742084
0.707794
0.558415
0.309274
0.063482
-0.051142
0.050395
0.369494
0.835336
1.348166
1.793527
2.063707
2.125485
2.050046
1.949755
1.895170
1.880168
1.855124
1.790809
1.702443
1.616751
1.528164
1.389279
1.139771
0.760635
0.293321
-0.209544
-0.727320
-1.246961
-1.731589
-2.146045
-2.470809
-2.682844
-2.761093
-2.695140
-2.475315
-2.093788
-1.559195
-0.907823
-0.220173
0.399946
0.894687
1.263651
1.527262
1.715239
1.860635
2.000082
2.179621
2.445447
2.829570
3.339432
3.945478
4.577985
5.159493
5.613178
5.824300
5.677709
5.148223
4.317006
3.327323
2.317284
1.371017
0.526564
-0.199472
-0.796053
-1.243610
-1.531569
-1.716061
-1.929682
-2.301375
-2.865925
-3.533008
-4.147184
-4.591309
-4.825228
-4.852124
-4.682185
-4.327558
-3.825362
-3.241969
-2.616925
-1.935718
-1.209218
-0.535592
-0.048754
0.168616
0.130428
-0.076495
-0.355296
-0.621462
-0.798198
-0.849930
-0.805794
-0.717719
-0.626450
-0.563062
-0.542567
-0.589588
-0.751749
-1.049171
-1.449222
-1.854121
-2.127589
-2.196719
-2.082102
-1.853428
-1.588751
-1.329225
-1.072467
-0.794836
-0.457600
-0.026506
0.484950
0.984246
1.344259
1.498457
1.461610
1.302423
1.126744
1.022016
1.003268
1.033075
1.071910
1.098801
1.128755
1.202412
1.310485
1.379234
1.339231
1.151321
0.806633
0.337416
-0.196057
-0.725643
-1.188087
-1.545961
-1.802221
-1.989197
-2.153344
-2.341726
-2.576952
-2.846153
-3.097893
-3.254478
-3.253910
-3.065161
-2.690871
-2.173986
-1.595741
-1.069128
-0.684691
-0.456067
-0.327163
-0.231540
-0.150344
-0.074095
0.045794
0.254916
0.557900
0.931262
1.343868
1.763927
2.148310
2.441286
2.604274
2.641698
2.596959
2.514262
2.402859
2.246315
2.020432
1.699541
1.265763
0.733141
0.166581
-0.340251
-0.712005
-0.932388
-1.022630
-0.991064
-0.846509
-0.609498
-0.296177
0.062100
0.412628
0.702787
0.884853
0.935657
0.887654
0.807808
0.738030
0.684863
0.648740
0.615682
0.570218
0.529192
0.511646
0.519760
0.538656
0.523364
0.430974
0.248359
-0.013771
-0.328865
-0.669734
-1.022470
-1.389596
-1.780744
-2.204024
-2.648186
-3.057089
-3.334281
-3.386916
-3.188036
-2.790839
-2.291752
-1.798793
-1.400875
-1.136405
-0.979857
-0.872546
-0.760226
-0.601337
-0.402671
-0.231247
-0.152382
-0.177643
-0.256034
-0.304811
-0.256616
-0.073346
0.261610
0.739651
1.329597
1.981099
2.598797
3.060544
3.288323
3.261973
3.006678
2.601939
2.156832
1.766939
1.495029
1.357584
1.316988
1.316189
1.320771
1.297679
1.214572
1.088118
0.951391
0.809243
0.654926
0.461425
0.197613
-0.110055
-0.369932
-0.477311
-0.369451
-0.049229
0.418754
0.923716
1.344036
1.604715
1.691943
1.612730
1.386766
1.049494
0.635902
0.193576
-0.202306
-0.481518
-0.631240
-0.705259
-0.795203
-0.975344
-1.232935
-1.482086
-1.631403
-1.611136
-1.407177
-1.084148
-0.735843
-0.431540
-0.215555
-0.107726
-0.090162
-0.143720
-0.284294
-0.519700
-0.820142
-1.147643
-1.453801
-1.666194
-1.731284
-1.662711
-1.531473
-1.412626
-1.339124
-1.295446
-1.255485
-1.218203
-1.201642
-1.223959
-1.293849
-1.415508
-1.595464
-1.841822
-2.169108
-2.585380
-3.077011
-3.620063
-4.174518
-4.682448
-5.086446
-5.319261
-5.307029
-5.015587
-4.489904
-3.828072
-3.105198
-2.351425
-1.580823
-0.825482
-0.158572
0.344787
0.648285
0.745231
0.657484
0.435076
0.150929
-0.096232
-0.220327
-0.217598
-0.175481
-0.218906
-0.450625
-0.885837
-1.434285
-1.958243
-2.326292
-2.457423
-2.357260
-2.091153
-1.723930
-1.280249
-0.746377
-0.112505
0.598579
1.332762
2.018274
2.583253
2.960093
3.112026
3.075073
2.957952
2.899855
3.000176
3.268623
3.627793
3.958157
4.169193
4.233034
4.168803
4.018281
3.835974
3.692026
3.648141
3.716697
3.850893
3.990958
4.124874
4.277797
4.452369
4.599511
4.645135
4.533605
4.242287
3.785666
3.208239
2.567673
1.946360
1.444034
1.114580
0.948344
0.923289
1.016337
1.181018
1.348561
1.446059
1.437454
1.357063
1.289916
1.312712
1.462448
1.761937
2.225921
2.847539
3.599066
4.399452
5.115169
5.627999
5.861488
5.770892
5.354393
4.663710
3.793224
2.882195
2.109811
1.616265
1.434916
1.508657
1.732872
1.999087
2.215504
2.310928
2.258009
2.077527
1.809507
1.499696
1.205091
0.985626
0.882262
0.907730
1.063143
1.340385
1.690963
2.040348
2.338662
2.559981
2.688387
2.709111
2.585741
2.287236
1.837105
1.293173
0.710964
0.161690
-0.268789
-0.533500
-0.648169
-0.660722
-0.611159
-0.511083
-0.342606
-0.087337
0.239273
0.585179
0.866069
0.986272
0.895608
0.634354
0.301464
-0.022690
-0.312225
-0.582223
-0.851629
-1.118707
-1.359024
-1.540816
-1.667571
-1.794144
-1.984621
-2.253876
-2.543355
-2.767017
-2.880204
-2.892557
-2.841954
-2.769278
-2.694277
-2.595666
-2.413340
-2.094803
-1.651084
-1.142033
-0.611682
-0.091948
0.367558
0.732910
0.988295
1.119295
1.140896
1.105278
1.078890
1.105415
1.188204
1.312449
1.457580
1.594054
1.685848
1.706501
1.662652
1.587956
1.496019
1.351666
1.094346
0.666837
0.039216
-0.760243
-1.635466
-2.451183
-3.081010
-3.447585
-3.560447
-3.514556
-3.442956
-3.475658
-3.670655
-3.973877
-4.276054
-4.477922
-4.522887
-4.415770
-4.212335
-3.955778
-3.650840
-3.296143
-2.873601
-2.378166
-1.858716
-1.367838
-0.954373
-0.668761
-0.504365
-0.417847
-0.382217
-0.364044
-0.335793
-0.294640
-0.228232
-0.129462
-0.021903
0.078092
0.172213
0.226865
0.189402
0.057073
-0.130563
-0.315926
-0.443123
-0.489485
-0.456090
-0.351668
-0.196433
-0.010869
0.191459
0.386920
0.550478
0.686222
0.832029
1.039566
1.335539
1.688688
2.040569
2.355555
2.590813
2.700602
2.709388
2.697609
2.750180
2.912597
3.158887
3.420851
3.624358
3.728353
3.728554
3.632772
3.468034
3.250088
2.967760
2.610454
2.180080
1.710426
1.245009
0.787613
0.320155
-0.140449
-0.553350
-0.898972
-1.156452
-1.326257
-1.469072
-1.624892
-1.776292
-1.877462
-1.855497
-1.646010
-1.231631
-0.654331
0.000105
0.631795
1.144256
1.504422
1.762549
1.982355
2.184226
2.311825
2.264512
1.999771
1.577647
1.128416
0.777835
0.556245
0.401892
0.242245
0.024617
-0.269071
-0.584776
-0.814458
-0.877438
-0.779199
-0.599277
-0.441076
-0.385763
-0.470437
-0.674107
-0.914386
-1.103927
-1.201485
-1.213397
-1.202561
-1.251465
-1.389413
-1.592956
-1.821449
-2.022890
-2.141476
-2.125012
-1.925552
-1.549877
-1.090082
-0.653210
-0.295030
-0.008977
0.246919
0.497010
0.727010
0.911140
1.058638
1.218029
1.445869
1.777479
2.173710
2.528815
2.754806
2.819991
2.739986
2.565201
2.374200
2.256120
2.264319
2.376854
2.510956
2.583661
2.563531
2.485026
2.418280
2.416520
2.489714
2.599392
2.671824
2.646732
2.519545
2.338613
2.167643
2.042760
1.967543
1.931961
1.916107
1.901773
1.878715
1.830541
1.742662
1.603984
1.392095
1.094864
0.732437
0.345832
-0.017023
-0.315842
-0.530265
-0.657842
-0.705835
-0.678083
-0.562708
-0.338922
-0.011445
0.350303
0.628113
0.732882
0.660363
0.468149
0.220397
-0.031084
-0.239628
-0.367518
-0.397725
-0.338625
-0.213450
-0.043868
0.152772
0.356922
0.540380
0.665311
0.704171
0.657152
0.538732
0.353359
0.091616
-0.234374
-0.561658
-0.797447
-0.857156
-0.699807
-0.345437
0.138738
0.665507
1.167240
1.615326
1.996404
2.291700
2.483276
2.580650
2.630600
2.683231
2.767337
2.890586
3.035207
3.173549
3.298856
3.421488
3.534278
3.597659
3.564142
3.408778
3.146731
2.814941
2.427822
1.988237
1.518106
1.043805
0.576746
0.119135
-0.310226
-0.677058
-0.955201
-1.143556
-1.274112
-1.377766
-1.467270
-1.554661
-1.645006
-1.744759
-1.877142
-2.056979
-2.261098
-2.456317
-2.640958
-2.842211
-3.102761
-3.447452
-3.847106
-4.221772
-4.475073
-4.534893
-4.361247
-3.959876
-3.405625
-2.815300
-2.285706
-1.843252
-1.462163
-1.120002
-0.816187
-0.579313
-0.461279
-0.504647
-0.714076
-1.046049
-1.431028
-1.807457
-2.132779
-2.378565
-2.528150
-2.578831
-2.547763
-2.476533
-2.414576
-2.391672
-2.409023
-2.459711
-2.532278
-2.593972
-2.622585
-2.618773
-2.570537
-2.454238
-2.252830
-1.968238
-1.626212
-1.264799
-0.909906
-0.552779
-0.170133
0.236972
0.634639
0.977061
1.229764
1.364966
1.363177
1.244485
1.076991
0.942220
0.883995
0.892495
0.924066
0.911006
0.784420
0.512880
0.131410
-0.281324
-0.682244
-1.076676
-1.470944
-1.857271
-2.209000
-2.487060
-2.662062
-2.722583
-2.673858
-2.535752
-2.337619
-2.115566
-1.901869
-1.698986
-1.480904
-1.222471
-0.917118
-0.585391
-0.269730
-0.009860
0.171086
0.247793
0.185559
-0.031742
-0.377993
-0.780404
-1.164623
-1.504506
-1.787349
-1.985392
-2.084346
-2.081760
-1.967494
-1.740892
-1.440082
-1.134781
-0.897345
-0.778796
-0.791522
-0.919018
-1.120165
-1.338312
-1.550001
-1.773313
-2.034498
-2.339132
-2.652145
-2.908529
-3.029098
-2.954148
-2.694375
-2.323196
-1.918097
-1.524927
-1.169558
-0.864783
-0.621021
-0.475251
-0.452664
-0.516828
-0.597441
-0.620331
-0.532281
-0.338658
-0.092637
0.134147
0.271719
0.293863
0.229968
0.128356
0.033823
-0.013076
0.018037
0.134273
0.316331
0.526384
0.730245
0.924208
1.107237
1.247971
1.326632
1.363193
1.389341
1.409746
1.378525
1.239498
0.978823
0.621843
0.225230
-0.123502
-0.342848
-0.402918
-0.314345
-0.104361
0.180760
0.493490
0.802754
1.089208
1.339911
1.542610
1.665580
1.669494
1.566815
1.390895
1.132147
0.785491
0.373956
-0.075723
-0.527394
-0.953714
-1.328517
-1.602866
-1.757067
-1.809724
-1.761558
-1.621992
-1.448346
-1.303785
-1.233062
-1.277796
-1.456229
-1.747626
-2.129389
-2.586097
-3.084406
-3.581932
-4.032919
-4.405685
-4.708319
-4.940251
-5.074105
-5.114758
-5.105458
-5.075947
