EVENT_NAME: L_AQUILA
EVENT_ID: IT-2009-0009
EVENT_DATE_YYYYMMDD: 20090406
EVENT_TIME_HHMMSS: 013240
EVENT_LATITUDE_DEGREE: 42.3420
EVENT_LONGITUDE_DEGREE: 13.3800
EVENT_DEPTH_KM: 8.3
HYPOCENTER_REFERENCE: INGV-CNT_Seismic_Bulletin
MAGNITUDE_W: 6.1
MAGNITUDE_W_REFERENCE: INGV-CNT_Seismic_Bulletin
MAGNITUDE_L: 
MAGNITUDE_L_REFERENCE: 
FOCAL_MECHANISM: Normal faulting
NETWORK: IT
STATION_CODE: SBC
STATION_NAME: 
STATION_LATITUDE_DEGREE: 41.913158
STATION_LONGITUDE_DEGREE: 13.105518
STATION_ELEVATION_M: 668
LOCATION: 
SENSOR_DEPTH_M: 0.0
VS30_M/S: 1298
SITE_CLASSIFICATION_EC8: A
MORPHOLOGIC_CLASSIFICATION: 
EPICENTRAL_DISTANCE_KM: 52.8
EARTHQUAKE_BACKAZIMUTH_DEGREE: 205.6
DATE_TIME_FIRST_SAMPLE_YYYYMMDD_HHMMSS: 20090406_013239.000
DATE_TIME_FIRST_SAMPLE_PRECISION: seconds
SAMPLING_INTERVAL_S: 0.005000
NDATA: 14800
DURATION_S: 74.000
STREAM: HNE
UNITS: cm/s
INSTRUMENT: sensor = Episensor FBA ES-T [Kinemetrics] | digitizer = Etna [Kinemetrics]
INSTRUMENT_ANALOG/DIGITAL: D
INSTRUMENTAL_FREQUENCY_HZ: 
INSTRUMENTAL_DAMPING: 
FULL_SCALE_G: 
N_BIT_DIGITAL_CONVERTER: 18
PGV_CM/S: 0.994436
TIME_PGV_S: 25.770000
BASELINE_CORRECTION: BASELINE REMOVED
FILTER_TYPE: BUTTERWORTH
FILTER_ORDER: 2
LOW_CUT_FREQUENCY_HZ: 0.080
HIGH_CUT_FREQUENCY_HZ: 50.000
LATE/NORMAL_TRIGGERED: NT
DATABASE_VERSION: 0.5
HEADER_FORMAT: DYNA 1.2
DATA_TYPE: VELOCITY
PROCESSING: manual (Paolucci et al., 2011)
DATA_TIMESTAMP_YYYYMMDD_HHMMSS: 20211011_160230.932
DATA_LICENSE: CC-BY3_0-IT (http://creativecommons.org/licenses/by/3.0/deed.en)
DATA_CITATION: Luzi L, Pacor F, Puglia R (2019). Italian Accelerometric Archive v 3.0 - Istituto Nazionale di Geofisica e Vulcanologia, Dipartimento della Protezione Civile Nazionale. doi: 10.13127/itaca.3.1
DATA_CREATOR: ITACA working group
ORIGINAL_DATA_MEDIATOR_CITATION: data obtained within the DPC-INGV data exchange agreements
ORIGINAL_DATA_MEDIATOR: Archive of Italian Department of Civil Protection
ORIGINAL_DATA_CREATOR_CITATION: Presidency Of Counsil Of Ministers-Civil Protection Department. (1972). Italian Strong Motion Network. Presidency of Counsil of Ministers - Civil Protection Department. https://doi.org/10.7914/SN/IT http://www.fdsn.org/networks/detail/IT/
ORIGINAL_DATA_CREATOR: network: IT (Italian Strong Motion Network (RAN)); owner: Presidency of Counsil of Ministers - Civil Protection Department (PCM - DPC)
USER1: 
USER2: 
USER3: 
USER4: 
USER5: 
[...]
0.077434
0.078905
0.081664
0.085781
0.091073
0.097284
0.104122
0.111120
0.117657
0.123230
0.127703
0.131316
0.134391
0.136951
0.138663
0.139104
0.138037
0.135524
0.131902
0.127555
0.122803
0.117992
0.113407
0.109124
0.104937
0.100421
0.095206
0.089189
0.082602
0.075821
0.069053
0.062275
0.055288
0.047847
0.039983
0.032279
0.025716
0.021115
0.018732
0.018180
0.018598
0.018920
0.018277
0.016428
0.013924
0.011862
0.011338
0.012987
0.016910
0.022794
0.030149
0.038489
0.047336
0.056115
0.064025
0.070195
0.073956
0.074991
0.073398
0.069602
0.064335
0.058639
0.053671
0.050448
0.049691
0.051648
0.055914
0.061458
0.066915
0.071069
0.073284
0.073617
0.072649
0.071125
0.069459
0.067386
0.064159
0.059170
0.052376
0.044250
0.035462
0.026435
0.017047
0.006806
-0.004686
-0.017314
-0.030340
-0.042801
-0.054053
-0.064001
-0.072969
-0.081432
-0.089769
-0.098065
-0.106094
-0.113431
-0.119446
-0.123460
-0.125057
-0.124201
-0.121235
-0.116766
-0.111467
-0.106062
-0.101361
-0.098134
-0.096822
-0.097386
-0.099462
-0.102624
-0.106480
-0.110521
-0.114083
-0.116596
-0.117842
-0.117970
-0.117285
-0.116053
-0.114471
-0.112604
-0.110415
-0.108086
-0.106213
-0.105683
-0.107471
-0.112350
-0.120522
-0.131562
-0.144621
-0.158571
-0.172223
-0.184624
-0.195202
-0.203822
-0.210728
-0.216305
-0.220945
-0.225077
-0.229199
-0.233820
-0.239220
-0.245146
-0.250788
-0.255082
-0.257001
-0.255755
-0.250992
-0.242931
-0.232300
-0.220142
-0.207554
-0.195434
-0.184414
-0.174866
-0.166845
-0.160075
-0.154106
-0.148519
-0.143038
-0.137415
-0.131211
-0.123869
-0.115145
-0.105387
-0.095410
-0.086157
-0.078372
-0.072395
-0.068181
-0.065453
-0.063963
-0.063704
-0.064806
-0.067181
-0.070181
-0.072582
-0.073050
-0.070714
-0.065466
-0.057876
-0.048898
-0.039543
-0.030638
-0.022721
-0.016008
-0.010525
-0.006379
-0.003873
-0.003465
-0.005506
-0.009970
-0.016494
-0.024590
-0.033644
-0.042855
-0.051350
-0.058309
-0.063136
-0.065795
-0.067022
-0.068108
-0.070421
-0.074904
-0.081714
-0.090307
-0.099847
-0.109582
-0.119078
-0.128362
-0.137755
-0.147495
-0.157582
-0.167766
-0.177623
-0.186827
-0.195374
-0.203525
-0.211603
-0.219772
-0.227804
-0.235129
-0.241264
-0.246190
-0.250254
-0.253746
-0.256544
-0.258101
-0.257806
-0.255354
-0.250778
-0.244366
-0.236685
-0.228533
-0.220779
-0.214163
-0.209032
-0.205320
-0.202739
-0.200858
-0.199199
-0.197442
-0.195567
-0.193883
-0.192988
-0.193620
-0.196331
-0.201227
-0.207813
-0.214960
-0.221221
-0.225405
-0.226961
-0.226069
-0.223540
-0.220574
-0.218459
-0.218264
-0.220555
-0.225237
-0.231664
-0.238911
-0.246003
-0.252016
-0.256086
-0.257512
-0.255924
-0.251371
-0.244356
-0.235742
-0.226598
-0.218033
-0.210891
-0.205392
-0.201083
-0.197172
-0.192826
-0.187303
-0.180176
-0.171549
-0.161977
-0.152238
-0.143097
-0.135026
-0.128058
-0.121917
-0.116233
-0.110738
-0.105422
-0.100492
-0.096073
-0.092022
-0.087957
-0.083419
-0.078237
-0.072733
-0.067541
-0.063307
-0.060444
-0.059110
-0.059358
-0.061150
-0.064216
-0.068123
-0.072614
-0.077732
-0.083692
-0.090820
-0.099437
-0.109691
-0.121437
-0.134211
-0.147290
-0.159885
-0.171444
-0.181843
-0.191382
-0.200627
-0.210152
-0.220221
-0.230630
-0.240855
-0.250362
-0.258825
-0.266148
-0.272310
-0.277252
-0.280858
-0.282919
-0.283143
-0.281337
-0.277626
-0.272481
-0.266605
-0.260752
-0.255536
-0.251267
-0.247915
-0.245276
-0.243226
-0.241957
-0.242024
-0.244048
-0.248409
-0.255171
-0.264028
-0.274378
-0.285586
-0.297242
-0.309216
-0.321493
-0.334006
-0.346624
-0.359066
-0.370788
-0.381065
-0.389173
-0.394582
-0.397054
-0.396661
-0.393699
-0.388440
-0.381015
-0.371579
-0.360510
-0.348458
-0.336227
-0.324490
-0.313446
-0.302683
-0.291441
-0.278995
-0.264905
-0.249192
-0.232430
-0.215669
-0.200217
-0.187242
-0.177373
-0.170689
-0.166922
-0.165521
-0.165716
-0.166698
-0.167722
-0.168144
-0.167568
-0.165929
-0.163426
-0.160557
-0.158130
-0.157007
-0.157727
-0.160271
-0.164074
-0.168259
-0.171868
-0.174027
-0.174084
-0.171725
-0.167036
-0.160404
-0.152365
-0.143435
-0.133987
-0.124362
-0.115021
-0.106547
-0.099500
-0.094187
-0.090567
-0.088367
-0.087405
-0.087745
-0.089509
-0.092700
-0.097112
-0.102284
-0.107496
-0.111754
-0.113871
-0.112787
-0.107966
-0.099547
-0.088281
-0.075356
-0.062074
-0.049644
-0.039036
-0.030803
-0.025049
-0.021562
-0.020047
-0.020366
-0.022587
-0.026807
-0.032969
-0.040795
-0.049858
-0.059796
-0.070546
-0.082321
-0.095317
-0.109438
-0.124255
-0.139083
-0.153034
-0.165204
-0.174971
-0.182158
-0.186982
-0.189833
-0.191010
-0.190656
-0.188943
-0.186248
-0.183245
-0.180831
-0.179788
-0.180434
-0.182496
-0.185200
-0.187512
-0.188562
-0.187880
-0.185201
-0.180449
-0.173972
-0.166517
-0.159039
-0.152630
-0.148504
-0.147902
-0.151856
-0.160720
-0.173809
-0.189596
-0.206222
-0.221966
-0.235635
-0.246679
-0.254933
-0.260419
-0.263381
-0.264290
-0.263812
-0.262737
-0.261857
-0.261888
-0.263361
-0.266548
-0.271535
-0.278322
-0.286928
-0.297433
-0.309780
-0.323474
-0.337516
-0.350677
-0.361956
-0.370972
-0.377985
-0.383616
-0.388394
-0.392379
-0.395190
-0.396230
-0.394790
-0.390208
-0.382126
-0.370709
-0.356657
-0.341095
-0.325429
-0.310978
-0.298604
-0.288570
-0.280598
-0.274071
-0.268216
-0.262270
-0.255840
-0.249117
-0.242674
-0.237051
-0.232522
-0.229070
-0.226440
-0.224233
-0.221992
-0.219353
-0.216214
-0.212687
-0.208977
-0.205438
-0.202646
-0.201100
-0.200782
-0.201038
-0.200786
-0.198938
-0.194762
-0.188021
-0.179053
-0.168735
-0.158107
-0.147857
-0.138108
-0.128632
-0.119232
-0.109956
-0.101002
-0.092490
-0.084406
-0.076765
-0.069819
-0.064120
-0.060317
-0.058850
-0.059898
-0.063534
-0.069769
-0.078427
-0.089157
-0.101511
-0.114926
-0.128731
-0.142207
-0.154583
-0.165052
-0.172848
-0.177387
-0.178488
-0.176489
-0.172015
-0.165697
-0.158061
-0.149484
-0.140181
-0.130181
-0.119283
-0.107055
-0.092908
-0.076210
-0.056483
-0.033593
-0.007796
0.020270
0.049392
0.077780
0.103521
0.125106
0.141743
0.153329
0.160185
0.162817
0.161820
0.157840
0.151622
0.143964
0.135384
0.125735
0.114228
0.099899
0.082234
0.061498
0.038541
0.014415
-0.009846
-0.033257
-0.054894
-0.074021
-0.090231
-0.103316
-0.112994
-0.119040
-0.121718
-0.121962
-0.121119
-0.120467
-0.120849
-0.122626
-0.125733
-0.129724
-0.133974
-0.138003
-0.141591
-0.144724
-0.147539
-0.150252
-0.153200
-0.156958
-0.162204
-0.169450
-0.178721
-0.189359
-0.200342
-0.210753
-0.220020
-0.227964
-0.234610
-0.239972
-0.243947
-0.246235
-0.246367
-0.243942
-0.239021
-0.232300
-0.224807
-0.217499
-0.210987
-0.205354
-0.200244
-0.195227
-0.190062
-0.184702
-0.179208
-0.173564
-0.167552
-0.161000
-0.154104
-0.147408
-0.141651
-0.137618
-0.135931
-0.136911
-0.140539
-0.146480
-0.154210
-0.163221
-0.173167
-0.183933
-0.195642
-0.208527
-0.222758
-0.238247
-0.254519
-0.270789
-0.286115
-0.299569
-0.310439
-0.318418
-0.323763
-0.327187
-0.329467
-0.331103
-0.332261
-0.333012
-0.333383
-0.333154
-0.331879
-0.329090
-0.324434
-0.317714
-0.308895
-0.298153
-0.285947
-0.272925
-0.259717
-0.246732
-0.234161
-0.222146
-0.210915
-0.200813
-0.192315
-0.185986
-0.182320
-0.181487
-0.183189
-0.186749
-0.191411
-0.196524
-0.201479
-0.205712
-0.208759
-0.210240
-0.209930
-0.207866
-0.204352
-0.199928
-0.195250
-0.190812
-0.186773
-0.183082
-0.179658
-0.176414
-0.173336
-0.170485
-0.167839
-0.165281
-0.162682
-0.159989
-0.157372
-0.155217
-0.153975
-0.154044
-0.155688
-0.159037
-0.164149
-0.171097
-0.180001
-0.191021
-0.204262
-0.219548
-0.236219
-0.253154
-0.269094
-0.283048
-0.294507
-0.303501
-0.310505
-0.316187
-0.321086
-0.325449
-0.329250
-0.332257
-0.334270
-0.335427
-0.336188
-0.337077
-0.338357
-0.339881
-0.341164
-0.341531
-0.340223
-0.336524
-0.329876
-0.319971
-0.306977
-0.291674
-0.275233
-0.258923
-0.243889
-0.230880
-0.220095
-0.211261
-0.203786
-0.196998
-0.190413
-0.183832
-0.177228
-0.170740
-0.164667
-0.159226
-0.154469
-0.150423
-0.147148
-0.144841
-0.143853
-0.144403
-0.146253
-0.148640
-0.150487
-0.150733
-0.148639
-0.144021
-0.137300
-0.129277
-0.120817
-0.112754
-0.105820
-0.100572
-0.097393
-0.096425
-0.097436
-0.099844
-0.103000
-0.106526
-0.110502
-0.115379
-0.121544
-0.128954
-0.137111
-0.145167
-0.152203
-0.157624
-0.161303
-0.163461
-0.164538
-0.165077
-0.165528
-0.166246
-0.167668
-0.170266
-0.174367
-0.180105
-0.187374
-0.195705
-0.204362
-0.212675
-0.220333
-0.227396
-0.234091
-0.240569
-0.246846
-0.252937
-0.258945
-0.265065
-0.271534
-0.278612
-0.286589
-0.295798
-0.306644
-0.319571
-0.334956
-0.353056
-0.373929
-0.397341
-0.422773
-0.449369
-0.475905
-0.500982
-0.523432
-0.542572
-0.558098
-0.569855
-0.577760
-0.581887
-0.582680
-0.580956
-0.577714
-0.573988
-0.570701
-0.568526
-0.567771
-0.568252
-0.569354
-0.570442
-0.571319
-0.572414
-0.574667
-0.579096
-0.586267
-0.596059
-0.607690
-0.619977
-0.631763
-0.642219
-0.650839
-0.657240
-0.660972
-0.661534
-0.658542
-0.651878
-0.641786
-0.628870
-0.614070
-0.598510
-0.583134
-0.568344
-0.553845
-0.538844
-0.522501
-0.504362
-0.484571
-0.463725
-0.442560
-0.421716
-0.401625
-0.382445
-0.363985
-0.345744
-0.327161
-0.307906
-0.287951
-0.267327
-0.245938
-0.223676
-0.200679
-0.177453
-0.154785
-0.133574
-0.114645
-0.098604
-0.085766
-0.076034
-0.068814
-0.063241
-0.058499
-0.053883
-0.048801
-0.042896
-0.036153
-0.028923
-0.021735
-0.014950
-0.008501
-0.001937
0.005375
0.014185
0.025315
0.039552
0.057548
0.079545
0.105121
0.133261
0.162568
0.191423
0.218195
0.241513
0.260479
0.274890
0.285439
0.293521
0.300695
0.308238
0.316903
0.326898
0.337976
0.349530
0.360820
0.371208
0.380256
0.387754
0.393780
0.398708
0.403119
0.407658
0.412973
0.419675
0.428130
0.438332
0.450025
0.462825
0.476267
0.489813
0.502741
0.514177
0.523363
0.529829
0.533384
0.534192
0.532848
0.530181
0.526940
0.523636
0.520580
0.518025
0.516312
0.515875
0.517072
0.519997
0.524328
0.529259
0.533737
0.536909
0.538416
0.538303
0.536742
0.533831
0.529572
0.523979
0.517184
0.509480
0.501142
0.492171
0.482248
0.470979
0.458262
0.444427
0.430026
0.415563
0.401353
0.387507
0.374035
0.361057
0.348990
0.338516
0.330261
0.324551
0.321492
0.321033
0.322870
0.326535
0.331477
0.337073
0.342777
0.348304
0.353698
0.359225
0.365166
0.371729
0.379017
0.386987
0.395416
0.403949
0.412262
0.420202
0.427682
0.434440
0.439912
0.443246
0.443442
0.439641
0.431463
0.419208
0.403803
0.386565
0.368762
0.351190
0.333975
0.316597
0.298243
0.278374
0.256994
0.234604
0.211990
0.189911
0.168849
0.149070
0.130816
0.114335
0.099967
0.088076
0.078783
0.071944
0.067172
0.063828
0.061306
0.059217
0.057306
0.055486
0.053807
0.052333
0.051192
0.050545
0.050435
0.050826
0.051687
0.052821
0.053768
0.054054
0.053401
0.051821
0.049606
0.047158
0.044878
0.043119
0.042137
0.042083
0.043040
0.044975
0.047727
0.051158
0.055318
0.060516
0.067194
0.075637
0.085840
0.097618
0.110572
0.124075
0.137622
0.151110
0.164861
0.179424
0.195218
0.212323
0.230444
0.249086
0.267729
0.285893
0.303233
0.319483
0.334322
0.347374
0.358275
0.366827
0.373052
0.376990
0.378591
0.377889
0.375122
0.370627
0.364845
0.358213
0.350868
0.342744
0.333862
0.324475
0.315197
0.306967
0.300809
0.297538
0.297538
0.300697
0.306418
0.313940
0.322753
0.332665
0.343586
0.355145
0.366468
0.376467
0.384355
0.389997
0.393886
0.396667
0.398677
0.399888
0.400011
0.398666
0.395742
0.391670
0.387282
0.383386
0.380390
0.378185
0.376256
0.373904
0.370533
0.365961
0.360442
0.354434
0.348367
0.342354
0.336097
0.329150
0.321185
0.312078
0.301963
0.291256
0.280631
0.271003
0.263254
0.257803
0.254537
0.253062
0.253017
0.254252
0.256737
0.260372
0.264928
0.270221
0.276311
0.283540
0.292428
0.303296
0.315940
0.329715
0.343814
0.357514
0.370340
0.382211
0.393492
0.404814
0.416698
0.429253
0.442171
0.454989
0.467414
0.479505
0.491588
0.504036
0.517033
0.530392
0.543626
0.556224
0.567917
0.578755
0.588969
0.598807
0.608466
0.618047
0.627556
0.636949
0.646102
0.654815
0.662835
0.669796
0.675270
0.678932
0.680661
0.680576
0.678997
0.676346
0.673057
0.669527
0.666137
0.663323
0.661629
0.661572
0.663323
0.666464
0.670128
0.673430
0.675771
0.676873
0.676717
0.675519
0.673681
0.671693
0.670000
0.668932
0.668713
0.669477
0.671262
0.673964
0.677290
0.680811
0.684097
0.686790
0.688557
0.689015
0.687843
0.685035
0.681048
0.676762
0.673263
0.671536
0.672230
0.675557
0.681393
0.689470
0.699452
0.710910
0.723327
0.736230
0.749383
0.762799
0.776636
0.791089
0.806265
0.822133
0.838627
0.855734
0.873406
0.891394
0.909215
0.926259
0.941992
0.956067
0.968206
0.978147
0.985738
0.990957
0.993841
0.994436
0.992885
0.989500
0.984724
0.979006
0.972635
0.965747
0.958410
0.950637
0.942412
0.933688
0.924302
0.914018
0.902712
0.890430
0.877226
0.863015
0.847501
0.830264
0.811028
0.789919
0.767544
0.744869
0.723063
0.703264
0.686236
0.672159
0.660731
0.651514
0.644203
0.638603
0.634523
0.631626
0.629320
0.626796
0.623226
0.617996
0.610841
0.601803
0.591139
0.579247
0.566606
0.553712
0.540973
0.528590
0.516517
0.504559
0.492514
0.480215
0.467554
0.454584
0.441471
0.428377
0.415525
0.403253
0.391989
0.382148
0.374017
0.367693
0.363143
0.360380
0.359529
0.360714
0.363887
0.368772
0.374921
0.381746
0.388562
0.394784
0.400169
0.404880
0.409300
0.413763
0.418383
0.422938
0.426860
0.429425
0.430082
0.428675
0.425264
0.419880
0.412526
0.403239
0.392194
0.379759
0.366449
0.352836
0.339467
0.326788
0.315100
0.304522
0.295012
0.286518
0.279113
0.273001
0.268415
0.265488
0.264139
0.264090
0.264946
0.266185
0.267112
0.266954
0.265064
0.261162
0.255339
0.247816
0.238879
0.228952
0.218531
0.208122
0.198284
0.189580
0.182379
0.176706
0.172219
0.168325
0.164367
0.159772
0.154171
0.147480
0.139730
0.130863
0.120691
0.108995
0.095734
0.081192
0.066046
0.051275
0.037804
0.026188
0.016597
0.008972
0.003125
-0.001199
-0.004304
-0.006681
-0.008944
-0.011528
-0.014515
-0.017617
-0.020278
-0.021972
-0.022435
-0.021764
-0.020405
-0.018936
-0.017786
-0.017145
-0.016975
-0.017041
-0.016951
-0.016279
-0.014698
-0.012066
-0.008414
-0.003793
0.001743
0.007983
0.014616
0.021432
0.028378
0.035427
0.042320
0.048517
0.053411
0.056521
0.057647
0.057029
0.055315
0.053300
0.051729
0.051207
0.052111
0.054578
0.058592
0.064038
0.070738
0.078451
0.086778
0.095126
0.102960
0.109914
0.115575
0.119503
0.121372
0.120994
0.118357
0.113588
0.106946
0.098931
0.090146
0.081097
0.072290
0.064180
0.056938
0.050419
0.044254
0.037865
0.030584
0.021845
0.011199
-0.001732
-0.017154
-0.035064
-0.055228
-0.077257
-0.100798
-0.125500
-0.150870
-0.176444
-0.201971
-0.227351
-0.252433
-0.276984
-0.300826
-0.323856
-0.345844
-0.366281
-0.384562
-0.400184
-0.412750
-0.422114
-0.428546
-0.432554
-0.434679
-0.435515
-0.435518
-0.434791
-0.433243
-0.430754
-0.427215
-0.422666
-0.417265
-0.411092
-0.404093
-0.396024
-0.386491
-0.375410
-0.363254
-0.350778
-0.338753
-0.327811
-0.318421
-0.310932
-0.305497
-0.302046
-0.300396
-0.300305
-0.301429
-0.303364
-0.305687
-0.307797
-0.309005
-0.308850
-0.307160
-0.303910
-0.299206
-0.293307
-0.286455
-0.278656
-0.269751
-0.259652
-0.248384
-0.235964
-0.222367
-0.207550
-0.191471
-0.174208
-0.156034
-0.137353
-0.118671
-0.100494
-0.083151
-0.066855
-0.051814
-0.038130
-0.025726
-0.014449
-0.004122
0.005503
0.014612
0.023206
0.031164
0.038224
0.044027
0.048241
0.050663
0.051286
0.050232
0.047596
0.043351
0.037367
0.029525
0.019876
0.008733
-0.003510
-0.016584
-0.030281
-0.044390
-0.058802
-0.073442
-0.088080
-0.102352
-0.115851
-0.128190
-0.139161
-0.148846
-0.157451
-0.165144
-0.172086
-0.178515
-0.184679
-0.190736
-0.196740
-0.202705
-0.208579
-0.214185
-0.219367
-0.224257
-0.229258
-0.234676
-0.240496
-0.246595
-0.252919
-0.259360
-0.265763
-0.272092
-0.278450
-0.284973
-0.291714
-0.298631
-0.305773
-0.313362
-0.321621
-0.330643
-0.340377
-0.350562
-0.360830
-0.370876
-0.380475
-0.389495
-0.398008
-0.406323
-0.414832
-0.423849
-0.433599
-0.444173
-0.455483
-0.467274
-0.479175
-0.490826
-0.501929
-0.512107
-0.520981
-0.528428
-0.534536
-0.539372
-0.542920
-0.545057
-0.545619
-0.544577
-0.542057
-0.538258
-0.533377
-0.527578
-0.521016
-0.513931
-0.506730
-0.499908
-0.493920
-0.489137
-0.485760
-0.483787
-0.483036
-0.483075
-0.483305
-0.483227
-0.482561
-0.481166
-0.479027
-0.476238
-0.472902
-0.469140
-0.465145
-0.461160
-0.457498
-0.454568
-0.452769
-0.452446
-0.453871
-0.457076
-0.461896
-0.468149
-0.475595
-0.483900
-0.492723
-0.501718
-0.510403
-0.518164
-0.524510
-0.529239
-0.532445
-0.534493
-0.535888
-0.537132
-0.538654
-0.540642
-0.542911
-0.545068
-0.546691
-0.547378
-0.546823
-0.544845
-0.541330
-0.536222
-0.529514
-0.521219
-0.511406
-0.500226
-0.487843
-0.474481
-0.460521
-0.446452
-0.432805
-0.420119
-0.408833
-0.399228
-0.391424
-0.385356
-0.380805
-0.377576
-0.375633
-0.374966
-0.375482
-0.377156
-0.380095
-0.384472
-0.390451
-0.398068
-0.407131
-0.417270
-0.428043
-0.438999
-0.449717
-0.459873
-0.469255
-0.477722
-0.485163
-0.491440
-0.496361
-0.499715
-0.501335
-0.501134
-0.499143
-0.495429
-0.489981
-0.482768
-0.473878
-0.463544
-0.452095
-0.439833
-0.427001
-0.413887
-0.400842
-0.388135
-0.375987
-0.364676
-0.354483
-0.345581
-0.338100
-0.332181
-0.327910
-0.325308
-0.324335
-0.324844
-0.326700
-0.329958
-0.334804
-0.341360
-0.349682
-0.359793
-0.371726
-0.385509
-0.401022
-0.417958
-0.435913
-0.454472
-0.473222
-0.491756
-0.509743
-0.526971
-0.543323
-0.558747
-0.573242
-0.586825
-0.599405
-0.610774
-0.620787
-0.629392
-0.636451
-0.641750
-0.645112
-0.646445
-0.645794
-0.643356
-0.639355
-0.633923
-0.627138
-0.619119
-0.610081
-0.600262
-0.589863
-0.579074
-0.568021
-0.556680
-0.544950
-0.532822
-0.520421
-0.507852
-0.495086
-0.481991
-0.468358
-0.453943
-0.438601
-0.422273
-0.404963
-0.386843
-0.368273
-0.349702
-0.331509
-0.313958
-0.297226
-0.281436
-0.266693
-0.253011
-0.240330
-0.228610
-0.217785
-0.207695
-0.198112
-0.188803
-0.179528
-0.170111
-0.160569
-0.151104
-0.142009
-0.133634
