EVENT_NAME: L_AQUILA
EVENT_ID: IT-2009-0009
EVENT_DATE_YYYYMMDD: 20090406
EVENT_TIME_HHMMSS: 013240
EVENT_LATITUDE_DEGREE: 42.3420
EVENT_LONGITUDE_DEGREE: 13.3800
EVENT_DEPTH_KM: 8.3
HYPOCENTER_REFERENCE: INGV-CNT_Seismic_Bulletin
MAGNITUDE_W: 6.1
MAGNITUDE_W_REFERENCE: INGV-CNT_Seismic_Bulletin
MAGNITUDE_L: 
MAGNITUDE_L_REFERENCE: 
FOCAL_MECHANISM: Normal faulting
NETWORK: IT
STATION_CODE: SBC
STATION_NAME: 
STATION_LATITUDE_DEGREE: 41.913158
STATION_LONGITUDE_DEGREE: 13.105518
STATION_ELEVATION_M: 668
LOCATION: 
SENSOR_DEPTH_M: 0.0
VS30_M/S: 1298
SITE_CLASSIFICATION_EC8: A
MORPHOLOGIC_CLASSIFICATION: 
EPICENTRAL_DISTANCE_KM: 52.8
EARTHQUAKE_BACKAZIMUTH_DEGREE: 205.6
DATE_TIME_FIRST_SAMPLE_YYYYMMDD_HHMMSS: 
DATE_TIME_FIRST_SAMPLE_PRECISION: 
SAMPLING_INTERVAL_S: 
NDATA: 105
DURATION_S: 
STREAM: HNE
UNITS: cm/s^2
INSTRUMENT: sensor = Episensor FBA ES-T [Kinemetrics] | digitizer = Etna [Kinemetrics]
INSTRUMENT_ANALOG/DIGITAL: D
INSTRUMENTAL_FREQUENCY_HZ: 
INSTRUMENTAL_DAMPING: 
FULL_SCALE_G: 
N_BIT_DIGITAL_CONVERTER: 18
PGA_CM/S^2: 5.861488
TIME_PGA_S: 
BASELINE_CORRECTION: BASELINE REMOVED
FILTER_TYPE: BUTTERWORTH
FILTER_ORDER: 2
LOW_CUT_FREQUENCY_HZ: 0.080
HIGH_CUT_FREQUENCY_HZ: 50.000
LATE/NORMAL_TRIGGERED: NT
DATABASE_VERSION: 0.5
HEADER_FORMAT: DYNA 1.2
DATA_TYPE: ACCELERATION RESPONSE SPECTRUM
PROCESSING: manual (Paolucci et al., 2011)
DATA_TIMESTAMP_YYYYMMDD_HHMMSS: 20211011_160232.026
DATA_LICENSE: CC-BY3_0-IT (http://creativecommons.org/licenses/by/3.0/deed.en)
DATA_CITATION: Luzi L, Pacor F, Puglia R (2019). Italian Accelerometric Archive v 3.0 - Istituto Nazionale di Geofisica e Vulcanologia, Dipartimento della Protezione Civile Nazionale. doi: 10.13127/itaca.3.1
DATA_CREATOR: ITACA working group
ORIGINAL_DATA_MEDIATOR_CITATION: data obtained within the DPC-INGV data exchange agreements
ORIGINAL_DATA_MEDIATOR: Archive of Italian Department of Civil Protection
ORIGINAL_DATA_CREATOR_CITATION: Presidency Of Counsil Of Ministers-Civil Protection Department. (1972). Italian Strong Motion Network. Presidency of Counsil of Ministers - Civil Protection Department. https://doi.org/10.7914/SN/IT http://www.fdsn.org/networks/detail/IT/
ORIGINAL_DATA_CREATOR: network: IT (Italian Strong Motion Network (RAN)); owner: Presidency of Counsil of Ministers - Civil Protection Department (PCM - DPC)
USER1: 
USER2: 
USER3: 
USER4: 
USER5: 
    0.010000     5.877149
    0.020000     5.972717
    0.022000     6.006999
    0.025000     6.061962
    0.029000     6.277585
    0.030000     6.320543
    0.032000     6.372184
    0.035001     6.366235
    0.036000     6.532167
    0.040000     6.866354
    0.041999     6.537354
    0.044001     6.528363
    0.045000     6.787036
    0.046000     7.140670
    0.048001     7.446875
    0.050000     7.426143
    0.054999     7.950557
    0.059999     9.200115
    0.064998    10.932184
    0.067002    10.337987
    0.069999     8.906950
    0.075002    10.121062
    0.080000    10.489695
    0.084998     9.879472
    0.090001     9.400186
    0.095003    10.641939
    0.100000    11.840209
    0.109999    12.640341
    0.120005    13.726253
    0.130005    11.722888
    0.132996    12.230557
    0.139997    12.812522
    0.149993    14.209660
    0.160000    16.444204
    0.170010    15.673247
    0.179986    18.508200
    0.190006    17.506474
    0.200000    17.343864
    0.220022    15.365123
    0.239981    18.766003
    0.250000    16.657713
    0.260010    14.208705
    0.280034    12.049114
    0.290023    12.228408
    0.300030    13.746257
    0.320000    11.936087
    0.340020    12.567105
    0.350017    11.826643
    0.359971    11.080392
    0.379939    12.840178
    0.400000    12.763118
    0.419992    14.365133
    0.439947    15.537422
    0.450045    15.687649
    0.459982    15.081390
    0.480077    15.256985
    0.500000    13.021555
    0.550055    10.801638
    0.599880    11.310393
    0.650195    11.763113
    0.667111    10.430157
    0.699790    10.817832
    0.750188     9.942730
    0.800000     9.803766
    0.850340    10.658421
    0.900090    11.589030
    0.949668    10.246229
    1.000000     9.769899
    1.100110     7.687335
    1.200480     7.837131
    1.300390     7.062774
    1.400560     7.355728
    1.499250     7.596319
    1.600000     5.849044
    1.700680     5.613421
    1.798561     5.350347
    1.901141     3.951089
    2.000000     3.736782
    2.197802     2.661603
    2.398082     2.243682
    2.500000     2.167373
    2.597403     2.293383
    2.801121     1.848754
    3.003003     2.104035
    3.205128     2.411613
    3.401361     2.521772
    3.496503     2.665151
    3.597122     2.839980
    3.802281     2.843584
    4.000000     2.696095
    4.201681     2.517534
    4.405286     2.253311
    4.608295     1.987340
    4.807692     1.951367
    5.000000     1.970266
    5.494505     2.014238
    5.988024     1.778098
    6.493506     1.522345
    6.993007     1.307057
    7.518797     1.089956
    8.000000     0.877030
    8.474576     0.732490
    9.009009     0.637060
    9.523809     0.546126
   10.000000     0.467871
