EVENT_NAME: L_AQUILA
EVENT_ID: IT-2009-0009
EVENT_DATE_YYYYMMDD: 20090406
EVENT_TIME_HHMMSS: 013240
EVENT_LATITUDE_DEGREE: 42.3420
EVENT_LONGITUDE_DEGREE: 13.3800
EVENT_DEPTH_KM: 8.3
HYPOCENTER_REFERENCE: INGV-CNT_Seismic_Bulletin
MAGNITUDE_W: 6.1
MAGNITUDE_W_REFERENCE: INGV-CNT_Seismic_Bulletin
MAGNITUDE_L: 
MAGNITUDE_L_REFERENCE: 
FOCAL_MECHANISM: Normal faulting
NETWORK: IT
STATION_CODE: ORC
STATION_NAME: 
STATION_LATITUDE_DEGREE: 41.953606
STATION_LONGITUDE_DEGREE: 13.642346
STATION_ELEVATION_M: 732
LOCATION: 
SENSOR_DEPTH_M: 0.0
VS30_M/S: 767
SITE_CLASSIFICATION_EC8: B
MORPHOLOGIC_CLASSIFICATION: 
EPICENTRAL_DISTANCE_KM: 48.3
EARTHQUAKE_BACKAZIMUTH_DEGREE: 153.2
DATE_TIME_FIRST_SAMPLE_YYYYMMDD_HHMMSS: 20090406_013235.000
DATE_TIME_FIRST_SAMPLE_PRECISION: seconds
SAMPLING_INTERVAL_S: 0.005000
NDATA: 14200
DURATION_S: 71.000
STREAM: HNN
UNITS: cm
INSTRUMENT: sensor = FBA-3 [Kinemetrics] | digitizer = Everest [Kinemetrics]
INSTRUMENT_ANALOG/DIGITAL: D
INSTRUMENTAL_FREQUENCY_HZ: 212.000
INSTRUMENTAL_DAMPING: 0.000000
FULL_SCALE_G: 1.0
N_BIT_DIGITAL_CONVERTER: 24
PGD_CM: -0.908842
TIME_PGD_S: 28.140000
BASELINE_CORRECTION: BASELINE REMOVED
FILTER_TYPE: BUTTERWORTH
FILTER_ORDER: 2
LOW_CUT_FREQUENCY_HZ: 0.080
HIGH_CUT_FREQUENCY_HZ: 35.000
LATE/NORMAL_TRIGGERED: NT
DATABASE_VERSION: 0.5
HEADER_FORMAT: DYNA 1.2
DATA_TYPE: DISPLACEMENT
PROCESSING: manual (Paolucci et al., 2011)
DATA_TIMESTAMP_YYYYMMDD_HHMMSS: 20211011_160159.629
DATA_LICENSE: CC-BY3_0-IT (http://creativecommons.org/licenses/by/3.0/deed.en)
DATA_CITATION: Luzi L, Pacor F, Puglia R (2019). Italian Accelerometric Archive v 3.0 - Istituto Nazionale di Geofisica e Vulcanologia, Dipartimento della Protezione Civile Nazionale. doi: 10.13127/itaca.3.1
DATA_CREATOR: ITACA working group
ORIGINAL_DATA_MEDIATOR_CITATION: data obtained within the DPC-INGV data exchange agreements
ORIGINAL_DATA_MEDIATOR: Archive of Italian Department of Civil Protection
ORIGINAL_DATA_CREATOR_CITATION: Presidency Of Counsil Of Ministers-Civil Protection Department. (1972). Italian Strong Motion Network. Presidency of Counsil of Ministers - Civil Protection Department. https://doi.org/10.7914/SN/IT http://www.fdsn.org/networks/detail/IT/
ORIGINAL_DATA_CREATOR: network: IT (Italian Strong Motion Network (RAN)); owner: Presidency of Counsil of Ministers - Civil Protection Department (PCM - DPC)
USER1: 
USER2: 
USER3: 
USER4: 
USER5: 
[...]
1.724363e-04
4.439243e-03
8.897107e-03
1.356210e-02
1.844177e-02
2.353599e-02
2.884066e-02
3.434958e-02
4.005179e-02
4.592633e-02
5.193878e-02
5.804346e-02
6.419184e-02
7.034483e-02
7.648200e-02
8.260035e-02
8.870248e-02
9.478381e-02
1.008292e-01
1.068193e-01
1.127387e-01
1.185763e-01
1.243201e-01
1.299527e-01
1.354519e-01
1.407954e-01
1.459623e-01
1.509328e-01
1.556861e-01
1.602023e-01
1.644669e-01
1.684758e-01
1.722369e-01
1.757662e-01
1.790828e-01
1.822069e-01
1.851633e-01
1.879858e-01
1.907158e-01
1.933959e-01
1.960627e-01
1.987443e-01
2.014627e-01
2.042356e-01
2.070770e-01
2.099951e-01
2.129931e-01
2.160724e-01
2.192356e-01
2.224868e-01
2.258298e-01
2.292651e-01
2.327882e-01
2.363895e-01
2.400538e-01
2.437594e-01
2.474768e-01
2.511689e-01
2.547943e-01
2.583115e-01
2.616837e-01
2.648802e-01
2.678790e-01
2.706712e-01
2.732673e-01
2.756999e-01
2.780161e-01
2.802649e-01
2.824853e-01
2.847040e-01
2.869385e-01
2.892006e-01
2.914957e-01
2.938230e-01
2.961772e-01
2.985503e-01
3.009333e-01
3.033153e-01
3.056825e-01
3.080189e-01
3.103110e-01
3.125524e-01
3.147448e-01
3.168965e-01
3.190207e-01
3.211346e-01
3.232568e-01
3.254044e-01
3.275893e-01
3.298184e-01
3.320961e-01
3.344237e-01
3.367966e-01
3.392000e-01
3.416095e-01
3.439950e-01
3.463256e-01
3.485710e-01
3.507034e-01
3.526993e-01
3.545390e-01
3.562026e-01
3.576656e-01
3.589022e-01
3.598928e-01
3.606282e-01
3.611056e-01
3.613214e-01
3.612719e-01
3.609614e-01
3.604118e-01
3.596595e-01
3.587452e-01
3.577042e-01
3.565656e-01
3.553590e-01
3.541191e-01
3.528832e-01
3.516839e-01
3.505433e-01
3.494738e-01
3.484834e-01
3.475798e-01
3.467698e-01
3.460550e-01
3.454293e-01
3.448815e-01
3.443995e-01
3.439747e-01
3.436039e-01
3.432873e-01
3.430262e-01
3.428216e-01
3.426761e-01
3.425960e-01
3.425915e-01
3.426705e-01
3.428333e-01
3.430717e-01
3.433736e-01
3.437280e-01
3.441238e-01
3.445436e-01
3.449588e-01
3.453299e-01
3.456117e-01
3.457574e-01
3.457221e-01
3.454656e-01
3.449540e-01
3.441600e-01
3.430639e-01
3.416554e-01
3.399354e-01
3.379161e-01
3.356147e-01
3.330475e-01
3.302262e-01
3.271595e-01
3.238565e-01
3.203282e-01
3.165847e-01
3.126322e-01
3.084725e-01
3.041069e-01
2.995425e-01
2.947944e-01
2.898841e-01
2.848344e-01
2.796655e-01
2.743948e-01
2.690373e-01
2.636063e-01
2.581101e-01
2.525480e-01
2.469108e-01
2.411867e-01
2.353695e-01
2.294616e-01
2.234708e-01
2.174055e-01
2.112712e-01
2.050731e-01
1.988192e-01
1.925224e-01
1.861982e-01
1.798633e-01
1.735349e-01
1.672324e-01
1.609792e-01
1.548023e-01
1.487310e-01
1.427975e-01
1.370387e-01
1.314974e-01
1.262222e-01
1.212630e-01
1.166650e-01
1.124614e-01
1.086694e-01
1.052888e-01
1.023046e-01
9.969285e-02
9.742610e-02
9.547599e-02
9.381211e-02
9.240135e-02
9.121078e-02
9.021244e-02
8.938514e-02
8.871180e-02
8.817603e-02
8.776241e-02
8.746047e-02
8.726687e-02
8.718104e-02
8.719619e-02
8.729244e-02
8.743656e-02
8.758718e-02
8.770134e-02
8.774011e-02
8.767374e-02
8.748585e-02
8.717457e-02
8.674965e-02
8.622814e-02
8.563320e-02
8.499673e-02
8.436094e-02
8.377376e-02
8.327944e-02
8.291110e-02
8.269074e-02
8.263479e-02
8.275858e-02
8.307424e-02
8.358303e-02
8.426886e-02
8.509891e-02
8.603201e-02
8.702990e-02
8.806531e-02
8.912317e-02
9.019615e-02
9.127895e-02
9.236611e-02
9.345328e-02
9.453916e-02
9.562538e-02
9.671551e-02
9.781600e-02
9.894018e-02
1.001131e-01
1.013718e-01
1.027590e-01
1.043120e-01
1.060559e-01
1.080067e-01
1.101787e-01
1.125894e-01
1.152524e-01
1.181678e-01
1.213175e-01
1.246712e-01
1.281972e-01
1.318703e-01
1.356724e-01
1.395876e-01
1.435987e-01
1.476873e-01
1.518370e-01
1.560367e-01
1.602808e-01
1.645673e-01
1.688951e-01
1.732620e-01
1.776650e-01
1.820996e-01
1.865598e-01
1.910382e-01
1.955258e-01
2.000111e-01
2.044776e-01
2.089034e-01
2.132630e-01
2.175308e-01
2.216828e-01
2.256967e-01
2.295519e-01
2.332301e-01
2.367169e-01
2.400025e-01
2.430809e-01
2.459489e-01
2.486039e-01
2.510432e-01
2.532618e-01
2.552511e-01
2.569982e-01
2.584860e-01
2.596952e-01
2.606064e-01
2.612031e-01
2.614721e-01
2.614047e-01
2.609981e-01
2.602567e-01
2.591914e-01
2.578137e-01
2.561282e-01
2.541274e-01
2.517946e-01
2.491111e-01
2.460626e-01
2.426411e-01
2.388427e-01
2.346642e-01
2.301041e-01
2.251660e-01
2.198645e-01
2.142265e-01
2.082898e-01
2.021006e-01
1.957118e-01
1.891816e-01
1.825709e-01
1.759398e-01
1.693439e-01
1.628305e-01
1.564339e-01
1.501721e-01
1.440458e-01
1.380407e-01
1.321337e-01
1.262993e-01
1.205130e-01
1.147516e-01
1.089914e-01
1.032081e-01
9.737959e-02
9.148946e-02
8.552804e-02
7.948808e-02
7.335730e-02
6.711235e-02
6.071877e-02
5.413782e-02
4.733467e-02
4.028065e-02
3.294805e-02
2.530449e-02
1.731499e-02
8.950297e-03
1.933844e-04
-8.961641e-03
-1.851512e-02
-2.846546e-02
-3.880901e-02
-4.954134e-02
-6.066511e-02
-7.220216e-02
-8.419921e-02
-9.671636e-02
-1.097969e-01
-1.234332e-01
-1.375557e-01
-1.520591e-01
-1.668481e-01
-1.818594e-01
-1.970464e-01
-2.123512e-01
-2.276966e-01
-2.429999e-01
-2.581872e-01
-2.731960e-01
-2.879687e-01
-3.024458e-01
-3.165638e-01
-3.302607e-01
-3.434840e-01
-3.561977e-01
-3.683798e-01
-3.800104e-01
-3.910603e-01
-4.014855e-01
-4.112332e-01
-4.202536e-01
-4.285115e-01
-4.359896e-01
-4.426850e-01
-4.486059e-01
-4.537752e-01
-4.582391e-01
-4.620718e-01
-4.653706e-01
-4.682392e-01
-4.707665e-01
-4.730083e-01
-4.749822e-01
-4.766790e-01
-4.780858e-01
-4.792033e-01
-4.800468e-01
-4.806330e-01
-4.809644e-01
-4.810261e-01
-4.807942e-01
-4.802513e-01
-4.793945e-01
-4.782291e-01
-4.767526e-01
-4.749467e-01
-4.727830e-01
-4.702343e-01
-4.672787e-01
-4.638956e-01
-4.600611e-01
-4.557507e-01
-4.509454e-01
-4.456383e-01
-4.398339e-01
-4.335389e-01
-4.267479e-01
-4.194358e-01
-4.115621e-01
-4.030851e-01
-3.939731e-01
-3.842049e-01
-3.737620e-01
-3.626253e-01
-3.507815e-01
-3.382357e-01
-3.250172e-01
-3.111729e-01
-2.967528e-01
-2.818035e-01
-2.663813e-01
-2.505784e-01
-2.345418e-01
-2.184613e-01
-2.025303e-01
-1.869029e-01
-1.716767e-01
-1.569080e-01
-1.426465e-01
-1.289611e-01
-1.159385e-01
-1.036582e-01
-9.216325e-02
-8.144902e-02
-7.147623e-02
-6.219951e-02
-5.359011e-02
-4.563950e-02
-3.834592e-02
-3.169804e-02
-2.567035e-02
-2.023370e-02
-1.537102e-02
-1.108453e-02
-7.389077e-03
-4.298390e-03
-1.816047e-03
6.264596e-05
1.341918e-03
2.019373e-03
2.087970e-03
1.542766e-03
3.845568e-04
-1.381704e-03
-3.746629e-03
-6.688457e-03
-1.016272e-02
-1.409890e-02
-1.840616e-02
-2.298383e-02
-2.773229e-02
-3.256052e-02
-3.738813e-02
-4.214251e-02
-4.675473e-02
-5.115828e-02
-5.529290e-02
-5.911223e-02
-6.259035e-02
-6.572222e-02
-6.851751e-02
-7.099345e-02
-7.317357e-02
-7.509346e-02
-7.680708e-02
-7.838631e-02
-7.991409e-02
-8.147766e-02
-8.316689e-02
-8.507519e-02
-8.729682e-02
-8.991904e-02
-9.301264e-02
-9.662595e-02
-1.007842e-01
-1.054938e-01
-1.107487e-01
-1.165376e-01
-1.228460e-01
-1.296560e-01
-1.369466e-01
-1.446970e-01
-1.528850e-01
-1.614810e-01
-1.704416e-01
-1.797135e-01
-1.892464e-01
-1.990039e-01
-2.089621e-01
-2.190973e-01
-2.293748e-01
-2.397469e-01
-2.501643e-01
-2.605880e-01
-2.709943e-01
-2.813702e-01
-2.917044e-01
-3.019850e-01
-3.122035e-01
-3.223592e-01
-3.324563e-01
-3.424942e-01
-3.524609e-01
-3.623340e-01
-3.720883e-01
-3.817010e-01
-3.911512e-01
-4.004151e-01
-4.094595e-01
-4.182354e-01
-4.266751e-01
-4.346949e-01
-4.422042e-01
-4.491164e-01
-4.553552e-01
-4.608540e-01
-4.655514e-01
-4.693870e-01
-4.723031e-01
-4.742512e-01
-4.751998e-01
-4.751376e-01
-4.740727e-01
-4.720289e-01
-4.690434e-01
-4.651631e-01
-4.604395e-01
-4.549199e-01
-4.486423e-01
-4.416363e-01
-4.339323e-01
-4.255712e-01
-4.166059e-01
-4.070933e-01
-3.970813e-01
-3.866043e-01
-3.756908e-01
-3.643785e-01
-3.527262e-01
-3.408118e-01
-3.287186e-01
-3.165169e-01
-3.042524e-01
-2.919474e-01
-2.796129e-01
-2.672638e-01
-2.549295e-01
-2.426537e-01
-2.304864e-01
-2.184730e-01
-2.066481e-01
-1.950382e-01
-1.836685e-01
-1.725667e-01
-1.617612e-01
-1.512758e-01
-1.411248e-01
-1.313136e-01
-1.218421e-01
-1.127042e-01
-1.038843e-01
-9.535361e-02
-8.707417e-02
-7.900706e-02
-7.111673e-02
-6.336715e-02
-5.571402e-02
-4.810239e-02
-4.047475e-02
-3.278565e-02
-2.501255e-02
-1.715438e-02
-9.218424e-03
-1.205955e-03
6.892291e-03
1.508901e-02
2.338944e-02
3.178561e-02
4.025875e-02
4.878653e-02
5.734904e-02
6.592945e-02
7.450966e-02
8.306541e-02
9.156600e-02
9.997955e-02
1.082798e-01
1.164494e-01
1.244771e-01
1.323524e-01
1.400624e-01
1.475936e-01
1.549367e-01
1.620922e-01
1.690701e-01
1.758847e-01
1.825475e-01
1.890641e-01
1.954374e-01
2.016713e-01
2.077711e-01
2.137364e-01
2.195537e-01
2.251967e-01
2.306342e-01
2.358409e-01
2.408009e-01
2.455041e-01
2.499399e-01
2.540932e-01
2.579454e-01
2.614794e-01
2.646843e-01
2.675589e-01
2.701111e-01
2.723523e-01
2.742908e-01
2.759272e-01
2.772536e-01
2.782573e-01
2.789246e-01
2.792442e-01
2.792075e-01
2.788074e-01
2.780347e-01
2.768769e-01
2.753222e-01
2.733650e-01
2.710099e-01
2.682722e-01
2.651759e-01
2.617534e-01
2.580437e-01
2.540915e-01
2.499425e-01
2.456356e-01
2.411936e-01
2.366183e-01
2.318937e-01
2.269974e-01
2.219116e-01
2.166258e-01
2.111332e-01
2.054266e-01
1.995000e-01
1.933537e-01
1.869992e-01
1.804568e-01
1.737497e-01
1.668997e-01
1.599281e-01
1.528598e-01
1.457258e-01
1.385623e-01
1.314054e-01
1.242875e-01
1.172366e-01
1.102779e-01
1.034356e-01
9.673023e-02
9.017573e-02
8.377584e-02
7.752389e-02
7.140488e-02
6.539821e-02
5.947925e-02
5.361903e-02
4.778400e-02
4.193877e-02
3.605358e-02
3.011364e-02
2.412509e-02
1.811395e-02
1.211995e-02
6.190410e-03
3.766483e-04
-5.269139e-03
-1.069928e-02
-1.587797e-02
-2.078728e-02
-2.542806e-02
-2.981555e-02
-3.397263e-02
-3.792432e-02
-4.169550e-02
-4.531178e-02
-4.880195e-02
-5.219990e-02
-5.554421e-02
-5.887541e-02
-6.223201e-02
-6.564714e-02
-6.914823e-02
-7.275965e-02
-7.650511e-02
-8.040725e-02
-8.448665e-02
-8.876351e-02
-9.326019e-02
-9.800005e-02
-1.030030e-01
-1.082827e-01
-1.138471e-01
-1.197024e-01
-1.258545e-01
-1.323097e-01
-1.390724e-01
-1.461437e-01
-1.535216e-01
-1.612040e-01
-1.691916e-01
-1.774884e-01
-1.861012e-01
-1.950386e-01
-2.043093e-01
-2.139199e-01
-2.238708e-01
-2.341512e-01
-2.447359e-01
-2.555831e-01
-2.666381e-01
-2.778383e-01
-2.891170e-01
-3.004042e-01
-3.116272e-01
-3.227143e-01
-3.336030e-01
-3.442453e-01
-3.546081e-01
-3.646645e-01
-3.743838e-01
-3.837284e-01
-3.926574e-01
-4.011339e-01
-4.091265e-01
-4.166075e-01
-4.235496e-01
-4.299287e-01
-4.357303e-01
-4.409586e-01
-4.456412e-01
-4.498282e-01
-4.535843e-01
-4.569815e-01
-4.600927e-01
-4.629903e-01
-4.657430e-01
-4.684110e-01
-4.710410e-01
-4.736642e-01
-4.763005e-01
-4.789625e-01
-4.816584e-01
-4.843927e-01
-4.871695e-01
-4.899953e-01
-4.928813e-01
-4.958432e-01
-4.988998e-01
-5.020706e-01
-5.053729e-01
-5.088184e-01
-5.124098e-01
-5.161412e-01
-5.200002e-01
-5.239703e-01
-5.280313e-01
-5.321568e-01
-5.363137e-01
-5.404625e-01
-5.445632e-01
-5.485829e-01
-5.525038e-01
-5.563220e-01
-5.600392e-01
-5.636529e-01
-5.671581e-01
-5.705562e-01
-5.738613e-01
-5.770951e-01
-5.802752e-01
-5.834061e-01
-5.864797e-01
-5.894806e-01
-5.923923e-01
-5.951989e-01
-5.978809e-01
-6.004126e-01
-6.027615e-01
-6.048943e-01
-6.067825e-01
-6.084041e-01
-6.097414e-01
-6.107767e-01
-6.114929e-01
-6.118764e-01
-6.119196e-01
-6.116222e-01
-6.109908e-01
-6.100393e-01
-6.087905e-01
-6.072772e-01
-6.055436e-01
-6.036447e-01
-6.016470e-01
-5.996257e-01
-5.976613e-01
-5.958354e-01
-5.942269e-01
-5.929105e-01
-5.919566e-01
-5.914320e-01
-5.913977e-01
-5.919052e-01
-5.929918e-01
-5.946774e-01
-5.969630e-01
-5.998319e-01
-6.032530e-01
-6.071882e-01
-6.115976e-01
-6.164389e-01
-6.216622e-01
-6.272062e-01
-6.329994e-01
-6.389664e-01
-6.450348e-01
-6.511383e-01
-6.572162e-01
-6.632123e-01
-6.690750e-01
-6.747598e-01
-6.802296e-01
-6.854545e-01
-6.904092e-01
-6.950715e-01
-6.994229e-01
-7.034520e-01
-7.071600e-01
-7.105639e-01
-7.136967e-01
-7.166027e-01
-7.193316e-01
-7.219336e-01
-7.244579e-01
-7.269515e-01
-7.294585e-01
-7.320199e-01
-7.346739e-01
-7.374562e-01
-7.403982e-01
-7.435232e-01
-7.468437e-01
-7.503631e-01
-7.540817e-01
-7.580039e-01
-7.621397e-01
-7.665010e-01
-7.710989e-01
-7.759449e-01
-7.810519e-01
-7.864316e-01
-7.920909e-01
-7.980316e-01
-8.042494e-01
-8.107298e-01
-8.174435e-01
-8.243470e-01
-8.313870e-01
-8.385057e-01
-8.456418e-01
-8.527282e-01
-8.596906e-01
-8.664470e-01
-8.729109e-01
-8.789975e-01
-8.846324e-01
-8.897567e-01
-8.943269e-01
-8.983106e-01
-9.016825e-01
-9.044215e-01
-9.065121e-01
-9.079461e-01
-9.087218e-01
-9.088418e-01
-9.083094e-01
-9.071290e-01
-9.053083e-01
-9.028586e-01
-8.997941e-01
-8.961294e-01
-8.918795e-01
-8.870629e-01
-8.817060e-01
-8.758465e-01
-8.695297e-01
-8.627992e-01
-8.556838e-01
-8.481903e-01
-8.403061e-01
-8.320136e-01
-8.233072e-01
-8.142008e-01
-8.047197e-01
-7.948850e-01
-7.847017e-01
-7.741605e-01
-7.632512e-01
-7.519777e-01
-7.403613e-01
-7.284294e-01
-7.161976e-01
-7.036620e-01
-6.908067e-01
-6.776212e-01
-6.641144e-01
-6.503163e-01
-6.362658e-01
-6.219952e-01
-6.075205e-01
-5.928455e-01
-5.779748e-01
-5.629257e-01
-5.477294e-01
-5.324225e-01
-5.170363e-01
-5.015940e-01
-4.861171e-01
-4.706356e-01
-4.551952e-01
-4.398547e-01
-4.246763e-01
-4.097160e-01
-3.950188e-01
-3.806225e-01
-3.665609e-01
-3.528625e-01
-3.395442e-01
-3.266077e-01
-3.140399e-01
-3.018163e-01
-2.899040e-01
-2.782640e-01
-2.668510e-01
-2.556137e-01
-2.444955e-01
-2.334374e-01
-2.223796e-01
-2.112635e-01
-2.000312e-01
-1.886279e-01
-1.770081e-01
-1.651426e-01
-1.530219e-01
-1.406518e-01
-1.280462e-01
-1.152214e-01
-1.021954e-01
-8.898907e-02
-7.562439e-02
-6.212159e-02
-4.849785e-02
-3.477059e-02
-2.096411e-02
-7.114352e-03
6.731533e-03
2.052103e-02
3.420374e-02
4.773503e-02
6.107406e-02
7.418152e-02
8.702252e-02
9.957189e-02
1.118140e-01
1.237350e-01
1.353152e-01
1.465281e-01
1.573482e-01
1.677580e-01
1.777483e-01
1.873121e-01
1.964386e-01
2.051133e-01
2.133258e-01
2.210769e-01
2.283793e-01
2.352493e-01
2.416967e-01
2.477234e-01
2.533323e-01
2.585405e-01
2.633837e-01
2.679055e-01
2.721407e-01
2.761056e-01
2.798070e-01
2.832606e-01
2.865044e-01
2.895964e-01
2.925993e-01
2.955686e-01
2.985505e-01
3.015875e-01
3.047233e-01
3.079998e-01
3.114478e-01
3.150795e-01
3.188913e-01
3.228733e-01
3.270175e-01
3.313175e-01
3.357628e-01
3.403348e-01
3.450080e-01
3.497573e-01
3.545654e-01
3.594265e-01
3.643442e-01
3.693267e-01
3.743828e-01
3.795208e-01
3.847473e-01
3.900649e-01
3.954655e-01
4.009277e-01
4.064196e-01
4.119081e-01
4.173685e-01
4.227851e-01
4.281454e-01
4.334309e-01
4.386128e-01
4.436527e-01
4.485058e-01
4.531245e-01
4.574573e-01
4.614479e-01
4.650363e-01
4.681672e-01
4.707992e-01
4.729086e-01
4.744823e-01
4.755071e-01
4.759631e-01
4.758270e-01
4.750806e-01
4.737163e-01
4.717337e-01
4.691329e-01
4.659106e-01
4.620645e-01
4.576000e-01
4.525344e-01
4.468957e-01
4.407159e-01
4.340269e-01
4.268610e-01
4.192571e-01
4.112631e-01
4.029337e-01
3.943248e-01
3.854916e-01
3.764907e-01
3.673822e-01
3.582281e-01
3.490870e-01
3.400087e-01
3.310313e-01
3.221822e-01
3.134785e-01
3.049261e-01
2.965182e-01
2.882346e-01
2.800454e-01
2.719162e-01
2.638106e-01
2.556902e-01
2.475146e-01
2.392437e-01
2.308429e-01
2.222883e-01
2.135722e-01
2.047080e-01
1.957302e-01
1.866872e-01
1.776271e-01
1.685888e-01
1.596019e-01
1.506933e-01
1.418908e-01
1.332229e-01
1.247154e-01
1.163910e-01
1.082726e-01
1.003879e-01
9.277132e-02
8.546186e-02
7.849842e-02
7.191624e-02
6.574452e-02
6.000410e-02
5.470522e-02
4.984692e-02
4.541828e-02
4.140006e-02
3.776587e-02
3.448388e-02
3.151936e-02
2.883728e-02
2.640291e-02
2.418102e-02
2.213539e-02
2.023015e-02
1.843220e-02
1.671307e-02
1.504885e-02
1.341861e-02
1.180340e-02
1.018761e-02
8.561856e-03
6.924338e-03
5.280052e-03
3.639899e-03
2.021118e-03
4.477034e-04
-1.051232e-03
-2.445435e-03
-3.707794e-03
-4.816171e-03
-5.751952e-03
-6.496975e-03
-7.031895e-03
-7.338907e-03
-7.408384e-03
-7.243657e-03
-6.858475e-03
-6.268601e-03
-5.484784e-03
-4.512499e-03
-3.357525e-03
-2.032640e-03
-5.607231e-04
1.028788e-03
2.709509e-03
4.468171e-03
6.307459e-03
8.239193e-03
1.027422e-02
1.241823e-02
1.467622e-02
1.706077e-02
1.959740e-02
2.232359e-02
2.528222e-02
2.851295e-02
3.204664e-02
3.590515e-02
4.010525e-02
4.466230e-02
4.958944e-02
5.489229e-02
6.056410e-02
6.658637e-02
7.293520e-02
7.958815e-02
8.652542e-02
9.372394e-02
1.011502e-01
1.087591e-01
1.165007e-01
1.243285e-01
1.322035e-01
1.400930e-01
1.479662e-01
1.557922e-01
1.635415e-01
1.711910e-01
1.787281e-01
1.861523e-01
1.934722e-01
2.007031e-01
2.078660e-01
2.149913e-01
2.221230e-01
2.293173e-01
2.366366e-01
2.441414e-01
2.518828e-01
2.599013e-01
2.682289e-01
2.768926e-01
2.859168e-01
2.953237e-01
3.051310e-01
3.153494e-01
3.259820e-01
3.370257e-01
3.484744e-01
3.603219e-01
3.725625e-01
3.851895e-01
3.981941e-01
4.115666e-01
4.252984e-01
4.393831e-01
4.538137e-01
4.685790e-01
4.836614e-01
4.990375e-01
5.146804e-01
5.305609e-01
5.466460e-01
5.628962e-01
5.792631e-01
5.956914e-01
6.121246e-01
6.285099e-01
6.447985e-01
6.609414e-01
6.768845e-01
6.925667e-01
7.079240e-01
7.228944e-01
7.374228e-01
7.514604e-01
7.649619e-01
7.778829e-01
7.901792e-01
8.018070e-01
8.127254e-01
8.228974e-01
8.322920e-01
8.408843e-01
8.486553e-01
8.555921e-01
8.616877e-01
8.669412e-01
8.713588e-01
8.749560e-01
8.777584e-01
8.798010e-01
8.811248e-01
8.817741e-01
8.817954e-01
8.812362e-01
8.801453e-01
8.785740e-01
8.765786e-01
8.742201e-01
8.715602e-01
8.686563e-01
8.655579e-01
8.623076e-01
8.589425e-01
8.554955e-01
8.519954e-01
8.484648e-01
8.449197e-01
8.413705e-01
8.378260e-01
8.342973e-01
8.307968e-01
8.273345e-01
8.239135e-01
8.205298e-01
8.171752e-01
8.138397e-01
8.105119e-01
8.071770e-01
8.038167e-01
8.004090e-01
7.969303e-01
7.933557e-01
7.896598e-01
7.858162e-01
7.817979e-01
7.775781e-01
7.731280e-01
7.684159e-01
7.634072e-01
7.580684e-01
7.523725e-01
7.463012e-01
