EVENT_NAME: L_AQUILA
EVENT_ID: IT-2009-0009
EVENT_DATE_YYYYMMDD: 20090406
EVENT_TIME_HHMMSS: 013240
EVENT_LATITUDE_DEGREE: 42.3420
EVENT_LONGITUDE_DEGREE: 13.3800
EVENT_DEPTH_KM: 8.3
HYPOCENTER_REFERENCE: INGV-CNT_Seismic_Bulletin
MAGNITUDE_W: 6.1
MAGNITUDE_W_REFERENCE: INGV-CNT_Seismic_Bulletin
MAGNITUDE_L: 
MAGNITUDE_L_REFERENCE: 
FOCAL_MECHANISM: Normal faulting
NETWORK: IT
STATION_CODE: ORC
STATION_NAME: 
STATION_LATITUDE_DEGREE: 41.953606
STATION_LONGITUDE_DEGREE: 13.642346
STATION_ELEVATION_M: 732
LOCATION: 
SENSOR_DEPTH_M: 0.0
VS30_M/S: 767
SITE_CLASSIFICATION_EC8: B
MORPHOLOGIC_CLASSIFICATION: 
EPICENTRAL_DISTANCE_KM: 48.3
EARTHQUAKE_BACKAZIMUTH_DEGREE: 153.2
DATE_TIME_FIRST_SAMPLE_YYYYMMDD_HHMMSS: 20090406_013235.000
DATE_TIME_FIRST_SAMPLE_PRECISION: seconds
SAMPLING_INTERVAL_S: 0.005000
NDATA: 14200
DURATION_S: 71.000
STREAM: HNZ
UNITS: cm/s^2
INSTRUMENT: sensor = FBA-3 [Kinemetrics] | digitizer = Everest [Kinemetrics]
INSTRUMENT_ANALOG/DIGITAL: D
INSTRUMENTAL_FREQUENCY_HZ: 214.000
INSTRUMENTAL_DAMPING: 0.000000
FULL_SCALE_G: 1.0
N_BIT_DIGITAL_CONVERTER: 24
PGA_CM/S^2: -30.507721
TIME_PGA_S: 25.620000
BASELINE_CORRECTION: BASELINE NOT REMOVED
FILTER_TYPE: 
FILTER_ORDER: 
LOW_CUT_FREQUENCY_HZ: 
HIGH_CUT_FREQUENCY_HZ: 
LATE/NORMAL_TRIGGERED: NT
DATABASE_VERSION: 0.5
HEADER_FORMAT: DYNA 1.2
DATA_TYPE: ACCELERATION
PROCESSING: converted to cm/s^2
DATA_TIMESTAMP_YYYYMMDD_HHMMSS: 20211011_160159.876
DATA_LICENSE: CC-BY3_0-IT (http://creativecommons.org/licenses/by/3.0/deed.en)
DATA_CITATION: Luzi L, Pacor F, Puglia R (2019). Italian Accelerometric Archive v 3.0 - Istituto Nazionale di Geofisica e Vulcanologia, Dipartimento della Protezione Civile Nazionale. doi: 10.13127/itaca.3.1
DATA_CREATOR: ITACA working group
ORIGINAL_DATA_MEDIATOR_CITATION: data obtained within the DPC-INGV data exchange agreements
ORIGINAL_DATA_MEDIATOR: Archive of Italian Department of Civil Protection
ORIGINAL_DATA_CREATOR_CITATION: Presidency Of Counsil Of Ministers-Civil Protection Department. (1972). Italian Strong Motion Network. Presidency of Counsil of Ministers - Civil Protection Department. https://doi.org/10.7914/SN/IT http://www.fdsn.org/networks/detail/IT/
ORIGINAL_DATA_CREATOR: network: IT (Italian Strong Motion Network (RAN)); owner: Presidency of Counsil of Ministers - Civil Protection Department (PCM - DPC)
USER1: 
USER2: 
USER3: 
USER4: 
USER5: 
[...]
2.109458
2.341475
2.835916
3.495482
4.212584
4.944305
5.467046
5.540020
5.175387
4.568680
3.934842
3.251653
2.418425
1.431883
0.415870
-0.465422
-1.136916
-1.612646
-1.908047
-1.976810
-1.819052
-1.513477
-1.265789
-1.215971
-1.298065
-1.384253
-1.367180
-1.268362
-1.167205
-1.073766
-0.865138
-0.462732
-0.028050
0.145378
-0.144410
-0.886889
-1.919040
-2.938443
-3.815175
-4.612501
-5.293819
-5.704410
-5.494261
-4.326806
-2.083580
0.980595
4.193406
6.806293
8.371475
8.956079
8.841357
8.250204
7.289155
5.932367
4.219952
2.233536
-0.010976
-2.563403
-5.379539
-8.106213
-10.202560
-11.198800
-10.972870
-9.763547
-7.836890
-5.367961
-2.580243
0.164557
2.450584
4.068275
5.097736
5.740930
6.201457
6.513581
6.529134
6.076092
5.013887
3.345442
1.242433
-1.078093
-3.390784
-5.361529
-6.567810
-6.735274
-5.876084
-4.339202
-2.599656
-0.977638
0.379150
1.481350
2.316917
2.855563
3.101263
3.030862
2.664008
2.009704
1.165250
0.239869
-0.642008
-1.273975
-1.668311
-1.927226
-2.241338
-2.826060
-3.627947
-4.440008
-4.811891
-4.415918
-3.270097
-1.485761
0.529306
2.396790
3.946536
5.141590
5.987916
6.213151
5.589604
4.091430
2.025609
-0.093071
-2.073523
-3.811550
-5.149393
-5.861233
-5.657983
-4.586189
-2.952009
-1.209656
0.248991
1.388029
2.245815
2.961163
3.560269
3.863155
3.782580
3.319715
2.782238
2.347673
1.919891
1.441121
0.829386
0.177304
-0.396542
-0.833563
-1.194921
-1.656266
-2.169534
-2.406347
-1.984879
-0.925013
0.284191
1.050878
1.181973
0.878619
0.390611
-0.048983
-0.426129
-0.748427
-0.923961
-0.873908
-0.486940
0.202096
1.048422
1.844813
2.394451
2.551858
2.121503
1.169577
0.119534
-0.611953
-0.899519
-1.011435
-1.285085
-1.817298
-2.516859
-3.247761
-4.005326
-4.674599
-4.908604
-4.369257
-2.857050
-0.609030
1.719332
3.393507
3.893209
3.136463
1.411300
-0.738487
-2.731920
-4.130925
-4.718452
-4.590282
-3.927325
-2.901255
-1.766077
-0.829937
-0.400986
-0.429754
-0.479221
-0.137861
0.785531
2.051220
3.214582
4.011323
4.388702
4.544122
4.528568
4.108153
3.161840
1.879896
0.756997
0.200693
0.231800
0.591287
0.978723
1.182207
1.143966
0.975332
0.822954
0.861311
1.245941
1.994969
2.956953
3.863973
4.380633
4.351398
4.095406
4.179840
4.854024
5.838695
6.544103
6.372780
5.351271
3.966884
2.540865
1.142913
-0.444840
-2.129890
-3.476387
-4.251611
-4.408433
-4.230210
-4.165306
-4.314176
-4.676587
-5.248444
-5.713064
-5.777968
-5.207865
-3.938434
-2.157255
-0.054713
1.982807
3.579214
4.496876
4.833793
4.870981
4.605166
3.995302
2.971220
1.712549
0.551760
-0.446594
-1.227665
-1.836711
-2.218651
-2.238415
-2.091416
-2.072588
-2.346004
-2.637779
-2.520952
-1.935295
-1.082303
-0.267084
0.288869
0.463467
0.305826
-0.037055
-0.386251
-0.556639
-0.497231
-0.104883
0.624031
1.573970
2.473856
2.980459
3.047117
2.638631
1.989707
1.388145
0.990652
1.140574
1.765876
2.585655
3.145000
3.057876
2.413045
1.368265
0.195898
-1.115398
-2.673214
-4.258160
-5.454267
-5.837727
-5.374159
-4.412409
-3.466564
-2.727008
-2.056098
-1.238307
-0.172476
0.936507
1.953571
2.818491
3.537933
4.128501
4.406946
4.213871
3.497353
2.369893
1.175541
0.403240
0.341143
0.867509
1.454921
1.605311
1.269915
0.381021
-0.786434
-1.978447
-3.098774
-3.592279
-3.463640
-2.639884
-1.285786
0.100822
1.630220
2.873689
3.901747
4.755206
5.024178
4.812392
3.780943
2.232016
0.581697
-0.933784
-1.792506
-2.287064
-2.462714
-2.422602
-2.459322
-2.358049
-2.182398
-1.802329
-1.042191
-0.189550
0.514571
0.897096
0.975449
0.965859
0.967614
1.085143
1.274125
1.354582
1.321019
1.050410
0.594444
0.175082
-0.160782
-0.225218
-0.100322
0.169820
0.720510
1.330258
1.869956
1.945970
1.222201
-0.211536
-2.291507
-4.501287
-6.393914
-7.595634
-7.709187
-6.848360
-5.068116
-2.767939
-0.593359
1.085494
1.924803
1.929598
1.224891
0.031825
-1.293505
-2.564572
-3.496969
-3.961238
-4.080638
-3.980534
-3.829910
-3.622334
-3.279219
-2.700462
-1.725263
-0.328129
1.421825
3.287906
4.976231
6.320389
7.110581
7.056202
6.180523
4.830518
3.511854
2.677106
2.317619
2.270724
2.225233
1.979650
1.516550
0.684258
-0.327077
-1.270467
-1.850043
-1.890739
-1.541660
-0.830522
0.024224
0.946096
1.879312
2.543321
2.895792
2.848078
2.456198
1.954390
1.446384
1.110870
0.939430
0.777111
0.653969
0.548018
0.492937
0.517378
0.462999
0.244664
-0.108157
-0.311289
-0.185574
0.152980
0.584153
0.892886
1.098591
1.203841
1.031465
0.456450
-0.785732
-2.567145
-4.319907
-5.406436
-5.401525
-4.439190
-2.838456
-0.954249
0.943289
2.702716
4.080788
4.903375
5.061951
4.660013
3.931567
3.152484
2.673831
2.542386
2.685058
2.966426
3.142193
3.084890
2.766451
2.328612
1.891708
1.493746
1.208051
1.161157
1.337626
1.477257
1.438548
1.040002
0.256241
-0.682821
-1.588906
-2.202747
-2.434062
-2.135972
-1.366244
-0.574765
-0.019630
0.065856
-0.219020
-0.577221
-0.925130
-1.200768
-1.615101
-2.309166
-3.114211
-3.810497
-4.211499
-4.347271
-4.373467
-4.438137
-4.567244
-4.712021
-4.843349
-4.921702
-4.982747
-4.951640
-4.691088
-4.075610
-2.917861
-1.338528
0.428734
2.196347
3.680254
4.852621
5.641527
5.993062
5.861148
5.058559
3.850642
2.520985
1.530584
1.222435
1.394928
1.935679
2.506133
3.000340
3.309891
3.139620
2.574545
1.651153
0.709401
0.107021
-0.144878
-0.123594
-0.265798
-0.813214
-1.585515
-2.408569
-2.905231
-2.752268
-2.000199
-0.769477
0.704255
2.088291
3.139153
3.654526
3.661660
3.309073
2.665645
1.956846
1.224774
0.485335
-0.135873
-0.742463
-1.311514
-2.015870
-2.819394
-3.334300
-3.331610
-2.447979
-0.857302
0.916041
2.322063
2.792296
2.270373
0.903996
-0.808069
-2.354891
-3.522112
-4.001350
-3.827688
-3.095850
-1.867116
-0.529390
0.678293
1.540524
1.982106
2.205352
2.232249
2.197049
2.172023
2.067709
1.984795
1.711380
1.122682
0.354358
-0.712408
-1.819871
-2.683271
-3.076555
-2.802086
-2.123108
-1.155978
-0.250595
0.387219
0.844354
1.043744
1.076840
0.784245
0.136374
-0.715098
-1.536164
-1.979851
-2.073289
-1.879629
-1.385072
-0.556171
0.668704
2.078234
3.339712
4.265560
4.613353
4.336545
3.523782
2.337265
1.132271
0.087491
-0.522140
-0.719308
-0.723401
-0.682354
-0.843854
-1.083473
-1.340984
-1.381330
-1.106394
-0.703404
-0.087341
0.509660
1.077191
1.523684
1.603206
1.381012
0.744133
-0.088277
-0.926650
-1.773678
-2.520133
-3.097488
-3.266004
-2.883713
-2.101473
-1.300287
-0.763045
-0.679781
-1.102301
-1.699418
-2.162401
-2.192806
-1.661294
-0.579326
1.103737
3.095415
5.088147
6.789102
7.933869
8.571684
8.575542
7.933051
6.749341
5.150946
3.547873
1.995671
0.478670
-1.115165
-2.972123
-4.734006
-6.092315
-6.700425
-6.463730
-5.774928
-4.862996
-4.010706
-3.280038
-2.697772
-2.424824
-2.389741
-2.529957
-2.505749
-1.989557
-0.913319
0.579826
1.920476
2.723065
2.845272
2.356678
1.646592
0.900137
0.276122
-0.006182
0.038491
0.348627
0.729866
0.987143
1.098474
1.045265
0.814767
0.355293
-0.290239
-0.991905
-1.543415
-1.789465
-1.696144
-1.241114
-0.642593
-0.001504
0.664026
1.165600
1.413055
1.303946
0.906452
0.454111
0.044338
-0.259483
-0.484133
-0.667736
-0.618970
-0.294917
0.156839
0.528722
0.445223
-0.083365
-0.860343
-1.680006
-2.143339
-2.238064
-2.031540
-1.561658
-1.098441
-0.690774
-0.365551
-0.171190
-0.091200
-0.291994
-0.660251
-1.034473
-1.378991
-1.504940
-1.526575
-1.414776
-1.108733
-0.797427
-0.406950
-0.072489
0.197535
0.555970
0.888910
1.272371
1.703427
2.120451
2.446608
2.632199
2.787969
2.850768
2.861878
2.820128
2.636292
2.215643
1.430012
0.383945
-0.697439
-1.430563
-1.819286
-1.924302
-1.731695
-1.389867
-0.730535
-0.015654
0.869497
2.026310
3.174937
4.467172
5.420151
5.942074
5.923246
5.226842
4.378996
3.475718
2.846675
2.328962
1.695124
1.068771
0.240805
-0.582600
-1.542128
-2.688416
-3.639174
-4.424922
-4.951289
-5.198860
-5.361647
-5.295807
-4.858084
-4.087538
-3.029777
-1.944183
-0.942321
-0.019279
0.529540
0.796875
0.875228
0.615260
0.093338
-0.850870
-1.998913
-3.005920
-3.759042
-4.042865
-4.087421
-3.939136
-3.657768
-3.467616
-3.306818
-3.300269
-3.314770
-3.182272
-3.004634
-2.794602
-2.654970
-2.610298
-2.494523
-2.231866
-1.875419
-1.489620
-1.202288
-0.996349
-0.873908
-0.894140
-0.868529
-0.827832
-0.729365
-0.413031
-0.014017
0.472588
0.994394
1.434806
1.954156
2.566944
3.127809
3.609503
3.751590
3.533489
3.274106
3.001626
2.905849
2.879185
2.626586
2.139630
1.329790
0.428968
-0.462381
-1.278536
-1.954825
-2.604333
-3.068719
-3.438848
-3.722087
-3.851779
-3.808860
-3.466213
-2.910026
-2.291624
-1.758007
-1.290932
-0.910278
-0.483081
-0.005129
0.468495
0.985155
1.343940
1.743890
2.024556
2.237512
2.586474
2.916140
3.635932
4.508103
5.448335
6.372429
6.785710
6.869325
6.419207
5.619542
4.761989
3.771938
2.989581
2.228273
1.464861
1.012403
0.936740
1.272955
1.501464
1.310494
0.919550
0.418209
0.133684
0.205254
0.557490
1.239158
1.929481
2.404158
2.504847
2.084666
1.425685
0.624967
-0.239135
-0.967230
-1.487047
-1.503069
-1.021024
-0.320879
0.468963
0.954516
0.976268
0.583101
-0.305793
-1.362151
-2.403891
-3.302725
-3.772724
-3.904754
-3.452647
-2.365650
-0.963488
0.579125
1.667292
2.039759
1.571514
0.150992
-1.792740
-3.892826
-5.678098
-6.823567
-7.357535
-7.348647
-7.028805
-6.667914
-6.441627
-6.493550
-6.829181
-7.252285
-7.572947
-7.688371
-7.668841
-7.495997
-7.242696
-7.202350
-7.281755
-7.429456
-7.627442
-7.721700
-7.780055
-7.721349
-7.472140
-7.164811
-6.821696
-6.462911
-6.183297
-5.936194
-5.696107
-5.377434
-4.733655
-3.724660
-2.460843
-1.174455
-0.122892
0.575616
1.132154
1.745644
2.362993
2.979056
3.334800
3.451277
3.467649
3.352342
3.263932
3.125938
3.007123
2.945844
2.766451
2.480522
2.056482
1.537717
1.101749
0.722031
0.362895
0.074042
-0.186042
-0.254103
-0.066993
0.327344
0.764832
0.985155
1.116952
1.248280
1.511989
1.858729
2.029000
1.986082
1.631507
1.183142
0.936156
0.998487
1.537016
2.507653
3.765272
5.226491
6.646780
7.703489
8.261898
8.145305
7.437090
6.524691
5.584341
4.867473
4.464600
4.335493
4.537456
4.982078
5.644918
6.365529
6.890726
7.113271
7.131515
7.136777
7.147419
7.157125
6.909905
6.126729
4.786664
2.909006
0.730217
-1.467167
-3.451361
-4.929186
-5.656814
-5.569106
-4.705706
-3.182389
-1.391504
0.258346
1.500295
2.139863
2.205001
1.961757
1.597593
1.233194
0.966093
0.691040
0.427565
-0.020098
-0.845842
-2.013297
-3.641629
-5.403747
-6.983781
-8.144804
-8.604630
-8.347235
-7.384198
-5.939117
-4.206003
-2.383543
-0.625168
0.943172
2.268502
3.482267
4.620018
5.724324
6.611229
7.163674
7.299096
6.922652
6.213385
5.348464
4.569382
3.954021
3.512790
3.338426
3.428590
3.839532
4.501203
5.236315
6.004990
6.751796
7.597538
8.663135
9.655172
10.316840
10.404080
9.777029
8.701024
7.399434
6.106030
5.071189
4.336195
3.986297
3.912622
3.893911
3.897419
3.732411
3.453967
3.124184
2.504379
1.715473
0.776761
-0.239135
-1.100196
-1.863374
-2.344951
-2.582816
-2.728528
-2.645498
-2.437922
-2.044170
-1.667609
-1.742103
-2.314662
-3.464810
-4.910475
-6.433441
-7.998624
-9.278462
-10.370140
-11.314580
-11.865970
-11.944790
-11.387200
-10.327570
-9.068196
-7.677729
-6.416601
-5.525486
-5.020169
-4.893869
-5.057357
-5.363167
-5.597172
-5.617754
-5.585595
-5.777617
-6.105295
-6.313690
-6.337664
-6.114885
-5.600096
-4.727574
-3.612861
-2.470783
-1.465647
-0.886772
-0.643411
-0.699310
-1.097389
-1.533474
-2.081709
-2.591002
-2.880907
-2.965107
-2.282269
-0.962201
0.721914
2.728444
4.302749
5.395710
5.946401
5.810745
5.449621
4.673111
3.691597
2.660266
1.435391
0.415754
-0.284860
-0.380287
0.305475
1.576894
3.266973
5.092941
6.676367
7.915392
8.788148
9.151259
9.284693
9.185057
8.913512
8.648750
8.256518
7.886624
7.490066
7.181333
7.325993
7.978075
9.015137
10.170900
11.111830
11.704500
11.932900
11.832680
11.607440
11.248540
10.711760
9.972443
9.012446
7.915041
6.694962
5.490903
4.446473
3.731709
3.503785
3.860114
4.873787
6.470545
8.404571
10.263520
11.664860
12.240810
11.872090
10.688380
8.937252
7.101810
5.572647
4.611248
4.319939
4.551021
4.936704
5.157611
5.070722
4.516289
3.519689
2.020113
0.055916
-2.168950
-4.612384
-6.916187
-8.730227
-9.799684
-9.907506
-9.225838
-8.275080
-7.776079
-7.972194
-8.285488
-7.933135
-7.255794
-6.937471
-6.735391
-6.542667
-6.075241
-5.298029
-4.595544
-4.058536
-4.174311
-4.765815
-5.872108
-7.664280
-9.627658
-11.853810
-13.693230
-14.964410
-16.030590
-16.867210
-17.795750
-18.602320
-19.740530
-21.348049
-23.073450
-25.133190
-26.901739
-27.825600
-27.762100
-26.322041
-24.225000
-22.236361
-20.145161
-19.132660
-19.391340
-20.559259
-22.797569
-24.724230
-26.609140
-28.334070
-29.454750
-30.374281
-30.507721
-30.289850
-29.665831
-28.819740
-28.094219
-27.250580
-26.471970
-25.324160
-23.815340
-21.910900
-19.426069
-16.585840
-13.704220
-11.055310
-8.941545
-7.368996
-6.184116
-5.528760
-4.630160
-3.125437
-0.887123
2.313409
5.840800
9.501040
13.044100
16.212940
18.823721
20.778099
22.318371
23.526520
24.604050
25.160820
25.262329
25.199530
24.671989
23.979450
22.894791
21.576941
20.360960
19.131399
18.132931
16.950741
15.684940
14.600510
13.666480
13.035450
12.628130
12.403720
12.206200
12.000960
11.609780
11.096040
10.539040
9.817141
8.965319
7.744654
6.323312
4.871098
3.457826
2.343463
1.549879
0.947148
0.461596
0.370145
0.450369
0.303487
0.444054
1.007141
1.908197
3.346027
4.843265
6.520130
8.389953
9.866842
11.087160
11.874660
12.176840
12.120120
11.706840
10.921680
9.857369
8.546540
6.775536
5.175387
3.738141
2.533498
1.640979
0.491416
-0.587161
-1.735905
-2.870265
-3.924284
-4.861125
-5.396262
-5.774109
-5.860765
-6.016535
-6.208206
-6.267614
-6.419876
-6.421864
-6.334857
-6.263170
-6.385143
-6.797840
-7.459978
-8.281279
-9.171341
-9.983520
-10.423110
-10.391300
-9.749865
-8.534112
-6.906364
-5.139569
-3.226009
-1.276665
0.381138
1.913108
3.182188
4.268601
5.212458
5.804898
6.063345
5.856120
5.349283
4.528100
3.213178
1.673256
-0.041382
-2.147666
-4.229158
-6.339535
-8.653044
-10.515030
-12.213300
-13.635340
-14.587150
-15.473590
-15.911540
-15.808750
-15.230460
-14.263920
-12.862920
-11.232020
-9.260687
-6.695045
-4.125662
-1.349872
1.216354
3.272469
5.121359
6.517557
7.878788
9.094893
10.167740
11.234150
12.087500
12.845530
13.351780
13.552340
13.387220
13.077080
12.630820
12.110180
11.769880
11.338230
10.997690
10.727550
10.409810
10.090440
9.695752
9.145763
8.362587
7.392066
6.152106
4.772046
3.108513
1.329556
-0.314096
-2.052006
-3.618358
-4.948248
-6.047759
-7.130663
-8.469208
-9.831842
-11.238800
-12.361350
-13.009690
-13.235160
-12.785620
-12.088400
-11.166180
-9.958377
-8.820859
-7.592476
-6.639731
-5.923798
-5.163192
-4.534031
-3.800557
-3.045681
-2.297822
-1.635333
-1.014125
-0.348478
0.259282
1.168758
1.989590
2.734408
3.506124
3.878592
4.228957
4.368939
4.421915
4.570668
4.648319
4.868291
5.102648
5.672868
6.434410
7.378618
8.808146
10.299650
11.778650
13.047030
14.041400
14.849250
15.371180
15.614070
15.714290
15.748560
15.674180
15.767850
15.943030
16.123360
16.183001
15.726800
14.798030
13.361140
11.702280
10.020970
8.298034
6.774601
5.230117
3.618975
1.979533
0.272731
-1.333266
-2.964288
-4.672961
-6.495539
-8.473301
-10.426270
-12.225810
-13.633120
-14.391740
-14.585280
-14.300870
-13.692990
-13.101840
-12.560150
-12.170260
-11.799430
-11.095540
-10.078600
-8.563581
-6.778544
-5.013035
-3.192563
-1.778005
-0.804327
-0.202531
-0.071086
0.163388
0.478670
0.680165
1.005854
1.163963
1.343473
1.746931
2.089811
2.645881
3.175405
3.538751
3.917300
4.119965
4.525527
5.052361
5.504585
5.889683
6.072350
6.276886
6.339334
6.425171
6.582461
6.620819
6.877044
7.403878
8.204127
9.025311
9.601846
9.753991
9.306211
8.489589
7.366923
6.024403
4.459922
2.667867
0.858972
-1.092594
-3.050593
-4.698689
-6.032322
-7.032196
-7.903548
-8.471196
-8.556332
-8.704149
-8.911140
-9.211921
-9.659935
-9.898618
-10.055320
-9.961417
-9.496096
-8.833840
-7.994063
-7.048568
-5.908829
-4.691672
-3.464108
-2.282386
-1.288710
-0.395372
0.278929
0.693964
0.912065
1.014742
1.225125
1.618643
2.231080
3.125002
4.302866
5.739994
7.326461
8.901817
10.464780
11.875830
12.934530
13.650930
13.912180
13.660750
12.835240
11.441500
9.863685
8.214653
6.499313
4.907818
3.404265
1.995905
0.707530
-0.382392
-1.186617
-1.820807
-2.334543
-2.819277
-3.301555
-3.636601
-3.792371
-3.862070
-3.848270
-3.770151
-3.455337
-2.735896
-1.786893
-0.556989
0.827514
2.254001
3.703994
4.966290
5.983823
6.554862
6.666076
6.292907
5.406586
4.161012
2.629509
0.961533
-0.758835
-2.374772
-3.614849
-4.555199
-5.618339
-6.463379
-6.831403
-6.870345
-6.296382
-5.556827
-4.462228
-2.765834
-1.031783
0.987494
2.844570
4.471031
6.033407
7.113622
7.936091
8.191849
8.097591
7.860312
7.353942
6.850029
6.213151
5.536394
4.752984
3.864909
2.882577
1.783534
0.640988
-0.562954
-1.633462
-2.563871
-3.254310
-3.759509
-4.102858
-4.228924
-4.237578
-4.092567
-3.931885
-3.720801
-3.431481
-3.039717
-2.456048
-1.710996
-0.852508
-0.118682
0.524863
1.150164
1.752310
2.261719
2.509174
2.679211
2.889593
3.311762
4.057282
4.995293
6.088722
7.281788
8.501985
9.566178
10.418940
11.033360
11.336130
11.421970
11.285030
10.976760
10.607920
10.202120
9.774222
9.219672
8.443513
7.467963
6.329160
5.036574
3.596990
2.106768
0.645081
-0.812279
-2.252916
-3.634613
-4.730030
-5.411582
-5.987883
-6.487236
-7.000270
-7.622765
-8.187723
-8.894183
-9.420316
-9.732206
-9.924229
-9.744486
-9.507205
-8.991832
-8.491661
-8.156615
-7.692463
-7.483601
-7.281404
-7.044826
-6.805441
-6.506414
-6.214170
-5.814923
-5.380826
-4.842648
-4.345517
-3.979131
-3.786991
-3.742085
-3.739512
-3.891656
-4.008250
-4.121686
-4.258394
-4.174194
-4.006379
-3.729923
-3.278400
-2.807115
-2.365299
-2.224148
-2.351266
-2.446459
-2.406113
-2.074225
-1.632526
-1.352211
-1.214918
-1.038449
-0.578273
0.034866
0.680048
1.449073
2.079403
2.814047
3.730423
4.500268
5.451726
6.208122
6.848509
7.625020
8.123436
8.667812
8.870242
8.649101
8.332065
7.606776
6.771677
5.765371
4.642121
3.769950
2.849014
1.929948
