EVENT_NAME: L_AQUILA
EVENT_ID: IT-2009-0009
EVENT_DATE_YYYYMMDD: 20090406
EVENT_TIME_HHMMSS: 013240
EVENT_LATITUDE_DEGREE: 42.3420
EVENT_LONGITUDE_DEGREE: 13.3800
EVENT_DEPTH_KM: 8.3
HYPOCENTER_REFERENCE: INGV-CNT_Seismic_Bulletin
MAGNITUDE_W: 6.1
MAGNITUDE_W_REFERENCE: INGV-CNT_Seismic_Bulletin
MAGNITUDE_L: 
MAGNITUDE_L_REFERENCE: 
FOCAL_MECHANISM: Normal faulting
NETWORK: IT
STATION_CODE: ORC
STATION_NAME: 
STATION_LATITUDE_DEGREE: 41.953606
STATION_LONGITUDE_DEGREE: 13.642346
STATION_ELEVATION_M: 732
LOCATION: 
SENSOR_DEPTH_M: 0.0
VS30_M/S: 767
SITE_CLASSIFICATION_EC8: B
MORPHOLOGIC_CLASSIFICATION: 
EPICENTRAL_DISTANCE_KM: 48.3
EARTHQUAKE_BACKAZIMUTH_DEGREE: 153.2
DATE_TIME_FIRST_SAMPLE_YYYYMMDD_HHMMSS: 20090406_013235.000
DATE_TIME_FIRST_SAMPLE_PRECISION: seconds
SAMPLING_INTERVAL_S: 0.005000
NDATA: 14200
DURATION_S: 71.000
STREAM: HNZ
UNITS: cm
INSTRUMENT: sensor = FBA-3 [Kinemetrics] | digitizer = Everest [Kinemetrics]
INSTRUMENT_ANALOG/DIGITAL: D
INSTRUMENTAL_FREQUENCY_HZ: 214.000
INSTRUMENTAL_DAMPING: 0.000000
FULL_SCALE_G: 1.0
N_BIT_DIGITAL_CONVERTER: 24
PGD_CM: 0.790531
TIME_PGD_S: 25.540000
BASELINE_CORRECTION: BASELINE REMOVED
FILTER_TYPE: BUTTERWORTH
FILTER_ORDER: 2
LOW_CUT_FREQUENCY_HZ: 0.080
HIGH_CUT_FREQUENCY_HZ: 35.000
LATE/NORMAL_TRIGGERED: NT
DATABASE_VERSION: 0.5
HEADER_FORMAT: DYNA 1.2
DATA_TYPE: DISPLACEMENT
PROCESSING: manual (Paolucci et al., 2011)
DATA_TIMESTAMP_YYYYMMDD_HHMMSS: 20211011_160200.118
DATA_LICENSE: CC-BY3_0-IT (http://creativecommons.org/licenses/by/3.0/deed.en)
DATA_CITATION: Luzi L, Pacor F, Puglia R (2019). Italian Accelerometric Archive v 3.0 - Istituto Nazionale di Geofisica e Vulcanologia, Dipartimento della Protezione Civile Nazionale. doi: 10.13127/itaca.3.1
DATA_CREATOR: ITACA working group
ORIGINAL_DATA_MEDIATOR_CITATION: data obtained within the DPC-INGV data exchange agreements
ORIGINAL_DATA_MEDIATOR: Archive of Italian Department of Civil Protection
ORIGINAL_DATA_CREATOR_CITATION: Presidency Of Counsil Of Ministers-Civil Protection Department. (1972). Italian Strong Motion Network. Presidency of Counsil of Ministers - Civil Protection Department. https://doi.org/10.7914/SN/IT http://www.fdsn.org/networks/detail/IT/
ORIGINAL_DATA_CREATOR: network: IT (Italian Strong Motion Network (RAN)); owner: Presidency of Counsil of Ministers - Civil Protection Department (PCM - DPC)
USER1: 
USER2: 
USER3: 
USER4: 
USER5: 
[...]
-1.484593e-01
-1.482815e-01
-1.481459e-01
-1.480354e-01
-1.479309e-01
-1.478160e-01
-1.476804e-01
-1.475204e-01
-1.473353e-01
-1.471245e-01
-1.468857e-01
-1.466154e-01
-1.463117e-01
-1.459766e-01
-1.456164e-01
-1.452411e-01
-1.448611e-01
-1.444840e-01
-1.441126e-01
-1.437442e-01
-1.433699e-01
-1.429763e-01
-1.425479e-01
-1.420735e-01
-1.415535e-01
-1.410055e-01
-1.404658e-01
-1.399842e-01
-1.396145e-01
-1.394032e-01
-1.393787e-01
-1.395448e-01
-1.398792e-01
-1.403387e-01
-1.408686e-01
-1.414155e-01
-1.419382e-01
-1.424149e-01
-1.428446e-01
-1.432444e-01
-1.436429e-01
-1.440733e-01
-1.445663e-01
-1.451445e-01
-1.458210e-01
-1.465997e-01
-1.474795e-01
-1.484564e-01
-1.495247e-01
-1.506750e-01
-1.518918e-01
-1.531502e-01
-1.544154e-01
-1.556444e-01
-1.567916e-01
-1.578141e-01
-1.586790e-01
-1.593691e-01
-1.598865e-01
-1.602515e-01
-1.604943e-01
-1.606454e-01
-1.607265e-01
-1.607484e-01
-1.607144e-01
-1.606263e-01
-1.604895e-01
-1.603171e-01
-1.601291e-01
-1.599494e-01
-1.597999e-01
-1.596943e-01
-1.596352e-01
-1.596144e-01
-1.596149e-01
-1.596148e-01
-1.595903e-01
-1.595194e-01
-1.593858e-01
-1.591813e-01
-1.589069e-01
-1.585709e-01
-1.581854e-01
-1.577623e-01
-1.573104e-01
-1.568357e-01
-1.563421e-01
-1.558325e-01
-1.553085e-01
-1.547711e-01
-1.542211e-01
-1.536615e-01
-1.530976e-01
-1.525355e-01
-1.519789e-01
-1.514255e-01
-1.508685e-01
-1.502983e-01
-1.497058e-01
-1.490844e-01
-1.484319e-01
-1.477540e-01
-1.470686e-01
-1.464074e-01
-1.458118e-01
-1.453211e-01
-1.449604e-01
-1.447315e-01
-1.446131e-01
-1.445669e-01
-1.445455e-01
-1.445004e-01
-1.443880e-01
-1.441746e-01
-1.438405e-01
-1.433817e-01
-1.428073e-01
-1.421342e-01
-1.413800e-01
-1.405568e-01
-1.396688e-01
-1.387132e-01
-1.376844e-01
-1.365786e-01
-1.353970e-01
-1.341464e-01
-1.328371e-01
-1.314806e-01
-1.300866e-01
-1.286609e-01
-1.272043e-01
-1.257140e-01
-1.241873e-01
-1.226264e-01
-1.210416e-01
-1.194512e-01
-1.178778e-01
-1.163433e-01
-1.148629e-01
-1.134407e-01
-1.120692e-01
-1.107319e-01
-1.094110e-01
-1.080937e-01
-1.067765e-01
-1.054637e-01
-1.041631e-01
-1.028837e-01
-1.016350e-01
-1.004293e-01
-9.928258e-02
-9.821302e-02
-9.723649e-02
-9.636355e-02
-9.559926e-02
-9.494543e-02
-9.440347e-02
-9.397571e-02
-9.366536e-02
-9.347579e-02
-9.340994e-02
-9.346954e-02
-9.365327e-02
-9.395364e-02
-9.435358e-02
-9.482472e-02
-9.532895e-02
-9.582280e-02
-9.626312e-02
-9.661179e-02
-9.683875e-02
-9.692405e-02
-9.685973e-02
-9.665163e-02
-9.631923e-02
-9.589141e-02
-9.539849e-02
-9.486330e-02
-9.429571e-02
-9.369258e-02
-9.304194e-02
-9.232874e-02
-9.154029e-02
-9.067084e-02
-8.972466e-02
-8.871617e-02
-8.766623e-02
-8.659559e-02
-8.551906e-02
-8.444381e-02
-8.337309e-02
-8.231258e-02
-8.127465e-02
-8.027754e-02
-7.933946e-02
-7.847098e-02
-7.766906e-02
-7.691563e-02
-7.618069e-02
-7.542859e-02
-7.462549e-02
-7.374578e-02
-7.277589e-02
-7.171451e-02
-7.057035e-02
-6.935856e-02
-6.809728e-02
-6.680515e-02
-6.549971e-02
-6.419703e-02
-6.291252e-02
-6.166274e-02
-6.046616e-02
-5.934065e-02
-5.829716e-02
-5.733221e-02
-5.642391e-02
-5.553532e-02
-5.462505e-02
-5.366097e-02
-5.263110e-02
-5.154733e-02
-5.044092e-02
-4.935264e-02
-4.832158e-02
-4.737630e-02
-4.652969e-02
-4.577770e-02
-4.510141e-02
-4.447177e-02
-4.385629e-02
-4.322561e-02
-4.255802e-02
-4.184068e-02
-4.106792e-02
-4.023852e-02
-3.935319e-02
-3.841311e-02
-3.741995e-02
-3.637724e-02
-3.529271e-02
-3.418034e-02
-3.306097e-02
-3.196039e-02
-3.090478e-02
-2.991430e-02
-2.899755e-02
-2.814948e-02
-2.735374e-02
-2.658813e-02
-2.583061e-02
-2.506342e-02
-2.427463e-02
-2.345845e-02
-2.261585e-02
-2.175539e-02
-2.089277e-02
-2.004766e-02
-1.923842e-02
-1.847736e-02
-1.776845e-02
-1.710697e-02
-1.647947e-02
-1.586359e-02
-1.522938e-02
-1.454322e-02
-1.377400e-02
-1.289952e-02
-1.191120e-02
-1.081570e-02
-9.632975e-03
-8.391204e-03
-7.119992e-03
-5.843892e-03
-4.578488e-03
-3.330432e-03
-2.100994e-03
-8.907580e-04
2.973071e-04
1.457991e-03
2.586675e-03
3.682731e-03
4.751366e-03
5.803289e-03
6.852914e-03
7.915933e-03
9.006539e-03
1.013439e-02
1.130184e-02
1.250251e-02
1.372203e-02
1.494064e-02
1.613625e-02
1.728705e-02
1.837418e-02
1.938522e-02
2.031783e-02
2.118102e-02
2.199197e-02
2.276915e-02
2.352490e-02
2.426089e-02
2.496867e-02
2.563488e-02
2.624891e-02
2.680977e-02
2.733042e-02
2.783895e-02
2.837634e-02
2.899118e-02
2.973234e-02
3.064193e-02
3.175017e-02
3.307250e-02
3.460834e-02
3.634146e-02
3.824276e-02
4.027512e-02
4.239867e-02
4.457363e-02
4.675981e-02
4.891472e-02
5.099388e-02
5.295561e-02
5.476862e-02
5.641814e-02
5.790689e-02
5.925067e-02
6.047154e-02
6.159198e-02
6.263098e-02
6.360179e-02
6.451071e-02
6.535810e-02
6.614251e-02
6.686724e-02
6.754636e-02
6.820618e-02
6.888014e-02
6.959937e-02
7.038363e-02
7.123715e-02
7.215041e-02
7.310595e-02
7.408498e-02
7.507281e-02
7.606220e-02
7.705388e-02
7.805436e-02
7.907223e-02
8.011458e-02
8.118483e-02
8.228166e-02
8.339846e-02
8.452336e-02
8.564064e-02
8.673387e-02
8.779003e-02
8.880299e-02
8.977507e-02
9.071617e-02
9.164120e-02
9.256713e-02
9.350994e-02
9.448154e-02
9.548718e-02
9.652461e-02
9.758567e-02
9.865952e-02
9.973555e-02
1.008050e-01
1.018615e-01
1.029025e-01
1.039306e-01
1.049533e-01
1.059806e-01
1.070187e-01
1.080656e-01
1.091095e-01
1.101321e-01
1.111156e-01
1.120476e-01
1.129250e-01
1.137525e-01
1.145404e-01
1.153004e-01
1.160435e-01
1.167781e-01
1.175090e-01
1.182367e-01
1.189566e-01
1.196606e-01
1.203395e-01
1.209854e-01
1.215941e-01
1.221650e-01
1.227018e-01
1.232108e-01
1.237005e-01
1.241797e-01
1.246569e-01
1.251400e-01
1.256372e-01
1.261575e-01
1.267105e-01
1.273068e-01
1.279559e-01
1.286658e-01
1.294423e-01
1.302888e-01
1.312075e-01
1.321990e-01
1.332620e-01
1.343909e-01
1.355734e-01
1.367902e-01
1.380167e-01
1.392286e-01
1.404066e-01
1.415398e-01
1.426252e-01
1.436671e-01
1.446753e-01
1.456645e-01
1.466537e-01
1.476665e-01
1.487306e-01
1.498766e-01
1.511342e-01
1.525267e-01
1.540661e-01
1.557509e-01
1.575672e-01
1.594947e-01
1.615127e-01
1.636031e-01
1.657511e-01
1.679418e-01
1.701588e-01
1.723829e-01
1.745921e-01
1.767615e-01
1.788650e-01
1.808788e-01
1.827833e-01
1.845649e-01
1.862153e-01
1.877315e-01
1.891169e-01
1.903826e-01
1.915477e-01
1.926370e-01
1.936776e-01
1.946954e-01
1.957116e-01
1.967413e-01
1.977925e-01
1.988661e-01
1.999554e-01
2.010451e-01
2.021126e-01
2.031315e-01
2.040770e-01
2.049314e-01
2.056854e-01
2.063376e-01
2.068921e-01
2.073545e-01
2.077303e-01
2.080225e-01
2.082327e-01
2.083620e-01
2.084129e-01
2.083892e-01
2.082952e-01
2.081339e-01
2.079083e-01
2.076220e-01
2.072812e-01
2.068941e-01
2.064695e-01
2.060151e-01
2.055359e-01
2.050347e-01
2.045119e-01
2.039678e-01
2.034035e-01
2.028226e-01
2.022321e-01
2.016418e-01
2.010633e-01
2.005090e-01
1.999917e-01
1.995251e-01
1.991238e-01
1.988015e-01
1.985679e-01
1.984264e-01
1.983739e-01
1.984048e-01
1.985136e-01
1.986969e-01
1.989515e-01
1.992709e-01
1.996425e-01
2.000480e-01
2.004655e-01
2.008725e-01
2.012487e-01
2.015759e-01
2.018391e-01
2.020259e-01
2.021265e-01
2.021343e-01
2.020464e-01
2.018652e-01
2.015988e-01
2.012601e-01
2.008634e-01
2.004224e-01
1.999491e-01
1.994542e-01
1.989483e-01
1.984431e-01
1.979503e-01
1.974818e-01
1.970480e-01
1.966575e-01
1.963173e-01
1.960339e-01
1.958147e-01
1.956712e-01
1.956202e-01
1.956833e-01
1.958839e-01
1.962421e-01
1.967698e-01
1.974678e-01
1.983261e-01
1.993266e-01
2.004467e-01
2.016634e-01
2.029544e-01
2.042997e-01
2.056829e-01
2.070947e-01
2.085337e-01
2.100038e-01
2.115081e-01
2.130437e-01
2.146020e-01
2.161726e-01
2.177489e-01
2.193320e-01
2.209315e-01
2.225626e-01
2.242416e-01
2.259796e-01
2.277785e-01
2.296300e-01
2.315181e-01
2.334219e-01
2.353200e-01
2.371942e-01
2.390338e-01
2.408387e-01
2.426194e-01
2.443932e-01
2.461778e-01
2.479850e-01
2.498160e-01
2.516604e-01
2.534976e-01
2.553018e-01
2.570465e-01
2.587101e-01
2.602791e-01
2.617524e-01
2.631424e-01
2.644754e-01
2.657864e-01
2.671111e-01
2.684760e-01
2.698902e-01
2.713407e-01
2.727940e-01
2.742028e-01
2.755169e-01
2.766924e-01
2.776999e-01
2.785251e-01
2.791676e-01
2.796341e-01
2.799333e-01
2.800703e-01
2.800437e-01
2.798467e-01
2.794699e-01
2.789056e-01
2.781502e-01
2.772044e-01
2.760722e-01
2.747577e-01
2.732628e-01
2.715862e-01
2.697242e-01
2.676728e-01
2.654286e-01
2.629906e-01
2.603611e-01
2.575452e-01
2.545507e-01
2.513862e-01
2.480600e-01
2.445790e-01
2.409492e-01
2.371768e-01
2.332719e-01
2.292513e-01
2.251398e-01
2.209671e-01
2.167635e-01
2.125547e-01
2.083604e-01
2.041968e-01
2.000788e-01
1.960211e-01
1.920370e-01
1.881354e-01
1.843208e-01
1.805932e-01
1.769506e-01
1.733901e-01
1.699087e-01
1.665039e-01
1.631727e-01
1.599107e-01
1.567102e-01
1.535613e-01
1.504523e-01
1.473719e-01
1.443098e-01
1.412567e-01
1.382051e-01
1.351498e-01
1.320902e-01
1.290308e-01
1.259799e-01
1.229461e-01
1.199363e-01
1.169553e-01
1.140080e-01
1.111005e-01
1.082394e-01
1.054281e-01
1.026645e-01
9.994126e-02
9.724883e-02
9.458122e-02
9.194057e-02
8.933985e-02
8.680274e-02
8.436130e-02
8.205156e-02
7.990771e-02
7.795571e-02
7.620818e-02
7.466260e-02
7.330369e-02
7.210914e-02
7.105609e-02
7.012620e-02
6.930841e-02
6.859986e-02
6.800565e-02
6.753758e-02
6.721159e-02
6.704378e-02
6.704650e-02
6.722655e-02
6.758643e-02
6.812697e-02
6.884871e-02
6.975009e-02
7.082291e-02
7.204754e-02
7.339053e-02
7.480596e-02
7.624010e-02
7.763795e-02
7.895056e-02
8.014177e-02
8.119345e-02
8.210805e-02
8.290751e-02
8.362843e-02
8.431394e-02
8.500454e-02
8.573059e-02
8.650862e-02
8.734226e-02
8.822631e-02
8.915180e-02
9.010976e-02
9.109278e-02
9.209458e-02
9.310760e-02
9.411948e-02
9.510957e-02
9.604720e-02
9.689317e-02
9.760476e-02
9.814299e-02
9.847987e-02
9.860356e-02
9.852038e-02
9.825332e-02
9.783800e-02
9.731750e-02
9.673714e-02
9.614042e-02
9.556649e-02
9.504987e-02
9.462171e-02
9.431101e-02
9.414419e-02
9.414269e-02
9.431971e-02
9.467773e-02
9.520832e-02
9.589476e-02
9.671651e-02
9.765366e-02
9.868994e-02
9.981455e-02
1.010233e-01
1.023191e-01
1.037121e-01
1.052172e-01
1.068525e-01
1.086372e-01
1.105919e-01
1.127398e-01
1.151059e-01
1.177134e-01
1.205771e-01
1.236983e-01
1.270632e-01
1.306461e-01
1.344150e-01
1.383383e-01
1.423897e-01
1.465513e-01
1.508137e-01
1.551737e-01
1.596311e-01
1.641851e-01
1.688330e-01
1.735685e-01
1.783815e-01
1.832569e-01
1.881750e-01
1.931124e-01
1.980450e-01
2.029506e-01
2.078110e-01
2.126135e-01
2.173507e-01
2.220203e-01
2.266246e-01
2.311705e-01
2.356670e-01
2.401203e-01
2.445283e-01
2.488766e-01
2.531384e-01
2.572786e-01
2.612585e-01
2.650406e-01
2.685909e-01
2.718806e-01
2.748875e-01
2.775989e-01
2.800142e-01
2.821465e-01
2.840207e-01
2.856689e-01
2.871252e-01
2.884199e-01
2.895757e-01
2.906053e-01
2.915121e-01
2.922926e-01
2.929409e-01
2.934521e-01
2.938238e-01
2.940536e-01
2.941375e-01
2.940696e-01
2.938447e-01
2.934619e-01
2.929270e-01
2.922538e-01
2.914640e-01
2.905843e-01
2.896428e-01
2.886629e-01
2.876605e-01
2.866421e-01
2.856057e-01
2.845432e-01
2.834423e-01
2.822890e-01
2.810705e-01
2.797790e-01
2.784169e-01
2.770005e-01
2.755616e-01
2.741429e-01
2.727901e-01
2.715431e-01
2.704300e-01
2.694641e-01
2.686453e-01
2.679628e-01
2.673977e-01
2.669255e-01
2.665181e-01
2.661464e-01
2.657852e-01
2.654185e-01
2.650452e-01
2.646812e-01
2.643579e-01
2.641164e-01
2.640008e-01
2.640511e-01
2.642988e-01
2.647651e-01
2.654608e-01
2.663891e-01
2.675474e-01
2.689299e-01
2.705284e-01
2.723333e-01
2.743340e-01
2.765210e-01
2.788895e-01
2.814440e-01
2.842002e-01
2.871823e-01
2.904172e-01
2.939282e-01
2.977308e-01
3.018315e-01
3.062293e-01
3.109185e-01
3.158892e-01
3.211276e-01
3.266148e-01
3.323274e-01
3.382374e-01
3.443145e-01
3.505288e-01
3.568544e-01
3.632739e-01
3.697817e-01
3.763878e-01
3.831180e-01
3.900118e-01
3.971163e-01
4.044766e-01
4.121263e-01
4.200793e-01
4.283270e-01
4.368404e-01
4.455777e-01
4.544944e-01
4.635529e-01
4.727298e-01
4.820166e-01
4.914172e-01
5.009398e-01
5.105904e-01
5.203670e-01
5.302566e-01
5.402336e-01
5.502606e-01
5.602886e-01
5.702607e-01
5.801167e-01
5.898004e-01
5.992678e-01
6.084948e-01
6.174785e-01
6.262321e-01
6.347729e-01
6.431119e-01
6.512516e-01
6.591919e-01
6.669374e-01
6.744973e-01
6.818808e-01
6.890952e-01
6.961488e-01
7.030537e-01
7.098268e-01
7.164849e-01
7.230389e-01
7.294884e-01
7.358184e-01
7.419991e-01
7.479880e-01
7.537345e-01
7.591876e-01
7.643020e-01
7.690423e-01
7.733819e-01
7.772988e-01
7.807728e-01
7.837805e-01
7.862923e-01
7.882697e-01
7.896664e-01
7.904337e-01
7.905306e-01
7.899351e-01
7.886518e-01
7.867118e-01
7.841643e-01
7.810636e-01
7.774552e-01
7.733631e-01
7.687835e-01
7.636862e-01
7.580245e-01
7.517462e-01
7.448022e-01
7.371512e-01
7.287622e-01
7.196164e-01
7.097082e-01
6.990434e-01
6.876369e-01
6.755074e-01
6.626748e-01
6.491589e-01
6.349822e-01
6.201726e-01
6.047680e-01
5.888180e-01
5.723839e-01
5.555353e-01
5.383432e-01
5.208724e-01
5.031766e-01
4.852950e-01
4.672547e-01
4.490765e-01
4.307851e-01
4.124182e-01
3.940331e-01
3.757054e-01
3.575227e-01
3.395770e-01
3.219563e-01
3.047390e-01
2.879900e-01
2.717605e-01
2.560900e-01
2.410099e-01
2.265430e-01
2.127038e-01
1.994973e-01
1.869199e-01
1.749598e-01
1.635973e-01
1.528059e-01
1.425553e-01
1.328144e-01
1.235534e-01
1.147434e-01
1.063552e-01
9.835935e-02
9.072861e-02
8.344044e-02
7.647854e-02
6.983254e-02
6.349609e-02
5.746423e-02
5.173086e-02
4.628725e-02
4.112177e-02
3.621989e-02
3.156339e-02
2.712876e-02
2.288635e-02
1.880160e-02
1.483834e-02
1.096274e-02
7.146531e-03
3.368124e-03
-3.876163e-04
-4.130020e-03
-7.863748e-03
-1.159065e-02
-1.531027e-02
-1.901752e-02
-2.269904e-02
-2.633141e-02
-2.988196e-02
-3.331124e-02
-3.657603e-02
-3.963331e-02
-4.244465e-02
-4.498001e-02
-4.721978e-02
-4.915523e-02
-5.078775e-02
-5.212800e-02
-5.319529e-02
-5.401725e-02
-5.462903e-02
-5.507048e-02
-5.538146e-02
-5.559765e-02
-5.574931e-02
-5.586315e-02
-5.596533e-02
-5.608324e-02
-5.624539e-02
-5.648015e-02
-5.681364e-02
-5.726721e-02
-5.785578e-02
-5.858817e-02
-5.946918e-02
-6.050218e-02
-6.169038e-02
-6.303674e-02
-6.454303e-02
-6.620913e-02
-6.803355e-02
-7.001582e-02
-7.215955e-02
-7.447457e-02
-7.697709e-02
-7.968792e-02
-8.262925e-02
-8.582010e-02
-8.927127e-02
-9.298121e-02
-9.693409e-02
-1.011007e-01
-1.054415e-01
-1.099112e-01
-1.144619e-01
-1.190468e-01
-1.236228e-01
-1.281522e-01
-1.326020e-01
-1.369445e-01
-1.411577e-01
-1.452269e-01
-1.491461e-01
-1.529188e-01
-1.565582e-01
-1.600863e-01
-1.635342e-01
-1.669404e-01
-1.703498e-01
-1.738125e-01
-1.773818e-01
-1.811124e-01
-1.850576e-01
-1.892664e-01
-1.937810e-01
-1.986363e-01
-2.038595e-01
-2.094701e-01
-2.154777e-01
-2.218806e-01
-2.286652e-01
-2.358072e-01
-2.432732e-01
-2.510204e-01
-2.589969e-01
-2.671422e-01
-2.753898e-01
-2.836730e-01
-2.919292e-01
-3.001046e-01
-3.081540e-01
-3.160398e-01
-3.237289e-01
-3.311916e-01
-3.383999e-01
-3.453285e-01
-3.519550e-01
-3.582612e-01
-3.642353e-01
-3.698728e-01
-3.751761e-01
-3.801534e-01
-3.848157e-01
-3.891744e-01
-3.932406e-01
-3.970238e-01
-4.005325e-01
-4.037740e-01
-4.067559e-01
-4.094860e-01
-4.119749e-01
-4.142365e-01
-4.162898e-01
-4.181595e-01
-4.198761e-01
-4.214755e-01
-4.229982e-01
-4.244874e-01
-4.259865e-01
-4.275375e-01
-4.291782e-01
-4.309417e-01
-4.328576e-01
-4.349553e-01
-4.372668e-01
-4.398263e-01
-4.426671e-01
-4.458165e-01
-4.492913e-01
-4.530957e-01
-4.572216e-01
-4.616513e-01
-4.663601e-01
-4.713195e-01
-4.764996e-01
-4.818723e-01
-4.874134e-01
-4.931026e-01
-4.989222e-01
-5.048550e-01
-5.108833e-01
-5.169888e-01
-5.231535e-01
-5.293606e-01
-5.355940e-01
-5.418375e-01
-5.480730e-01
-5.542809e-01
-5.604402e-01
-5.665315e-01
-5.725382e-01
-5.784485e-01
-5.842547e-01
-5.899528e-01
-5.955403e-01
-6.010153e-01
-6.063749e-01
-6.116148e-01
-6.167271e-01
-6.216989e-01
-6.265111e-01
-6.311371e-01
-6.355438e-01
-6.396945e-01
-6.435530e-01
-6.470871e-01
-6.502709e-01
-6.530850e-01
-6.555165e-01
-6.575587e-01
-6.592092e-01
-6.604677e-01
-6.613340e-01
-6.618058e-01
-6.618789e-01
-6.615492e-01
-6.608182e-01
-6.596969e-01
-6.582085e-01
-6.563870e-01
-6.542729e-01
-6.519087e-01
-6.493365e-01
-6.465961e-01
-6.437271e-01
-6.407691e-01
-6.377632e-01
-6.347502e-01
-6.317713e-01
-6.288677e-01
-6.260829e-01
-6.234630e-01
-6.210569e-01
-6.189133e-01
-6.170760e-01
-6.155784e-01
-6.144403e-01
-6.136670e-01
-6.132518e-01
-6.131815e-01
-6.134413e-01
-6.140184e-01
-6.149021e-01
-6.160807e-01
-6.175367e-01
-6.192435e-01
-6.211649e-01
-6.232574e-01
-6.254754e-01
-6.277759e-01
-6.301237e-01
-6.324941e-01
-6.348727e-01
-6.372517e-01
-6.396261e-01
-6.419901e-01
-6.443378e-01
-6.466634e-01
-6.489612e-01
-6.512252e-01
-6.534471e-01
-6.556165e-01
-6.577211e-01
-6.597490e-01
-6.616899e-01
-6.635354e-01
-6.652772e-01
-6.669057e-01
-6.684095e-01
-6.697775e-01
-6.710006e-01
-6.720726e-01
-6.729893e-01
-6.737482e-01
-6.743477e-01
-6.747859e-01
-6.750592e-01
-6.751600e-01
-6.750747e-01
-6.747848e-01
-6.742712e-01
-6.735205e-01
-6.725294e-01
-6.713069e-01
-6.698728e-01
-6.682550e-01
-6.664879e-01
-6.646110e-01
-6.626681e-01
-6.607063e-01
-6.587739e-01
-6.569175e-01
-6.551786e-01
-6.535916e-01
-6.521831e-01
-6.509726e-01
-6.499722e-01
-6.491881e-01
-6.486241e-01
-6.482854e-01
-6.481796e-01
-6.483154e-01
-6.487002e-01
-6.493371e-01
-6.502228e-01
-6.513473e-01
-6.526943e-01
-6.542430e-01
-6.559685e-01
-6.578426e-01
-6.598352e-01
-6.619158e-01
-6.640553e-01
-6.662277e-01
-6.684116e-01
-6.705906e-01
-6.727544e-01
-6.748973e-01
-6.770154e-01
-6.791035e-01
-6.811523e-01
-6.831461e-01
-6.850626e-01
-6.868721e-01
-6.885393e-01
-6.900250e-01
-6.912889e-01
-6.922923e-01
-6.930007e-01
-6.933869e-01
-6.934329e-01
-6.931328e-01
-6.924940e-01
-6.915373e-01
-6.902950e-01
-6.888063e-01
-6.871134e-01
-6.852584e-01
-6.832820e-01
-6.812222e-01
-6.791142e-01
-6.769894e-01
-6.748743e-01
-6.727898e-01
-6.707522e-01
-6.687753e-01
