EVENT_NAME: L_AQUILA
EVENT_ID: IT-2009-0009
EVENT_DATE_YYYYMMDD: 20090406
EVENT_TIME_HHMMSS: 013240
EVENT_LATITUDE_DEGREE: 42.3420
EVENT_LONGITUDE_DEGREE: 13.3800
EVENT_DEPTH_KM: 8.3
HYPOCENTER_REFERENCE: INGV-CNT_Seismic_Bulletin
MAGNITUDE_W: 6.1
MAGNITUDE_W_REFERENCE: INGV-CNT_Seismic_Bulletin
MAGNITUDE_L: 
MAGNITUDE_L_REFERENCE: 
FOCAL_MECHANISM: Normal faulting
NETWORK: IT
STATION_CODE: ORC
STATION_NAME: 
STATION_LATITUDE_DEGREE: 41.953606
STATION_LONGITUDE_DEGREE: 13.642346
STATION_ELEVATION_M: 732
LOCATION: 
SENSOR_DEPTH_M: 0.0
VS30_M/S: 767
SITE_CLASSIFICATION_EC8: B
MORPHOLOGIC_CLASSIFICATION: 
EPICENTRAL_DISTANCE_KM: 48.3
EARTHQUAKE_BACKAZIMUTH_DEGREE: 153.2
DATE_TIME_FIRST_SAMPLE_YYYYMMDD_HHMMSS: 20090406_013235.000
DATE_TIME_FIRST_SAMPLE_PRECISION: seconds
SAMPLING_INTERVAL_S: 0.005000
NDATA: 14200
DURATION_S: 71.000
STREAM: HNZ
UNITS: cm/s
INSTRUMENT: sensor = FBA-3 [Kinemetrics] | digitizer = Everest [Kinemetrics]
INSTRUMENT_ANALOG/DIGITAL: D
INSTRUMENTAL_FREQUENCY_HZ: 214.000
INSTRUMENTAL_DAMPING: 0.000000
FULL_SCALE_G: 1.0
N_BIT_DIGITAL_CONVERTER: 24
PGV_CM/S: -3.677015
TIME_PGV_S: 25.720000
BASELINE_CORRECTION: BASELINE REMOVED
FILTER_TYPE: BUTTERWORTH
FILTER_ORDER: 2
LOW_CUT_FREQUENCY_HZ: 0.080
HIGH_CUT_FREQUENCY_HZ: 35.000
LATE/NORMAL_TRIGGERED: NT
DATABASE_VERSION: 0.5
HEADER_FORMAT: DYNA 1.2
DATA_TYPE: VELOCITY
PROCESSING: manual (Paolucci et al., 2011)
DATA_TIMESTAMP_YYYYMMDD_HHMMSS: 20211011_160200.246
DATA_LICENSE: CC-BY3_0-IT (http://creativecommons.org/licenses/by/3.0/deed.en)
DATA_CITATION: Luzi L, Pacor F, Puglia R (2019). Italian Accelerometric Archive v 3.0 - Istituto Nazionale di Geofisica e Vulcanologia, Dipartimento della Protezione Civile Nazionale. doi: 10.13127/itaca.3.1
DATA_CREATOR: ITACA working group
ORIGINAL_DATA_MEDIATOR_CITATION: data obtained within the DPC-INGV data exchange agreements
ORIGINAL_DATA_MEDIATOR: Archive of Italian Department of Civil Protection
ORIGINAL_DATA_CREATOR_CITATION: Presidency Of Counsil Of Ministers-Civil Protection Department. (1972). Italian Strong Motion Network. Presidency of Counsil of Ministers - Civil Protection Department. https://doi.org/10.7914/SN/IT http://www.fdsn.org/networks/detail/IT/
ORIGINAL_DATA_CREATOR: network: IT (Italian Strong Motion Network (RAN)); owner: Presidency of Counsil of Ministers - Civil Protection Department (PCM - DPC)
USER1: 
USER2: 
USER3: 
USER4: 
USER5: 
[...]
-0.114494
-0.087186
-0.061280
-0.038039
-0.018130
-0.002006
0.009820
0.016889
0.019123
0.016978
0.011320
0.003202
-0.006250
-0.015904
-0.024811
-0.032516
-0.039206
-0.045483
-0.051883
-0.058544
-0.065266
-0.071766
-0.077801
-0.083028
-0.086887
-0.088884
-0.089171
-0.088921
-0.090087
-0.094657
-0.103922
-0.118251
-0.137397
-0.160856
-0.187767
-0.216323
-0.243243
-0.263898
-0.273411
-0.268344
-0.248096
-0.215128
-0.173859
-0.129009
-0.084437
-0.042906
-0.006453
0.023193
0.044425
0.055674
0.055326
0.041874
0.014541
-0.025799
-0.076070
-0.131359
-0.186044
-0.234970
-0.274094
-0.300690
-0.313542
-0.313127
-0.301486
-0.281508
-0.255965
-0.226855
-0.195413
-0.162677
-0.130144
-0.100081
-0.075331
-0.058765
-0.052679
-0.058298
-0.075374
-0.101873
-0.134017
-0.166972
-0.196080
-0.218058
-0.231531
-0.236759
-0.234910
-0.227441
-0.215823
-0.201521
-0.186042
-0.170939
-0.157742
-0.147802
-0.142067
-0.140855
-0.143747
-0.149765
-0.157876
-0.167591
-0.179299
-0.194009
-0.212536
-0.234525
-0.257949
-0.279453
-0.295368
-0.302864
-0.300657
-0.289010
-0.269209
-0.243109
-0.213148
-0.182582
-0.155328
-0.135145
-0.124640
-0.124806
-0.135246
-0.154530
-0.180259
-0.208999
-0.236618
-0.259220
-0.274224
-0.280912
-0.280096
-0.273248
-0.261728
-0.246580
-0.228848
-0.209916
-0.191406
-0.174657
-0.160305
-0.148403
-0.138909
-0.132000
-0.127967
-0.126904
-0.128581
-0.132690
-0.139158
-0.148051
-0.158904
-0.170084
-0.179014
-0.183437
-0.182766
-0.178409
-0.172844
-0.168291
-0.165954
-0.166067
-0.168334
-0.172197
-0.176811
-0.180950
-0.183118
-0.181945
-0.176663
-0.167475
-0.155684
-0.143527
-0.133576
-0.127748
-0.126476
-0.128741
-0.133041
-0.138519
-0.145401
-0.154610
-0.167128
-0.183596
-0.204060
-0.227560
-0.251667
-0.272537
-0.285882
-0.288658
-0.280584
-0.264632
-0.246147
-0.231077
-0.224109
-0.227439
-0.240501
-0.260581
-0.283920
-0.306804
-0.326304
-0.340703
-0.349765
-0.354692
-0.357483
-0.359720
-0.361488
-0.361263
-0.356891
-0.346952
-0.331510
-0.311842
-0.289634
-0.266471
-0.243991
-0.224169
-0.208980
-0.199446
-0.194897
-0.193195
-0.191837
-0.189119
-0.184661
-0.179148
-0.173635
-0.168827
-0.164621
-0.160004
-0.153342
-0.143014
-0.128221
-0.109515
-0.088614
-0.067328
-0.046213
-0.024086
0.000996
0.029943
0.061445
0.092344
0.119212
0.139720
0.152817
0.158064
0.155230
0.144672
0.127878
0.107317
0.085500
0.063930
0.042675
0.020760
-0.003049
-0.029420
-0.057821
-0.086313
-0.111903
-0.131305
-0.141833
-0.142158
-0.132703
-0.115464
-0.093248
-0.068751
-0.044128
-0.021178
-0.001626
0.013002
0.021808
0.024778
0.022598
0.016320
0.007188
-0.003444
-0.014428
-0.025319
-0.036501
-0.048532
-0.061183
-0.073103
-0.082463
-0.088006
-0.089695
-0.088657
-0.086615
-0.085183
-0.085327
-0.087136
-0.089877
-0.092194
-0.092408
-0.088976
-0.081080
-0.069094
-0.054585
-0.039790
-0.026811
-0.016862
-0.009828
-0.004257
0.002098
0.011241
0.023836
0.038757
0.053582
0.065663
0.072933
0.074006
0.067875
0.053959
0.032724
0.006253
-0.022046
-0.048668
-0.071347
-0.089470
-0.103392
-0.113375
-0.119086
-0.119890
-0.115422
-0.105842
-0.091689
-0.073716
-0.053002
-0.031219
-0.010668
0.006225
0.017825
0.024173
0.027161
0.029657
0.033951
0.040550
0.048046
0.053938
0.055728
0.051759
0.041675
0.026600
0.009003
-0.007867
-0.020848
-0.027643
-0.027155
-0.019357
-0.004941
0.014930
0.038584
0.063619
0.086950
0.105373
0.116522
0.119660
0.115798
0.107048
0.095647
0.083232
0.070649
0.058233
0.046303
0.035558
0.027117
0.022087
0.020903
0.022994
0.027108
0.032002
0.037016
0.042158
0.047774
0.054057
0.060727
0.067032
0.072034
0.075056
0.076005
0.075422
0.074272
0.073693
0.074850
0.078726
0.085679
0.094878
0.104006
0.109588
0.107939
0.096330
0.073939
0.042262
0.004899
-0.033212
-0.066887
-0.091896
-0.105983
-0.109376
-0.104542
-0.095338
-0.085948
-0.079949
-0.079700
-0.086088
-0.098594
-0.115656
-0.135287
-0.155753
-0.175959
-0.195380
-0.213646
-0.230068
-0.243361
-0.251681
-0.253026
-0.245818
-0.229436
-0.204506
-0.172975
-0.138008
-0.103489
-0.072989
-0.048575
-0.030214
-0.016212
-0.004385
0.006792
0.017633
0.027343
0.034482
0.037600
0.035938
0.029915
0.021123
0.011804
0.004163
-0.000105
0.000027
0.004907
0.014171
0.026724
0.040904
0.054885
0.067192
0.077091
0.084637
0.090380
0.094936
0.098710
0.101931
0.104796
0.107486
0.109984
0.111926
0.112789
0.112406
0.111335
0.110661
0.111403
0.114044
0.118497
0.124278
0.130502
0.135584
0.137089
0.132231
0.119130
0.098127
0.072150
0.045783
0.023670
0.009245
0.004274
0.009013
0.022489
0.042688
0.066810
0.091763
0.114885
0.134620
0.150840
0.164628
0.177600
0.191123
0.205765
0.221161
0.236314
0.250126
0.261856
0.271302
0.278801
0.285141
0.291320
0.298066
0.305340
0.312173
0.316957
0.318095
0.314676
0.306896
0.296087
0.284428
0.274308
0.267449
0.264190
0.263452
0.263435
0.262578
0.260109
0.255876
0.249741
0.241152
0.229336
0.213912
0.195307
0.174587
0.152859
0.130765
0.108393
0.085552
0.062070
0.037914
0.013169
-0.011920
-0.036746
-0.060074
-0.079988
-0.094230
-0.100844
-0.098771
-0.088065
-0.069733
-0.045393
-0.017060
0.012864
0.041619
0.066482
0.085563
0.098585
0.107038
0.113517
0.120626
0.130128
0.142639
0.157689
0.173890
0.189237
0.201698
0.209988
0.214127
0.215307
0.215050
0.214143
0.212103
0.207585
0.199424
0.187614
0.173697
0.160384
0.150686
0.146988
0.150420
0.160622
0.175941
0.193979
0.212275
0.228831
0.242359
0.252255
0.258426
0.261087
0.260537
0.256902
0.249956
0.239317
0.225102
0.208698
0.192990
0.181659
0.177718
0.182054
0.192816
0.205973
0.216756
0.221282
0.217656
0.206211
0.189056
0.169322
0.150398
0.135259
0.125926
0.123096
0.126137
0.133517
0.143469
0.154552
0.165879
0.177067
0.188016
0.198632
0.208541
0.216907
0.222473
0.223875
0.220116
0.211122
0.198096
0.183350
0.169613
0.159148
0.153122
0.151504
0.153439
0.157759
0.163235
0.168520
0.172093
0.172523
0.169022
0.161849
0.152213
0.141782
0.132295
0.125501
0.123175
0.126842
0.137231
0.153844
0.174896
0.197664
0.219100
0.236545
0.248354
0.254242
0.255220
0.253081
0.249611
0.245888
0.242047
0.237613
0.232137
0.225737
0.219211
0.213727
0.210384
0.209925
0.212604
0.218121
0.225571
0.233490
0.240133
0.243904
0.243722
0.239122
0.230161
0.217426
0.202207
0.186522
0.172639
0.162190
0.155436
0.151149
0.147199
0.141555
0.133242
0.122806
0.112172
0.104131
0.101705
0.107479
0.122968
0.148232
0.181917
0.221648
0.264467
0.307167
0.346625
0.380259
0.406472
0.424710
0.434992
0.437236
0.430981
0.415832
0.392346
0.362602
0.329904
0.297751
0.268755
0.244175
0.224087
0.207801
0.194161
0.181784
0.169480
0.156882
0.144945
0.135825
0.131963
0.134793
0.143846
0.156852
0.170703
0.182652
0.191108
0.195805
0.197566
0.197878
0.198336
0.200097
0.203573
0.208470
0.214050
0.219366
0.223360
0.224980
0.223457
0.218646
0.211231
0.202592
0.194417
0.188219
0.185007
0.185186
0.188562
0.194319
0.201128
0.207486
0.212213
0.214770
0.215206
0.213882
0.211305
0.208205
0.205609
0.204552
0.205455
0.207628
0.209379
0.208765
0.204533
0.196688
0.186414
0.175473
0.165509
0.157571
0.152005
0.148620
0.146915
0.146186
0.145531
0.143982
0.140805
0.135770
0.129188
0.121729
0.114194
0.107349
0.101808
0.097940
0.095841
0.095432
0.096625
0.099449
0.104049
0.110612
0.119243
0.129822
0.141992
0.155289
0.169305
0.183736
0.198311
0.212599
0.225767
0.236511
0.243360
0.245307
0.242369
0.235604
0.226632
0.217091
0.208379
0.201642
0.197838
0.197843
0.202549
0.212821
0.229205
0.251512
0.278497
0.307897
0.336955
0.363263
0.385503
0.403582
0.418098
0.429589
0.438134
0.443398
0.444836
0.441839
0.433865
0.420709
0.402752
0.380907
0.356316
0.330076
0.303247
0.277085
0.253145
0.233013
0.217855
0.208130
0.203555
0.203248
0.205940
0.210237
0.214720
0.217848
0.217943
0.213504
0.203774
0.189116
0.170871
0.150794
0.130454
0.110883
0.092490
0.075152
0.058456
0.042040
0.025859
0.010174
-0.004732
-0.018815
-0.032244
-0.045127
-0.057256
-0.068164
-0.077422
-0.084914
-0.090890
-0.095829
-0.100254
-0.104548
-0.108822
-0.112865
-0.116177
-0.118105
-0.118061
-0.115690
-0.110856
-0.103467
-0.093327
-0.080262
-0.064457
-0.046712
-0.028314
-0.010483
0.006171
0.021756
0.036662
0.050926
0.063878
0.074326
0.081095
0.083488
0.081418
0.075229
0.065448
0.052636
0.037351
0.020128
0.001557
-0.017582
-0.036241
-0.053265
-0.067753
-0.079346
-0.088196
-0.094660
-0.098984
-0.101166
-0.101055
-0.098543
-0.093699
-0.086770
-0.078103
-0.068032
-0.056692
-0.043829
-0.028694
-0.010205
0.012619
0.040119
0.071636
0.105534
0.139604
0.171666
0.200091
0.224037
0.243338
0.258202
0.269044
0.276644
0.282354
0.287800
0.294027
0.300854
0.307126
0.311664
0.314123
0.315262
0.316620
0.319885
0.326230
0.335804
0.347596
0.359770
0.370309
0.377610
0.380766
0.379624
0.374840
0.367920
0.360983
0.356144
0.354756
0.356920
0.361436
0.366206
0.368869
0.367449
0.360833
0.348950
0.332706
0.313814
0.294648
0.278009
0.266594
0.262194
0.264940
0.272993
0.282836
0.290095
0.290655
0.281780
0.262803
0.235115
0.201482
0.165059
0.128481
0.093307
0.059850
0.027392
-0.005319
-0.039408
-0.075354
-0.112852
-0.151086
-0.189151
-0.226444
-0.262905
-0.298986
-0.335324
-0.372383
-0.410290
-0.448844
-0.487589
-0.525910
-0.563172
-0.598903
-0.632903
-0.665246
-0.696190
-0.725969
-0.754476
-0.780978
-0.804109
-0.822309
-0.834528
-0.840723
-0.841775
-0.838850
-0.832723
-0.823605
-0.811528
-0.796833
-0.780309
-0.762933
-0.745510
-0.728512
-0.712109
-0.696282
-0.680965
-0.666227
-0.652413
-0.640084
-0.629784
-0.621797
-0.616082
-0.612431
-0.610611
-0.610330
-0.611060
-0.611921
-0.611877
-0.610186
-0.606747
-0.601957
-0.596202
-0.589472
-0.581493
-0.572227
-0.562260
-0.552707
-0.544654
-0.538486
-0.533523
-0.528129
-0.520145
-0.507421
-0.488289
-0.461948
-0.428769
-0.390401
-0.349506
-0.309116
-0.271782
-0.238910
-0.210609
-0.185979
-0.163559
-0.141709
-0.118842
-0.093614
-0.065199
-0.033562
0.000544
0.036011
0.071975
0.108108
0.144348
0.180275
0.214564
0.244926
0.268598
0.283087
0.286827
0.279571
0.262522
0.238241
0.210337
0.182919
0.159892
0.144184
0.137103
0.138120
0.145208
0.155607
0.166727
0.176810
0.185099
0.191590
0.196604
0.200359
0.202604
0.202376
0.198018
0.187527
0.169195
0.142318
0.107646
0.067375
0.024739
-0.016636
-0.053413
-0.083063
-0.104101
-0.116071
-0.119345
-0.114787
-0.103324
-0.085631
-0.062140
-0.033365
-0.000300
0.035405
0.071604
0.106117
0.137287
0.164351
0.187429
0.207256
0.224922
0.241744
0.259172
0.278588
0.301032
0.327065
0.356936
0.390936
0.429571
0.473227
0.521500
0.572740
0.624239
0.672988
0.716577
0.753779
0.784652
0.810283
0.832328
0.852481
0.872002
0.891464
0.910810
0.929576
0.947107
0.962598
0.975086
0.983611
0.987486
0.986524
0.981108
0.972076
0.960500
0.947450
0.933918
0.920867
0.909177
0.899287
0.890666
0.881609
0.869649
0.852357
0.828037
0.795995
0.756418
0.710056
0.657939
0.601389
0.542272
0.483059
0.426467
0.374839
0.329641
0.291245
0.258942
0.231164
0.205929
0.181354
0.156101
0.129658
0.102252
0.074331
0.045968
0.016779
-0.013594
-0.044981
-0.076553
-0.106976
-0.134637
-0.157975
-0.175922
-0.188310
-0.195972
-0.200485
-0.203689
-0.207267
-0.212500
-0.220190
-0.230662
-0.243694
-0.258289
-0.272439
-0.283273
-0.287772
-0.283743
-0.270571
-0.249392
-0.222624
-0.193177
-0.163754
-0.136505
-0.113019
-0.094436
-0.081484
-0.074334
-0.072252
-0.073341
-0.074659
-0.072790
-0.064667
-0.048297
-0.023124
0.010062
0.049551
0.093249
0.139151
0.185657
0.231664
0.276486
0.319697
0.360980
0.400146
0.437396
0.473703
0.510911
0.551238
0.596410
0.646980
0.702211
0.760519
0.820126
0.879572
0.937838
0.994144
1.047669
1.097456
1.142512
1.181995
1.215418
1.242857
1.265132
1.283891
1.301574
1.321217
1.346034
1.378762
1.420892
1.472065
1.529936
1.590606
1.649538
1.702682
1.747462
1.783330
1.811711
1.835367
1.857380
1.880109
1.904522
1.930122
1.955320
1.977907
1.995418
2.005387
2.005603
1.994427
1.971202
1.936724
1.893487
1.845393
1.796745
1.750716
1.708164
1.667811
1.627928
1.588061
1.549109
1.511976
1.476693
1.442891
1.410710
1.380988
1.354608
1.331621
1.310815
1.289897
1.265993
1.236141
1.197777
1.149315
1.090603
1.022879
0.948075
0.867909
0.783394
0.694781
0.601542
0.502369
0.395487
0.279332
0.153454
0.019381
-0.119096
-0.256655
-0.388000
-0.509506
-0.620140
-0.721686
-0.818412
-0.915926
-1.019448
-1.132337
-1.255663
-1.388799
-1.530203
-1.677803
-1.829155
-1.981656
-2.132942
-2.281308
-2.425899
-2.566530
-2.703164
-2.835352
-2.961910
-3.080922
-3.190007
-3.286813
-3.369719
-3.438433
-3.494143
-3.539175
-3.576322
-3.608058
-3.635624
-3.658296
-3.673371
-3.677015
-3.665551
-3.636529
-3.589145
-3.524136
-3.443459
-3.349800
-3.245916
-3.134082
-3.016038
-2.893373
-2.767843
-2.641293
-2.515471
-2.392022
-2.272511
-2.158275
-2.050117
-1.948176
-1.852198
-1.761999
-1.677648
-1.599171
-1.526149
-1.457634
-1.392379
-1.329201
-1.267290
-1.206371
-1.146673
-1.088722
-1.033097
-0.980376
-0.931301
-0.886927
-0.848482
-0.816949
-0.792653
-0.775119
-0.763242
-0.755681
-0.751148
-0.748481
-0.746746
-0.745379
-0.743926
-0.741449
-0.736303
-0.726475
-0.710111
-0.685854
-0.652959
-0.611455
-0.562268
-0.507072
-0.447956
-0.387089
-0.326504
-0.268050
-0.213458
-0.164393
-0.122356
-0.088289
-0.062195
-0.043239
-0.030332
-0.022767
-0.020437
-0.023582
-0.032429
-0.046953
-0.066698
-0.090714
-0.117715
-0.146477
-0.176202
-0.206599
-0.237641
-0.269272
-0.301258
-0.333219
-0.364885
-0.396454
-0.428746
-0.463004
-0.500502
-0.542167
-0.588267
-0.638169
-0.690233
-0.741989
-0.790576
-0.833314
-0.868175
-0.893938
-0.910133
-0.916975
-0.915214
-0.905864
-0.889959
-0.868508
-0.842647
-0.813832
-0.783832
-0.754550
-0.727872
-0.705635
-0.689579
-0.681233
-0.681881
-0.692534
-0.713860
-0.746121
-0.789049
-0.841757
-0.902921
-0.971052
-1.044648
-1.122116
-1.201521
-1.280573
-1.356917
-1.428415
-1.493188
-1.549441
-1.595307
-1.629050
-1.649537
-1.656628
-1.651251
-1.635068
-1.609883
-1.577151
-1.537834
-1.492525
-1.441669
-1.385722
-1.325289
-1.261251
-1.194826
-1.127489
-1.060672
-0.995460
-0.932444
-0.871753
-0.813235
-0.756642
-0.701729
-0.648317
-0.596363
-0.546034
-0.497769
-0.452316
-0.410667
-0.373947
-0.343315
-0.319877
-0.304542
-0.297835
-0.299835
-0.310191
-0.328139
-0.352703
-0.383180
-0.419539
-0.462292
-0.511903
-0.568165
-0.629879
-0.694963
-0.760879
-0.825185
-0.885934
-0.941767
-0.991875
-1.036017
-1.074542
-1.108218
-1.137846
-1.163921
-1.186562
-1.205656
-1.221095
-1.232945
-1.241416
-1.246682
-1.248689
-1.247117
-1.241567
-1.231866
-1.218249
-1.201348
-1.182053
-1.161251
-1.139615
-1.117506
-1.094992
-1.071934
-1.047975
-1.022454
-0.994368
-0.962433
-0.925198
-0.881344
-0.830139
-0.771694
-0.706831
-0.636758
-0.562808
-0.486310
-0.408446
-0.330090
-0.251699
-0.173257
-0.094369
-0.014612
0.065923
0.146207
0.224263
0.297673
0.364302
0.422831
0.472825
0.514457
0.548068
0.573812
0.591582
0.601196
0.602588
0.595789
0.580711
0.556974
0.523976
0.481210
0.428716
0.367474
0.299514
0.227615
0.154674
0.083039
0.014061
-0.051962
-0.115423
-0.176743
-0.235713
-0.291199
-0.341366
-0.384273
-0.418513
-0.443600
-0.460103
-0.469559
-0.474080
-0.475710
-0.475812
-0.474865
-0.472812
-0.469545
-0.465106
-0.459565
-0.452791
-0.444388
-0.433871
-0.420924
-0.405581
-0.388189
-0.369100
-0.348363
-0.325686
-0.300757
-0.273604
-0.244630
-0.214387
-0.183341
-0.151796
-0.119896
-0.087627
-0.054662
-0.020169
0.017053
0.057986
0.102720
0.150152
0.198214
0.244490
0.286824
0.323558
0.353427
0.375387
0.388578
0.392362
0.386479
0.371275
0.347774
0.317412
0.281691
0.242091
0.200082
0.156830
0.112796
0.067740
0.021167
-0.027166
-0.076963
-0.127371
-0.177142
-0.224896
-0.269413
-0.309737
-0.345088
-0.374825
-0.398526
-0.416117
-0.427899
-0.434491
-0.436767
-0.435808
-0.432767
-0.428572
-0.423617
-0.417624
-0.409750
-0.398775
-0.383294
-0.361903
-0.333431
-0.297137
-0.252787
-0.200682
-0.141687
-0.077225
-0.009209
0.060017
0.127770
0.191337
0.248464
0.297739
0.338580
0.370987
0.395289
0.411965
0.421597
0.424950
0.423025
0.416910
0.407512
0.395392
0.380856
0.364221
0.345981
0.326732
0.306998
0.287263
0.268225
0.251018
0.237116
0.228023
0.224985
0.228849
0.239989
0.258247
0.282849
0.312369
0.344809
0.377799
0.408851
0.435617
0.456138
0.469003
0.473464
0.469530
0.457936
0.439790
0.416061
0.387540
0.355294
0.320993
0.286715
0.254565
0.226518
0.204490
0.190249
0.185074
0.189502
0.203310
0.225696
0.255414
0.290799
0.329842
0.370469
0.410912
0.449905
0.486649
0.520648
0.551540
0.578958
0.602459
0.621531
0.635628
0.644253
0.647081
0.644113
0.635772
0.622849
0.606336
0.587258
0.566587
0.545206
0.523841
0.503002
0.483001
0.464101
0.446703
0.431445
0.419123
0.410421
0.405638
0.404657
0.407175
0.412888
0.421403
0.432091
0.444219
0.457373
0.471803
0.488433
0.508522
0.533263
0.563534
0.599789
0.641969
0.689483
0.741295
0.796111
0.852565
0.909387
0.965537
1.020292
1.073256
1.124207
1.172838
1.218552
1.260467
1.297591
1.328988
1.353875
1.371687
1.382125
1.385089
1.380611
1.368950
1.350816
1.327422
1.300114
1.269872
1.237091
1.201696
1.163399
1.121957
1.077409
1.030229
0.981296
0.931731
0.882703
0.835218
0.789918
0.746981
0.706208
0.667215
0.629599
0.593102
0.557689
0.523473
0.490639
0.459437
0.430203
0.403288
0.378881
0.356819
0.336562
0.317375
0.298550
0.279536
0.259971
0.239695
0.218764
0.197479
0.176384
0.156172
0.137561
0.121104
0.106905
0.094417
0.082647
0.070760
0.058651
0.046960
0.036518
0.027699
0.020302
0.014044
0.009117
0.006211
0.006105
0.009307
0.016020
0.026351
0.040515
0.058795
0.081357
0.108138
0.138882
0.173298
0.211106
0.251874
0.294804
0.338659
0.381951
0.423205
0.461121
0.494681
0.523279
0.546792
0.565427
0.579397
0.588770
0.593581
0.594024
0.590488
0.583385
0.572988
0.559446
0.542946
0.523833
0.502562
0.479553
0.455226
0.430245
0.405660
0.382755
0.362707
0.346258
0.333540
0.324183
0.317582
0.313122
0.310379
0.309314
0.310356
0.314264
0.321862
0.333730
0.349963
0.370101
0.393291
0.418682
