EVENT_NAME: L_AQUILA
EVENT_ID: IT-2009-0009
EVENT_DATE_YYYYMMDD: 20090406
EVENT_TIME_HHMMSS: 013240
EVENT_LATITUDE_DEGREE: 42.3420
EVENT_LONGITUDE_DEGREE: 13.3800
EVENT_DEPTH_KM: 8.3
HYPOCENTER_REFERENCE: INGV-CNT_Seismic_Bulletin
MAGNITUDE_W: 6.1
MAGNITUDE_W_REFERENCE: INGV-CNT_Seismic_Bulletin
MAGNITUDE_L: 
MAGNITUDE_L_REFERENCE: 
FOCAL_MECHANISM: Normal faulting
NETWORK: IT
STATION_CODE: ORC
STATION_NAME: 
STATION_LATITUDE_DEGREE: 41.953606
STATION_LONGITUDE_DEGREE: 13.642346
STATION_ELEVATION_M: 732
LOCATION: 
SENSOR_DEPTH_M: 0.0
VS30_M/S: 767
SITE_CLASSIFICATION_EC8: B
MORPHOLOGIC_CLASSIFICATION: 
EPICENTRAL_DISTANCE_KM: 48.3
EARTHQUAKE_BACKAZIMUTH_DEGREE: 153.2
DATE_TIME_FIRST_SAMPLE_YYYYMMDD_HHMMSS: 20090406_013235.000
DATE_TIME_FIRST_SAMPLE_PRECISION: seconds
SAMPLING_INTERVAL_S: 0.005000
NDATA: 14200
DURATION_S: 71.000
STREAM: HNZ
UNITS: cm/s^2
INSTRUMENT: sensor = FBA-3 [Kinemetrics] | digitizer = Everest [Kinemetrics]
INSTRUMENT_ANALOG/DIGITAL: D
INSTRUMENTAL_FREQUENCY_HZ: 214.000
INSTRUMENTAL_DAMPING: 0.000000
FULL_SCALE_G: 1.0
N_BIT_DIGITAL_CONVERTER: 24
PGA_CM/S^2: -30.500217
TIME_PGA_S: 25.620000
BASELINE_CORRECTION: BASELINE REMOVED
FILTER_TYPE: BUTTERWORTH
FILTER_ORDER: 2
LOW_CUT_FREQUENCY_HZ: 0.080
HIGH_CUT_FREQUENCY_HZ: 35.000
LATE/NORMAL_TRIGGERED: NT
DATABASE_VERSION: 0.5
HEADER_FORMAT: DYNA 1.2
DATA_TYPE: ACCELERATION
PROCESSING: manual (Paolucci et al., 2011)
DATA_TIMESTAMP_YYYYMMDD_HHMMSS: 20211011_160159.998
DATA_LICENSE: CC-BY3_0-IT (http://creativecommons.org/licenses/by/3.0/deed.en)
DATA_CITATION: Luzi L, Pacor F, Puglia R (2019). Italian Accelerometric Archive v 3.0 - Istituto Nazionale di Geofisica e Vulcanologia, Dipartimento della Protezione Civile Nazionale. doi: 10.13127/itaca.3.1
DATA_CREATOR: ITACA working group
ORIGINAL_DATA_MEDIATOR_CITATION: data obtained within the DPC-INGV data exchange agreements
ORIGINAL_DATA_MEDIATOR: Archive of Italian Department of Civil Protection
ORIGINAL_DATA_CREATOR_CITATION: Presidency Of Counsil Of Ministers-Civil Protection Department. (1972). Italian Strong Motion Network. Presidency of Counsil of Ministers - Civil Protection Department. https://doi.org/10.7914/SN/IT http://www.fdsn.org/networks/detail/IT/
ORIGINAL_DATA_CREATOR: network: IT (Italian Strong Motion Network (RAN)); owner: Presidency of Counsil of Ministers - Civil Protection Department (PCM - DPC)
USER1: 
USER2: 
USER3: 
USER4: 
USER5: 
[...]
2.379538
2.847915
3.509206
4.255385
4.936478
5.379945
5.461616
5.181068
4.648350
3.981748
3.224840
2.365167
1.413838
0.446733
-0.428931
-1.131589
-1.623585
-1.890454
-1.930800
-1.781486
-1.540886
-1.338016
-1.255482
-1.279906
-1.332346
-1.344338
-1.299956
-1.207097
-1.045303
-0.771884
-0.399433
-0.057314
0.050081
-0.233197
-0.913986
-1.853070
-2.865787
-3.829139
-4.691966
-5.382063
-5.711343
-5.383921
-4.131103
-1.902572
1.013544
4.049592
6.593524
8.253897
8.969988
8.914288
8.306235
7.290513
5.929249
4.246534
2.249630
-0.069557
-2.690314
-5.466578
-8.068070
-10.054276
-11.057665
-10.937022
-9.785333
-7.824608
-5.319392
-2.570221
0.082844
2.328271
3.995600
5.108530
5.822030
6.288419
6.547258
6.506582
6.012537
4.950067
3.313146
1.217205
-1.123844
-3.415177
-5.299722
-6.428742
-6.591067
-5.821721
-4.395424
-2.694703
-1.045542
0.369848
1.493772
2.323556
2.860303
3.095804
3.020679
2.639454
1.987977
1.146960
0.242441
-0.578376
-1.203697
-1.622078
-1.943056
-2.341557
-2.942109
-3.705336
-4.397754
-4.684946
-4.300749
-3.183053
-1.499043
0.441390
2.329348
3.960153
5.219955
5.992344
6.113218
5.450766
4.036541
2.101108
-0.033286
-2.087992
-3.856896
-5.145797
-5.747914
-5.523884
-4.520365
-3.000861
-1.337408
0.163153
1.369518
2.304078
3.029574
3.546405
3.786476
3.701993
3.349764
2.870410
2.380304
1.898788
1.381825
0.806557
0.212756
-0.335482
-0.821734
-1.293629
-1.778567
-2.170772
-2.235836
-1.786084
-0.884558
0.134210
0.871304
1.112993
0.910563
0.467587
-0.022673
-0.453330
-0.772599
-0.922917
-0.827678
-0.433717
0.234664
1.056314
1.837587
2.358282
2.431445
1.990179
1.165489
0.254451
-0.452960
-0.859945
-1.095638
-1.376414
-1.841800
-2.503676
-3.293607
-4.092781
-4.699890
-4.821475
-4.173913
-2.669181
-0.555086
1.614692
3.190537
3.697031
3.013999
1.393485
-0.666056
-2.612359
-4.015881
-4.667868
-4.576846
-3.899878
-2.879971
-1.812322
-0.985371
-0.558214
-0.447335
-0.353710
0.045049
0.874427
1.987784
3.088465
3.933464
4.441667
4.632673
4.495918
3.964380
3.037907
1.906727
0.909757
0.340352
0.271720
0.543573
0.891629
1.102519
1.102618
0.961652
0.841209
0.923259
1.332582
2.065451
2.958742
3.741202
4.180066
4.257190
4.223091
4.425412
5.016361
5.789492
6.300265
6.179856
5.373657
4.101619
2.619361
1.049251
-0.566722
-2.111494
-3.358889
-4.112279
-4.363227
-4.314166
-4.250900
-4.383023
-4.761876
-5.274157
-5.680087
-5.698561
-5.118003
-3.880278
-2.105687
-0.065040
1.891156
3.447681
4.443220
4.899516
4.924578
4.589920
3.910468
2.925462
1.761325
0.594048
-0.436058
-1.255693
-1.826281
-2.126388
-2.196788
-2.178322
-2.236403
-2.406178
-2.530205
-2.383941
-1.872064
-1.108654
-0.337763
0.207716
0.408410
0.286365
-0.028779
-0.361950
-0.548209
-0.463307
-0.042865
0.686397
1.579223
2.397319
2.901816
2.958908
2.595820
1.989759
1.406892
1.114213
1.271003
1.828428
2.519174
2.984177
2.964999
2.416081
1.454044
0.214518
-1.226157
-2.783100
-4.247036
-5.294246
-5.659698
-5.324561
-4.535661
-3.624558
-2.784409
-1.996656
-1.142232
-0.160750
0.893555
1.916036
2.830619
3.594522
4.142890
4.356495
4.110339
3.378525
2.319982
1.269514
0.597763
0.499065
0.858786
1.319806
1.499177
1.178417
0.357992
-0.793813
-2.016788
-3.014997
-3.519303
-3.373985
-2.596241
-1.358964
0.097483
1.559673
2.883164
3.974347
4.730691
5.007034
4.666137
3.684629
2.229811
0.627680
-0.772511
-1.749945
-2.280128
-2.483123
-2.516564
-2.483128
-2.386027
-2.149025
-1.688202
-1.005933
-0.236948
0.418345
0.822672
0.978931
1.002721
1.028463
1.123169
1.256585
1.334068
1.260843
1.000554
0.604267
0.189827
-0.116535
-0.230133
-0.115683
0.231404
0.775109
1.390661
1.839863
1.825426
1.116482
-0.329721
-2.321838
-4.478312
-6.335235
-7.472628
-7.622167
-6.735120
-5.001726
-2.817401
-0.678702
0.966777
1.840797
1.878061
1.199807
0.049754
-1.277598
-2.501216
-3.412289
-3.926203
-4.093171
-4.041252
-3.884207
-3.653131
-3.284541
-2.658435
-1.664114
-0.268997
1.441645
3.276429
4.986034
6.306112
6.993426
6.903780
6.100000
4.882853
3.672166
2.800400
2.365408
2.235288
2.168279
1.942023
1.427691
0.623716
-0.332488
-1.204596
-1.758294
-1.863775
-1.528298
-0.853530
0.026432
0.975891
1.852796
2.510702
2.835997
2.796083
2.461489
1.979807
1.509066
1.148698
0.911116
0.754900
0.644260
0.573001
0.537909
0.499632
0.388339
0.172549
-0.076484
-0.214195
-0.134746
0.148334
0.528229
0.890456
1.156395
1.244676
1.016429
0.300965
-0.971641
-2.620093
-4.200556
-5.195491
-5.273440
-4.422482
-2.885115
-0.994197
0.947892
2.695075
4.039888
4.824348
4.990567
4.624416
3.946990
3.244045
2.757533
2.594421
2.704670
2.928350
3.079226
3.030576
2.762511
2.345943
1.889224
1.499715
1.268027
1.235868
1.349101
1.454877
1.366563
0.956891
0.227458
-0.683668
-1.556109
-2.161764
-2.331873
-2.023969
-1.371827
-0.651696
-0.147553
-0.003384
-0.171496
-0.493834
-0.846468
-1.227034
-1.717789
-2.363210
-3.084937
-3.720920
-4.143996
-4.345529
-4.418911
-4.474342
-4.568191
-4.696403
-4.831250
-4.948917
-5.017855
-4.965120
-4.665616
-3.982846
-2.848327
-1.322916
0.414676
2.141102
3.666470
4.868040
5.666562
5.984773
5.751094
4.972470
3.816232
2.604318
1.690707
1.295840
1.421815
1.900415
2.502173
3.009968
3.240222
3.069400
2.492051
1.658170
0.827692
0.235958
-0.051329
-0.181371
-0.407991
-0.903668
-1.632258
-2.361818
-2.783541
-2.662545
-1.939654
-0.739555
0.686360
2.040358
3.063801
3.607760
3.659160
3.311260
2.705592
1.979172
1.234213
0.532059
-0.109957
-0.727035
-1.389091
-2.127875
-2.842983
-3.280844
-3.141499
-2.266167
-0.788348
0.867253
2.152499
2.631369
2.156467
0.905206
-0.725126
-2.289008
-3.431076
-3.946617
-3.784897
-3.027776
-1.866532
-0.566018
0.608126
1.475974
1.990517
2.216451
2.265413
2.237658
2.189850
2.123058
1.981906
1.673087
1.113336
0.280344
-0.751894
-1.798645
-2.605165
-2.949257
-2.747407
-2.093061
-1.205178
-0.323658
0.387010
0.864050
1.095147
1.057003
0.714628
0.086119
-0.700317
-1.434642
-1.927218
-2.086115
-1.897422
-1.358721
-0.465151
0.733236
2.077952
3.322536
4.210355
4.553646
4.287245
3.489013
2.361765
1.177650
0.195486
-0.427800
-0.693965
-0.744691
-0.768082
-0.886837
-1.095250
-1.280008
-1.305107
-1.096824
-0.668523
-0.091874
0.535727
1.103514
1.489900
1.583814
1.328631
0.754144
-0.036340
-0.919988
-1.792270
-2.547028
-3.043684
-3.136951
-2.776715
-2.089733
-1.350902
-0.857403
-0.789967
-1.128737
-1.662580
-2.087299
-2.126731
-1.608133
-0.485282
1.154767
3.097846
5.052724
6.737093
7.946129
8.563785
8.540127
7.891568
6.726844
5.242572
3.647587
2.056297
0.448848
-1.250922
-3.029787
-4.697266
-5.948906
-6.539505
-6.430661
-5.799095
-4.916081
-4.017575
-3.257208
-2.728029
-2.475422
-2.460839
-2.519594
-2.387362
-1.824007
-0.772255
0.565904
1.810695
2.601187
2.770086
2.389914
1.691227
0.939271
0.352271
0.062448
0.091439
0.352221
0.695303
0.979318
1.116049
1.063205
0.798745
0.324135
-0.304751
-0.962071
-1.483142
-1.727750
-1.634977
-1.239563
-0.642495
0.035922
0.675038
1.151550
1.361760
1.271574
0.945358
0.511394
0.087204
-0.264766
-0.515415
-0.619971
-0.519139
-0.211390
0.180544
0.434648
0.350165
-0.122861
-0.846424
-1.568963
-2.054864
-2.188051
-1.992961
-1.587538
-1.113116
-0.677123
-0.340842
-0.145786
-0.131006
-0.309884
-0.635417
-1.006935
-1.316474
-1.491751
-1.507024
-1.369100
-1.108117
-0.773685
-0.419745
-0.081784
0.238662
0.564732
0.919949
1.312760
1.726151
2.115865
2.433865
2.659379
2.803173
2.886310
2.915069
2.857438
2.633604
2.148886
1.369712
0.389499
-0.587705
-1.352961
-1.794381
-1.908158
-1.742376
-1.347548
-0.760685
0.000978
0.941274
2.054350
3.276761
4.461436
5.396924
5.880106
5.811606
5.261543
4.447962
3.615905
2.903116
2.298242
1.709051
1.052664
0.287611
-0.599380
-1.594746
-2.631159
-3.591490
-4.368993
-4.918176
-5.247933
-5.365909
-5.232405
-4.787927
-4.026491
-3.031452
-1.945143
-0.914851
-0.061470
0.538308
0.859380
0.896598
0.625698
0.018927
-0.887820
-1.945951
-2.931514
-3.649028
-4.015425
-4.068061
-3.914207
-3.678535
-3.467580
-3.339200
-3.283301
-3.236135
-3.136880
-2.981305
-2.816599
-2.685812
-2.576493
-2.425933
-2.181555
-1.851554
-1.498538
-1.195198
-0.987771
-0.884944
-0.858819
-0.854713
-0.808581
-0.662539
-0.385581
0.008859
0.474269
0.966738
1.477807
2.027914
2.613069
3.161082
3.548852
3.679729
3.566025
3.330861
3.117029
2.981243
2.852864
2.590328
2.089632
1.353660
0.478642
-0.413917
-1.237768
-1.956374
-2.562238
-3.057140
-3.444463
-3.714277
-3.827820
-3.731731
-3.404736
-2.897661
-2.318708
-1.769837
-1.292819
-0.864783
-0.436408
0.022210
0.502284
0.968764
1.385852
1.733329
2.014338
2.267888
2.572743
3.026875
3.697866
4.564830
5.499850
6.303452
6.779545
6.814063
6.412378
5.684995
4.789342
3.860026
2.972799
2.168532
1.519903
1.142092
1.089161
1.245358
1.365427
1.254467
0.907525
0.491834
0.227827
0.271535
0.653073
1.269008
1.914673
2.358403
2.434921
2.107814
1.460192
0.631207
-0.228510
-0.956757
-1.384018
-1.387298
-0.967943
-0.277569
0.432745
0.903309
0.954016
0.532571
-0.283972
-1.323281
-2.376535
-3.248895
-3.778304
-3.833180
-3.327924
-2.282880
-0.880050
0.549209
1.610549
1.968661
1.451696
0.112012
-1.774957
-3.795280
-5.537774
-6.726476
-7.284666
-7.315534
-7.034855
-6.691304
-6.491728
-6.542076
-6.817875
-7.189160
-7.499621
-7.646744
-7.613152
-7.458531
-7.292155
-7.216232
-7.267526
-7.411828
-7.581498
-7.710715
-7.749104
-7.664187
-7.452375
-7.146212
-6.799926
-6.468578
-6.188923
-5.955741
-5.701356
-5.300497
-4.626186
-3.639997
-2.443823
-1.239018
-0.210277
0.584936
1.225396
1.823589
2.415387
2.939160
3.304771
3.475185
3.484543
3.399610
3.280637
3.165430
3.063405
2.947443
2.762901
2.465875
2.059844
1.597469
1.142899
0.730256
0.364119
0.056087
-0.145981
-0.172235
0.008916
0.338102
0.687823
0.957943
1.151116
1.345966
1.595692
1.853251
1.993511
1.910581
1.610556
1.233649
0.992601
1.078758
1.596808
2.544794
3.826361
5.268212
6.635728
7.673747
8.179018
8.077830
7.466907
6.574463
5.660034
4.926084
4.484088
4.369921
4.573458
5.045618
5.682888
6.327378
6.821277
7.093343
7.192917
7.226545
7.247955
7.185393
6.857763
6.072431
4.734505
2.897794
0.747890
-1.451131
-3.409867
-4.856164
-5.580847
-5.483625
-4.605350
-3.141597
-1.416202
0.203492
1.417611
2.079704
2.224018
2.016668
1.657814
1.298161
1.002820
0.751017
0.448918
-0.045572
-0.871691
-2.098239
-3.666398
-5.375280
-6.934354
-8.054296
-8.527254
-8.274893
-7.355394
-5.930010
-4.207668
-2.393890
-0.654841
0.911585
2.292597
3.538537
4.698260
5.755030
6.613029
7.140948
7.239864
6.902514
6.234038
5.412834
4.615611
3.965364
3.533117
3.364394
3.485579
3.883189
4.488829
5.206635
5.974116
6.800009
7.727036
8.731345
9.654488
10.248032
10.299877
9.749703
8.717786
7.440388
6.174617
5.126153
4.409015
4.030708
3.904083
3.892547
3.869046
3.753199
3.506320
3.098048
2.497616
1.705037
0.775006
-0.192263
-1.083225
-1.806393
-2.315361
-2.609873
-2.706421
-2.610318
-2.337824
-1.978024
-1.724278
-1.811371
-2.391990
-3.458389
-4.863996
-6.408451
-7.915379
-9.272382
-10.423498
-11.309838
-11.823424
-11.842694
-11.318423
-10.325579
-9.039636
-7.679104
-6.460724
-5.555593
-5.046813
-4.915061
-5.050679
-5.288625
-5.481120
-5.584308
-5.672536
-5.837682
-6.074781
-6.277371
-6.314347
-6.084551
-5.532298
-4.667461
-3.589560
-2.477461
-1.532421
-0.902710
-0.640794
-0.715444
-1.046646
-1.538068
-2.094459
-2.606413
-2.918852
-2.830117
-2.166834
-0.899674
0.805693
2.634402
4.235862
5.353518
5.889524
5.884665
5.449730
4.697132
3.716741
2.590218
1.429993
0.416533
-0.217826
-0.263669
0.373946
1.624597
3.273823
5.034689
6.637176
7.897737
8.739636
9.180440
9.301161
9.201361
8.964586
8.642186
8.256513
7.833118
7.450038
7.261515
7.441587
8.065324
9.034423
10.113921
11.046279
11.661578
11.921504
11.889026
11.653275
11.261285
10.705001
9.957315
9.011181
7.896660
6.684590
5.487818
4.454885
3.751811
3.536753
3.928529
4.963320
6.545722
8.425896
10.234629
11.574251
12.133920
11.786388
10.628857
8.955985
7.173573
5.676336
4.731148
4.402530
4.545910
4.882607
5.119930
5.039521
4.517435
3.502195
1.993826
0.043268
-2.235328
-4.644862
-6.895609
-8.647506
-9.618675
-9.729774
-9.205699
-8.510355
-8.070590
-7.976662
-7.973378
-7.790496
-7.426513
-7.056647
-6.760360
-6.436294
-5.944384
-5.276019
-4.597337
-4.161120
-4.183627
-4.780737
-5.970577
-7.672808
-9.692214
-11.742484
-13.544861
-14.960723
-16.033218
-16.902994
-17.722628
-18.647804
-19.834528
-21.376453
-23.231047
-25.175629
-26.814432
-27.695461
-27.511728
-26.269119
-24.301113
-22.126860
-20.309290
-19.345091
-19.502798
-20.704363
-22.577921
-24.665142
-26.627262
-28.280783
-29.519993
-30.270292
-30.500217
-30.257250
-29.673124
-28.918371
-28.126114
-27.326702
-26.437769
-25.311621
-23.802364
-21.816887
-19.361214
-16.581257
-13.742717
-11.142161
-9.006253
-7.429501
-6.347148
-5.513236
-4.534455
-3.014939
-0.728830
2.292813
5.804472
9.476718
13.001803
16.135492
18.731697
20.776955
22.366798
23.608747
24.532932
25.105953
25.310022
25.164356
24.689878
23.902130
22.847212
21.631620
20.388229
19.195595
18.039761
16.870245
15.695437
14.604353
13.703091
13.050895
12.635594
12.382226
12.183758
11.939591
11.590313
11.125031
10.544184
9.814977
8.874858
7.688962
6.306604
4.859092
3.506920
2.375252
1.512189
0.906692
0.533470
0.346975
0.273272
0.290723
0.495349
1.029193
1.965703
3.272660
4.851431
6.578932
8.300841
9.837536
11.039157
11.823237
12.173347
12.116981
11.690781
10.918503
9.812821
8.407414
6.813458
5.218790
3.791226
2.581327
1.513010
0.466081
-0.628965
-1.769515
-2.904669
-3.949117
-4.803079
-5.400208
-5.752372
-5.945142
-6.079445
-6.208371
-6.326173
-6.397193
-6.392166
-6.333167
-6.313890
-6.458371
-6.851579
-7.499652
-8.332867
-9.220134
-9.980390
-10.412823
-10.351209
-9.717283
-8.547673
-6.972221
-5.152457
-3.239104
-1.368379
0.352178
1.869976
3.180946
4.290338
5.172111
5.763005
5.999988
5.856395
5.335737
4.447288
3.211175
1.669203
-0.129616
-2.130589
-4.265096
-6.452322
-8.585476
-10.541676
-12.232832
-13.626073
-14.719353
-15.493486
-15.881086
-15.810426
-15.268720
-14.299504
-12.954691
-11.250592
-9.173191
-6.748568
-4.097546
-1.418200
1.075514
3.236496
5.037105
6.546327
7.863553
9.061690
10.171228
11.189481
12.086422
12.807755
13.284945
13.467471
13.363303
13.042339
12.603319
12.138063
11.703692
11.318676
10.982440
10.682502
10.390764
10.065799
9.652925
9.090699
8.329753
7.343950
6.126519
4.687552
3.067014
1.341384
-0.399942
-2.071227
-3.589594
-4.912723
-6.095501
-7.271876
-8.550521
-9.922237
-11.252372
-12.342851
-13.016774
-13.183256
-12.861174
-12.149726
-11.166680
-10.021536
-8.828426
-7.704967
-6.735124
-5.925634
-5.215045
-4.528173
-3.818915
-3.087791
-2.369827
-1.694294
-1.053126
-0.401474
0.314331
1.110126
1.940129
2.723470
3.380073
3.859145
4.160396
4.327047
4.421945
4.502796
4.611588
4.791682
5.104289
5.617229
6.387021
7.446981
8.770798
10.240996
11.688969
12.972529
14.014740
14.789968
15.299599
15.572834
15.671174
15.678244
15.688250
15.777653
15.951373
16.107012
16.056763
15.611303
14.681875
13.325956
11.705682
9.998831
8.326323
6.722242
5.148927
3.553985
1.922677
0.278435
-1.359802
-3.015672
-4.747259
-6.599560
-8.553324
-10.498752
-12.248444
-13.592060
-14.379769
-14.588108
-14.327073
-13.795569
-13.204691
-12.692157
-12.263867
-11.794087
-11.097254
-10.033256
-8.581453
-6.847979
-5.017389
-3.300674
-1.891239
-0.904121
-0.325951
-0.020377
0.189367
0.410625
0.653366
0.887785
1.108104
1.354853
1.680640
2.103303
2.589554
3.068418
3.478415
3.817788
4.147455
4.535518
4.985796
5.430607
5.794619
6.048741
6.209092
6.309070
6.380003
6.453856
6.592893
6.898616
7.444497
8.186506
8.946875
9.486405
9.612260
9.255200
8.466880
7.346885
5.973622
4.392150
2.638061
0.756907
-1.176581
-3.040915
-4.700140
-6.072298
-7.144337
-7.920007
-8.401774
-8.650365
-8.806864
-9.011073
-9.314585
-9.666743
-9.959327
-10.081714
-9.954115
-9.550774
-8.903509
-8.064635
-7.070306
-5.947302
-4.740319
-3.518194
-2.356334
-1.318417
-0.455130
0.191774
0.608226
0.838924
0.991089
1.198428
1.574910
2.194958
3.096275
4.278198
5.694266
7.258919
8.869980
10.421001
11.798981
12.892391
13.603238
13.845079
13.550756
12.713294
11.425404
9.854954
8.168224
6.481464
4.860415
3.335207
1.926279
0.670610
-0.384998
-1.222875
-1.879585
-2.424095
-2.907116
-3.327063
-3.647899
-3.849818
-3.946784
-3.947142
-3.807560
-3.441471
-2.780290
-1.818698
-0.607523
0.772731
2.227996
3.651648
4.920487
5.903917
6.487966
6.598143
6.210247
5.353226
4.104148
2.573112
0.892225
-0.786931
-2.318681
-3.629331
-4.745624
-5.704341
-6.449095
-6.860199
-6.855643
-6.430018
-5.609391
-4.405515
-2.848317
-1.034877
0.885504
2.761634
4.477130
5.943709
7.077003
7.808547
8.125468
8.088461
7.798681
7.348712
6.799849
6.178518
5.483461
4.700299
3.814349
2.819398
1.724993
0.565618
-0.593525
-1.668256
-2.584590
-3.302551
-3.815682
-4.134198
-4.276273
-4.272904
-4.167847
-4.000193
-3.779946
-3.479613
-3.051569
-2.464494
-1.740363
-0.956570
-0.196319
0.503625
1.142625
1.703004
2.137545
2.425745
2.630663
2.886076
3.325966
4.017832
4.948218
6.054256
7.250891
8.436130
9.502651
10.362476
10.963214
11.290710
11.364472
11.229965
10.951038
10.592755
10.190254
9.726200
9.142694
8.383013
7.424857
6.279500
4.977214
3.562586
2.087564
0.592697
-0.895538
-2.332282
-3.626676
-4.678816
-5.461622
-6.048391
-6.556213
-7.078995
-7.659429
-8.288409
-8.909628
-9.436042
-9.786598
-9.912938
-9.805644
-9.497003
-9.059881
-8.587538
-8.154606
-7.798508
-7.523223
-7.299383
-7.082654
-6.843076
-6.566843
-6.240390
-5.846865
-5.382983
-4.881445
-4.412428
-4.051241
-3.837464
-3.764984
-3.802831
-3.913010
-4.055113
-4.186249
-4.257029
-4.219037
-4.042326
-3.722205
-3.291356
-2.839912
-2.497459
-2.354040
-2.377418
-2.421848
-2.338132
-2.088525
-1.763768
-1.479458
-1.251527
-0.985456
-0.581098
-0.021147
0.640397
1.342504
2.066195
2.832793
3.656023
4.512501
5.356093
6.148851
6.883259
7.561507
8.153583
8.585980
8.771089
8.658263
8.250818
7.583329
6.711992
5.719521
4.702631
3.726901
