EVENT_NAME: L_AQUILA
EVENT_ID: IT-2009-0009
EVENT_DATE_YYYYMMDD: 20090406
EVENT_TIME_HHMMSS: 013240
EVENT_LATITUDE_DEGREE: 42.3420
EVENT_LONGITUDE_DEGREE: 13.3800
EVENT_DEPTH_KM: 8.3
HYPOCENTER_REFERENCE: INGV-CNT_Seismic_Bulletin
MAGNITUDE_W: 6.1
MAGNITUDE_W_REFERENCE: INGV-CNT_Seismic_Bulletin
MAGNITUDE_L: 
MAGNITUDE_L_REFERENCE: 
FOCAL_MECHANISM: Normal faulting
NETWORK: IT
STATION_CODE: ORC
STATION_NAME: 
STATION_LATITUDE_DEGREE: 41.953606
STATION_LONGITUDE_DEGREE: 13.642346
STATION_ELEVATION_M: 732
LOCATION: 
SENSOR_DEPTH_M: 0.0
VS30_M/S: 767
SITE_CLASSIFICATION_EC8: B
MORPHOLOGIC_CLASSIFICATION: 
EPICENTRAL_DISTANCE_KM: 48.3
EARTHQUAKE_BACKAZIMUTH_DEGREE: 153.2
DATE_TIME_FIRST_SAMPLE_YYYYMMDD_HHMMSS: 20090406_013235.000
DATE_TIME_FIRST_SAMPLE_PRECISION: seconds
SAMPLING_INTERVAL_S: 0.005000
NDATA: 14200
DURATION_S: 71.000
STREAM: HNN
UNITS: cm/s
INSTRUMENT: sensor = FBA-3 [Kinemetrics] | digitizer = Everest [Kinemetrics]
INSTRUMENT_ANALOG/DIGITAL: D
INSTRUMENTAL_FREQUENCY_HZ: 212.000
INSTRUMENTAL_DAMPING: 0.000000
FULL_SCALE_G: 1.0
N_BIT_DIGITAL_CONVERTER: 24
PGV_CM/S: 3.286639
TIME_PGV_S: 29.795000
BASELINE_CORRECTION: BASELINE REMOVED
FILTER_TYPE: BUTTERWORTH
FILTER_ORDER: 2
LOW_CUT_FREQUENCY_HZ: 0.080
HIGH_CUT_FREQUENCY_HZ: 35.000
LATE/NORMAL_TRIGGERED: NT
DATABASE_VERSION: 0.5
HEADER_FORMAT: DYNA 1.2
DATA_TYPE: VELOCITY
PROCESSING: manual (Paolucci et al., 2011)
DATA_TIMESTAMP_YYYYMMDD_HHMMSS: 20211011_160159.757
DATA_LICENSE: CC-BY3_0-IT (http://creativecommons.org/licenses/by/3.0/deed.en)
DATA_CITATION: Luzi L, Pacor F, Puglia R (2019). Italian Accelerometric Archive v 3.0 - Istituto Nazionale di Geofisica e Vulcanologia, Dipartimento della Protezione Civile Nazionale. doi: 10.13127/itaca.3.1
DATA_CREATOR: ITACA working group
ORIGINAL_DATA_MEDIATOR_CITATION: data obtained within the DPC-INGV data exchange agreements
ORIGINAL_DATA_MEDIATOR: Archive of Italian Department of Civil Protection
ORIGINAL_DATA_CREATOR_CITATION: Presidency Of Counsil Of Ministers-Civil Protection Department. (1972). Italian Strong Motion Network. Presidency of Counsil of Ministers - Civil Protection Department. https://doi.org/10.7914/SN/IT http://www.fdsn.org/networks/detail/IT/
ORIGINAL_DATA_CREATOR: network: IT (Italian Strong Motion Network (RAN)); owner: Presidency of Counsil of Ministers - Civil Protection Department (PCM - DPC)
USER1: 
USER2: 
USER3: 
USER4: 
USER5: 
[...]
-0.031160
-0.004716
0.022785
0.051440
0.080239
0.108224
0.135370
0.162343
0.189668
0.217346
0.245288
0.273947
0.304286
0.336921
0.371217
0.405247
0.436777
0.464443
0.488149
0.508484
0.525742
0.539378
0.548330
0.551908
0.550499
0.545500
0.538602
0.531136
0.523979
0.517907
0.513896
0.512937
0.515464
0.521003
0.528527
0.537207
0.546779
0.557185
0.568063
0.578858
0.589413
0.600168
0.611681
0.624110
0.637262
0.650987
0.665398
0.680837
0.697797
0.716836
0.738353
0.762454
0.789260
0.819312
0.853361
0.891573
0.932998
0.975933
1.018844
1.060934
1.101783
1.140443
1.174907
1.202492
1.220936
1.229676
1.230598
1.227434
1.223670
1.220425
1.216266
1.209071
1.198031
1.183885
1.167522
1.148756
1.126505
1.099851
1.068689
1.033384
0.994097
0.950673
0.903244
0.852909
0.801777
0.752216
0.705869
0.663319
0.624813
0.591290
0.564501
0.545999
0.536016
0.533358
0.536332
0.543669
0.554591
0.568277
0.583615
0.599601
0.615860
0.632633
0.650247
0.668600
0.687052
0.704630
0.720268
0.732861
0.741115
0.743477
0.738428
0.725064
0.703447
0.674438
0.639307
0.599756
0.558433
0.519234
0.486507
0.463252
0.449762
0.444077
0.443725
0.446913
0.452411
0.459015
0.465477
0.470837
0.474614
0.476592
0.476410
0.473436
0.467274
0.458423
0.448280
0.438479
0.430342
0.424852
0.422770
0.424451
0.429517
0.436972
0.445828
0.455527
0.465529
0.474584
0.480682
0.481885
0.477112
0.466119
0.449080
0.426477
0.399174
0.367950
0.332709
0.292604
0.247329
0.198120
0.147074
0.095468
0.043174
-0.009912
-0.062083
-0.109936
-0.150460
-0.182848
-0.208208
-0.227725
-0.241321
-0.247982
-0.247177
-0.239856
-0.228113
-0.213900
-0.198087
-0.180713
-0.162000
-0.142975
-0.125131
-0.109562
-0.096407
-0.084948
-0.074167
-0.063323
-0.052216
-0.040910
-0.029116
-0.016008
-0.000909
0.015799
0.032567
0.047678
0.060379
0.070877
0.079159
0.083964
0.083035
0.074237
0.056359
0.029129
-0.007058
-0.051293
-0.102328
-0.158796
-0.219215
-0.281716
-0.343984
-0.403866
-0.460273
-0.513443
-0.564267
-0.613343
-0.660590
-0.705667
-0.748700
-0.790497
-0.831946
-0.873106
-0.912886
-0.949619
-0.982061
-1.009946
-1.033770
-1.054156
-1.071495
-1.086191
-1.099247
-1.112425
-1.127443
-1.144805
-1.163438
-1.181596
-1.198147
-1.213065
-1.226853
-1.239628
-1.250773
-1.259373
-1.264828
-1.266978
-1.265695
-1.260497
-1.250625
-1.235386
-1.214269
-1.186700
-1.151763
-1.108244
-1.055044
-0.991839
-0.919612
-0.840715
-0.758399
-0.676124
-0.596833
-0.522352
-0.453351
-0.390021
-0.332775
-0.282154
-0.238113
-0.199668
-0.165462
-0.134667
-0.107153
-0.082725
-0.060388
-0.038720
-0.017167
0.003032
0.019250
0.028823
0.030125
0.022831
0.007754
-0.013273
-0.037578
-0.062255
-0.084984
-0.104303
-0.118988
-0.127294
-0.127159
-0.117436
-0.098864
-0.073667
-0.044072
-0.011190
0.024758
0.063131
0.101759
0.137165
0.166010
0.186621
0.199578
0.207080
0.211573
0.214595
0.216561
0.217430
0.217435
0.217176
0.217243
0.218027
0.220098
0.224837
0.234576
0.251750
0.277444
0.310594
0.348788
0.390142
0.434415
0.482129
0.532603
0.583084
0.629946
0.670733
0.705192
0.734629
0.760423
0.783043
0.802213
0.817711
0.829947
0.839939
0.848822
0.857308
0.865549
0.873387
0.880597
0.886921
0.892045
0.895675
0.897528
0.897060
0.893300
0.885154
0.871925
0.853556
0.830389
0.802785
0.771047
0.735644
0.697357
0.657112
0.615690
0.573586
0.531008
0.487861
0.443718
0.397859
0.349414
0.297570
0.241835
0.182250
0.119327
0.053798
-0.013470
-0.081320
-0.148276
-0.213067
-0.275536
-0.337115
-0.400160
-0.466550
-0.536699
-0.609704
-0.684297
-0.759690
-0.835686
-0.912030
-0.987612
-1.060306
-1.127602
-1.187331
-1.237836
-1.277764
-1.306045
-1.322141
-1.326221
-1.319177
-1.302689
-1.279317
-1.252348
-1.225268
-1.201020
-1.181390
-1.166884
-1.157258
-1.152277
-1.152039
-1.156661
-1.165710
-1.178026
-1.192285
-1.207993
-1.226155
-1.248991
-1.278716
-1.316189
-1.360631
-1.410803
-1.466521
-1.528711
-1.597901
-1.672938
-1.751383
-1.831005
-1.910696
-1.990068
-2.068710
-2.146465
-2.224754
-2.307410
-2.399410
-2.503431
-2.616108
-2.727270
-2.824488
-2.900687
-2.957793
-3.002260
-3.037401
-3.060958
-3.069087
-3.060657
-3.037456
-3.001762
-2.954545
-2.895411
-2.823615
-2.739368
-2.644657
-2.542754
-2.436410
-2.326130
-2.209974
-2.085039
-1.949531
-1.804087
-1.651581
-1.495616
-1.339075
-1.184181
-1.033869
-0.892773
-0.766542
-0.659757
-0.573729
-0.505458
-0.448360
-0.394770
-0.339370
-0.281359
-0.223493
-0.168710
-0.117228
-0.066294
-0.012337
0.046384
0.108587
0.171350
0.233087
0.295300
0.361178
0.432735
0.509736
0.591118
0.676637
0.766885
0.862080
0.961064
1.061426
1.160871
1.259010
1.358199
1.462424
1.574740
1.695397
1.822387
1.953649
2.088581
2.227340
2.368751
2.509166
2.643701
2.768862
2.884019
2.989852
3.084458
3.160574
3.207315
3.216095
3.186215
3.125471
3.045239
2.953738
2.852296
2.737080
2.604522
2.456074
2.298982
2.142846
1.994557
1.855344
1.721881
1.590122
1.458715
1.329577
1.205538
1.087329
0.972536
0.857298
0.739090
0.618137
0.496468
0.375739
0.255854
0.135491
0.013719
-0.109041
-0.231642
-0.353252
-0.472985
-0.588366
-0.694852
-0.787236
-0.861452
-0.915535
-0.949691
-0.965646
-0.965521
-0.950876
-0.922445
-0.880710
-0.826925
-0.763866
-0.695624
-0.626374
-0.559058
-0.495188
-0.436023
-0.383978
-0.342723
-0.315847
-0.305556
-0.312713
-0.337847
-0.381658
-0.444326
-0.524445
-0.618720
-0.722662
-0.831658
-0.941905
-1.050985
-1.157778
-1.261685
-1.361991
-1.458132
-1.550072
-1.637609
-1.719202
-1.792117
-1.854376
-1.906581
-1.951500
-1.991631
-2.027052
-2.055486
-2.074436
-2.083479
-2.084730
-2.081270
-2.075166
-2.066837
-2.056121
-2.043703
-2.031151
-2.019415
-2.007584
-1.993335
-1.974625
-1.950862
-1.922539
-1.890038
-1.852775
-1.808873
-1.755191
-1.687939
-1.603953
-1.501872
-1.382444
-1.247741
-1.099764
-0.939491
-0.767123
-0.583205
-0.389618
-0.189720
0.012425
0.212984
0.408755
0.597110
0.776051
0.944727
1.103910
1.255533
1.401205
1.540785
1.672221
1.793056
1.902536
2.002399
2.095391
2.182703
2.262455
2.330474
2.382878
2.418629
2.440340
2.452905
2.461001
2.466905
2.469813
2.466871
2.455160
2.433446
2.402680
2.364980
2.321976
2.273950
2.220369
2.161084
2.097081
2.030208
1.962234
1.894313
1.827568
1.763981
1.706143
1.655888
1.613421
1.578066
1.549917
1.530626
1.522325
1.525527
1.537821
1.554621
1.571634
1.587190
1.602494
1.619649
1.639344
1.660086
1.679233
1.694629
1.705557
1.712502
1.716083
1.716042
1.711149
1.700118
1.682710
1.660057
1.633923
1.605539
1.575056
1.542003
1.506227
1.468626
1.431094
1.395582
1.362931
1.332561
1.303322
1.274641
1.246791
1.219968
1.193051
1.163464
1.128593
1.087510
1.041334
0.991990
0.940651
0.887165
0.830644
0.770443
0.706799
0.640982
0.574928
0.510430
0.448240
0.387716
0.327273
0.265277
0.200737
0.133469
0.063906
-0.007333
-0.080009
-0.154549
-0.231562
-0.310945
-0.391438
-0.471011
-0.547554
-0.619242
-0.684507
-0.741936
-0.790441
-0.829805
-0.861385
-0.888388
-0.915065
-0.944926
-0.979249
-1.017166
-1.057169
-1.098520
-1.141304
-1.185334
-1.229258
-1.270899
-1.308479
-1.341421
-1.370002
-1.394320
-1.413664
-1.426781
-1.432707
-1.431387
-1.423578
-1.410184
-1.391725
-1.368475
-1.341068
-1.310899
-1.279978
-1.250390
-1.223802
-1.201334
-1.183793
-1.172043
-1.167007
-1.169045
-1.177038
-1.187988
-1.197710
-1.202228
-1.198800
-1.185908
-1.162752
-1.129157
-1.086028
-1.035739
-0.981861
-0.928156
-0.877500
-0.831416
-0.790337
-0.754237
-0.723256
-0.698034
-0.679591
-0.668861
-0.666240
-0.671320
-0.683026
-0.700217
-0.722284
-0.749093
-0.780427
-0.815879
-0.855374
-0.899336
-0.947971
-1.000596
-1.055930
-1.112891
-1.171044
-1.230425
-1.291046
-1.352547
-1.414248
-1.475573
-1.536487
-1.597515
-1.659362
-1.722571
-1.787470
-1.854136
-1.922124
-1.990175
-2.056099
-2.116924
-2.169438
-2.211003
-2.240042
-2.255743
-2.257445
-2.244589
-2.217433
-2.177729
-2.128470
-2.072560
-2.011270
-1.943873
-1.868908
-1.785804
-1.695293
-1.598534
-1.496185
-1.388424
-1.275819
-1.160330
-1.045655
-0.936529
-0.837382
-0.751231
-0.679433
-0.622256
-0.579516
-0.550532
-0.533612
-0.525991
-0.524644
-0.527255
-0.532408
-0.539171
-0.546872
-0.555355
-0.565152
-0.577199
-0.592392
-0.611320
-0.634152
-0.660464
-0.689089
-0.718286
-0.746281
-0.771795
-0.794029
-0.812190
-0.825116
-0.831368
-0.829763
-0.820133
-0.803954
-0.784162
-0.763646
-0.743440
-0.722751
-0.701034
-0.679623
-0.661021
-0.646757
-0.636010
-0.626197
-0.614713
-0.600171
-0.582356
-0.561307
-0.536413
-0.506328
-0.469789
-0.426563
-0.377626
-0.324333
-0.267455
-0.207065
-0.143241
-0.076682
-0.008643
0.059469
0.126281
0.190303
0.249768
0.302645
0.346737
0.379765
0.399539
0.404267
0.392882
0.365183
0.321696
0.263286
0.190772
0.104925
0.006861
-0.101499
-0.217322
-0.337118
-0.457131
-0.573766
-0.684221
-0.787052
-0.881881
-0.968249
-1.044667
-1.108807
-1.158631
-1.193393
-1.213683
-1.220706
-1.215583
-1.199206
-1.172555
-1.136955
-1.093963
-1.044976
-0.990941
-0.932463
-0.870274
-0.805824
-0.741587
-0.680781
-0.626567
-0.581210
-0.545769
-0.520403
-0.504863
-0.498720
-0.501403
-0.512275
-0.530797
-0.556462
-0.588396
-0.624997
-0.664110
-0.703880
-0.743724
-0.784441
-0.827157
-0.872258
-0.919577
-0.969201
-1.021410
-1.075934
-1.131858
-1.188138
-1.243557
-1.296073
-1.342748
-1.380694
-1.408007
-1.423749
-1.427204
-1.417280
-1.392484
-1.351293
-1.292768
-1.217318
-1.126987
-1.024864
-0.914029
-0.796753
-0.674374
-0.547799
-0.418124
-0.286788
-0.155155
-0.023994
0.106484
0.236071
0.364155
0.489936
0.612898
0.732937
0.849975
0.963333
1.071377
1.171905
1.263347
1.346106
1.423075
1.498706
1.576846
1.658499
1.741265
1.821278
1.896222
1.966957
2.036660
2.108232
2.181858
2.254709
2.323266
2.386383
2.446362
2.507122
2.571058
2.637102
2.701352
2.759628
2.810091
2.854127
2.894947
2.935003
2.974133
3.009821
3.039255
3.061387
3.077239
3.088448
3.095383
3.096295
3.088087
3.068112
3.035663
2.992067
2.939434
2.879265
2.812313
2.739686
2.663663
2.587305
2.513556
2.444723
2.382452
2.328008
2.282602
2.247462
2.223624
2.211637
2.211548
2.223216
2.246465
2.280659
2.323962
2.373094
2.424149
2.474010
2.521118
2.564970
2.605195
2.641268
2.672937
2.700559
2.724750
2.745452
2.761296
2.769951
2.769177
2.757899
2.736542
2.706258
2.667805
2.621493
2.568201
2.509873
2.448420
2.384212
2.316026
2.242576
2.164020
2.081960
1.998066
1.912770
1.825291
1.734943
1.642491
1.550218
1.460483
1.373995
1.289493
1.205345
1.121781
1.041639
0.968622
0.904369
0.847036
0.792992
0.740276
0.690710
0.648773
0.618384
0.600580
0.593877
0.596381
0.607389
0.627158
0.655310
0.689591
0.726336
0.762358
0.796410
0.828841
0.859995
0.889070
0.914395
0.934642
0.949863
0.961621
0.972209
0.983536
0.996505
1.011229
1.027584
1.045312
1.063507
1.080133
1.092444
1.098365
1.097714
1.092074
1.083328
1.072053
1.057099
1.036384
1.007968
0.970630
0.923732
0.866575
0.798114
0.717678
0.626173
0.526412
0.421871
0.314733
0.204961
0.091214
-0.027220
-0.149280
-0.272866
-0.396511
-0.520174
-0.644454
-0.769215
-0.892911
-1.013116
-1.127747
-1.235944
-1.337807
-1.433176
-1.520793
-1.598795
-1.665881
-1.721779
-1.766631
-1.800178
-1.821707
-1.830827
-1.828218
-1.815665
-1.795465
-1.769819
-1.740749
-1.710469
-1.681588
-1.656727
-1.637825
-1.625840
-1.621133
-1.624080
-1.635119
-1.654175
-1.680162
-1.710919
-1.743217
-1.772855
-1.795550
-1.808609
-1.812018
-1.807661
-1.797368
-1.781732
-1.760495
-1.733576
-1.701497
-1.664882
-1.623684
-1.576944
-1.523312
-1.461892
-1.392687
-1.316435
-1.234344
-1.148085
-1.059776
-0.971660
-0.885727
-0.803646
-0.726837
-0.656400
-0.592903
-0.536417
-0.486873
-0.444378
-0.409126
-0.381049
-0.359589
-0.343826
-0.332845
-0.326048
-0.323043
-0.323157
-0.325151
-0.327504
-0.328857
-0.328031
-0.323756
-0.314683
-0.299787
-0.278841
-0.252472
-0.221675
-0.187156
-0.149005
-0.106984
-0.061403
-0.013895
0.032945
0.077036
0.117975
0.156763
0.194457
0.230995
0.264977
0.294383
0.317902
0.336144
0.351732
0.367858
0.386347
0.407006
0.428801
0.451598
0.476911
0.507325
0.545240
0.591724
0.646146
0.706739
0.771702
0.840019
0.911411
0.985429
1.060570
1.134361
1.204455
1.269766
1.330590
1.387454
1.439702
1.485244
1.521786
1.548329
1.565558
1.575000
1.577891
1.574641
1.565201
1.549870
1.529896
1.507422
1.484824
1.463993
1.446176
1.432572
1.425077
1.426336
1.438850
1.463873
1.500946
1.548284
1.603712
1.665520
1.732728
1.804843
1.881380
1.961456
2.043688
2.126523
2.208731
2.289736
2.369507
2.448124
2.525396
2.600922
2.674493
2.746364
2.816941
2.886127
2.953061
3.016471
3.075220
3.128586
3.176090
3.217018
3.250037
3.273382
3.285667
3.286639
3.277055
3.257720
3.228587
3.188613
3.136454
3.071445
2.994088
2.905680
2.807511
2.700300
2.584216
2.459250
2.325567
2.183667
2.034408
1.878925
1.718452
1.554201
1.387362
1.219120
1.050697
0.883528
0.719436
0.560490
0.408519
0.264747
0.129865
0.004263
-0.111833
-0.218189
-0.314260
-0.399076
-0.471703
-0.531976
-0.580794
-0.619671
-0.650059
-0.673026
-0.689390
-0.700030
-0.706116
-0.709023
-0.709844
-0.708883
-0.705742
-0.700098
-0.692468
-0.684207
-0.676740
-0.670921
-0.667087
-0.665566
-0.666971
-0.672071
-0.681530
-0.695748
-0.714916
-0.739185
-0.768728
-0.803642
-0.843978
-0.890018
-0.942410
-1.001735
-1.067765
-1.139193
-1.214253
-1.291710
-1.371340
-1.453664
-1.539298
-1.628326
-1.719975
-1.812898
-1.905949
-1.998756
-2.091622
-2.184944
-2.278755
-2.372794
-2.466895
-2.561009
-2.654637
-2.746281
-2.833610
-2.914225
-2.986427
-3.049608
-3.104203
-3.151174
-3.191137
-3.223873
-3.248816
-3.265920
-3.275745
-3.278762
-3.274911
-3.263828
-3.245247
-3.219186
-3.186003
-3.146328
-3.100741
-3.049414
-2.992150
-2.928725
-2.859064
-2.783141
-2.700910
-2.612362
-2.517605
-2.416873
-2.310528
-2.199067
-2.083182
-1.963920
-1.842858
-1.722103
-1.603966
-1.490377
-1.382370
-1.280074
-1.183189
-1.091455
-1.004753
-0.922992
-0.846085
-0.774012
-0.706815
-0.644585
-0.587528
-0.536012
-0.490524
-0.451554
-0.419493
-0.394489
-0.376062
-0.362681
-0.351943
-0.341587
-0.330475
-0.318524
-0.305745
-0.291375
-0.273888
-0.251845
-0.224805
-0.193443
-0.158902
-0.121971
-0.082610
-0.040030
0.006737
0.058026
0.113037
0.170095
0.227476
0.284160
0.340050
0.395603
0.451137
0.506394
0.560669
0.613226
0.663431
0.710483
0.753150
0.789924
0.819544
0.841347
0.855145
0.860925
0.858766
0.849058
0.832750
0.811338
0.786507
0.759644
0.731494
0.702089
0.670909
0.637172
0.600148
0.559360
0.514626
0.466023
0.413890
0.358709
0.300818
0.240262
0.177148
0.112197
0.046760
-0.017864
-0.081082
-0.142939
-0.203483
-0.262260
-0.318403
-0.371162
-0.420306
-0.466031
-0.508533
-0.547777
-0.583792
-0.617094
-0.648595
-0.679014
-0.708405
-0.736209
-0.761548
-0.783389
-0.800564
-0.811729
-0.815240
-0.809094
-0.791224
-0.760280
-0.716551
-0.662120
-0.599637
-0.530363
-0.453164
-0.365707
-0.267240
-0.160744
-0.052295
0.052342
0.151155
0.245951
0.338680
0.427777
0.508412
0.575965
0.628865
0.668430
0.696632
0.714099
0.719806
0.712147
0.690306
0.655227
0.609695
0.557331
0.501192
0.443160
0.384356
0.325909
0.269477
0.217230
0.171097
0.131661
0.097599
0.066195
0.034709
0.001847
-0.031782
-0.064665
-0.095815
-0.125233
-0.153322
-0.180281
-0.206115
-0.230850
-0.254463
-0.276604
-0.296451
-0.312904
-0.325192
-0.333579
-0.339581
-0.345420
-0.353172
-0.364187
-0.379027
-0.397896
-0.421226
-0.449755
-0.483817
-0.522489
-0.563463
-0.603979
-0.642191
-0.677857
-0.711809
-0.744605
-0.775433
-0.802208
-0.822847
-0.836756
-0.845268
-0.850668
-0.854709
-0.858082
-0.861155
-0.864894
-0.870840
-0.880294
-0.893787
-0.911402
-0.933467
-0.960847
-0.994502
-1.034627
-1.080041
-1.128328
-1.176743
-1.223348
-1.267572
-1.309764
-1.350188
-1.388416
-1.423487
-1.454501
-1.481178
-1.503973
-1.523607
-1.540325
-1.553684
-1.563134
-1.568694
-1.571025
-1.571102
-1.570012
-1.568920
-1.568922
-1.570710
-1.574439
-1.579963
-1.587150
-1.595932
-1.606069
-1.616885
-1.627165
-1.635290
-1.639549
-1.638493
-1.631213
-1.617382
-1.596983
-1.570021
-1.536637
-1.497616
-1.454545
-1.409116
-1.362179
-1.313667
-1.263468
-1.212337
-1.161966
-1.114198
-1.070127
-1.029890
-0.993285
-0.960537
-0.932508
-0.910119
-0.893449
-0.881317
-0.871763
-0.863084
-0.854552
-0.846270
-0.838411
-0.830561
-0.821689
-0.810743
-0.797386
-0.782220
-0.766250
-0.750042
-0.733382
-0.715637
-0.696281
-0.675093
-0.651974
-0.626707
-0.598880
-0.568041
-0.533900
-0.496431
-0.455835
-0.412442
-0.366651
-0.318903
-0.269614
-0.219044
-0.167261
-0.114299
-0.060325
-0.005603
0.049645
0.105146
0.160295
0.214042
0.265181
0.312745
0.356125
0.394891
0.428609
0.456916
0.479829
0.498017
0.512819
0.525886
0.538717
0.552421
0.567792
0.585463
0.605931
0.629424
0.655797
0.684686
0.715944
0.749985
0.787614
0.829448
0.875527
0.925508
0.979076
1.035979
1.095670
1.157081
1.218844
1.279717
1.338822
1.395620
1.449847
1.501543
1.550943
1.598129
1.642848
1.684796
1.723995
1.760727
1.795155
1.827101
1.856076
1.881481
1.902973
1.920787
1.935669
1.948399
1.959446
1.969057
1.977593
1.985715
1.994237
2.003784
2.014546
2.026382
2.039141
2.052824
2.067369
2.082330
2.096952
2.110671
2.123539
2.136170
2.149312
2.163465
2.178808
2.195382
2.213290
2.232677
2.253435
2.274917
2.296027
2.315651
2.333040
2.347842
2.359879
2.368982
2.374962
2.377628
2.376874
2.372799
2.365699
2.355892
2.343550
2.328634
2.310933
2.290291
2.266881
2.241186
2.213626
2.184215
2.152642
2.118599
2.082016
2.043033
2.001848
1.958476
1.912563
1.863464
1.810539
1.753365
1.691715
1.625511
1.554802
1.479621
1.399786
1.314951
1.224941
1.129998
1.030635
0.927274
0.820110
0.709346
0.595501
0.479443
0.362158
0.244504
0.127129
0.010564
-0.104665
-0.217965
-0.328687
-0.436213
-0.540042
-0.639780
-0.735075
-0.825562
-0.910871
-0.990680
-1.064752
-1.132936
-1.195218
-1.251878
-1.303601
-1.351262
-1.395418
-1.435890
-1.471895
-1.502658
-1.527870
-1.547573
-1.561756
-1.570246
-1.573019
-1.570557
-1.563849
-1.554045
-1.542069
-1.528489
-1.513696
-1.498178
-1.482595
-1.467615
-1.453680
