EVENT_NAME: L_AQUILA
EVENT_ID: IT-2009-0009
EVENT_DATE_YYYYMMDD: 20090406
EVENT_TIME_HHMMSS: 013240
EVENT_LATITUDE_DEGREE: 42.3420
EVENT_LONGITUDE_DEGREE: 13.3800
EVENT_DEPTH_KM: 8.3
HYPOCENTER_REFERENCE: INGV-CNT_Seismic_Bulletin
MAGNITUDE_W: 6.1
MAGNITUDE_W_REFERENCE: INGV-CNT_Seismic_Bulletin
MAGNITUDE_L: 
MAGNITUDE_L_REFERENCE: 
FOCAL_MECHANISM: Normal faulting
NETWORK: IT
STATION_CODE: ORC
STATION_NAME: 
STATION_LATITUDE_DEGREE: 41.953606
STATION_LONGITUDE_DEGREE: 13.642346
STATION_ELEVATION_M: 732
LOCATION: 
SENSOR_DEPTH_M: 0.0
VS30_M/S: 767
SITE_CLASSIFICATION_EC8: B
MORPHOLOGIC_CLASSIFICATION: 
EPICENTRAL_DISTANCE_KM: 48.3
EARTHQUAKE_BACKAZIMUTH_DEGREE: 153.2
DATE_TIME_FIRST_SAMPLE_YYYYMMDD_HHMMSS: 
DATE_TIME_FIRST_SAMPLE_PRECISION: 
SAMPLING_INTERVAL_S: 
NDATA: 105
DURATION_S: 
STREAM: HNE
UNITS: cm/s^2
INSTRUMENT: sensor = FBA-3 [Kinemetrics] | digitizer = Everest [Kinemetrics]
INSTRUMENT_ANALOG/DIGITAL: D
INSTRUMENTAL_FREQUENCY_HZ: 214.000
INSTRUMENTAL_DAMPING: 0.000000
FULL_SCALE_G: 1.0
N_BIT_DIGITAL_CONVERTER: 24
PGA_CM/S^2: 64.076446
TIME_PGA_S: 
BASELINE_CORRECTION: BASELINE REMOVED
FILTER_TYPE: BUTTERWORTH
FILTER_ORDER: 2
LOW_CUT_FREQUENCY_HZ: 0.080
HIGH_CUT_FREQUENCY_HZ: 35.000
LATE/NORMAL_TRIGGERED: NT
DATABASE_VERSION: 0.5
HEADER_FORMAT: DYNA 1.2
DATA_TYPE: ACCELERATION RESPONSE SPECTRUM
PROCESSING: manual (Paolucci et al., 2011)
DATA_TIMESTAMP_YYYYMMDD_HHMMSS: 20211011_160200.368
DATA_LICENSE: CC-BY3_0-IT (http://creativecommons.org/licenses/by/3.0/deed.en)
DATA_CITATION: Luzi L, Pacor F, Puglia R (2019). Italian Accelerometric Archive v 3.0 - Istituto Nazionale di Geofisica e Vulcanologia, Dipartimento della Protezione Civile Nazionale. doi: 10.13127/itaca.3.1
DATA_CREATOR: ITACA working group
ORIGINAL_DATA_MEDIATOR_CITATION: data obtained within the DPC-INGV data exchange agreements
ORIGINAL_DATA_MEDIATOR: Archive of Italian Department of Civil Protection
ORIGINAL_DATA_CREATOR_CITATION: Presidency Of Counsil Of Ministers-Civil Protection Department. (1972). Italian Strong Motion Network. Presidency of Counsil of Ministers - Civil Protection Department. https://doi.org/10.7914/SN/IT http://www.fdsn.org/networks/detail/IT/
ORIGINAL_DATA_CREATOR: network: IT (Italian Strong Motion Network (RAN)); owner: Presidency of Counsil of Ministers - Civil Protection Department (PCM - DPC)
USER1: 
USER2: 
USER3: 
USER4: 
USER5: 
    0.010000    64.309654
    0.020000    64.786812
    0.022000    65.206535
    0.025000    64.559875
    0.029000    66.412621
    0.030000    66.531502
    0.032000    66.260742
    0.035001    67.466621
    0.036000    68.133179
    0.040000    69.616234
    0.041999    70.171783
    0.044001    71.558800
    0.045000    72.060905
    0.046000    72.303452
    0.048001    71.780579
    0.050000    71.349472
    0.054999    69.952850
    0.059999    68.539680
    0.064998    67.861755
    0.067002    67.225166
    0.069999    69.121941
    0.075002    78.002518
    0.080000    80.851845
    0.084998    74.769127
    0.090001    76.080086
    0.095003    75.161858
    0.100000    73.058380
    0.109999    63.999550
    0.120005    70.182037
    0.130005    74.603119
    0.132996    78.808784
    0.139997    85.483627
    0.149993    94.035484
    0.160000   104.403641
    0.170010   109.263802
    0.179986   128.293198
    0.190006   165.236115
    0.200000   170.125443
    0.220022   191.804108
    0.239981   218.653610
    0.250000   222.401413
    0.260010   208.588821
    0.280034   182.887115
    0.290023   181.959213
    0.300030   182.533615
    0.320000   159.651978
    0.340020   133.249283
    0.350017   124.259041
    0.359971   115.853806
    0.379939   104.968338
    0.400000   105.783249
    0.419992   105.175934
    0.439947   102.895470
    0.450045   102.419945
    0.459982   102.383263
    0.480077   103.873474
    0.500000   109.308037
    0.550055   127.140251
    0.599880   142.825378
    0.650195   147.021362
    0.667111   151.209686
    0.699790   162.589859
    0.750188   171.304657
    0.800000   159.969925
    0.850340   134.465714
    0.900090   107.806450
    0.949668    84.545586
    1.000000    70.132729
    1.100110    50.046604
    1.200480    33.791180
    1.300390    33.275120
    1.400560    23.370783
    1.499250    18.084101
    1.600000    12.811816
    1.700680    11.625978
    1.798561    11.570976
    1.901141    10.877363
    2.000000     9.934177
    2.197802     8.070581
    2.398082     6.778636
    2.500000     6.628841
    2.597403     6.443187
    2.801121     5.624212
    3.003003     5.604912
    3.205128     5.429774
    3.401361     5.023352
    3.496503     4.852514
    3.597122     4.726439
    3.802281     4.632246
    4.000000     4.520098
    4.201681     4.438777
    4.405286     4.505405
    4.608295     4.429070
    4.807692     4.227580
    5.000000     3.942497
    5.494505     3.264697
    5.988024     2.729907
    6.493506     2.425552
    6.993007     2.092216
    7.518797     1.764197
    8.000000     1.418219
    8.474576     1.342609
    9.009009     1.250177
    9.523809     1.145296
   10.000000     1.036122
