EVENT_NAME: L_AQUILA
EVENT_ID: IT-2009-0009
EVENT_DATE_YYYYMMDD: 20090406
EVENT_TIME_HHMMSS: 013240
EVENT_LATITUDE_DEGREE: 42.3420
EVENT_LONGITUDE_DEGREE: 13.3800
EVENT_DEPTH_KM: 8.3
HYPOCENTER_REFERENCE: INGV-CNT_Seismic_Bulletin
MAGNITUDE_W: 6.1
MAGNITUDE_W_REFERENCE: INGV-CNT_Seismic_Bulletin
MAGNITUDE_L: 
MAGNITUDE_L_REFERENCE: 
FOCAL_MECHANISM: Normal faulting
NETWORK: IT
STATION_CODE: ORC
STATION_NAME: 
STATION_LATITUDE_DEGREE: 41.953606
STATION_LONGITUDE_DEGREE: 13.642346
STATION_ELEVATION_M: 732
LOCATION: 
SENSOR_DEPTH_M: 0.0
VS30_M/S: 767
SITE_CLASSIFICATION_EC8: B
MORPHOLOGIC_CLASSIFICATION: 
EPICENTRAL_DISTANCE_KM: 48.3
EARTHQUAKE_BACKAZIMUTH_DEGREE: 153.2
DATE_TIME_FIRST_SAMPLE_YYYYMMDD_HHMMSS: 20090406_013235.000
DATE_TIME_FIRST_SAMPLE_PRECISION: seconds
SAMPLING_INTERVAL_S: 0.005000
NDATA: 14200
DURATION_S: 71.000
STREAM: HNE
UNITS: cm
INSTRUMENT: sensor = FBA-3 [Kinemetrics] | digitizer = Everest [Kinemetrics]
INSTRUMENT_ANALOG/DIGITAL: D
INSTRUMENTAL_FREQUENCY_HZ: 214.000
INSTRUMENTAL_DAMPING: 0.000000
FULL_SCALE_G: 1.0
N_BIT_DIGITAL_CONVERTER: 24
PGD_CM: -1.334596
TIME_PGD_S: 25.675000
BASELINE_CORRECTION: BASELINE REMOVED
FILTER_TYPE: BUTTERWORTH
FILTER_ORDER: 2
LOW_CUT_FREQUENCY_HZ: 0.080
HIGH_CUT_FREQUENCY_HZ: 35.000
LATE/NORMAL_TRIGGERED: NT
DATABASE_VERSION: 0.5
HEADER_FORMAT: DYNA 1.2
DATA_TYPE: DISPLACEMENT
PROCESSING: manual (Paolucci et al., 2011)
DATA_TIMESTAMP_YYYYMMDD_HHMMSS: 20211011_160159.127
DATA_LICENSE: CC-BY3_0-IT (http://creativecommons.org/licenses/by/3.0/deed.en)
DATA_CITATION: Luzi L, Pacor F, Puglia R (2019). Italian Accelerometric Archive v 3.0 - Istituto Nazionale di Geofisica e Vulcanologia, Dipartimento della Protezione Civile Nazionale. doi: 10.13127/itaca.3.1
DATA_CREATOR: ITACA working group
ORIGINAL_DATA_MEDIATOR_CITATION: data obtained within the DPC-INGV data exchange agreements
ORIGINAL_DATA_MEDIATOR: Archive of Italian Department of Civil Protection
ORIGINAL_DATA_CREATOR_CITATION: Presidency Of Counsil Of Ministers-Civil Protection Department. (1972). Italian Strong Motion Network. Presidency of Counsil of Ministers - Civil Protection Department. https://doi.org/10.7914/SN/IT http://www.fdsn.org/networks/detail/IT/
ORIGINAL_DATA_CREATOR: network: IT (Italian Strong Motion Network (RAN)); owner: Presidency of Counsil of Ministers - Civil Protection Department (PCM - DPC)
USER1: 
USER2: 
USER3: 
USER4: 
USER5: 
[...]
2.304893e-01
2.305802e-01
2.307577e-01
2.310164e-01
2.313508e-01
2.317554e-01
2.322218e-01
2.327371e-01
2.332832e-01
2.338365e-01
2.343673e-01
2.348409e-01
2.352214e-01
2.354771e-01
2.355827e-01
2.355226e-01
2.352960e-01
2.349203e-01
2.344266e-01
2.338466e-01
2.332024e-01
2.325066e-01
2.317690e-01
2.310029e-01
2.302242e-01
2.294504e-01
2.287020e-01
2.280043e-01
2.273845e-01
2.268654e-01
2.264624e-01
2.261834e-01
2.260276e-01
2.259821e-01
2.260208e-01
2.261101e-01
2.262177e-01
2.263173e-01
2.263887e-01
2.264173e-01
2.263953e-01
2.263237e-01
2.262120e-01
2.260742e-01
2.259280e-01
2.257934e-01
2.256911e-01
2.256399e-01
2.256547e-01
2.257457e-01
2.259153e-01
2.261559e-01
2.264517e-01
2.267868e-01
2.271514e-01
2.275437e-01
2.279661e-01
2.284212e-01
2.289106e-01
2.294334e-01
2.299850e-01
2.305566e-01
2.311371e-01
2.317149e-01
2.322781e-01
2.328145e-01
2.333143e-01
2.337727e-01
2.341905e-01
2.345697e-01
2.349131e-01
2.352257e-01
2.355155e-01
2.357908e-01
2.360561e-01
2.363119e-01
2.365571e-01
2.367920e-01
2.370188e-01
2.372405e-01
2.374601e-01
2.376810e-01
2.379058e-01
2.381378e-01
2.383813e-01
2.386411e-01
2.389211e-01
2.392225e-01
2.395430e-01
2.398778e-01
2.402227e-01
2.405795e-01
2.409577e-01
2.413721e-01
2.418394e-01
2.423780e-01
2.430102e-01
2.437622e-01
2.446583e-01
2.457164e-01
2.469443e-01
2.483392e-01
2.498871e-01
2.515648e-01
2.533446e-01
2.552003e-01
2.571093e-01
2.590516e-01
2.610060e-01
2.629484e-01
2.648495e-01
2.666764e-01
2.683967e-01
2.699845e-01
2.714226e-01
2.727008e-01
2.738128e-01
2.747568e-01
2.755359e-01
2.761557e-01
2.766214e-01
2.769377e-01
2.771117e-01
2.771576e-01
2.770982e-01
2.769621e-01
2.767783e-01
2.765714e-01
2.763617e-01
2.761676e-01
2.760091e-01
2.759077e-01
2.758850e-01
2.759607e-01
2.761493e-01
2.764576e-01
2.768864e-01
2.774361e-01
2.781117e-01
2.789230e-01
2.798780e-01
2.809778e-01
2.822145e-01
2.835735e-01
2.850351e-01
2.865755e-01
2.881683e-01
2.897873e-01
2.914073e-01
2.930032e-01
2.945484e-01
2.960161e-01
2.973808e-01
2.986196e-01
2.997130e-01
3.006460e-01
3.014091e-01
3.019959e-01
3.024004e-01
3.026162e-01
3.026398e-01
3.024742e-01
3.021302e-01
3.016246e-01
3.009801e-01
3.002254e-01
2.993969e-01
2.985352e-01
2.976805e-01
2.968669e-01
2.961213e-01
2.954644e-01
2.949120e-01
2.944779e-01
2.941768e-01
2.940234e-01
2.940272e-01
2.941847e-01
2.944758e-01
2.948681e-01
2.953239e-01
2.958079e-01
2.962900e-01
2.967448e-01
2.971475e-01
2.974716e-01
2.976892e-01
2.977752e-01
2.977129e-01
2.974959e-01
2.971273e-01
2.966158e-01
2.959746e-01
2.952220e-01
2.943846e-01
2.934967e-01
2.925951e-01
2.917118e-01
2.908720e-01
2.900975e-01
2.894117e-01
2.888422e-01
2.884155e-01
2.881513e-01
2.880560e-01
2.881194e-01
2.883161e-01
2.886100e-01
2.889636e-01
2.893436e-01
2.897232e-01
2.900809e-01
2.903995e-01
2.906660e-01
2.908709e-01
2.910069e-01
2.910701e-01
2.910640e-01
2.910034e-01
2.909116e-01
2.908124e-01
2.907225e-01
2.906506e-01
2.906030e-01
2.905890e-01
2.906221e-01
2.907166e-01
2.908849e-01
2.911373e-01
2.914839e-01
2.919352e-01
2.925011e-01
2.931875e-01
2.939929e-01
2.949069e-01
2.959113e-01
2.969855e-01
2.981106e-01
2.992733e-01
3.004643e-01
3.016745e-01
3.028919e-01
3.041018e-01
3.052893e-01
3.064417e-01
3.075495e-01
3.086069e-01
3.096135e-01
3.105744e-01
3.114977e-01
3.123924e-01
3.132671e-01
3.141299e-01
3.149885e-01
3.158482e-01
3.167123e-01
3.175844e-01
3.184713e-01
3.193808e-01
3.203190e-01
3.212867e-01
3.222792e-01
3.232866e-01
3.242954e-01
3.252905e-01
3.262585e-01
3.271908e-01
3.280849e-01
3.289458e-01
3.297870e-01
3.306295e-01
3.314978e-01
3.324150e-01
3.334009e-01
3.344722e-01
3.356439e-01
3.369286e-01
3.383342e-01
3.398624e-01
3.415083e-01
3.432631e-01
3.451151e-01
3.470495e-01
3.490476e-01
3.510869e-01
3.531406e-01
3.551764e-01
3.571552e-01
3.590349e-01
3.607772e-01
3.623541e-01
3.637493e-01
3.649559e-01
3.659749e-01
3.668148e-01
3.674916e-01
3.680263e-01
3.684397e-01
3.687484e-01
3.689629e-01
3.690877e-01
3.691245e-01
3.690764e-01
3.689516e-01
3.687644e-01
3.685327e-01
3.682755e-01
3.680119e-01
3.677611e-01
3.675410e-01
3.673669e-01
3.672513e-01
3.672048e-01
3.672358e-01
3.673483e-01
3.675398e-01
3.678035e-01
3.681310e-01
3.685149e-01
3.689497e-01
3.694317e-01
3.699597e-01
3.705352e-01
3.711629e-01
3.718479e-01
3.725913e-01
3.733866e-01
3.742195e-01
3.750718e-01
3.759251e-01
3.767634e-01
3.775717e-01
3.783351e-01
3.790390e-01
3.796692e-01
3.802139e-01
3.806643e-01
3.810154e-01
3.812644e-01
3.814087e-01
3.814462e-01
3.813782e-01
3.812127e-01
3.809657e-01
3.806584e-01
3.803125e-01
3.799440e-01
3.795583e-01
3.791505e-01
3.787066e-01
3.782074e-01
3.776337e-01
3.769744e-01
3.762319e-01
3.754205e-01
3.745614e-01
3.736782e-01
3.727961e-01
3.719430e-01
3.711497e-01
3.704484e-01
3.698696e-01
3.694349e-01
3.691518e-01
3.690095e-01
3.689797e-01
3.690194e-01
3.690756e-01
3.690933e-01
3.690215e-01
3.688163e-01
3.684400e-01
3.678605e-01
3.670528e-01
3.659985e-01
3.646838e-01
3.630993e-01
3.612450e-01
3.591338e-01
3.567904e-01
3.542463e-01
3.515373e-01
3.487024e-01
3.457808e-01
3.428077e-01
3.398103e-01
3.368092e-01
3.338201e-01
3.308559e-01
3.279275e-01
3.250455e-01
3.222216e-01
3.194666e-01
3.167873e-01
3.141841e-01
3.116509e-01
3.091741e-01
3.067338e-01
3.043057e-01
3.018662e-01
2.993933e-01
2.968642e-01
2.942526e-01
2.915325e-01
2.886840e-01
2.856966e-01
2.825659e-01
2.792908e-01
2.758736e-01
2.723230e-01
2.686518e-01
2.648730e-01
2.609967e-01
2.570326e-01
2.529910e-01
2.488821e-01
2.447136e-01
2.404930e-01
2.362322e-01
2.319484e-01
2.276606e-01
2.233873e-01
2.191467e-01
2.149563e-01
2.108297e-01
2.067713e-01
2.027776e-01
1.988421e-01
1.949601e-01
1.911273e-01
1.873358e-01
1.835738e-01
1.798292e-01
1.760930e-01
1.723618e-01
1.686385e-01
1.649351e-01
1.612715e-01
1.576706e-01
1.541501e-01
1.507183e-01
1.473786e-01
1.441374e-01
1.410079e-01
1.380090e-01
1.351604e-01
1.324802e-01
1.299837e-01
1.276831e-01
1.255885e-01
1.237096e-01
1.220550e-01
1.206308e-01
1.194398e-01
1.184830e-01
1.177629e-01
1.172824e-01
1.170425e-01
1.170392e-01
1.172634e-01
1.177012e-01
1.183331e-01
1.191339e-01
1.200746e-01
1.211262e-01
1.222641e-01
1.234709e-01
1.247362e-01
1.260524e-01
1.274119e-01
1.288055e-01
1.302247e-01
1.316620e-01
1.331100e-01
1.345591e-01
1.359977e-01
1.374129e-01
1.387892e-01
1.401077e-01
1.413456e-01
1.424777e-01
1.434782e-01
1.443225e-01
1.449881e-01
1.454578e-01
1.457210e-01
1.457761e-01
1.456310e-01
1.453014e-01
1.448054e-01
1.441585e-01
1.433713e-01
1.424543e-01
1.414230e-01
1.403010e-01
1.391164e-01
1.378995e-01
1.366826e-01
1.355015e-01
1.343934e-01
1.333930e-01
1.325306e-01
1.318315e-01
1.313132e-01
1.309802e-01
1.308217e-01
1.308129e-01
1.309155e-01
1.310769e-01
1.312310e-01
1.313065e-01
1.312387e-01
1.309733e-01
1.304610e-01
1.296527e-01
1.285031e-01
1.269794e-01
1.250657e-01
1.227580e-01
1.200590e-01
1.169760e-01
1.135210e-01
1.097087e-01
1.055540e-01
1.010735e-01
9.628974e-02
9.123273e-02
8.593486e-02
8.042561e-02
7.473154e-02
6.888072e-02
6.290543e-02
5.684064e-02
5.072175e-02
4.458378e-02
3.846059e-02
3.238248e-02
2.637456e-02
2.045815e-02
1.465367e-02
8.981129e-03
3.457966e-03
-1.902475e-03
-7.090075e-03
-1.209729e-02
-1.692147e-02
-2.156863e-02
-2.605528e-02
-3.040724e-02
-3.465680e-02
-3.883886e-02
-4.298633e-02
-4.712567e-02
-5.127509e-02
-5.544623e-02
-5.964744e-02
-6.388590e-02
-6.816741e-02
-7.249430e-02
-7.686301e-02
-8.126274e-02
-8.567580e-02
-9.007904e-02
-9.444590e-02
-9.874933e-02
-1.029654e-01
-1.070761e-01
-1.110693e-01
-1.149363e-01
-1.186672e-01
-1.222498e-01
-1.256711e-01
-1.289186e-01
-1.319773e-01
-1.348239e-01
-1.374239e-01
-1.397351e-01
-1.417135e-01
-1.433180e-01
-1.445143e-01
-1.452776e-01
-1.455926e-01
-1.454510e-01
-1.448486e-01
-1.437843e-01
-1.422610e-01
-1.402866e-01
-1.378732e-01
-1.350359e-01
-1.317929e-01
-1.281674e-01
-1.241920e-01
-1.199147e-01
-1.153998e-01
-1.107231e-01
-1.059626e-01
-1.011932e-01
-9.648686e-02
-9.191356e-02
-8.753965e-02
-8.342409e-02
-7.961462e-02
-7.614443e-02
-7.302927e-02
-7.026542e-02
-6.782929e-02
-6.568055e-02
-6.377032e-02
-6.205168e-02
-6.048639e-02
-5.904343e-02
-5.769319e-02
-5.640571e-02
-5.515565e-02
-5.392905e-02
-5.272491e-02
-5.155055e-02
-5.041442e-02
-4.932027e-02
-4.826462e-02
-4.723799e-02
-4.622939e-02
-4.523120e-02
-4.424051e-02
-4.325576e-02
-4.227202e-02
-4.127966e-02
-4.026757e-02
-3.922712e-02
-3.815276e-02
-3.704029e-02
-3.588645e-02
-3.469144e-02
-3.346129e-02
-3.220672e-02
-3.093985e-02
-2.967217e-02
-2.841553e-02
-2.718393e-02
-2.599452e-02
-2.486744e-02
-2.382528e-02
-2.289235e-02
-2.209320e-02
-2.145072e-02
-2.098521e-02
-2.071374e-02
-2.064960e-02
-2.080263e-02
-2.118204e-02
-2.180041e-02
-2.267604e-02
-2.383189e-02
-2.529203e-02
-2.707837e-02
-2.920882e-02
-3.169669e-02
-3.455011e-02
-3.777125e-02
-4.135584e-02
-4.529289e-02
-4.956500e-02
-5.415057e-02
-5.902858e-02
-6.418472e-02
-6.961482e-02
-7.532349e-02
-8.131938e-02
-8.761035e-02
-9.420090e-02
-1.010917e-01
-1.082800e-01
-1.157610e-01
-1.235279e-01
-1.315719e-01
-1.398822e-01
-1.484465e-01
-1.572512e-01
-1.662795e-01
-1.755091e-01
-1.849117e-01
-1.944540e-01
-2.041003e-01
-2.138143e-01
-2.235602e-01
-2.333050e-01
-2.430203e-01
-2.526817e-01
-2.622652e-01
-2.717452e-01
-2.810939e-01
-2.902838e-01
-2.992911e-01
-3.081002e-01
-3.167080e-01
-3.251270e-01
-3.333839e-01
-3.415134e-01
-3.495527e-01
-3.575379e-01
-3.655041e-01
-3.734862e-01
-3.815184e-01
-3.896332e-01
-3.978615e-01
-4.062338e-01
-4.147800e-01
-4.235269e-01
-4.324953e-01
-4.417005e-01
-4.511566e-01
-4.608802e-01
-4.708923e-01
-4.812149e-01
-4.918647e-01
-5.028488e-01
-5.141615e-01
-5.257851e-01
-5.376892e-01
-5.498295e-01
-5.621471e-01
-5.745699e-01
-5.870178e-01
-5.994080e-01
-6.116601e-01
-6.237018e-01
-6.354708e-01
-6.469164e-01
-6.579974e-01
-6.686789e-01
-6.789309e-01
-6.887300e-01
-6.980648e-01
-7.069414e-01
-7.153822e-01
-7.234210e-01
-7.310961e-01
-7.384447e-01
-7.454976e-01
-7.522765e-01
-7.587945e-01
-7.650602e-01
-7.710817e-01
-7.768650e-01
-7.824108e-01
-7.877140e-01
-7.927653e-01
-7.975552e-01
-8.020746e-01
-8.063160e-01
-8.102726e-01
-8.139374e-01
-8.173009e-01
-8.203477e-01
-8.230558e-01
-8.253986e-01
-8.273518e-01
-8.288990e-01
-8.300333e-01
-8.307554e-01
-8.310714e-01
-8.309930e-01
-8.305370e-01
-8.297222e-01
-8.285654e-01
-8.270820e-01
-8.252884e-01
-8.232018e-01
-8.208347e-01
-8.181884e-01
-8.152513e-01
-8.120020e-01
-8.084148e-01
-8.044644e-01
-8.001285e-01
-7.953894e-01
-7.902344e-01
-7.846554e-01
-7.786487e-01
-7.722155e-01
-7.653620e-01
-7.580966e-01
-7.504271e-01
-7.423595e-01
-7.338997e-01
-7.250532e-01
-7.158246e-01
-7.062158e-01
-6.962273e-01
-6.858589e-01
-6.751124e-01
-6.639932e-01
-6.525156e-01
-6.407058e-01
-6.286013e-01
-6.162454e-01
-6.036811e-01
-5.909475e-01
-5.780794e-01
-5.651080e-01
-5.520623e-01
-5.389705e-01
-5.258621e-01
-5.127683e-01
-4.997217e-01
-4.867574e-01
-4.739147e-01
-4.612396e-01
-4.487846e-01
-4.366048e-01
-4.247538e-01
-4.132812e-01
-4.022318e-01
-3.916452e-01
-3.815546e-01
-3.719864e-01
-3.629606e-01
-3.544927e-01
-3.465931e-01
-3.392661e-01
-3.325090e-01
-3.263142e-01
-3.206743e-01
-3.155881e-01
-3.110628e-01
-3.071119e-01
-3.037492e-01
-3.009840e-01
-2.988202e-01
-2.972571e-01
-2.962908e-01
-2.959155e-01
-2.961234e-01
-2.969039e-01
-2.982420e-01
-3.001193e-01
-3.025176e-01
-3.054262e-01
-3.088461e-01
-3.127941e-01
-3.173023e-01
-3.224168e-01
-3.281938e-01
-3.346932e-01
-3.419710e-01
-3.500734e-01
-3.590360e-01
-3.688881e-01
-3.796588e-01
-3.913795e-01
-4.040826e-01
-4.177999e-01
-4.325635e-01
-4.484061e-01
-4.653606e-01
-4.834581e-01
-5.027274e-01
-5.231916e-01
-5.448610e-01
-5.677230e-01
-5.917357e-01
-6.168295e-01
-6.429141e-01
-6.698843e-01
-6.976188e-01
-7.259754e-01
-7.547947e-01
-7.839189e-01
-8.132099e-01
-8.425468e-01
-8.718073e-01
-9.008583e-01
-9.295646e-01
-9.577999e-01
-9.854444e-01
-1.012376e+00
-1.038473e+00
-1.063627e+00
-1.087760e+00
-1.110810e+00
-1.132708e+00
-1.153369e+00
-1.172690e+00
-1.190577e+00
-1.206953e+00
-1.221760e+00
-1.234964e+00
-1.246569e+00
-1.256622e+00
-1.265224e+00
-1.272513e+00
-1.278645e+00
-1.283773e+00
-1.288045e+00
-1.291599e+00
-1.294566e+00
-1.297057e+00
-1.299172e+00
-1.301005e+00
-1.302651e+00
-1.304196e+00
-1.305706e+00
-1.307229e+00
-1.308811e+00
-1.310504e+00
-1.312357e+00
-1.314399e+00
-1.316628e+00
-1.319010e+00
-1.321484e+00
-1.323971e+00
-1.326385e+00
-1.328645e+00
-1.330673e+00
-1.332386e+00
-1.333688e+00
-1.334464e+00
-1.334596e+00
-1.333968e+00
-1.332469e+00
-1.329996e+00
-1.326460e+00
-1.321778e+00
-1.315883e+00
-1.308714e+00
-1.300216e+00
-1.290332e+00
-1.279015e+00
-1.266228e+00
-1.251958e+00
-1.236211e+00
-1.219011e+00
-1.200396e+00
-1.180414e+00
-1.159134e+00
-1.136650e+00
-1.113077e+00
-1.088550e+00
-1.063203e+00
-1.037160e+00
-1.010520e+00
-9.833622e-01
-9.557535e-01
-9.277544e-01
-8.994270e-01
-8.708378e-01
-8.420590e-01
-8.131698e-01
-7.842547e-01
-7.554024e-01
-7.267064e-01
-6.982652e-01
-6.701781e-01
-6.425385e-01
-6.154285e-01
-5.889203e-01
-5.630813e-01
-5.379778e-01
-5.136739e-01
-4.902275e-01
-4.676877e-01
-4.460932e-01
-4.254747e-01
-4.058588e-01
-3.872714e-01
-3.697421e-01
-3.533042e-01
-3.379925e-01
-3.238376e-01
-3.108620e-01
-2.990799e-01
-2.884954e-01
-2.790984e-01
-2.708611e-01
-2.637425e-01
-2.576979e-01
-2.526868e-01
-2.486745e-01
-2.456274e-01
-2.435107e-01
-2.422887e-01
-2.419292e-01
-2.424074e-01
-2.437073e-01
-2.458216e-01
-2.487504e-01
-2.525021e-01
-2.570928e-01
-2.625423e-01
-2.688685e-01
-2.760809e-01
-2.841789e-01
-2.931531e-01
-3.029854e-01
-3.136473e-01
-3.250974e-01
-3.372825e-01
-3.501419e-01
-3.636107e-01
-3.776220e-01
-3.921092e-01
-4.070095e-01
-4.222676e-01
-4.378360e-01
-4.536710e-01
-4.697303e-01
-4.859745e-01
-5.023709e-01
-5.188944e-01
-5.355261e-01
-5.522497e-01
-5.690500e-01
-5.859107e-01
-6.028127e-01
-6.197347e-01
-6.366545e-01
-6.535490e-01
-6.703934e-01
-6.871598e-01
-7.038187e-01
-7.203406e-01
-7.366952e-01
-7.528488e-01
-7.687642e-01
-7.844048e-01
-7.997376e-01
-8.147330e-01
-8.293622e-01
-8.435965e-01
-8.574085e-01
-8.707741e-01
-8.836719e-01
-8.960826e-01
-9.079884e-01
-9.193719e-01
-9.302166e-01
-9.405096e-01
-9.502446e-01
-9.594217e-01
-9.680443e-01
-9.761152e-01
-9.836386e-01
-9.906276e-01
-9.971117e-01
-1.003137e+00
-1.008758e+00
-1.014031e+00
-1.019011e+00
-1.023756e+00
-1.028323e+00
-1.032768e+00
-1.037140e+00
-1.041474e+00
-1.045795e+00
-1.050116e+00
-1.054429e+00
-1.058701e+00
-1.062869e+00
-1.066853e+00
-1.070567e+00
-1.073923e+00
-1.076835e+00
-1.079218e+00
-1.080998e+00
-1.082117e+00
-1.082527e+00
-1.082187e+00
-1.081061e+00
-1.079119e+00
-1.076347e+00
-1.072746e+00
-1.068330e+00
-1.063123e+00
-1.057153e+00
-1.050451e+00
-1.043048e+00
-1.034972e+00
-1.026248e+00
-1.016906e+00
-1.006974e+00
-9.964878e-01
-9.854843e-01
-9.740101e-01
-9.621188e-01
-9.498707e-01
-9.373300e-01
-9.245630e-01
-9.116349e-01
-8.986049e-01
-8.855252e-01
-8.724440e-01
-8.594114e-01
-8.464814e-01
-8.337081e-01
-8.211420e-01
-8.088312e-01
-7.968264e-01
-7.851826e-01
-7.739547e-01
-7.631899e-01
-7.529246e-01
-7.431862e-01
-7.339973e-01
-7.253800e-01
-7.173565e-01
-7.099463e-01
-7.031613e-01
-6.969979e-01
-6.914296e-01
-6.864060e-01
-6.818595e-01
-6.777182e-01
-6.739166e-01
-6.704004e-01
-6.671246e-01
-6.640523e-01
-6.611549e-01
-6.584113e-01
-6.558061e-01
-6.533250e-01
-6.509534e-01
-6.486776e-01
-6.464885e-01
-6.443821e-01
-6.423578e-01
-6.404134e-01
-6.385426e-01
-6.367316e-01
-6.349561e-01
-6.331788e-01
-6.313513e-01
-6.294211e-01
-6.273380e-01
-6.250571e-01
-6.225361e-01
-6.197334e-01
-6.166096e-01
-6.131322e-01
-6.092808e-01
-6.050509e-01
-6.004541e-01
-5.955154e-01
-5.902696e-01
-5.847578e-01
-5.790257e-01
-5.731221e-01
-5.670940e-01
-5.609831e-01
-5.548224e-01
-5.486374e-01
-5.424490e-01
-5.362772e-01
-5.301434e-01
-5.240735e-01
-5.180998e-01
-5.122604e-01
-5.065986e-01
-5.011622e-01
-4.960033e-01
-4.911789e-01
-4.867484e-01
-4.827721e-01
-4.793086e-01
-4.764113e-01
-4.741218e-01
-4.724629e-01
-4.714365e-01
-4.710309e-01
-4.712296e-01
-4.720156e-01
-4.733636e-01
-4.752299e-01
-4.775490e-01
-4.802398e-01
-4.832136e-01
-4.863798e-01
-4.896463e-01
-4.929215e-01
-4.961199e-01
-4.991676e-01
-5.020025e-01
-5.045707e-01
-5.068259e-01
-5.087328e-01
-5.102706e-01
-5.114325e-01
-5.122200e-01
-5.126390e-01
-5.126975e-01
-5.124057e-01
-5.117740e-01
-5.108117e-01
-5.095265e-01
-5.079242e-01
-5.060070e-01
-5.037719e-01
-5.012136e-01
-4.983297e-01
-4.951256e-01
-4.916138e-01
-4.878105e-01
-4.837336e-01
-4.794047e-01
-4.748502e-01
-4.701002e-01
-4.651838e-01
-4.601270e-01
-4.549527e-01
-4.496832e-01
-4.443387e-01
-4.389361e-01
-4.334884e-01
-4.280058e-01
-4.224970e-01
-4.169680e-01
-4.114205e-01
-4.058523e-01
-4.002593e-01
-3.946375e-01
-3.889827e-01
-3.832901e-01
-3.775557e-01
-3.717772e-01
-3.659536e-01
-3.600832e-01
-3.541594e-01
-3.481688e-01
-3.420927e-01
-3.359137e-01
-3.296207e-01
-3.232081e-01
-3.166702e-01
-3.099975e-01
-3.031762e-01
-2.961883e-01
-2.890097e-01
-2.816068e-01
-2.739388e-01
-2.659648e-01
-2.576497e-01
-2.489639e-01
-2.398764e-01
-2.303523e-01
-2.203545e-01
-2.098506e-01
-1.988195e-01
-1.872563e-01
-1.751743e-01
-1.626026e-01
-1.495806e-01
-1.361524e-01
-1.223653e-01
-1.082675e-01
-9.390438e-02
-7.931308e-02
-6.452028e-02
-4.954382e-02
-3.439657e-02
-1.908988e-02
-3.635815e-03
1.195138e-02
2.765494e-02
4.345620e-02
5.933434e-02
7.526439e-02
9.121480e-02
1.071461e-01
1.230109e-01
1.387563e-01
1.543286e-01
1.696782e-01
1.847599e-01
1.995281e-01
2.139338e-01
2.279256e-01
2.414553e-01
2.544783e-01
2.669513e-01
2.788297e-01
2.900697e-01
3.006342e-01
3.104960e-01
3.196377e-01
3.280500e-01
3.357327e-01
3.426977e-01
3.489700e-01
3.545855e-01
3.595846e-01
3.640067e-01
3.678880e-01
3.712620e-01
3.741610e-01
3.766163e-01
3.786573e-01
3.803107e-01
3.816035e-01
