EVENT_NAME: L_AQUILA
EVENT_ID: IT-2009-0009
EVENT_DATE_YYYYMMDD: 20090406
EVENT_TIME_HHMMSS: 013240
EVENT_LATITUDE_DEGREE: 42.3420
EVENT_LONGITUDE_DEGREE: 13.3800
EVENT_DEPTH_KM: 8.3
HYPOCENTER_REFERENCE: INGV-CNT_Seismic_Bulletin
MAGNITUDE_W: 6.1
MAGNITUDE_W_REFERENCE: INGV-CNT_Seismic_Bulletin
MAGNITUDE_L: 
MAGNITUDE_L_REFERENCE: 
FOCAL_MECHANISM: Normal faulting
NETWORK: IT
STATION_CODE: ORC
STATION_NAME: 
STATION_LATITUDE_DEGREE: 41.953606
STATION_LONGITUDE_DEGREE: 13.642346
STATION_ELEVATION_M: 732
LOCATION: 
SENSOR_DEPTH_M: 0.0
VS30_M/S: 767
SITE_CLASSIFICATION_EC8: B
MORPHOLOGIC_CLASSIFICATION: 
EPICENTRAL_DISTANCE_KM: 48.3
EARTHQUAKE_BACKAZIMUTH_DEGREE: 153.2
DATE_TIME_FIRST_SAMPLE_YYYYMMDD_HHMMSS: 20090406_013235.000
DATE_TIME_FIRST_SAMPLE_PRECISION: seconds
SAMPLING_INTERVAL_S: 0.005000
NDATA: 14200
DURATION_S: 71.000
STREAM: HNE
UNITS: cm/s^2
INSTRUMENT: sensor = FBA-3 [Kinemetrics] | digitizer = Everest [Kinemetrics]
INSTRUMENT_ANALOG/DIGITAL: D
INSTRUMENTAL_FREQUENCY_HZ: 214.000
INSTRUMENTAL_DAMPING: 0.000000
FULL_SCALE_G: 1.0
N_BIT_DIGITAL_CONVERTER: 24
PGA_CM/S^2: 64.076447
TIME_PGA_S: 25.520000
BASELINE_CORRECTION: BASELINE REMOVED
FILTER_TYPE: BUTTERWORTH
FILTER_ORDER: 2
LOW_CUT_FREQUENCY_HZ: 0.080
HIGH_CUT_FREQUENCY_HZ: 35.000
LATE/NORMAL_TRIGGERED: NT
DATABASE_VERSION: 0.5
HEADER_FORMAT: DYNA 1.2
DATA_TYPE: ACCELERATION
PROCESSING: manual (Paolucci et al., 2011)
DATA_TIMESTAMP_YYYYMMDD_HHMMSS: 20211011_160159.000
DATA_LICENSE: CC-BY3_0-IT (http://creativecommons.org/licenses/by/3.0/deed.en)
DATA_CITATION: Luzi L, Pacor F, Puglia R (2019). Italian Accelerometric Archive v 3.0 - Istituto Nazionale di Geofisica e Vulcanologia, Dipartimento della Protezione Civile Nazionale. doi: 10.13127/itaca.3.1
DATA_CREATOR: ITACA working group
ORIGINAL_DATA_MEDIATOR_CITATION: data obtained within the DPC-INGV data exchange agreements
ORIGINAL_DATA_MEDIATOR: Archive of Italian Department of Civil Protection
ORIGINAL_DATA_CREATOR_CITATION: Presidency Of Counsil Of Ministers-Civil Protection Department. (1972). Italian Strong Motion Network. Presidency of Counsil of Ministers - Civil Protection Department. https://doi.org/10.7914/SN/IT http://www.fdsn.org/networks/detail/IT/
ORIGINAL_DATA_CREATOR: network: IT (Italian Strong Motion Network (RAN)); owner: Presidency of Counsil of Ministers - Civil Protection Department (PCM - DPC)
USER1: 
USER2: 
USER3: 
USER4: 
USER5: 
[...]
-0.459400
-0.522383
-0.705785
-0.828705
-0.620609
-0.004292
0.895943
1.909935
2.859195
3.512609
3.676173
3.370051
2.833577
2.314680
1.895632
1.527876
1.155896
0.760331
0.343001
-0.063475
-0.398322
-0.632181
-0.800122
-0.934603
-0.999074
-0.945247
-0.805451
-0.648650
-0.452739
-0.112009
0.401662
0.964399
1.429314
1.759304
1.972922
2.023811
1.828118
1.385853
0.786513
0.108186
-0.596652
-1.217053
-1.592284
-1.649527
-1.467669
-1.162695
-0.761702
-0.233076
0.394456
0.965867
1.217563
0.886009
-0.078321
-1.349586
-2.383009
-2.831994
-2.770095
-2.470924
-2.092096
-1.674295
-1.330112
-1.240308
-1.447598
-1.788030
-2.087496
-2.333111
-2.573718
-2.735898
-2.653935
-2.249019
-1.585531
-0.776244
0.079789
0.888227
1.586224
2.184938
2.716207
3.142275
3.398418
3.532610
3.722614
4.124786
4.747112
5.470630
6.137359
6.594206
6.704636
6.388883
5.661572
4.592660
3.238510
1.655782
-0.037955
-1.702403
-3.291832
-4.852733
-6.362117
-7.634416
-8.436778
-8.651530
-8.302918
-7.496687
-6.398077
-5.235384
-4.235512
-3.494376
-2.915987
-2.327496
-1.670257
-1.035041
-0.503123
-0.036960
0.417264
0.780537
0.879472
0.642123
0.210763
-0.158252
-0.281839
-0.141263
0.153822
0.453387
0.658619
0.784056
0.928783
1.157487
1.412360
1.565059
1.558971
1.473929
1.427103
1.423923
1.335854
1.019895
0.425435
-0.420412
-1.480628
-2.706648
-3.966713
-5.006090
-5.515099
-5.300636
-4.451805
-3.316945
-2.246472
-1.339346
-0.463389
0.514214
1.585775
2.657397
3.636817
4.445618
5.018806
5.328976
5.375045
5.139442
4.610696
3.871429
3.108033
2.481076
2.015507
1.672997
1.500163
1.611217
2.022792
2.615082
3.284906
4.016530
4.732567
5.187003
5.141228
4.631025
3.956080
3.377601
2.891454
2.327363
1.597161
0.768186
-0.081030
-0.978888
-1.982533
-3.034233
-3.976309
-4.697080
-5.177776
-5.390607
-5.257791
-4.769757
-4.076347
-3.397051
-2.873636
-2.548155
-2.437992
-2.569440
-2.933136
-3.419750
-3.801569
-3.809863
-3.305354
-2.430572
-1.572709
-1.089395
-1.007338
-1.003002
-0.715599
-0.072259
0.717781
1.446473
2.089754
2.697602
3.212790
3.484239
3.413579
3.003602
2.283409
1.287963
0.130171
-1.009803
-2.029641
-2.970228
-3.866659
-4.591045
-4.943276
-4.895923
-4.654606
-4.413245
-4.103695
-3.495687
-2.532601
-1.409683
-0.262829
1.023634
2.523230
3.928953
4.769576
4.937604
4.783010
4.664544
4.586716
4.324235
3.733655
2.822806
1.644266
0.318967
-0.877047
-1.664376
-2.052844
-2.332542
-2.704187
-3.051150
-3.159293
-3.013395
-2.744551
-2.383891
-1.822961
-1.038380
-0.231957
0.397580
0.957708
1.716667
2.646476
3.348359
3.527439
3.347556
3.180109
3.165706
3.217684
3.345819
3.684198
4.154317
4.380469
4.121178
3.615683
3.302360
3.309736
3.437567
3.539154
3.639042
3.678355
3.445991
2.891566
2.294956
1.945115
1.772625
1.475165
0.923783
0.261059
-0.364404
-0.970822
-1.614881
-2.228307
-2.668916
-2.888974
-2.989438
-3.107627
-3.285423
-3.463582
-3.577939
-3.619142
-3.597986
-3.485840
-3.215662
-2.759363
-2.215960
-1.808101
-1.732556
-1.954310
-2.157508
-1.963646
-1.236768
-0.172168
0.889362
1.686175
2.117077
2.226795
2.165688
2.089228
2.017896
1.808972
1.314122
0.554152
-0.302806
-1.108494
-1.810291
-2.373856
-2.722815
-2.796662
-2.613894
-2.235687
-1.715118
-1.124781
-0.589984
-0.239521
-0.121536
-0.187163
-0.357331
-0.590961
-0.883400
-1.201324
-1.434558
-1.445866
-1.181437
-0.710897
-0.156097
0.369053
0.722042
0.718840
0.276581
-0.413886
-0.952873
-1.047806
-0.750017
-0.359110
-0.142370
-0.179332
-0.395011
-0.620796
-0.650948
-0.394035
-0.022075
0.114753
-0.216494
-0.934849
-1.750655
-2.425005
-2.894015
-3.190366
-3.350751
-3.422070
-3.441010
-3.321669
-2.851367
-1.925264
-0.749823
0.307435
1.051402
1.545835
1.927677
2.286311
2.704727
3.245958
3.837239
4.269766
4.385707
4.227088
3.961256
3.703984
3.467729
3.241791
3.032428
2.807293
2.473767
1.954022
1.230259
0.289559
-0.898670
-2.291570
-3.720258
-4.994707
-6.002396
-6.627553
-6.661016
-5.961181
-4.723985
-3.452347
-2.564233
-2.067593
-1.668049
-1.142396
-0.502414
0.193717
1.015022
2.030209
3.115202
4.029610
4.643078
4.958707
4.929620
4.411193
3.367465
2.025388
0.729916
-0.319165
-1.123790
-1.715463
-2.027004
-1.978325
-1.609596
-1.039524
-0.338700
0.464391
1.293872
2.041200
2.642175
3.047398
3.145490
2.836790
2.211579
1.567058
1.183374
1.109769
1.201229
1.309708
1.370024
1.337135
1.150644
0.799974
0.357173
-0.105809
-0.585040
-1.072961
-1.467703
-1.648901
-1.630900
-1.540078
-1.431712
-1.234351
-0.911171
-0.579249
-0.396805
-0.384086
-0.423992
-0.409616
-0.326152
-0.206492
-0.077152
0.045505
0.159112
0.288536
0.459319
0.652134
0.805782
0.856317
0.767293
0.569974
0.406121
0.472719
0.855673
1.450920
2.115081
2.850040
3.748575
4.786634
5.768567
6.476767
6.794180
6.678803
6.120616
5.190811
4.085609
3.033379
2.135159
1.327778
0.488272
-0.483228
-1.647478
-2.970260
-4.265817
-5.300127
-5.983945
-6.401271
-6.646044
-6.716381
-6.598995
-6.374214
-6.161568
-5.977228
-5.689401
-5.123994
-4.213854
-3.067802
-1.909372
-0.920615
-0.116047
0.627232
1.422571
2.283149
3.150709
3.935097
4.513915
4.790117
4.820305
4.833240
5.040083
5.423517
5.750722
5.789894
5.479283
4.891606
4.102333
3.150279
2.098849
1.046874
0.040895
-0.966239
-2.025145
-3.101972
-4.119136
-5.033300
-5.817947
-6.416706
-6.799449
-7.047599
-7.291514
-7.548935
-7.689516
-7.566453
-7.138950
-6.458866
-5.561098
-4.404217
-2.956492
-1.322143
0.275376
1.644607
2.724029
3.545599
4.179249
4.733146
5.316899
5.910816
6.287815
6.145290
5.349197
4.043745
2.541357
1.126403
-0.072129
-1.095448
-2.082247
-3.144901
-4.260486
-5.259869
-5.936117
-6.186820
-6.067145
-5.710853
-5.191782
-4.453987
-3.391865
-2.020054
-0.551767
0.736501
1.740604
2.606438
3.555045
4.646075
5.716107
6.497704
6.754305
6.353708
5.325748
3.893041
2.384922
1.056581
-0.016211
-0.876088
-1.563257
-2.083637
-2.464860
-2.754983
-2.913690
-2.769440
-2.181141
-1.247964
-0.297163
0.371088
0.722292
0.971093
1.344779
1.882525
2.457935
2.952085
3.364102
3.765192
4.190184
4.583718
4.819525
4.761051
4.340678
3.621471
2.785704
2.041038
1.503144
1.130375
0.768447
0.289362
-0.300924
-0.896018
-1.403659
-1.787319
-2.013217
-2.029807
-1.831716
-1.501226
-1.144337
-0.803639
-0.471168
-0.169657
0.043525
0.173683
0.325310
0.586630
0.909154
1.145072
1.180019
0.989998
0.599452
0.055066
-0.549864
-1.081823
-1.428582
-1.527637
-1.328082
-0.787282
0.052543
1.029657
1.957228
2.746245
3.418303
4.015485
4.517628
4.839098
4.901018
4.711313
4.353711
3.887561
3.296636
2.549149
1.647190
0.578962
-0.719682
-2.279008
-3.965627
-5.494581
-6.614951
-7.268407
-7.542326
-7.508287
-7.163634
-6.519584
-5.687236
-4.852532
-4.185325
-3.770525
-3.587419
-3.520049
-3.395566
-3.065755
-2.498023
-1.780685
-1.020026
-0.254668
0.509977
1.229054
1.839856
2.339001
2.766136
3.102185
3.253703
3.163055
2.887845
2.553114
2.256745
2.034318
1.889279
1.835804
1.904051
2.088560
2.290629
2.335405
2.076082
1.506383
0.771070
0.044395
-0.601804
-1.200000
-1.793948
-2.384776
-2.943216
-3.423142
-3.770584
-3.970820
-4.084982
-4.189134
-4.271729
-4.218545
-3.898515
-3.265353
-2.409026
-1.540642
-0.909656
-0.683848
-0.886985
-1.442010
-2.214971
-2.977916
-3.421327
-3.332147
-2.754720
-1.907721
-0.963743
0.045695
1.158447
2.389332
3.685202
4.893917
5.768970
6.060625
5.633806
4.500756
2.776986
0.665145
-1.544606
-3.579277
-5.333649
-6.845983
-8.127700
-9.127961
-9.862110
-10.419805
-10.789383
-10.792680
-10.275197
-9.291149
-8.025133
-6.594858
-5.039048
-3.463822
-2.064249
-0.969566
-0.152023
0.483848
0.996792
1.430011
1.857254
2.322504
2.757196
3.026811
3.046288
2.795378
2.260925
1.455877
0.492696
-0.458052
-1.336086
-2.251209
-3.295520
-4.342429
-5.134010
-5.557760
-5.729445
-5.780630
-5.679567
-5.339248
-4.820703
-4.307797
-3.895732
-3.516033
-3.096373
-2.694073
-2.384934
-2.082982
-1.608057
-0.921149
-0.156986
0.578814
1.304591
2.013385
2.548064
2.731124
2.585504
2.330381
2.138678
1.964627
1.655105
1.182558
0.691580
0.339389
0.196754
0.319734
0.790975
1.595899
2.509989
3.211356
3.549536
3.685882
3.935368
4.472233
5.222318
6.013437
6.735540
7.346384
7.836179
8.242499
8.624177
8.974619
9.218011
9.323812
9.372489
9.463763
9.586376
9.621692
9.465820
9.101253
8.540979
7.764090
6.757939
5.595716
4.435513
3.452253
2.757791
2.335232
2.042027
1.727871
1.364791
1.022232
0.728935
0.424349
0.043276
-0.416942
-0.939204
-1.552979
-2.313056
-3.225603
-4.232193
-5.260511
-6.252536
-7.142187
-7.841468
-8.258972
-8.322373
-8.006111
-7.383718
-6.653110
-6.039217
-5.608847
-5.197112
-4.565274
-3.631373
-2.503348
-1.295250
0.003513
1.433346
2.917980
4.307202
5.520717
6.532530
7.229238
7.413780
6.982216
5.984349
4.459613
2.351471
-0.294830
-3.140668
-5.733188
-7.906493
-9.873174
-11.840228
-13.655308
-14.959255
-15.602613
-15.757899
-15.653673
-15.360599
-14.879085
-14.291889
-13.696372
-13.033685
-12.127699
-10.931037
-9.633957
-8.455515
-7.393090
-6.269542
-4.979130
-3.579701
-2.164200
-0.763035
0.590950
1.803451
2.807451
3.660627
4.476970
5.277572
5.975193
6.508850
6.913631
7.215359
7.321551
7.080735
6.420408
5.387351
4.096410
2.699516
1.383859
0.325393
-0.403220
-0.868967
-1.202773
-1.490060
-1.721929
-1.815488
-1.672571
-1.240690
-0.533345
0.392878
1.455456
2.536929
3.494278
4.216811
4.696669
5.050435
5.441203
5.933641
6.453824
6.949775
7.551004
8.487885
9.861893
11.549216
13.315512
14.956767
16.325577
17.320812
17.932583
18.262304
18.432178
18.478140
18.358255
18.043484
17.561098
16.954937
16.228281
15.302361
13.993088
12.079961
9.499592
6.472201
3.353699
0.356246
-2.522323
-5.322007
-7.975568
-10.334229
-12.243804
-13.570788
-14.201490
-14.052466
-13.108377
-11.496129
-9.539826
-7.663819
-6.134428
-4.892721
-3.709102
-2.509970
-1.497056
-0.938268
-0.898599
-1.191370
-1.528868
-1.679344
-1.540026
-1.160793
-0.721090
-0.416186
-0.300204
-0.237966
-0.040116
0.345053
0.788877
1.134687
1.355884
1.524743
1.655058
1.646398
1.405916
0.976387
0.492461
0.031824
-0.441000
-1.001779
-1.688011
-2.492793
-3.396657
-4.369716
-5.350632
-6.267269
-7.078383
-7.762028
-8.292877
-8.687072
-9.055044
-9.558208
-10.290806
-11.208393
-12.171916
-13.047741
-13.764567
-14.296848
-14.621794
-14.709141
-14.537693
-14.098237
-13.403042
-12.537635
-11.698161
-11.125221
-10.958034
-11.143084
-11.488603
-11.803220
-11.983272
-12.008014
-11.902969
-11.706383
-11.436553
-11.085169
-10.651628
-10.160676
-9.613916
-8.943235
-8.054421
-6.917090
-5.590055
-4.163082
-2.703870
-1.274241
0.041354
1.177302
2.161434
3.112389
4.139734
5.251340
6.354000
7.304064
7.929809
8.049409
7.550275
6.489551
5.091459
3.607228
2.165880
0.761822
-0.636444
-2.006152
-3.304077
-4.539120
-5.759835
-6.957560
-8.026133
-8.858803
-9.475363
-10.032225
-10.703335
-11.539576
-12.415336
-13.094995
-13.368209
-13.145827
-12.432547
-11.221186
-9.451217
-7.087880
-4.210878
-1.003962
2.311654
5.517696
8.422920
10.903440
12.935263
14.587562
15.977354
17.180103
18.119581
18.567980
18.330309
17.429201
16.081675
14.548858
13.061425
11.823322
10.962169
10.440278
10.085657
9.769420
9.531027
9.496954
9.707778
10.070624
10.461135
10.815445
11.122447
11.392110
11.669772
12.054851
12.665937
13.552085
14.607503
15.584527
16.242937
16.513491
16.487251
16.245161
15.777227
15.100936
14.354696
13.679751
13.064307
12.405572
11.720476
11.222679
11.165795
11.632509
12.488965
13.513837
14.528404
15.421500
16.128817
16.634411
16.959347
17.109459
17.058102
16.813604
16.474939
16.165991
15.921121
15.692304
15.463189
15.286776
15.205312
15.193256
15.189852
15.129729
14.903512
14.336662
13.288207
11.789886
10.055577
8.335649
6.771466
5.381204
4.130548
2.972757
1.841662
0.666388
-0.581815
-1.892924
-3.289576
-4.863285
-6.706075
-8.802267
-11.008051
-13.151814
-15.135477
-16.930180
-18.512039
-19.839401
-20.891825
-21.701187
-22.314819
-22.732449
-22.902725
-22.796013
-22.492208
-22.197252
-22.144670
-22.439093
-22.976427
-23.526314
-23.902109
-24.053892
-24.025766
-23.874990
-23.639725
-23.328489
-22.902945
-22.306736
-21.563866
-20.844975
-20.405216
-20.459448
-21.119946
-22.405985
-24.253700
-26.502371
-28.895851
-31.134251
-32.984062
-34.406570
-35.581169
-36.745537
-37.999523
-39.292912
-40.570625
-41.851761
-43.162750
-44.471115
-45.722279
-46.871689
-47.798199
-48.205814
-47.701580
-46.030891
-43.245853
-39.630112
-35.421593
-30.574615
-24.885197
-18.506020
-12.193814
-6.676089
-1.836217
3.059196
8.380091
13.784348
18.841379
23.632973
28.512573
33.405384
37.678905
40.864601
43.335808
46.034077
49.536121
53.557858
57.367496
60.468479
62.746532
64.076447
64.022942
62.053848
58.039574
52.497314
46.304531
40.151272
34.272842
28.678022
23.509054
18.999392
15.068910
11.289557
7.476180
4.028266
1.408594
-0.522782
-2.367928
-4.441660
-6.391033
-7.552083
-7.484875
-6.134119
-3.688016
-0.499977
2.925163
6.172338
9.254823
12.577031
16.501368
21.005112
25.754929
30.418592
34.831120
38.918770
42.596275
45.791332
48.527161
50.942051
53.209538
55.395432
57.350353
58.759979
59.351460
59.078754
58.111828
56.635098
54.639130
51.907024
48.206924
43.524166
38.181950
32.768959
27.884192
23.865471
20.686337
18.054136
15.616627
13.129408
10.473570
7.580579
4.420164
1.036187
-2.515088
-6.252097
-10.187605
-14.167986
-17.899769
-21.183327
-24.071260
-26.769424
-29.418783
-31.981850
-34.305672
-36.258751
-37.812580
-39.044331
-40.098885
-41.144341
-42.319504
-43.659859
-45.047668
-46.269733
-47.174206
-47.736252
-47.906681
-47.500282
-46.389465
-44.745403
-42.959377
-41.344730
-39.946583
-38.612186
-37.213066
-35.787479
-34.500519
-33.508766
-32.871582
-32.569977
-32.582260
-32.918186
-33.556602
-34.356354
-35.064404
-35.447529
-35.425636
-35.046223
-34.327312
-33.182671
-31.526218
-29.402418
-26.969446
-24.375458
-21.702459
-19.035250
-16.524235
-14.314452
-12.408562
-10.663747
-8.971947
-7.397718
-6.086823
-5.088076
-4.322236
-3.678419
-3.068821
-2.413590
-1.654352
-0.800717
0.091108
1.008359
2.006237
3.120312
4.300222
5.479493
6.692046
8.040419
9.525254
10.994759
12.311752
13.495367
14.647600
15.798936
16.887474
17.858068
18.713366
19.481773
20.197311
20.892954
21.550806
22.066988
22.323055
22.313442
22.180248
22.067375
21.901993
21.374569
20.195915
18.362679
16.161497
13.912112
11.708647
9.447884
7.096405
4.842523
2.950159
1.527372
0.527919
0.005682
0.271042
1.663090
4.168581
7.370769
10.805888
14.282655
17.783213
21.159630
24.110573
26.463379
28.341347
29.987389
31.471159
32.617744
33.202599
33.161209
32.597828
31.662489
30.496521
29.254589
28.066103
26.957928
25.872154
24.749216
23.550264
22.220066
20.672726
18.830591
16.679670
14.276714
11.703189
9.048225
6.448396
4.073535
1.990420
0.059549
-1.946761
-4.103123
-6.267217
-8.286433
-10.212741
-12.240845
-14.441801
-16.631737
-18.526615
-19.981583
-21.071280
-21.983486
-22.865505
-23.747423
-24.534624
-25.009205
-24.860277
-23.806314
-21.788132
-19.085581
-16.205378
-13.590665
-11.411494
-9.618030
-8.142863
-6.991960
-6.157451
-5.532485
-4.963901
-4.377618
-3.836295
-3.464848
-3.310774
-3.279121
-3.202457
-2.941778
-2.389931
-1.419498
0.070098
2.005662
4.112900
6.111579
7.914067
9.605264
11.266618
12.842343
14.145692
14.960095
15.141739
14.675968
13.671631
12.286847
10.641967
8.806616
6.865780
4.974364
3.315615
1.992695
0.972142
0.131994
-0.660125
-1.520911
-2.557958
-3.843587
-5.375609
-7.105547
-9.010801
-11.104461
-13.376433
-15.760367
-18.166870
-20.509640
-22.646906
-24.314482
-25.223186
-25.303947
-24.825417
-24.178101
-23.489157
-22.477764
-20.733179
-18.116400
-14.861632
-11.323704
-7.696747
-4.010500
-0.345554
3.069817
6.026225
8.515218
10.666021
12.518830
13.934119
14.761615
15.040330
14.972700
14.741683
14.415564
14.015665
13.597608
13.223885
12.913685
12.683051
12.598895
12.712743
12.931112
13.023329
12.808589
12.306268
11.660624
10.942014
10.083695
9.019927
7.822395
6.655233
5.620352
4.693081
3.813443
2.998065
2.321780
1.806998
1.395619
1.047187
0.807217
0.740233
0.830158
0.989568
1.153341
1.322226
1.507426
1.672718
1.767555
1.801774
1.873054
2.131822
2.675693
3.420335
4.115121
4.558322
4.786431
5.010798
5.392872
5.945904
6.659876
7.630493
8.970595
10.603835
12.242428
13.640177
14.833574
16.061586
17.468393
18.948359
20.242210
21.087170
21.284800
20.752197
19.585865
18.016890
16.245010
14.356920
12.425538
10.614754
9.126905
8.060005
7.346526
6.831300
6.377840
5.895117
5.324954
4.654811
3.908000
3.075031
2.076276
0.814775
-0.764652
-2.659281
-4.777736
-6.923419
-8.906080
-10.718047
-12.537201
-14.505033
-16.550285
-18.489742
-20.265652
-21.997721
-23.785980
-25.534628
-27.022125
-28.106812
-28.804983
-29.175255
-29.182367
-28.711020
-27.705318
-26.274042
-24.655546
-23.077162
-21.634682
-20.294647
-18.997988
-17.744341
-16.577208
-15.500743
-14.425542
-13.250304
-12.053244
-11.108096
-10.563198
-10.213583
-9.780117
-9.290442
-8.984946
-8.912155
-8.780262
-8.260062
-7.350915
-6.342474
-5.451942
-4.615564
-3.657306
-2.569633
-1.545880
-0.758369
-0.186030
0.307471
0.777337
1.139644
1.302979
1.299179
1.242799
1.181224
1.023569
0.624178
-0.083348
-1.047106
-2.166453
-3.362932
-4.584591
-5.768593
-6.811569
-7.583092
-7.972804
-7.912174
-7.345563
-6.197068
-4.383362
-1.877681
1.196689
4.504095
7.594721
10.201595
12.456931
14.677705
16.896227
18.748623
19.886576
20.347378
20.419039
20.261229
19.814234
19.058722
18.204477
17.527620
17.086926
16.706472
16.230824
15.697780
15.217192
14.744918
14.049328
12.897760
11.217035
9.041508
6.365711
3.146148
-0.534497
-4.384895
-8.053063
-11.345615
-14.272972
-16.886766
-19.089474
-20.607147
-21.167465
-20.731026
-19.516485
-17.735312
-15.324199
-12.044413
-7.913778
-3.478325
0.498194
3.652877
6.213560
8.570625
10.822170
12.785837
14.320128
15.502527
16.483704
17.269388
17.743574
17.876234
17.805950
17.696873
17.573156
17.325836
16.859953
16.189859
15.356119
14.270465
12.716536
10.549466
7.872417
4.987794
2.187862
-0.393592
-2.757685
-4.932541
-6.918728
