EVENT_NAME: L_AQUILA
EVENT_ID: IT-2009-0009
EVENT_DATE_YYYYMMDD: 20090406
EVENT_TIME_HHMMSS: 013240
EVENT_LATITUDE_DEGREE: 42.3420
EVENT_LONGITUDE_DEGREE: 13.3800
EVENT_DEPTH_KM: 8.3
HYPOCENTER_REFERENCE: INGV-CNT_Seismic_Bulletin
MAGNITUDE_W: 6.1
MAGNITUDE_W_REFERENCE: INGV-CNT_Seismic_Bulletin
MAGNITUDE_L: 
MAGNITUDE_L_REFERENCE: 
FOCAL_MECHANISM: Normal faulting
NETWORK: IT
STATION_CODE: ORC
STATION_NAME: 
STATION_LATITUDE_DEGREE: 41.953606
STATION_LONGITUDE_DEGREE: 13.642346
STATION_ELEVATION_M: 732
LOCATION: 
SENSOR_DEPTH_M: 0.0
VS30_M/S: 767
SITE_CLASSIFICATION_EC8: B
MORPHOLOGIC_CLASSIFICATION: 
EPICENTRAL_DISTANCE_KM: 48.3
EARTHQUAKE_BACKAZIMUTH_DEGREE: 153.2
DATE_TIME_FIRST_SAMPLE_YYYYMMDD_HHMMSS: 
DATE_TIME_FIRST_SAMPLE_PRECISION: 
SAMPLING_INTERVAL_S: 
NDATA: 105
DURATION_S: 
STREAM: HNZ
UNITS: cm/s^2
INSTRUMENT: sensor = FBA-3 [Kinemetrics] | digitizer = Everest [Kinemetrics]
INSTRUMENT_ANALOG/DIGITAL: D
INSTRUMENTAL_FREQUENCY_HZ: 214.000
INSTRUMENTAL_DAMPING: 0.000000
FULL_SCALE_G: 1.0
N_BIT_DIGITAL_CONVERTER: 24
PGA_CM/S^2: -30.500218
TIME_PGA_S: 
BASELINE_CORRECTION: BASELINE REMOVED
FILTER_TYPE: BUTTERWORTH
FILTER_ORDER: 2
LOW_CUT_FREQUENCY_HZ: 0.080
HIGH_CUT_FREQUENCY_HZ: 35.000
LATE/NORMAL_TRIGGERED: NT
DATABASE_VERSION: 0.5
HEADER_FORMAT: DYNA 1.2
DATA_TYPE: ACCELERATION RESPONSE SPECTRUM
PROCESSING: manual (Paolucci et al., 2011)
DATA_TIMESTAMP_YYYYMMDD_HHMMSS: 20211011_160200.935
DATA_LICENSE: CC-BY3_0-IT (http://creativecommons.org/licenses/by/3.0/deed.en)
DATA_CITATION: Luzi L, Pacor F, Puglia R (2019). Italian Accelerometric Archive v 3.0 - Istituto Nazionale di Geofisica e Vulcanologia, Dipartimento della Protezione Civile Nazionale. doi: 10.13127/itaca.3.1
DATA_CREATOR: ITACA working group
ORIGINAL_DATA_MEDIATOR_CITATION: data obtained within the DPC-INGV data exchange agreements
ORIGINAL_DATA_MEDIATOR: Archive of Italian Department of Civil Protection
ORIGINAL_DATA_CREATOR_CITATION: Presidency Of Counsil Of Ministers-Civil Protection Department. (1972). Italian Strong Motion Network. Presidency of Counsil of Ministers - Civil Protection Department. https://doi.org/10.7914/SN/IT http://www.fdsn.org/networks/detail/IT/
ORIGINAL_DATA_CREATOR: network: IT (Italian Strong Motion Network (RAN)); owner: Presidency of Counsil of Ministers - Civil Protection Department (PCM - DPC)
USER1: 
USER2: 
USER3: 
USER4: 
USER5: 
    0.010000    30.500856
    0.020000    30.680017
    0.022000    30.801065
    0.025000    30.979643
    0.029000    30.954370
    0.030000    30.923508
    0.032000    30.916771
    0.035001    31.085121
    0.036000    30.656874
    0.040000    31.107281
    0.041999    32.347530
    0.044001    33.845688
    0.045000    34.291306
    0.046000    34.862293
    0.048001    36.963776
    0.050000    38.293583
    0.054999    43.678844
    0.059999    49.436485
    0.064998    42.024109
    0.067002    40.065239
    0.069999    40.818085
    0.075002    46.070591
    0.080000    47.399448
    0.084998    40.080730
    0.090001    42.904163
    0.095003    45.819046
    0.100000    43.240566
    0.109999    43.930073
    0.120005    44.016098
    0.130005    47.649097
    0.132996    48.257778
    0.139997    49.267410
    0.149993    52.910946
    0.160000    48.926468
    0.170010    47.192513
    0.179986    49.879463
    0.190006    54.909996
    0.200000    59.533161
    0.220022    72.387100
    0.239981    64.668732
    0.250000    57.744278
    0.260010    57.736355
    0.280034    66.631676
    0.290023    66.301193
    0.300030    66.462479
    0.320000    74.533646
    0.340020    70.325447
    0.350017    63.043179
    0.359971    64.483437
    0.379939    67.253380
    0.400000    66.781120
    0.419992    58.930786
    0.439947    49.834278
    0.450045    46.517265
    0.459982    45.274166
    0.480077    49.113968
    0.500000    58.582584
    0.550055    76.301704
    0.599880    69.426712
    0.650195    62.163925
    0.667111    61.528114
    0.699790    62.205605
    0.750188    63.138191
    0.800000    57.399681
    0.850340    48.405346
    0.900090    40.197449
    0.949668    33.839878
    1.000000    27.088932
    1.100110    19.573679
    1.200480    17.034122
    1.300390    17.522306
    1.400560    15.213555
    1.499250    14.459683
    1.600000    13.875967
    1.700680    12.698822
    1.798561    11.227547
    1.901141    10.190108
    2.000000     9.705331
    2.197802     8.559436
    2.398082     6.965397
    2.500000     6.436705
    2.597403     5.972994
    2.801121     5.383271
    3.003003     6.298114
    3.205128     6.484936
    3.401361     6.102954
    3.496503     5.678195
    3.597122     5.254872
    3.802281     4.463300
    4.000000     3.725407
    4.201681     3.292140
    4.405286     2.996102
    4.608295     2.827579
    4.807692     2.700695
    5.000000     2.532557
    5.494505     1.980476
    5.988024     1.927624
    6.493506     1.691256
    6.993007     1.432309
    7.518797     1.160674
    8.000000     0.924278
    8.474576     0.735449
    9.009009     0.599831
    9.523809     0.521882
   10.000000     0.457598
