EVENT_NAME: L_AQUILA
EVENT_ID: IT-2009-0009
EVENT_DATE_YYYYMMDD: 20090406
EVENT_TIME_HHMMSS: 013240
EVENT_LATITUDE_DEGREE: 42.3420
EVENT_LONGITUDE_DEGREE: 13.3800
EVENT_DEPTH_KM: 8.3
HYPOCENTER_REFERENCE: INGV-CNT_Seismic_Bulletin
MAGNITUDE_W: 6.1
MAGNITUDE_W_REFERENCE: INGV-CNT_Seismic_Bulletin
MAGNITUDE_L: 
MAGNITUDE_L_REFERENCE: 
FOCAL_MECHANISM: Normal faulting
NETWORK: IT
STATION_CODE: ORC
STATION_NAME: 
STATION_LATITUDE_DEGREE: 41.953606
STATION_LONGITUDE_DEGREE: 13.642346
STATION_ELEVATION_M: 732
LOCATION: 
SENSOR_DEPTH_M: 0.0
VS30_M/S: 767
SITE_CLASSIFICATION_EC8: B
MORPHOLOGIC_CLASSIFICATION: 
EPICENTRAL_DISTANCE_KM: 48.3
EARTHQUAKE_BACKAZIMUTH_DEGREE: 153.2
DATE_TIME_FIRST_SAMPLE_YYYYMMDD_HHMMSS: 20090406_013235.000
DATE_TIME_FIRST_SAMPLE_PRECISION: seconds
SAMPLING_INTERVAL_S: 0.005000
NDATA: 14200
DURATION_S: 71.000
STREAM: HNE
UNITS: cm/s^2
INSTRUMENT: sensor = FBA-3 [Kinemetrics] | digitizer = Everest [Kinemetrics]
INSTRUMENT_ANALOG/DIGITAL: D
INSTRUMENTAL_FREQUENCY_HZ: 214.000
INSTRUMENTAL_DAMPING: 0.000000
FULL_SCALE_G: 1.0
N_BIT_DIGITAL_CONVERTER: 24
PGA_CM/S^2: 64.399071
TIME_PGA_S: 25.525000
BASELINE_CORRECTION: BASELINE NOT REMOVED
FILTER_TYPE: 
FILTER_ORDER: 
LOW_CUT_FREQUENCY_HZ: 
HIGH_CUT_FREQUENCY_HZ: 
LATE/NORMAL_TRIGGERED: NT
DATABASE_VERSION: 0.5
HEADER_FORMAT: DYNA 1.2
DATA_TYPE: ACCELERATION
PROCESSING: converted to cm/s^2
DATA_TIMESTAMP_YYYYMMDD_HHMMSS: 20211011_160158.872
DATA_LICENSE: CC-BY3_0-IT (http://creativecommons.org/licenses/by/3.0/deed.en)
DATA_CITATION: Luzi L, Pacor F, Puglia R (2019). Italian Accelerometric Archive v 3.0 - Istituto Nazionale di Geofisica e Vulcanologia, Dipartimento della Protezione Civile Nazionale. doi: 10.13127/itaca.3.1
DATA_CREATOR: ITACA working group
ORIGINAL_DATA_MEDIATOR_CITATION: data obtained within the DPC-INGV data exchange agreements
ORIGINAL_DATA_MEDIATOR: Archive of Italian Department of Civil Protection
ORIGINAL_DATA_CREATOR_CITATION: Presidency Of Counsil Of Ministers-Civil Protection Department. (1972). Italian Strong Motion Network. Presidency of Counsil of Ministers - Civil Protection Department. https://doi.org/10.7914/SN/IT http://www.fdsn.org/networks/detail/IT/
ORIGINAL_DATA_CREATOR: network: IT (Italian Strong Motion Network (RAN)); owner: Presidency of Counsil of Ministers - Civil Protection Department (PCM - DPC)
USER1: 
USER2: 
USER3: 
USER4: 
USER5: 
[...]
-0.709089
-0.385738
-0.254527
-0.700318
-1.104361
-0.818432
0.022047
0.892697
1.754343
2.769419
3.633755
3.820164
3.298125
2.615404
2.184464
1.902862
1.514256
1.078288
0.729209
0.345515
-0.129630
-0.530866
-0.691197
-0.749201
-0.953737
-1.153127
-1.061092
-0.753411
-0.576124
-0.578462
-0.329956
0.344696
1.057355
1.437190
1.594948
1.855032
2.080033
1.874678
1.274871
0.659978
0.136886
-0.551916
-1.341641
-1.794917
-1.717968
-1.395435
-1.162833
-0.882635
-0.353111
0.292656
0.864981
1.233707
1.109746
0.101335
-1.556351
-2.821455
-3.001198
-2.599026
-2.392386
-2.288656
-1.853623
-1.256506
-1.072786
-1.504895
-2.051025
-2.203170
-2.213227
-2.518686
-2.904134
-2.838879
-2.275208
-1.586055
-0.868367
0.016667
0.923453
1.577991
2.034892
2.589793
3.202464
3.482897
3.442902
3.539965
4.005871
4.705900
5.435866
6.068184
6.549878
6.733598
6.382531
5.553864
4.504522
3.259065
1.668272
-0.183775
-1.885783
-3.281747
-4.730337
-6.386970
-7.812053
-8.574296
-8.701882
-8.366720
-7.606933
-6.482747
-5.217526
-4.140235
-3.470612
-3.078264
-2.545700
-1.695398
-0.928945
-0.539403
-0.231021
0.257923
0.802299
1.010226
0.657756
0.075607
-0.322939
-0.394041
-0.205761
0.111392
0.476960
0.685589
0.701844
0.770958
1.032796
1.415438
1.636931
1.540568
1.318257
1.254874
1.374391
1.374741
1.017477
0.336627
-0.502566
-1.479051
-2.678899
-3.969146
-5.090525
-5.745296
-5.564968
-4.518434
-3.148080
-2.110199
-1.455077
-0.669796
0.435796
1.579394
2.598213
3.556922
4.428625
5.003523
5.232501
5.278693
5.152511
4.668361
3.804376
2.910454
2.352396
2.074653
1.734579
1.338956
1.385500
2.019222
2.721121
3.187378
3.750114
4.631757
5.367571
5.322431
4.521362
3.642525
3.198137
2.957232
2.424551
1.529576
0.574258
-0.181554
-0.908129
-1.929637
-3.160593
-4.159648
-4.710339
-5.121866
-5.492579
-5.470828
-4.879207
-4.024929
-3.377992
-2.956174
-2.632005
-2.480445
-2.573416
-2.915478
-3.422081
-3.907750
-4.040950
-3.554695
-2.502664
-1.387132
-0.867432
-1.037937
-1.313457
-1.010806
-0.075953
0.876559
1.438359
1.885788
2.546407
3.235325
3.536223
3.327945
2.882738
2.300823
1.340243
0.011405
-1.238730
-2.094763
-2.840633
-3.822731
-4.794071
-5.227350
-4.965278
-4.453880
-4.273084
-4.341146
-3.865182
-2.523831
-1.106583
-0.285868
0.525024
2.232177
4.251454
5.145611
4.808694
4.353898
4.451195
4.705783
4.417515
3.587795
2.727904
1.787438
0.360016
-1.188327
-2.021438
-2.016527
-2.020620
-2.694336
-3.397288
-3.331332
-2.920389
-2.651768
-2.466178
-2.156392
-1.182480
0.071397
0.574375
0.606534
1.224234
2.692236
3.790343
3.617967
2.973955
2.862039
3.308883
3.428283
3.075229
3.234156
4.174037
4.841672
4.258121
3.164925
2.913962
3.441966
3.663809
3.328179
3.299294
3.756312
3.782157
2.866834
1.834099
1.664763
1.962620
1.699847
0.788850
-0.012686
-0.425967
-0.870940
-1.600205
-2.384317
-2.849053
-2.964010
-2.956876
-3.072066
-3.370391
-3.582645
-3.641585
-3.643339
-3.605917
-3.556566
-3.350511
-2.914074
-2.300935
-1.716915
-1.567811
-1.940045
-2.401858
-2.277780
-1.346904
-0.118404
0.916787
1.671078
2.131254
2.207970
2.015128
1.881812
1.940284
1.913036
1.389710
0.431702
-0.473213
-1.150788
-1.786965
-2.432264
-2.876886
-2.876535
-2.602535
-2.310759
-1.833743
-1.191952
-0.590975
-0.210673
-0.178747
-0.281658
-0.446199
-0.645939
-0.857258
-1.220604
-1.551205
-1.605935
-1.262938
-0.692951
-0.231138
0.219799
0.679858
0.861590
0.434743
-0.550396
-1.298021
-1.267381
-0.728853
-0.243300
-0.156644
-0.237921
-0.359777
-0.698915
-0.920992
-0.614715
0.010001
0.317799
-0.131034
-1.074657
-1.967527
-2.517399
-2.873144
-3.267246
-3.475758
-3.392727
-3.319754
-3.400563
-3.212165
-2.142710
-0.589689
0.485263
0.961694
1.370298
1.927303
2.299654
2.527111
3.045876
3.818410
4.403599
4.425935
4.077909
3.809405
3.667785
3.475997
3.154985
2.886597
2.777255
2.512960
1.883566
1.097116
0.275816
-0.806855
-2.326780
-3.914416
-5.069592
-5.888553
-6.632085
-6.985373
-6.305459
-4.707766
-3.157903
-2.378352
-2.243165
-1.991618
-1.200840
-0.333113
0.167291
0.733536
1.859943
3.212521
4.143983
4.497388
4.727067
4.952302
4.609772
3.408871
1.812581
0.500349
-0.360127
-1.032089
-1.729779
-2.233225
-2.108562
-1.548048
-1.030686
-0.482802
0.357092
1.332992
2.038517
2.477994
2.941327
3.243044
2.978867
2.153357
1.300950
0.989644
1.122376
1.254172
1.241308
1.251365
1.325391
1.200494
0.747452
0.202609
-0.177227
-0.508647
-1.061092
-1.663121
-1.836199
-1.583833
-1.423034
-1.522554
-1.463848
-1.002620
-0.480346
-0.325395
-0.486427
-0.570861
-0.462805
-0.341183
-0.263415
-0.139454
0.035729
0.128349
0.186002
0.378025
0.624895
0.764058
0.811538
0.796803
0.610978
0.293007
0.230324
0.760784
1.589802
2.177798
2.666742
3.535522
4.759695
5.842716
6.452580
6.703309
6.662612
6.187000
5.197417
3.925531
2.846018
2.090908
1.346792
0.415681
-0.529346
-1.538926
-2.939685
-4.455985
-5.507899
-6.002457
-6.305459
-6.686932
-6.884334
-6.688920
-6.331889
-6.086773
-5.997428
-5.811370
-5.275648
-4.341964
-3.097326
-1.822399
-0.853165
-0.197458
0.478480
1.356615
2.267026
3.065756
3.842968
4.572817
4.917569
4.778289
4.600299
4.823312
5.404876
5.868911
5.832308
5.388738
4.783083
4.093112
3.184805
2.011503
0.889890
0.000412
-0.902749
-2.031847
-3.220585
-4.189235
-5.000244
-5.840606
-6.579109
-6.925615
-6.968183
-7.193652
-7.614768
-7.815328
-7.680374
-7.167807
-6.394571
-5.583796
-4.565328
-3.110775
-1.318837
0.361068
1.633656
2.656100
3.533767
4.196140
4.633278
5.092167
5.789155
6.381712
6.302541
5.398094
3.957340
2.402448
1.000754
-0.172900
-1.123540
-2.031496
-3.081188
-4.264080
-5.378208
-6.083382
-6.274469
-6.063151
-5.637239
-5.172386
-4.564977
-3.593638
-2.135927
-0.451461
0.904274
1.756682
2.424433
3.350516
4.584980
5.725771
6.493862
6.774996
6.439366
5.391778
3.788238
2.200953
0.961343
-0.019352
-0.846616
-1.628038
-2.197440
-2.439865
-2.637852
-2.929511
-2.999444
-2.406302
-1.257675
-0.127057
0.527714
0.674596
0.767683
1.189502
1.882397
2.543132
2.960623
3.283623
3.677024
4.119073
4.542880
4.810916
4.807408
4.394244
3.596333
2.705568
1.914556
1.378250
1.119686
0.850714
0.339550
-0.375447
-1.002853
-1.407715
-1.765681
-2.071608
-2.148674
-1.885666
-1.452153
-1.121084
-0.876320
-0.575539
-0.150797
0.141564
0.133728
0.166005
0.476492
0.937837
1.205406
1.145297
0.941931
0.609458
0.078180
-0.597875
-1.178153
-1.442330
-1.502089
-1.409352
-0.928126
0.008364
1.094777
2.016181
2.715040
3.337769
3.947165
4.476573
4.881200
4.960722
4.650352
4.234498
3.863316
3.347826
2.514013
1.537411
0.549115
-0.625942
-2.159199
-4.006334
-5.696647
-6.740141
-7.229671
-7.470809
-7.544485
-7.282646
-6.584956
-5.686941
-4.824944
-4.153684
-3.753150
-3.568144
-3.535867
-3.491194
-3.191466
-2.522545
-1.707092
-1.012326
-0.338727
0.447373
1.278379
1.899821
2.242000
2.650019
3.126801
3.336599
3.186910
2.822044
2.491560
2.229604
2.021209
1.908709
1.809657
1.816440
2.011737
2.278604
2.407944
2.174991
1.519285
0.644658
-0.054786
-0.584076
-1.174411
-1.803571
-2.409927
-2.928108
-3.434477
-3.877929
-4.010895
-4.010661
-4.130880
-4.276710
-4.286767
-3.986688
-3.339284
-2.465593
-1.505129
-0.804867
-0.649915
-0.935143
-1.414263
-2.089149
-3.019558
-3.669067
-3.465350
-2.669895
-1.795151
-0.957245
-0.006956
1.136643
2.340000
3.586509
4.870324
5.844119
6.150981
5.647068
4.486980
2.862858
0.705352
-1.710951
-3.739467
-5.249452
-6.718156
-8.237847
-9.275728
-9.764088
-10.227420
-10.805830
-11.013640
-10.393010
-9.163462
-7.910637
-6.706228
-5.172503
-3.395534
-1.913499
-0.947890
-0.247159
0.465032
1.070803
1.432044
1.739959
2.244573
2.846836
3.091250
2.987637
2.777021
2.341169
1.556239
0.414044
-0.659739
-1.339887
-2.032548
-3.142467
-4.493524
-5.374583
-5.534328
-5.523687
-5.709044
-5.855107
-5.482990
-4.700984
-4.130763
-3.904242
-3.678305
-3.159307
-2.494010
-2.236148
-2.260590
-1.797022
-0.832115
0.018772
0.558470
1.122726
1.964609
2.741704
2.919927
2.540325
2.123185
2.044482
2.113595
1.833748
1.154301
0.562563
0.365395
0.312185
0.281780
0.615656
1.500924
2.636454
3.464536
3.686847
3.558092
3.718656
4.459382
5.351082
6.049473
6.704010
7.406378
7.911811
8.179731
8.542960
9.031202
9.348473
9.362740
9.274446
9.382620
9.630659
9.731231
9.500617
9.033658
8.546585
7.868308
6.817213
5.611751
4.430028
3.402907
2.677033
2.315207
2.189142
1.848483
1.300833
0.949181
0.758211
0.521750
0.080986
-0.469237
-0.951164
-1.485716
-2.231236
-3.219182
-4.250865
-5.218462
-6.207694
-7.127812
-7.830764
-8.243694
-8.333625
-8.081610
-7.426487
-6.523327
-5.827157
-5.515501
-5.319268
-4.727880
-3.575161
-2.324792
-1.228556
-0.118871
1.355796
3.078386
4.419504
5.430721
6.429425
7.332937
7.647751
6.963978
5.809153
4.529080
2.656100
-0.101914
-3.352031
-6.094141
-7.865848
-9.451028
-11.611920
-13.875150
-15.228080
-15.544650
-15.514940
-15.571430
-15.485240
-14.909170
-14.091140
-13.515080
-13.109980
-12.344350
-10.938210
-9.359226
-8.260652
-7.486012
-6.402523
-4.931013
-3.431787
-2.133003
-0.851294
0.636589
1.975835
2.896888
3.602530
4.385122
5.355409
6.145602
6.535377
6.815108
7.192370
7.454325
7.202895
6.453633
5.428265
4.167605
2.761584
1.362930
0.249152
-0.394977
-0.776215
-1.109740
-1.410404
-1.666395
-1.809652
-1.679727
-1.212067
-0.483738
0.412991
1.459994
2.593769
3.593877
4.330509
4.804250
5.033344
5.316115
5.978254
6.694421
7.094137
7.477597
8.346961
9.863612
11.675080
13.393580
14.972560
16.413429
17.478910
17.992531
18.215191
18.413410
18.558189
18.467091
18.089479
17.575270
16.980961
16.218830
15.260590
14.108110
12.373700
9.674747
6.359726
3.193576
0.438602
-2.339176
-5.249920
-7.946188
-10.288350
-12.193840
-13.524310
-14.167270
-14.042140
-13.179100
-11.572750
-9.399338
-7.336674
-5.931939
-4.993344
-3.911609
-2.492022
-1.257090
-0.711545
-0.820069
-1.200723
-1.526179
-1.687913
-1.575179
-1.138860
-0.569575
-0.203656
-0.198043
-0.290896
-0.136998
0.380247
0.992684
1.288203
1.338840
1.463385
1.709085
1.842986
1.556824
0.951637
0.452986
0.093850
-0.340481
-0.906140
-1.634353
-2.452729
-3.293091
-4.275540
-5.346282
-6.226522
-6.959061
-7.716042
-8.312341
-8.670892
-8.950272
-9.381680
-10.172810
-11.168350
-12.152790
-13.016190
-13.679500
-14.209840
-14.577980
-14.651420
-14.449700
-14.058980
-13.426080
-12.522220
-11.569360
-10.921130
-10.797990
-11.103450
-11.499540
-11.762080
-11.926740
-11.955510
-11.815880
-11.604910
-11.364470
-11.066030
-10.577900
-10.006860
-9.517218
-8.926064
-8.054128
-6.856267
-5.469893
-4.079659
-2.678081
-1.213119
0.189043
1.328315
2.229604
3.098150
4.150649
5.333657
6.421590
7.342994
8.012968
8.232941
7.753235
6.578880
5.062580
3.573411
2.251356
0.911759
-0.539871
-1.979806
-3.291103
-4.415873
-5.571400
-6.874160
-8.048632
-8.881041
-9.407408
-9.868752
-10.514640
-11.389610
-12.352070
-13.111500
-13.362000
-13.032450
-12.271020
-11.144970
-9.472311
-7.065831
-4.113338
-0.920759
2.389818
5.631748
8.563659
11.033520
13.036190
14.680310
15.978860
17.096029
18.207710
18.851721
18.537960
17.475870
16.112530
14.662070
13.150920
11.787580
10.920910
10.560830
10.338640
9.929218
9.517106
9.468691
9.793679
10.239590
10.570310
10.874950
11.235140
11.521180
11.779280
12.122630
12.660920
13.527950
14.678910
15.808480
16.485121
16.559490
16.423491
16.360920
16.030550
15.213350
14.271480
13.662780
13.279440
12.664780
11.846290
11.179350
11.088140
11.709230
12.647120
13.643370
14.617160
15.531440
16.276720
16.703449
16.992300
17.217190
17.240459
16.956289
16.468281
16.161530
16.080839
15.876070
15.522660
15.311700
15.286670
15.326670
15.272990
15.127280
14.994890
14.556590
13.518940
11.904290
10.035170
8.357136
6.869370
5.490479
4.213682
3.031141
1.981799
0.823115
-0.525019
-1.862628
-3.211113
-4.695019
-6.495845
-8.694983
-10.998440
-13.096650
-15.016640
-16.804489
-18.415390
-19.800949
-20.811581
-21.549030
-22.175619
-22.631941
-22.872021
-22.789459
-22.427521
-22.025471
-21.893320
-22.253151
-22.927219
-23.543289
-23.848740
-23.921129
-23.918680
-23.778690
-23.505859
-23.182631
-22.836821
-22.334551
-21.521549
-20.687969
-20.239611
-20.328369
-21.001499
-22.255850
-24.095961
-26.374981
-28.801920
-31.133789
-33.057869
-34.357941
-35.332321
-36.510300
-37.940182
-39.291710
-40.463371
-41.663689
-43.047489
-44.442051
-45.601200
-46.616169
-47.589020
-48.183922
-47.813911
-46.084068
-43.118359
-39.320240
-35.062069
-30.602751
-25.462811
-18.613380
-11.169060
-5.937670
-2.293451
2.486297
8.494311
14.448060
19.287340
23.293961
28.018160
33.578049
38.540581
41.496578
43.062111
45.410351
49.369160
54.011959
57.841888
60.493839
62.517792
64.027893
64.399071
62.607021
58.405441
52.410999
46.007591
40.130199
34.549969
29.057211
23.378870
18.533510
15.411680
12.092690
7.636525
3.532247
1.039930
-0.088466
-1.645930
-4.220576
-6.530811
-7.724462
-7.424734
-5.977314
-3.804255
-0.455905
3.415887
6.596773
9.289299
12.357920
16.385481
21.196569
26.035959
30.545919
34.867241
39.018532
42.772209
45.968880
48.665039
51.004040
53.171360
55.361149
57.480652
59.033199
59.603539
59.201248
58.061981
56.563099
54.751400
52.135010
48.488098
43.826809
38.295231
32.690090
27.790819
23.822790
20.774401
18.264771
15.819000
13.224470
10.530430
7.794517
4.578548
0.987890
-2.433550
-6.005731
-9.923950
-14.125170
-18.044910
-21.137390
-23.915640
-26.522671
-29.226080
-31.948891
-34.233398
-36.229870
-37.727581
-38.938770
-40.013611
-40.977112
-42.135681
-43.456100
-44.976959
-46.339710
-47.086750
-47.380630
-47.786079
-47.733452
-46.400871
-44.568119
-42.669060
-41.069149
-39.930229
-38.620209
-37.202610
-35.663979
-34.301338
-33.384499
-32.750900
-32.542740
-32.477711
-32.717098
-33.383450
-34.227200
-35.102650
-35.460850
-35.267891
-34.820110
-34.212700
-33.208382
-31.508711
-29.267010
-26.776449
-24.280390
-21.687380
-18.963390
-16.324200
-14.055130
-12.333590
-10.755780
-8.936356
-7.172952
-5.883641
-5.013692
-4.270278
-3.552941
-2.950561
-2.374727
-1.618097
-0.652605
0.282949
1.082848
2.015830
3.181648
4.495400
5.700278
6.693135
7.952859
9.658492
11.265770
12.463990
13.503970
14.644530
15.941680
17.061420
17.926220
18.805170
19.611620
20.280899
20.897779
21.615810
22.255270
22.519329
22.477461
22.118679
21.910400
22.044180
21.674990
20.489170
18.509769
16.030790
13.819600
11.891430
9.765262
7.252012
4.781446
2.877944
1.672014
0.917840
0.191967
0.067070
1.434851
4.242801
7.775104
11.080420
14.159090
17.679230
21.375380
24.470310
26.643370
28.260820
29.875940
31.540409
32.864101
33.420879
33.218559
32.632671
31.812420
30.612221
29.234970
28.088800
27.098869
25.988131
24.809330
23.620119
22.294910
20.806910
18.982349
16.762390
14.333690
11.818800
9.223342
6.494797
3.975232
1.979928
0.282949
-1.647450
-4.011129
-6.377263
-8.355376
-10.012010
-11.915040
-14.307370
-16.670931
-18.590811
-19.959290
-20.926310
-21.822330
-22.744789
-23.605730
-24.374411
-24.908960
-24.876801
-23.944639
-21.880100
-18.940010
-15.907170
-13.356380
-11.372890
-9.660592
-8.033078
-6.807384
-6.044089
-5.503338
-4.994046
-4.344654
-3.702630
-3.266428
-3.181760
-3.268650
-3.158488
-2.820636
-2.251234
-1.450282
-0.060750
2.095937
4.373427
6.306166
7.962214
9.577683
11.255950
12.914340
14.271360
15.088450
15.302580
14.781240
13.693890
12.314650
10.720580
8.949224
6.983508
4.992648
3.284559
2.024718
1.069166
0.224711
-0.598694
-1.460807
-2.414722
-3.722043
-5.359263
-7.076590
-8.915773
-10.980420
-13.294290
-15.728830
-18.101400
-20.322760
-22.482830
-24.385639
-25.417080
-25.363171
-24.565729
-23.756121
-23.322260
-22.652990
-20.951450
-18.100460
-14.620320
-11.087780
-7.702710
-4.146433
-0.263882
3.328764
6.203138
8.499691
10.527500
12.559300
14.197330
14.939580
15.046700
14.920280
14.773400
14.563490
14.087170
13.579280
13.277450
13.048590
12.781490
12.541050
12.627120
13.028710
13.259090
12.975970
12.270090
11.569600
11.008960
10.278060
9.158906
7.808550
6.595603
5.654552
4.835240
3.943657
2.990561
2.275213
1.890583
1.550860
1.122376
0.772244
0.727922
0.922752
1.107056
1.220024
1.302119
1.532265
1.797612
1.849535
1.888244
1.946482
2.053720
2.557984
3.495176
4.376351
4.744843
4.757823
4.896519
5.426043
6.142561
6.767745
7.527533
8.810411
10.654510
12.554030
13.867200
14.749900
15.896770
17.454121
19.042219
20.311300
21.134590
21.443090
20.932619
19.569639
17.914181
16.293440
14.510040
12.509240
10.581650
9.039389
8.052028
7.447309
6.901412
6.397616
5.960362
5.420430
4.669765
3.855481
3.113353
2.173939
0.846621
-0.711662
-2.519037
-4.694435
-7.033672
-9.059381
-10.650410
-12.290440
-14.364560
-16.653629
-18.640039
-20.211769
-21.770990
-23.646780
-25.603491
-27.129379
-28.095690
-28.670710
-29.059780
-29.199881
-28.796190
-27.765091
-26.233820
-24.526899
-22.953541
-21.607389
-20.335039
-19.003160
-17.698290
-16.478559
-15.405130
-14.489810
-13.501280
-12.007310
-10.613570
-10.465400
-10.604920
-9.914828
-9.091190
-8.641305
-8.811927
-9.109901
-8.473490
-7.221601
-6.049118
-5.335289
-4.792317
-3.808231
-2.523831
-1.328076
-0.649565
-0.269846
0.199919
0.782886
1.298494
1.389126
1.252067
1.145531
1.151495
1.119335
0.732132
-0.054084
-1.076996
-2.161655
-3.344780
-4.542407
-5.715241
-6.822704
-7.605997
-7.962443
-7.869356
-7.312350
-6.203952
-4.425696
-1.987875
1.067997
4.576560
7.951105
10.443770
12.190340
14.264460
16.952190
19.155890
20.085251
20.161381
20.180090
20.327320
20.081270
19.140921
17.999901
17.316120
17.146900
16.929621
16.296370
15.555990
15.055360
14.758080
14.220610
12.985910
11.134680
8.948289
6.454217
3.344902
-0.485024
-4.523111
-8.209312
-11.364240
-14.147160
-16.745430
-19.054380
-20.757200
-21.404140
-20.741070
-19.248039
-17.530479
-15.459630
-12.488420
-8.186743
-3.112412
1.032445
3.670826
5.886921
8.353745
10.899620
13.011870
14.376030
15.321520
16.339750
17.375530
17.907511
17.872431
17.674561
17.582991
17.590590
17.437981
16.904131
16.065519
15.204220
14.304220
12.907910
10.682810
7.825507
4.848104
2.095118
-0.381762
-2.718894
-4.955454
-6.938128
-8.641422
-10.102760
