EVENT_NAME: L_AQUILA
EVENT_ID: IT-2009-0009
EVENT_DATE_YYYYMMDD: 20090406
EVENT_TIME_HHMMSS: 013240
EVENT_LATITUDE_DEGREE: 42.3420
EVENT_LONGITUDE_DEGREE: 13.3800
EVENT_DEPTH_KM: 8.3
HYPOCENTER_REFERENCE: INGV-CNT_Seismic_Bulletin
MAGNITUDE_W: 6.1
MAGNITUDE_W_REFERENCE: INGV-CNT_Seismic_Bulletin
MAGNITUDE_L: 
MAGNITUDE_L_REFERENCE: 
FOCAL_MECHANISM: Normal faulting
NETWORK: IT
STATION_CODE: ORC
STATION_NAME: 
STATION_LATITUDE_DEGREE: 41.953606
STATION_LONGITUDE_DEGREE: 13.642346
STATION_ELEVATION_M: 732
LOCATION: 
SENSOR_DEPTH_M: 0.0
VS30_M/S: 767
SITE_CLASSIFICATION_EC8: B
MORPHOLOGIC_CLASSIFICATION: 
EPICENTRAL_DISTANCE_KM: 48.3
EARTHQUAKE_BACKAZIMUTH_DEGREE: 153.2
DATE_TIME_FIRST_SAMPLE_YYYYMMDD_HHMMSS: 20090406_013235.000
DATE_TIME_FIRST_SAMPLE_PRECISION: seconds
SAMPLING_INTERVAL_S: 0.005000
NDATA: 14200
DURATION_S: 71.000
STREAM: HNN
UNITS: cm/s^2
INSTRUMENT: sensor = FBA-3 [Kinemetrics] | digitizer = Everest [Kinemetrics]
INSTRUMENT_ANALOG/DIGITAL: D
INSTRUMENTAL_FREQUENCY_HZ: 212.000
INSTRUMENTAL_DAMPING: 0.000000
FULL_SCALE_G: 1.0
N_BIT_DIGITAL_CONVERTER: 24
PGA_CM/S^2: 40.442749
TIME_PGA_S: 26.320000
BASELINE_CORRECTION: BASELINE NOT REMOVED
FILTER_TYPE: 
FILTER_ORDER: 
LOW_CUT_FREQUENCY_HZ: 
HIGH_CUT_FREQUENCY_HZ: 
LATE/NORMAL_TRIGGERED: NT
DATABASE_VERSION: 0.5
HEADER_FORMAT: DYNA 1.2
DATA_TYPE: ACCELERATION
PROCESSING: converted to cm/s^2
DATA_TIMESTAMP_YYYYMMDD_HHMMSS: 20211011_160159.388
DATA_LICENSE: CC-BY3_0-IT (http://creativecommons.org/licenses/by/3.0/deed.en)
DATA_CITATION: Luzi L, Pacor F, Puglia R (2019). Italian Accelerometric Archive v 3.0 - Istituto Nazionale di Geofisica e Vulcanologia, Dipartimento della Protezione Civile Nazionale. doi: 10.13127/itaca.3.1
DATA_CREATOR: ITACA working group
ORIGINAL_DATA_MEDIATOR_CITATION: data obtained within the DPC-INGV data exchange agreements
ORIGINAL_DATA_MEDIATOR: Archive of Italian Department of Civil Protection
ORIGINAL_DATA_CREATOR_CITATION: Presidency Of Counsil Of Ministers-Civil Protection Department. (1972). Italian Strong Motion Network. Presidency of Counsil of Ministers - Civil Protection Department. https://doi.org/10.7914/SN/IT http://www.fdsn.org/networks/detail/IT/
ORIGINAL_DATA_CREATOR: network: IT (Italian Strong Motion Network (RAN)); owner: Presidency of Counsil of Ministers - Civil Protection Department (PCM - DPC)
USER1: 
USER2: 
USER3: 
USER4: 
USER5: 
[...]
1.982693
2.584255
2.904097
2.911815
2.454563
1.554092
0.584039
-0.035649
-0.342979
-0.604583
-0.942552
-1.309406
-1.596505
-1.771570
-1.924417
-2.222625
-2.754253
-3.327164
-3.700684
-3.971527
-4.334054
-4.509003
-4.004154
-2.996796
-2.120181
-1.636734
-1.338526
-0.946762
-0.315964
0.579595
1.534445
2.313762
2.814401
3.087700
3.317846
3.441690
3.197277
2.529057
1.744828
1.274010
1.251908
1.420425
1.489071
1.473284
1.516319
1.695478
1.981640
2.323469
2.671846
2.839076
2.652433
2.230381
2.008421
2.272949
2.770547
3.124303
3.333400
3.556997
3.760831
3.706686
3.267326
2.756981
2.551042
2.716402
3.115065
3.485778
3.572434
3.288727
2.766337
2.231083
1.946674
2.122324
2.509410
2.421936
1.750675
1.222204
1.299504
1.520646
1.050881
-0.178087
-1.427403
-2.127198
-2.462244
-3.124499
-4.403051
-5.795507
-6.568743
-6.630490
-6.581841
-6.787078
-6.896889
-6.318599
-5.075715
-4.072099
-4.143669
-4.771543
-4.535316
-2.923823
-0.822918
0.196953
-0.308831
-0.632182
0.565211
2.521105
3.570212
3.010633
1.787864
0.982936
0.846579
0.604621
-0.554297
-2.114100
-3.125669
-2.986739
-1.882083
-0.462730
0.826114
1.741671
2.555252
3.511389
4.344266
4.605754
4.240186
3.695225
3.527644
3.875554
4.086170
3.387311
1.711967
-0.209311
-1.674623
-2.493351
-2.920899
-3.262259
-3.369965
-3.214195
-2.971770
-3.012466
-3.726412
-4.872115
-5.885554
-6.134061
-5.508760
-4.623024
-3.830375
-2.962531
-1.745375
-0.320876
0.619941
0.741563
0.642394
1.135198
2.447780
3.924553
4.702701
4.630663
4.157272
3.921630
4.131077
4.399932
4.316083
3.753347
2.821534
1.799324
1.173204
1.164551
1.508484
1.750325
1.451181
0.571292
-0.427179
-0.785145
-0.420162
-0.265795
-0.671358
-1.148374
-1.259588
-0.989213
-0.746904
-0.688783
-0.833911
-1.076687
-1.200414
-1.314318
-1.326012
-1.133873
-0.795787
-0.316549
0.235077
0.824360
1.148295
0.929493
0.303840
-0.408584
-0.781520
-0.722112
-0.581779
-0.483897
-0.371162
-0.230946
-0.015651
0.075916
0.108543
0.330153
0.438326
0.183622
-0.090964
0.148655
0.655141
0.709871
0.239053
-0.312105
-0.348592
0.211104
0.939199
1.667996
2.362060
2.951343
3.242885
3.045366
2.565543
2.161968
2.164307
2.559696
2.750549
2.326977
1.385809
0.266535
-0.797073
-1.964645
-3.275708
-4.478480
-5.222013
-5.162137
-4.418956
-3.458258
-2.588543
-1.808057
-0.997516
-0.420980
-0.537106
-1.450324
-2.886634
-4.183547
-4.819958
-4.936083
-4.859953
-4.658107
-4.325634
-4.035144
-3.735533
-3.129294
-2.292323
-1.618958
-1.259588
-0.844904
-0.017289
1.042344
1.909954
2.339139
2.393986
2.226522
1.871245
1.432587
1.154727
1.286523
2.016607
3.246861
4.426712
4.910628
4.641305
4.287314
4.349529
4.518045
4.340992
3.923150
3.695225
3.976126
4.508222
4.571138
3.845265
2.746105
1.875338
1.257989
0.460780
-0.850634
-2.631228
-4.224010
-4.814695
-4.331131
-3.482115
-2.885348
-2.711686
-2.791208
-2.654266
-2.133162
-1.799988
-2.264724
-3.296992
-4.086132
-4.034326
-3.228813
-2.371963
-2.107668
-2.443532
-2.701512
-2.195727
-1.051193
-0.008869
0.402074
0.333077
0.390145
0.984807
1.784238
2.029354
1.548128
0.855116
0.453061
0.469550
0.704492
0.947268
1.153558
1.405690
1.737578
1.858498
1.410601
0.509312
-0.453374
-1.197140
-1.564462
-1.675793
-1.920557
-2.540128
-3.247642
-3.528191
-3.434635
-3.427385
-3.677178
-4.067070
-4.183781
-3.582570
-2.582579
-1.852145
-1.513708
-1.248712
-0.786782
-0.307077
-0.091314
-0.100670
-0.183584
-0.302399
-0.689485
-1.464007
-2.318285
-2.911076
-3.239923
-3.594732
-4.060755
-4.316629
-4.118058
-3.661391
-3.334882
-3.347629
-3.545265
-3.407738
-2.601875
-1.323557
-0.025124
0.898853
1.433055
1.858264
2.411411
2.865505
2.679915
1.804587
0.671279
-0.197266
-0.675334
-1.146269
-1.932603
-2.889558
-3.405282
-3.265651
-2.955749
-2.917274
-3.096432
-3.006385
-2.314192
-1.276428
-0.411742
0.125032
0.560416
1.105611
1.756289
2.384630
2.808320
2.928655
3.081852
3.588338
4.324035
4.907938
4.985940
4.632651
4.054361
3.224992
2.064905
0.618070
-0.855429
-2.037736
-2.745249
-2.999603
-3.145549
-3.597656
-4.282482
-4.782887
-4.792827
-4.291837
-3.497669
-2.615207
-1.833200
-1.240643
-0.903610
-0.947815
-1.217137
-1.529262
-1.833083
-2.055277
-2.176081
-2.124625
-2.004757
-1.958330
-1.832381
-1.474883
-0.844787
-0.231881
-0.036701
-0.160429
-0.334910
-0.411157
-0.398644
-0.476061
-0.541316
-0.363210
0.059310
0.549774
0.880610
1.122217
1.496322
2.153782
3.129566
4.311288
5.613931
6.809453
7.596605
7.853064
7.670163
7.372072
7.055737
6.265193
4.713226
2.789024
1.008313
-0.460508
-1.685032
-2.726187
-3.663963
-4.478831
-5.015723
-5.163891
-4.875155
-4.343293
-3.855167
-3.529594
-3.344939
-3.118418
-2.621171
-1.963827
-1.561655
-1.602235
-1.982187
-2.360502
-2.532176
-2.718001
-3.069067
-3.462819
-3.640691
-3.619524
-3.701035
-3.949424
-4.078297
-3.684312
-2.622340
-1.139720
0.303256
1.395516
2.111098
2.657111
3.240663
3.809480
4.336314
4.901506
5.484824
5.871793
5.740815
5.026987
3.895785
2.541687
1.405222
0.850555
0.519252
-0.350229
-1.796479
-2.955631
-3.427736
-3.631102
-4.232664
-5.326911
-5.992675
-5.753524
-5.069985
-4.640799
-4.874454
-5.425028
-5.642544
-5.167633
-4.349608
-3.743368
-3.357569
-3.079242
-2.858568
-2.512997
-1.875417
-1.055169
-0.482727
-0.423553
-0.575230
-0.452439
0.145615
0.921423
1.418671
1.689747
1.997779
2.502393
3.059750
3.142079
2.639218
1.901534
1.328974
1.119293
1.088186
1.105026
1.168994
1.291435
1.462057
1.552221
1.424752
1.189460
1.126544
1.178701
1.101985
0.748229
0.163273
-0.320525
-0.358766
0.182920
0.909261
1.149348
0.972645
1.153324
1.905276
2.603082
2.626588
2.011110
1.445919
1.351194
1.643788
2.021401
2.045375
1.628001
1.088537
0.935924
1.074620
0.861314
0.299513
-0.258545
-0.502374
-0.346838
0.018964
0.529309
1.008313
1.387914
1.632211
1.546023
1.259042
0.957559
0.741446
0.686599
0.713496
0.706830
0.405114
-0.248371
-0.718487
-0.549502
-0.053892
0.187832
0.071121
-0.200541
-0.292459
-0.117744
0.022472
-0.053892
-0.291523
-0.367420
-0.105465
0.430491
0.936509
0.902361
0.398448
-0.194459
-0.372332
0.076735
0.720747
1.360198
2.043153
3.026538
4.300412
5.440619
6.259931
6.656373
6.568430
5.803264
4.343565
2.472806
0.461014
-1.343437
-2.895054
-4.370190
-5.741947
-6.837481
-7.508040
-7.761107
-7.764148
-7.409689
-6.370756
-4.772946
-2.965104
-1.235615
0.375995
1.983044
3.359010
4.490798
5.640828
6.794835
7.569824
7.403413
6.423419
5.279470
4.310470
3.330359
1.740034
-0.285208
-1.896233
-2.793898
-3.197356
-3.613443
-4.064965
-3.969773
-3.109881
-1.756368
-0.436066
0.707415
2.067711
3.688209
5.119607
5.778121
5.505874
5.018099
5.031431
5.504237
5.922898
5.859631
5.494648
5.259356
5.305315
5.522597
5.631355
5.564113
5.577210
5.899859
6.476629
6.975981
6.955048
6.309515
5.416295
4.580494
3.959403
3.475370
2.820716
1.868321
0.674203
-0.426945
-1.113525
-1.402611
-1.453716
-1.408224
-1.253390
-0.922321
-0.297019
0.535156
1.203961
1.539123
1.634550
1.769854
2.072272
2.283591
2.175534
1.973454
2.031225
2.309435
2.544493
2.609397
2.693013
2.852525
3.063258
3.359244
3.700956
4.319591
4.931911
5.282744
5.857058
6.698589
7.653089
8.421179
8.639397
8.496959
8.247634
8.055611
7.769565
6.989313
5.616504
3.779542
1.724129
-0.115288
-1.013070
-0.795436
-0.371630
-0.549970
-1.450792
-2.514635
-3.042287
-3.225071
-3.596720
-4.378727
-5.447598
-6.386193
-7.097214
-7.785315
-8.604276
-9.502291
-10.185480
-10.391650
-10.013340
-9.183267
-8.338461
-7.708249
-6.893381
-5.560215
-3.743368
-1.849572
-0.425191
0.554218
1.320671
2.102561
2.806799
3.124303
3.170028
3.135413
3.253761
3.510453
3.674877
3.694875
3.500396
3.072731
2.455499
1.653612
0.535390
-0.978103
-2.733905
-4.434509
-5.835619
-6.955478
-7.843670
-8.342320
-8.108432
-6.820290
-4.602792
-2.393246
-1.023361
-0.210364
0.510715
1.091694
1.366046
1.291669
1.014277
0.675373
0.315067
0.002358
-0.464484
-1.268593
-1.930732
-2.115036
-1.954354
-1.600247
-1.148257
-0.519331
0.296824
1.110288
1.563915
1.662850
1.775585
1.942815
1.941646
1.335289
0.159648
-1.080546
-2.224847
-3.339443
-4.576597
-5.685229
-6.296497
-6.829412
-7.844372
-9.177888
-10.182090
-10.368730
-10.084910
-10.146650
-10.639220
-10.819080
-9.892652
-8.034406
-6.190896
-4.903807
-4.013627
-2.963935
-1.496868
0.187130
1.647414
2.469298
2.761542
2.963037
3.359128
3.795096
3.911572
3.610675
3.064077
2.532448
2.209448
2.102093
2.154952
2.318323
2.311891
2.212138
2.454329
2.962569
3.460167
3.544250
3.003383
2.308968
1.900130
1.694542
1.142682
-0.117276
-1.841269
-3.651216
-5.442686
-7.265731
-8.921546
-10.235060
-11.257630
-12.045710
-12.592540
-12.638740
-12.036590
-11.180560
-10.525550
-10.138820
-9.896159
-9.595846
-9.077900
-8.532706
-8.244672
-8.254145
-8.336707
-8.123283
-7.435184
-6.453436
-5.503497
-4.729677
-4.128115
-3.592160
-3.017846
-2.536035
-2.450081
-2.952591
-3.648761
-3.934689
-3.704543
-3.224720
-2.858100
-2.734022
-2.656722
-2.348924
-1.747597
-1.030260
-0.375957
0.212273
0.949724
1.941996
3.082554
4.253634
5.489034
6.930022
8.618464
10.543130
12.612000
14.505670
15.827730
16.487530
16.530331
15.880240
14.761780
13.650580
12.672570
11.575280
10.185520
8.697401
7.513457
6.790274
6.285425
5.637086
4.827246
4.244981
4.159378
4.366837
4.243694
3.345679
1.874753
0.201046
-1.478040
-2.998550
-4.269852
-5.023207
-4.994088
-4.457197
-3.724657
-2.939025
-1.895064
-0.154114
1.997311
3.926658
5.195738
5.849925
6.380267
6.991652
7.679284
7.944397
7.238989
5.816829
4.041147
2.389542
1.349673
0.869032
0.702854
0.512352
0.143510
-0.098799
-0.091431
0.046914
0.251800
0.455634
0.849152
1.731964
3.272589
5.226143
6.908154
7.832832
8.116656
8.504911
9.382695
10.288660
10.410050
9.456136
8.043566
6.670055
5.729823
5.232575
4.638498
3.881401
3.082554
2.376210
1.909720
1.746816
1.762019
1.663786
1.547777
1.416449
1.265006
1.071346
0.641108
0.304425
-0.025592
-0.703401
-1.588903
-2.693910
-3.771552
-4.622205
-5.486891
-6.325967
-7.104933
-7.732807
-8.048323
-8.273323
-8.438565
-8.527911
-8.639593
-8.806473
-9.171104
-9.676655
-10.319970
-11.164650
-11.984670
-12.595000
-13.072720
-13.428580
-13.606100
-13.543070
-13.064060
-12.410110
-12.118340
-12.475600
-13.328830
-14.183220
-14.704320
-14.930730
-15.003120
-15.064510
-15.241220
-15.233970
-14.655210
-13.456880
-11.866200
-10.107010
-8.052065
-5.671196
-3.196069
-0.825374
1.366747
3.301708
4.731001
5.464359
5.490087
4.875895
3.852633
2.781306
1.882238
1.056377
0.129944
-0.880572
-1.877522
-2.601290
-2.944054
-3.126838
-3.477671
-4.382820
-5.866843
-7.660652
-9.182448
-10.051110
-10.860010
-12.212240
-13.928630
-15.273730
-15.807690
-15.812720
-15.767230
-15.884410
-15.956560
-15.741850
-15.539070
-16.139351
-17.911989
-20.516689
-22.963869
-23.391769
-20.206909
-14.459680
-9.986674
-8.671285
-7.963538
-5.351002
-1.414539
2.147233
4.790526
7.071291
9.343519
11.691290
14.228280
16.858130
19.214199
20.643259
21.272890
21.871759
22.967770
24.849979
27.121281
29.282169
30.777420
31.175970
31.032480
30.837061
30.153179
28.464260
25.546040
21.450880
17.139030
13.472470
10.976530
10.374970
11.224680
12.110420
11.980960
10.932210
9.989519
9.880293
10.621950
11.873140
12.922600
12.891610
12.102230
11.920150
13.044690
14.678400
15.669150
16.203939
16.915661
17.939390
19.042999
19.957029
20.336870
20.015739
19.558140
19.475571
20.524561
22.613420
24.488741
25.640409
26.149120
26.644730
27.551630
28.472919
28.490459
27.146070
24.913950
22.472040
20.673550
19.083229
16.037760
10.190780
1.811019
-6.638442
-12.982790
-16.541401
-18.019461
-19.485121
-22.450010
-26.445419
-30.084261
-32.102249
-31.616699
-29.405041
-27.325769
-26.242050
-26.262630
-26.649250
-26.230471
-24.947830
-23.371189
-22.518539
-22.881540
-23.773590
-24.511860
-24.516190
-24.019409
-23.714300
-23.890770
-24.469761
-24.804340
-24.486370
-23.936609
-23.811600
-23.389080
-21.489321
-18.475901
-14.864660
-10.741780
-6.662065
-3.076084
0.072291
2.873341
5.565633
8.261316
10.757140
12.797350
13.862710
13.893940
13.317640
12.528030
11.824610
10.665930
8.461525
5.369283
1.851248
-1.512188
-4.863461
-8.582992
-12.475480
-16.128590
-18.961100
-20.829519
-21.854771
-22.057779
-21.682739
-21.168539
-20.861790
-20.230410
-19.076290
-18.127291
-17.449591
-16.603621
-14.919030
-12.361110
-10.035320
-8.669414
-8.030430
-7.364900
-6.019222
-3.827334
-1.514878
0.028086
0.791498
1.075205
1.399609
2.145713
2.784112
2.736282
2.287801
2.108759
2.681669
3.872162
4.975415
5.742218
6.491949
7.519655
8.787683
10.554480
13.334710
16.795799
20.497080
24.103760
27.113560
29.544479
31.907921
34.385620
36.756081
38.863659
40.144901
40.442749
40.100342
39.139641
37.751751
35.942501
33.725819
31.634041
30.161711
29.113770
28.092730
26.655140
24.320810
21.697281
19.631460
18.407749
17.600019
16.281010
13.976850
10.588270
6.958673
4.093070
2.272247
1.555612
1.360666
0.832429
-0.374086
-2.232682
-4.468189
-6.385491
-7.625218
-8.478444
-9.397275
-10.613850
-11.868190
-12.919640
-13.487750
-13.465890
-13.335370
-13.352570
-12.959980
-11.688570
-9.918028
-8.199649
-6.901216
-5.774925
-4.132325
-1.827937
0.739926
2.800251
3.725163
3.473733
2.799666
2.761776
3.395380
4.125113
4.403206
3.942914
3.056592
2.077418
1.257521
0.713847
0.167483
-0.807481
-2.143570
-3.536026
-4.715059
-5.260721
-5.552965
-5.980630
-6.477994
-7.124930
-7.608963
-7.664043
-7.143524
-6.351344
-5.883566
-5.773872
-5.848366
-5.749197
-5.404796
-5.159096
-5.586528
-6.935363
-8.397051
-9.417390
-9.917912
-10.107950
-10.550930
-11.238680
-12.000810
-12.724930
-13.224040
-13.316430
-12.918230
-12.350350
-11.962450
-11.975550
-12.391630
-12.917060
-13.434660
-13.969910
-14.305430
-14.440500
-14.731340
-15.312440
-15.935160
-16.176649
-15.913300
-15.254080
-14.283210
-13.039860
-11.510690
-9.765767
-7.922958
-6.238025
-5.137929
-5.071154
-5.972327
-7.082713
-7.763563
-7.962252
-8.050778
-8.373311
-8.840386
-8.961424
-8.420673
-7.417642
-6.392508
-5.606525
-4.889657
-3.963925
-2.677070
-1.144866
0.390028
1.693607
2.658748
3.618627
4.629260
5.521895
6.150354
6.258762
5.954823
5.320985
4.448814
3.515833
2.445792
1.170164
-0.298657
-1.650299
-2.353836
-2.066738
-0.822333
0.849152
2.597703
4.574881
6.687246
8.652963
10.221300
10.955010
10.792690
10.112080
9.173248
8.178052
7.205777
6.234437
5.150831
3.757908
2.190152
0.579946
-1.065461
-2.440141
-3.390898
-4.248919
-5.289021
-6.377305
-7.159078
-7.692929
-8.610474
-9.810088
-10.615600
-11.071100
-11.339490
-11.516890
-11.809600
-12.102080
-12.315500
-12.393270
-12.235750
-12.079630
-12.122430
-12.364850
-12.647160
-12.880460
-13.267550
-13.579550
-13.556050
-13.203110
-12.244400
-10.554910
-8.234732
-5.633306
-3.092807
-0.443551
2.491635
5.479211
8.112797
10.123070
11.305030
12.064930
13.253900
14.990990
16.832399
18.282391
19.343540
20.390200
21.459070
22.476601
23.220369
23.146219
21.968121
19.894470
17.166630
14.254710
11.501960
8.693074
5.875769
3.298083
1.373647
0.317757
-0.371864
-0.970034
-1.392788
-1.560954
-1.599545
-1.857992
-2.372898
-3.015156
-3.733194
-4.495437
-5.234057
-5.762178
-5.900406
-5.560566
-4.971050
-4.369605
-3.616250
-2.607956
-1.294905
0.274604
1.905159
3.415495
4.352803
4.207675
3.622135
3.895902
4.567981
4.606222
3.977763
2.773470
1.871830
1.894166
2.359721
3.056359
3.748903
4.244162
4.892501
5.916699
7.287404
8.817269
9.991508
10.683930
11.274390
12.013710
12.840860
13.426040
13.651630
13.614680
13.362900
12.854770
11.944130
10.595520
8.858667
6.678943
4.021266
0.994747
-2.252445
-5.555304
-8.726600
-11.653480
-14.408340
-17.067419
-19.566641
-21.686489
-23.174480
-23.932171
-24.012739
-23.431179
-22.049950
-20.325840
-18.800880
-17.265989
-15.423070
-12.949580
-9.902708
-6.804386
-3.935391
-1.367411
0.986912
3.263467
5.386123
7.204724
8.676001
9.814921
10.780410
11.660190
12.413770
12.949850
12.972650
12.303730
10.914550
9.029640
7.050475
5.092827
3.162778
1.258106
-0.548684
-2.150236
-3.610871
-5.029990
-6.365611
-7.381623
-7.939213
-7.992891
-7.755611
-7.888343
-8.575624
-9.238699
-9.404408
-9.643910
-10.442520
-11.053560
-11.143490
-11.048530
-10.997780
-10.669280
-9.445106
-7.521255
-5.309253
-3.024980
-0.704804
1.969361
4.984303
8.137004
11.649540
15.242890
18.212811
20.535681
22.222601
23.390869
24.420561
25.318930
26.022470
26.402651
26.350380
26.151569
26.055099
25.991711
25.745190
25.189360
24.563000
23.972080
23.359180
22.726860
21.777149
20.311960
18.403549
16.477119
15.196110
14.854640
15.499940
16.633480
17.041031
16.197861
14.882700
13.873360
13.613970
14.260090
15.077880
15.062100
13.885870
12.366300
11.599840
11.919690
12.924820
13.570940
13.191100
11.813030
9.915026
8.486901
7.960185
8.046606
8.161328
7.473696
5.908864
4.231766
2.957307
2.150508
1.510823
0.450138
-1.424480
-3.965446
-6.641833
-8.922832
-10.539470
-11.771130
-13.200070
-14.652870
-15.319450
-15.236190
-14.757530
-13.698250
-12.358540
-10.896030
-9.056967
-7.060026
-4.785576
-2.276887
0.036038
2.297858
4.564122
6.780334
8.772480
10.061560
10.363390
9.864155
9.263529
8.794699
8.155715
7.291029
6.335126
5.402612
4.718020
4.255857
3.314689
1.838267
-0.014131
-2.365881
-4.476843
-6.052668
-7.456818
-9.073339
-10.860010
-11.930050
-12.266150
-12.577340
-13.376540
-14.698130
-15.910610
-16.596479
-16.748510
-16.846510
-17.282360
-18.011980
-18.690140
-18.697149
-18.000050
-17.065201
-16.542810
-16.678930
-16.918200
-16.453699
-14.835770
-12.601550
-10.922110
-10.496080
-10.693490
-10.390480
-8.719466
-5.906253
-3.233140
-1.107561
0.467913
1.943517
3.792523
5.665153
7.176424
7.610638
7.108596
6.571822
6.333021
6.317585
6.011775
5.192814
4.074242
2.960815
2.215646
2.035669
2.346740
2.713361
2.961400
3.214818
3.439585
3.658271
3.555126
2.652667
1.179169
-0.311988
-1.371738
-1.770752
-2.072234
-2.876577
-4.082624
-5.665465
-7.581364
-9.465337
-11.312710
-13.492780
-15.983230
-18.451340
-20.257660
-21.009380
-21.295660
-21.668711
-22.532110
-23.822590
-24.699909
-24.808430
-24.568110
-24.524490
-24.767851
-25.024660
