EVENT_NAME: L_AQUILA
EVENT_ID: IT-2009-0009
EVENT_DATE_YYYYMMDD: 20090406
EVENT_TIME_HHMMSS: 013240
EVENT_LATITUDE_DEGREE: 42.3420
EVENT_LONGITUDE_DEGREE: 13.3800
EVENT_DEPTH_KM: 8.3
HYPOCENTER_REFERENCE: INGV-CNT_Seismic_Bulletin
MAGNITUDE_W: 6.1
MAGNITUDE_W_REFERENCE: INGV-CNT_Seismic_Bulletin
MAGNITUDE_L: 
MAGNITUDE_L_REFERENCE: 
FOCAL_MECHANISM: Normal faulting
NETWORK: IT
STATION_CODE: ORC
STATION_NAME: 
STATION_LATITUDE_DEGREE: 41.953606
STATION_LONGITUDE_DEGREE: 13.642346
STATION_ELEVATION_M: 732
LOCATION: 
SENSOR_DEPTH_M: 0.0
VS30_M/S: 767
SITE_CLASSIFICATION_EC8: B
MORPHOLOGIC_CLASSIFICATION: 
EPICENTRAL_DISTANCE_KM: 48.3
EARTHQUAKE_BACKAZIMUTH_DEGREE: 153.2
DATE_TIME_FIRST_SAMPLE_YYYYMMDD_HHMMSS: 
DATE_TIME_FIRST_SAMPLE_PRECISION: 
SAMPLING_INTERVAL_S: 
NDATA: 105
DURATION_S: 
STREAM: HNN
UNITS: cm/s^2
INSTRUMENT: sensor = FBA-3 [Kinemetrics] | digitizer = Everest [Kinemetrics]
INSTRUMENT_ANALOG/DIGITAL: D
INSTRUMENTAL_FREQUENCY_HZ: 212.000
INSTRUMENTAL_DAMPING: 0.000000
FULL_SCALE_G: 1.0
N_BIT_DIGITAL_CONVERTER: 24
PGA_CM/S^2: 40.429103
TIME_PGA_S: 
BASELINE_CORRECTION: BASELINE REMOVED
FILTER_TYPE: BUTTERWORTH
FILTER_ORDER: 2
LOW_CUT_FREQUENCY_HZ: 0.080
HIGH_CUT_FREQUENCY_HZ: 35.000
LATE/NORMAL_TRIGGERED: NT
DATABASE_VERSION: 0.5
HEADER_FORMAT: DYNA 1.2
DATA_TYPE: ACCELERATION RESPONSE SPECTRUM
PROCESSING: manual (Paolucci et al., 2011)
DATA_TIMESTAMP_YYYYMMDD_HHMMSS: 20211011_160200.653
DATA_LICENSE: CC-BY3_0-IT (http://creativecommons.org/licenses/by/3.0/deed.en)
DATA_CITATION: Luzi L, Pacor F, Puglia R (2019). Italian Accelerometric Archive v 3.0 - Istituto Nazionale di Geofisica e Vulcanologia, Dipartimento della Protezione Civile Nazionale. doi: 10.13127/itaca.3.1
DATA_CREATOR: ITACA working group
ORIGINAL_DATA_MEDIATOR_CITATION: data obtained within the DPC-INGV data exchange agreements
ORIGINAL_DATA_MEDIATOR: Archive of Italian Department of Civil Protection
ORIGINAL_DATA_CREATOR_CITATION: Presidency Of Counsil Of Ministers-Civil Protection Department. (1972). Italian Strong Motion Network. Presidency of Counsil of Ministers - Civil Protection Department. https://doi.org/10.7914/SN/IT http://www.fdsn.org/networks/detail/IT/
ORIGINAL_DATA_CREATOR: network: IT (Italian Strong Motion Network (RAN)); owner: Presidency of Counsil of Ministers - Civil Protection Department (PCM - DPC)
USER1: 
USER2: 
USER3: 
USER4: 
USER5: 
    0.010000    40.435364
    0.020000    40.703938
    0.022000    40.770706
    0.025000    41.008160
    0.029000    41.153679
    0.030000    40.987854
    0.032000    42.883812
    0.035001    43.836315
    0.036000    43.739334
    0.040000    43.357143
    0.041999    43.956081
    0.044001    43.825096
    0.045000    43.317375
    0.046000    42.581089
    0.048001    40.893913
    0.050000    40.680027
    0.054999    42.274570
    0.059999    42.415871
    0.064998    46.482929
    0.067002    46.289089
    0.069999    44.881451
    0.075002    47.765892
    0.080000    48.995140
    0.084998    50.119232
    0.090001    53.680580
    0.095003    54.984478
    0.100000    60.077641
    0.109999    65.746223
    0.120005    67.906158
    0.130005    83.449684
    0.132996    87.196678
    0.139997    95.765327
    0.149993    93.256989
    0.160000    85.745453
    0.170010    68.835670
    0.179986    73.743385
    0.190006    85.882439
    0.200000    91.393661
    0.220022   115.033417
    0.239981   117.674805
    0.250000   119.566406
    0.260010   122.707870
    0.280034   117.824051
    0.290023   111.299896
    0.300030   115.774361
    0.320000   106.404068
    0.340020    98.504959
    0.350017   102.301750
    0.359971    98.227203
    0.379939    76.835533
    0.400000    65.192871
    0.419992    63.302628
    0.439947    71.142113
    0.450045    73.513268
    0.459982    73.633957
    0.480077    71.855515
    0.500000    70.781425
    0.550055    67.957466
    0.599880    66.810555
    0.650195    74.736549
    0.667111    80.038177
    0.699790    87.551842
    0.750188    87.056023
    0.800000    84.313736
    0.850340    78.161209
    0.900090    67.840851
    0.949668    60.640408
    1.000000    70.994156
    1.100110    64.064995
    1.200480    64.068588
    1.300390    46.473476
    1.400560    37.329304
    1.499250    35.728474
    1.600000    30.982384
    1.700680    26.661047
    1.798561    21.778416
    1.901141    19.292944
    2.000000    18.183615
    2.197802    16.783381
    2.398082    14.662379
    2.500000    13.740245
    2.597403    12.353717
    2.801121     9.512462
    3.003003     8.667579
    3.205128     7.441607
    3.401361     7.975541
    3.496503     8.078873
    3.597122     8.168583
    3.802281     7.726991
    4.000000     6.364306
    4.201681     4.769318
    4.405286     3.235985
    4.608295     2.919141
    4.807692     2.823019
    5.000000     2.870679
    5.494505     2.652125
    5.988024     2.120152
    6.493506     1.938262
    6.993007     1.671152
    7.518797     1.239705
    8.000000     1.176580
    8.474576     0.986170
    9.009009     0.914483
    9.523809     0.831463
   10.000000     0.743939
