EVENT_NAME: L_AQUILA
EVENT_ID: IT-2009-0009
EVENT_DATE_YYYYMMDD: 20090406
EVENT_TIME_HHMMSS: 013240
EVENT_LATITUDE_DEGREE: 42.3420
EVENT_LONGITUDE_DEGREE: 13.3800
EVENT_DEPTH_KM: 8.3
HYPOCENTER_REFERENCE: INGV-CNT_Seismic_Bulletin
MAGNITUDE_W: 6.1
MAGNITUDE_W_REFERENCE: INGV-CNT_Seismic_Bulletin
MAGNITUDE_L: 
MAGNITUDE_L_REFERENCE: 
FOCAL_MECHANISM: Normal faulting
NETWORK: IT
STATION_CODE: ORC
STATION_NAME: 
STATION_LATITUDE_DEGREE: 41.953606
STATION_LONGITUDE_DEGREE: 13.642346
STATION_ELEVATION_M: 732
LOCATION: 
SENSOR_DEPTH_M: 0.0
VS30_M/S: 767
SITE_CLASSIFICATION_EC8: B
MORPHOLOGIC_CLASSIFICATION: 
EPICENTRAL_DISTANCE_KM: 48.3
EARTHQUAKE_BACKAZIMUTH_DEGREE: 153.2
DATE_TIME_FIRST_SAMPLE_YYYYMMDD_HHMMSS: 20090406_013235.000
DATE_TIME_FIRST_SAMPLE_PRECISION: seconds
SAMPLING_INTERVAL_S: 0.005000
NDATA: 14200
DURATION_S: 71.000
STREAM: HNN
UNITS: cm/s^2
INSTRUMENT: sensor = FBA-3 [Kinemetrics] | digitizer = Everest [Kinemetrics]
INSTRUMENT_ANALOG/DIGITAL: D
INSTRUMENTAL_FREQUENCY_HZ: 212.000
INSTRUMENTAL_DAMPING: 0.000000
FULL_SCALE_G: 1.0
N_BIT_DIGITAL_CONVERTER: 24
PGA_CM/S^2: 40.429104
TIME_PGA_S: 26.320000
BASELINE_CORRECTION: BASELINE REMOVED
FILTER_TYPE: BUTTERWORTH
FILTER_ORDER: 2
LOW_CUT_FREQUENCY_HZ: 0.080
HIGH_CUT_FREQUENCY_HZ: 35.000
LATE/NORMAL_TRIGGERED: NT
DATABASE_VERSION: 0.5
HEADER_FORMAT: DYNA 1.2
DATA_TYPE: ACCELERATION
PROCESSING: manual (Paolucci et al., 2011)
DATA_TIMESTAMP_YYYYMMDD_HHMMSS: 20211011_160159.508
DATA_LICENSE: CC-BY3_0-IT (http://creativecommons.org/licenses/by/3.0/deed.en)
DATA_CITATION: Luzi L, Pacor F, Puglia R (2019). Italian Accelerometric Archive v 3.0 - Istituto Nazionale di Geofisica e Vulcanologia, Dipartimento della Protezione Civile Nazionale. doi: 10.13127/itaca.3.1
DATA_CREATOR: ITACA working group
ORIGINAL_DATA_MEDIATOR_CITATION: data obtained within the DPC-INGV data exchange agreements
ORIGINAL_DATA_MEDIATOR: Archive of Italian Department of Civil Protection
ORIGINAL_DATA_CREATOR_CITATION: Presidency Of Counsil Of Ministers-Civil Protection Department. (1972). Italian Strong Motion Network. Presidency of Counsil of Ministers - Civil Protection Department. https://doi.org/10.7914/SN/IT http://www.fdsn.org/networks/detail/IT/
ORIGINAL_DATA_CREATOR: network: IT (Italian Strong Motion Network (RAN)); owner: Presidency of Counsil of Ministers - Civil Protection Department (PCM - DPC)
USER1: 
USER2: 
USER3: 
USER4: 
USER5: 
[...]
2.937276
2.841051
2.339944
1.557222
0.729596
0.071010
-0.368342
-0.684445
-0.981110
-1.276763
-1.533652
-1.744879
-1.974165
-2.304265
-2.749995
-3.242556
-3.705839
-4.100469
-4.352140
-4.302935
-3.842975
-3.083974
-2.308019
-1.720691
-1.295053
-0.846863
-0.218296
0.599629
1.474249
2.238293
2.802511
3.175904
3.380120
3.366032
3.057448
2.489938
1.866320
1.430716
1.282207
1.328367
1.415959
1.479410
1.562135
1.735166
2.020063
2.361567
2.637706
2.716034
2.561399
2.309716
2.190127
2.334148
2.677842
3.064111
3.391863
3.625361
3.710035
3.572475
3.231940
2.860716
2.681410
2.796712
3.113997
3.410111
3.471730
3.222185
2.767982
2.340474
2.147783
2.204936
2.295086
2.175473
1.851820
1.560583
1.431298
1.266419
0.756889
-0.133717
-1.116924
-1.923262
-2.603533
-3.420280
-4.477788
-5.551587
-6.319944
-6.694909
-6.834769
-6.848505
-6.616896
-6.000828
-5.172246
-4.573085
-4.435309
-4.420093
-3.910366
-2.711541
-1.338702
-0.478684
-0.200471
0.116628
0.997301
2.195511
2.958636
2.854197
2.154595
1.417182
0.848629
0.190070
-0.817238
-1.987187
-2.773833
-2.741074
-1.898695
-0.626227
0.661313
1.775682
2.744899
3.595830
4.203246
4.399852
4.215125
3.932455
3.844798
3.931874
3.813622
3.080400
1.687523
0.012727
-1.456399
-2.459248
-3.017789
-3.255582
-3.255914
-3.107313
-3.007650
-3.225474
-3.895363
-4.839835
-5.632441
-5.892505
-5.547175
-4.798372
-3.854866
-2.771391
-1.575832
-0.459177
0.300696
0.651165
0.913717
1.515641
2.556932
3.684340
4.413287
4.559410
4.355605
4.183771
4.218741
4.313766
4.179349
3.645114
2.798024
1.940018
1.401108
1.309867
1.485307
1.554895
1.233416
0.559978
-0.123094
-0.485709
-0.530043
-0.539880
-0.716217
-0.967555
-1.079652
-0.986484
-0.818686
-0.745053
-0.826484
-1.006056
-1.188162
-1.298023
-1.283566
-1.107779
-0.757511
-0.254936
0.321694
0.814662
1.023102
0.829892
0.319779
-0.249408
-0.624155
-0.722915
-0.635721
-0.486956
-0.334581
-0.183694
-0.036799
0.100121
0.225418
0.308370
0.291286
0.196045
0.169693
0.313544
0.500904
0.485975
0.205216
-0.110822
-0.146959
0.225838
0.902547
1.689509
2.417056
2.938588
3.130886
2.975214
2.631568
2.370833
2.369138
2.538394
2.579328
2.230123
1.457034
0.404851
-0.785567
-2.054201
-3.326192
-4.405572
-5.022520
-5.011195
-4.440578
-3.554038
-2.584876
-1.663385
-0.904346
-0.513894
-0.719936
-1.563931
-2.782900
-3.935574
-4.680756
-4.950697
-4.884303
-4.654466
-4.366101
-4.032621
-3.596028
-3.015541
-2.360616
-1.759222
-1.231837
-0.643617
0.129827
1.025294
1.819771
2.309080
2.428312
2.233991
1.845903
1.438000
1.241415
1.478173
2.218140
3.261449
4.200758
4.695302
4.730896
4.574030
4.456405
4.371430
4.211476
4.013994
3.965459
4.153585
4.384739
4.319088
3.796756
2.975954
2.117620
1.277984
0.267728
-1.081208
-2.624964
-3.903945
-4.473694
-4.271925
-3.655123
-3.081023
-2.761972
-2.590521
-2.369001
-2.110312
-2.080046
-2.493870
-3.200547
-3.737461
-3.729277
-3.225682
-2.643523
-2.368151
-2.393739
-2.352031
-1.903383
-1.088326
-0.274014
0.230262
0.465045
0.718522
1.160435
1.625200
1.788061
1.522754
1.031403
0.640090
0.529109
0.664316
0.923540
1.228332
1.541250
1.769322
1.736529
1.308286
0.541514
-0.321137
-1.018455
-1.451878
-1.738638
-2.083014
-2.560751
-3.038726
-3.340202
-3.462376
-3.570222
-3.776124
-3.970589
-3.900917
-3.431684
-2.705568
-2.005345
-1.482476
-1.080692
-0.700747
-0.350840
-0.110842
-0.023064
-0.085187
-0.322024
-0.783833
-1.445991
-2.165243
-2.788306
-3.279350
-3.687997
-4.005534
-4.126775
-3.989398
-3.704496
-3.488525
-3.447380
-3.437247
-3.161009
-2.427564
-1.328218
-0.162900
0.802755
1.514028
2.074512
2.530184
2.739611
2.500994
1.800150
0.878368
0.026893
-0.663366
-1.315782
-2.035905
-2.717578
-3.135861
-3.215419
-3.123071
-3.057482
-3.003607
-2.755607
-2.172037
-1.352442
-0.537250
0.126215
0.677027
1.227154
1.806903
2.332302
2.710415
2.971308
3.273914
3.747523
4.332532
4.805299
4.956282
4.717551
4.123849
3.211337
2.008394
0.614097
-0.761480
-1.872736
-2.585591
-2.978185
-3.288623
-3.715107
-4.235246
-4.624112
-4.646559
-4.230060
-3.486161
-2.617096
-1.817391
-1.229679
-0.934721
-0.936792
-1.158354
-1.477730
-1.783810
-2.002992
-2.105075
-2.106878
-2.050481
-1.942230
-1.720317
-1.323450
-0.804053
-0.340192
-0.099369
-0.098384
-0.219723
-0.344844
-0.434498
-0.482471
-0.441556
-0.246539
0.095747
0.487534
0.836673
1.160955
1.585614
2.247357
3.202216
4.392051
5.654366
6.763114
7.516613
7.842945
7.821476
7.559222
7.029891
6.084794
4.658984
2.919129
1.165304
-0.380005
-1.666202
-2.751328
-3.686614
-4.443449
-4.923023
-5.037947
-4.804785
-4.367562
-3.917916
-3.569047
-3.288076
-2.950531
-2.487311
-1.993641
-1.672282
-1.653826
-1.885148
-2.202929
-2.498214
-2.777562
-3.070058
-3.338384
-3.527312
-3.661183
-3.815835
-3.971451
-3.938008
-3.473243
-2.491334
-1.160829
0.198679
1.324327
2.145578
2.756791
3.291088
3.831881
4.410320
5.012691
5.546064
5.826142
5.658091
4.968303
3.883047
2.693767
1.695612
0.964427
0.288310
-0.588848
-1.646489
-2.608518
-3.298953
-3.853889
-4.499131
-5.190798
-5.611511
-5.549690
-5.182615
-4.919142
-4.994852
-5.257575
-5.343764
-5.038416
-4.444404
-3.829120
-3.372521
-3.067225
-2.776532
-2.349849
-1.748322
-1.110516
-0.657263
-0.477886
-0.419073
-0.223083
0.222879
0.802058
1.331719
1.763891
2.184133
2.630506
2.967921
2.985149
2.615877
2.029153
1.493191
1.175027
1.075093
1.112050
1.219440
1.356829
1.471717
1.500262
1.427042
1.317883
1.246567
1.186951
1.017595
0.656503
0.190584
-0.139843
-0.120235
0.235477
0.677787
0.976743
1.173123
1.486377
1.969969
2.374058
2.409229
2.080408
1.693473
1.553030
1.694537
1.892052
1.891810
1.646148
1.329027
1.113556
0.966323
0.716905
0.302728
-0.131383
-0.368579
-0.295848
0.048456
0.538174
1.033312
1.413395
1.589151
1.531275
1.301738
1.031098
0.841627
0.771270
0.742087
0.604503
0.268709
-0.163215
-0.439804
-0.401211
-0.154518
0.042796
0.047740
-0.062676
-0.128346
-0.099026
-0.067605
-0.126297
-0.226182
-0.202424
0.058310
0.471513
0.778291
0.748460
0.395209
-0.010606
-0.153717
0.089764
0.626015
1.323161
2.159249
3.173239
4.319831
5.426506
6.277833
6.692390
6.534238
5.730686
4.330426
2.528859
0.597391
-1.245061
-2.911582
-4.404386
-5.708251
-6.751651
-7.462064
-7.810378
-7.769473
-7.265331
-6.237963
-4.756077
-3.021419
-1.249028
0.429494
1.961666
3.345578
4.624205
5.821985
6.822342
7.364250
7.249559
6.551268
5.544490
4.416665
3.119031
1.557414
-0.134043
-1.622525
-2.677940
-3.343828
-3.771722
-3.959090
-3.736276
-3.000341
-1.868764
-0.557368
0.830175
2.300548
3.762957
4.928399
5.509113
5.521095
5.320695
5.288882
5.500076
5.731112
5.759747
5.597042
5.429196
5.394516
5.465052
5.535702
5.588330
5.731867
6.067755
6.526973
6.859153
6.806080
6.306023
5.533056
4.741226
4.067030
3.451541
2.727278
1.790381
0.715562
-0.281657
-0.999884
-1.379682
-1.493140
-1.431453
-1.214376
-0.802186
-0.191808
0.505383
1.107931
1.504750
1.735896
1.914463
2.081227
2.175563
2.159055
2.110891
2.151026
2.302629
2.485751
2.630395
2.745042
2.882208
3.087735
3.392170
3.807798
4.303315
4.820278
5.361051
6.010423
6.809928
7.642281
8.285126
8.587022
8.582139
8.418033
8.169803
7.731943
6.892800
5.516898
3.688853
1.748004
0.184396
-0.632674
-0.752966
-0.648961
-0.831862
-1.439001
-2.207837
-2.829247
-3.272688
-3.753100
-4.450249
-5.330701
-6.232473
-7.060996
-7.857382
-8.684858
-9.485805
-10.066942
-10.226508
-9.912172
-9.269383
-8.509995
-7.701149
-6.704673
-5.357784
-3.700300
-1.996577
-0.531699
0.594774
1.467407
2.184430
2.737212
3.067494
3.197254
3.251866
3.354582
3.522713
3.670633
3.690361
3.515598
3.127705
2.518522
1.650861
0.472354
-1.009705
-2.672901
-4.323352
-5.801862
-7.026132
-7.910237
-8.264569
-7.839719
-6.545427
-4.651008
-2.698002
-1.137020
-0.070381
0.637596
1.099655
1.320693
1.292342
1.072088
0.755333
0.395661
-0.036421
-0.594711
-1.232479
-1.770230
-2.028544
-1.960273
-1.627361
-1.097916
-0.416427
0.336117
1.013336
1.490877
1.771293
1.939742
2.000429
1.810954
1.219635
0.240664
-0.954780
-2.198462
-3.407797
-4.520644
-5.460529
-6.244919
-7.048125
-8.020961
-9.055054
-9.841893
-10.209066
-10.321264
-10.458853
-10.617144
-10.434103
-9.570679
-8.104741
-6.477618
-5.071963
-3.903559
-2.719095
-1.332193
0.160968
1.464091
2.348680
2.842656
3.162603
3.474753
3.742679
3.804913
3.568881
3.113773
2.631020
2.291678
2.156279
2.168864
2.221242
2.261218
2.358907
2.621447
3.019901
3.341583
3.353632
3.022237
2.540154
2.099635
1.656319
0.961095
-0.185824
-1.759606
-3.575609
-5.446061
-7.237303
-8.847128
-10.207013
-11.293467
-12.083764
-12.500362
-12.453621
-11.976300
-11.281330
-10.634040
-10.164887
-9.815245
-9.449334
-9.015355
-8.606515
-8.359553
-8.289650
-8.232114
-7.955956
-7.346658
-6.488309
-5.577141
-4.764657
-4.077274
-3.467847
-2.939045
-2.611376
-2.635465
-3.003647
-3.472473
-3.726611
-3.631547
-3.310105
-2.983605
-2.757743
-2.555003
-2.229003
-1.719899
-1.090945
-0.430035
0.256595
1.039617
1.974430
3.047748
4.223331
5.513927
6.987309
8.703876
10.639860
12.641150
14.445379
15.779373
16.463158
16.454964
15.858247
14.896252
13.800163
12.665910
11.449268
10.124274
8.808176
7.689040
6.841149
6.159009
5.502682
4.885729
4.467379
4.333497
4.310754
4.039641
3.243643
1.914663
0.260345
-1.458872
-3.015313
-4.205326
-4.861128
-4.935396
-4.545781
-3.863747
-2.936952
-1.661163
0.026861
1.944738
3.714230
5.039475
5.918943
6.576495
7.189646
7.674499
7.725604
7.081242
5.768934
4.122221
2.591496
1.500368
0.898625
0.604331
0.393241
0.173856
0.000867
-0.051740
0.013360
0.156727
0.414285
0.947820
1.947872
3.434704
5.138856
6.629957
7.638734
8.270855
8.854690
9.542685
10.094790
10.096330
9.372254
8.157372
6.891842
5.887414
5.158828
4.524048
3.833937
3.099548
2.447203
1.998509
1.776481
1.697179
1.648326
1.567530
1.441986
1.264898
1.024724
0.725983
0.370619
-0.093634
-0.751938
-1.629191
-2.645736
-3.673869
-4.633393
-5.520836
-6.347602
-7.080489
-7.657538
-8.049033
-8.284238
-8.420813
-8.515741
-8.629233
-8.828612
-9.171959
-9.688965
-10.368771
-11.147012
-11.916939
-12.584551
-13.105833
-13.453642
-13.569908
-13.391331
-12.958142
-12.493844
-12.315781
-12.608931
-13.278049
-14.029850
-14.601022
-14.918521
-15.078661
-15.199168
-15.268754
-15.116392
-14.538860
-13.459193
-11.945807
-10.101075
-7.985548
-5.656102
-3.219228
-0.816001
1.408791
3.297544
4.674338
5.393849
5.416133
4.849427
3.926058
2.901269
1.925083
0.996334
0.047593
-0.924525
-1.809732
-2.463119
-2.851801
-3.141583
-3.632397
-4.567323
-5.944885
-7.494778
-8.888256
-10.034519
-11.143575
-12.437863
-13.838073
-15.007508
-15.688835
-15.924487
-15.938249
-15.874318
-15.728449
-15.550987
-15.657731
-16.531260
-18.400099
-20.804007
-22.535526
-22.232292
-19.443766
-15.239655
-11.421210
-8.893386
-7.028226
-4.711375
-1.625829
1.686018
4.640130
7.138782
9.443342
11.826875
14.359214
16.849470
18.942045
20.380665
21.268776
22.055956
23.231197
24.987003
27.101702
29.088724
30.501234
31.192974
31.308172
30.978985
30.062263
28.219219
25.246313
21.356890
17.205532
13.654251
11.419717
10.717928
11.079957
11.602180
11.573311
10.956624
10.296394
10.186623
10.791570
11.744053
12.440769
12.552489
12.347516
12.442540
13.175521
14.311402
15.400247
16.276398
17.103867
18.049475
19.039062
19.796707
20.072395
19.889002
19.627806
19.837870
20.845045
22.463102
24.131533
25.397896
26.252377
26.986532
27.751732
28.282097
28.083017
26.907097
25.032188
23.031420
21.166582
18.921289
15.223139
9.348159
1.756043
-5.976002
-12.148889
-16.046389
-18.300097
-20.288383
-23.043312
-26.511595
-29.689613
-31.418423
-31.227152
-29.657722
-27.842735
-26.692606
-26.351795
-26.281248
-25.827656
-24.807798
-23.641743
-22.958616
-23.047609
-23.641573
-24.190609
-24.333775
-24.145967
-23.976860
-24.072668
-24.354315
-24.552052
-24.520197
-24.322058
-23.946577
-23.076159
-21.297258
-18.476805
-14.843218
-10.816587
-6.831253
-3.190848
0.024836
2.929051
5.686255
8.346978
10.757092
12.611730
13.648385
13.850042
13.463155
12.774073
11.832917
10.408909
8.251002
5.375297
2.058227
-1.431446
-5.026870
-8.762196
-12.533575
-16.023685
-18.855135
-20.788355
-21.799128
-22.049524
-21.815983
-21.358604
-20.781370
-20.061214
-19.228128
-18.387960
-17.507540
-16.318451
-14.583138
-12.451784
-10.440957
-8.983825
-8.026060
-7.084226
-5.686893
-3.789982
-1.808610
-0.250254
0.692030
1.220759
1.665792
2.143383
2.483430
2.510571
2.347176
2.366215
2.849805
3.741873
4.752539
5.664752
6.500100
7.452690
8.780360
10.736478
13.450352
16.797173
20.416103
23.885670
26.940674
29.595322
32.054722
34.473518
36.783627
38.717278
39.979671
40.429104
40.111687
39.154175
37.670975
35.788311
33.735203
31.836584
30.324478
29.134474
27.915970
26.287277
24.166967
21.896080
19.972450
18.598442
17.462515
15.950227
13.603958
10.480659
7.150232
4.342150
2.513173
1.619043
1.180899
0.581624
-0.588539
-2.342170
-4.342783
-6.153138
-7.539944
-8.600903
-9.605168
-10.716270
-11.857018
-12.800569
-13.374600
-13.594805
-13.584154
-13.349064
-12.717391
-11.567558
-10.051018
-8.493330
-7.071043
-5.629695
-3.858200
-1.660201
0.640307
2.458740
3.360100
3.402571
3.111237
3.060752
3.431056
3.938914
4.148493
3.829335
3.079139
2.185650
1.388950
0.716196
-0.008168
-0.978596
-2.206125
-3.481688
-4.530619
-5.226668
-5.676902
-6.096530
-6.610601
-7.155170
-7.520328
-7.506280
-7.102421
-6.530262
-6.074062
-5.847792
-5.736184
-5.569853
-5.364668
-5.383417
-5.917315
-6.974336
-8.216593
-9.235091
-9.868779
-10.267805
-10.697299
-11.304160
-12.040254
-12.728659
-13.163578
-13.210750
-12.899555
-12.438026
-12.104876
-12.088577
-12.399061
-12.908129
-13.453498
-13.912699
-14.247770
-14.535246
-14.907837
-15.402682
-15.876527
-16.098635
-15.914711
-15.308507
-14.337681
-13.053036
-11.485732
-9.701037
-7.872813
-6.315904
-5.400610
-5.335349
-5.972229
-6.864601
-7.583439
-8.000623
-8.270162
-8.556841
-8.806071
-8.784609
-8.328247
-7.516005
-6.588523
-5.716045
-4.863741
-3.868789
-2.623315
-1.185201
0.263994
1.561819
2.678723
3.691886
4.649896
5.481427
6.033773
6.184203
5.917741
5.317460
4.493702
3.508123
2.350025
1.007220
-0.407677
-1.598533
-2.190057
-1.944396
-0.903576
0.685671
2.578334
4.631136
6.718984
8.625952
10.057736
10.775682
10.740938
10.131259
9.216824
8.215725
7.219998
6.196246
5.044241
3.688765
2.145835
0.524305
-1.015983
-2.341323
-3.438090
-4.413497
-5.361714
-6.266822
-7.090462
-7.898879
-8.792372
-9.726990
-10.525135
-11.066754
-11.392230
-11.630644
-11.876096
-12.124292
-12.300192
-12.340136
-12.265026
-12.182680
-12.205632
-12.369478
-12.641748
-12.979900
-13.333167
-13.597602
-13.610160
-13.184816
-12.164943
-10.502764
-8.313176
-5.807674
-3.140208
-0.340428
2.571256
5.431206
7.940801
9.851762
11.181899
12.258006
13.479488
14.993006
16.620771
18.102175
19.351887
20.469715
21.552147
22.521114
23.097866
22.934921
21.825142
19.829445
17.230255
14.359607
11.435365
8.548040
5.796804
3.384006
1.524170
0.269246
-0.522040
-1.030753
-1.352479
-1.540220
-1.696683
-1.959231
-2.409531
-3.038588
-3.785565
-4.566351
-5.262380
-5.725173
-5.839253
-5.599010
-5.102840
-4.446811
-3.632266
-2.585157
-1.250359
0.320951
1.925973
3.235800
3.958421
4.103242
4.041187
4.137914
4.343354
4.282129
3.720436
2.852876
2.149304
1.962652
2.296666
2.908460
3.563063
4.209785
4.978869
6.016840
7.307861
8.645159
9.787483
10.658499
11.375605
12.078145
12.764655
13.311804
13.607775
13.622525
13.362396
12.804428
11.892906
10.575364
8.818452
6.605658
3.954693
0.945726
-2.277029
-5.539934
-8.697282
-11.682106
-14.502694
-17.169451
-19.612757
-21.672110
-23.164419
-23.959255
-24.002722
-23.326838
-22.091139
-20.566195
-18.965769
-17.273596
-15.283617
-12.827975
-9.964835
-6.952322
-4.057946
-1.404696
1.024617
3.275334
5.330341
7.119923
8.598330
9.797561
10.806879
11.695651
12.437810
12.889924
12.847385
12.161213
10.842832
9.071348
7.088303
5.073115
3.108156
1.228443
-0.536498
-2.174429
-3.704439
-5.132892
-6.386832
-7.320182
-7.822606
-7.954022
-7.968841
-8.143501
-8.543077
-9.020196
-9.463816
-9.924730
-10.441849
-10.904866
-11.184758
-11.256015
-11.083876
-10.503092
-9.335037
-7.589226
-5.462563
-3.148338
-0.691067
1.984780
4.959133
8.238336
11.704876
15.090090
18.066286
20.424513
22.166964
23.455256
24.475847
25.314898
25.935020
26.267111
26.326733
26.232208
26.095654
25.917250
25.616894
25.156219
24.592297
24.007896
23.407537
22.671585
21.608732
20.105772
18.288363
16.551720
15.393780
15.126176
15.627998
16.330713
16.553148
16.002647
14.988824
14.147032
13.940499
14.314330
14.725334
14.570196
13.711401
12.623388
11.995810
12.152033
12.787137
13.208833
12.849911
11.655168
10.092593
8.807190
8.164192
8.011088
7.826084
7.137438
5.886845
4.426388
3.170560
2.241754
1.386901
0.182424
-1.641624
-3.994959
-6.489873
-8.719160
-10.526502
-12.033830
-13.390398
-14.525465
-15.204501
-15.271566
-14.749939
-13.766526
-12.454260
-10.888810
-9.081178
-7.027913
-4.767686
-2.397348
-0.017818
2.333521
4.649956
6.838780
8.660470
9.826488
10.211029
9.972212
9.421427
8.770564
8.044878
7.214741
6.333752
5.524313
4.838194
4.140381
3.168927
1.730892
-0.154720
-2.255631
-4.271326
-6.056910
-7.690465
-9.262558
-10.658381
-11.665508
-12.290689
-12.841576
-13.637147
-14.689950
-15.711215
-16.412071
-16.778830
-17.059200
-17.495752
-18.069517
-18.490427
-18.454571
-17.947111
-17.297651
-16.900393
-16.829519
-16.712763
-16.028479
-14.603308
-12.850681
-11.466637
-10.808830
-10.543103
-9.913209
-8.387425
-6.077706
-3.560847
-1.340591
0.500693
2.201684
3.953801
5.630424
6.856108
7.349116
7.204288
6.810437
6.486251
6.230796
5.814978
5.064932
4.049490
3.044245
2.351499
2.117546
2.265496
2.593699
2.944835
3.271118
3.545516
3.639029
3.325205
2.462110
1.184294
-0.130272
-1.127927
-1.749314
-2.254997
-2.990815
-4.142864
-5.683335
-7.467449
-9.379572
-11.431456
-13.692255
-16.087156
-18.301100
-19.952070
-20.908216
-21.427629
-21.954435
-22.749403
-23.686682
-24.412176
-24.717106
-24.729067
-24.732519
-24.856022
