EVENT_NAME: L_AQUILA
EVENT_ID: IT-2009-0009
EVENT_DATE_YYYYMMDD: 20090406
EVENT_TIME_HHMMSS: 013240
EVENT_LATITUDE_DEGREE: 42.3420
EVENT_LONGITUDE_DEGREE: 13.3800
EVENT_DEPTH_KM: 8.3
HYPOCENTER_REFERENCE: INGV-CNT_Seismic_Bulletin
MAGNITUDE_W: 6.1
MAGNITUDE_W_REFERENCE: INGV-CNT_Seismic_Bulletin
MAGNITUDE_L: 
MAGNITUDE_L_REFERENCE: 
FOCAL_MECHANISM: Normal faulting
NETWORK: IT
STATION_CODE: ORC
STATION_NAME: 
STATION_LATITUDE_DEGREE: 41.953606
STATION_LONGITUDE_DEGREE: 13.642346
STATION_ELEVATION_M: 732
LOCATION: 
SENSOR_DEPTH_M: 0.0
VS30_M/S: 767
SITE_CLASSIFICATION_EC8: B
MORPHOLOGIC_CLASSIFICATION: 
EPICENTRAL_DISTANCE_KM: 48.3
EARTHQUAKE_BACKAZIMUTH_DEGREE: 153.2
DATE_TIME_FIRST_SAMPLE_YYYYMMDD_HHMMSS: 20090406_013235.000
DATE_TIME_FIRST_SAMPLE_PRECISION: seconds
SAMPLING_INTERVAL_S: 0.005000
NDATA: 14200
DURATION_S: 71.000
STREAM: HNE
UNITS: cm/s
INSTRUMENT: sensor = FBA-3 [Kinemetrics] | digitizer = Everest [Kinemetrics]
INSTRUMENT_ANALOG/DIGITAL: D
INSTRUMENTAL_FREQUENCY_HZ: 214.000
INSTRUMENTAL_DAMPING: 0.000000
FULL_SCALE_G: 1.0
N_BIT_DIGITAL_CONVERTER: 24
PGV_CM/S: -5.867389
TIME_PGV_S: 25.435000
BASELINE_CORRECTION: BASELINE REMOVED
FILTER_TYPE: BUTTERWORTH
FILTER_ORDER: 2
LOW_CUT_FREQUENCY_HZ: 0.080
HIGH_CUT_FREQUENCY_HZ: 35.000
LATE/NORMAL_TRIGGERED: NT
DATABASE_VERSION: 0.5
HEADER_FORMAT: DYNA 1.2
DATA_TYPE: VELOCITY
PROCESSING: manual (Paolucci et al., 2011)
DATA_TIMESTAMP_YYYYMMDD_HHMMSS: 20211011_160159.262
DATA_LICENSE: CC-BY3_0-IT (http://creativecommons.org/licenses/by/3.0/deed.en)
DATA_CITATION: Luzi L, Pacor F, Puglia R (2019). Italian Accelerometric Archive v 3.0 - Istituto Nazionale di Geofisica e Vulcanologia, Dipartimento della Protezione Civile Nazionale. doi: 10.13127/itaca.3.1
DATA_CREATOR: ITACA working group
ORIGINAL_DATA_MEDIATOR_CITATION: data obtained within the DPC-INGV data exchange agreements
ORIGINAL_DATA_MEDIATOR: Archive of Italian Department of Civil Protection
ORIGINAL_DATA_CREATOR_CITATION: Presidency Of Counsil Of Ministers-Civil Protection Department. (1972). Italian Strong Motion Network. Presidency of Counsil of Ministers - Civil Protection Department. https://doi.org/10.7914/SN/IT http://www.fdsn.org/networks/detail/IT/
ORIGINAL_DATA_CREATOR: network: IT (Italian Strong Motion Network (RAN)); owner: Presidency of Counsil of Ministers - Civil Protection Department (PCM - DPC)
USER1: 
USER2: 
USER3: 
USER4: 
USER5: 
[...]
0.085879
0.088377
0.091983
0.095413
0.097981
0.099627
0.100592
0.100960
0.100443
0.098609
0.095281
0.090623
0.084850
0.078071
0.070566
0.062975
0.055821
0.048823
0.041058
0.032020
0.022268
0.012882
0.004618
-0.002103
-0.006810
-0.009278
-0.010166
-0.010605
-0.010912
-0.010245
-0.007831
-0.004067
-0.000041
0.003562
0.006554
0.008601
0.009246
0.008744
0.008366
0.009589
0.013054
0.018266
0.023895
0.028288
0.030196
0.029574
0.027564
0.025267
0.022655
0.019126
0.014982
0.011879
0.011858
0.016338
0.025887
0.040183
0.057746
0.076127
0.092977
0.107145
0.118719
0.128197
0.135836
0.141616
0.145417
0.147132
0.146815
0.144823
0.141662
0.137662
0.132989
0.127993
0.123267
0.119240
0.115997
0.113733
0.113173
0.115181
0.120003
0.127150
0.135946
0.145811
0.155930
0.165071
0.172000
0.175932
0.176473
0.173490
0.167405
0.159443
0.151196
0.143857
0.138044
0.134235
0.133070
0.135042
0.139872
0.145960
0.150390
0.149998
0.143250
0.131335
0.117175
0.103325
0.090970
0.080509
0.072138
0.065487
0.059286
0.052048
0.043108
0.032670
0.021005
0.008136
-0.005543
-0.018813
-0.030058
-0.037986
-0.041867
-0.041468
-0.037027
-0.029096
-0.018171
-0.004590
0.011121
0.028113
0.045776
0.064389
0.085013
0.108749
0.136102
0.166789
0.199760
0.233283
0.265228
0.293535
0.316499
0.332691
0.340970
0.340780
0.332268
0.315809
0.291546
0.259735
0.221563
0.179379
0.136121
0.094607
0.057123
0.025133
-0.001044
-0.022222
-0.039693
-0.054273
-0.065911
-0.074262
-0.079437
-0.081953
-0.082138
-0.080051
-0.076149
-0.071751
-0.068541
-0.067487
-0.068278
-0.069687
-0.070394
-0.069625
-0.067358
-0.064065
-0.060144
-0.055500
-0.049713
-0.042651
-0.034826
-0.027031
-0.019661
-0.012526
-0.005406
0.001273
0.006373
0.008500
0.006398
-0.001006
-0.014539
-0.034372
-0.059403
-0.086978
-0.113481
-0.135740
-0.152325
-0.163558
-0.170254
-0.172571
-0.170000
-0.162071
-0.148784
-0.130600
-0.108372
-0.083278
-0.056633
-0.029758
-0.004061
0.018993
0.038350
0.053890
0.066295
0.076373
0.084738
0.092239
0.100295
0.110409
0.123484
0.139909
0.159991
0.183654
0.209589
0.235295
0.258450
0.278231
0.295119
0.309576
0.321213
0.329199
0.333040
0.332635
0.327740
0.317827
0.302656
0.282775
0.259289
0.233400
0.206447
0.180158
0.156310
0.135928
0.118943
0.104575
0.091834
0.079644
0.066797
0.052131
0.035032
0.016024
-0.003025
-0.019552
-0.031705
-0.039568
-0.045015
-0.050052
-0.055067
-0.058645
-0.059006
-0.055417
-0.048185
-0.037736
-0.024248
-0.008184
0.009237
0.026305
0.041323
0.052740
0.059180
0.059831
0.054782
0.044633
0.029782
0.010449
-0.012506
-0.037223
-0.061702
-0.084975
-0.107041
-0.127560
-0.145038
-0.157701
-0.164750
-0.166064
-0.160946
-0.148330
-0.128685
-0.104837
-0.080149
-0.056234
-0.032911
-0.009978
0.011644
0.030312
0.044426
0.052647
0.054242
0.049857
0.041535
0.031271
0.019608
0.006087
-0.009169
-0.024965
-0.040032
-0.053755
-0.065674
-0.074789
-0.079981
-0.081141
-0.079153
-0.074364
-0.065781
-0.052549
-0.035807
-0.018170
-0.001432
0.014469
0.030297
0.046386
0.063115
0.081536
0.102307
0.124210
0.144815
0.162894
0.179406
0.195954
0.213142
0.230838
0.249033
0.267425
0.284655
0.299113
0.310588
0.320313
0.329176
0.336552
0.341171
0.342476
0.340654
0.335800
0.327726
0.316584
0.303240
0.288795
0.273848
0.258309
0.241882
0.224564
0.206675
0.188579
0.170589
0.153160
0.137082
0.123285
0.112205
0.103164
0.094502
0.084730
0.073943
0.064124
0.057941
0.057080
0.061526
0.069957
0.080543
0.091677
0.102505
0.112951
0.123041
0.132086
0.138656
0.141427
0.139913
0.134371
0.125319
0.113450
0.099836
0.085852
0.072783
0.061604
0.053029
0.047405
0.044455
0.043257
0.042650
0.041714
0.039927
0.036972
0.032556
0.026549
0.019376
0.012147
0.006240
0.002685
0.001905
0.003750
0.007360
0.010954
0.012337
0.010268
0.005503
0.000264
-0.003486
-0.005281
-0.005993
-0.006890
-0.008865
-0.011969
-0.015224
-0.017194
-0.017304
-0.016730
-0.017813
-0.022487
-0.031240
-0.043365
-0.057835
-0.073787
-0.090541
-0.107651
-0.124856
-0.141465
-0.155722
-0.165348
-0.169097
-0.167560
-0.162303
-0.154574
-0.144935
-0.133504
-0.119980
-0.103750
-0.084564
-0.063215
-0.041287
-0.020151
-0.000345
0.018175
0.035514
0.051722
0.066885
0.080921
0.093290
0.103060
0.109211
0.110659
0.106166
0.094708
0.076107
0.051133
0.021121
-0.012017
-0.045322
-0.075128
-0.098748
-0.116009
-0.128830
-0.139168
-0.147509
-0.153221
-0.155733
-0.154764
-0.149689
-0.139538
-0.123962
-0.103814
-0.080599
-0.055805
-0.031157
-0.009101
0.007736
0.017863
0.021513
0.019917
0.014298
0.005721
-0.004414
-0.014306
-0.022354
-0.027551
-0.029245
-0.026923
-0.020454
-0.010248
0.002963
0.018200
0.033928
0.048112
0.059170
0.067005
0.072922
0.078471
0.084477
0.091025
0.097875
0.104561
0.110314
0.114314
0.116100
0.115571
0.112646
0.107281
0.099942
0.091698
0.083543
0.075843
0.068684
0.062513
0.057957
0.055061
0.053077
0.051156
0.049036
0.046988
0.045357
0.044325
0.043939
0.044167
0.044962
0.046405
0.048702
0.051962
0.055991
0.060273
0.064109
0.066959
0.068990
0.071353
0.075632
0.082886
0.093462
0.107712
0.126455
0.150388
0.179231
0.211614
0.245585
0.278979
0.309582
0.335537
0.355965
0.371131
0.381807
0.388446
0.390888
0.388471
0.380234
0.365383
0.344054
0.317553
0.287633
0.255627
0.222397
0.188815
0.155820
0.123949
0.093141
0.063255
0.034808
0.009188
-0.011882
-0.027221
-0.036767
-0.041370
-0.041951
-0.038815
-0.031702
-0.020286
-0.004532
0.015143
0.037713
0.061663
0.085765
0.109931
0.135131
0.162249
0.191003
0.219952
0.247348
0.271806
0.292318
0.308070
0.318564
0.323798
0.324003
0.319171
0.309046
0.293536
0.272940
0.247774
0.218684
0.186600
0.152603
0.117365
0.080908
0.043163
0.004715
-0.033117
-0.068812
-0.101106
-0.128911
-0.150933
-0.165715
-0.172326
-0.170949
-0.162726
-0.149106
-0.131378
-0.110481
-0.086816
-0.060231
-0.030677
0.000762
0.031488
0.058234
0.078453
0.091160
0.096792
0.096431
0.090954
0.080543
0.064818
0.043516
0.017216
-0.012464
-0.043398
-0.073734
-0.102288
-0.128247
-0.150517
-0.167476
-0.177577
-0.180335
-0.176653
-0.167950
-0.154918
-0.137143
-0.113912
-0.085332
-0.052843
-0.019072
0.012697
0.039326
0.058791
0.070716
0.075998
0.075917
0.071537
0.063721
0.053302
0.040978
0.027203
0.012635
-0.001212
-0.012118
-0.018358
-0.019844
-0.017988
-0.014377
-0.009521
-0.002797
0.006615
0.018905
0.033665
0.050486
0.069312
0.090263
0.113181
0.137279
0.161084
0.182788
0.200895
0.214823
0.225029
0.232544
0.238196
0.242038
0.243485
0.241981
0.237501
0.230482
0.221546
0.211480
0.201331
0.192172
0.184666
0.178944
0.174926
0.172570
0.171722
0.171939
0.172808
0.174434
0.177368
0.181913
0.187639
0.193539
0.198489
0.201486
0.201761
0.199012
0.193603
0.186460
0.178822
0.172181
0.168245
0.168508
0.173656
0.183442
0.197173
0.214265
0.234342
0.256930
0.281126
0.305631
0.329188
0.350956
0.370394
0.386877
0.399623
0.407859
0.410754
0.407155
0.395760
0.375932
0.348459
0.315384
0.279042
0.241331
0.203789
0.167971
0.135373
0.106937
0.082674
0.061748
0.042895
0.024958
0.007358
-0.009620
-0.024949
-0.037439
-0.046342
-0.051443
-0.052716
-0.050166
-0.044021
-0.034821
-0.023126
-0.009296
0.006215
0.022484
0.038299
0.052738
0.065504
0.076787
0.086959
0.096405
0.105584
0.115105
0.125548
0.137001
0.148678
0.159058
0.166590
0.170445
0.170667
0.167658
0.161658
0.152689
0.140765
0.126049
0.108933
0.090080
0.070226
0.049801
0.028855
0.007497
-0.013596
-0.033089
-0.049415
-0.061461
-0.069164
-0.073712
-0.077131
-0.081566
-0.088776
-0.099851
-0.114741
-0.131847
-0.148508
-0.162282
-0.171820
-0.176639
-0.176410
-0.170618
-0.158672
-0.140246
-0.115776
-0.086931
-0.056628
-0.028459
-0.005955
0.007930
0.011255
0.003532
-0.014364
-0.041032
-0.075262
-0.115901
-0.161540
-0.210851
-0.262950
-0.316897
-0.370860
-0.422236
-0.468692
-0.508818
-0.541792
-0.566987
-0.584306
-0.594628
-0.599475
-0.600236
-0.597816
-0.592832
-0.585682
-0.576396
-0.564783
-0.550997
-0.535863
-0.520632
-0.506655
-0.495350
-0.488071
-0.485608
-0.487898
-0.494578
-0.505834
-0.522312
-0.544024
-0.569694
-0.597483
-0.626130
-0.655033
-0.683431
-0.710127
-0.734231
-0.755770
-0.775249
-0.792829
-0.808311
-0.821781
-0.833706
-0.844121
-0.852161
-0.856767
-0.857551
-0.854657
-0.848134
-0.838068
-0.825327
-0.811672
-0.798744
-0.787092
-0.776399
-0.766576
-0.758300
-0.752387
-0.748929
-0.747232
-0.746249
-0.744650
-0.740695
-0.732716
-0.720166
-0.704109
-0.686361
-0.667932
-0.648255
-0.625894
-0.599782
-0.569715
-0.536037
-0.499305
-0.460125
-0.418912
-0.375791
-0.330918
-0.284828
-0.238209
-0.191347
-0.144028
-0.096096
-0.047987
-0.000658
0.044848
0.087553
0.126373
0.160163
0.188142
0.210319
0.227580
0.241369
0.253046
0.263256
0.271895
0.278719
0.283830
0.287475
0.289597
0.289813
0.287728
0.283032
0.275267
0.263702
0.247574
0.226413
0.200111
0.168848
0.133137
0.093930
0.052635
0.011023
-0.029008
-0.065926
-0.099192
-0.129388
-0.157432
-0.183418
-0.206244
-0.224401
-0.236918
-0.243394
-0.243376
-0.236210
-0.221620
-0.200084
-0.172480
-0.139818
-0.103671
-0.066602
-0.031691
-0.001770
0.020528
0.032286
0.030812
0.015108
-0.013558
-0.053090
-0.102456
-0.161657
-0.229934
-0.304730
-0.382743
-0.461532
-0.539801
-0.616604
-0.690999
-0.762459
-0.830941
-0.896109
-0.956747
-1.011403
-1.059572
-1.101850
-1.138815
-1.170163
-1.195059
-1.212957
-1.223778
-1.227594
-1.224639
-1.215622
-1.201584
-1.183281
-1.160896
-1.134508
-1.104632
-1.072088
-1.037520
-1.001443
-0.964835
-0.929432
-0.897330
-0.870393
-0.849911
-0.836413
-0.829494
-0.827867
-0.829883
-0.834228
-0.840242
-0.847692
-0.856302
-0.865379
-0.873742
-0.879946
-0.882612
-0.880648
-0.873371
-0.860686
-0.843215
-0.822131
-0.798647
-0.773395
-0.746189
-0.716521
-0.684252
-0.649503
-0.611748
-0.569308
-0.519999
-0.462253
-0.395675
-0.320891
-0.239264
-0.152660
-0.062997
0.028315
0.120476
0.212867
0.304658
0.394875
0.482681
0.567455
0.648597
0.725109
0.795074
0.855474
0.902972
0.935333
0.952101
0.953883
0.941271
0.914661
0.874783
0.823112
0.761893
0.694039
0.623031
0.552769
0.487227
0.429747
0.382047
0.343728
0.313056
0.288593
0.270047
0.257497
0.250012
0.245321
0.240828
0.234871
0.227226
0.218830
0.211130
0.205326
0.201720
0.199639
0.198138
0.196948
0.196748
0.198473
0.202418
0.208091
0.214870
0.222494
0.230769
0.239001
0.246031
0.250913
0.253375
0.253534
0.251329
0.246320
0.237880
0.225416
0.208433
0.186585
0.159831
0.128495
0.093103
0.054293
0.012829
-0.030607
-0.075882
-0.123673
-0.175127
-0.231169
-0.292029
-0.357267
-0.426090
-0.497574
-0.570683
-0.644229
-0.716918
-0.787409
-0.854424
-0.917112
-0.975603
-1.031229
-1.086019
-1.141735
-1.199178
-1.258194
-1.318110
-1.378150
-1.437665
-1.496197
-1.553380
-1.608806
-1.662064
-1.712867
-1.760937
-1.805653
-1.845925
-1.880510
-1.908461
-1.929276
-1.942795
-1.949167
-1.948960
-1.943073
-1.932266
-1.916704
-1.896006
-1.869749
-1.837979
-1.801458
-1.761809
-1.721562
-1.683811
-1.651363
-1.625906
-1.607870
-1.597040
-1.593231
-1.596414
-1.606444
-1.622965
-1.645660
-1.674459
-1.709247
-1.749378
-1.793672
-1.841049
-1.891210
-1.944727
-2.002424
-2.064501
-2.129976
-2.196817
-2.262546
-2.324709
-2.380815
-2.428071
-2.463510
-2.484565
-2.489585
-2.478026
-2.450438
-2.408323
-2.353806
-2.289130
-2.216192
-2.136305
-2.050405
-1.959807
-1.866967
-1.775315
-1.688169
-1.607761
-1.535017
-1.469710
-1.410593
-1.355782
-1.303581
-1.253152
-1.204305
-1.156650
-1.109165
-1.060626
-1.010273
-0.957968
-0.903890
-0.848278
-0.791318
-0.732969
-0.672695
-0.609365
-0.541604
-0.468567
-0.390644
-0.309430
-0.226862
-0.144426
-0.063200
0.015686
0.091191
0.162964
0.231363
0.296684
0.358712
0.417315
0.473428
0.529257
0.587420
0.649864
0.717434
0.790076
0.867183
0.947827
1.030999
1.115796
1.201343
1.286634
1.370702
1.453077
1.533907
1.613512
1.691974
1.769290
1.845723
1.921750
1.997716
2.073666
2.149314
2.223832
2.295515
2.361956
2.420906
2.471183
2.512862
2.546719
2.573625
2.594278
2.609142
2.618350
2.621682
2.618773
2.609308
2.592860
2.568544
2.535013
2.491002
2.435962
2.370203
2.294525
2.209874
2.117314
2.018117
1.913658
1.805152
1.693578
1.579916
1.465402
1.351422
1.238961
1.127975
1.017252
0.905056
0.790174
0.672542
0.553032
0.432762
0.312634
0.193259
0.075060
-0.041583
-0.156097
-0.267631
-0.375450
-0.479675
-0.581701
-0.683998
-0.789598
-0.901628
-1.022897
-1.155408
-1.299888
-1.455559
-1.620479
-1.792512
-1.970418
-2.154146
-2.344143
-2.540608
-2.743461
-2.952720
-3.168534
-3.390889
-3.619500
-3.853859
-4.092850
-4.333879
-4.572387
-4.802541
-5.018771
-5.216921
-5.394029
-5.546902
-5.671328
-5.763858
-5.824827
-5.858208
-5.867389
-5.852093
-5.810192
-5.741271
-5.647064
-5.528899
-5.386336
-5.219309
-5.030915
-4.826592
-4.609913
-4.379742
-4.132062
-3.864272
-3.577435
-3.275092
-2.961360
-2.640978
-2.320863
-2.010594
-1.720396
-1.457909
-1.226387
-1.025630
-0.854266
-0.710876
-0.593331
-0.498334
-0.422989
-0.366541
-0.329160
-0.309019
-0.301976
-0.304590
-0.316430
-0.338638
-0.370593
-0.408353
-0.445778
-0.476448
-0.494889
-0.497388
-0.482763
-0.451901
-0.405627
-0.342742
-0.260235
-0.155209
-0.026435
0.125658
0.299814
0.494408
0.707389
0.936346
1.178982
1.433692
1.699740
1.976717
2.263468
2.557268
2.854026
3.149419
3.439979
3.723154
3.996350
4.255885
4.496919
4.714540
4.905450
5.069295
5.208716
5.328043
5.431475
5.521745
5.599829
5.665476
5.717844
5.755746
5.777847
5.783028
5.770453
5.739192
5.688254
5.617414
5.527915
5.421999
5.301643
5.167795
5.020701
4.860792
4.689264
4.507970
4.318907
4.123686
3.923191
3.717469
3.505872
3.287573
3.062334
2.830986
2.595115
2.356433
2.116900
1.879399
1.647451
1.423724
1.208927
1.002204
0.802471
0.609410
0.423344
0.244407
0.071904
-0.095639
-0.259997
-0.422847
-0.585758
-0.750349
-0.918132
-1.089914
-1.265236
-1.442474
-1.619602
-1.794833
-1.966470
-2.132383
-2.290014
-2.437026
-2.571873
-2.693751
-2.802263
-2.897439
-2.980060
-3.051633
-3.113676
-3.166994
-3.211854
-3.248843
-3.279277
-3.304717
-3.326328
-3.344720
-3.360065
-3.372132
-3.380404
-3.384408
-3.383952
-3.378910
-3.368879
-3.353278
-3.331777
-3.304379
-3.270919
-3.230717
-3.183091
-3.128117
-3.066558
-2.999081
-2.925843
-2.846848
-2.762411
-2.673121
-2.579554
-2.482145
-2.381159
-2.276694
-2.168940
-2.058605
-1.946989
-1.835422
-1.724521
-1.614184
-1.504674
-1.397801
-1.296822
-1.205008
-1.124201
-1.054640
-0.996097
-0.948858
-0.913376
-0.889163
-0.874412
-0.866775
-0.864136
-0.864107
-0.862752
-0.854437
-0.833594
-0.796740
-0.742711
-0.671297
-0.582381
-0.476583
-0.356030
-0.223713
-0.082007
0.067930
0.225286
0.388375
0.554388
0.720194
0.883183
1.041496
1.193978
1.340251
1.480582
1.615371
1.744732
1.868478
1.986229
2.097330
2.200693
2.294846
2.378245
2.449628
2.508144
2.553385
2.585627
2.605995
2.615947
2.616245
2.606511
2.585995
2.554659
2.513227
2.462163
2.400959
2.328750
2.245592
2.152958
2.053051
1.947694
1.837777
1.723449
1.604712
1.482039
1.356993
1.232692
1.113660
1.004719
0.909291
0.828265
0.760311
0.703254
0.655164
0.614449
0.579489
0.548702
0.521040
0.496220
0.474332
0.455151
0.437826
0.421273
0.404877
0.388865
0.374156
0.362206
0.355109
0.355459
0.365487
0.386052
0.416610
0.456180
0.504207
0.560540
0.624751
0.695480
0.770280
0.845989
0.919369
0.987727
1.049161
1.102371
1.146404
1.180733
1.205605
1.222183
1.232146
1.237007
1.237667
1.234366
1.226762
1.213972
1.194754
1.167876
1.132348
1.087294
1.031772
0.964890
0.886088
0.795254
0.692706
0.579471
0.457899
0.331783
0.205263
0.081136
-0.039755
-0.157200
-0.269589
-0.373255
-0.463837
-0.538145
-0.594764
-0.633248
-0.653300
-0.655028
-0.639679
-0.609548
-0.566972
-0.513641
-0.451047
-0.381377
-0.307569
-0.232367
-0.157504
-0.083795
-0.011717
0.058361
0.126349
0.192469
0.257037
0.320452
0.383447
0.447010
0.511666
0.576783
0.640826
0.702357
0.760660
0.815370
0.865789
0.910888
0.950000
0.983276
1.011378
1.034843
1.053911
1.068901
1.080510
1.089545
1.096523
1.101759
1.105795
1.109496
1.113647
1.118595
1.124362
1.130973
1.138510
1.146873
1.155711
1.164720
1.174085
1.184744
1.198123
1.215225
1.235800
1.258592
1.282524
1.307578
1.334542
1.364272
1.397571
1.435724
1.480577
1.533596
1.594808
1.663009
1.737177
1.817485
1.904827
1.999568
2.100779
2.206215
2.312639
2.416400
2.514330
2.604414
2.685639
2.757424
2.819551
2.872625
2.918260
2.958560
2.995292
3.029449
3.061338
3.090814
3.117438
3.140712
3.160252
3.175628
3.186009
3.190083
3.186260
3.172963
3.149075
3.114457
3.069927
3.016337
2.953651
2.881126
2.798374
2.705925
2.604597
2.494609
2.375679
2.248006
2.112895
1.972361
1.828336
1.682460
1.536548
1.392993
1.254466
1.123096
0.999818
0.884432
0.776259
0.674786
0.579796
0.491074
0.408188
0.330684
0.258557
0.192305
0.132039
0.076498
0.023682
-0.027385
-0.076286
-0.122738
-0.167663
-0.212224
-0.256125
-0.297425
-0.334180
-0.365892
-0.393152
-0.416230
-0.434516
-0.447365
-0.455094
-0.458886
-0.459816
-0.458279
-0.454392
-0.448694
-0.442179
-0.435683
-0.429469
-0.423563
-0.418445
-0.415324
-0.415741
-0.420976
-0.431809
-0.448623
-0.471546
-0.500389
-0.534447
-0.572362
-0.612226
-0.651787
-0.688515
-0.719500
-0.741417
-0.750806
-0.744822
-0.722302
-0.684328
-0.633320
-0.571036
-0.497647
-0.413166
-0.319423
-0.219990
-0.118253
-0.016158
0.085148
0.184219
0.279513
0.370535
0.458174
0.543608
0.627141
0.708295
0.786784
0.862870
0.936594
1.006841
1.071330
1.127415
1.172622
1.204451
1.220182
1.217509
1.195585
1.155319
1.098591
1.027226
0.942793
0.847345
0.744309
0.638472
0.534817
0.437235
0.348558
0.271937
0.211715
0.172146
0.154754
0.157245
0.175510
0.206578
0.249431
0.303542
0.367471
0.439071
0.516584
0.599003
0.685349
0.774067
0.863449
0.952478
1.040963
1.128828
1.215458
1.299757
1.380707
1.457487
1.528840
1.592422
1.645170
1.684532
1.709471
1.720410
1.718442
1.704654
1.679991
1.645397
1.601907
1.550852
1.494437
1.436389
1.381936
1.336774
1.305654
1.291615
1.296339
1.321020
1.366689
1.433449
1.519332
1.620175
1.731049
1.847944
1.967929
2.087825
2.203360
2.310131
