EVENT_NAME: L_AQUILA
EVENT_ID: IT-2009-0009
EVENT_DATE_YYYYMMDD: 20090406
EVENT_TIME_HHMMSS: 013240
EVENT_LATITUDE_DEGREE: 42.3420
EVENT_LONGITUDE_DEGREE: 13.3800
EVENT_DEPTH_KM: 8.3
HYPOCENTER_REFERENCE: INGV-CNT_Seismic_Bulletin
MAGNITUDE_W: 6.1
MAGNITUDE_W_REFERENCE: INGV-CNT_Seismic_Bulletin
MAGNITUDE_L: 
MAGNITUDE_L_REFERENCE: 
FOCAL_MECHANISM: Normal faulting
NETWORK: IT
STATION_CODE: ORC
STATION_NAME: 
STATION_LATITUDE_DEGREE: 41.953606
STATION_LONGITUDE_DEGREE: 13.642346
STATION_ELEVATION_M: 732
LOCATION: 
SENSOR_DEPTH_M: 0.0
VS30_M/S: 767
SITE_CLASSIFICATION_EC8: B
MORPHOLOGIC_CLASSIFICATION: 
EPICENTRAL_DISTANCE_KM: 48.3
EARTHQUAKE_BACKAZIMUTH_DEGREE: 153.2
DATE_TIME_FIRST_SAMPLE_YYYYMMDD_HHMMSS: 
DATE_TIME_FIRST_SAMPLE_PRECISION: 
SAMPLING_INTERVAL_S: 
NDATA: 105
DURATION_S: 
STREAM: HNZ
UNITS: cm
INSTRUMENT: sensor = FBA-3 [Kinemetrics] | digitizer = Everest [Kinemetrics]
INSTRUMENT_ANALOG/DIGITAL: D
INSTRUMENTAL_FREQUENCY_HZ: 214.000
INSTRUMENTAL_DAMPING: 0.000000
FULL_SCALE_G: 1.0
N_BIT_DIGITAL_CONVERTER: 24
PGD_CM: 0.790531
TIME_PGD_S: 
BASELINE_CORRECTION: BASELINE REMOVED
FILTER_TYPE: BUTTERWORTH
FILTER_ORDER: 2
LOW_CUT_FREQUENCY_HZ: 0.080
HIGH_CUT_FREQUENCY_HZ: 35.000
LATE/NORMAL_TRIGGERED: NT
DATABASE_VERSION: 0.5
HEADER_FORMAT: DYNA 1.2
DATA_TYPE: DISPLACEMENT RESPONSE SPECTRUM
PROCESSING: manual (Paolucci et al., 2011)
DATA_TIMESTAMP_YYYYMMDD_HHMMSS: 20211011_160201.082
DATA_LICENSE: CC-BY3_0-IT (http://creativecommons.org/licenses/by/3.0/deed.en)
DATA_CITATION: Luzi L, Pacor F, Puglia R (2019). Italian Accelerometric Archive v 3.0 - Istituto Nazionale di Geofisica e Vulcanologia, Dipartimento della Protezione Civile Nazionale. doi: 10.13127/itaca.3.1
DATA_CREATOR: ITACA working group
ORIGINAL_DATA_MEDIATOR_CITATION: data obtained within the DPC-INGV data exchange agreements
ORIGINAL_DATA_MEDIATOR: Archive of Italian Department of Civil Protection
ORIGINAL_DATA_CREATOR_CITATION: Presidency Of Counsil Of Ministers-Civil Protection Department. (1972). Italian Strong Motion Network. Presidency of Counsil of Ministers - Civil Protection Department. https://doi.org/10.7914/SN/IT http://www.fdsn.org/networks/detail/IT/
ORIGINAL_DATA_CREATOR: network: IT (Italian Strong Motion Network (RAN)); owner: Presidency of Counsil of Ministers - Civil Protection Department (PCM - DPC)
USER1: 
USER2: 
USER3: 
USER4: 
USER5: 
    0.010000     0.000077
    0.020000     0.000311
    0.022000     0.000378
    0.025000     0.000490
    0.029000     0.000659
    0.030000     0.000705
    0.032000     0.000802
    0.035001     0.000964
    0.036000     0.001006
    0.040000     0.001261
    0.041999     0.001443
    0.044001     0.001660
    0.045000     0.001758
    0.046000     0.001867
    0.048001     0.002154
    0.050000     0.002434
    0.054999     0.003326
    0.059999     0.004507
    0.064998     0.004471
    0.067002     0.004529
    0.069999     0.005053
    0.075002     0.006581
    0.080000     0.007707
    0.084998     0.007349
    0.090001     0.008794
    0.095003     0.010401
    0.100000     0.010939
    0.109999     0.013448
    0.120005     0.016012
    0.130005     0.020257
    0.132996     0.021459
    0.139997     0.024409
    0.149993     0.030160
    0.160000     0.031691
    0.170010     0.034449
    0.179986     0.040858
    0.190006     0.049981
    0.200000     0.059939
    0.220022     0.088199
    0.239981     0.094068
    0.250000     0.091010
    0.260010     0.098511
    0.280034     0.131832
    0.290023     0.140666
    0.300030     0.150763
    0.320000     0.192308
    0.340020     0.204830
    0.350017     0.194501
    0.359971     0.210761
    0.379939     0.245002
    0.400000     0.269367
    0.419992     0.262057
    0.439947     0.243131
    0.450045     0.237507
    0.459982     0.241472
    0.480077     0.285401
    0.500000     0.369287
    0.550055     0.581912
    0.599880     0.630416
    0.650195     0.662445
    0.667111     0.690284
    0.699790     0.768236
    0.750188     0.894911
    0.800000     0.925381
    0.850340     0.880530
    0.900090     0.818213
    0.949668     0.767385
    1.000000     0.680644
    1.100110     0.594094
    1.200480     0.615002
    1.300390     0.746452
    1.400560     0.747308
    1.499250     0.815733
    1.600000     0.891103
    1.700680     0.920715
    1.798561     0.912934
    1.901141     0.924383
    2.000000     0.975417
    2.197802     1.039665
    2.398082     1.007259
    2.500000     1.011367
    2.597403     1.018886
    2.801121     1.065304
    3.003003     1.426146
    3.205128     1.673717
    3.401361     1.773524
    3.496503     1.751752
    3.597122     1.697091
    3.802281     1.608207
    4.000000     1.506809
    4.201681     1.461787
    4.405286     1.462465
    4.608295     1.507479
    4.807692     1.557618
    5.000000     1.577538
    5.494505     1.505766
    5.988024     1.724546
    6.493506     1.786613
    6.993007     1.739598
    7.518797     1.607150
    8.000000     1.444111
    8.474576     1.285138
    9.009009     1.146568
    9.523809     1.084746
   10.000000     1.041571
