EVENT_NAME: L_AQUILA
EVENT_ID: IT-2009-0009
EVENT_DATE_YYYYMMDD: 20090406
EVENT_TIME_HHMMSS: 013240
EVENT_LATITUDE_DEGREE: 42.3420
EVENT_LONGITUDE_DEGREE: 13.3800
EVENT_DEPTH_KM: 8.3
HYPOCENTER_REFERENCE: INGV-CNT_Seismic_Bulletin
MAGNITUDE_W: 6.1
MAGNITUDE_W_REFERENCE: INGV-CNT_Seismic_Bulletin
MAGNITUDE_L: 
MAGNITUDE_L_REFERENCE: 
FOCAL_MECHANISM: Normal faulting
NETWORK: IT
STATION_CODE: GSG
STATION_NAME: 
STATION_LATITUDE_DEGREE: 42.460000
STATION_LONGITUDE_DEGREE: 13.550000
STATION_ELEVATION_M: 1200
LOCATION: 
SENSOR_DEPTH_M: 200.0
VS30_M/S: 
SITE_CLASSIFICATION_EC8: B (inferred from geology)
MORPHOLOGIC_CLASSIFICATION: 
EPICENTRAL_DISTANCE_KM: 19.2
EARTHQUAKE_BACKAZIMUTH_DEGREE: 46.8
DATE_TIME_FIRST_SAMPLE_YYYYMMDD_HHMMSS: 20090406_013229.000 
DATE_TIME_FIRST_SAMPLE_PRECISION: 
SAMPLING_INTERVAL_S: 0.005000
NDATA: 20000
DURATION_S: 100.000
STREAM: HNE
UNITS: cm
INSTRUMENT: sensor = FBA-3 [Kinemetrics] | digitizer = Everest [Kinemetrics]
INSTRUMENT_ANALOG/DIGITAL: D
INSTRUMENTAL_FREQUENCY_HZ: 222.000
INSTRUMENTAL_DAMPING: 0.700000
FULL_SCALE_G: 1.0
N_BIT_DIGITAL_CONVERTER: 24
PGD_CM: 1.321091
TIME_PGD_S: 37.160000
BASELINE_CORRECTION: BASELINE REMOVED
FILTER_TYPE: BUTTERWORTH
FILTER_ORDER: 2
LOW_CUT_FREQUENCY_HZ: 0.100
HIGH_CUT_FREQUENCY_HZ: 40.000
LATE/NORMAL_TRIGGERED: NT
DATABASE_VERSION: 0.5
HEADER_FORMAT: DYNA 1.2
DATA_TYPE: DISPLACEMENT
PROCESSING: manual (Paolucci et al., 2011)
DATA_TIMESTAMP_YYYYMMDD_HHMMSS: 20211011_155807.721
DATA_LICENSE: CC-BY3_0-IT (http://creativecommons.org/licenses/by/3.0/deed.en)
DATA_CITATION: Luzi L, Pacor F, Puglia R (2019). Italian Accelerometric Archive v 3.0 - Istituto Nazionale di Geofisica e Vulcanologia, Dipartimento della Protezione Civile Nazionale. doi: 10.13127/itaca.3.1
DATA_CREATOR: ITACA working group
ORIGINAL_DATA_MEDIATOR_CITATION: data obtained within the DPC-INGV data exchange agreements
ORIGINAL_DATA_MEDIATOR: Archive of Italian Department of Civil Protection
ORIGINAL_DATA_CREATOR_CITATION: Presidency Of Counsil Of Ministers-Civil Protection Department. (1972). Italian Strong Motion Network. Presidency of Counsil of Ministers - Civil Protection Department. https://doi.org/10.7914/SN/IT http://www.fdsn.org/networks/detail/IT/
ORIGINAL_DATA_CREATOR: network: IT (Italian Strong Motion Network (RAN)); owner: Presidency of Counsil of Ministers - Civil Protection Department (PCM - DPC)
USER1: 
USER2: 
USER3: 
USER4: 
USER5: 
[...]
2.985033e-03
7.395381e-03
1.168039e-02
1.584186e-02
1.988325e-02
2.381072e-02
2.763160e-02
3.134948e-02
3.496241e-02
3.846842e-02
4.187445e-02
4.520020e-02
4.847340e-02
5.172091e-02
5.496229e-02
5.820522e-02
6.144035e-02
6.464076e-02
6.777251e-02
7.080999e-02
7.374351e-02
7.657749e-02
7.932518e-02
8.200114e-02
8.461456e-02
8.716809e-02
8.965859e-02
9.207448e-02
9.439256e-02
9.658056e-02
9.860862e-02
1.004640e-01
1.021549e-01
1.037003e-01
1.051194e-01
1.064299e-01
1.076504e-01
1.088015e-01
1.099107e-01
1.110163e-01
1.121624e-01
1.133888e-01
1.147246e-01
1.161882e-01
1.177874e-01
1.195159e-01
1.213533e-01
1.232712e-01
1.252432e-01
1.272478e-01
1.292691e-01
1.312959e-01
1.333237e-01
1.353564e-01
1.374038e-01
1.394771e-01
1.415879e-01
1.437506e-01
1.459821e-01
1.482955e-01
1.506922e-01
1.531639e-01
1.557032e-01
1.583150e-01
1.610190e-01
1.638382e-01
1.667812e-01
1.698325e-01
1.729560e-01
1.761082e-01
1.792516e-01
1.823660e-01
1.854510e-01
1.885175e-01
1.915748e-01
1.946279e-01
1.976803e-01
2.007332e-01
2.037831e-01
2.068257e-01
2.098654e-01
2.129209e-01
2.160237e-01
2.192119e-01
2.225231e-01
2.259858e-01
2.296105e-01
2.333867e-01
2.372880e-01
2.412815e-01
2.453381e-01
2.494395e-01
2.535812e-01
2.577704e-01
2.620223e-01
2.663529e-01
2.707735e-01
2.752915e-01
2.799130e-01
2.846412e-01
2.894720e-01
2.943942e-01
2.993963e-01
3.044721e-01
3.096222e-01
3.148495e-01
3.201556e-01
3.255367e-01
3.309826e-01
3.364805e-01
3.420254e-01
3.476271e-01
3.533035e-01
3.590679e-01
3.649203e-01
3.708485e-01
3.768335e-01
3.828556e-01
3.889001e-01
3.949617e-01
4.010453e-01
4.071596e-01
4.133108e-01
4.194972e-01
4.257065e-01
4.319150e-01
4.380925e-01
4.442102e-01
4.502495e-01
4.562082e-01
4.621012e-01
4.679550e-01
4.737974e-01
4.796495e-01
4.855282e-01
4.914542e-01
4.974513e-01
5.035361e-01
5.097111e-01
5.159708e-01
5.223091e-01
5.287205e-01
5.351991e-01
5.417421e-01
5.483522e-01
5.550324e-01
5.617811e-01
5.685936e-01
5.754670e-01
5.823963e-01
5.893684e-01
5.963605e-01
6.033438e-01
6.102864e-01
6.171554e-01
6.239242e-01
6.305811e-01
6.371336e-01
6.436091e-01
6.500481e-01
6.564912e-01
6.629666e-01
6.694849e-01
6.760425e-01
6.826302e-01
6.892404e-01
6.958692e-01
7.025183e-01
7.091958e-01
7.159105e-01
7.226610e-01
7.294335e-01
7.362105e-01
7.429805e-01
7.497394e-01
7.564884e-01
7.632315e-01
7.699667e-01
7.766774e-01
7.833317e-01
7.898953e-01
7.963484e-01
8.026952e-01
8.089586e-01
8.151624e-01
8.213161e-01
8.274108e-01
8.334275e-01
8.393480e-01
8.451588e-01
8.508500e-01
8.564098e-01
8.618218e-01
8.670667e-01
8.721262e-01
8.769892e-01
8.816563e-01
8.861413e-01
8.904671e-01
8.946568e-01
8.987240e-01
9.026700e-01
9.064891e-01
9.101762e-01
9.137313e-01
9.171626e-01
9.204886e-01
9.237335e-01
9.269208e-01
9.300717e-01
9.332072e-01
9.363467e-01
9.395011e-01
9.426704e-01
9.458498e-01
9.490365e-01
9.522276e-01
9.554158e-01
9.585913e-01
9.617463e-01
9.648760e-01
9.679765e-01
9.710445e-01
9.740771e-01
9.770701e-01
9.800173e-01
9.829126e-01
9.857543e-01
9.885464e-01
9.912957e-01
9.940076e-01
9.966837e-01
9.993227e-01
1.001929e+00
1.004519e+00
1.007122e+00
1.009772e+00
1.012495e+00
1.015306e+00
1.018199e+00
1.021160e+00
1.024168e+00
1.027197e+00
1.030217e+00
1.033201e+00
1.036130e+00
1.038992e+00
1.041779e+00
1.044477e+00
1.047060e+00
1.049496e+00
1.051766e+00
1.053874e+00
1.055841e+00
1.057702e+00
1.059492e+00
1.061236e+00
1.062938e+00
1.064586e+00
1.066153e+00
1.067616e+00
1.068959e+00
1.070175e+00
1.071263e+00
1.072221e+00
1.073044e+00
1.073735e+00
1.074306e+00
1.074775e+00
1.075152e+00
1.075436e+00
1.075610e+00
1.075653e+00
1.075548e+00
1.075293e+00
1.074901e+00
1.074406e+00
1.073845e+00
1.073244e+00
1.072613e+00
1.071943e+00
1.071223e+00
1.070445e+00
1.069608e+00
1.068705e+00
1.067729e+00
1.066674e+00
1.065533e+00
1.064310e+00
1.063017e+00
1.061666e+00
1.060255e+00
1.058761e+00
1.057146e+00
1.055366e+00
1.053378e+00
1.051150e+00
1.048664e+00
1.045920e+00
1.042933e+00
1.039722e+00
1.036308e+00
1.032715e+00
1.028968e+00
1.025101e+00
1.021144e+00
1.017126e+00
1.013059e+00
1.008938e+00
1.004746e+00
1.000457e+00
9.960398e-01
9.914613e-01
9.867015e-01
9.817570e-01
9.766371e-01
9.713543e-01
9.659200e-01
9.603467e-01
9.546538e-01
9.488730e-01
9.430463e-01
9.372153e-01
9.314057e-01
9.256161e-01
9.198236e-01
9.140016e-01
9.081357e-01
9.022265e-01
8.962790e-01
8.902895e-01
8.842453e-01
8.781391e-01
8.719834e-01
8.658100e-01
8.596556e-01
8.535428e-01
8.474730e-01
8.414328e-01
8.354069e-01
8.293833e-01
8.233519e-01
8.173015e-01
8.112213e-01
8.050989e-01
7.989170e-01
7.926523e-01
7.862838e-01
7.798057e-01
7.732324e-01
7.665921e-01
7.599143e-01
7.532215e-01
7.465313e-01
7.398664e-01
7.332582e-01
7.267388e-01
7.203283e-01
7.140342e-01
7.078615e-01
7.018215e-01
6.959286e-01
6.901922e-01
6.846112e-01
6.791742e-01
6.738643e-01
6.686638e-01
6.635542e-01
6.585106e-01
6.534971e-01
6.484662e-01
6.433639e-01
6.381383e-01
6.327493e-01
6.271759e-01
6.214179e-01
6.154904e-01
6.094126e-01
6.031967e-01
5.968387e-01
5.903182e-01
5.836075e-01
5.766864e-01
5.695498e-01
5.622080e-01
5.546818e-01
5.469962e-01
5.391738e-01
5.312313e-01
5.231808e-01
5.150287e-01
5.067720e-01
4.983974e-01
4.898890e-01
4.812407e-01
4.724662e-01
4.635980e-01
4.546765e-01
4.457346e-01
4.367916e-01
4.278567e-01
4.189360e-01
4.100365e-01
4.011668e-01
3.923338e-01
3.835376e-01
3.747676e-01
3.660075e-01
3.572403e-01
3.484496e-01
3.396195e-01
3.307362e-01
3.217873e-01
3.127595e-01
3.036406e-01
2.944239e-01
2.851153e-01
2.757380e-01
2.663322e-01
2.569475e-01
2.476324e-01
2.384279e-01
2.293624e-01
2.204501e-01
2.116932e-01
2.030901e-01
1.946443e-01
1.863664e-01
1.782607e-01
1.703076e-01
1.624561e-01
1.546349e-01
1.467697e-01
1.387913e-01
1.306334e-01
1.222307e-01
1.135276e-01
1.044972e-01
9.516056e-02
8.559045e-02
7.589078e-02
6.616324e-02
5.648586e-02
4.691147e-02
3.747087e-02
2.816827e-02
1.897450e-02
9.828562e-03
6.473621e-04
-8.662596e-03
-1.819409e-02
-2.802502e-02
-3.820214e-02
-4.873242e-02
-5.958754e-02
-7.071454e-02
-8.204438e-02
-9.349842e-02
-1.049948e-01
-1.164550e-01
-1.278102e-01
-1.390092e-01
-1.500213e-01
-1.608336e-01
-1.714438e-01
-1.818496e-01
-1.920386e-01
-2.019893e-01
-2.116827e-01
-2.211108e-01
-2.302805e-01
-2.392175e-01
-2.479733e-01
-2.566236e-01
-2.652533e-01
-2.739340e-01
-2.827021e-01
-2.915507e-01
-3.004354e-01
-3.092872e-01
-3.180263e-01
-3.265753e-01
-3.348736e-01
-3.428931e-01
-3.506474e-01
-3.581930e-01
-3.656206e-01
-3.730353e-01
-3.805321e-01
-3.881753e-01
-3.959922e-01
-4.039771e-01
-4.121049e-01
-4.203459e-01
-4.286787e-01
-4.370950e-01
-4.455966e-01
-4.541848e-01
-4.628483e-01
-4.715617e-01
-4.802982e-01
-4.890491e-01
-4.978304e-01
-5.066745e-01
-5.156160e-01
-5.246870e-01
-5.339173e-01
-5.433327e-01
-5.529545e-01
-5.628068e-01
-5.729266e-01
-5.833580e-01
-5.941310e-01
-6.052420e-01
-6.166526e-01
-6.283064e-01
-6.401476e-01
-6.521256e-01
-6.641858e-01
-6.762614e-01
-6.882797e-01
-7.001786e-01
-7.119201e-01
-7.234907e-01
-7.348933e-01
-7.461383e-01
-7.572411e-01
-7.682208e-01
-7.790989e-01
-7.898935e-01
-8.006141e-01
-8.112567e-01
-8.218026e-01
-8.322231e-01
-8.424866e-01
-8.525676e-01
-8.624552e-01
-8.721597e-01
-8.817087e-01
-8.911315e-01
-9.004408e-01
-9.096239e-01
-9.186464e-01
-9.274683e-01
-9.360643e-01
-9.444362e-01
-9.526054e-01
-9.605878e-01
-9.683665e-01
-9.758860e-01
-9.830752e-01
-9.898835e-01
-9.963013e-01
-1.002355e+00
-1.008088e+00
-1.013547e+00
-1.018783e+00
-1.023853e+00
-1.028817e+00
-1.033718e+00
-1.038576e+00
-1.043390e+00
-1.048143e+00
-1.052817e+00
-1.057405e+00
-1.061910e+00
-1.066341e+00
-1.070705e+00
-1.075000e+00
-1.079209e+00
-1.083302e+00
-1.087239e+00
-1.090988e+00
-1.094531e+00
-1.097871e+00
-1.101013e+00
-1.103959e+00
-1.106705e+00
-1.109259e+00
-1.111646e+00
-1.113909e+00
-1.116093e+00
-1.118231e+00
-1.120345e+00
-1.122445e+00
-1.124536e+00
-1.126616e+00
-1.128680e+00
-1.130717e+00
-1.132708e+00
-1.134626e+00
-1.136439e+00
-1.138125e+00
-1.139681e+00
-1.141124e+00
-1.142484e+00
-1.143790e+00
-1.145045e+00
-1.146221e+00
-1.147264e+00
-1.148115e+00
-1.148736e+00
-1.149114e+00
-1.149247e+00
-1.149125e+00
-1.148716e+00
-1.147967e+00
-1.146820e+00
-1.145243e+00
-1.143243e+00
-1.140862e+00
-1.138157e+00
-1.135189e+00
-1.132010e+00
-1.128649e+00
-1.125105e+00
-1.121342e+00
-1.117306e+00
-1.112943e+00
-1.108209e+00
-1.103077e+00
-1.097525e+00
-1.091540e+00
-1.085137e+00
-1.078348e+00
-1.071213e+00
-1.063759e+00
-1.056002e+00
-1.047948e+00
-1.039604e+00
-1.030971e+00
-1.022055e+00
-1.012880e+00
-1.003493e+00
-9.939566e-01
-9.843260e-01
-9.746475e-01
-9.649626e-01
-9.553128e-01
-9.457332e-01
-9.362464e-01
-9.268638e-01
-9.175937e-01
-9.084465e-01
-8.994321e-01
-8.905490e-01
-8.817759e-01
-8.730737e-01
-8.643999e-01
-8.557249e-01
-8.470372e-01
-8.383372e-01
-8.296334e-01
-8.209410e-01
-8.122748e-01
-8.036349e-01
-7.949998e-01
-7.863340e-01
-7.776074e-01
-7.688103e-01
-7.599526e-01
-7.510467e-01
-7.420891e-01
-7.330595e-01
-7.239373e-01
-7.147180e-01
-7.054138e-01
-6.960388e-01
-6.865946e-01
-6.770624e-01
-6.674027e-01
-6.575634e-01
-6.474944e-01
-6.371629e-01
-6.265575e-01
-6.156825e-01
-6.045533e-01
-5.931971e-01
-5.816453e-01
-5.699171e-01
-5.580080e-01
-5.458943e-01
-5.335502e-01
-5.209645e-01
-5.081478e-01
-4.951243e-01
-4.819118e-01
-4.685048e-01
-4.548732e-01
-4.409779e-01
-4.267895e-01
-4.122991e-01
-3.975235e-01
-3.825086e-01
-3.673282e-01
-3.520734e-01
-3.368362e-01
-3.216985e-01
-3.067233e-01
-2.919463e-01
-2.773684e-01
-2.629550e-01
-2.486441e-01
-2.343620e-01
-2.200437e-01
-2.056495e-01
-1.911698e-01
-1.766170e-01
-1.620115e-01
-1.473681e-01
-1.326914e-01
-1.179810e-01
-1.032386e-01
-8.847103e-02
-7.369120e-02
-5.892239e-02
-4.420069e-02
-2.956973e-02
-1.506978e-02
-7.315912e-04
1.342114e-02
2.736637e-02
4.108134e-02
5.454512e-02
6.774689e-02
8.069669e-02
9.342884e-02
1.059906e-01
1.184225e-01
1.307484e-01
1.429857e-01
1.551627e-01
1.673234e-01
1.795132e-01
1.917591e-01
2.040592e-01
2.163862e-01
2.286953e-01
2.409297e-01
2.530269e-01
2.649276e-01
2.765828e-01
2.879575e-01
2.990275e-01
3.097733e-01
3.201745e-01
3.302164e-01
3.399051e-01
3.492735e-01
3.583682e-01
3.672334e-01
3.759046e-01
3.844120e-01
3.927823e-01
4.010347e-01
4.091756e-01
4.171997e-01
4.250975e-01
4.328628e-01
4.404927e-01
4.479856e-01
4.553413e-01
4.625674e-01
4.696877e-01
4.767435e-01
4.837815e-01
4.908340e-01
4.979071e-01
5.049824e-01
5.120269e-01
5.190076e-01
5.259042e-01
5.327183e-01
5.394759e-01
5.462227e-01
5.530037e-01
5.598356e-01
5.666903e-01
5.735033e-01
5.802010e-01
5.867269e-01
5.930567e-01
5.992033e-01
6.052111e-01
6.111420e-01
6.170527e-01
6.229772e-01
6.289243e-01
6.348892e-01
6.408642e-01
6.468426e-01
6.528149e-01
6.587640e-01
6.646648e-01
6.704921e-01
6.762337e-01
6.818966e-01
6.875002e-01
6.930675e-01
6.986222e-01
7.041919e-01
7.098054e-01
7.154857e-01
7.212436e-01
7.270774e-01
7.329766e-01
7.389284e-01
7.449282e-01
7.509885e-01
7.571391e-01
7.634199e-01
7.698724e-01
7.765305e-01
7.834109e-01
7.905104e-01
7.978176e-01
8.053196e-01
8.129933e-01
8.207917e-01
8.286478e-01
8.364983e-01
8.443032e-01
8.520384e-01
8.596747e-01
8.671675e-01
8.744713e-01
8.815627e-01
8.884546e-01
8.951895e-01
9.018196e-01
9.083931e-01
9.149533e-01
9.215387e-01
9.281735e-01
9.348599e-01
9.415808e-01
9.483127e-01
9.550381e-01
9.617507e-01
9.684553e-01
9.751612e-01
9.818726e-01
9.885786e-01
9.952506e-01
1.001844e+00
1.008306e+00
1.014586e+00
1.020656e+00
1.026515e+00
1.032196e+00
1.037760e+00
1.043278e+00
1.048814e+00
1.054410e+00
1.060079e+00
1.065821e+00
1.071634e+00
1.077527e+00
1.083512e+00
1.089596e+00
1.095769e+00
1.102002e+00
1.108250e+00
1.114464e+00
1.120598e+00
1.126612e+00
1.132474e+00
1.138152e+00
1.143620e+00
1.148869e+00
1.153920e+00
1.158808e+00
1.163563e+00
1.168192e+00
1.172697e+00
1.177085e+00
1.181381e+00
1.185614e+00
1.189810e+00
1.193984e+00
1.198135e+00
1.202255e+00
1.206326e+00
1.210321e+00
1.214195e+00
1.217901e+00
1.221395e+00
1.224654e+00
1.227673e+00
1.230463e+00
1.233045e+00
1.235444e+00
1.237711e+00
1.239925e+00
1.242171e+00
1.244511e+00
1.246966e+00
1.249524e+00
1.252170e+00
1.254900e+00
1.257729e+00
1.260676e+00
1.263752e+00
1.266945e+00
1.270226e+00
1.273551e+00
1.276879e+00
1.280175e+00
1.283416e+00
1.286592e+00
1.289700e+00
1.292744e+00
1.295729e+00
1.298656e+00
1.301521e+00
1.304319e+00
1.307040e+00
1.309666e+00
1.312158e+00
1.314460e+00
1.316501e+00
1.318214e+00
1.319552e+00
1.320488e+00
1.321006e+00
1.321091e+00
1.320717e+00
1.319861e+00
1.318517e+00
1.316717e+00
1.314518e+00
1.311985e+00
1.309172e+00
1.306104e+00
1.302779e+00
1.299179e+00
1.295277e+00
1.291053e+00
1.286506e+00
1.281659e+00
1.276558e+00
1.271251e+00
1.265780e+00
1.260170e+00
1.254440e+00
1.248611e+00
1.242705e+00
1.236726e+00
1.230660e+00
1.224476e+00
1.218151e+00
1.211671e+00
1.205030e+00
1.198213e+00
1.191205e+00
1.183999e+00
1.176607e+00
1.169057e+00
1.161387e+00
1.153637e+00
1.145834e+00
1.137989e+00
1.130103e+00
1.122186e+00
1.114258e+00
1.106339e+00
1.098432e+00
1.090514e+00
1.082536e+00
1.074445e+00
1.066203e+00
1.057803e+00
1.049270e+00
1.040654e+00
1.032003e+00
1.023336e+00
1.014635e+00
1.005850e+00
9.969278e-01
9.878256e-01
9.785307e-01
9.690683e-01
9.594954e-01
9.498814e-01
9.402894e-01
9.307658e-01
9.213420e-01
9.120380e-01
9.028661e-01
8.938318e-01
8.849341e-01
8.761641e-01
8.675047e-01
8.589349e-01
8.504360e-01
8.419972e-01
8.336184e-01
8.253102e-01
8.170864e-01
8.089506e-01
8.008897e-01
7.928855e-01
7.849299e-01
7.770309e-01
7.692047e-01
7.614623e-01
7.537999e-01
7.462001e-01
7.386416e-01
7.311133e-01
7.236238e-01
7.162034e-01
7.088952e-01
7.017385e-01
6.947514e-01
6.879194e-01
6.811987e-01
6.745341e-01
6.678837e-01
6.612308e-01
6.545766e-01
6.479233e-01
6.412647e-01
6.345905e-01
6.278961e-01
6.211856e-01
6.144693e-01
6.077619e-01
6.010829e-01
5.944559e-01
5.879052e-01
5.814532e-01
5.751189e-01
5.689191e-01
5.628677e-01
5.569770e-01
5.512623e-01
5.457449e-01
5.404483e-01
5.353872e-01
5.305573e-01
5.259345e-01
5.214863e-01
5.171865e-01
5.130250e-01
5.090080e-01
5.051497e-01
5.014564e-01
4.979140e-01
4.944894e-01
4.911472e-01
4.878643e-01
4.846311e-01
4.814413e-01
4.782816e-01
4.751323e-01
4.719728e-01
4.687886e-01
4.655737e-01
4.623293e-01
4.590660e-01
4.558066e-01
4.525856e-01
4.494395e-01
4.463969e-01
4.434725e-01
4.406689e-01
4.379793e-01
4.353869e-01
4.328609e-01
4.303573e-01
4.278294e-01
4.252412e-01
4.225731e-01
4.198160e-01
4.169604e-01
4.139949e-01
4.109135e-01
4.077255e-01
4.044557e-01
4.011347e-01
3.977895e-01
3.944446e-01
3.911290e-01
3.878816e-01
3.847466e-01
3.817621e-01
3.789456e-01
3.762868e-01
3.737555e-01
3.713191e-01
3.689575e-01
3.666640e-01
3.644355e-01
3.622646e-01
3.601422e-01
3.580685e-01
3.560585e-01
3.541337e-01
3.523082e-01
3.505789e-01
3.489260e-01
3.473213e-01
3.457362e-01
3.441468e-01
3.425354e-01
3.408923e-01
3.392183e-01
3.375283e-01
3.358562e-01
3.342567e-01
3.328014e-01
3.315686e-01
3.306308e-01
3.300410e-01
3.298218e-01
3.299626e-01
3.304314e-01
3.311973e-01
3.322442e-01
3.335659e-01
3.351478e-01
3.369552e-01
3.389377e-01
3.410424e-01
3.432191e-01
3.454157e-01
3.475722e-01
3.496208e-01
3.514934e-01
3.531296e-01
3.544820e-01
3.555202e-01
3.562353e-01
3.566457e-01
3.567949e-01
3.567391e-01
3.565277e-01
3.561890e-01
3.557276e-01
3.551328e-01
3.543885e-01
3.534770e-01
3.523781e-01
3.510689e-01
3.495297e-01
3.477526e-01
3.457476e-01
3.435441e-01
3.411841e-01
3.387101e-01
3.361522e-01
3.335207e-01
3.308063e-01
3.279838e-01
3.250211e-01
3.218917e-01
3.185909e-01
3.151448e-01
3.116036e-01
3.080251e-01
3.044600e-01
3.009463e-01
2.975126e-01
2.941853e-01
2.909884e-01
2.879362e-01
2.850288e-01
2.822559e-01
2.796065e-01
2.770724e-01
2.746467e-01
2.723217e-01
2.700911e-01
2.679517e-01
2.659050e-01
2.639566e-01
2.621131e-01
2.603774e-01
2.587484e-01
2.572251e-01
2.558088e-01
2.544987e-01
2.532855e-01
2.521512e-01
2.510739e-01
2.500306e-01
2.489975e-01
2.479503e-01
2.468674e-01
2.457369e-01
2.445645e-01
2.433782e-01
2.422208e-01
2.411327e-01
2.401318e-01
2.392092e-01
2.383439e-01
2.375256e-01
2.367608e-01
2.360561e-01
2.353926e-01
2.347204e-01
2.339795e-01
2.331314e-01
2.321745e-01
2.311353e-01
2.300478e-01
2.289378e-01
2.278189e-01
2.266949e-01
2.255618e-01
2.244050e-01
2.231956e-01
2.218928e-01
2.204552e-01
2.188548e-01
2.170877e-01
2.151763e-01
2.131639e-01
2.111060e-01
2.090646e-01
2.071044e-01
2.052869e-01
2.036561e-01
2.022231e-01
2.009659e-01
1.998455e-01
1.988250e-01
1.978753e-01
1.969702e-01
1.960826e-01
1.951854e-01
1.942536e-01
1.932657e-01
1.922068e-01
1.910716e-01
1.898613e-01
1.885760e-01
1.872113e-01
1.857619e-01
1.842277e-01
1.826175e-01
1.809483e-01
1.792402e-01
1.775068e-01
1.757446e-01
1.739282e-01
1.720168e-01
1.699641e-01
1.677281e-01
1.652775e-01
1.625945e-01
1.596762e-01
1.565358e-01
1.532087e-01
1.497538e-01
1.462411e-01
1.427266e-01
1.392330e-01
1.357476e-01
1.322384e-01
1.286779e-01
1.250624e-01
1.214204e-01
1.178085e-01
1.142986e-01
1.109595e-01
1.078429e-01
1.049772e-01
1.023680e-01
1.000035e-01
9.786261e-02
9.592090e-02
9.415180e-02
9.252447e-02
9.100400e-02
8.955458e-02
8.814366e-02
8.674498e-02
8.533929e-02
8.391016e-02
8.243431e-02
8.087442e-02
7.918470e-02
7.732774e-02
7.528844e-02
7.307380e-02
7.070219e-02
6.819437e-02
6.557418e-02
6.287700e-02
6.015819e-02
5.749190e-02
5.495640e-02
5.261397e-02
5.049795e-02
4.861145e-02
4.693353e-02
4.543083e-02
4.407226e-02
4.283927e-02
4.172354e-02
4.071496e-02
3.978998e-02
3.890689e-02
3.800724e-02
3.702042e-02
3.586976e-02
3.447807e-02
3.277114e-02
3.067988e-02
2.814345e-02
2.511444e-02
2.156563e-02
1.749644e-02
1.293543e-02
7.936504e-03
2.570034e-03
-3.084859e-03
-8.941193e-03
-1.490151e-02
-2.086269e-02
-2.673153e-02
-3.244084e-02
-3.795490e-02
-4.326542e-02
-4.838705e-02
-5.335709e-02
-5.823456e-02
