EVENT_NAME: L_AQUILA
EVENT_ID: IT-2009-0009
EVENT_DATE_YYYYMMDD: 20090406
EVENT_TIME_HHMMSS: 013240
EVENT_LATITUDE_DEGREE: 42.3420
EVENT_LONGITUDE_DEGREE: 13.3800
EVENT_DEPTH_KM: 8.3
HYPOCENTER_REFERENCE: INGV-CNT_Seismic_Bulletin
MAGNITUDE_W: 6.1
MAGNITUDE_W_REFERENCE: INGV-CNT_Seismic_Bulletin
MAGNITUDE_L: 
MAGNITUDE_L_REFERENCE: 
FOCAL_MECHANISM: Normal faulting
NETWORK: IT
STATION_CODE: GSG
STATION_NAME: 
STATION_LATITUDE_DEGREE: 42.460000
STATION_LONGITUDE_DEGREE: 13.550000
STATION_ELEVATION_M: 1200
LOCATION: 
SENSOR_DEPTH_M: 200.0
VS30_M/S: 
SITE_CLASSIFICATION_EC8: B (inferred from geology)
MORPHOLOGIC_CLASSIFICATION: 
EPICENTRAL_DISTANCE_KM: 19.2
EARTHQUAKE_BACKAZIMUTH_DEGREE: 46.8
DATE_TIME_FIRST_SAMPLE_YYYYMMDD_HHMMSS: 20090406_013229.000 
DATE_TIME_FIRST_SAMPLE_PRECISION: 
SAMPLING_INTERVAL_S: 0.005000
NDATA: 20000
DURATION_S: 100.000
STREAM: HNN
UNITS: cm
INSTRUMENT: sensor = FBA-3 [Kinemetrics] | digitizer = Everest [Kinemetrics]
INSTRUMENT_ANALOG/DIGITAL: D
INSTRUMENTAL_FREQUENCY_HZ: 210.000
INSTRUMENTAL_DAMPING: 0.700000
FULL_SCALE_G: 1.0
N_BIT_DIGITAL_CONVERTER: 24
PGD_CM: 1.711831
TIME_PGD_S: 37.295000
BASELINE_CORRECTION: BASELINE REMOVED
FILTER_TYPE: BUTTERWORTH
FILTER_ORDER: 2
LOW_CUT_FREQUENCY_HZ: 0.100
HIGH_CUT_FREQUENCY_HZ: 40.000
LATE/NORMAL_TRIGGERED: NT
DATABASE_VERSION: 0.5
HEADER_FORMAT: DYNA 1.2
DATA_TYPE: DISPLACEMENT
PROCESSING: manual (Paolucci et al., 2011)
DATA_TIMESTAMP_YYYYMMDD_HHMMSS: 20211011_155808.244
DATA_LICENSE: CC-BY3_0-IT (http://creativecommons.org/licenses/by/3.0/deed.en)
DATA_CITATION: Luzi L, Pacor F, Puglia R (2019). Italian Accelerometric Archive v 3.0 - Istituto Nazionale di Geofisica e Vulcanologia, Dipartimento della Protezione Civile Nazionale. doi: 10.13127/itaca.3.1
DATA_CREATOR: ITACA working group
ORIGINAL_DATA_MEDIATOR_CITATION: data obtained within the DPC-INGV data exchange agreements
ORIGINAL_DATA_MEDIATOR: Archive of Italian Department of Civil Protection
ORIGINAL_DATA_CREATOR_CITATION: Presidency Of Counsil Of Ministers-Civil Protection Department. (1972). Italian Strong Motion Network. Presidency of Counsil of Ministers - Civil Protection Department. https://doi.org/10.7914/SN/IT http://www.fdsn.org/networks/detail/IT/
ORIGINAL_DATA_CREATOR: network: IT (Italian Strong Motion Network (RAN)); owner: Presidency of Counsil of Ministers - Civil Protection Department (PCM - DPC)
USER1: 
USER2: 
USER3: 
USER4: 
USER5: 
[...]
-2.111883e-01
-2.098085e-01
-2.084278e-01
-2.070378e-01
-2.056331e-01
-2.042092e-01
-2.027644e-01
-2.013036e-01
-1.998363e-01
-1.983723e-01
-1.969194e-01
-1.954824e-01
-1.940611e-01
-1.926503e-01
-1.912444e-01
-1.898396e-01
-1.884309e-01
-1.870066e-01
-1.855508e-01
-1.840506e-01
-1.825033e-01
-1.809197e-01
-1.793217e-01
-1.777298e-01
-1.761477e-01
-1.745590e-01
-1.729408e-01
-1.712786e-01
-1.695701e-01
-1.678170e-01
-1.660139e-01
-1.641427e-01
-1.621744e-01
-1.600791e-01
-1.578379e-01
-1.554456e-01
-1.529076e-01
-1.502389e-01
-1.474663e-01
-1.446193e-01
-1.417161e-01
-1.387605e-01
-1.357523e-01
-1.326953e-01
-1.295916e-01
-1.264355e-01
-1.232189e-01
-1.199415e-01
-1.166130e-01
-1.132462e-01
-1.098490e-01
-1.064199e-01
-1.029420e-01
-9.938294e-02
-9.570658e-02
-9.189020e-02
-8.793020e-02
-8.383148e-02
-7.959311e-02
-7.520762e-02
-7.067797e-02
-6.603253e-02
-6.131530e-02
-5.655884e-02
-5.176781e-02
-4.692530e-02
-4.201259e-02
-3.702707e-02
-3.198734e-02
-2.692525e-02
-2.187247e-02
-1.684689e-02
-1.184401e-02
-6.841697e-03
-1.819446e-03
3.221651e-03
8.254684e-03
1.324044e-02
1.814660e-02
2.296034e-02
2.769009e-02
3.235652e-02
3.697719e-02
4.155432e-02
4.607424e-02
5.052044e-02
5.489381e-02
5.922214e-02
6.354191e-02
6.786317e-02
7.215421e-02
7.636418e-02
8.045779e-02
8.442806e-02
8.828620e-02
9.204799e-02
9.572656e-02
9.933069e-02
1.028668e-01
1.063420e-01
1.097639e-01
1.131385e-01
1.164729e-01
1.197815e-01
1.230877e-01
1.264199e-01
1.298052e-01
1.332680e-01
1.368273e-01
1.404874e-01
1.442360e-01
1.480559e-01
1.519386e-01
1.558840e-01
1.598936e-01
1.639612e-01
1.680624e-01
1.721585e-01
1.762124e-01
1.802007e-01
1.841081e-01
1.879161e-01
1.915971e-01
1.951177e-01
1.984495e-01
2.015781e-01
2.045046e-01
2.072396e-01
2.097960e-01
2.121807e-01
2.143895e-01
2.164118e-01
2.182485e-01
2.199264e-01
2.214941e-01
2.230054e-01
2.245037e-01
2.260109e-01
2.275248e-01
2.290303e-01
2.305161e-01
2.319816e-01
2.334316e-01
2.348751e-01
2.363348e-01
2.378509e-01
2.394703e-01
2.412301e-01
2.431496e-01
2.452277e-01
2.474406e-01
2.497445e-01
2.520924e-01
2.544608e-01
2.568619e-01
2.593303e-01
2.618961e-01
2.645617e-01
2.672942e-01
2.700384e-01
2.727413e-01
2.753694e-01
2.779082e-01
2.803515e-01
2.826927e-01
2.849230e-01
2.870337e-01
2.890198e-01
2.908817e-01
2.926243e-01
2.942533e-01
2.957754e-01
2.972014e-01
2.985482e-01
2.998333e-01
3.010724e-01
3.022820e-01
3.034801e-01
3.046774e-01
3.058663e-01
3.070216e-01
3.081181e-01
3.091494e-01
3.101306e-01
3.110851e-01
3.120267e-01
3.129545e-01
3.138601e-01
3.147382e-01
3.155873e-01
3.164011e-01
3.171613e-01
3.178429e-01
3.184279e-01
3.189171e-01
3.193301e-01
3.196954e-01
3.200405e-01
3.203907e-01
3.207763e-01
3.212356e-01
3.218095e-01
3.225316e-01
3.234190e-01
3.244671e-01
3.256505e-01
3.269330e-01
3.282778e-01
3.296560e-01
3.310581e-01
3.325017e-01
3.340252e-01
3.356711e-01
3.374715e-01
3.394420e-01
3.415777e-01
3.438510e-01
3.462166e-01
3.486244e-01
3.510353e-01
3.534297e-01
3.558050e-01
3.581626e-01
3.604976e-01
3.627981e-01
3.650527e-01
3.672551e-01
3.694008e-01
3.714782e-01
3.734588e-01
3.752964e-01
3.769436e-01
3.783736e-01
3.795857e-01
3.805901e-01
3.813927e-01
3.819936e-01
3.823981e-01
3.826240e-01
3.826964e-01
3.826407e-01
3.824817e-01
3.822500e-01
3.819847e-01
3.817296e-01
3.815223e-01
3.813817e-01
3.813042e-01
3.812728e-01
3.812706e-01
3.812831e-01
3.812900e-01
3.812614e-01
3.811682e-01
3.809962e-01
3.807521e-01
3.804589e-01
3.801447e-01
3.798311e-01
3.795213e-01
3.791970e-01
3.788257e-01
3.783738e-01
3.778168e-01
3.771443e-01
3.763596e-01
3.754720e-01
3.744845e-01
3.733911e-01
3.721830e-01
3.708562e-01
3.694132e-01
3.678648e-01
3.662339e-01
3.645526e-01
3.628543e-01
3.611658e-01
3.595060e-01
3.578876e-01
3.563208e-01
3.548175e-01
3.533920e-01
3.520547e-01
3.508017e-01
3.496065e-01
3.484181e-01
3.471689e-01
3.457868e-01
3.442071e-01
3.423786e-01
3.402663e-01
3.378518e-01
3.351355e-01
3.321406e-01
3.289181e-01
3.255382e-01
3.220683e-01
3.185523e-01
3.150064e-01
3.114285e-01
3.078114e-01
3.041502e-01
3.004475e-01
2.967125e-01
2.929613e-01
2.892210e-01
2.855313e-01
2.819329e-01
2.784413e-01
2.750312e-01
2.716444e-01
2.682082e-01
2.646506e-01
2.609135e-01
2.569676e-01
2.528208e-01
2.485064e-01
2.440624e-01
2.395226e-01
2.349256e-01
2.303239e-01
2.257747e-01
2.213164e-01
2.169567e-01
2.126878e-01
2.085121e-01
2.044524e-01
2.005422e-01
1.968150e-01
1.933033e-01
1.900441e-01
1.870792e-01
1.844426e-01
1.821401e-01
1.801351e-01
1.783572e-01
1.767262e-01
1.751705e-01
1.736299e-01
1.720507e-01
1.703893e-01
1.686228e-01
1.667520e-01
1.647893e-01
1.627404e-01
1.605914e-01
1.583084e-01
1.558524e-01
1.532058e-01
1.503926e-01
1.474745e-01
1.445320e-01
1.416493e-01
1.389117e-01
1.363981e-01
1.341606e-01
1.322013e-01
1.304636e-01
1.288501e-01
1.272567e-01
1.256095e-01
1.238841e-01
1.220964e-01
1.202674e-01
1.183916e-01
1.164369e-01
1.143675e-01
1.121682e-01
1.098540e-01
1.074615e-01
1.050266e-01
1.025661e-01
1.000780e-01
9.755811e-02
9.501246e-02
9.245824e-02
8.991684e-02
8.740785e-02
8.494397e-02
8.252280e-02
8.011899e-02
7.769015e-02
7.520261e-02
7.265698e-02
7.008441e-02
6.751127e-02
6.492634e-02
6.228863e-02
5.957253e-02
5.679895e-02
5.401253e-02
5.123013e-02
4.841752e-02
4.551236e-02
4.246500e-02
3.926670e-02
3.595420e-02
3.259026e-02
2.922921e-02
2.588700e-02
2.253515e-02
1.912028e-02
1.558973e-02
1.190194e-02
8.022420e-03
3.922241e-03
-4.150814e-04
-4.988756e-03
-9.783549e-03
-1.477574e-02
-1.993995e-02
-2.525540e-02
-3.070557e-02
-3.627071e-02
-4.192298e-02
-4.763165e-02
-5.337291e-02
-5.913704e-02
-6.493322e-02
-7.079068e-02
-7.674844e-02
-8.283558e-02
-8.905445e-02
-9.537318e-02
-1.017261e-01
-1.080223e-01
-1.141605e-01
-1.200428e-01
-1.255843e-01
-1.307221e-01
-1.354252e-01
-1.396956e-01
-1.435613e-01
-1.470662e-01
-1.502633e-01
-1.532142e-01
-1.559902e-01
-1.586629e-01
-1.612858e-01
-1.638856e-01
-1.664730e-01
-1.690597e-01
-1.716649e-01
-1.743132e-01
-1.770300e-01
-1.798361e-01
-1.827400e-01
-1.857310e-01
-1.887825e-01
-1.918659e-01
-1.949677e-01
-1.980977e-01
-2.012871e-01
-2.045783e-01
-2.080127e-01
-2.116206e-01
-2.154131e-01
-2.193743e-01
-2.234551e-01
-2.275723e-01
-2.316239e-01
-2.355171e-01
-2.391976e-01
-2.426671e-01
-2.459840e-01
-2.492446e-01
-2.525531e-01
-2.559940e-01
-2.596233e-01
-2.634751e-01
-2.675696e-01
-2.719117e-01
-2.764796e-01
-2.812218e-01
-2.860694e-01
-2.909595e-01
-2.958510e-01
-3.007285e-01
-3.056005e-01
-3.104979e-01
-3.154707e-01
-3.205852e-01
-3.259173e-01
-3.315396e-01
-3.374956e-01
-3.437706e-01
-3.502829e-01
-3.569153e-01
-3.635646e-01
-3.701674e-01
-3.766851e-01
-3.830733e-01
-3.892707e-01
-3.952140e-01
-4.008595e-01
-4.061858e-01
-4.111770e-01
-4.158112e-01
-4.200707e-01
-4.239603e-01
-4.275082e-01
-4.307519e-01
-4.337200e-01
-4.364261e-01
-4.388761e-01
-4.410849e-01
-4.430850e-01
-4.449240e-01
-4.466565e-01
-4.483377e-01
-4.500200e-01
-4.517495e-01
-4.535639e-01
-4.554879e-01
-4.575275e-01
-4.596761e-01
-4.619297e-01
-4.642933e-01
-4.667661e-01
-4.693198e-01
-4.718969e-01
-4.744307e-01
-4.768692e-01
-4.791844e-01
-4.813707e-01
-4.834429e-01
-4.854307e-01
-4.873677e-01
-4.892850e-01
-4.912158e-01
-4.931987e-01
-4.952692e-01
-4.974440e-01
-4.997111e-01
-5.020328e-01
-5.043596e-01
-5.066461e-01
-5.088614e-01
-5.109997e-01
-5.130853e-01
-5.151590e-01
-5.172444e-01
-5.193170e-01
-5.213047e-01
-5.231184e-01
-5.246887e-01
-5.259810e-01
-5.269798e-01
-5.276569e-01
-5.279546e-01
-5.277990e-01
-5.271312e-01
-5.259292e-01
-5.242093e-01
-5.220105e-01
-5.193732e-01
-5.163271e-01
-5.129004e-01
-5.091453e-01
-5.051588e-01
-5.010710e-01
-4.970016e-01
-4.930186e-01
-4.891289e-01
-4.852956e-01
-4.814641e-01
-4.775872e-01
-4.736407e-01
-4.696216e-01
-4.655388e-01
-4.614033e-01
-4.572242e-01
-4.530108e-01
-4.487821e-01
-4.445698e-01
-4.404075e-01
-4.363140e-01
-4.322868e-01
-4.283127e-01
-4.243815e-01
-4.204969e-01
-4.166741e-01
-4.129195e-01
-4.092088e-01
-4.054871e-01
-4.016955e-01
-3.977980e-01
-3.937860e-01
-3.896650e-01
-3.854448e-01
-3.811451e-01
-3.768031e-01
-3.724645e-01
-3.681563e-01
-3.638616e-01
-3.595190e-01
-3.550474e-01
-3.503787e-01
-3.454794e-01
-3.403508e-01
-3.350171e-01
-3.295132e-01
-3.238769e-01
-3.181439e-01
-3.123452e-01
-3.065095e-01
-3.006672e-01
-2.948521e-01
-2.890933e-01
-2.833965e-01
-2.777273e-01
-2.720192e-01
-2.662027e-01
-2.602287e-01
-2.540741e-01
-2.477377e-01
-2.412392e-01
-2.346199e-01
-2.279336e-01
-2.212244e-01
-2.145034e-01
-2.077434e-01
-2.008951e-01
-1.939134e-01
-1.867792e-01
-1.795090e-01
-1.721507e-01
-1.647669e-01
-1.574095e-01
-1.501026e-01
-1.428461e-01
-1.356330e-01
-1.284628e-01
-1.213411e-01
-1.142740e-01
-1.072620e-01
-1.002911e-01
-9.332958e-02
-8.633131e-02
-7.924036e-02
-7.199737e-02
-6.455177e-02
-5.687377e-02
-4.896065e-02
-4.084222e-02
-3.258337e-02
-2.426892e-02
-1.596922e-02
-7.712829e-03
5.066828e-04
8.692916e-03
1.681316e-02
2.480191e-02
3.259164e-02
4.013459e-02
4.740399e-02
5.439104e-02
6.110655e-02
6.758050e-02
7.385416e-02
7.996808e-02
8.595295e-02
9.182738e-02
9.760231e-02
1.032857e-01
1.088801e-01
1.143716e-01
1.197244e-01
1.248937e-01
1.298529e-01
1.346090e-01
1.391911e-01
1.436278e-01
1.479397e-01
1.521468e-01
1.562728e-01
1.603425e-01
1.643792e-01
1.684038e-01
1.724261e-01
1.764341e-01
1.803921e-01
1.842556e-01
1.879905e-01
1.915845e-01
1.950440e-01
1.983871e-01
2.016396e-01
2.048300e-01
2.079808e-01
2.111001e-01
2.141811e-01
2.172056e-01
2.201382e-01
2.229183e-01
2.254710e-01
2.277386e-01
2.297013e-01
2.313674e-01
2.327473e-01
2.338355e-01
2.346092e-01
2.350307e-01
2.350475e-01
2.345994e-01
2.336394e-01
2.321575e-01
2.301920e-01
2.278235e-01
2.251594e-01
2.223232e-01
2.194476e-01
2.166566e-01
2.140363e-01
2.116256e-01
2.094464e-01
2.075457e-01
2.060046e-01
2.049108e-01
2.043328e-01
2.043228e-01
2.049272e-01
2.061829e-01
2.081063e-01
2.106943e-01
2.139397e-01
2.178446e-01
2.224227e-01
2.276958e-01
2.336880e-01
2.404152e-01
2.478693e-01
2.560104e-01
2.647713e-01
2.740716e-01
2.838291e-01
2.939629e-01
3.043965e-01
3.150680e-01
3.259423e-01
3.370113e-01
3.482734e-01
3.597131e-01
3.712935e-01
3.829630e-01
3.946651e-01
4.063453e-01
4.179524e-01
4.294381e-01
4.407583e-01
4.518741e-01
4.627491e-01
4.733533e-01
4.836740e-01
4.937241e-01
5.035406e-01
5.131809e-01
5.227246e-01
5.322716e-01
5.419231e-01
5.517524e-01
5.617937e-01
5.720594e-01
5.825635e-01
5.933235e-01
6.043424e-01
6.155941e-01
6.270294e-01
6.385968e-01
6.502562e-01
6.619761e-01
6.737258e-01
6.854799e-01
6.972305e-01
7.089896e-01
7.207789e-01
7.326200e-01
7.445320e-01
7.565311e-01
7.686251e-01
7.808062e-01
7.930479e-01
8.053120e-01
8.175616e-01
8.297672e-01
8.418977e-01
8.539129e-01
8.657699e-01
8.774398e-01
8.889213e-01
9.002448e-01
9.114718e-01
9.226810e-01
9.339440e-01
9.453043e-01
9.567728e-01
9.683372e-01
9.799725e-01
9.916463e-01
1.003319e+00
1.014949e+00
1.026504e+00
1.037968e+00
1.049339e+00
1.060615e+00
1.071784e+00
1.082825e+00
1.093697e+00
1.104348e+00
1.114737e+00
1.124862e+00
1.134774e+00
1.144549e+00
1.154240e+00
1.163851e+00
1.173339e+00
1.182642e+00
1.191707e+00
1.200506e+00
1.209052e+00
1.217388e+00
1.225577e+00
1.233675e+00
1.241722e+00
1.249733e+00
1.257701e+00
1.265592e+00
1.273361e+00
1.280967e+00
1.288397e+00
1.295657e+00
1.302760e+00
1.309720e+00
1.316558e+00
1.323299e+00
1.329961e+00
1.336548e+00
1.343053e+00
1.349469e+00
1.355792e+00
1.362025e+00
1.368179e+00
1.374262e+00
1.380273e+00
1.386195e+00
1.392007e+00
1.397688e+00
1.403223e+00
1.408603e+00
1.413828e+00
1.418893e+00
1.423796e+00
1.428550e+00
1.433197e+00
1.437815e+00
1.442507e+00
1.447373e+00
1.452490e+00
1.457901e+00
1.463615e+00
1.469622e+00
1.475880e+00
1.482326e+00
1.488877e+00
1.495455e+00
1.501990e+00
1.508423e+00
1.514708e+00
1.520810e+00
1.526707e+00
1.532401e+00
1.537914e+00
1.543274e+00
1.548503e+00
1.553610e+00
1.558595e+00
1.563456e+00
1.568198e+00
1.572837e+00
1.577391e+00
1.581890e+00
1.586379e+00
1.590899e+00
1.595477e+00
1.600108e+00
1.604760e+00
1.609398e+00
1.614012e+00
1.618624e+00
1.623268e+00
1.627962e+00
1.632692e+00
1.637422e+00
1.642110e+00
1.646721e+00
1.651225e+00
1.655594e+00
1.659785e+00
1.663744e+00
1.667415e+00
1.670760e+00
1.673773e+00
1.676486e+00
1.678963e+00
1.681277e+00
1.683508e+00
1.685732e+00
1.688007e+00
1.690352e+00
1.692741e+00
1.695122e+00
1.697451e+00
1.699702e+00
1.701856e+00
1.703878e+00
1.705714e+00
1.707321e+00
1.708692e+00
1.709841e+00
1.710774e+00
1.711460e+00
1.711831e+00
1.711817e+00
1.711369e+00
1.710470e+00
1.709120e+00
1.707323e+00
1.705090e+00
1.702447e+00
1.699430e+00
1.696073e+00
1.692391e+00
1.688397e+00
1.684121e+00
1.679619e+00
1.674950e+00
1.670164e+00
1.665292e+00
1.660353e+00
1.655367e+00
1.650359e+00
1.645349e+00
1.640341e+00
1.635322e+00
1.630277e+00
1.625212e+00
1.620163e+00
1.615179e+00
1.610302e+00
1.605548e+00
1.600905e+00
1.596348e+00
1.591849e+00
1.587395e+00
1.582991e+00
1.578649e+00
1.574384e+00
1.570204e+00
1.566107e+00
1.562077e+00
1.558089e+00
1.554113e+00
1.550123e+00
1.546105e+00
1.542051e+00
1.537964e+00
1.533849e+00
1.529720e+00
1.525593e+00
1.521473e+00
1.517343e+00
1.513148e+00
1.508811e+00
1.504261e+00
1.499453e+00
1.494370e+00
1.489026e+00
1.483443e+00
1.477645e+00
1.471642e+00
1.465443e+00
1.459059e+00
1.452500e+00
1.445770e+00
1.438869e+00
1.431797e+00
1.424570e+00
1.417217e+00
1.409783e+00
1.402314e+00
1.394837e+00
1.387357e+00
1.379863e+00
1.372337e+00
1.364773e+00
1.357171e+00
1.349528e+00
1.341838e+00
1.334087e+00
1.326261e+00
1.318348e+00
1.310336e+00
1.302220e+00
1.294005e+00
1.285723e+00
1.277428e+00
1.269184e+00
1.261050e+00
1.253082e+00
1.245329e+00
1.237829e+00
1.230590e+00
1.223592e+00
1.216791e+00
1.210140e+00
1.203586e+00
1.197076e+00
1.190563e+00
1.184009e+00
1.177379e+00
1.170642e+00
1.163767e+00
1.156728e+00
1.149513e+00
1.142129e+00
1.134608e+00
1.126991e+00
1.119326e+00
1.111652e+00
1.103998e+00
1.096384e+00
1.088816e+00
1.081289e+00
1.073800e+00
1.066362e+00
1.059013e+00
1.051798e+00
1.044765e+00
1.037950e+00
1.031359e+00
1.024965e+00
1.018706e+00
1.012497e+00
1.006260e+00
9.999551e-01
9.935872e-01
9.871885e-01
9.807915e-01
9.744124e-01
9.680563e-01
9.617259e-01
9.554241e-01
9.491523e-01
9.429124e-01
9.367135e-01
9.305759e-01
9.245288e-01
9.186017e-01
9.128145e-01
9.071747e-01
9.016749e-01
8.962900e-01
8.909749e-01
8.856718e-01
8.803228e-01
8.748786e-01
8.693049e-01
8.635917e-01
8.577561e-01
8.518237e-01
8.457926e-01
8.396127e-01
8.332043e-01
8.265045e-01
8.195046e-01
8.122517e-01
8.048212e-01
7.972791e-01
7.896551e-01
7.819424e-01
7.741220e-01
7.661944e-01
7.581934e-01
7.501711e-01
7.421716e-01
7.342147e-01
7.262947e-01
7.183871e-01
7.104540e-01
7.024467e-01
6.943055e-01
6.859609e-01
6.773409e-01
6.683860e-01
6.590654e-01
6.493881e-01
6.394017e-01
6.291879e-01
6.188553e-01
6.085230e-01
5.982931e-01
5.882234e-01
5.783225e-01
5.685681e-01
5.589346e-01
5.494113e-01
5.400061e-01
5.307382e-01
5.216257e-01
5.126792e-01
5.039028e-01
4.953008e-01
4.868766e-01
4.786254e-01
4.705313e-01
4.625786e-01
4.547647e-01
4.471012e-01
4.396018e-01
4.322730e-01
4.251170e-01
4.181413e-01
4.113651e-01
4.048192e-01
3.985393e-01
3.925538e-01
3.868716e-01
3.814768e-01
3.763337e-01
3.713922e-01
3.665838e-01
3.618109e-01
3.569435e-01
3.518352e-01
3.463527e-01
3.404028e-01
3.339432e-01
3.269706e-01
3.194985e-01
3.115419e-01
3.031173e-01
2.942506e-01
2.849845e-01
2.753803e-01
2.655148e-01
2.554742e-01
2.453477e-01
2.352156e-01
2.251324e-01
2.151131e-01
2.051326e-01
1.951405e-01
1.850837e-01
1.749252e-01
1.646540e-01
1.542851e-01
1.438538e-01
1.334053e-01
1.229859e-01
1.126381e-01
1.023953e-01
9.227567e-02
8.228150e-02
7.240824e-02
6.265603e-02
5.303369e-02
4.355052e-02
3.420046e-02
2.495038e-02
1.574510e-02
6.530028e-03
-2.723105e-03
-1.200582e-02
-2.128325e-02
-3.051176e-02
-3.964351e-02
-4.861441e-02
-5.733537e-02
-6.570513e-02
-7.363939e-02
-8.109630e-02
-8.808536e-02
-9.465962e-02
-1.008981e-01
-1.068865e-01
-1.126992e-01
-1.183838e-01
-1.239478e-01
-1.293557e-01
-1.345429e-01
-1.394484e-01
-1.440476e-01
-1.483659e-01
-1.524635e-01
-1.564082e-01
-1.602566e-01
-1.640525e-01
-1.678319e-01
-1.716268e-01
-1.754640e-01
-1.793619e-01
-1.833318e-01
-1.873807e-01
-1.915125e-01
-1.957271e-01
-2.000182e-01
-2.043733e-01
-2.087763e-01
-2.132165e-01
-2.176982e-01
-2.222438e-01
-2.268881e-01
-2.316682e-01
-2.366153e-01
-2.417497e-01
-2.470775e-01
-2.525878e-01
-2.582457e-01
-2.639830e-01
-2.696973e-01
-2.752700e-01
-2.805986e-01
-2.856226e-01
-2.903283e-01
-2.947392e-01
-2.989061e-01
-3.028962e-01
-3.067791e-01
-3.106066e-01
-3.143976e-01
-3.181337e-01
-3.217696e-01
-3.252534e-01
-3.285488e-01
-3.316434e-01
-3.345449e-01
-3.372752e-01
-3.398684e-01
-3.423685e-01
-3.448186e-01
-3.472453e-01
-3.496541e-01
-3.520415e-01
-3.544114e-01
-3.567837e-01
-3.591928e-01
-3.616836e-01
-3.643078e-01
-3.671200e-01
-3.701733e-01
-3.735133e-01
-3.771714e-01
-3.811601e-01
-3.854777e-01
-3.901238e-01
-3.951146e-01
-4.004867e-01
-4.062879e-01
-4.125583e-01
-4.193126e-01
-4.265314e-01
-4.341646e-01
-4.421385e-01
-4.503643e-01
-4.587518e-01
-4.672295e-01
-4.757623e-01
-4.843531e-01
-4.930295e-01
-5.018207e-01
-5.107404e-01
-5.197846e-01
-5.289414e-01
-5.382054e-01
-5.475867e-01
-5.571092e-01
-5.667963e-01
-5.766542e-01
-5.866585e-01
-5.967524e-01
-6.068587e-01
-6.169006e-01
-6.268240e-01
-6.366120e-01
-6.462845e-01
-6.558811e-01
-6.654416e-01
-6.749977e-01
-6.845806e-01
-6.942271e-01
-7.039743e-01
-7.138418e-01
-7.238196e-01
-7.338749e-01
-7.439735e-01
-7.540937e-01
-7.642206e-01
-7.743327e-01
-7.843978e-01
-7.943869e-01
-8.042909e-01
-8.141279e-01
-8.239366e-01
-8.337651e-01
-8.436627e-01
-8.536743e-01
-8.638315e-01
-8.741406e-01
-8.845808e-01
-8.951162e-01
-9.057150e-01
-9.163621e-01
-9.270662e-01
-9.378628e-01
-9.488114e-01
-9.599853e-01
