EVENT_NAME: L_AQUILA
EVENT_ID: IT-2009-0009
EVENT_DATE_YYYYMMDD: 20090406
EVENT_TIME_HHMMSS: 013240
EVENT_LATITUDE_DEGREE: 42.3420
EVENT_LONGITUDE_DEGREE: 13.3800
EVENT_DEPTH_KM: 8.3
HYPOCENTER_REFERENCE: INGV-CNT_Seismic_Bulletin
MAGNITUDE_W: 6.1
MAGNITUDE_W_REFERENCE: INGV-CNT_Seismic_Bulletin
MAGNITUDE_L: 
MAGNITUDE_L_REFERENCE: 
FOCAL_MECHANISM: Normal faulting
NETWORK: IT
STATION_CODE: GSG
STATION_NAME: 
STATION_LATITUDE_DEGREE: 42.460000
STATION_LONGITUDE_DEGREE: 13.550000
STATION_ELEVATION_M: 1200
LOCATION: 
SENSOR_DEPTH_M: 200.0
VS30_M/S: 
SITE_CLASSIFICATION_EC8: B (inferred from geology)
MORPHOLOGIC_CLASSIFICATION: 
EPICENTRAL_DISTANCE_KM: 19.2
EARTHQUAKE_BACKAZIMUTH_DEGREE: 46.8
DATE_TIME_FIRST_SAMPLE_YYYYMMDD_HHMMSS: 
DATE_TIME_FIRST_SAMPLE_PRECISION: 
SAMPLING_INTERVAL_S: 
NDATA: 105
DURATION_S: 
STREAM: HNE
UNITS: cm/s^2
INSTRUMENT: sensor = FBA-3 [Kinemetrics] | digitizer = Everest [Kinemetrics]
INSTRUMENT_ANALOG/DIGITAL: D
INSTRUMENTAL_FREQUENCY_HZ: 222.000
INSTRUMENTAL_DAMPING: 0.700000
FULL_SCALE_G: 1.0
N_BIT_DIGITAL_CONVERTER: 24
PGA_CM/S^2: -20.815403
TIME_PGA_S: 
BASELINE_CORRECTION: BASELINE REMOVED
FILTER_TYPE: BUTTERWORTH
FILTER_ORDER: 2
LOW_CUT_FREQUENCY_HZ: 0.100
HIGH_CUT_FREQUENCY_HZ: 40.000
LATE/NORMAL_TRIGGERED: NT
DATABASE_VERSION: 0.5
HEADER_FORMAT: DYNA 1.2
DATA_TYPE: ACCELERATION RESPONSE SPECTRUM
PROCESSING: manual (Paolucci et al., 2011)
DATA_TIMESTAMP_YYYYMMDD_HHMMSS: 20211011_155809.024
DATA_LICENSE: CC-BY3_0-IT (http://creativecommons.org/licenses/by/3.0/deed.en)
DATA_CITATION: Luzi L, Pacor F, Puglia R (2019). Italian Accelerometric Archive v 3.0 - Istituto Nazionale di Geofisica e Vulcanologia, Dipartimento della Protezione Civile Nazionale. doi: 10.13127/itaca.3.1
DATA_CREATOR: ITACA working group
ORIGINAL_DATA_MEDIATOR_CITATION: data obtained within the DPC-INGV data exchange agreements
ORIGINAL_DATA_MEDIATOR: Archive of Italian Department of Civil Protection
ORIGINAL_DATA_CREATOR_CITATION: Presidency Of Counsil Of Ministers-Civil Protection Department. (1972). Italian Strong Motion Network. Presidency of Counsil of Ministers - Civil Protection Department. https://doi.org/10.7914/SN/IT http://www.fdsn.org/networks/detail/IT/
ORIGINAL_DATA_CREATOR: network: IT (Italian Strong Motion Network (RAN)); owner: Presidency of Counsil of Ministers - Civil Protection Department (PCM - DPC)
USER1: 
USER2: 
USER3: 
USER4: 
USER5: 
    0.010000    20.980682
    0.020000    21.362289
    0.022000    21.559742
    0.025000    21.352144
    0.029000    22.514700
    0.030000    22.018908
    0.032000    22.810965
    0.035001    25.822145
    0.036000    26.508430
    0.040000    24.635933
    0.041999    26.485704
    0.044001    27.277340
    0.045000    28.860241
    0.046000    30.468632
    0.048001    30.521824
    0.050000    27.977160
    0.054999    28.726011
    0.059999    39.084789
    0.064998    41.665047
    0.067002    39.671726
    0.069999    38.557823
    0.075002    41.417530
    0.080000    43.101994
    0.084998    49.192348
    0.090001    50.867638
    0.095003    54.877895
    0.100000    56.194283
    0.109999    45.712677
    0.120005    47.508999
    0.130005    61.397110
    0.132996    57.648323
    0.139997    48.285107
    0.149993    56.573925
    0.160000    52.070396
    0.170010    48.909626
    0.179986    46.344257
    0.190006    44.822704
    0.200000    41.800968
    0.220022    42.994415
    0.239981    43.428253
    0.250000    43.520145
    0.260010    44.872055
    0.280034    41.352306
    0.290023    36.586479
    0.300030    40.618587
    0.320000    47.205498
    0.340020    48.915398
    0.350017    45.720837
    0.359971    41.784180
    0.379939    36.402164
    0.400000    30.425928
    0.419992    25.987633
    0.439947    28.766047
    0.450045    29.728647
    0.459982    29.175442
    0.480077    27.723618
    0.500000    32.956154
    0.550055    25.306818
    0.599880    25.327564
    0.650195    21.572834
    0.667111    23.655437
    0.699790    25.433397
    0.750188    21.325047
    0.800000    22.520399
    0.850340    19.756966
    0.900090    22.278118
    0.949668    27.658363
    1.000000    33.908493
    1.100110    24.769619
    1.200480    22.599442
    1.300390    22.156544
    1.400560    15.091448
    1.499250    11.936408
    1.600000    10.749935
    1.700680    11.301316
    1.798561    12.526185
    1.901141    13.744102
    2.000000    14.444927
    2.197802    17.009865
    2.398082    16.926561
    2.500000    15.975286
    2.597403    16.061867
    2.801121    15.710003
    3.003003    15.148922
    3.205128    14.376161
    3.401361    13.305983
    3.496503    12.746188
    3.597122    12.146320
    3.802281    10.814274
    4.000000     9.474566
    4.201681     8.346828
    4.405286     8.183380
    4.608295     7.661736
    4.807692     6.670274
    5.000000     5.660223
    5.494505     4.125444
    5.988024     3.450267
    6.493506     2.868150
    6.993007     2.356474
    7.518797     1.910646
    8.000000     1.538491
    8.474576     1.232845
    9.009009     0.986192
    9.523809     0.843578
   10.000000     0.761882
