EVENT_NAME: L_AQUILA
EVENT_ID: IT-2009-0009
EVENT_DATE_YYYYMMDD: 20090406
EVENT_TIME_HHMMSS: 013240
EVENT_LATITUDE_DEGREE: 42.3420
EVENT_LONGITUDE_DEGREE: 13.3800
EVENT_DEPTH_KM: 8.3
HYPOCENTER_REFERENCE: INGV-CNT_Seismic_Bulletin
MAGNITUDE_W: 6.1
MAGNITUDE_W_REFERENCE: INGV-CNT_Seismic_Bulletin
MAGNITUDE_L: 
MAGNITUDE_L_REFERENCE: 
FOCAL_MECHANISM: Normal faulting
NETWORK: IT
STATION_CODE: GSG
STATION_NAME: 
STATION_LATITUDE_DEGREE: 42.460000
STATION_LONGITUDE_DEGREE: 13.550000
STATION_ELEVATION_M: 1200
LOCATION: 
SENSOR_DEPTH_M: 200.0
VS30_M/S: 
SITE_CLASSIFICATION_EC8: B (inferred from geology)
MORPHOLOGIC_CLASSIFICATION: 
EPICENTRAL_DISTANCE_KM: 19.2
EARTHQUAKE_BACKAZIMUTH_DEGREE: 46.8
DATE_TIME_FIRST_SAMPLE_YYYYMMDD_HHMMSS: 
DATE_TIME_FIRST_SAMPLE_PRECISION: 
SAMPLING_INTERVAL_S: 
NDATA: 105
DURATION_S: 
STREAM: HNE
UNITS: cm
INSTRUMENT: sensor = FBA-3 [Kinemetrics] | digitizer = Everest [Kinemetrics]
INSTRUMENT_ANALOG/DIGITAL: D
INSTRUMENTAL_FREQUENCY_HZ: 222.000
INSTRUMENTAL_DAMPING: 0.700000
FULL_SCALE_G: 1.0
N_BIT_DIGITAL_CONVERTER: 24
PGD_CM: 1.321091
TIME_PGD_S: 
BASELINE_CORRECTION: BASELINE REMOVED
FILTER_TYPE: BUTTERWORTH
FILTER_ORDER: 2
LOW_CUT_FREQUENCY_HZ: 0.100
HIGH_CUT_FREQUENCY_HZ: 40.000
LATE/NORMAL_TRIGGERED: NT
DATABASE_VERSION: 0.5
HEADER_FORMAT: DYNA 1.2
DATA_TYPE: DISPLACEMENT RESPONSE SPECTRUM
PROCESSING: manual (Paolucci et al., 2011)
DATA_TIMESTAMP_YYYYMMDD_HHMMSS: 20211011_155809.162
DATA_LICENSE: CC-BY3_0-IT (http://creativecommons.org/licenses/by/3.0/deed.en)
DATA_CITATION: Luzi L, Pacor F, Puglia R (2019). Italian Accelerometric Archive v 3.0 - Istituto Nazionale di Geofisica e Vulcanologia, Dipartimento della Protezione Civile Nazionale. doi: 10.13127/itaca.3.1
DATA_CREATOR: ITACA working group
ORIGINAL_DATA_MEDIATOR_CITATION: data obtained within the DPC-INGV data exchange agreements
ORIGINAL_DATA_MEDIATOR: Archive of Italian Department of Civil Protection
ORIGINAL_DATA_CREATOR_CITATION: Presidency Of Counsil Of Ministers-Civil Protection Department. (1972). Italian Strong Motion Network. Presidency of Counsil of Ministers - Civil Protection Department. https://doi.org/10.7914/SN/IT http://www.fdsn.org/networks/detail/IT/
ORIGINAL_DATA_CREATOR: network: IT (Italian Strong Motion Network (RAN)); owner: Presidency of Counsil of Ministers - Civil Protection Department (PCM - DPC)
USER1: 
USER2: 
USER3: 
USER4: 
USER5: 
    0.010000     0.000053
    0.020000     0.000216
    0.022000     0.000264
    0.025000     0.000338
    0.029000     0.000478
    0.030000     0.000501
    0.032000     0.000592
    0.035001     0.000796
    0.036000     0.000867
    0.040000     0.000996
    0.041999     0.001180
    0.044001     0.001331
    0.045000     0.001485
    0.046000     0.001621
    0.048001     0.001779
    0.050000     0.001760
    0.054999     0.002188
    0.059999     0.003574
    0.064998     0.004419
    0.067002     0.004535
    0.069999     0.004784
    0.075002     0.005815
    0.080000     0.006996
    0.084998     0.009055
    0.090001     0.010408
    0.095003     0.012469
    0.100000     0.014113
    0.109999     0.013853
    0.120005     0.017305
    0.130005     0.026184
    0.132996     0.025784
    0.139997     0.023800
    0.149993     0.031949
    0.160000     0.033740
    0.170010     0.035676
    0.179986     0.037863
    0.190006     0.040844
    0.200000     0.042209
    0.220022     0.052590
    0.239981     0.063123
    0.250000     0.068610
    0.260010     0.076472
    0.280034     0.081669
    0.290023     0.077638
    0.300030     0.092292
    0.320000     0.121972
    0.340020     0.142396
    0.350017     0.141216
    0.359971     0.136583
    0.379939     0.132692
    0.400000     0.122761
    0.419992     0.115642
    0.439947     0.140543
    0.450045     0.151876
    0.459982     0.155644
    0.480077     0.161019
    0.500000     0.207742
    0.550055     0.193339
    0.599880     0.230030
    0.650195     0.229776
    0.667111     0.265219
    0.699790     0.313904
    0.750188     0.302268
    0.800000     0.363240
    0.850340     0.359402
    0.900090     0.454733
    0.949668     0.628698
    1.000000     0.854642
    1.100110     0.753949
    1.200480     0.818818
    1.300390     0.942807
    1.400560     0.746488
    1.499250     0.676661
    1.600000     0.693231
    1.700680     0.822593
    1.798561     1.023009
    1.901141     1.249395
    2.000000     1.459031
    2.197802     2.073327
    2.398082     2.454712
    2.500000     2.519742
    2.597403     2.732378
    2.801121     3.101669
    3.003003     3.434730
    3.205128     3.700960
    3.401361     3.872096
    3.496503     3.933112
    3.597122     3.961582
    3.802281     3.916642
    4.000000     3.816980
    4.201681     3.703583
    4.405286     3.993038
    4.608295     4.069431
    4.807692     3.837513
    5.000000     3.550567
    5.494505     3.117184
    5.988024     3.088676
    6.493506     3.024105
    6.993007     2.880490
    7.518797     2.676105
    8.000000     2.435638
    8.474576     2.185047
    9.009009     1.943637
    9.523809     1.874768
   10.000000     1.885259
