EVENT_NAME: L_AQUILA
EVENT_ID: IT-2009-0009
EVENT_DATE_YYYYMMDD: 20090406
EVENT_TIME_HHMMSS: 013240
EVENT_LATITUDE_DEGREE: 42.3420
EVENT_LONGITUDE_DEGREE: 13.3800
EVENT_DEPTH_KM: 8.3
HYPOCENTER_REFERENCE: INGV-CNT_Seismic_Bulletin
MAGNITUDE_W: 6.1
MAGNITUDE_W_REFERENCE: INGV-CNT_Seismic_Bulletin
MAGNITUDE_L: 
MAGNITUDE_L_REFERENCE: 
FOCAL_MECHANISM: Normal faulting
NETWORK: IT
STATION_CODE: GSG
STATION_NAME: 
STATION_LATITUDE_DEGREE: 42.460000
STATION_LONGITUDE_DEGREE: 13.550000
STATION_ELEVATION_M: 1200
LOCATION: 
SENSOR_DEPTH_M: 200.0
VS30_M/S: 
SITE_CLASSIFICATION_EC8: B (inferred from geology)
MORPHOLOGIC_CLASSIFICATION: 
EPICENTRAL_DISTANCE_KM: 19.2
EARTHQUAKE_BACKAZIMUTH_DEGREE: 46.8
DATE_TIME_FIRST_SAMPLE_YYYYMMDD_HHMMSS: 20090406_013229.000 
DATE_TIME_FIRST_SAMPLE_PRECISION: 
SAMPLING_INTERVAL_S: 0.005000
NDATA: 20000
DURATION_S: 100.000
STREAM: HNN
UNITS: cm/s
INSTRUMENT: sensor = FBA-3 [Kinemetrics] | digitizer = Everest [Kinemetrics]
INSTRUMENT_ANALOG/DIGITAL: D
INSTRUMENTAL_FREQUENCY_HZ: 210.000
INSTRUMENTAL_DAMPING: 0.700000
FULL_SCALE_G: 1.0
N_BIT_DIGITAL_CONVERTER: 24
PGV_CM/S: -2.855932
TIME_PGV_S: 39.315000
BASELINE_CORRECTION: BASELINE REMOVED
FILTER_TYPE: BUTTERWORTH
FILTER_ORDER: 2
LOW_CUT_FREQUENCY_HZ: 0.100
HIGH_CUT_FREQUENCY_HZ: 40.000
LATE/NORMAL_TRIGGERED: NT
DATABASE_VERSION: 0.5
HEADER_FORMAT: DYNA 1.2
DATA_TYPE: VELOCITY
PROCESSING: manual (Paolucci et al., 2011)
DATA_TIMESTAMP_YYYYMMDD_HHMMSS: 20211011_155808.386
DATA_LICENSE: CC-BY3_0-IT (http://creativecommons.org/licenses/by/3.0/deed.en)
DATA_CITATION: Luzi L, Pacor F, Puglia R (2019). Italian Accelerometric Archive v 3.0 - Istituto Nazionale di Geofisica e Vulcanologia, Dipartimento della Protezione Civile Nazionale. doi: 10.13127/itaca.3.1
DATA_CREATOR: ITACA working group
ORIGINAL_DATA_MEDIATOR_CITATION: data obtained within the DPC-INGV data exchange agreements
ORIGINAL_DATA_MEDIATOR: Archive of Italian Department of Civil Protection
ORIGINAL_DATA_CREATOR_CITATION: Presidency Of Counsil Of Ministers-Civil Protection Department. (1972). Italian Strong Motion Network. Presidency of Counsil of Ministers - Civil Protection Department. https://doi.org/10.7914/SN/IT http://www.fdsn.org/networks/detail/IT/
ORIGINAL_DATA_CREATOR: network: IT (Italian Strong Motion Network (RAN)); owner: Presidency of Counsil of Ministers - Civil Protection Department (PCM - DPC)
USER1: 
USER2: 
USER3: 
USER4: 
USER5: 
[...]
0.580628
0.591133
0.601642
0.611396
0.620731
0.631213
0.643330
0.655487
0.665691
0.673369
0.679431
0.685825
0.695577
0.711812
0.735273
0.763275
0.792000
0.819746
0.847674
0.877097
0.905931
0.929088
0.943445
0.951292
0.958207
0.968502
0.982541
0.997104
1.007947
1.012417
1.010557
1.005116
1.000575
1.000463
1.004450
1.008219
1.006607
0.997152
0.981231
0.962748
0.945951
0.933286
0.924133
0.915427
0.903984
0.889239
0.874674
0.865667
0.863954
0.864252
0.858208
0.841994
0.818721
0.794055
0.771629
0.752356
0.735716
0.720824
0.707216
0.695042
0.684380
0.674925
0.666890
0.661702
0.661243
0.666446
0.677066
0.692563
0.711844
0.732029
0.749712
0.763992
0.776539
0.789071
0.801931
0.813503
0.820250
0.819219
0.810790
0.797650
0.781482
0.761606
0.736191
0.704131
0.666354
0.625709
0.585301
0.547017
0.511266
0.476940
0.441756
0.404459
0.367350
0.335586
0.313529
0.302260
0.299668
0.301440
0.302777
0.301092
0.297170
0.293107
0.289988
0.288698
0.291938
0.303234
0.323876
0.351955
0.383894
0.415623
0.442591
0.460768
0.469584
0.473685
0.480214
0.493679
0.513161
0.533117
0.546502
0.548843
0.540583
0.525617
0.507757
0.488660
0.468246
0.446059
0.422142
0.397213
0.372382
0.348512
0.325811
0.304411
0.285209
0.269349
0.257031
0.247826
0.241910
0.239616
0.239475
0.237772
0.231051
0.219304
0.206253
0.196253
0.190890
0.188328
0.185556
0.181120
0.175618
0.169820
0.162754
0.152049
0.136316
0.116998
0.097838
0.082601
0.073074
0.069013
0.070034
0.077116
0.091873
0.114786
0.144402
0.177489
0.209624
0.236683
0.256491
0.268952
0.275656
0.280424
0.288707
0.304700
0.329173
0.360089
0.394109
0.427131
0.454658
0.473123
0.481568
0.482169
0.478890
0.475053
0.471524
0.466992
0.460092
0.450929
0.440483
0.429129
0.415483
0.396127
0.367515
0.329435
0.286015
0.242405
0.200879
0.160528
0.120188
0.080900
0.045166
0.014495
-0.011153
-0.031796
-0.046336
-0.053064
-0.051027
-0.041456
-0.028107
-0.015507
-0.006283
-0.000436
0.002508
0.001368
-0.005725
-0.018636
-0.034393
-0.048818
-0.058656
-0.062823
-0.062732
-0.061961
-0.064851
-0.074262
-0.090384
-0.111399
-0.134504
-0.156932
-0.177531
-0.197487
-0.218688
-0.241621
-0.265356
-0.288601
-0.309669
-0.326198
-0.336252
-0.339656
-0.337703
-0.331970
-0.323680
-0.313354
-0.300650
-0.285101
-0.267475
-0.250598
-0.239039
-0.237669
-0.249851
-0.276415
-0.315935
-0.365696
-0.422477
-0.482892
-0.543266
-0.598964
-0.644500
-0.675983
-0.693980
-0.703199
-0.709192
-0.715564
-0.723438
-0.732225
-0.740550
-0.747006
-0.750226
-0.748072
-0.737930
-0.719686
-0.698326
-0.682005
-0.677360
-0.687250
-0.711519
-0.747426
-0.789162
-0.829363
-0.862893
-0.888801
-0.907952
-0.919409
-0.920337
-0.909828
-0.891665
-0.871938
-0.853773
-0.835143
-0.811952
-0.782028
-0.745442
-0.702348
-0.651838
-0.592989
-0.527307
-0.460500
-0.400999
-0.355577
-0.326209
-0.311137
-0.308127
-0.315837
-0.332268
-0.353303
-0.374170
-0.392537
-0.409786
-0.429802
-0.456593
-0.491202
-0.529319
-0.562646
-0.583604
-0.588513
-0.576529
-0.547518
-0.502738
-0.447496
-0.391862
-0.347524
-0.322713
-0.318670
-0.329442
-0.345081
-0.357538
-0.365807
-0.375148
-0.390948
-0.413881
-0.439857
-0.462841
-0.478505
-0.486973
-0.492108
-0.497611
-0.503984
-0.509129
-0.510845
-0.508280
-0.501797
-0.492777
-0.484234
-0.480762
-0.485767
-0.497509
-0.509126
-0.514513
-0.514628
-0.516987
-0.527541
-0.543220
-0.554718
-0.557284
-0.556479
-0.562522
-0.581032
-0.609473
-0.639660
-0.662501
-0.672787
-0.672210
-0.668442
-0.670371
-0.682974
-0.706110
-0.737558
-0.775904
-0.820036
-0.867464
-0.914735
-0.958959
-0.998438
-1.032842
-1.063090
-1.090035
-1.113027
-1.130454
-1.141733
-1.148253
-1.152826
-1.159236
-1.171491
-1.191552
-1.217428
-1.243775
-1.263745
-1.270582
-1.259241
-1.227640
-1.176464
-1.108294
-1.027574
-0.940609
-0.854072
-0.773143
-0.700982
-0.639424
-0.590189
-0.555196
-0.534534
-0.524577
-0.519956
-0.517493
-0.517336
-0.521035
-0.529662
-0.543362
-0.561225
-0.580774
-0.598206
-0.610298
-0.616687
-0.620353
-0.626005
-0.637880
-0.658231
-0.686879
-0.721582
-0.758493
-0.792256
-0.816155
-0.823447
-0.810321
-0.778639
-0.736093
-0.693902
-0.663369
-0.652133
-0.661694
-0.688181
-0.725862
-0.770349
-0.818915
-0.868405
-0.913589
-0.948438
-0.969529
-0.978017
-0.978292
-0.975495
-0.974416
-0.979465
-0.994565
-1.022900
-1.066428
-1.124453
-1.191204
-1.254991
-1.302472
-1.326484
-1.329851
-1.320558
-1.303541
-1.277648
-1.239474
-1.188664
-1.129103
-1.065257
-0.998244
-0.926833
-0.851906
-0.777902
-0.709598
-0.648735
-0.593621
-0.541207
-0.490018
-0.441751
-0.400017
-0.367811
-0.346491
-0.336243
-0.336457
-0.345901
-0.362889
-0.384785
-0.407927
-0.429723
-0.450715
-0.472726
-0.494549
-0.510746
-0.515414
-0.506755
-0.487704
-0.463038
-0.437259
-0.414440
-0.397564
-0.387401
-0.383468
-0.386158
-0.396578
-0.414102
-0.434966
-0.453417
-0.464331
-0.465373
-0.457285
-0.443060
-0.427664
-0.417114
-0.414745
-0.417076
-0.414526
-0.397544
-0.362742
-0.314052
-0.258463
-0.199759
-0.135419
-0.059532
0.031107
0.133557
0.240402
0.343977
0.439766
0.527473
0.609206
0.685338
0.751023
0.797302
0.817561
0.813889
0.796598
0.777927
0.766662
0.766314
0.775367
0.789307
0.803808
0.816564
0.827100
0.835833
0.842663
0.845745
0.842472
0.832447
0.818713
0.805424
0.794826
0.786244
0.776917
0.764569
0.750912
0.742142
0.744341
0.758316
0.779499
0.802398
0.824206
0.844034
0.859934
0.868401
0.867722
0.861650
0.858940
0.868512
0.894321
0.933733
0.979877
1.025718
1.066726
1.100792
1.127263
1.146592
1.159733
1.167145
1.168455
1.163028
1.151749
1.139363
1.133854
1.141609
1.163297
1.194805
1.230927
1.267278
1.299697
1.323866
1.337251
1.341842
1.344205
1.351996
1.369655
1.396336
1.426839
1.454053
1.471651
1.476764
1.471484
1.461370
1.451316
1.442618
1.434032
1.424348
1.413407
1.402400
1.394182
1.392309
1.399654
1.418190
1.448599
1.489120
1.535601
1.582624
1.623686
1.651769
1.662891
1.659940
1.651278
1.643902
1.637247
1.624048
1.597750
1.557946
1.508590
1.453881
1.397409
1.343101
1.294791
1.254731
1.222785
1.196973
1.174887
1.154985
1.136684
1.118870
1.098305
1.070563
1.033856
0.991832
0.951228
0.916426
0.887339
0.862384
0.841417
0.825203
0.813927
0.807342
0.804913
0.804475
0.801595
0.791607
0.772683
0.746982
0.718809
0.691904
0.668621
0.650491
0.638077
0.630157
0.623858
0.616216
0.604899
0.586518
0.556014
0.510545
0.453524
0.392539
0.333220
0.275962
0.217643
0.154747
0.084296
0.003365
-0.089611
-0.192006
-0.296382
-0.393096
-0.473714
-0.532817
-0.567234
-0.575118
-0.558199
-0.524055
-0.482139
-0.435843
-0.380147
-0.308214
-0.218768
-0.115588
-0.002003
0.120870
0.251147
0.384678
0.517596
0.649086
0.780981
0.915616
1.054617
1.198453
1.345427
1.490836
1.628216
1.752168
1.860068
1.951497
2.026764
2.086727
2.134282
2.174876
2.213783
2.252424
2.287944
2.316087
2.333893
2.340412
2.336040
2.321426
2.297132
2.264049
2.223154
2.175010
2.120841
2.064134
2.010027
1.963304
1.928052
1.908736
1.909407
1.930299
1.965868
2.008256
2.053127
2.100821
2.152009
2.203778
2.250335
2.287070
2.313481
2.331883
2.343973
2.349934
2.350822
2.350117
2.351820
2.357866
2.368215
2.382406
2.399818
2.418798
2.436220
2.448340
2.452815
2.449936
2.441105
2.426106
2.403051
2.371388
2.333991
2.296292
2.264709
2.245389
2.241839
2.252610
2.272060
2.293699
2.312866
2.327066
2.334769
2.334567
2.326017
2.310976
2.292869
2.274190
2.255070
2.233904
2.208135
2.174415
2.130254
2.077687
2.024974
1.982471
1.955023
1.938226
1.922095
1.897619
1.860720
1.812873
1.759833
1.709152
1.667332
1.637685
1.619580
1.609393
1.602354
1.593555
1.578265
1.553687
1.521303
1.485980
1.451929
1.420522
1.392057
1.367667
1.348229
1.332413
1.317341
1.301001
1.283166
1.264600
1.246634
1.230693
1.216659
1.202170
1.184494
1.162408
1.136162
1.106903
1.076183
1.044904
1.012936
0.980613
0.950791
0.929420
0.923648
0.938319
0.973260
1.023479
1.082049
1.142955
1.201265
1.251708
1.289059
1.310320
1.315598
1.306902
1.286663
1.257080
1.220330
1.179467
1.138829
1.102504
1.071986
1.045825
1.021431
0.996928
0.972165
0.948539
0.927653
0.910787
0.899954
0.897639
0.904112
0.915659
0.926117
0.930364
0.927690
0.922833
0.922374
0.928836
0.938734
0.945984
0.946054
0.937628
0.922018
0.900879
0.873791
0.838228
0.791768
0.734253
0.668972
0.602538
0.542718
0.495286
0.462843
0.446163
0.444768
0.455035
0.469090
0.477824
0.476216
0.465634
0.450195
0.430906
0.404310
0.367189
0.321581
0.274082
0.229744
0.186689
0.137187
0.074259
-0.002925
-0.089560
-0.179744
-0.270041
-0.359400
-0.446560
-0.528650
-0.603300
-0.671505
-0.736430
-0.798813
-0.855056
-0.900526
-0.933757
-0.957138
-0.974402
-0.987792
-0.997179
-1.001637
-1.001995
-1.001592
-1.003898
-1.009050
-1.012882
-1.009773
-0.996770
-0.975471
-0.950860
-0.928465
-0.911537
-0.899837
-0.890659
-0.880864
-0.868421
-0.853010
-0.835916
-0.819423
-0.806016
-0.797657
-0.795186
-0.797868
-0.803725
-0.810718
-0.817470
-0.822902
-0.825813
-0.825558
-0.823861
-0.826033
-0.839087
-0.867365
-0.909894
-0.961684
-1.016505
-1.068974
-1.116431
-1.159656
-1.200628
-1.239864
-1.276813
-1.311751
-1.345943
-1.380301
-1.414270
-1.445498
-1.470543
-1.486709
-1.493942
-1.495384
-1.495875
-1.498984
-1.505135
-1.512739
-1.520528
-1.528584
-1.538026
-1.550100
-1.565167
-1.582712
-1.602288
-1.623233
-1.642924
-1.656426
-1.659020
-1.648868
-1.626714
-1.593647
-1.550548
-1.500062
-1.447726
-1.399760
-1.360092
-1.330235
-1.310858
-1.301986
-1.302508
-1.310833
-1.325908
-1.347388
-1.375058
-1.407850
-1.443065
-1.476633
-1.504360
-1.523374
-1.533052
-1.534797
-1.530708
-1.522837
-1.513648
-1.505388
-1.497797
-1.487432
-1.469993
-1.442955
-1.406460
-1.363178
-1.318200
-1.278644
-1.251814
-1.241928
-1.247379
-1.260934
-1.273583
-1.279725
-1.279413
-1.275810
-1.271227
-1.266078
-1.260355
-1.254371
-1.247973
-1.239781
-1.227523
-1.209407
-1.185437
-1.157424
-1.127967
-1.099956
-1.076981
-1.063019
-1.060625
-1.069807
-1.088834
-1.114733
-1.142654
-1.167123
-1.186479
-1.206206
-1.235977
-1.281692
-1.339948
-1.399986
-1.450580
-1.486094
-1.508437
-1.524791
-1.542535
-1.564096
-1.585512
-1.600193
-1.604464
-1.599901
-1.591387
-1.583996
-1.581519
-1.586616
-1.601462
-1.628243
-1.668920
-1.723988
-1.790996
-1.864105
-1.935464
-1.997278
-2.042756
-2.066529
-2.066451
-2.045995
-2.013938
-1.980187
-1.950879
-1.926693
-1.904657
-1.881037
-1.853594
-1.822483
-1.789313
-1.755271
-1.720401
-1.684843
-1.650249
-1.618805
-1.590551
-1.562782
-1.532696
-1.499881
-1.465760
-1.431191
-1.395141
-1.355249
-1.309184
-1.255979
-1.197089
-1.136443
-1.078956
-1.028617
-0.988304
-0.961680
-0.954593
-0.973481
-1.021645
-1.096509
-1.189981
-1.291915
-1.394514
-1.494434
-1.591321
-1.684910
-1.773338
-1.853233
-1.920835
-1.973106
-2.008112
-2.025292
-2.026426
-2.016644
-2.003853
-1.996099
-1.998425
-2.011367
-2.031690
-2.054250
-2.073771
-2.086254
-2.089712
-2.083882
-2.069551
-2.048557
-2.023933
-1.998833
-1.974653
-1.950442
-1.924467
-1.896634
-1.870012
-1.850015
-1.841057
-1.843014
-1.850627
-1.856544
-1.855485
-1.845702
-1.826350
-1.794181
-1.744192
-1.673951
-1.586851
-1.491382
-1.397813
-1.314852
-1.247701
-1.197668
-1.162538
-1.136919
-1.112817
-1.081571
-1.037450
-0.981098
-0.919839
-0.863650
-0.819527
-0.788935
-0.769688
-0.759174
-0.755875
-0.758985
-0.767430
-0.779593
-0.793985
-0.809763
-0.826361
-0.842923
-0.858232
-0.871011
-0.880605
-0.888039
-0.896328
-0.909128
-0.928865
-0.956012
-0.989422
-1.026884
-1.065568
-1.102055
-1.131576
-1.147468
-1.142858
-1.114535
-1.065728
-1.004801
-0.941125
-0.882190
-0.833368
-0.798034
-0.776571
-0.765496
-0.758200
-0.747236
-0.727168
-0.696771
-0.659074
-0.618912
-0.580309
-0.546056
-0.518633
-0.500026
-0.490015
-0.485340
-0.481777
-0.477477
-0.473979
-0.474459
-0.481821
-0.498159
-0.524836
-0.562444
-0.610652
-0.667998
-0.731624
-0.797742
-0.863528
-0.929218
-0.998145
-1.074435
-1.160243
-1.254079
-1.350855
-1.443764
-1.526628
-1.594780
-1.645167
-1.677490
-1.695552
-1.706550
-1.718169
-1.735282
-1.758235
-1.783941
-1.808836
-1.831365
-1.852795
-1.876268
-1.904486
-1.937431
-1.971585
-2.000855
-2.018782
-2.021253
-2.008378
-1.984681
-1.957607
-1.934493
-1.919334
-1.912084
-1.911230
-1.916580
-1.929305
-1.949426
-1.973504
-1.995564
-2.011060
-2.019718
-2.024033
-2.025395
-2.022410
-2.013031
-1.997813
-1.980793
-1.967397
-1.961748
-1.965702
-1.979519
-2.002329
-2.031428
-2.061830
-2.088036
-2.107084
-2.119752
-2.129425
-2.140824
-2.159315
-2.189727
-2.234781
-2.294518
-2.366888
-2.448535
-2.535104
-2.621139
-2.700246
-2.766322
-2.815278
-2.845405
-2.855932
-2.845728
-2.813793
-2.760400
-2.686996
-2.595163
-2.486310
-2.362534
-2.227577
-2.087015
-1.947647
-1.816006
-1.696185
-1.588441
-1.490103
-1.398049
-1.310646
-1.227899
-1.150219
-1.076929
-1.005854
-0.934891
-0.864133
-0.795411
-0.728860
-0.660280
-0.582687
-0.491000
-0.385594
-0.271905
-0.157344
-0.048361
0.051400
0.142116
0.227190
0.310378
0.392469
0.470362
0.538955
0.593606
0.631390
0.651534
0.655606
0.646817
0.628265
0.601594
0.567324
0.526252
0.480536
0.433914
0.391193
0.356749
0.332239
0.315568
0.302816
0.291526
0.281994
0.275749
0.273780
0.276440
0.283715
0.294607
0.307080
0.319740
0.333482
0.350718
0.372756
0.398448
0.425510
0.452772
0.481357
0.514265
0.554693
0.604068
0.661113
0.722549
0.784870
0.845575
0.902749
0.954003
0.996649
1.029014
1.051243
1.064876
1.071871
1.073751
1.071499
1.066450
1.061220
1.059139
1.061862
1.066935
1.067639
1.055439
1.023244
0.967876
0.891093
0.798788
0.698966
0.599782
0.508415
0.430713
0.370912
0.330837
0.308961
0.300260
0.297209
0.291470
0.275408
0.242935
0.190143
0.116325
0.025203
-0.074835
-0.172908
-0.260080
-0.333045
-0.393775
-0.445949
-0.492066
-0.533032
-0.568547
-0.597061
-0.616271
-0.624702
-0.622775
-0.612011
-0.593661
-0.568694
-0.538720
-0.506066
-0.472705
-0.439333
-0.405335
-0.369389
-0.330273
-0.287570
-0.242169
-0.196483
-0.154301
-0.120093
-0.097602
-0.088322
-0.090935
-0.101718
-0.115166
-0.125167
-0.127439
-0.121916
-0.112531
-0.104131
-0.099130
-0.096190
-0.091291
-0.080157
-0.059908
-0.028663
0.015029
0.070689
0.134085
0.198419
0.257849
0.309627
0.353508
0.390229
0.420558
0.444776
0.462050
0.470198
0.467038
0.452922
0.431825
0.409610
0.391388
0.380510
0.379688
0.392431
0.422609
0.472263
0.539814
0.620177
0.706500
0.792142
0.871744
0.941429
0.998937
1.043958
1.078366
1.105857
1.130764
1.156444
1.184278
1.213807
1.243525
1.271541
1.295993
1.315453
1.329110
1.336267
1.335716
1.326302
1.308721
1.286711
1.265879
1.250635
1.241686
1.236161
1.229968
1.220230
1.206099
1.187947
1.166016
1.139637
1.107646
1.069554
1.026149
0.978843
0.928511
0.874967
0.817611
0.756663
0.693935
0.632578
0.575952
0.526594
0.486229
0.456291
0.437786
0.430613
0.433406
0.444195
0.461045
0.481936
0.504296
0.525122
0.541827
0.553277
0.560296
0.564938
0.568674
0.571338
0.572380
0.572849
0.575195
0.580662
0.587203
0.590569
0.587971
0.580762
0.573299
0.569041
0.567591
0.565280
0.558235
0.544755
0.525624
0.503602
0.483101
0.469328
0.466375
0.475535
0.495374
0.523205
0.556272
0.591924
0.627694
0.662104
0.695209
0.727698
0.759645
0.790642
0.820631
0.849754
0.877542
0.902607
0.923143
0.938063
0.948322
0.957376
0.970176
0.991129
1.022164
1.061905
1.106307
1.150365
1.190283
1.224969
1.255525
1.283250
1.308730
1.333128
1.359538
1.392048
1.433144
1.482002
1.535172
1.588788
1.640432
1.689705
1.737669
1.785614
1.833559
1.879528
1.920543
1.954509
1.980959
2.000314
2.013145
2.020192
2.022630
2.022029
2.019714
2.016107
2.011220
2.005834
2.001355
1.998002
1.993274
1.982400
1.960844
1.927393
1.885562
1.841916
1.802512
1.770173
1.744137
1.721379
1.698173
1.671292
1.638954
1.601251
1.559625
1.515766
1.471059
1.427069
1.386291
1.352099
1.327604
1.314057
1.309733
1.310136
1.309778
1.304584
1.293324
1.277392
1.259506
1.242433
1.228603
1.220407
1.220213
1.229756
1.249469
1.278257
1.313869
1.353561
1.394451
1.433409
1.467221
1.493766
1.513464
1.529137
1.543981
1.559443
1.574505
1.586282
1.591368
1.587540
1.574935
1.555828
1.533246
1.509617
1.486267
1.463706
1.442128
1.421727
1.402612
1.384460
1.366503
1.348063
1.328725
1.307644
1.283172
1.254031
1.221021
1.187264
1.156632
1.131904
1.113952
1.101925
1.093649
1.085957
1.075512
1.060394
1.041418
1.021862
1.005785
0.996269
0.994428
0.999168
1.007554
1.015519
1.018785
1.014025
0.999812
0.976707
0.946714
0.912755
0.878257
0.846676
0.820756
0.801398
0.787002
0.774438
0.761112
0.746012
0.728956
0.709362
0.685825
0.656750
0.621342
0.579983
0.533768
0.483912
0.431503
0.377367
0.321959
0.265605
0.209026
0.153612
0.101036
0.052363
0.007625
-0.033536
-0.071010
-0.104119
-0.131982
-0.153833
-0.169619
-0.180784
-0.190024
-0.199799
-0.211319
-0.225013
-0.241268
-0.260234
-0.281363
-0.303856
-0.327512
-0.352721
-0.379553
-0.406970
-0.432773
-0.454326
-0.469806
-0.479231
-0.484554
-0.488865
-0.495037
-0.504173
-0.514714
-0.523123
-0.525970
-0.521929
-0.511968
-0.497701
-0.479964
-0.459190
-0.436615
-0.414441
-0.394859
-0.379173
-0.367544
-0.359219
-0.353135
-0.348496
-0.344968
-0.342588
-0.341430
-0.341109
-0.340727
-0.339576
-0.337691
-0.335411
-0.332468
-0.327870
-0.320882
-0.312022
-0.302793
-0.294247
-0.285817
-0.275787
-0.262977
-0.247813
-0.231763
-0.216219
-0.202142
-0.190462
-0.182352
-0.178870
-0.180251
-0.185643
-0.193615
-0.202906
-0.212847
-0.223440
-0.235222
-0.248782
-0.264161
-0.280735
-0.297640
-0.314227
-0.330098
-0.344655
-0.356582
-0.364032
-0.365785
-0.362384
-0.355889
-0.348372
-0.340796
-0.333204
-0.325350
-0.316788
-0.306807
-0.294988
-0.282012
-0.269674
-0.259874
-0.253412
-0.249571
-0.246961
-0.244970
-0.244315
-0.246063
-0.250445
-0.256724
-0.263692
-0.270124
-0.275385
-0.280033
-0.285720
-0.294370
-0.307313
-0.324890
-0.346622
-0.371689
-0.399399
-0.429538
-0.462404
-0.498242
-0.536402
-0.575087
-0.612065
-0.645543
-0.674292
-0.697256
-0.713791
-0.724753
-0.733021
-0.742280
-0.754826
-0.770246
-0.786088
