EVENT_NAME: L_AQUILA
EVENT_ID: IT-2009-0009
EVENT_DATE_YYYYMMDD: 20090406
EVENT_TIME_HHMMSS: 013240
EVENT_LATITUDE_DEGREE: 42.3420
EVENT_LONGITUDE_DEGREE: 13.3800
EVENT_DEPTH_KM: 8.3
HYPOCENTER_REFERENCE: INGV-CNT_Seismic_Bulletin
MAGNITUDE_W: 6.1
MAGNITUDE_W_REFERENCE: INGV-CNT_Seismic_Bulletin
MAGNITUDE_L: 
MAGNITUDE_L_REFERENCE: 
FOCAL_MECHANISM: Normal faulting
NETWORK: IT
STATION_CODE: GSG
STATION_NAME: 
STATION_LATITUDE_DEGREE: 42.460000
STATION_LONGITUDE_DEGREE: 13.550000
STATION_ELEVATION_M: 1200
LOCATION: 
SENSOR_DEPTH_M: 200.0
VS30_M/S: 
SITE_CLASSIFICATION_EC8: B (inferred from geology)
MORPHOLOGIC_CLASSIFICATION: 
EPICENTRAL_DISTANCE_KM: 19.2
EARTHQUAKE_BACKAZIMUTH_DEGREE: 46.8
DATE_TIME_FIRST_SAMPLE_YYYYMMDD_HHMMSS: 20090406_013229.000 
DATE_TIME_FIRST_SAMPLE_PRECISION: 
SAMPLING_INTERVAL_S: 0.005000
NDATA: 20000
DURATION_S: 100.000
STREAM: HNE
UNITS: cm/s^2
INSTRUMENT: sensor = FBA-3 [Kinemetrics] | digitizer = Everest [Kinemetrics]
INSTRUMENT_ANALOG/DIGITAL: D
INSTRUMENTAL_FREQUENCY_HZ: 222.000
INSTRUMENTAL_DAMPING: 0.700000
FULL_SCALE_G: 1.0
N_BIT_DIGITAL_CONVERTER: 24
PGA_CM/S^2: -20.815403
TIME_PGA_S: 39.110000
BASELINE_CORRECTION: BASELINE REMOVED
FILTER_TYPE: BUTTERWORTH
FILTER_ORDER: 2
LOW_CUT_FREQUENCY_HZ: 0.100
HIGH_CUT_FREQUENCY_HZ: 40.000
LATE/NORMAL_TRIGGERED: NT
DATABASE_VERSION: 0.5
HEADER_FORMAT: DYNA 1.2
DATA_TYPE: ACCELERATION
PROCESSING: manual (Paolucci et al., 2011)
DATA_TIMESTAMP_YYYYMMDD_HHMMSS: 20211011_155807.561
DATA_LICENSE: CC-BY3_0-IT (http://creativecommons.org/licenses/by/3.0/deed.en)
DATA_CITATION: Luzi L, Pacor F, Puglia R (2019). Italian Accelerometric Archive v 3.0 - Istituto Nazionale di Geofisica e Vulcanologia, Dipartimento della Protezione Civile Nazionale. doi: 10.13127/itaca.3.1
DATA_CREATOR: ITACA working group
ORIGINAL_DATA_MEDIATOR_CITATION: data obtained within the DPC-INGV data exchange agreements
ORIGINAL_DATA_MEDIATOR: Archive of Italian Department of Civil Protection
ORIGINAL_DATA_CREATOR_CITATION: Presidency Of Counsil Of Ministers-Civil Protection Department. (1972). Italian Strong Motion Network. Presidency of Counsil of Ministers - Civil Protection Department. https://doi.org/10.7914/SN/IT http://www.fdsn.org/networks/detail/IT/
ORIGINAL_DATA_CREATOR: network: IT (Italian Strong Motion Network (RAN)); owner: Presidency of Counsil of Ministers - Civil Protection Department (PCM - DPC)
USER1: 
USER2: 
USER3: 
USER4: 
USER5: 
[...]
-4.340348
-3.602698
-2.774880
-1.674084
-0.146756
1.620276
3.211242
4.374967
5.114063
5.424207
5.174641
4.349972
3.226430
2.157571
1.308237
0.666933
0.219505
0.042445
0.195108
0.584237
1.038133
1.502029
2.073566
2.755753
3.273117
3.332065
2.999439
2.703564
2.901681
3.686697
4.607784
4.955266
4.327558
2.890156
1.147803
-0.350299
-1.162773
-1.173156
-0.742686
-0.365663
-0.169953
-0.029958
0.022008
-0.119372
-0.291182
-0.117129
0.634209
1.890295
3.414325
4.921911
6.059220
6.479117
6.061534
5.004353
3.689373
2.519728
1.794431
1.610542
1.902144
2.505914
3.149393
3.602806
3.892066
4.140469
4.269488
4.100234
3.659107
3.195304
2.950276
2.967258
3.094267
3.147653
3.000669
2.591383
2.079799
1.884117
2.268348
2.988797
3.518603
3.521266
3.030544
2.274233
1.484626
0.891329
0.688443
0.876778
1.230761
1.474214
1.410412
0.914333
-0.029590
-1.243371
-2.393073
-3.131728
-3.224640
-2.631083
-1.567312
-0.454846
0.388557
1.063736
1.889904
2.846607
3.506365
3.610934
3.385416
3.144558
2.923817
2.687272
2.576938
2.682682
2.806346
2.736218
2.556962
2.430335
2.239704
1.713210
0.797493
-0.350847
-1.630091
-2.941950
-4.005325
-4.481001
-4.173216
-3.080356
-1.462568
0.165791
1.295564
1.712964
1.568589
1.208297
0.899899
0.742934
0.811373
1.138556
1.485381
1.432585
0.877739
0.184082
-0.279704
-0.448726
-0.392322
-0.238386
-0.311895
-0.983227
-2.255094
-3.628846
-4.420344
-4.249526
-3.340228
-2.379308
-2.005966
-2.361581
-3.115359
-3.853455
-4.384261
-4.786020
-5.257533
-5.908991
-6.685086
-7.413393
-7.863249
-7.835841
-7.283070
-6.368355
-5.444311
-4.896856
-4.850739
-5.077132
-5.278546
-5.282873
-4.949371
-4.211512
-3.242580
-2.305810
-1.458205
-0.612055
0.158627
0.594073
0.595631
0.408632
0.289504
0.172971
-0.113048
-0.506750
-0.820803
-1.014701
-1.164837
-1.300493
-1.419653
-1.579888
-1.831742
-2.078249
-2.143129
-1.983552
-1.714117
-1.491562
-1.436722
-1.481576
-1.308070
-0.638149
0.505301
1.850385
2.973718
3.476558
3.304672
2.715605
1.882607
0.824744
-0.348680
-1.423752
-2.222024
-2.679909
-2.983255
-3.552174
-4.622525
-5.871729
-6.640363
-6.520328
-5.601061
-4.231852
-2.832625
-1.865844
-1.657016
-2.201764
-3.191694
-4.179034
-4.817549
-5.060375
-5.120066
-5.222609
-5.364440
-5.291507
-4.803842
-4.096154
-3.647522
-3.764271
-4.381304
-5.219676
-5.911321
-6.057340
-5.423812
-4.138998
-2.661388
-1.566332
-1.230285
-1.539421
-2.005845
-2.283867
-2.423070
-2.609143
-2.897443
-3.212006
-3.398951
-3.278518
-2.819793
-2.335774
-2.384541
-3.297051
-4.858389
-6.614755
-8.281451
-9.628258
-10.334790
-10.285524
-9.729014
-8.969060
-8.119542
-7.176748
-6.107461
-4.869265
-3.543845
-2.457646
-1.971647
-2.153450
-2.830732
-3.867768
-5.163147
-6.435451
-7.252812
-7.385877
-7.018559
-6.513699
-6.059480
-5.564503
-4.779993
-3.515325
-1.839424
-0.170068
0.853986
0.803015
-0.115771
-1.182218
-1.756392
-1.730530
-1.532240
-1.680321
-2.188130
-2.479422
-1.981796
-0.703923
0.755665
1.666961
1.716218
1.186852
0.571986
0.094448
-0.318215
-0.753347
-1.196580
-1.685574
-2.381551
-3.313857
-4.147663
-4.384994
-3.809589
-2.680056
-1.498877
-0.601164
0.106737
1.007901
2.270863
3.550421
4.358183
4.653649
4.859238
5.305707
5.882777
6.259724
6.218356
5.761302
5.080107
4.377335
3.636781
2.640469
1.200399
-0.692792
-2.854071
-4.934923
-6.537108
-7.373317
-7.382658
-6.784928
-6.009314
-5.525172
-5.680728
-6.504538
-7.602882
-8.418107
-8.620711
-8.210190
-7.373548
-6.374224
-5.475234
-4.801900
-4.322918
-4.063069
-4.182084
-4.713920
-5.355161
-5.595820
-5.050667
-3.743395
-2.135974
-0.812630
-0.043647
0.322848
0.567523
0.848046
1.188698
1.474686
1.467408
1.049407
0.394333
-0.281020
-0.940509
-1.576847
-2.128861
-2.626158
-3.150960
-3.647046
-3.908565
-3.678905
-2.748993
-1.137353
0.840263
2.787652
4.422265
5.562105
6.125895
6.216772
6.150001
6.295902
6.710566
6.891457
6.103981
4.065163
1.212341
-1.762166
-4.528120
-7.180600
-9.791943
-12.014867
-13.090527
-12.250613
-9.339226
-5.182434
-1.114827
2.006322
4.119664
5.351892
5.519461
4.353798
1.912868
-1.410354
-5.150327
-8.861573
-11.977264
-13.847531
-14.126422
-12.993714
-10.875267
-8.113557
-4.967761
-1.695696
1.452401
4.196630
6.247355
7.476014
7.992497
8.083249
8.178765
8.670964
9.528167
10.297757
10.607843
10.338673
9.306466
7.247735
4.221976
0.819650
-2.034925
-3.498055
-3.221200
-1.441931
1.313974
4.508158
7.608008
10.021971
11.154995
10.609856
8.345838
4.721745
0.512093
-3.279357
-5.860159
-6.943829
-6.723804
-5.712553
-4.530712
-3.671254
-3.340757
-3.411468
-3.461647
-3.015826
-1.993059
-0.927173
-0.571215
-1.220462
-2.509825
-3.898660
-5.177038
-6.370853
-7.407891
-8.251689
-9.222734
-10.700047
-12.464310
-13.663602
-13.518726
-11.984072
-9.728731
-7.496308
-5.472510
-3.286871
-0.618031
2.293282
4.776670
6.297962
6.831663
6.723448
6.301761
5.691081
4.917825
4.069380
3.338476
2.960525
3.121534
3.863594
5.018938
6.278094
7.302927
7.736262
7.321953
6.217173
5.051328
4.539139
5.049530
6.423658
8.023951
9.033269
8.967514
8.107948
7.470983
8.145784
10.371777
13.209921
15.236651
15.619098
14.563296
12.834953
10.957197
8.921378
6.611054
4.286677
2.505204
1.680361
1.798865
2.458112
3.130518
3.442422
3.317749
2.959354
2.682931
2.768679
3.420100
4.665899
6.219115
7.545753
8.197841
8.166046
7.897918
7.849484
7.969325
7.721652
6.668343
4.949876
3.159938
1.810439
0.994950
0.556469
0.379024
0.419239
0.645942
1.077482
1.821436
2.940809
4.198193
5.085443
5.203978
4.508124
3.299300
2.206430
2.007884
3.154045
5.348949
7.660109
9.191972
9.737498
9.806186
10.184215
11.466199
13.637256
15.909072
17.189869
16.897825
15.272128
12.954505
10.520952
8.452482
7.252958
7.338044
8.737437
10.929315
13.114326
14.779371
15.953236
16.832905
17.249664
16.775208
15.416338
13.848180
12.742509
12.162334
11.829725
11.632924
11.555075
11.310816
10.365594
8.457993
6.013480
3.750895
1.918178
0.251688
-1.401778
-2.809260
-3.709536
-4.169380
-4.499371
-4.919380
-5.308290
-5.253106
-4.401201
-2.835187
-1.133924
0.045710
0.510293
0.490110
0.152059
-0.458740
-1.044180
-1.053741
-0.189522
1.225214
2.433502
2.821402
2.422772
1.926935
2.065579
2.883095
3.706955
3.879348
3.399333
2.829739
2.766821
3.521523
5.098746
7.187812
9.186532
10.498982
10.954615
10.786626
10.163595
9.083791
7.825416
7.053218
7.237010
8.183450
9.216007
9.662460
9.242252
8.274163
7.554693
7.783093
8.985882
10.544526
11.724196
12.080162
11.409852
9.572832
6.616206
2.979403
-0.707472
-3.976448
-6.501639
-7.927671
-7.963110
-6.582423
-4.099051
-1.150146
1.446870
3.033935
3.423835
2.922052
2.107204
1.515755
1.332155
1.348403
1.279289
1.009804
0.488042
-0.440304
-1.884281
-3.629969
-5.240428
-6.470133
-7.418535
-8.299776
-9.210643
-10.047796
-10.479874
-10.079035
-8.706146
-6.815422
-5.194808
-4.237822
-3.546242
-2.412493
-0.651758
1.166611
2.241221
2.167978
1.076733
-0.717309
-2.986159
-5.486159
-7.864374
-9.815511
-11.224615
-12.185678
-12.969446
-13.781855
-14.371548
-14.127733
-12.816884
-10.944049
-9.180620
-7.757994
-6.552740
-5.486934
-4.716176
-4.457144
-4.673336
-5.049411
-5.304814
-5.412617
-5.479602
-5.489310
-5.185541
-4.230710
-2.576767
-0.714887
0.579408
0.825842
0.084688
-1.228822
-2.553884
-3.361456
-3.304923
-2.255370
-0.434441
1.368766
2.037151
0.910439
-1.664705
-4.614670
-6.875289
-7.838113
-7.333426
-5.548643
-3.076537
-0.806042
0.549142
0.905884
0.708335
0.408375
0.136140
-0.245997
-0.929095
-1.932527
-2.938289
-3.426335
-3.150445
-2.368288
-1.458417
-0.500390
0.599940
1.754016
2.668756
3.105376
3.038056
2.613929
2.104262
1.917864
2.420033
3.616234
5.205647
6.865193
8.230034
8.885436
8.768308
8.305924
7.792503
6.869516
4.987956
2.306131
-0.221050
-1.828127
-2.783770
-3.961725
-5.735082
-7.560748
-8.496665
-7.980916
-6.278842
-4.190882
-2.266291
-0.529270
1.004436
1.979376
2.061967
1.379957
0.441685
-0.263145
-0.509120
-0.322891
0.055675
0.216449
-0.211548
-1.362529
-3.145919
-5.272943
-7.234646
-8.434003
-8.431591
-7.107008
-4.709757
-1.832812
0.742007
2.375101
2.940628
2.895519
2.874923
3.184861
3.675716
3.942284
3.573616
2.401427
0.619643
-1.375298
-3.226714
-4.764861
-6.080431
-7.354245
-8.431169
-8.740596
-7.933069
-6.491090
-5.366999
-5.004064
-4.982485
-4.632477
-3.721810
-2.517610
-1.468118
-0.909689
-0.890762
-1.247569
-1.927443
-3.096213
-4.805701
-6.747594
-8.432169
-9.440689
-9.599290
-9.123927
-8.378817
-7.281995
-5.270705
-2.145910
1.296250
3.766851
4.575856
4.143054
3.493255
3.388562
3.940504
4.738569
5.147210
4.709028
3.457475
1.794272
0.127896
-1.267498
-2.207540
-2.639583
-2.688778
-2.548145
-2.381808
-2.330239
-2.450603
-2.689942
-3.069231
-3.832667
-5.314162
-7.630268
-10.448720
-13.096924
-15.010716
-16.093691
-16.697281
-17.348242
-18.328888
-19.303919
-19.475651
-18.287487
-15.957221
-13.318253
-11.240192
-10.204928
-10.237725
-11.027510
-12.086666
-12.880576
-12.926015
-11.967948
-10.193988
-8.198045
-6.589728
-5.556666
-4.797463
-3.951282
-3.122127
-2.860872
-3.514758
-4.703000
-5.676019
-6.151206
-6.482262
-7.020555
-7.636566
-7.895318
-7.468991
-6.338637
-4.767732
-3.206901
-2.125739
-1.700176
-1.600596
-1.259250
-0.461132
0.371550
0.510537
-0.474198
-2.381493
-4.510735
-6.040248
-6.361863
-5.302881
-3.307395
-1.395545
-0.626960
-1.405058
-3.311249
-5.515413
-7.197680
-7.704236
-6.699928
-4.423940
-1.638656
0.873509
2.740228
3.990235
4.796260
5.281378
5.501729
5.463593
5.109853
4.426485
3.579651
2.838178
2.404704
2.398191
2.824840
3.379818
3.514264
3.000355
2.264097
1.944366
2.265033
2.913087
3.350313
3.202037
2.501402
1.655569
1.203785
1.553531
2.766890
4.485467
6.058872
6.784298
6.208667
4.446556
2.246469
0.566974
-0.101624
-0.050317
0.038059
-0.214995
-0.621603
-0.807394
-0.645982
-0.233762
0.357430
1.136849
2.078206
3.056775
3.942705
4.709807
5.379247
5.937402
6.429928
7.036705
7.890856
8.833645
9.422874
9.244680
8.283580
6.984987
5.939262
5.528110
5.779922
6.347560
6.603436
6.032503
4.714440
3.294563
2.372777
1.989943
1.729986
1.211633
0.411593
-0.409613
-0.985108
-1.230548
-1.175712
-0.759587
0.159058
1.531523
3.001228
4.137322
4.727997
4.830289
4.563141
3.886407
2.652916
0.900317
-0.971693
-2.414973
-3.192442
-3.563569
-3.936399
-4.398323
-4.635044
-4.266497
-3.271367
-2.046843
-0.966182
0.007840
1.177015
2.724134
4.497396
6.020274
6.718005
6.310428
5.098512
3.798259
2.990728
2.720842
2.603497
2.303786
1.939776
1.949727
2.543525
3.410163
3.974247
3.846568
3.055333
1.925624
0.788100
-0.174390
-0.879807
-1.265263
-1.238034
-0.640107
0.715307
2.905013
5.766156
8.902500
11.798813
13.921124
14.823560
14.397578
13.124417
11.880158
11.242255
10.992438
10.407001
9.017109
7.008644
4.885735
2.878149
0.798263
-1.604983
-4.313286
-7.041811
-9.457373
-11.347721
-12.573045
-12.922792
-12.187596
-10.444352
-8.204465
-6.224012
-5.091680
-4.906056
-5.335341
-5.983050
-6.686624
-7.497039
-8.411079
-9.198821
-9.517504
-9.112841
-7.943764
-6.259418
-4.558581
-3.357481
-2.942266
-3.320549
-4.317833
-5.611470
-6.669466
-6.852087
-5.813401
-3.806178
-1.489668
0.538156
2.051559
3.203526
4.254140
5.212820
5.792654
5.789237
5.383240
4.938129
4.613491
4.331867
4.031422
3.773798
3.649296
3.707821
3.932865
4.194673
4.313466
4.267202
4.228327
4.282587
4.244747
3.874403
3.160155
2.278486
1.358450
0.408307
-0.563243
-1.427480
-1.907500
-1.670739
-0.559392
1.158945
2.767240
3.492081
3.130263
2.294784
1.875595
2.142519
2.401901
1.652315
-0.352049
-2.747552
-4.286898
-4.352232
-3.291668
-1.932083
-0.898853
-0.357734
-0.202952
-0.363612
-0.949396
-2.105569
-3.732136
-5.394303
-6.513559
-6.666370
-5.770449
-4.043068
-1.815778
0.657369
3.246839
5.710043
7.467809
7.913399
7.027605
5.475319
3.996680
2.829527
1.784636
0.700326
-0.382552
-1.384713
-2.246874
-2.838558
-3.050478
-3.005909
-2.998570
-3.174819
-3.390196
-3.391507
-3.039214
-2.361383
-1.555521
-1.009537
-1.156170
-2.163124
-3.803902
-5.652071
-7.329914
-8.586331
-9.291863
-9.415895
-8.882237
-7.469805
-5.108830
-2.315002
-0.071361
0.835371
0.330359
-0.952054
-2.055920
-2.198194
-1.059504
1.207696
4.075252
6.831664
8.901481
10.036257
10.260960
9.788674
8.941961
7.968342
6.903694
5.671330
4.274114
2.842175
1.540141
0.489324
-0.280408
-0.937658
-1.868631
-3.361526
-5.193230
-6.689526
-7.293884
-7.013554
-6.278688
-5.448181
-4.495389
-3.079284
-0.864827
2.100242
5.231853
7.722748
9.056680
9.180182
8.343894
7.008326
5.765486
5.022895
4.690648
4.285936
3.343691
1.675925
-0.662367
-3.486663
-6.553916
-9.641116
-12.609767
-15.373060
-17.806501
-19.703484
-20.791969
-20.815403
-19.672405
-17.516859
-14.701728
-11.536909
-8.057652
-4.159322
-0.034334
3.693151
6.381400
7.810220
8.141522
7.555483
6.063697
3.702501
0.837603
-1.796856
-3.443791
-3.770299
-2.952185
-1.352186
0.712312
2.828120
4.331335
4.555306
3.322291
1.128039
-1.218105
-3.125350
-4.444077
-5.294954
-5.763049
-5.768173
-5.229317
-4.348807
-3.692683
-3.910449
-5.284881
-7.461282
-9.572455
-10.717010
-10.467300
-8.998265
-6.796322
-4.377807
-2.296710
-1.135578
-1.177281
-2.087949
-3.099064
-3.568650
-3.349084
-2.690130
-1.937139
-1.328672
-0.922934
-0.615259
-0.287318
0.007306
0.078885
-0.131357
-0.355182
-0.075633
1.139301
3.242818
5.622677
7.486487
8.359967
8.238845
7.389115
6.116461
4.692735
3.371932
2.365603
1.754830
1.445038
1.262887
1.150327
1.306349
2.108949
3.777856
6.058701
8.320734
10.043049
11.179851
12.031452
12.866892
13.744019
14.561319
15.138833
15.270036
14.791787
13.666731
11.959931
9.697001
6.858201
3.603116
0.419622
-2.055164
-3.405469
-3.621679
-2.914293
-1.465064
0.531028
2.713059
4.637387
5.985839
6.579447
6.261615
4.950325
2.805283
0.201871
-2.441876
-4.693113
-6.061326
-6.191877
-5.211479
-3.793524
-2.750166
-2.435135
-2.463106
-2.042623
-0.670827
1.442083
3.589895
5.179051
6.167409
6.980758
7.994888
9.070376
9.660723
9.412357
8.582145
7.871356
7.930697
8.927335
10.386848
11.452916
11.465407
10.354030
8.448724
5.996574
3.037693
-0.239773
-3.248660
-5.319823
-6.280494
-6.585731
-6.819620
-7.171619
-7.434841
-7.354681
-6.897512
-6.287597
-5.847271
-5.769985
-6.044832
-6.585246
-7.354160
-8.306450
-9.208150
-9.583235
-8.977550
-7.352365
-5.189116
-3.185807
-1.823767
-1.112803
-0.630667
0.170530
1.544998
3.228534
4.640025
5.374381
5.569721
5.781882
6.408158
7.248729
7.757388
7.686389
7.316482
7.064529
7.020614
6.915104
6.475581
5.756414
5.069766
4.588082
4.095147
3.180232
1.632218
-0.367508
-2.359377
-3.861433
-4.589101
-4.558928
-4.046530
-3.393139
-2.729942
-1.861505
-0.545107
1.062767
2.372061
2.851082
2.464794
1.624817
0.881698
0.663658
1.058309
1.747727
2.276669
2.425474
2.328790
2.339080
2.785711
3.719069
4.799278
5.451433
5.187902
3.887898
1.886985
-0.144607
-1.471387
-1.625878
-0.679757
0.744417
1.861363
2.292546
2.249897
2.130185
2.063762
1.905643
1.480837
0.740070
-0.194433
-1.008858
-1.276748
-0.724407
0.489973
1.793689
2.552716
2.418873
1.338831
-0.608677
-3.134663
-5.588387
-7.281811
-8.079585
-8.418337
-8.678977
-8.767626
-8.395057
-7.569016
-6.649870
-5.992536
-5.667416
-5.540557
-5.538120
-5.737998
-6.179136
-6.688296
-7.025831
-7.167690
-7.304471
-7.546308
-7.735760
-7.591946
-6.969543
-5.925806
-4.566604
-2.884336
-0.787116
1.680139
4.155262
6.103075
7.245177
7.810708
8.274770
8.899398
9.615390
10.263377
10.769329
11.046837
10.892919
10.154997
8.973023
7.718741
6.680643
5.876551
5.152356
4.390047
3.607894
2.894462
2.289953
1.756151
1.238402
0.722278
0.228625
-0.224812
-0.630258
-0.945524
-1.074979
-0.929780
-0.466464
0.363606
1.626656
3.304840
5.213635
7.060147
8.587270
9.676056
10.355324
10.758658
11.059495
11.358177
11.569333
11.459960
10.846535
9.743760
8.306645
6.661156
4.853689
2.984915
1.338663
0.300330
0.089903
0.570047
1.373174
2.255927
3.291391
4.693877
6.507123
8.473067
10.162060
11.242412
11.676564
11.691738
11.548481
11.290699
10.711329
9.576828
7.879336
5.896253
4.058861
2.755495
2.197590
2.408025
3.240422
4.325622
5.089287
5.046790
4.192687
3.028731
2.119283
1.622799
1.291392
0.888185
0.507423
0.453344
0.894468
1.700979
2.538157
3.048363
3.012642
2.428619
1.453270
0.249247
-1.107602
-2.543733
-3.868274
-4.835701
-5.331641
-5.433494
-5.256869
-4.781682
-3.915041
-2.759771
-1.736867
-1.332246
-1.704867
-2.576197
-3.482299
-4.081645
-4.235102
-3.908962
-3.128556
-2.020808
-0.834211
0.079161
0.360368
-0.102257
-0.967931
-1.609389
-1.554777
-0.780500
0.364929
1.451698
2.188091
2.438824
2.155830
1.378575
0.281143
-0.857503
-1.780855
-2.398306
-2.841683
-3.351330
-4.049144
-4.809923
-5.351384
-5.437948
-5.044951
-4.411766
-3.919530
-3.819892
-4.068534
-4.447777
-4.803772
-5.139625
-5.529739
-5.968796
-6.311775
-6.421086
-6.390384
-6.546412
-7.177721
-8.270707
-9.513573
-10.550037
-11.223047
-11.575234
-11.684383
-11.600975
-11.442630
-11.443644
-11.815829
-12.544979
-13.379789
-14.037541
-14.367479
-14.326501
-13.916228
-13.231878
-12.532992
-12.154318
-12.253330
-12.620258
-12.793103
-12.443064
-11.675332
-10.919533
-10.510247
-10.402566
-10.296285
-9.974863
-9.475463
-8.976642
-8.606101
-8.366639
-8.202613
-8.104754
-8.117027
-8.221946
-8.271046
-8.085135
-7.579454
-6.744847
-5.596130
-4.245291
-2.953826
-1.961148
-1.258542
-0.608837
0.226436
1.300409
2.455866
3.440909
4.081796
4.379877
4.455439
4.421118
4.323229
4.190485
4.100304
4.144268
4.319105
4.499838
4.546241
4.405947
4.120596
3.840655
3.867287
4.509830
5.783400
7.319259
8.619522
9.365882
9.521603
9.231896
8.641226
7.772503
6.605154
5.276313
4.122757
3.480720
3.477533
3.994819
4.758387
5.451072
5.799206
5.640800
4.987816
4.040898
3.100263
2.402749
2.022194
1.922911
2.061358
2.375564
2.683702
2.675310
2.096021
0.970366
-0.385759
-1.586475
-2.414804
-2.877191
-3.076312
-3.083675
-2.934361
-2.665842
-2.313698
-1.905419
-1.474272
-1.051881
-0.654183
-0.290903
0.033078
0.326034
0.571977
0.672501
0.481347
-0.057548
-0.831007
-1.650752
-2.400169
-3.065463
-3.659065
-4.132320
-4.352544
