EVENT_NAME: L_AQUILA
EVENT_ID: IT-2009-0009
EVENT_DATE_YYYYMMDD: 20090406
EVENT_TIME_HHMMSS: 013240
EVENT_LATITUDE_DEGREE: 42.3420
EVENT_LONGITUDE_DEGREE: 13.3800
EVENT_DEPTH_KM: 8.3
HYPOCENTER_REFERENCE: INGV-CNT_Seismic_Bulletin
MAGNITUDE_W: 6.1
MAGNITUDE_W_REFERENCE: INGV-CNT_Seismic_Bulletin
MAGNITUDE_L: 
MAGNITUDE_L_REFERENCE: 
FOCAL_MECHANISM: Normal faulting
NETWORK: IT
STATION_CODE: GSG
STATION_NAME: 
STATION_LATITUDE_DEGREE: 42.460000
STATION_LONGITUDE_DEGREE: 13.550000
STATION_ELEVATION_M: 1200
LOCATION: 
SENSOR_DEPTH_M: 200.0
VS30_M/S: 
SITE_CLASSIFICATION_EC8: B (inferred from geology)
MORPHOLOGIC_CLASSIFICATION: 
EPICENTRAL_DISTANCE_KM: 19.2
EARTHQUAKE_BACKAZIMUTH_DEGREE: 46.8
DATE_TIME_FIRST_SAMPLE_YYYYMMDD_HHMMSS: 20090406_013229.000 
DATE_TIME_FIRST_SAMPLE_PRECISION: 
SAMPLING_INTERVAL_S: 0.005000
NDATA: 20000
DURATION_S: 100.000
STREAM: HNN
UNITS: cm/s^2
INSTRUMENT: sensor = FBA-3 [Kinemetrics] | digitizer = Everest [Kinemetrics]
INSTRUMENT_ANALOG/DIGITAL: D
INSTRUMENTAL_FREQUENCY_HZ: 210.000
INSTRUMENTAL_DAMPING: 0.700000
FULL_SCALE_G: 1.0
N_BIT_DIGITAL_CONVERTER: 24
PGA_CM/S^2: 29.394747
TIME_PGA_S: 36.340000
BASELINE_CORRECTION: BASELINE REMOVED
FILTER_TYPE: BUTTERWORTH
FILTER_ORDER: 2
LOW_CUT_FREQUENCY_HZ: 0.100
HIGH_CUT_FREQUENCY_HZ: 40.000
LATE/NORMAL_TRIGGERED: NT
DATABASE_VERSION: 0.5
HEADER_FORMAT: DYNA 1.2
DATA_TYPE: ACCELERATION
PROCESSING: manual (Paolucci et al., 2011)
DATA_TIMESTAMP_YYYYMMDD_HHMMSS: 20211011_155808.120
DATA_LICENSE: CC-BY3_0-IT (http://creativecommons.org/licenses/by/3.0/deed.en)
DATA_CITATION: Luzi L, Pacor F, Puglia R (2019). Italian Accelerometric Archive v 3.0 - Istituto Nazionale di Geofisica e Vulcanologia, Dipartimento della Protezione Civile Nazionale. doi: 10.13127/itaca.3.1
DATA_CREATOR: ITACA working group
ORIGINAL_DATA_MEDIATOR_CITATION: data obtained within the DPC-INGV data exchange agreements
ORIGINAL_DATA_MEDIATOR: Archive of Italian Department of Civil Protection
ORIGINAL_DATA_CREATOR_CITATION: Presidency Of Counsil Of Ministers-Civil Protection Department. (1972). Italian Strong Motion Network. Presidency of Counsil of Ministers - Civil Protection Department. https://doi.org/10.7914/SN/IT http://www.fdsn.org/networks/detail/IT/
ORIGINAL_DATA_CREATOR: network: IT (Italian Strong Motion Network (RAN)); owner: Presidency of Counsil of Ministers - Civil Protection Department (PCM - DPC)
USER1: 
USER2: 
USER3: 
USER4: 
USER5: 
[...]
-0.134790
-0.140978
-0.144818
-0.147489
-0.150680
-0.155217
-0.162616
-0.173698
-0.185286
-0.193077
-0.197178
-0.200173
-0.202524
-0.202420
-0.197111
-0.185643
-0.172202
-0.162958
-0.159018
-0.155990
-0.148803
-0.136148
-0.121881
-0.111397
-0.108701
-0.115313
-0.126833
-0.133248
-0.127004
-0.111192
-0.097812
-0.094734
-0.097644
-0.099871
-0.102551
-0.108944
-0.117723
-0.127726
-0.142406
-0.162706
-0.180470
-0.187603
-0.188302
-0.193820
-0.207382
-0.222478
-0.232827
-0.235788
-0.231594
-0.224186
-0.217886
-0.214237
-0.213547
-0.213933
-0.209451
-0.195919
-0.175737
-0.152725
-0.129275
-0.109773
-0.099285
-0.098563
-0.103331
-0.109874
-0.122207
-0.149436
-0.188703
-0.217616
-0.216671
-0.188835
-0.148586
-0.110451
-0.093536
-0.115530
-0.171706
-0.230688
-0.256797
-0.233887
-0.174810
-0.115129
-0.087052
-0.092080
-0.109129
-0.125951
-0.144585
-0.161748
-0.167141
-0.162077
-0.157086
-0.151182
-0.141042
-0.143884
-0.177104
-0.222843
-0.242089
-0.219685
-0.180354
-0.162576
-0.182803
-0.226797
-0.268478
-0.288693
-0.280785
-0.247279
-0.201521
-0.173572
-0.186629
-0.212875
-0.182806
-0.058058
0.121894
0.273928
0.344652
0.351505
0.353551
0.391549
0.472047
0.583004
0.689066
0.741165
0.727573
0.695173
0.703387
0.774523
0.891233
1.017371
1.107425
1.116513
1.027221
0.860036
0.648394
0.420479
0.206568
0.035897
-0.084865
-0.175122
-0.260142
-0.354060
-0.449788
-0.520420
-0.543885
-0.525462
-0.495745
-0.494785
-0.548455
-0.646458
-0.748242
-0.813344
-0.819920
-0.767676
-0.675621
-0.560181
-0.416763
-0.248921
-0.097818
0.004442
0.090154
0.203673
0.314009
0.346785
0.295119
0.237607
0.235534
0.261841
0.257855
0.214834
0.156713
0.074478
-0.076910
-0.320881
-0.621404
-0.911497
-1.151169
-1.335636
-1.432654
-1.349317
-1.038661
-0.639533
-0.403986
-0.438350
-0.592436
-0.632960
-0.448643
-0.072980
0.396806
0.859588
1.253987
1.585998
1.890441
2.161164
2.341753
2.383604
2.291029
2.093074
1.797649
1.414663
0.993378
0.580000
0.165341
-0.268417
-0.675160
-0.984612
-1.190286
-1.327226
-1.391209
-1.340796
-1.162552
-0.912000
-0.683797
-0.517948
-0.349659
-0.090008
0.264104
0.621536
0.856949
0.871931
0.650836
0.283641
-0.084822
-0.354056
-0.534179
-0.717031
-0.956690
-1.179324
-1.277390
-1.299785
-1.440568
-1.791238
-2.196446
-2.395929
-2.228481
-1.713809
-1.053381
-0.527917
-0.277265
-0.173817
0.038274
0.491727
1.100318
1.680243
2.146816
2.593114
3.162254
3.851106
4.448127
4.651692
4.320289
3.687142
3.247753
3.334362
3.837900
4.364573
4.554740
4.255941
3.604437
2.999010
2.789513
2.908532
2.944638
2.603629
1.965409
1.321338
0.930002
0.871412
0.966730
0.900097
0.503204
-0.156582
-0.906874
-1.537972
-1.837789
-1.714818
-1.282604
-0.804423
-0.510359
-0.405540
-0.316269
-0.124557
0.154810
0.467082
0.777161
1.110541
1.550896
2.098789
2.585716
2.848893
2.905551
2.822628
2.562772
2.125806
1.668154
1.324819
1.044762
0.675335
0.114687
-0.629800
-1.479627
-2.368038
-3.235409
-3.956760
-4.420477
-4.688947
-4.932635
-5.207604
-5.446121
-5.636042
-5.810041
-5.854636
-5.520672
-4.710208
-3.667656
-2.755556
-2.075693
-1.475008
-0.853299
-0.211939
0.526016
1.409795
2.200644
2.553475
2.471507
2.286924
2.182104
1.993760
1.528773
0.896088
0.427909
0.315602
0.465645
0.774265
1.332950
2.164256
2.954383
3.320465
3.216656
2.872596
2.471664
2.023509
1.408507
0.534513
-0.433171
-1.107052
-1.181087
-0.543166
0.787356
2.555294
4.209315
5.172426
5.126312
4.081612
2.429249
0.884399
0.112431
0.318848
1.156102
2.013513
2.541164
2.833538
2.960464
2.660097
1.790335
0.713068
-0.066509
-0.423310
-0.654970
-1.104347
-1.774248
-2.355201
-2.637335
-2.748823
-2.890183
-2.938599
-2.497023
-1.340318
0.363577
2.257804
4.028004
5.488471
6.566882
7.169770
7.172231
6.668215
6.063340
5.710013
5.508638
5.100507
4.376687
3.488276
2.527571
1.528818
0.635535
0.084347
0.012290
0.198060
0.073401
-0.772653
-2.088808
-3.122724
-3.347248
-2.950610
-2.567856
-2.586188
-2.763112
-2.567789
-1.871378
-1.158335
-1.014306
-1.507402
-2.119589
-2.255814
-1.750115
-0.807879
0.344698
1.491856
2.395498
3.033860
3.522979
3.690685
3.268636
2.502830
1.924704
1.587461
1.176288
0.699626
0.419683
0.264235
-0.123574
-0.779332
-1.271541
-1.323415
-1.229072
-1.327603
-1.503191
-1.528312
-1.432552
-1.382234
-1.438147
-1.381728
-0.849140
0.213866
1.383439
2.099889
2.043829
1.279136
0.274343
-0.332838
-0.313768
-0.077387
-0.039808
-0.045882
0.277036
0.956439
1.682592
2.038736
1.690665
0.630399
-0.775811
-2.107802
-3.186272
-3.954339
-4.292330
-4.248752
-4.194701
-4.347069
-4.397091
-3.953518
-3.077293
-2.135558
-1.411574
-1.022208
-0.912407
-0.742152
-0.043216
1.306042
2.935856
4.349067
5.178785
5.180330
4.349446
3.120460
2.267729
2.393287
3.343291
4.248163
4.322025
3.503820
2.336973
1.562386
1.737953
2.789726
3.908106
4.152262
3.198031
1.498536
-0.172338
-1.331950
-1.977863
-2.270821
-2.349642
-2.450332
-2.790709
-3.267369
-3.523683
-3.341425
-2.791368
-2.002063
-1.048887
-0.127449
0.526560
0.978015
1.585886
2.639712
4.018219
5.150257
5.483320
5.038927
4.341017
3.865520
3.696194
3.599567
3.325761
2.859443
2.342422
1.799327
1.123221
0.317132
-0.430914
-0.948574
-1.281837
-1.698052
-2.507465
-3.743616
-4.932167
-5.458792
-5.312315
-5.077745
-5.069290
-4.930547
-4.259045
-3.235282
-2.437724
-2.245055
-2.473585
-2.560993
-2.212783
-1.651913
-1.094291
-0.507087
0.035755
0.375676
0.582216
0.772277
0.835659
0.638425
0.259533
-0.130832
-0.445172
-0.635381
-0.625725
-0.423847
-0.193453
-0.046864
0.159685
0.622674
1.260985
1.772988
1.886374
1.453084
0.574786
-0.245630
-0.390402
0.260533
1.183470
1.760513
1.849975
1.786848
1.999481
2.722762
3.883066
5.079489
5.840322
6.038389
5.831951
5.226102
4.159189
2.972945
2.246243
2.100919
2.101753
1.950838
1.867000
2.096472
2.423305
2.431429
2.040833
1.535502
1.212410
1.278826
1.950500
3.246908
4.692175
5.600472
5.744936
5.549143
5.585681
5.884628
5.766708
4.631575
2.871375
1.569322
1.382936
2.059073
2.807791
2.912558
2.168650
0.894026
-0.372109
-1.088085
-0.908196
-0.022395
0.797401
0.753834
-0.322530
-1.890995
-3.184213
-3.696470
-3.359558
-2.532869
-1.830642
-1.741292
-2.288426
-2.949020
-2.913049
-1.801454
-0.342589
0.059701
-1.208934
-3.242798
-4.654510
-4.933322
-4.485108
-3.854552
-3.328094
-2.978301
-2.721735
-2.434739
-2.132467
-1.890831
-1.607051
-1.037605
-0.091804
1.040637
2.123870
3.099474
3.856192
4.037045
3.536524
2.855976
2.509372
2.506499
2.572047
2.314331
1.349326
-0.206171
-1.685708
-2.628122
-3.233582
-3.975121
-5.082990
-6.411990
-7.555419
-8.129103
-8.081497
-7.656871
-7.150084
-6.865315
-7.036655
-7.459418
-7.421833
-6.352930
-4.411250
-2.253919
-0.518309
0.354448
0.267402
-0.337049
-0.784516
-0.812458
-0.623930
-0.257928
0.647995
2.259124
4.128544
5.615793
6.387756
6.345815
5.393508
3.635516
1.763198
0.820060
1.305801
2.693102
3.896413
3.991103
2.677169
0.468116
-1.651980
-2.993160
-3.572011
-3.819433
-4.082859
-4.437331
-4.783429
-4.985793
-4.966196
-4.773971
-4.540322
-4.279827
-3.840397
-3.172123
-2.463559
-1.841053
-1.183127
-0.458826
-0.028179
-0.340658
-1.344111
-2.349530
-2.610039
-2.000144
-1.072481
-0.512497
-0.554308
-0.887199
-1.100381
-1.159632
-1.413240
-2.140954
-3.146737
-3.863428
-3.832097
-3.047317
-1.905481
-0.812195
0.204236
1.416275
2.951428
4.582726
5.923096
6.617442
6.427083
5.411667
3.961664
2.492129
1.340813
0.953600
1.656720
3.198469
4.894737
6.183209
6.803913
6.604454
5.505264
3.693088
1.689036
0.120155
-0.655727
-0.767429
-0.705865
-0.906421
-1.379953
-1.832585
-2.089189
-2.270776
-2.729287
-3.871148
-5.722366
-7.616067
-8.683980
-8.721967
-8.305304
-8.070134
-8.068041
-7.857525
-7.146934
-6.134090
-5.129600
-4.128643
-2.908050
-1.345506
0.407451
1.914122
2.669793
2.519978
1.844733
1.169403
0.588852
-0.227894
-1.418582
-2.582370
-3.151338
-2.884879
-1.967668
-0.833368
0.018133
0.154309
-0.578017
-1.882202
-3.224517
-4.202936
-4.621048
-4.485602
-4.119799
-3.991198
-4.240276
-4.586502
-4.747029
-4.649035
-4.213578
-3.305821
-2.010735
-0.680712
0.390540
1.146513
1.658040
2.065136
2.540973
3.109746
3.525178
3.375330
2.311891
0.273928
-2.436408
-5.312739
-7.903950
-9.952338
-11.356081
-12.083002
-12.074926
-11.139564
-9.107184
-6.296505
-3.599548
-1.843773
-1.198569
-1.274457
-1.574636
-1.757399
-1.665107
-1.291274
-0.643944
0.430782
2.028394
3.648884
4.272011
3.264170
0.929038
-1.977953
-4.853904
-7.181303
-8.347359
-8.040203
-6.705926
-5.181505
-3.830333
-2.291337
-0.185589
2.101722
3.632634
3.945445
3.632886
3.726164
4.638166
5.984763
7.317221
8.618828
10.101863
11.769907
13.136447
13.361261
11.900302
9.084433
5.873464
3.014522
0.601982
-1.542030
-3.286262
-4.206860
-4.173481
-3.673355
-3.449860
-4.003107
-5.358266
-6.921790
-7.623527
-6.665277
-4.191591
-0.981775
2.396709
5.802175
8.955993
11.048478
11.126703
8.867590
4.962232
0.808743
-2.154539
-3.127755
-2.491320
-1.653859
-1.868180
-3.160020
-4.586547
-5.195312
-4.596842
-3.132673
-1.693567
-1.027107
-1.100464
-1.274741
-1.028942
-0.343285
0.513065
1.296689
1.803839
1.708758
0.694261
-1.001011
-2.348264
-2.323409
-1.077446
-0.022976
-0.471752
-2.110901
-3.135779
-2.299512
-0.513358
0.160990
-1.208451
-3.702066
-5.688107
-6.037426
-4.568199
-2.057224
0.115403
0.753571
-0.385766
-2.520637
-4.627286
-6.289506
-7.669234
-8.826393
-9.485677
-9.454130
-8.844709
-7.895808
-6.880846
-6.049667
-5.389065
-4.598334
-3.485372
-2.255818
-1.303976
-0.914641
-1.281866
-2.451121
-4.012222
-5.175080
-5.269521
-3.993938
-1.367357
2.268058
6.320379
10.235143
13.633937
16.144043
17.393024
17.307306
16.185892
14.432192
12.311668
9.846999
6.998559
4.132264
1.991518
0.924142
0.492698
0.031303
-0.739843
-1.725293
-2.740069
-3.572585
-3.909784
-3.486370
-2.418416
-1.277763
-0.733166
-1.130454
-2.375074
-4.070224
-5.729619
-6.940517
-7.382250
-6.752471
-4.779785
-1.458591
2.625257
6.336527
8.509044
8.438298
6.106580
2.247255
-1.912297
-5.297341
-7.536324
-8.897263
-9.713196
-9.897951
-9.036884
-6.969872
-4.218114
-1.697654
-0.055044
0.559566
0.215658
-1.009722
-3.020054
-5.667067
-8.705437
-11.605050
-13.350258
-12.757391
-9.496166
-4.802424
-0.673340
1.858544
3.403431
5.178643
7.634681
10.161993
11.912169
12.769301
13.402680
14.282200
14.985353
14.800772
13.660802
12.172574
11.022826
10.482813
10.237730
9.653381
8.346851
6.441130
4.264134
2.049483
-0.042707
-1.888793
-3.397664
-4.379218
-4.628439
-4.359183
-4.198357
-4.402251
-4.364429
-3.239445
-0.933685
1.731778
3.810259
4.933205
5.155826
4.563726
3.375308
2.032477
0.786731
-0.538054
-2.083978
-3.504790
-4.172777
-3.690322
-2.182813
-0.208405
1.617652
2.844997
3.079147
2.110088
0.473735
-0.466214
0.509982
3.396405
6.960509
9.738049
11.117695
11.740725
12.868155
15.177387
18.127825
20.489985
21.368881
20.715027
19.157743
17.541521
16.346630
15.226256
13.137062
9.255897
4.051676
-0.734438
-3.458172
-3.734083
-2.253013
-0.069559
1.810607
2.787864
2.900169
2.551289
2.107179
1.746572
1.366115
0.616286
-0.654525
-2.004988
-2.746809
-2.657754
-2.119725
-1.716403
-1.865429
-2.469616
-2.731259
-1.754075
0.439842
2.795015
4.236475
4.579939
4.361632
3.965533
3.180078
1.693274
-0.135669
-1.214407
-0.542119
1.914488
5.161759
7.882359
9.228782
9.168334
8.201487
6.813313
5.294165
3.865702
2.628251
1.482332
0.262053
-1.085394
-2.255797
-2.477123
-1.101804
1.550950
4.337582
6.301510
7.224451
7.270282
6.483724
4.833755
2.677033
0.918317
0.472515
1.558158
3.531803
5.336251
6.100676
5.442687
3.519564
1.022614
-1.055962
-2.022752
-2.010804
-1.739569
-1.717297
-1.936839
-2.188190
-2.201306
-1.643724
-0.374601
1.469180
3.707097
6.081736
8.104210
9.296308
9.404531
8.212398
5.616560
2.224422
-0.590060
-1.732553
-1.475056
-1.331148
-2.639688
-5.259581
-7.960872
-9.871110
-10.941934
-11.294328
-10.861538
-9.662052
-8.012100
-6.389188
-5.162259
-4.417233
-3.980349
-3.660249
-3.562927
-4.112860
-5.548476
-7.341445
-8.404780
-8.120682
-6.960491
-5.817403
-4.991042
-4.193255
-3.242916
-2.255157
-1.316950
-0.485782
-0.087697
-0.576017
-1.997487
-3.784872
-5.140282
-5.634518
-5.380964
-4.656606
-3.626028
-2.482760
-1.584035
-1.259729
-1.528398
-2.263415
-3.676327
-6.100824
-9.093648
-11.404231
-12.196994
-11.863810
-11.451669
-11.663720
-12.579313
-14.090223
-16.186209
-18.595152
-20.478954
-20.875183
-19.342888
-16.123627
-11.820574
-6.883419
-1.576741
3.383753
6.828807
8.383237
9.259144
11.139319
14.386482
17.889242
20.636078
22.717005
24.574532
26.055439
26.706230
26.583527
26.297956
26.378996
26.927107
27.800215
28.767242
29.394747
29.081675
27.476170
24.790348
21.579935
18.285879
15.053447
11.992443
9.511081
8.118893
7.781248
7.728336
7.103959
5.628642
3.561130
1.303806
-0.874408
-2.922747
-4.858917
-6.616591
-8.178884
-9.628938
-10.833737
-11.341488
-10.821368
-9.344579
-7.050335
-3.863290
0.134177
4.178452
7.113839
8.477506
8.974316
9.538761
10.237571
10.353802
9.311422
7.347054
5.282247
3.680306
2.418035
1.192194
0.177523
-0.140971
0.340595
1.209237
2.069849
2.838061
3.482395
3.796129
3.484432
2.423977
0.894934
-0.575681
-1.766367
-2.999751
-4.610997
-6.332677
-7.479400
-7.539787
-6.316510
-3.863984
-0.710049
2.154323
3.889810
4.327800
3.833500
2.839902
1.540664
-0.040463
-1.709909
-3.008290
-3.621282
-3.735776
-3.824063
-4.233122
-5.153848
-6.744085
-8.832070
-10.513407
-10.542645
-8.500514
-5.489689
-3.359313
-3.226363
-4.895122
-7.379843
-9.569307
-10.608019
-10.136184
-8.364044
-5.929504
-3.620918
-2.037392
-1.407807
-1.759890
-3.057804
-4.915693
-6.476772
-7.064540
-6.810388
-6.281313
-5.693079
-4.877953
-3.887652
-3.163042
-3.014382
-3.268010
-3.567095
-3.713207
-3.593255
-3.188066
-2.806902
-2.897721
-3.535268
-4.417126
-5.249331
-5.851717
-6.143964
-6.255877
-6.393443
-6.464752
-5.964267
-4.274280
-1.154447
2.934254
6.988141
10.043830
11.714119
12.181180
11.661972
10.088647
7.470155
4.252150
1.055623
-1.739295
-4.047798
-5.916577
-7.349943
-8.172663
-8.127598
-7.264852
-6.103682
-5.232176
-4.878907
-4.900504
-4.952543
-4.725303
-4.177281
-3.373037
-2.166629
-0.462996
1.294536
2.309378
2.091703
0.849349
-0.534729
-0.971379
-0.091848
1.292440
1.979479
1.450113
0.013992
-1.685205
-3.122157
-4.227699
-5.417546
-7.112712
-9.292001
-11.502962
-13.056175
-13.286744
-11.964040
-9.486458
-6.488611
-3.336019
-0.278960
2.053322
2.811120
1.746717
-0.321529
-2.116485
-3.087751
-3.857840
-5.319121
-7.424147
-9.121773
-9.499744
-8.867562
-8.611086
-9.900405
-12.585595
-15.436609
-17.327162
-18.036665
-18.059456
-17.871820
-17.431942
-16.418039
-14.930026
-13.641037
-12.984939
-12.476622
-11.248649
-9.093998
-6.646046
-4.676307
-3.452797
-2.677921
-1.877421
-0.891613
-0.071555
0.080582
-0.461320
-1.030436
-0.766248
0.621732
2.600556
4.259899
4.922249
4.478811
3.385775
2.339969
1.835545
1.958913
2.488733
3.082064
3.418912
3.298649
2.681418
1.671666
0.494244
-0.536374
-1.171488
-1.398519
-1.350356
-1.086453
-0.582243
0.051112
0.339295
-0.434361
-2.610718
-5.655649
-8.505891
-10.357961
-10.964273
-10.493654
-9.491449
-8.644957
-8.194391
-7.847166
-7.389995
-6.987575
-6.838233
-6.871693
-6.793807
-6.245570
-5.009096
-3.233133
-1.446499
-0.288458
-0.098253
-0.621721
-1.230292
-1.520713
-1.557904
-1.611236
-1.888295
-2.414870
-3.013310
-3.509133
-3.915029
-4.189071
-3.938252
-2.700453
-0.518786
2.030459
4.430865
6.613442
8.619800
10.097148
10.467142
9.593187
7.933711
5.971251
3.875382
1.774481
-0.104403
-1.664989
-3.014995
-4.296081
-5.533961
-6.558267
-7.043053
-6.713567
-5.545454
-3.802787
-1.935719
-0.348923
0.817839
1.574162
1.837859
1.651997
1.518069
2.073104
3.487867
5.407480
7.299019
8.656517
8.995411
7.911233
5.366034
1.977126
-1.090195
-2.710962
-2.529752
-1.228342
0.062419
0.720518
0.916639
1.029839
1.144457
1.196834
1.279705
1.638406
2.451572
3.623232
4.793932
5.602597
5.891344
5.602321
4.594985
2.792374
0.478851
-1.836547
-3.805301
-5.179731
-5.584245
-4.893809
-3.871291
-3.945275
-5.954195
-9.143065
-11.651226
-12.007627
-10.118671
-7.102826
-4.468628
-3.270809
-3.548815
-4.312285
-4.283148
-2.936160
-0.854314
0.912611
1.702932
1.478226
0.495283
-1.019388
-2.969089
-5.356317
-8.135294
-11.013683
-13.401583
-14.621834
-14.271832
-12.362783
-9.095630
-4.754447
0.015463
4.091272
6.411423
6.750207
5.861654
4.837156
4.407060
4.724159
5.488580
6.222088
6.634145
6.808280
6.974098
7.111630
6.918683
6.288768
5.650915
5.553756
6.017250
6.563019
6.824191
6.913660
7.210157
7.978299
9.212977
10.641042
11.777990
12.129144
11.497368
10.067889
8.062581
5.324739
1.417490
-3.777522
-9.632930
-14.972700
-18.694405
-20.386774
-20.519812
-19.984100
-19.377356
-18.717783
-17.685556
-15.978981
-13.520554
-10.454053
-7.001260
-3.435935
-0.226800
1.956235
2.558180
1.550940
-0.465277
-2.588455
-4.064599
-4.511828
-3.904330
-2.496574
-0.691660
1.166133
2.866139
4.198822
4.924847
5.019851
4.836052
4.842212
5.195058
5.566532
5.324341
3.999452
1.791631
-0.391374
-1.522570
-1.183420
0.211840
1.956528
3.870364
6.433838
9.997784
14.048167
17.420000
19.093815
18.713785
16.592237
13.430229
10.006554
7.025939
5.123981
4.820225
6.249192
8.824293
11.270341
12.251758
11.237933
8.824477
6.118548
3.849374
2.102683
0.659837
-0.621941
-1.688969
-2.432580
-2.878433
-3.155637
-3.319684
-3.312352
-3.061705
-2.555790
-1.918776
-1.486820
-1.657964
-2.559827
-3.947541
-5.429315
-6.681963
-7.492411
-7.736785
-7.297386
-5.904191
-3.178391
0.921894
5.664665
9.761362
12.185397
12.735280
11.786810
9.764452
7.066877
4.292585
2.215024
1.459186
2.192791
4.013582
6.079490
7.539357
8.032264
7.720592
6.850668
5.484576
3.721548
2.002040
0.935016
0.712561
0.860133
0.699470
-0.095884
-1.472484
-3.267508
-5.335452
-7.521629
-9.641594
-11.469107
-12.725324
-13.223553
-13.157185
-13.138090
-13.785302
-15.258050
-17.161486
-18.767220
-19.355246
-18.581902
-16.572653
-13.630405
-10.077369
-6.464690
-3.612477
-2.199435
-2.323908
-3.422531
-4.590566
-5.141270
