EVENT_NAME: L_AQUILA
EVENT_ID: IT-2009-0009
EVENT_DATE_YYYYMMDD: 20090406
EVENT_TIME_HHMMSS: 013240
EVENT_LATITUDE_DEGREE: 42.3420
EVENT_LONGITUDE_DEGREE: 13.3800
EVENT_DEPTH_KM: 8.3
HYPOCENTER_REFERENCE: INGV-CNT_Seismic_Bulletin
MAGNITUDE_W: 6.1
MAGNITUDE_W_REFERENCE: INGV-CNT_Seismic_Bulletin
MAGNITUDE_L: 
MAGNITUDE_L_REFERENCE: 
FOCAL_MECHANISM: Normal faulting
NETWORK: IT
STATION_CODE: GSG
STATION_NAME: 
STATION_LATITUDE_DEGREE: 42.460000
STATION_LONGITUDE_DEGREE: 13.550000
STATION_ELEVATION_M: 1200
LOCATION: 
SENSOR_DEPTH_M: 200.0
VS30_M/S: 
SITE_CLASSIFICATION_EC8: B (inferred from geology)
MORPHOLOGIC_CLASSIFICATION: 
EPICENTRAL_DISTANCE_KM: 19.2
EARTHQUAKE_BACKAZIMUTH_DEGREE: 46.8
DATE_TIME_FIRST_SAMPLE_YYYYMMDD_HHMMSS: 
DATE_TIME_FIRST_SAMPLE_PRECISION: 
SAMPLING_INTERVAL_S: 
NDATA: 105
DURATION_S: 
STREAM: HNN
UNITS: cm/s^2
INSTRUMENT: sensor = FBA-3 [Kinemetrics] | digitizer = Everest [Kinemetrics]
INSTRUMENT_ANALOG/DIGITAL: D
INSTRUMENTAL_FREQUENCY_HZ: 210.000
INSTRUMENTAL_DAMPING: 0.700000
FULL_SCALE_G: 1.0
N_BIT_DIGITAL_CONVERTER: 24
PGA_CM/S^2: 29.394746
TIME_PGA_S: 
BASELINE_CORRECTION: BASELINE REMOVED
FILTER_TYPE: BUTTERWORTH
FILTER_ORDER: 2
LOW_CUT_FREQUENCY_HZ: 0.100
HIGH_CUT_FREQUENCY_HZ: 40.000
LATE/NORMAL_TRIGGERED: NT
DATABASE_VERSION: 0.5
HEADER_FORMAT: DYNA 1.2
DATA_TYPE: ACCELERATION RESPONSE SPECTRUM
PROCESSING: manual (Paolucci et al., 2011)
DATA_TIMESTAMP_YYYYMMDD_HHMMSS: 20211011_155809.302
DATA_LICENSE: CC-BY3_0-IT (http://creativecommons.org/licenses/by/3.0/deed.en)
DATA_CITATION: Luzi L, Pacor F, Puglia R (2019). Italian Accelerometric Archive v 3.0 - Istituto Nazionale di Geofisica e Vulcanologia, Dipartimento della Protezione Civile Nazionale. doi: 10.13127/itaca.3.1
DATA_CREATOR: ITACA working group
ORIGINAL_DATA_MEDIATOR_CITATION: data obtained within the DPC-INGV data exchange agreements
ORIGINAL_DATA_MEDIATOR: Archive of Italian Department of Civil Protection
ORIGINAL_DATA_CREATOR_CITATION: Presidency Of Counsil Of Ministers-Civil Protection Department. (1972). Italian Strong Motion Network. Presidency of Counsil of Ministers - Civil Protection Department. https://doi.org/10.7914/SN/IT http://www.fdsn.org/networks/detail/IT/
ORIGINAL_DATA_CREATOR: network: IT (Italian Strong Motion Network (RAN)); owner: Presidency of Counsil of Ministers - Civil Protection Department (PCM - DPC)
USER1: 
USER2: 
USER3: 
USER4: 
USER5: 
    0.010000    29.458321
    0.020000    30.066950
    0.022000    29.706755
    0.025000    31.744928
    0.029000    32.118011
    0.030000    31.796698
    0.032000    30.650955
    0.035001    31.155163
    0.036000    31.750652
    0.040000    33.280369
    0.041999    34.694149
    0.044001    38.087780
    0.045000    37.958630
    0.046000    38.390190
    0.048001    42.560448
    0.050000    44.403126
    0.054999    43.985146
    0.059999    43.277916
    0.064998    53.568615
    0.067002    54.182743
    0.069999    54.786839
    0.075002    60.430374
    0.080000    57.329964
    0.084998    55.423088
    0.090001    47.980541
    0.095003    50.257854
    0.100000    53.333927
    0.109999    68.093285
    0.120005    64.169952
    0.130005    58.239937
    0.132996    57.418301
    0.139997    61.722263
    0.149993    70.345604
    0.160000    61.379566
    0.170010    60.387928
    0.179986    68.682022
    0.190006    66.243439
    0.200000    67.844925
    0.220022    84.718338
    0.239981    64.082268
    0.250000    60.695156
    0.260010    68.473068
    0.280034    87.557266
    0.290023    82.892059
    0.300030    73.102760
    0.320000    47.859421
    0.340020    35.985535
    0.350017    35.973454
    0.359971    40.844177
    0.379939    49.005348
    0.400000    48.010601
    0.419992    38.396904
    0.439947    38.540894
    0.450045    39.712379
    0.459982    42.078873
    0.480077    46.247746
    0.500000    45.493313
    0.550055    32.318264
    0.599880    39.125813
    0.650195    40.925777
    0.667111    36.725769
    0.699790    37.220329
    0.750188    46.387447
    0.800000    42.165318
    0.850340    31.081915
    0.900090    27.456646
    0.949668    29.113197
    1.000000    30.439070
    1.100110    19.471598
    1.200480    19.136265
    1.300390    18.228865
    1.400560    17.670998
    1.499250    15.431344
    1.600000    12.063901
    1.700680     9.134744
    1.798561     7.555995
    1.901141     6.536245
    2.000000     7.302499
    2.197802     8.113642
    2.398082     9.024713
    2.500000     9.193131
    2.597403     8.724619
    2.801121     9.417620
    3.003003     9.803369
    3.205128    10.003172
    3.401361    10.581295
    3.496503    10.461522
    3.597122    10.743259
    3.802281    11.176702
    4.000000    10.721440
    4.201681     9.698535
    4.405286     8.537741
    4.608295     7.755908
    4.807692     7.009266
    5.000000     6.180489
    5.494505     4.372358
    5.988024     3.181812
    6.493506     2.531229
    6.993007     2.137360
    7.518797     1.812644
    8.000000     1.618843
    8.474576     1.543755
    9.009009     1.455956
    9.523809     1.354184
   10.000000     1.243441
