EVENT_NAME: L_AQUILA
EVENT_ID: IT-2009-0009
EVENT_DATE_YYYYMMDD: 20090406
EVENT_TIME_HHMMSS: 013240
EVENT_LATITUDE_DEGREE: 42.3420
EVENT_LONGITUDE_DEGREE: 13.3800
EVENT_DEPTH_KM: 8.3
HYPOCENTER_REFERENCE: INGV-CNT_Seismic_Bulletin
MAGNITUDE_W: 6.1
MAGNITUDE_W_REFERENCE: INGV-CNT_Seismic_Bulletin
MAGNITUDE_L: 
MAGNITUDE_L_REFERENCE: 
FOCAL_MECHANISM: Normal faulting
NETWORK: IT
STATION_CODE: GSG
STATION_NAME: 
STATION_LATITUDE_DEGREE: 42.460000
STATION_LONGITUDE_DEGREE: 13.550000
STATION_ELEVATION_M: 1200
LOCATION: 
SENSOR_DEPTH_M: 200.0
VS30_M/S: 
SITE_CLASSIFICATION_EC8: B (inferred from geology)
MORPHOLOGIC_CLASSIFICATION: 
EPICENTRAL_DISTANCE_KM: 19.2
EARTHQUAKE_BACKAZIMUTH_DEGREE: 46.8
DATE_TIME_FIRST_SAMPLE_YYYYMMDD_HHMMSS: 20090406_013229.000 
DATE_TIME_FIRST_SAMPLE_PRECISION: 
SAMPLING_INTERVAL_S: 0.005000
NDATA: 20000
DURATION_S: 100.000
STREAM: HNE
UNITS: cm/s
INSTRUMENT: sensor = FBA-3 [Kinemetrics] | digitizer = Everest [Kinemetrics]
INSTRUMENT_ANALOG/DIGITAL: D
INSTRUMENTAL_FREQUENCY_HZ: 222.000
INSTRUMENTAL_DAMPING: 0.700000
FULL_SCALE_G: 1.0
N_BIT_DIGITAL_CONVERTER: 24
PGV_CM/S: 3.050967
TIME_PGV_S: 36.010000
BASELINE_CORRECTION: BASELINE REMOVED
FILTER_TYPE: BUTTERWORTH
FILTER_ORDER: 2
LOW_CUT_FREQUENCY_HZ: 0.100
HIGH_CUT_FREQUENCY_HZ: 40.000
LATE/NORMAL_TRIGGERED: NT
DATABASE_VERSION: 0.5
HEADER_FORMAT: DYNA 1.2
DATA_TYPE: VELOCITY
PROCESSING: manual (Paolucci et al., 2011)
DATA_TIMESTAMP_YYYYMMDD_HHMMSS: 20211011_155807.866
DATA_LICENSE: CC-BY3_0-IT (http://creativecommons.org/licenses/by/3.0/deed.en)
DATA_CITATION: Luzi L, Pacor F, Puglia R (2019). Italian Accelerometric Archive v 3.0 - Istituto Nazionale di Geofisica e Vulcanologia, Dipartimento della Protezione Civile Nazionale. doi: 10.13127/itaca.3.1
DATA_CREATOR: ITACA working group
ORIGINAL_DATA_MEDIATOR_CITATION: data obtained within the DPC-INGV data exchange agreements
ORIGINAL_DATA_MEDIATOR: Archive of Italian Department of Civil Protection
ORIGINAL_DATA_CREATOR_CITATION: Presidency Of Counsil Of Ministers-Civil Protection Department. (1972). Italian Strong Motion Network. Presidency of Counsil of Ministers - Civil Protection Department. https://doi.org/10.7914/SN/IT http://www.fdsn.org/networks/detail/IT/
ORIGINAL_DATA_CREATOR: network: IT (Italian Strong Motion Network (RAN)); owner: Presidency of Counsil of Ministers - Civil Protection Department (PCM - DPC)
USER1: 
USER2: 
USER3: 
USER4: 
USER5: 
[...]
-0.309673
-0.310699
-0.311725
-0.312754
-0.313786
-0.314820
-0.315855
-0.316890
-0.317925
-0.318960
-0.319997
-0.321037
-0.322081
-0.323127
-0.324174
-0.325224
-0.326274
-0.327321
-0.328368
-0.329418
-0.330474
-0.331532
-0.332590
-0.333648
-0.334706
-0.335764
-0.336821
-0.337881
-0.338945
-0.340011
-0.341078
-0.342148
-0.343221
-0.344294
-0.345364
-0.346432
-0.347502
-0.348578
-0.349659
-0.350743
-0.351823
-0.352900
-0.353979
-0.355061
-0.356147
-0.357232
-0.358315
-0.359400
-0.360489
-0.361583
-0.362680
-0.363777
-0.364873
-0.365970
-0.367068
-0.368166
-0.369264
-0.370361
-0.371459
-0.372554
-0.373644
-0.374722
-0.375785
-0.376829
-0.377851
-0.378850
-0.379822
-0.380769
-0.381696
-0.382608
-0.383507
-0.384400
-0.385295
-0.386195
-0.387098
-0.388000
-0.388892
-0.389765
-0.390622
-0.391476
-0.392338
-0.393211
-0.394089
-0.394963
-0.395824
-0.396674
-0.397524
-0.398393
-0.399294
-0.400220
-0.401154
-0.402085
-0.403019
-0.403965
-0.404924
-0.405870
-0.406772
-0.407625
-0.408462
-0.409335
-0.410276
-0.411279
-0.412326
-0.413395
-0.414472
-0.415555
-0.416657
-0.417786
-0.418923
-0.420022
-0.421046
-0.422002
-0.422924
-0.423836
-0.424734
-0.425616
-0.426498
-0.427385
-0.428259
-0.429124
-0.430014
-0.430958
-0.431959
-0.432997
-0.434047
-0.435106
-0.436215
-0.437430
-0.438754
-0.440131
-0.441484
-0.442762
-0.443960
-0.445135
-0.446349
-0.447614
-0.448898
-0.450177
-0.451445
-0.452716
-0.454025
-0.455416
-0.456899
-0.458444
-0.460007
-0.461546
-0.463055
-0.464568
-0.466096
-0.467594
-0.469003
-0.470274
-0.471367
-0.472283
-0.473114
-0.473984
-0.474930
-0.475869
-0.476740
-0.477607
-0.478594
-0.479760
-0.481107
-0.482654
-0.484423
-0.486377
-0.488400
-0.490334
-0.492027
-0.493364
-0.494314
-0.494973
-0.495542
-0.496237
-0.497177
-0.498346
-0.499642
-0.500971
-0.502291
-0.503581
-0.504825
-0.506035
-0.507214
-0.508314
-0.509274
-0.510057
-0.510647
-0.511058
-0.511328
-0.511484
-0.511542
-0.511479
-0.511201
-0.510597
-0.509631
-0.508362
-0.506902
-0.505312
-0.503538
-0.501455
-0.498969
-0.496036
-0.492606
-0.488622
-0.484032
-0.478783
-0.472838
-0.466262
-0.459249
-0.452022
-0.444728
-0.437453
-0.430268
-0.423218
-0.416289
-0.409431
-0.402595
-0.395754
-0.388912
-0.382133
-0.375544
-0.369277
-0.363390
-0.357828
-0.352470
-0.347235
-0.342136
-0.337242
-0.332631
-0.328369
-0.324464
-0.320827
-0.317301
-0.313776
-0.310318
-0.307227
-0.304926
-0.303648
-0.303266
-0.303522
-0.304384
-0.306069
-0.308773
-0.312516
-0.317213
-0.322674
-0.328503
-0.334140
-0.339150
-0.343423
-0.347078
-0.350250
-0.352986
-0.355270
-0.357082
-0.358479
-0.359636
-0.360852
-0.362594
-0.365495
-0.370095
-0.376572
-0.384749
-0.394234
-0.404512
-0.414928
-0.424552
-0.432241
-0.437048
-0.438556
-0.436838
-0.432285
-0.425617
-0.417915
-0.410370
-0.403780
-0.398200
-0.393137
-0.388094
-0.382854
-0.377247
-0.370821
-0.362938
-0.353179
-0.341601
-0.328721
-0.315272
-0.301765
-0.288142
-0.274016
-0.259275
-0.244342
-0.229890
-0.216555
-0.204914
-0.195468
-0.188451
-0.183744
-0.181130
-0.180570
-0.182054
-0.185227
-0.189472
-0.194274
-0.199237
-0.203958
-0.208261
-0.212548
-0.217567
-0.223552
-0.229574
-0.233835
-0.234665
-0.231384
-0.224498
-0.215294
-0.205212
-0.195341
-0.186263
-0.178319
-0.171972
-0.167842
-0.166350
-0.167221
-0.169190
-0.170195
-0.168089
-0.161454
-0.150044
-0.134679
-0.116746
-0.097556
-0.077956
-0.058557
-0.040242
-0.024018
-0.010033
0.002887
0.016234
0.030557
0.045567
0.061025
0.077035
0.093757
0.111245
0.129297
0.147118
0.163446
0.177209
0.187896
0.195398
0.199810
0.201226
0.199643
0.195266
0.188767
0.180900
0.172098
0.162920
0.154733
0.149443
0.148533
0.152681
0.162112
0.176870
0.196535
0.219856
0.244918
0.269509
0.291297
0.308408
0.320397
0.328365
0.333950
0.338575
0.343573
0.350253
0.359562
0.371990
0.387646
0.405877
0.424882
0.442151
0.455630
0.464647
0.469718
0.471615
0.470920
0.468272
0.464506
0.460388
0.456325
0.452260
0.447757
0.442314
0.435832
0.428916
0.422351
0.415840
0.407527
0.395370
0.379015
0.360008
0.340268
0.320616
0.300813
0.280744
0.261147
0.243026
0.226679
0.211644
0.197455
0.184077
0.171419
0.158762
0.145230
0.131117
0.118479
0.109962
0.107110
0.110188
0.119016
0.132902
0.150055
0.168024
0.184612
0.197919
0.205966
0.207324
0.202459
0.193927
0.185016
0.178274
0.174922
0.175077
0.178365
0.184438
0.193256
0.205147
0.220345
0.238133
0.256780
0.274475
0.290088
0.303241
0.314073
0.323126
0.331613
0.341484
0.354425
0.370399
0.387498
0.403317
0.416321
0.426195
0.433577
0.439820
0.446700
0.455727
0.467606
0.482394
0.499641
0.518057
0.535905
0.552539
0.569059
0.586924
0.606621
0.627975
0.650811
0.675002
0.700444
0.726976
0.753997
0.779942
0.801937
0.816468
0.821198
0.816096
0.802847
0.783977
0.762466
0.740772
0.719594
0.698251
0.676639
0.656256
0.639120
0.626276
0.617537
0.612253
0.610387
0.613078
0.621733
0.636391
0.655471
0.677095
0.699832
0.722035
0.741671
0.757686
0.771393
0.785870
0.803483
0.824011
0.844973
0.863233
0.876569
0.884410
0.887561
0.887785
0.887461
0.888545
0.891286
0.894197
0.895603
0.895474
0.895661
0.898167
0.903410
0.910459
0.918622
0.928017
0.938622
0.949954
0.962226
0.976911
0.995541
1.018192
1.043328
1.068528
1.090995
1.108153
1.118830
1.124168
1.127004
1.129921
1.133685
1.137391
1.139899
1.141154
1.142484
1.146043
1.153708
1.165736
1.180239
1.194104
1.204318
1.208716
1.206315
1.197333
1.182831
1.164721
1.146249
1.131445
1.123050
1.120925
1.122557
1.124810
1.125174
1.122200
1.116034
1.108782
1.103244
1.100739
1.100620
1.101215
1.100456
1.096933
1.091452
1.086671
1.084861
1.086690
1.091508
1.097584
1.102701
1.105820
1.107730
1.109368
1.110202
1.108848
1.104590
1.097773
1.089343
1.080686
1.073491
1.068901
1.066453
1.063842
1.057844
1.046000
1.027975
1.005505
0.981057
0.956366
0.931846
0.907131
0.882070
0.857002
0.832295
0.808278
0.785495
0.764176
0.743576
0.722585
0.701203
0.681205
0.665151
0.654640
0.649503
0.648276
0.648584
0.647026
0.640083
0.626349
0.607497
0.586703
0.566796
0.549539
0.535192
0.522683
0.510707
0.498100
0.483177
0.463617
0.437599
0.405612
0.371074
0.338182
0.309081
0.283811
0.262109
0.244096
0.230222
0.221851
0.221117
0.229219
0.245275
0.267150
0.292720
0.319841
0.345714
0.367464
0.383596
0.394384
0.400925
0.404260
0.405358
0.405570
0.406545
0.409466
0.414657
0.422167
0.432535
0.446314
0.462679
0.479340
0.494337
0.507855
0.522363
0.540797
0.563836
0.588612
0.610250
0.624701
0.630440
0.628688
0.622874
0.617008
0.613295
0.611467
0.610617
0.610467
0.610577
0.609980
0.608524
0.607939
0.611110
0.620561
0.637633
0.662242
0.692539
0.724934
0.755242
0.780264
0.798710
0.811309
0.820281
0.828334
0.837845
0.850374
0.866121
0.884135
0.903596
0.924298
0.945645
0.966146
0.984442
1.000419
1.015170
1.030006
1.045478
1.061216
1.076219
1.089176
1.099575
1.108996
1.120337
1.135281
1.152874
1.170481
1.185633
1.197005
1.204428
1.208884
1.212327
1.216710
1.222864
1.230235
1.237287
1.241859
1.241711
1.235494
1.223529
1.207870
1.191747
1.178592
1.170755
1.168481
1.170424
1.175742
1.185192
1.199425
1.216957
1.235011
1.251938
1.267661
1.282280
1.295717
1.308601
1.322015
1.336047
1.349728
1.362512
1.374664
1.385863
1.394429
1.398416
1.396662
1.388511
1.373802
1.353775
1.331370
1.310504
1.295102
1.287789
1.288618
1.295096
1.303661
1.311504
1.317545
1.322045
1.325760
1.329816
1.335509
1.342936
1.350099
1.354488
1.355408
1.354010
1.351766
1.349804
1.348612
1.347053
1.342137
1.330861
1.312717
1.290615
1.269368
1.252667
1.240770
1.230740
1.218932
1.203356
1.184088
1.162167
1.138237
1.111949
1.082404
1.048979
1.011912
0.972596
0.933416
0.897001
0.865159
0.837938
0.813453
0.789200
0.763814
0.737421
0.711007
0.686260
0.665203
0.648990
0.637461
0.630170
0.627109
0.627903
0.630873
0.633851
0.635894
0.637342
0.638207
0.637641
0.635108
0.631004
0.625930
0.620106
0.613603
0.606505
0.598606
0.589447
0.579056
0.568340
0.558422
0.549852
0.542394
0.535210
0.527802
0.521262
0.518071
0.520598
0.529850
0.544718
0.562101
0.578625
0.592203
0.601616
0.605739
0.603996
0.596877
0.585767
0.572367
0.557451
0.539690
0.516578
0.487219
0.454017
0.421416
0.393410
0.372251
0.358088
0.348759
0.340474
0.329465
0.313506
0.292611
0.268523
0.243222
0.217621
0.191508
0.164686
0.138228
0.114209
0.093728
0.075491
0.056670
0.034763
0.008665
-0.020892
-0.051179
-0.078298
-0.098993
-0.112300
-0.120131
-0.126283
-0.133980
-0.144009
-0.155428
-0.167544
-0.180590
-0.195077
-0.211137
-0.228132
-0.244524
-0.258623
-0.270302
-0.282225
-0.298710
-0.323002
-0.356076
-0.397483
-0.445624
-0.497298
-0.548726
-0.597371
-0.642216
-0.682814
-0.718698
-0.749235
-0.773581
-0.791300
-0.803589
-0.813447
-0.824214
-0.838368
-0.857707
-0.883522
-0.915700
-0.951964
-0.988893
-1.023986
-1.056554
-1.086852
-1.114674
-1.138574
-1.156151
-1.165348
-1.166198
-1.161928
-1.157913
-1.158492
-1.164403
-1.173185
-1.181838
-1.189499
-1.197901
-1.208841
-1.221238
-1.231147
-1.234667
-1.230889
-1.222554
-1.213973
-1.208039
-1.205179
-1.204706
-1.206297
-1.210064
-1.216047
-1.224475
-1.236383
-1.252952
-1.273690
-1.295615
-1.314663
-1.328064
-1.335558
-1.338564
-1.338030
-1.332991
-1.321636
-1.303884
-1.282093
-1.258825
-1.234529
-1.208000
-1.178586
-1.147288
-1.116196
-1.087389
-1.061989
-1.040102
-1.021918
-1.008716
-1.002714
-1.006178
-1.020448
-1.045123
-1.077808
-1.114675
-1.151588
-1.185513
-1.215560
-1.243185
-1.271589
-1.304112
-1.342126
-1.384217
-1.427320
-1.468371
-1.505239
-1.537110
-1.564486
-1.588496
-1.610110
-1.630426
-1.651336
-1.674906
-1.701681
-1.729661
-1.754914
-1.773631
-1.784311
-1.788374
-1.788592
-1.786978
-1.784140
-1.779900
-1.773957
-1.766583
-1.759246
-1.753999
-1.752027
-1.753432
-1.758135
-1.766019
-1.776664
-1.789794
-1.805549
-1.823784
-1.843327
-1.861722
-1.875467
-1.881153
-1.876952
-1.863014
-1.840903
-1.813092
-1.782463
-1.751379
-1.720629
-1.689149
-1.655596
-1.621139
-1.590619
-1.570293
-1.564232
-1.573042
-1.595683
-1.631586
-1.680546
-1.740620
-1.806073
-1.867326
-1.914022
-1.939934
-1.945508
-1.935477
-1.914878
-1.888119
-1.860522
-1.838753
-1.829188
-1.836240
-1.861992
-1.906299
-1.966186
-2.035423
-2.106056
-2.171024
-2.225400
-2.265968
-2.290807
-2.299286
-2.292024
-2.271040
-2.239804
-2.202424
-2.162461
-2.122045
-2.081151
-2.037796
-1.990155
-1.938667
-1.885627
-1.833934
-1.787402
-1.751163
-1.730053
-1.725955
-1.736129
-1.753620
-1.769726
-1.776935
-1.770366
-1.747825
-1.709785
-1.659675
-1.603900
-1.550851
-1.509121
-1.485513
-1.482952
-1.499349
-1.528650
-1.563369
-1.596988
-1.625551
-1.648204
-1.666561
-1.683264
-1.700322
-1.717630
-1.732709
-1.742674
-1.747310
-1.750166
-1.756269
-1.768818
-1.788311
-1.814196
-1.846050
-1.883090
-1.924348
-1.970462
-2.023962
-2.086284
-2.154602
-2.222195
-2.282116
-2.330759
-2.368241
-2.395604
-2.412038
-2.415128
-2.403662
-2.379778
-2.348288
-2.314130
-2.280513
-2.249004
-2.220549
-2.195960
-2.175613
-2.158920
-2.144118
-2.128510
-2.109192
-2.084097
-2.052707
-2.016192
-1.977511
-1.940901
-1.909815
-1.884559
-1.861863
-1.836615
-1.804497
-1.764377
-1.719211
-1.674373
-1.633834
-1.596479
-1.555750
-1.503891
-1.437841
-1.361658
-1.283563
-1.210746
-1.146571
-1.091785
-1.047178
-1.014123
-0.992690
-0.980164
-0.971762
-0.962768
-0.950477
-0.934824
-0.917612
-0.901024
-0.886227
-0.872812
-0.858969
-0.841868
-0.818539
-0.787443
-0.749714
-0.708725
-0.667895
-0.628405
-0.589158
-0.549311
-0.510703
-0.477361
-0.452612
-0.436812
-0.427760
-0.422785
-0.420003
-0.418108
-0.416012
-0.412782
-0.407395
-0.398287
-0.383583
-0.362592
-0.337165
-0.311145
-0.288605
-0.272108
-0.261076
-0.251037
-0.235266
-0.208522
-0.170221
-0.124261
-0.075574
-0.026543
0.024378
0.081709
0.149895
0.229441
0.315390
0.399879
0.476240
0.541012
0.593617
0.635880
0.672144
0.708835
0.752522
0.807168
0.872740
0.946637
1.026403
1.110568
1.196816
1.280692
1.357774
1.427015
1.490727
1.551539
1.610687
1.668852
1.726627
1.783181
1.835009
1.877299
1.907367
1.926121
1.935712
1.936971
1.929962
1.915915
1.897368
1.876521
1.854024
1.829427
1.802886
1.776620
1.754614
1.740438
1.734769
1.734997
1.737549
1.739999
1.740759
1.738466
1.733245
1.727976
1.727028
1.733155
1.745322
1.759429
1.771543
1.781178
1.791505
1.805921
1.824456
1.843852
1.860849
1.874998
1.888832
1.906440
1.931933
1.967872
2.013805
2.066300
2.121073
2.175006
2.225824
2.271243
2.310370
2.345636
2.381821
2.422739
2.468819
2.517131
2.563342
2.604713
2.642486
2.681402
2.726331
2.779054
2.837675
2.898076
2.955125
3.002989
3.036070
3.050967
3.047430
3.027548
2.995039
2.955401
2.915585
2.882673
2.862178
2.856427
2.863662
2.878831
2.895951
2.910561
2.921097
2.928676
2.935336
2.942078
2.948475
2.953524
2.955964
2.953763
2.944341
2.926191
2.899989
2.867639
2.830546
2.789047
2.742994
2.692755
2.640355
2.589960
2.546429
2.512352
2.486378
2.465189
2.447458
2.435396
2.432137
2.437970
2.449176
2.460016
2.465399
2.461813
2.446882
2.419451
2.380129
2.331052
2.274929
2.214000
2.149153
2.080244
2.008386
1.937748
1.873663
1.818943
1.773040
1.734250
1.701486
1.674051
1.650471
1.628185
1.604818
1.579571
1.553047
1.525984
1.498586
1.471139
1.445212
1.424058
1.411174
1.407600
1.410497
1.414626
1.415050
1.408905
1.396136
1.379329
1.362804
1.351527
1.349355
1.356199
1.366385
1.370937
1.362613
1.339540
1.305164
1.265973
1.229306
1.201563
1.186180
1.182150
1.184895
1.189425
1.192967
1.195008
1.195689
1.194459
1.189814
1.180151
1.165460
1.148328
1.132576
1.120734
1.113442
1.110940
1.113940
1.122710
1.136054
1.151581
1.166771
1.179841
1.190362
1.199951
1.212051
1.230133
1.256161
1.290487
1.331637
1.376064
1.419906
1.461435
1.500398
1.534745
1.559685
1.571216
1.570111
1.560970
1.547051
1.527242
1.498567
1.460763
1.418280
1.378375
1.346981
1.326027
1.314695
1.312049
1.317071
1.326968
1.337278
1.344178
1.346386
1.345070
1.342525
1.340910
1.341189
1.342271
1.341213
1.334400
1.318671
1.292306
1.256133
1.213963
1.171805
1.136270
1.112721
1.103557
1.107267
1.119143
1.133846
1.148323
1.162698
1.178622
1.197001
1.216712
1.234580
1.246588
1.249686
1.242809
1.226676
1.202851
1.172449
1.135678
1.093522
1.049819
1.010154
0.977698
0.950863
0.925843
0.900931
0.877768
0.859159
0.846571
0.839231
0.834682
0.830228
0.823990
0.814353
0.798872
0.774844
0.741106
0.698945
0.651741
0.603745
0.558125
0.516231
0.479821
0.453468
0.442738
0.449219
0.468054
0.490933
0.511648
0.529114
0.546057
0.565760
0.589453
0.615189
0.638734
0.656021
0.664993
0.665632
0.659295
0.648257
0.635059
0.621615
0.608874
0.596965
0.585314
0.573061
0.559611
0.544265
0.525102
0.498531
0.460380
0.408136
0.342652
0.267598
0.187130
0.103643
0.016902
-0.074743
-0.171262
-0.268640
-0.360078
-0.439864
-0.506455
-0.562656
-0.613681
-0.664869
-0.720007
-0.780440
-0.844843
-0.909473
-0.969313
-1.020283
-1.061273
-1.094222
-1.122005
-1.145992
-1.165749
-1.181359
-1.195664
-1.213238
-1.236753
-1.265133
-1.295889
-1.328300
-1.363403
-1.401586
-1.441062
-1.478407
-1.510100
-1.533939
-1.549974
-1.560602
-1.569103
-1.577106
-1.583402
-1.585708
-1.583850
-1.581298
-1.583669
-1.595576
-1.618130
-1.648331
-1.680140
-1.706655
-1.723192
-1.730169
-1.733304
-1.740329
-1.756886
-1.784463
-1.820451
-1.858972
-1.892472
-1.914592
-1.922785
-1.918417
-1.904716
-1.884765
-1.860784
-1.834377
-1.806868
-1.779550
-1.754001
-1.731869
-1.713970
-1.699779
-1.687756
-1.675765
-1.661641
-1.644742
-1.627170
-1.612169
-1.600848
-1.591126
-1.579801
-1.565236
-1.548484
-1.532474
-1.519967
-1.511689
-1.505670
-1.497903
-1.484068
-1.461641
-1.431346
-1.397425
-1.366382
-1.344149
-1.332916
-1.330082
-1.330590
-1.330841
-1.330651
-1.331726
-1.334834
-1.338871
-1.342101
-1.343270
-1.341483
-1.335798
-1.325407
-1.310123
-1.290410
-1.266861
-1.239965
-1.210278
-1.178128
-1.142944
-1.103490
-1.059322
-1.012208
-0.965984
-0.924566
-0.889641
-0.859945
-0.832304
-0.803405
-0.771667
-0.738650
-0.708487
-0.684915
-0.668442
-0.656578
-0.646629
-0.637979
-0.631921
-0.629863
-0.631911
-0.636836
-0.642989
-0.648868
-0.652665
-0.651870
-0.644213
-0.629206
-0.608520
-0.584880
-0.560728
-0.537913
-0.518481
-0.505216
-0.500714
-0.505573
-0.517648
-0.533610
-0.551428
-0.571110
-0.593101
-0.616277
-0.637609
-0.653966
-0.664200
-0.669031
-0.668992
-0.663107
-0.649486
-0.626999
-0.596898
-0.563308
-0.531756
-0.506263
-0.487272
-0.472318
-0.458714
-0.445696
-0.434178
-0.424479
-0.414730
-0.402012
-0.384962
-0.365090
-0.345858
-0.330581
-0.320953
-0.317012
-0.317884
-0.322283
-0.328610
-0.334800
-0.338000
-0.334424
-0.319899
-0.291068
-0.246555
-0.187561
-0.117956
-0.043838
0.028150
0.093772
0.153173
0.209384
0.264346
0.316381
0.361467
0.396510
0.420939
0.435330
0.439321
0.431296
0.409729
0.374520
0.327234
0.270495
0.207630
0.143016
0.082078
0.029856
-0.011166
-0.042286
-0.067745
-0.092275
-0.118952
-0.148867
-0.182300
-0.219785
-0.261841
-0.307835
-0.355422
-0.400987
-0.440705
-0.472002
-0.494795
-0.511583
-0.526294
-0.542897
-0.564486
-0.592543
-0.625891
-0.660151
-0.689218
-0.708249
-0.715697
-0.713007
-0.702749
-0.686731
-0.665460
-0.639396
-0.610433
-0.581487
-0.554571
-0.529880
-0.506813
-0.485153
-0.464996
-0.446127
-0.427881
-0.409342
-0.389677
-0.368704
-0.347137
-0.325801
-0.304659
-0.283246
-0.262022
-0.242650
-0.226849
-0.215457
-0.208665
-0.206623
-0.209439
-0.216577
-0.226114
-0.234468
-0.237265
-0.231470
-0.217634
-0.200174
-0.184522
-0.173048
-0.163670
-0.152958
-0.140948
-0.132687
-0.134447
-0.148185
-0.169619
-0.191380
-0.207839
-0.217499
-0.221993
-0.223782
-0.224797
-0.226615
-0.231362
-0.241890
-0.260550
-0.287522
-0.320090
-0.353422
-0.382274
-0.402489
-0.411568
-0.408281
-0.392047
-0.363497
-0.326158
-0.286591
-0.251453
-0.224076
-0.204093
-0.189945
-0.181022
-0.177520
-0.179433
-0.186357
-0.197591
-0.211784
-0.227036
-0.242066
-0.257059
-0.272933
-0.289884
-0.306841
-0.322037
-0.333844
-0.341622
-0.346669
-0.352450
-0.363266
