EVENT_NAME: L_AQUILA
EVENT_ID: IT-2009-0009
EVENT_DATE_YYYYMMDD: 20090406
EVENT_TIME_HHMMSS: 013240
EVENT_LATITUDE_DEGREE: 42.3420
EVENT_LONGITUDE_DEGREE: 13.3800
EVENT_DEPTH_KM: 8.3
HYPOCENTER_REFERENCE: INGV-CNT_Seismic_Bulletin
MAGNITUDE_W: 6.1
MAGNITUDE_W_REFERENCE: INGV-CNT_Seismic_Bulletin
MAGNITUDE_L: 
MAGNITUDE_L_REFERENCE: 
FOCAL_MECHANISM: Normal faulting
NETWORK: IT
STATION_CODE: GSG
STATION_NAME: 
STATION_LATITUDE_DEGREE: 42.460000
STATION_LONGITUDE_DEGREE: 13.550000
STATION_ELEVATION_M: 1200
LOCATION: 
SENSOR_DEPTH_M: 200.0
VS30_M/S: 
SITE_CLASSIFICATION_EC8: B (inferred from geology)
MORPHOLOGIC_CLASSIFICATION: 
EPICENTRAL_DISTANCE_KM: 19.2
EARTHQUAKE_BACKAZIMUTH_DEGREE: 46.8
DATE_TIME_FIRST_SAMPLE_YYYYMMDD_HHMMSS: 
DATE_TIME_FIRST_SAMPLE_PRECISION: 
SAMPLING_INTERVAL_S: 
NDATA: 105
DURATION_S: 
STREAM: HNZ
UNITS: cm/s^2
INSTRUMENT: sensor = FBA-3 [Kinemetrics] | digitizer = Everest [Kinemetrics]
INSTRUMENT_ANALOG/DIGITAL: D
INSTRUMENTAL_FREQUENCY_HZ: 214.000
INSTRUMENTAL_DAMPING: 0.700000
FULL_SCALE_G: 1.0
N_BIT_DIGITAL_CONVERTER: 24
PGA_CM/S^2: 18.432478
TIME_PGA_S: 
BASELINE_CORRECTION: BASELINE REMOVED
FILTER_TYPE: BUTTERWORTH
FILTER_ORDER: 2
LOW_CUT_FREQUENCY_HZ: 0.100
HIGH_CUT_FREQUENCY_HZ: 40.000
LATE/NORMAL_TRIGGERED: NT
DATABASE_VERSION: 0.5
HEADER_FORMAT: DYNA 1.2
DATA_TYPE: ACCELERATION RESPONSE SPECTRUM
PROCESSING: manual (Paolucci et al., 2011)
DATA_TIMESTAMP_YYYYMMDD_HHMMSS: 20211011_155809.587
DATA_LICENSE: CC-BY3_0-IT (http://creativecommons.org/licenses/by/3.0/deed.en)
DATA_CITATION: Luzi L, Pacor F, Puglia R (2019). Italian Accelerometric Archive v 3.0 - Istituto Nazionale di Geofisica e Vulcanologia, Dipartimento della Protezione Civile Nazionale. doi: 10.13127/itaca.3.1
DATA_CREATOR: ITACA working group
ORIGINAL_DATA_MEDIATOR_CITATION: data obtained within the DPC-INGV data exchange agreements
ORIGINAL_DATA_MEDIATOR: Archive of Italian Department of Civil Protection
ORIGINAL_DATA_CREATOR_CITATION: Presidency Of Counsil Of Ministers-Civil Protection Department. (1972). Italian Strong Motion Network. Presidency of Counsil of Ministers - Civil Protection Department. https://doi.org/10.7914/SN/IT http://www.fdsn.org/networks/detail/IT/
ORIGINAL_DATA_CREATOR: network: IT (Italian Strong Motion Network (RAN)); owner: Presidency of Counsil of Ministers - Civil Protection Department (PCM - DPC)
USER1: 
USER2: 
USER3: 
USER4: 
USER5: 
    0.010000    18.446514
    0.020000    18.838112
    0.022000    18.782690
    0.025000    19.418163
    0.029000    23.172382
    0.030000    22.822334
    0.032000    23.089294
    0.035001    24.464815
    0.036000    23.430971
    0.040000    23.391891
    0.041999    22.160870
    0.044001    24.202255
    0.045000    24.456417
    0.046000    24.030167
    0.048001    25.039896
    0.050000    24.400778
    0.054999    32.191696
    0.059999    31.616100
    0.064998    36.505184
    0.067002    36.796001
    0.069999    36.204975
    0.075002    41.246128
    0.080000    47.211269
    0.084998    44.391716
    0.090001    36.167408
    0.095003    44.707096
    0.100000    44.071289
    0.109999    43.976402
    0.120005    48.712723
    0.130005    46.534615
    0.132996    47.880646
    0.139997    49.188309
    0.149993    44.685692
    0.160000    43.494843
    0.170010    51.661343
    0.179986    40.564831
    0.190006    36.672245
    0.200000    35.703976
    0.220022    41.097889
    0.239981    41.775581
    0.250000    46.673130
    0.260010    47.679832
    0.280034    43.355556
    0.290023    38.096951
    0.300030    33.423374
    0.320000    30.367971
    0.340020    28.681484
    0.350017    27.098017
    0.359971    26.025297
    0.379939    24.611687
    0.400000    26.766867
    0.419992    27.070940
    0.439947    28.503658
    0.450045    31.206314
    0.459982    33.454304
    0.480077    33.361996
    0.500000    30.507280
    0.550055    36.292328
    0.599880    33.938290
    0.650195    25.393808
    0.667111    23.216679
    0.699790    22.547543
    0.750188    20.165232
    0.800000    18.652500
    0.850340    18.958000
    0.900090    16.221409
    0.949668    14.712928
    1.000000    15.036366
    1.100110    15.506238
    1.200480    16.135220
    1.300390    13.160625
    1.400560    13.815281
    1.499250    15.143350
    1.600000    13.848454
    1.700680    11.609143
    1.798561    12.332462
    1.901141    17.449539
    2.000000    18.935888
    2.197802    20.229603
    2.398082    23.281923
    2.500000    20.630545
    2.597403    21.200537
    2.801121    22.673038
    3.003003    22.707012
    3.205128    20.465170
    3.401361    17.988026
    3.496503    17.213640
    3.597122    16.753416
    3.802281    14.478980
    4.000000    11.509065
    4.201681     9.869955
    4.405286     8.833236
    4.608295     7.987274
    4.807692     7.119348
    5.000000     6.191866
    5.494505     4.598675
    5.988024     3.718997
    6.493506     2.893874
    6.993007     2.227515
    7.518797     1.797743
    8.000000     1.562434
    8.474576     1.354082
    9.009009     1.171149
    9.523809     1.016185
   10.000000     0.887526
