EVENT_NAME: L_AQUILA
EVENT_ID: IT-2009-0009
EVENT_DATE_YYYYMMDD: 20090406
EVENT_TIME_HHMMSS: 013240
EVENT_LATITUDE_DEGREE: 42.3420
EVENT_LONGITUDE_DEGREE: 13.3800
EVENT_DEPTH_KM: 8.3
HYPOCENTER_REFERENCE: INGV-CNT_Seismic_Bulletin
MAGNITUDE_W: 6.1
MAGNITUDE_W_REFERENCE: INGV-CNT_Seismic_Bulletin
MAGNITUDE_L: 
MAGNITUDE_L_REFERENCE: 
FOCAL_MECHANISM: Normal faulting
NETWORK: IT
STATION_CODE: GSG
STATION_NAME: 
STATION_LATITUDE_DEGREE: 42.460000
STATION_LONGITUDE_DEGREE: 13.550000
STATION_ELEVATION_M: 1200
LOCATION: 
SENSOR_DEPTH_M: 200.0
VS30_M/S: 
SITE_CLASSIFICATION_EC8: B (inferred from geology)
MORPHOLOGIC_CLASSIFICATION: 
EPICENTRAL_DISTANCE_KM: 19.2
EARTHQUAKE_BACKAZIMUTH_DEGREE: 46.8
DATE_TIME_FIRST_SAMPLE_YYYYMMDD_HHMMSS: 
DATE_TIME_FIRST_SAMPLE_PRECISION: 
SAMPLING_INTERVAL_S: 0.005000
NDATA: 23000
DURATION_S: 115.000
STREAM: HNN
UNITS: cm/s^2
INSTRUMENT: sensor = FBA-3 [Kinemetrics] | digitizer = Everest [Kinemetrics]
INSTRUMENT_ANALOG/DIGITAL: D
INSTRUMENTAL_FREQUENCY_HZ: 210.000
INSTRUMENTAL_DAMPING: 0.700000
FULL_SCALE_G: 1.0
N_BIT_DIGITAL_CONVERTER: 24
PGA_CM/S^2: 29.165449
TIME_PGA_S: 36.340000
BASELINE_CORRECTION: BASELINE NOT REMOVED
FILTER_TYPE: 
FILTER_ORDER: 
LOW_CUT_FREQUENCY_HZ: 
HIGH_CUT_FREQUENCY_HZ: 
LATE/NORMAL_TRIGGERED: NT
DATABASE_VERSION: 0.5
HEADER_FORMAT: DYNA 1.2
DATA_TYPE: ACCELERATION
PROCESSING: converted to cm/s^2
DATA_TIMESTAMP_YYYYMMDD_HHMMSS: 20211011_155807.990
DATA_LICENSE: CC-BY3_0-IT (http://creativecommons.org/licenses/by/3.0/deed.en)
DATA_CITATION: Luzi L, Pacor F, Puglia R (2019). Italian Accelerometric Archive v 3.0 - Istituto Nazionale di Geofisica e Vulcanologia, Dipartimento della Protezione Civile Nazionale. doi: 10.13127/itaca.3.1
DATA_CREATOR: ITACA working group
ORIGINAL_DATA_MEDIATOR_CITATION: data obtained within the DPC-INGV data exchange agreements
ORIGINAL_DATA_MEDIATOR: Archive of Italian Department of Civil Protection
ORIGINAL_DATA_CREATOR_CITATION: Presidency Of Counsil Of Ministers-Civil Protection Department. (1972). Italian Strong Motion Network. Presidency of Counsil of Ministers - Civil Protection Department. https://doi.org/10.7914/SN/IT http://www.fdsn.org/networks/detail/IT/
ORIGINAL_DATA_CREATOR: network: IT (Italian Strong Motion Network (RAN)); owner: Presidency of Counsil of Ministers - Civil Protection Department (PCM - DPC)
USER1: 
USER2: 
USER3: 
USER4: 
USER5: 
[...]
0.040231
0.036255
0.040816
0.034851
0.028536
0.036489
0.029004
0.032746
0.031928
0.029004
0.033448
0.025847
0.021403
0.010059
0.011463
0.009591
0.002575
0.001054
-0.006196
-0.013096
-0.035198
-0.036485
-0.036836
-0.045606
-0.042917
-0.045957
-0.040344
-0.032041
-0.009003
-0.002688
-0.003740
0.006434
0.003159
0.025145
0.039529
0.044441
0.055434
0.046195
0.033214
0.023157
0.029472
0.049236
0.071689
0.067947
0.053913
0.064555
0.061982
0.052978
0.040932
0.032279
0.029121
-0.000934
-0.023972
-0.028649
-0.020931
-0.022217
-0.050635
-0.058821
-0.065838
-0.077415
-0.065604
-0.057301
-0.054377
-0.050284
-0.045139
-0.047010
-0.051921
-0.028065
-0.005728
0.007253
0.038944
0.056954
0.069233
0.069467
0.058942
0.055434
0.042570
0.034851
-0.021516
-0.069580
-0.044320
-0.017189
0.016023
0.051808
0.084085
0.066777
-0.006079
-0.067241
-0.095308
-0.071217
-0.010523
0.070169
0.096715
0.063971
0.054147
0.049469
0.034734
0.001522
-0.010055
0.023625
0.022572
-0.001167
0.024560
0.052159
0.003510
-0.065838
-0.083262
-0.054026
0.001873
0.024326
-0.013330
-0.056131
-0.098699
-0.121854
-0.101038
-0.084549
-0.039525
0.024560
0.012398
-0.053208
-0.044905
0.105135
0.305811
0.473392
0.541571
0.505085
0.509762
0.579812
0.638986
0.734880
0.882230
0.947251
0.900122
0.852643
0.866793
0.950993
1.067703
1.183244
1.291184
1.314339
1.200201
1.025487
0.831125
0.602148
0.373873
0.197521
0.097767
0.005264
-0.086069
-0.157990
-0.278676
-0.357146
-0.367671
-0.355158
-0.314695
-0.308146
-0.353287
-0.476429
-0.581445
-0.628925
-0.658044
-0.591268
-0.479938
-0.376676
-0.268619
-0.082444
0.130746
0.196468
0.218103
0.353408
0.531280
0.571275
0.461815
0.366155
0.399367
0.484034
0.450705
0.365453
0.321131
0.259852
0.129108
-0.128754
-0.458420
-0.752769
-0.971337
-1.110852
-1.239374
-1.256448
-0.936956
-0.394568
-0.096360
-0.250259
-0.487539
-0.492217
-0.266631
0.106187
0.572561
1.076825
1.448474
1.736040
2.052959
2.338888
2.550557
2.579209
2.440747
2.264044
2.015888
1.597812
1.130620
0.750083
0.385217
-0.056716
-0.552443
-0.830654
-0.959877
-1.144766
-1.220312
-1.180317
-1.010280
-0.718387
-0.448363
-0.319958
-0.230378
0.070870
0.444624
0.795574
1.063493
1.080918
0.857555
0.442870
0.056486
-0.201259
-0.362642
-0.466489
-0.734876
-1.079511
-1.190374
-1.078809
-1.124885
-1.597691
-2.087805
-2.234453
-2.100552
-1.594885
-0.828782
-0.231899
-0.050167
-0.062914
0.137411
0.641208
1.312117
1.938705
2.357365
2.695218
3.277366
4.004526
4.624682
4.977620
4.632517
3.796950
3.233863
3.418869
4.103695
4.572875
4.767704
4.575799
3.802446
2.994010
2.787370
3.175391
3.312450
2.793685
2.094942
1.498643
1.018587
0.932984
1.249552
1.196459
0.626823
0.026197
-0.672428
-1.424731
-1.729020
-1.562140
-1.148859
-0.527651
-0.217397
-0.323466
-0.211083
0.102211
0.309320
0.633957
1.029697
1.258089
1.617926
2.252349
2.895777
3.063124
2.919283
3.025702
2.880224
2.256910
1.733117
1.485779
1.257036
0.858139
0.330954
-0.468945
-1.372457
-2.117275
-3.030727
-3.894828
-4.313021
-4.446338
-4.654265
-5.127889
-5.345172
-5.357334
-5.574149
-5.711207
-5.516612
-4.630408
-3.333613
-2.446707
-2.004190
-1.426836
-0.553145
0.021169
0.497015
1.463209
2.566813
2.931211
2.486121
2.277609
2.365435
2.287082
1.819071
0.982217
0.432930
0.466025
0.825629
0.940819
1.252008
2.291760
3.322507
3.606448
3.248949
3.010850
2.637213
2.085353
1.709260
0.844457
-0.380184
-1.055187
-0.941867
-0.421348
0.746341
2.736850
4.519783
5.344006
5.344591
4.438623
2.560615
0.855216
0.159514
0.335632
1.374098
2.490682
2.679664
2.637447
3.192816
3.165217
1.930285
0.680852
-0.031456
-0.311772
-0.351065
-0.777795
-1.692416
-2.382738
-2.524709
-2.442965
-2.563534
-2.885365
-2.563651
-1.164763
0.568001
2.373036
4.291274
5.625023
6.577535
7.442572
7.462101
6.843934
6.008835
5.625140
5.933405
5.393123
4.312908
3.659073
2.761993
1.661781
0.815338
0.141037
-0.068644
0.382527
0.488478
-0.408484
-2.025474
-3.314317
-3.338758
-2.712755
-2.169315
-2.273746
-2.830869
-2.701646
-1.757437
-0.798026
-0.657342
-1.335034
-2.183231
-2.324500
-1.448470
-0.614073
0.259034
1.787496
2.764332
2.894023
3.439802
4.211050
3.676965
2.215980
1.797085
2.089680
1.493966
0.520872
0.396326
0.577590
0.250263
-0.619920
-1.598627
-1.236333
-0.584720
-1.350705
-1.581787
-1.270832
-1.407072
-1.126990
-1.135761
-1.433501
-0.934383
0.332007
1.642251
2.273633
2.257846
1.568225
0.295871
-0.600390
-0.228507
0.502862
0.125600
-0.244529
0.407319
1.090858
1.721305
2.293280
1.965251
0.765169
-0.803288
-2.092015
-2.883143
-3.836941
-4.497676
-4.081355
-3.698830
-4.223208
-4.595559
-3.916229
-2.815783
-2.004891
-1.336789
-0.797675
-0.647636
-0.775456
-0.224180
1.489989
3.171883
4.367872
5.338744
5.444695
4.572057
3.248481
2.127804
2.134703
3.496403
4.760454
4.511830
3.571949
2.528455
1.468589
1.511039
2.831341
4.301448
4.481776
3.381096
1.529283
-0.388955
-1.179031
-1.727499
-2.341574
-2.297603
-2.173057
-2.568680
-3.266837
-3.578494
-3.259470
-2.525060
-2.023252
-1.131317
0.241960
0.691962
0.995783
1.644473
2.478286
4.055748
5.538017
5.773426
5.017264
4.284842
3.882436
3.743389
3.805955
3.525405
2.823856
2.329650
1.977179
1.289547
0.391882
-0.442165
-0.937541
-1.200899
-1.618157
-2.223811
-3.438161
-5.173147
-5.774825
-5.011880
-4.612165
-5.011413
-5.199459
-4.308343
-3.006636
-2.271758
-1.921042
-2.452437
-2.969097
-1.979164
-1.253875
-1.300887
-0.563787
0.408138
0.453044
0.387789
0.907022
1.035778
0.707164
0.258917
-0.103143
-0.285225
-0.611851
-0.656640
-0.384043
0.029238
0.108292
-0.013213
0.625420
1.419121
1.828309
1.925373
1.694876
0.796159
-0.443334
-0.602144
0.301601
1.461338
2.004077
1.836846
1.789250
1.998931
2.677559
3.816363
5.280506
6.177936
5.823946
5.724075
5.596021
4.355008
2.819763
1.923853
2.271645
2.519684
1.933559
1.654413
2.019630
2.695101
2.639669
1.976478
1.499111
1.337728
1.379711
1.700489
3.132238
4.981713
5.886277
5.807924
5.445514
5.291030
5.762082
6.376625
5.021708
2.521087
1.317029
1.327905
2.078102
3.028392
3.152704
2.164992
0.884218
-0.259497
-1.242765
-1.155876
-0.000349
1.054606
1.054606
-0.279144
-2.011908
-3.245671
-3.759290
-3.475466
-2.471265
-1.619794
-1.644586
-2.096693
-2.940797
-3.353142
-2.180542
-0.081391
0.883633
-1.048053
-3.821855
-4.913179
-4.802784
-4.332902
-3.874129
-3.269527
-2.867356
-2.848528
-2.490795
-1.985245
-1.809361
-1.671366
-1.148976
-0.141618
1.208387
2.216097
2.777313
3.862439
4.582348
3.463308
2.398998
2.676273
2.560147
2.276557
2.568801
1.743408
-0.402286
-2.034127
-2.646097
-3.076452
-3.912253
-5.029188
-6.329960
-7.744752
-8.287958
-7.950223
-7.684292
-7.267970
-6.739031
-6.740317
-7.471921
-7.853159
-6.498944
-4.232798
-2.280880
-0.560044
0.612089
0.413400
-0.582030
-1.076354
-0.730198
-0.269087
-0.392697
0.237984
2.261237
4.312089
5.675660
6.251026
6.304002
5.604441
3.883956
1.561325
0.271430
1.244172
2.794035
3.923250
4.272446
2.864202
0.297040
-1.991443
-3.113406
-3.496165
-3.759641
-4.071531
-4.484579
-4.807696
-5.046964
-5.073510
-4.768636
-4.430200
-4.338983
-4.083459
-3.172112
-2.261116
-1.929579
-1.452680
-0.542269
0.092388
-0.073556
-1.339595
-2.689717
-2.855193
-2.083244
-0.939529
-0.313526
-0.588462
-1.095182
-1.299951
-1.198326
-1.245572
-2.015299
-3.289408
-4.043581
-4.005341
-3.142058
-1.757671
-0.702483
0.060813
1.177046
2.913202
4.604568
5.819034
6.613554
6.612384
5.320384
3.680473
2.676623
1.367198
0.542390
1.464145
3.270350
5.010130
6.063447
6.699157
6.679042
5.525270
3.720702
1.532674
-0.111914
-0.788554
-0.890295
-0.541099
-0.794986
-1.614882
-1.966884
-2.150721
-2.429867
-2.769707
-3.582119
-5.599058
-8.057344
-9.060726
-8.734452
-8.151835
-7.892336
-8.207384
-8.245975
-7.215813
-5.965678
-5.164727
-4.273026
-3.022775
-1.499575
0.245351
1.952855
2.835083
2.526233
1.585416
0.821653
0.631150
0.021637
-1.497236
-2.824320
-3.322269
-3.022658
-2.030619
-0.893570
-0.076597
0.294702
-0.521336
-2.163351
-3.319462
-4.229406
-4.853421
-4.697768
-4.057147
-3.796478
-4.421078
-4.851784
-4.735424
-4.628654
-4.392310
-3.584458
-2.007464
-0.603197
0.234592
1.074720
1.661898
1.907831
2.342981
2.997285
3.436995
3.359110
2.360757
0.231903
-2.553360
-5.482113
-8.033487
-10.016400
-11.490600
-12.122560
-12.030530
-11.394230
-9.542186
-6.335690
-3.362966
-1.809477
-1.314452
-1.452446
-1.692182
-1.868885
-1.854150
-1.262412
-0.615125
0.091569
1.570330
3.703979
4.694731
3.205563
0.610685
-2.105230
-4.784073
-7.249376
-8.867184
-8.312517
-6.551335
-4.975394
-3.847349
-2.797306
-0.581211
2.215395
3.963830
4.073289
3.188021
3.206264
4.669589
6.126832
7.214063
8.473319
9.858408
11.459610
13.067480
13.620740
12.065730
8.819708
5.459547
2.821985
0.675706
-1.451745
-3.500492
-4.646897
-4.325534
-3.596971
-3.531015
-3.989436
-5.176655
-7.063902
-8.183878
-7.034549
-4.081238
-0.834513
2.195047
5.401309
8.758312
11.136260
11.351670
8.961094
4.784077
0.594079
-2.544005
-3.761044
-2.606921
-1.119740
-1.681774
-3.500492
-4.797171
-5.453813
-5.012933
-3.214680
-1.471508
-0.893453
-1.353395
-1.638271
-1.176926
-0.420062
0.455032
1.106295
1.559454
1.721773
0.960349
-0.979641
-2.979973
-2.972723
-1.206396
0.399250
0.203251
-2.368471
-4.372780
-2.925477
0.027601
0.817443
-1.329538
-4.126378
-5.951996
-6.444799
-4.922418
-2.136220
0.266050
1.032386
-0.438422
-2.969799
-5.046262
-6.279674
-7.510045
-9.105165
-9.816070
-9.482779
-8.974071
-8.144936
-6.894216
-5.996435
-5.587714
-4.927680
-3.708536
-2.222525
-1.417246
-1.221248
-1.159969
-2.361338
-4.337112
-5.423641
-5.406919
-4.209058
-1.640493
2.156923
6.348792
10.044470
13.355740
16.161819
17.440371
17.086380
16.022421
14.273290
11.972640
9.869517
7.231254
3.763036
1.418303
0.807269
0.571392
-0.002571
-0.933331
-1.907243
-2.794382
-3.678247
-4.182160
-3.833783
-2.589028
-1.270832
-0.768439
-1.217038
-2.491380
-4.270453
-5.922058
-7.057470
-7.528990
-6.897023
-5.095963
-1.899291
2.544593
6.356978
8.440575
8.513081
6.144490
2.054363
-2.337949
-5.680802
-7.670493
-8.871393
-9.694565
-10.117670
-9.479855
-7.319542
-4.188008
-1.613011
-0.266865
0.371300
0.092154
-1.174821
-3.162991
-5.814703
-8.698199
-11.544620
-13.677690
-13.562260
-10.074870
-4.499080
-0.117761
1.825503
2.850052
4.616262
7.410997
10.265260
12.172270
12.565320
12.645660
14.025130
15.250830
14.813220
13.441230
11.910900
10.679940
10.136270
10.183980
9.759356
8.179438
6.135017
4.127785
1.926075
-0.324869
-2.016469
-3.397464
-4.718701
-5.136309
-4.392660
-3.888279
-4.498027
-4.861607
-3.779638
-1.167804
1.950282
3.764323
4.538494
5.034221
4.613923
3.130133
1.531154
0.638167
-0.404976
-2.214806
-3.789929
-4.474053
-4.053989
-2.365548
-0.209094
1.391171
2.527870
3.137150
2.366955
0.293064
-1.174704
-0.084432
3.202873
7.016544
9.991958
11.206070
11.311210
12.196120
14.746910
18.153851
20.610029
21.283630
20.611320
18.910021
17.055161
15.898350
14.991910
13.360300
9.707549
3.784788
-1.592663
-3.885005
-3.819399
-2.528802
-0.229677
1.956480
2.660953
2.551025
2.394554
1.850061
1.370706
1.178450
0.712661
-0.664943
-2.508804
-3.198542
-2.770760
-2.315963
-1.897653
-1.723640
-2.483428
-3.364603
-2.427879
0.296807
2.977404
4.323316
4.244730
3.816246
3.702927
3.235617
1.819772
-0.346621
-1.817196
-1.091089
1.651373
5.114562
7.916664
9.235094
8.838654
7.806971
6.753770
5.026268
3.484592
2.488577
1.266158
0.033331
-1.025366
-2.337013
-3.185795
-1.708087
1.546590
4.450435
6.145776
6.863230
6.953745
6.357446
4.920434
2.470685
0.397613
0.018713
1.163247
3.453134
5.264484
5.905222
5.408910
3.389282
0.776395
-1.594651
-2.597097
-2.010739
-1.683061
-2.054476
-2.236675
-2.221004
-2.522955
-2.150838
-0.423570
1.275747
3.206615
5.887563
8.059102
9.029507
8.949985
8.228086
5.868502
1.839068
-1.304395
-2.446824
-1.792871
-0.856264
-2.344848
-5.938196
-8.655631
-9.922021
-11.047140
-11.633500
-11.217760
-9.970904
-8.201303
-6.572736
-5.317924
-4.643155
-4.334422
-4.075390
-3.853781
-4.044868
-5.492054
-7.741712
-9.200475
-8.583242
-6.768267
-5.818796
-5.459310
-4.634618
-3.387758
-2.371746
-1.803396
-0.885383
-0.121854
-0.658862
-2.153761
-4.162514
-5.729100
-5.844992
-5.492872
-5.005799
-3.943711
-2.809468
-1.725044
-1.315972
-2.031555
-2.836015
-3.573349
-5.818796
-9.619136
-12.277510
-12.598640
-11.923870
-11.463580
-11.902360
-13.075660
-14.330700
-16.086269
-18.835279
-21.053480
-21.250299
-19.784401
-16.384359
-11.727060
-7.400234
-2.356777
3.382265
7.316155
8.359532
8.347487
10.122940
14.262410
18.342480
20.375441
21.951389
24.184441
26.044081
26.716511
26.146290
25.785049
26.110161
26.665409
27.471621
28.303101
29.165449
29.076099
27.243111
24.433649
21.156281
17.918209
14.947010
11.842600
9.022022
7.446782
7.465961
7.778436
6.922872
5.282143
3.277951
0.892521
-1.250484
-3.058209
-5.180397
-7.106002
-8.368065
-9.699710
-11.186190
-11.937320
-11.105260
-9.416003
-7.385850
-4.410553
-0.499116
4.087907
7.474381
8.195928
8.159324
8.991265
10.001660
10.345130
9.295204
6.880888
4.620121
3.284500
2.411628
1.089572
-0.381003
-0.728678
0.110631
1.149097
1.666926
2.417592
3.201820
3.424131
3.348235
2.268839
0.455032
-1.173066
-2.166508
-2.946410
-4.735775
-6.889772
-7.910696
-7.735981
-6.782885
-4.497910
-0.934500
2.140083
3.683397
3.985464
3.423196
2.398998
1.271420
-0.146062
-2.079151
-3.605508
-4.021245
-3.946635
-4.032823
-4.689348
-5.503163
-6.699504
-8.954658
-11.039890
-11.503340
-9.194394
-5.370432
-3.210002
-3.458275
-5.268807
-7.725105
-10.039780
-11.118360
-10.529430
-8.765676
-6.216056
-3.783965
-2.288832
-1.883620
-2.050617
-3.018799
-5.280501
-7.260135
-7.571090
-6.869541
-6.371943
-6.210793
-5.465391
-4.140178
-3.220878
-3.296658
-3.829457
-3.864423
-3.910850
-4.157719
-3.687603
-2.882675
-3.023827
-4.066386
-4.779629
-5.463987
-6.365745
-6.557300
-6.434274
-6.590161
-6.756924
-6.380480
-4.848275
-1.694053
2.631951
6.831187
9.955471
11.380670
11.547080
11.348510
10.059200
7.137464
3.753914
0.659100
-2.095289
-4.385994
-6.211144
-7.562202
-8.590611
-8.753631
-7.596233
-6.217226
-5.525500
-5.211621
-5.132684
-5.461063
-5.228812
-4.234084
-3.649128
-2.841979
-0.957538
1.137285
2.179610
1.853218
0.741195
-1.026535
-1.949460
-0.532446
1.377255
1.885846
1.080100
-0.320776
-2.091664
-3.770751
-4.534748
-5.485037
-7.429470
-9.572007
-11.771140
-13.509870
-13.870880
-12.441590
-9.567914
-6.681377
-3.956575
-0.791009
1.913679
2.892386
1.642485
-0.932512
-2.994825
-3.559081
-3.723856
-5.226239
-7.816088
-9.917343
-10.295190
-9.135454
-8.378356
-9.820747
-13.065130
-16.149540
-17.860081
-18.337681
-18.163090
-18.005800
-17.944639
-17.113400
-15.223460
-13.453040
-13.108870
-13.217510
-11.891480
-9.389808
-6.773179
-4.817051
-3.748180
-3.079960
-2.427411
-1.326264
-0.194827
0.009474
-0.668569
-1.573367
-1.434671
0.247924
2.384730
4.076447
4.774955
4.250577
2.963605
1.860001
1.478997
1.606232
2.181949
2.802689
3.126625
3.043712
2.344501
1.408362
0.219857
-1.006655
-1.540506
-1.621431
-1.631722
-1.423912
-0.986891
-0.448947
0.081629
-0.346972
-2.699307
-6.183078
-9.058621
-10.607900
-11.357510
-11.057900
-9.554348
-8.589909
-8.684984
-8.391104
-7.616113
-7.162019
-7.115475
-7.169269
-7.065306
-6.688160
-5.454281
-3.520139
-1.739779
-0.367203
-0.165591
-1.099041
-1.756385
-1.780358
-1.807606
-1.928410
-2.050500
-2.664223
-3.495464
-3.817762
-3.973415
-4.381200
-4.465517
-3.246723
-0.739320
2.003492
4.218066
6.087187
8.146343
10.022710
10.523590
9.235913
7.358372
5.794593
3.754733
1.335389
-0.453157
-1.894262
-3.293968
-4.512177
-5.723136
-6.850479
-7.409473
-7.052676
-5.856102
-4.114099
-2.081139
-0.468243
0.358904
1.239378
1.912158
1.475722
0.961401
1.654179
3.261579
5.166368
7.046482
8.355907
8.784040
7.888481
5.286820
1.745045
-1.551147
-3.350687
-2.976815
-1.240426
0.207227
0.460412
0.409190
0.780722
1.019990
0.972745
1.038584
1.314222
2.070150
3.408578
4.655204
5.416395
5.567019
5.275594
4.568431
2.718139
0.035436
-2.178086
-3.800454
-5.391832
-6.181324
-5.472290
-3.986045
-3.495347
-5.745355
-9.621943
-12.363000
-12.560870
-10.395880
-7.191722
-4.435345
-3.131767
-3.605040
-4.831318
-4.940661
-3.270112
-0.845622
0.937895
1.507648
1.200903
0.282656
-1.282292
-3.200296
-5.454865
-8.265505
-11.149120
-13.667280
-15.050500
-14.468820
-12.444980
-9.412963
-5.190805
-0.235758
4.193391
6.605484
6.601041
5.462471
4.508322
4.128019
4.445757
5.359677
6.217697
6.500351
6.523390
6.617296
6.936905
7.079226
6.190917
5.165666
5.179348
5.919255
6.632382
6.714477
6.633317
6.989179
7.754696
8.975712
10.432250
11.695720
12.146190
11.363360
9.722051
7.720315
5.267057
1.564015
-3.791800
-9.808118
-15.299120
-19.179920
-20.680080
-20.508169
-19.895380
-19.481871
-18.901711
-17.865700
-16.256540
-13.630090
-10.551300
-7.238266
-3.661875
-0.393165
1.998931
2.628325
1.489054
-0.673246
-2.867589
-4.239697
-4.706422
-4.112228
-2.582947
-0.729029
1.023849
2.645867
4.126733
4.992238
4.951190
4.565625
4.586090
4.988729
5.419786
5.439316
4.174212
1.695344
-0.694179
-1.936362
-1.449640
0.349198
2.201596
3.734735
5.909666
9.655158
14.095770
17.517090
19.154310
18.718809
16.463421
13.290370
9.906355
6.941816
4.998202
4.506685
5.907561
8.678205
11.402770
12.617590
11.323950
8.472734
5.807807
3.744208
2.060912
0.662258
-0.653015
-1.862453
-2.567627
-2.885248
-3.173165
-3.420502
-3.405650
-3.111185
-2.725619
-2.073538
-1.427070
-1.565882
-2.622474
-4.076443
-5.493808
-6.759145
-7.596467
-7.739724
-7.228209
-6.006726
-3.525401
0.617468
5.705598
10.077680
12.314590
12.537370
11.678760
9.854548
7.096767
4.207191
2.036587
1.280308
2.031792
3.891090
6.256523
7.746510
7.929177
7.557060
6.802536
5.608183
3.845599
1.823398
0.581332
0.631384
1.072381
0.776512
-0.159393
-1.509515
-3.281572
-5.334647
-7.559512
-9.629427
-11.433760
-12.871120
-13.435500
-13.177170
-12.961750
-13.626580
-15.232930
-17.123100
-18.864281
-19.615770
-18.568180
-16.443300
-13.748790
-10.258120
-6.410651
-3.410562
-2.043015
-2.179021
-3.476986
-4.854123
-5.237583
-4.974341
