EVENT_NAME: L_AQUILA
EVENT_ID: IT-2009-0009
EVENT_DATE_YYYYMMDD: 20090406
EVENT_TIME_HHMMSS: 013240
EVENT_LATITUDE_DEGREE: 42.3420
EVENT_LONGITUDE_DEGREE: 13.3800
EVENT_DEPTH_KM: 8.3
HYPOCENTER_REFERENCE: INGV-CNT_Seismic_Bulletin
MAGNITUDE_W: 6.1
MAGNITUDE_W_REFERENCE: INGV-CNT_Seismic_Bulletin
MAGNITUDE_L: 
MAGNITUDE_L_REFERENCE: 
FOCAL_MECHANISM: Normal faulting
NETWORK: IT
STATION_CODE: GSG
STATION_NAME: 
STATION_LATITUDE_DEGREE: 42.460000
STATION_LONGITUDE_DEGREE: 13.550000
STATION_ELEVATION_M: 1200
LOCATION: 
SENSOR_DEPTH_M: 200.0
VS30_M/S: 
SITE_CLASSIFICATION_EC8: B (inferred from geology)
MORPHOLOGIC_CLASSIFICATION: 
EPICENTRAL_DISTANCE_KM: 19.2
EARTHQUAKE_BACKAZIMUTH_DEGREE: 46.8
DATE_TIME_FIRST_SAMPLE_YYYYMMDD_HHMMSS: 
DATE_TIME_FIRST_SAMPLE_PRECISION: 
SAMPLING_INTERVAL_S: 0.005000
NDATA: 23000
DURATION_S: 115.000
STREAM: HNE
UNITS: cm/s^2
INSTRUMENT: sensor = FBA-3 [Kinemetrics] | digitizer = Everest [Kinemetrics]
INSTRUMENT_ANALOG/DIGITAL: D
INSTRUMENTAL_FREQUENCY_HZ: 222.000
INSTRUMENTAL_DAMPING: 0.700000
FULL_SCALE_G: 1.0
N_BIT_DIGITAL_CONVERTER: 24
PGA_CM/S^2: -20.979200
TIME_PGA_S: 39.110000
BASELINE_CORRECTION: BASELINE NOT REMOVED
FILTER_TYPE: 
FILTER_ORDER: 
LOW_CUT_FREQUENCY_HZ: 
HIGH_CUT_FREQUENCY_HZ: 
LATE/NORMAL_TRIGGERED: NT
DATABASE_VERSION: 0.5
HEADER_FORMAT: DYNA 1.2
DATA_TYPE: ACCELERATION
PROCESSING: converted to cm/s^2
DATA_TIMESTAMP_YYYYMMDD_HHMMSS: 20211011_155807.420
DATA_LICENSE: CC-BY3_0-IT (http://creativecommons.org/licenses/by/3.0/deed.en)
DATA_CITATION: Luzi L, Pacor F, Puglia R (2019). Italian Accelerometric Archive v 3.0 - Istituto Nazionale di Geofisica e Vulcanologia, Dipartimento della Protezione Civile Nazionale. doi: 10.13127/itaca.3.1
DATA_CREATOR: ITACA working group
ORIGINAL_DATA_MEDIATOR_CITATION: data obtained within the DPC-INGV data exchange agreements
ORIGINAL_DATA_MEDIATOR: Archive of Italian Department of Civil Protection
ORIGINAL_DATA_CREATOR_CITATION: Presidency Of Counsil Of Ministers-Civil Protection Department. (1972). Italian Strong Motion Network. Presidency of Counsil of Ministers - Civil Protection Department. https://doi.org/10.7914/SN/IT http://www.fdsn.org/networks/detail/IT/
ORIGINAL_DATA_CREATOR: network: IT (Italian Strong Motion Network (RAN)); owner: Presidency of Counsil of Ministers - Civil Protection Department (PCM - DPC)
USER1: 
USER2: 
USER3: 
USER4: 
USER5: 
[...]
-6.496119
-5.518815
-5.097581
-4.476373
-3.415338
-2.711216
-1.888513
-0.240300
1.748105
3.343576
4.345672
4.992023
5.441791
5.383436
4.345321
3.088170
2.154369
1.270270
0.746827
0.246189
-0.097277
0.202335
0.594098
1.124090
1.531524
1.826340
2.741313
3.455375
3.408948
3.006542
2.596653
2.699096
3.521448
4.732874
5.184163
4.346607
2.828436
1.130873
-0.379346
-1.411263
-1.344371
-0.464832
-0.242404
-0.442379
-0.098680
0.180466
-0.061725
-0.392327
-0.293275
0.595151
1.911944
3.319135
4.851924
6.098083
6.578372
6.047328
4.930043
3.697683
2.371535
1.686709
1.659461
1.759331
2.405215
3.296681
3.636522
3.661548
4.026999
4.386251
4.114707
3.583663
3.107232
2.795692
2.926202
3.138923
3.018354
2.961987
2.784699
1.965504
1.548832
2.158696
3.019640
3.612665
3.512210
2.886090
2.245001
1.468725
0.751388
0.521710
0.818748
1.248168
1.380315
1.343010
0.944346
-0.062310
-1.312562
-2.494284
-3.243429
-3.339558
-2.800210
-1.665500
-0.326838
0.489901
0.796763
1.546844
2.877787
3.738614
3.521331
3.068991
3.058817
3.029347
2.618755
2.252953
2.589402
2.963858
2.675122
2.299146
2.233190
2.309671
1.784240
0.544631
-0.490443
-1.515811
-3.046846
-4.214535
-4.533910
-4.325398
-3.320145
-1.534522
0.187951
1.282315
1.703549
1.437734
0.971361
0.853481
0.730923
0.578428
0.865643
1.517724
1.641685
0.697594
-0.157386
-0.313624
-0.476176
-0.646681
-0.433258
-0.239832
-0.915419
-2.316178
-3.801137
-4.751309
-4.505024
-3.447965
-2.298052
-1.908978
-2.543401
-3.293014
-4.030581
-4.582442
-4.812120
-5.324687
-6.023664
-6.768716
-7.526632
-8.026335
-8.021190
-7.422201
-6.557631
-5.510746
-4.782300
-5.006949
-5.359186
-5.310069
-5.355093
-5.244230
-4.403985
-3.203668
-2.351144
-1.691111
-0.853555
0.065042
0.693735
0.492123
0.024813
0.121643
0.240225
-0.189429
-0.784207
-0.987457
-1.065692
-1.292681
-1.474413
-1.589720
-1.636147
-1.875298
-2.325767
-2.360149
-2.033874
-1.903715
-1.638720
-1.349867
-1.654741
-1.656729
-0.744797
0.351322
1.575495
3.003268
3.566472
2.987130
2.438895
1.910540
0.708236
-0.588793
-1.510432
-2.410669
-3.026965
-3.067662
-3.446679
-4.629921
-6.121195
-7.058270
-6.652941
-5.658446
-4.534261
-2.920312
-1.860095
-1.792267
-2.273493
-3.360023
-4.456376
-5.045424
-5.212304
-5.197920
-5.267034
-5.477651
-5.632017
-5.126935
-4.114548
-3.628527
-3.940184
-4.541394
-5.302234
-6.097572
-6.355785
-5.668621
-4.294992
-2.839270
-1.551011
-1.159716
-1.820217
-2.383538
-2.430199
-2.465750
-2.781382
-3.050120
-3.316403
-3.593210
-3.535439
-3.127655
-2.464463
-2.249286
-3.350083
-5.274752
-6.789766
-8.211107
-9.914986
-10.730910
-10.380660
-9.764361
-9.152040
-8.297412
-7.303385
-6.262347
-5.166228
-3.798096
-2.415698
-2.034225
-2.438268
-3.028954
-3.954568
-5.207977
-6.658320
-7.640185
-7.584870
-7.068444
-6.617273
-6.172884
-5.734811
-5.038992
-3.754944
-2.109070
-0.355607
0.958847
0.862018
-0.396537
-1.514057
-2.064397
-2.026390
-1.482599
-1.545047
-2.407511
-2.885112
-2.324481
-0.911092
0.694086
1.770207
1.623910
0.805651
0.322904
-0.047107
-0.409401
-0.917641
-1.516279
-1.813785
-2.365412
-3.412648
-4.422111
-4.746632
-4.039469
-2.785592
-1.545866
-0.606569
-0.117508
0.549893
2.028186
3.605414
4.408822
4.425077
4.419230
5.117154
5.829111
6.077266
6.136089
5.639076
4.780588
4.119969
3.511391
2.543560
1.034160
-0.795083
-2.986152
-5.183769
-6.718196
-7.628373
-7.653165
-6.897705
-6.187386
-5.665346
-5.640203
-6.611425
-7.919214
-8.686369
-8.804716
-8.379390
-7.575514
-6.526992
-5.508874
-5.008353
-4.655532
-4.150567
-4.208688
-4.839135
-5.537877
-5.900755
-5.358952
-3.983687
-2.189176
-0.766666
-0.236557
0.051009
0.405233
0.681339
0.910550
1.291437
1.530237
0.884705
0.006336
-0.379346
-0.992485
-1.876467
-2.349273
-2.673911
-3.282723
-3.857738
-4.024033
-3.883349
-3.108593
-1.284144
0.780975
2.580397
4.267436
5.458280
5.998329
6.117144
5.933775
5.873432
6.407517
6.903010
6.237948
3.989460
0.822373
-2.104041
-4.658455
-7.186909
-9.818390
-12.160430
-13.352450
-12.787370
-9.791492
-5.070918
-0.879985
1.801899
3.697800
5.166387
5.525640
4.292930
1.722494
-1.647958
-5.273466
-8.880145
-12.238900
-14.276890
-14.323320
-13.029560
-11.029820
-8.349919
-5.062030
-1.866293
1.188760
4.127337
6.178774
7.291499
7.858211
8.030470
7.863942
8.196063
9.516715
10.368770
10.266680
10.058050
9.307151
7.258170
4.123361
0.673620
-2.335006
-3.917263
-3.392416
-1.533821
1.116372
4.354092
7.382131
9.897720
11.151600
10.451920
8.298623
4.728431
0.218941
-3.612155
-6.098040
-7.197668
-6.911271
-5.837020
-4.602556
-3.763247
-3.440247
-3.471705
-3.743132
-3.442703
-2.258173
-0.915887
-0.429048
-1.348698
-2.891076
-4.183896
-5.182717
-6.429460
-7.850567
-8.536797
-9.067256
-10.599110
-12.671360
-14.092590
-13.943480
-12.159610
-9.658877
-7.413781
-5.662539
-3.711090
-0.941965
2.207579
4.812280
6.266599
6.607024
6.448915
6.143457
5.549613
4.797311
3.928415
3.136351
2.809140
2.874863
3.626581
4.935656
6.088727
7.062522
7.724310
7.385639
6.035868
4.756965
4.269190
4.742698
6.176552
7.941593
9.101797
9.051511
8.045322
7.041238
7.508314
10.054780
13.291790
15.459120
15.627290
14.243140
12.422080
10.732940
9.007189
6.562819
4.004662
2.255760
1.364293
1.615724
2.380306
3.000345
3.402048
3.173890
2.719795
2.547302
2.594665
3.128515
4.409173
6.065338
7.508197
8.229627
8.026962
7.521646
7.449725
7.851779
7.813304
6.639184
4.760122
2.768093
1.554445
0.977208
0.351907
0.197189
0.281974
0.476920
0.994048
1.527197
2.575720
4.141019
5.068154
5.019739
4.446478
3.253295
1.934514
1.611748
2.735699
5.156797
7.795061
9.258152
9.540221
9.625006
9.897136
10.973370
13.316820
15.939650
17.363800
16.790180
14.942350
12.767180
10.413330
8.267049
7.006974
6.963236
8.411592
10.895140
13.152510
14.703780
15.573960
16.408010
17.278431
16.960920
15.230850
13.279280
12.448740
12.232630
11.669540
11.312630
11.253920
11.122710
10.526530
8.485734
5.489037
3.315159
1.885280
0.278232
-1.595450
-3.193494
-3.944277
-4.322825
-4.597878
-4.943917
-5.544425
-5.565359
-4.750958
-3.152681
-1.073411
0.102815
0.140588
0.139653
0.157896
-0.491613
-1.351855
-1.464473
-0.548565
1.087603
2.440064
2.859076
2.321249
1.419959
1.555030
2.732191
3.787263
3.905143
3.104893
2.512219
2.550226
3.247214
4.799299
6.912365
9.155241
10.540910
10.645110
10.345150
10.125640
9.174419
7.488433
6.570303
6.906051
8.021699
9.110217
9.575539
9.271250
8.061460
7.051880
7.361198
8.776458
10.495660
11.598440
11.788940
11.175100
9.575305
6.507388
2.570223
-0.967108
-4.075839
-6.733047
-8.255078
-8.231104
-6.868937
-4.424918
-1.322736
1.383472
2.963273
3.234584
2.719444
1.802367
1.064097
1.152507
1.239748
1.067606
0.714785
0.182337
-0.476644
-1.980197
-3.984505
-5.628860
-6.690363
-7.566159
-8.531651
-9.359968
-10.195420
-10.766460
-10.531870
-9.131342
-6.907178
-5.076766
-4.316510
-4.047889
-2.951185
-0.915419
1.075675
2.232956
1.956733
0.676895
-0.916588
-3.106838
-5.787904
-8.180701
-10.059530
-11.533610
-12.499220
-13.048510
-13.732980
-14.753910
-14.834830
-13.031790
-10.889720
-9.387216
-8.028089
-6.905775
-5.808837
-4.837146
-4.565134
-4.960639
-5.445374
-5.571791
-5.625702
-5.639384
-5.674585
-5.517412
-4.658105
-3.029070
-0.795785
0.577258
0.523815
-0.099031
-1.452427
-2.950016
-3.618470
-3.564091
-2.724898
-0.916705
1.257523
2.172613
0.866579
-1.994230
-5.087641
-7.206204
-8.116616
-7.721695
-5.937826
-3.351018
-0.796837
0.497034
0.540421
0.326062
0.067147
-0.130021
-0.481322
-1.123346
-2.019490
-3.306228
-3.988599
-3.424108
-2.442127
-1.636732
-0.925359
0.232390
1.557719
2.441701
2.905620
2.725291
2.386738
1.959189
1.414813
1.988074
3.500281
4.937059
6.391028
8.060174
8.966259
8.421883
7.646425
7.396047
6.880206
5.121714
1.987022
-1.030960
-2.387397
-2.741037
-3.879489
-5.978289
-7.918395
-9.055913
-8.562758
-6.372859
-4.140860
-2.626431
-1.087327
0.749634
1.923287
1.879433
1.066436
0.021773
-0.588677
-0.790405
-0.737430
-0.228605
0.074164
-0.485532
-1.660705
-3.313362
-5.529808
-7.596682
-8.790332
-8.812551
-7.477047
-5.075362
-2.113630
0.595619
2.302187
2.728800
2.414687
2.430007
2.885037
3.350710
3.686106
3.454556
2.148522
0.248528
-1.660354
-3.608062
-5.187161
-6.247962
-7.387234
-8.737707
-9.443115
-8.484756
-6.512374
-5.275688
-5.258965
-5.545478
-5.071503
-3.995030
-2.831668
-1.664564
-1.085456
-1.242044
-1.731690
-2.195141
-3.141220
-5.137927
-7.111479
-8.686134
-9.906917
-10.069940
-9.229692
-8.316708
-7.715146
-6.055706
-2.623741
1.229691
3.888536
4.484251
3.634533
2.958595
3.035428
3.537236
4.441449
5.078094
4.533134
3.072031
1.424637
-0.138207
-1.585276
-2.614971
-2.950016
-2.911308
-2.903355
-2.693557
-2.498728
-2.802783
-3.114674
-3.384230
-4.104373
-5.474493
-7.768005
-10.794640
-13.607850
-15.402710
-16.431471
-17.018999
-17.402580
-18.393101
-19.712811
-20.074289
-18.792110
-16.212669
-13.466580
-11.444730
-10.432000
-10.494560
-11.350010
-12.380990
-13.190010
-13.373260
-12.430340
-10.498300
-8.355884
-6.700186
-5.799014
-5.306795
-4.477426
-3.379553
-2.831785
-3.578475
-5.286563
-6.317544
-6.345143
-6.541961
-7.249941
-8.005870
-8.298581
-7.821916
-6.669196
-5.113837
-3.460244
-2.211513
-1.863720
-2.051767
-1.803845
-0.870863
0.194149
0.435756
-0.646681
-2.657421
-4.892344
-6.417298
-6.771288
-5.848013
-3.672498
-1.418747
-0.634519
-1.646672
-3.677761
-5.843920
-7.483947
-8.163043
-7.257426
-4.662081
-1.739409
0.658885
2.495847
3.627166
4.476883
5.044531
5.127327
5.158786
4.934135
4.172711
3.224994
2.503097
2.188049
2.026432
2.292480
3.211663
3.583663
2.755814
1.754186
1.494920
1.948196
2.655359
3.202307
3.053437
2.197054
1.364644
0.838863
1.109238
2.441818
4.179377
5.802915
6.651229
6.146965
4.275037
1.798742
-0.011790
-0.529152
-0.182295
0.019785
-0.442496
-1.093642
-1.159014
-0.837768
-0.493601
0.073345
0.805884
1.775937
2.862584
3.693941
4.357132
5.109318
5.779994
6.144509
6.643861
7.523868
8.532044
9.289726
9.161439
8.028248
6.612754
5.586451
5.197377
5.390101
6.029085
6.576619
6.020432
4.394087
2.787623
1.938841
1.780732
1.619700
1.020009
0.137431
-0.749826
-1.323789
-1.429389
-1.334430
-1.106974
-0.261817
1.271323
2.829957
3.963381
4.508692
4.467645
4.227324
3.699788
2.521925
0.747061
-1.338640
-2.908150
-3.492404
-3.653202
-4.051866
-4.631558
-4.979702
-4.758443
-3.519067
-2.031652
-1.175971
-0.319120
0.853598
2.360659
4.203701
5.825836
6.665964
6.253969
4.770881
3.337378
2.620743
2.463570
2.551395
2.253889
1.559590
1.477729
2.249328
3.233648
3.879064
3.710313
2.771134
1.609058
0.542526
-0.404255
-1.129427
-1.470671
-1.444475
-0.900333
0.406169
2.591390
5.523418
8.674833
11.552600
13.720750
14.783650
14.386980
12.789640
11.310760
10.823800
10.884850
10.463380
8.909657
6.610649
4.463902
2.673368
0.698179
-1.756716
-4.528531
-7.329347
-9.738750
-11.499230
-12.729130
-13.253160
-12.557340
-10.735580
-8.405819
-6.257084
-5.152545
-5.158159
-5.632017
-6.309008
-6.885192
-7.565341
-8.623219
-9.460306
-9.756292
-9.401015
-8.256248
-6.486880
-4.663835
-3.492989
-3.129058
-3.526669
-4.481051
-5.696921
-6.941208
-7.322213
-6.134410
-3.941704
-1.589135
0.451894
1.907500
2.901410
3.875439
5.033772
5.809814
5.657436
5.045350
4.620608
4.478755
4.217267
3.788198
3.571150
3.462391
3.474086
3.677452
4.042552
4.281820
4.021736
3.866668
4.082898
4.175284
3.774048
2.898486
2.024795
1.200454
0.247943
-0.707141
-1.567968
-2.125325
-1.970841
-0.901737
0.895113
2.755463
3.645760
3.076943
1.882357
1.318100
1.789737
2.524147
1.935216
-0.423902
-3.187998
-4.814108
-4.654012
-3.317923
-1.937629
-1.024762
-0.545056
-0.464248
-0.595693
-1.002426
-2.161695
-3.870485
-5.587695
-6.815727
-6.908581
-5.936072
-4.216406
-1.877871
0.517734
2.870536
5.448223
7.550414
8.053391
6.858922
5.066283
3.667979
2.758387
1.771377
0.480779
-0.598266
-1.450205
-2.365294
-3.109060
-3.316052
-3.067428
-3.015505
-3.314298
-3.604670
-3.594262
-3.173847
-2.591699
-1.780573
-1.043239
-1.156675
-2.259928
-4.015262
-5.831875
-7.461728
-8.792437
-9.454809
-9.426743
-8.972765
-7.874775
-5.480223
-2.329393
0.030193
0.872426
0.303492
-1.159833
-2.370440
-2.404003
-1.266486
0.964110
4.008638
6.849917
8.793298
9.922512
10.212880
9.635881
8.702666
7.808159
6.830271
5.600952
4.145931
2.685764
1.426976
0.339861
-0.529152
-1.092122
-1.771802
-3.268456
-5.375324
-7.040845
-7.566276
-7.056048
-6.238841
-5.483030
-4.592733
-3.282489
-1.183338
1.867271
5.285787
7.796114
8.933748
9.096066
8.349611
6.873423
5.452199
4.770180
4.638968
4.306612
3.277970
1.580991
-0.737430
-3.590403
-6.693988
-9.772898
-12.671010
-15.453000
-17.890350
-19.769409
-20.938040
-20.979200
-19.831860
-17.630039
-14.668540
-11.496540
-8.278934
-4.488068
-0.107100
3.791590
6.429035
7.685133
7.926273
7.469254
6.088376
3.758144
0.799335
-2.040891
-3.733309
-3.863819
-2.914114
-1.458625
0.488614
2.696289
4.403910
4.743049
3.328841
0.930196
-1.441084
-3.282606
-4.474385
-5.280249
-5.812345
-5.927886
-5.451572
-4.463743
-3.649811
-3.788507
-5.186810
-7.503360
-9.804824
-11.002220
-10.591740
-8.976624
-6.863324
-4.553205
-2.301677
-0.954595
-1.073060
-2.219582
-3.369612
-3.726292
-3.388791
-2.714022
-1.952247
-1.333846
-0.938457
-0.755907
-0.438169
0.023761
0.136027
-0.104878
-0.388936
-0.270471
0.864006
3.134947
5.725849
7.596373
8.358967
8.162267
7.326933
6.077033
4.652534
3.302763
2.249211
1.685656
1.438436
1.297167
1.208874
1.247349
1.888555
3.579687
6.062999
8.494856
10.133600
11.059090
11.914780
12.824840
13.682270
14.528830
15.103380
15.262660
14.844000
13.594100
11.842620
9.739377
6.959611
3.638977
0.330857
-2.257823
-3.498134
-3.542222
-2.916219
-1.599075
0.461016
2.775460
4.685629
5.911088
6.527736
6.353839
5.024416
2.731373
0.155206
-2.376287
-4.694708
-6.235450
-6.411568
-5.280950
-3.669457
-2.497909
-2.284018
-2.593804
-2.320973
-0.855777
1.497259
3.782000
5.333735
6.162869
6.753438
7.781262
9.155708
9.912105
9.529228
8.535553
7.744775
7.732145
8.762308
10.448410
11.697260
11.612120
10.251940
8.284707
6.054345
3.245811
-0.165806
-3.432645
-5.596934
-6.302576
-6.361983
-6.686855
-7.202813
-7.500436
-7.426528
-6.942963
-6.223053
-5.746739
-5.760071
-6.084591
-6.595521
-7.299175
-8.180350
-9.158122
-9.729395
-9.152860
-7.394017
-5.099803
-3.028720
-1.690994
-1.043356
-0.699891
-0.012843
1.447207
3.298903
4.843036
5.572067
5.551251
5.521898
6.248590
7.445515
8.014683
7.719983
7.183676
6.940082
7.046852
7.071059
6.628892
5.718481
4.902794
4.547518
4.203701
3.339834
1.729160
-0.355022
-2.383889
-3.925332
-4.634248
-4.562561
-3.975852
-3.212439
-2.633214
-2.005574
-0.732518
1.118710
2.633607
3.001280
2.462401
1.657590
0.843540
0.512354
1.037668
1.907734
2.414336
2.491520
2.385685
2.289791
2.678163
3.687275
4.852742
5.596976
5.349171
4.007586
1.948313
-0.170367
-1.578376
-1.768762
-0.734857
0.923764
2.177407
2.364986
2.100107
2.094377
2.133904
1.982227
1.550235
0.821789
-0.082191
-0.984182
-1.388459
-0.831570
0.510834
1.966440
2.720029
2.406150
1.358329
-0.358530
-2.980772
-5.808018
-7.517627
-7.951257
-8.116265
-8.560303
-8.894880
-8.502766
-7.486052
-6.477875
-5.869765
-5.667919
-5.590853
-5.490047
-5.566177
-6.077458
-6.760646
-7.089143
-7.071836
-7.124227
-7.456114
-7.760286
-7.623813
-6.927292
-5.817140
-4.463977
-2.858449
-0.859052
1.624261
4.280534
6.380737
7.392188
7.723258
8.186357
8.957839
9.752007
10.320360
10.720770
11.082130
11.085410
10.314630
8.964738
7.658002
6.693212
5.955410
5.266959
4.472322
3.625880
2.918366
2.346626
1.831837
1.307692
0.771269
0.272151
-0.166508
-0.531842
-0.889457
-1.069201
-0.854023
-0.371394
0.394591
1.619700
3.324631
5.292687
7.160638
8.685593
9.749201
10.427360
10.821930
11.042840
11.346780
11.652240
11.597860
10.961330
9.769549
8.305172
6.736364
4.991087
3.102788
1.358797
0.226542
0.050190
0.686367
1.589294
2.361244
3.268147
4.664462
6.499903
8.567362
10.329480
11.380110
11.760170
11.669080
11.496580
11.349470
10.861810
9.723941
7.979249
5.945002
4.058807
2.763415
2.257748
2.430475
3.190262
4.372569
5.323560
5.313620
4.275622
2.908543
2.014972
1.711384
1.519479
1.043047
0.480428
0.409209
0.927623
1.749625
2.644249
3.181023
3.120797
2.500407
1.446856
0.297878
-0.964653
-2.446103
-3.856685
-4.855039
-5.282821
-5.294399
-5.123777
-4.782066
-4.000878
-2.738230
-1.542825
-1.102530
-1.602467
-2.583279
-3.500122
-4.013976
-4.147292
-3.899604
-3.085555
-1.963006
-0.823501
0.183741
0.609067
0.082116
-0.979505
-1.701753
-1.599894
-0.714742
0.502297
1.564970
2.248159
2.507775
2.273886
1.482875
0.338224
-0.830283
-1.788993
-2.387397
-2.727120
-3.188115
-3.933050
-4.770371
-5.339539
-5.437890
-5.058990
-4.301892
-3.715884
-3.704190
-4.055257
-4.438015
-4.754584
-5.057002
-5.388773
-5.870817
-6.345728
-6.460801
-6.305733
-6.365842
-7.006113
-8.188654
-9.540296
-10.565780
-11.125010
-11.464150
-11.647050
-11.590100
-11.395150
-11.288730
-11.638980
-12.493260
-13.383320
-13.995060
-14.273620
-14.268940
-13.917870
-13.207200
-12.426830
-11.950630
-12.077400
-12.589030
-12.891450
-12.511500
-11.550450
-10.691730
-10.345690
-10.392120
-10.342300
-9.931942
-9.372715
-8.859680
-8.515630
-8.321619
-8.174152
-8.021891
-7.967278
-8.139186
-8.267591
-8.038146
-7.471902
-6.681242
-5.625234
-4.191380
-2.756590
-1.812148
-1.208014
-0.600722
0.235781
1.339969
2.549407
3.586586
4.186511
4.432094
4.498284
4.477117
4.429170
4.289188
4.129325
4.163239
4.386251
4.623999
4.643412
4.453378
4.272933
3.980689
3.816499
4.429170
5.833671
7.477324
8.774938
9.483035
9.597407
9.242481
8.663256
7.915280
6.785130
5.333851
4.114941
3.494668
3.514666
4.068280
4.846311
5.542597
5.916351
5.771340
5.099612
4.097048
3.102788
2.443690
2.127121
2.012165
2.098119
2.382177
2.753241
2.857439
2.276225
1.056145
-0.375721
-1.594865
-2.357576
-2.757292
-2.988023
-3.031175
-2.849444
-2.574040
-2.254431
-1.829339
-1.380740
-0.979271
-0.586572
-0.198200
0.117784
0.364654
0.613745
0.774192
0.637602
0.048319
-0.808649
-1.603753
-2.323779
-2.974458
-3.537310
-4.045550
-4.310312
-4.144368
