EVENT_NAME: L_AQUILA
EVENT_ID: IT-2009-0009
EVENT_DATE_YYYYMMDD: 20090406
EVENT_TIME_HHMMSS: 013240
EVENT_LATITUDE_DEGREE: 42.3420
EVENT_LONGITUDE_DEGREE: 13.3800
EVENT_DEPTH_KM: 8.3
HYPOCENTER_REFERENCE: INGV-CNT_Seismic_Bulletin
MAGNITUDE_W: 6.1
MAGNITUDE_W_REFERENCE: INGV-CNT_Seismic_Bulletin
MAGNITUDE_L: 
MAGNITUDE_L_REFERENCE: 
FOCAL_MECHANISM: Normal faulting
NETWORK: IT
STATION_CODE: GSG
STATION_NAME: 
STATION_LATITUDE_DEGREE: 42.460000
STATION_LONGITUDE_DEGREE: 13.550000
STATION_ELEVATION_M: 1200
LOCATION: 
SENSOR_DEPTH_M: 200.0
VS30_M/S: 
SITE_CLASSIFICATION_EC8: B (inferred from geology)
MORPHOLOGIC_CLASSIFICATION: 
EPICENTRAL_DISTANCE_KM: 19.2
EARTHQUAKE_BACKAZIMUTH_DEGREE: 46.8
DATE_TIME_FIRST_SAMPLE_YYYYMMDD_HHMMSS: 20090406_013229.000 
DATE_TIME_FIRST_SAMPLE_PRECISION: 
SAMPLING_INTERVAL_S: 0.005000
NDATA: 20000
DURATION_S: 100.000
STREAM: HNZ
UNITS: cm/s
INSTRUMENT: sensor = FBA-3 [Kinemetrics] | digitizer = Everest [Kinemetrics]
INSTRUMENT_ANALOG/DIGITAL: D
INSTRUMENTAL_FREQUENCY_HZ: 214.000
INSTRUMENTAL_DAMPING: 0.700000
FULL_SCALE_G: 1.0
N_BIT_DIGITAL_CONVERTER: 24
PGV_CM/S: 3.146831
TIME_PGV_S: 37.495000
BASELINE_CORRECTION: BASELINE REMOVED
FILTER_TYPE: BUTTERWORTH
FILTER_ORDER: 2
LOW_CUT_FREQUENCY_HZ: 0.100
HIGH_CUT_FREQUENCY_HZ: 40.000
LATE/NORMAL_TRIGGERED: NT
DATABASE_VERSION: 0.5
HEADER_FORMAT: DYNA 1.2
DATA_TYPE: VELOCITY
PROCESSING: manual (Paolucci et al., 2011)
DATA_TIMESTAMP_YYYYMMDD_HHMMSS: 20211011_155808.904
DATA_LICENSE: CC-BY3_0-IT (http://creativecommons.org/licenses/by/3.0/deed.en)
DATA_CITATION: Luzi L, Pacor F, Puglia R (2019). Italian Accelerometric Archive v 3.0 - Istituto Nazionale di Geofisica e Vulcanologia, Dipartimento della Protezione Civile Nazionale. doi: 10.13127/itaca.3.1
DATA_CREATOR: ITACA working group
ORIGINAL_DATA_MEDIATOR_CITATION: data obtained within the DPC-INGV data exchange agreements
ORIGINAL_DATA_MEDIATOR: Archive of Italian Department of Civil Protection
ORIGINAL_DATA_CREATOR_CITATION: Presidency Of Counsil Of Ministers-Civil Protection Department. (1972). Italian Strong Motion Network. Presidency of Counsil of Ministers - Civil Protection Department. https://doi.org/10.7914/SN/IT http://www.fdsn.org/networks/detail/IT/
ORIGINAL_DATA_CREATOR: network: IT (Italian Strong Motion Network (RAN)); owner: Presidency of Counsil of Ministers - Civil Protection Department (PCM - DPC)
USER1: 
USER2: 
USER3: 
USER4: 
USER5: 
[...]
0.405503
0.423208
0.437167
0.447221
0.453633
0.456865
0.457493
0.456208
0.453809
0.451206
0.449134
0.447487
0.444948
0.439810
0.431581
0.421755
0.413075
0.408069
0.407836
0.411561
0.417141
0.422696
0.427905
0.433852
0.441480
0.450379
0.459240
0.467227
0.474810
0.483587
0.495208
0.509791
0.525263
0.538791
0.549028
0.556801
0.563768
0.570848
0.577860
0.584142
0.589542
0.595290
0.603578
0.615617
0.630292
0.645217
0.658838
0.671229
0.683339
0.696000
0.709297
0.722189
0.732746
0.739176
0.740597
0.736897
0.728314
0.715466
0.699702
0.683013
0.667116
0.652832
0.640712
0.631836
0.627439
0.627754
0.631547
0.637157
0.643911
0.652033
0.661218
0.669872
0.676039
0.678813
0.678850
0.678038
0.678556
0.681429
0.685763
0.689946
0.693697
0.698485
0.706015
0.716882
0.730572
0.745812
0.760141
0.769744
0.771253
0.764467
0.752615
0.739088
0.724083
0.704941
0.679532
0.648966
0.617237
0.588805
0.566619
0.551545
0.542752
0.538757
0.538546
0.541588
0.546855
0.552650
0.557860
0.562719
0.567680
0.571858
0.573242
0.570548
0.564367
0.556236
0.546836
0.535316
0.520462
0.502410
0.482739
0.462579
0.441202
0.417340
0.392030
0.369470
0.353970
0.345775
0.340814
0.334820
0.326862
0.319049
0.314099
0.313153
0.314693
0.315490
0.313127
0.307623
0.300892
0.294851
0.289850
0.285075
0.280143
0.275150
0.269494
0.262191
0.253202
0.243454
0.234013
0.225466
0.217390
0.208409
0.197409
0.185032
0.174101
0.168320
0.169913
0.178099
0.189839
0.202256
0.214662
0.228447
0.245302
0.265875
0.289682
0.315497
0.341730
0.366710
0.388937
0.407773
0.424177
0.439703
0.453954
0.464072
0.467923
0.467010
0.465152
0.464684
0.464883
0.463926
0.461100
0.456283
0.447737
0.431761
0.405717
0.371516
0.335297
0.303274
0.277680
0.256091
0.234732
0.212852
0.193112
0.177259
0.162795
0.145156
0.122521
0.097143
0.072556
0.051247
0.034471
0.021907
0.011044
-0.001710
-0.019006
-0.041870
-0.069780
-0.100039
-0.127949
-0.149539
-0.164147
-0.173313
-0.178116
-0.179236
-0.178576
-0.178387
-0.178766
-0.178313
-0.177693
-0.180112
-0.187535
-0.198309
-0.208996
-0.217003
-0.220600
-0.217405
-0.204744
-0.182087
-0.152337
-0.120193
-0.089742
-0.064028
-0.045177
-0.032702
-0.022584
-0.010170
0.006385
0.026234
0.048048
0.071000
0.094222
0.116155
0.134587
0.147446
0.154110
0.156111
0.155853
0.154548
0.152396
0.150419
0.150441
0.153174
0.157561
0.161844
0.164207
0.163032
0.158030
0.150901
0.143922
0.138497
0.135805
0.137554
0.144748
0.156078
0.168186
0.177784
0.183836
0.187658
0.191333
0.196766
0.205374
0.217281
0.230919
0.243739
0.253280
0.258346
0.259987
0.261042
0.263937
0.268862
0.274287
0.278640
0.281165
0.282143
0.282689
0.283802
0.285512
0.286674
0.285301
0.280012
0.271614
0.262458
0.254281
0.247621
0.242778
0.239878
0.237976
0.235295
0.231148
0.227532
0.227832
0.233121
0.240136
0.243689
0.241241
0.234893
0.229145
0.227351
0.230377
0.237547
0.247622
0.258614
0.267310
0.269904
0.264085
0.250426
0.230889
0.206414
0.176827
0.142502
0.105429
0.068679
0.034182
0.000650
-0.035571
-0.077136
-0.123359
-0.170764
-0.215320
-0.254254
-0.286006
-0.308809
-0.320550
-0.320880
-0.312269
-0.298349
-0.282578
-0.268421
-0.258753
-0.254409
-0.253814
-0.254016
-0.252081
-0.246297
-0.236949
-0.225681
-0.213195
-0.198076
-0.178891
-0.156790
-0.134943
-0.115895
-0.099882
-0.084971
-0.068695
-0.050306
-0.031450
-0.013884
0.003598
0.024723
0.051173
0.079468
0.103735
0.120800
0.131545
0.138651
0.144737
0.152123
0.162661
0.176621
0.191445
0.202371
0.205351
0.199911
0.189164
0.176327
0.160779
0.138431
0.106419
0.066248
0.021872
-0.024304
-0.072652
-0.123856
-0.176086
-0.224964
-0.265810
-0.295538
-0.313236
-0.320176
-0.319248
-0.313413
-0.304212
-0.291874
-0.276985
-0.261583
-0.247725
-0.235828
-0.226314
-0.222011
-0.226696
-0.241372
-0.263042
-0.287063
-0.310282
-0.331975
-0.352603
-0.372471
-0.390817
-0.405266
-0.413332
-0.415640
-0.416248
-0.418275
-0.420105
-0.417254
-0.408016
-0.396776
-0.391882
-0.400069
-0.421540
-0.449656
-0.476672
-0.500990
-0.528324
-0.565457
-0.614004
-0.670404
-0.729932
-0.789502
-0.847722
-0.903740
-0.956110
-1.002232
-1.039146
-1.065301
-1.081055
-1.087024
-1.082629
-1.066986
-1.040679
-1.006013
-0.966353
-0.925843
-0.888296
-0.854970
-0.824360
-0.795021
-0.767726
-0.744770
-0.728212
-0.718632
-0.715005
-0.716341
-0.723742
-0.740209
-0.768284
-0.808028
-0.856531
-0.908895
-0.960841
-1.011130
-1.060643
-1.108533
-1.150311
-1.180202
-1.194219
-1.191273
-1.173891
-1.148301
-1.121590
-1.097971
-1.078251
-1.061771
-1.047506
-1.033921
-1.018959
-1.000250
-0.975551
-0.944350
-0.909604
-0.876911
-0.851173
-0.834305
-0.826172
-0.826234
-0.832434
-0.839464
-0.841143
-0.835679
-0.827660
-0.824434
-0.830708
-0.845963
-0.865756
-0.884956
-0.900632
-0.912977
-0.923816
-0.934424
-0.944580
-0.952825
-0.957501
-0.958398
-0.957625
-0.958453
-0.963170
-0.971751
-0.982082
-0.991632
-0.999070
-1.004116
-1.006750
-1.007643
-1.008741
-1.012740
-1.021799
-1.035923
-1.052624
-1.069529
-1.087334
-1.108970
-1.135787
-1.165491
-1.194144
-1.219735
-1.243698
-1.268883
-1.295186
-1.316761
-1.324837
-1.314778
-1.290483
-1.261169
-1.233634
-1.207790
-1.178983
-1.143509
-1.102252
-1.060220
-1.023086
-0.993860
-0.971536
-0.951648
-0.928859
-0.900324
-0.866915
-0.831757
-0.797991
-0.767362
-0.740246
-0.716995
-0.699305
-0.689614
-0.688533
-0.693180
-0.698826
-0.702476
-0.704789
-0.708804
-0.716660
-0.726746
-0.734015
-0.733486
-0.722894
-0.702024
-0.671368
-0.632309
-0.587651
-0.541323
-0.496985
-0.456249
-0.418945
-0.385915
-0.360819
-0.348424
-0.350574
-0.363227
-0.377584
-0.384831
-0.380865
-0.367549
-0.349328
-0.328404
-0.303839
-0.275298
-0.246384
-0.223389
-0.210888
-0.208786
-0.213382
-0.220611
-0.227839
-0.233429
-0.235985
-0.234523
-0.229175
-0.221262
-0.211921
-0.200582
-0.185681
-0.167099
-0.147165
-0.129466
-0.117571
-0.113917
-0.118187
-0.126919
-0.135740
-0.142076
-0.145846
-0.148662
-0.152468
-0.157580
-0.161615
-0.160807
-0.152022
-0.133767
-0.107104
-0.076204
-0.046472
-0.021284
-0.001327
0.013472
0.023220
0.028706
0.031126
0.031366
0.029773
0.025742
0.017388
0.002586
-0.018954
-0.044502
-0.069223
-0.088273
-0.098653
-0.100322
-0.095932
-0.088857
-0.081536
-0.076176
-0.075555
-0.080836
-0.088997
-0.094488
-0.094130
-0.089640
-0.084992
-0.082584
-0.082872
-0.086137
-0.092667
-0.101088
-0.107437
-0.107230
-0.099214
-0.086284
-0.071990
-0.057596
-0.044125
-0.035736
-0.038629
-0.056829
-0.089416
-0.130197
-0.169968
-0.201539
-0.223800
-0.240704
-0.256666
-0.273146
-0.288384
-0.298643
-0.299747
-0.289030
-0.266945
-0.237001
-0.204122
-0.172635
-0.144766
-0.119983
-0.095626
-0.069084
-0.040311
-0.012365
0.011050
0.029046
0.044391
0.060386
0.077531
0.094421
0.111064
0.129156
0.149393
0.170574
0.191260
0.210803
0.229099
0.246562
0.264042
0.281807
0.298836
0.313903
0.327437
0.341985
0.361042
0.387875
0.425021
0.473576
0.532553
0.599574
0.672215
0.747914
0.822598
0.890435
0.945695
0.985509
1.011448
1.027904
1.038370
1.044345
1.048221
1.054390
1.064954
1.075796
1.079907
1.074839
1.065250
1.058245
1.057881
1.064079
1.074848
1.088655
1.105902
1.128955
1.159831
1.197133
1.235940
1.271915
1.305709
1.342834
1.389384
1.447566
1.513903
1.581400
1.644020
1.699223
1.746967
1.787605
1.821020
1.847154
1.867104
1.883605
1.899589
1.915230
1.926394
1.926952
1.913333
1.886807
1.851428
1.810288
1.763513
1.709256
1.646967
1.579654
1.511644
1.444303
1.375792
1.304921
1.233816
1.167215
1.110344
1.066904
1.037749
1.021025
1.013520
1.011509
1.010325
1.003878
0.985787
0.951975
0.902701
0.842614
0.779119
0.720192
0.672853
0.642754
0.633851
0.647422
0.681420
0.731248
0.791254
0.855775
0.919907
0.980850
1.038947
1.096044
1.151593
1.201210
1.240332
1.268699
1.289983
1.307388
1.320794
1.328309
1.329839
1.328540
1.328955
1.334181
1.344446
1.357053
1.367261
1.370573
1.365960
1.357556
1.352708
1.357557
1.373607
1.397282
1.421981
1.441244
1.451529
1.453222
1.449224
1.442496
1.434986
1.427529
1.419120
1.407453
1.392191
1.376895
1.365981
1.360479
1.357941
1.355477
1.351870
1.347630
1.343593
1.339070
1.331604
1.318884
1.300596
1.278502
1.255055
1.231970
1.210214
1.191151
1.177027
1.169712
1.168807
1.171494
1.174555
1.176235
1.175818
1.171838
1.161810
1.144495
1.122213
1.099952
1.081540
1.066285
1.049137
1.024543
0.990863
0.951155
0.909335
0.865399
0.814582
0.751456
0.675179
0.590493
0.503367
0.416471
0.329327
0.241514
0.154464
0.070755
-0.007334
-0.078893
-0.144811
-0.207638
-0.271334
-0.340384
-0.417567
-0.501899
-0.589047
-0.673722
-0.751399
-0.818225
-0.871086
-0.909612
-0.937981
-0.963097
-0.989886
-1.018608
-1.046887
-1.072939
-1.095802
-1.114342
-1.128466
-1.141135
-1.157672
-1.182060
-1.213115
-1.243930
-1.265595
-1.272142
-1.262830
-1.241089
-1.212096
-1.180708
-1.150347
-1.123332
-1.102349
-1.090577
-1.088831
-1.092562
-1.093378
-1.085065
-1.068492
-1.050427
-1.037264
-1.029191
-1.019928
-1.002674
-0.976723
-0.947656
-0.921358
-0.899775
-0.882958
-0.873226
-0.875704
-0.894592
-0.929133
-0.973261
-1.018888
-1.059522
-1.091478
-1.113046
-1.124344
-1.128396
-1.130329
-1.133386
-1.135859
-1.133285
-1.123872
-1.110998
-1.100261
-1.094623
-1.092541
-1.090586
-1.087529
-1.085435
-1.086911
-1.092325
-1.100259
-1.109857
-1.121447
-1.135020
-1.149845
-1.166229
-1.185964
-1.209764
-1.235126
-1.257317
-1.271865
-1.276510
-1.272819
-1.266812
-1.266303
-1.276040
-1.295727
-1.322383
-1.352736
-1.383133
-1.409600
-1.430206
-1.446937
-1.463710
-1.482997
-1.505438
-1.531122
-1.559399
-1.588989
-1.619571
-1.651602
-1.684181
-1.715242
-1.744579
-1.775118
-1.810380
-1.851618
-1.897659
-1.945959
-1.992961
-2.034497
-2.066662
-2.086165
-2.091120
-2.083307
-2.068751
-2.053822
-2.040093
-2.023645
-2.000109
-1.969875
-1.937339
-1.905780
-1.874597
-1.841617
-1.806929
-1.774188
-1.749095
-1.736478
-1.737544
-1.749247
-1.766502
-1.785296
-1.804371
-1.824775
-1.847666
-1.871817
-1.893619
-1.909843
-1.919474
-1.923002
-1.921845
-1.918866
-1.918092
-1.923302
-1.936753
-1.958240
-1.984508
-2.009747
-2.027375
-2.032599
-2.024810
-2.007989
-1.987859
-1.968005
-1.948977
-1.930961
-1.916527
-1.909623
-1.911238
-1.917171
-1.921982
-1.924803
-1.929576
-1.940040
-1.956223
-1.974894
-1.990681
-1.996881
-1.988304
-1.964813
-1.931351
-1.894500
-1.859549
-1.829768
-1.806201
-1.787199
-1.769218
-1.749678
-1.729452
-1.711301
-1.695415
-1.678226
-1.656850
-1.633540
-1.614255
-1.602792
-1.596920
-1.590510
-1.579286
-1.563899
-1.547798
-1.534253
-1.526266
-1.527235
-1.540027
-1.565446
-1.601094
-1.641490
-1.680820
-1.716578
-1.750280
-1.784936
-1.821906
-1.858717
-1.889170
-1.907166
-1.911881
-1.908420
-1.902320
-1.894153
-1.879926
-1.855503
-1.820258
-1.777636
-1.732677
-1.688610
-1.645827
-1.603825
-1.563034
-1.524120
-1.486446
-1.448163
-1.407268
-1.361919
-1.310428
-1.251972
-1.187652
-1.120789
-1.055840
-0.995909
-0.940218
-0.885274
-0.830475
-0.781761
-0.748001
-0.733764
-0.735734
-0.745275
-0.754149
-0.758996
-0.761794
-0.766520
-0.775099
-0.785836
-0.795456
-0.802974
-0.811156
-0.822903
-0.836343
-0.845326
-0.844612
-0.832547
-0.809253
-0.775035
-0.731273
-0.681065
-0.627585
-0.571773
-0.512249
-0.448346
-0.383485
-0.324825
-0.279104
-0.248632
-0.230424
-0.218265
-0.205948
-0.189959
-0.170340
-0.149025
-0.126691
-0.101259
-0.069814
-0.031423
0.012835
0.061891
0.114940
0.169152
0.218673
0.258207
0.288351
0.315785
0.347096
0.383296
0.420425
0.453528
0.479275
0.496642
0.507206
0.515060
0.525632
0.543571
0.570784
0.605948
0.645727
0.686244
0.723899
0.756100
0.782062
0.803214
0.822885
0.844688
0.870306
0.898807
0.928113
0.956962
0.985565
1.014692
1.044630
1.075245
1.106406
1.137865
1.169134
1.199856
1.229727
1.257364
1.280084
1.296427
1.308664
1.321546
1.338681
1.360335
1.383932
1.406406
1.425989
1.441424
1.451115
1.455142
1.457210
1.462344
1.472298
1.484161
1.493367
1.497526
1.498368
1.500876
1.509811
1.526558
1.549145
1.574314
1.599502
1.623880
1.648183
1.674074
1.703922
1.739742
1.781375
1.827147
1.876880
1.932194
1.992793
2.054263
2.110794
2.159227
2.200437
2.238094
2.275727
2.313936
2.351255
2.387757
2.426105
2.468798
2.515386
2.562772
2.607849
2.648806
2.683598
2.708949
2.722583
2.726207
2.725641
2.727808
2.737042
2.753553
2.774874
2.798358
2.822135
2.843815
2.859279
2.864770
2.860972
2.853719
2.849762
2.852142
2.859564
2.869185
2.879288
2.889645
2.900048
2.909068
2.914995
2.918192
2.921761
2.929402
2.942941
2.961667
2.982876
3.002944
3.019308
3.032181
3.044032
3.057380
3.073035
3.089979
3.106799
3.122824
3.137104
3.146602
3.146831
3.135496
3.115103
3.090905
3.066416
3.041870
3.017137
2.994979
2.979809
2.973001
2.970667
2.966515
2.956355
2.940006
2.920105
2.899790
2.880612
2.861498
2.839878
2.814129
2.784843
2.754116
2.723953
2.694879
2.665686
2.634746
2.601841
2.568876
2.539125
2.515408
2.498174
2.485064
2.472748
2.459495
2.445695
2.431805
2.416723
2.399428
2.382370
2.371793
2.373209
2.386614
2.406717
2.427614
2.447062
2.466634
2.488390
2.512117
2.535776
2.557314
2.574881
2.585929
2.587871
2.580384
2.566518
2.550879
2.536765
2.525755
2.519547
2.520118
2.527327
2.537661
2.546303
2.550501
2.550850
2.549265
2.546226
2.540491
2.530535
2.514867
2.491168
2.456324
2.408100
2.347303
2.278556
2.208765
2.144379
2.089266
2.044318
2.008694
1.981277
1.960930
1.946150
1.935582
1.929075
1.927595
1.931616
1.939788
1.949110
1.955763
1.956044
1.947789
1.931580
1.910608
1.888669
1.867336
1.844988
1.818940
1.788156
1.753740
1.717977
1.684215
1.657111
1.640896
1.636433
1.640800
1.650330
1.663373
1.679535
1.696715
1.709981
1.714187
1.707716
1.693242
1.674424
1.651840
1.622516
1.583194
1.533740
1.478213
1.423482
1.376138
1.339290
1.311338
1.287438
1.262339
1.232541
1.196648
1.154907
1.109546
1.065372
1.028713
1.004689
0.994700
0.995835
1.002677
1.010744
1.019267
1.030705
1.047247
1.067978
1.089434
1.108135
1.122250
1.131666
1.137546
1.142099
1.147951
1.156476
1.165994
1.171773
1.168328
1.152015
1.122181
1.081318
1.034674
0.988436
0.946758
0.909792
0.874285
0.836473
0.795340
0.753302
0.713524
0.677062
0.643202
0.612307
0.587618
0.573934
0.574347
0.587845
0.609888
0.635861
0.664521
0.698042
0.738757
0.786179
0.836611
0.884597
0.925026
0.955107
0.974492
0.983069
0.979319
0.961576
0.930659
0.890933
0.849068
0.811874
0.784323
0.767944
0.760372
0.756872
0.753108
0.747087
0.738685
0.727440
0.711081
0.686674
0.653469
0.614496
0.575125
0.539571
0.508062
0.477065
0.442070
0.400019
0.349687
0.290557
0.221751
0.142890
0.056253
-0.033064
-0.119969
-0.202201
-0.280571
-0.356963
-0.431899
-0.503338
-0.567388
-0.620323
-0.660503
-0.689356
-0.711435
-0.733382
-0.761460
-0.798739
-0.844316
-0.895191
-0.948746
-1.003573
-1.058411
-1.110636
-1.155960
-1.190077
-1.211274
-1.221804
-1.226447
-1.229310
-1.231594
-1.231759
-1.227225
-1.216180
-1.198848
-1.177779
-1.156863
-1.139840
-1.129640
-1.128434
-1.137453
-1.156493
-1.183965
-1.217696
-1.255463
-1.294964
-1.334212
-1.372168
-1.408115
-1.440173
-1.465050
-1.479307
-1.480696
-1.469057
-1.447008
-1.419716
-1.393048
-1.371241
-1.355869
-1.346567
-1.342320
-1.342069
-1.345074
-1.351771
-1.363744
-1.381926
-1.405521
-1.433250
-1.464699
-1.499742
-1.537318
-1.575342
-1.611401
-1.643316
-1.669670
-1.690166
-1.705007
-1.713876
-1.715714
-1.709175
-1.693358
-1.668920
-1.638834
-1.607509
-1.578639
-1.553997
-1.534377
-1.521144
-1.516396
-1.521857
-1.537871
-1.563285
-1.595886
-1.632438
-1.668154
-1.696869
-1.712825
-1.713294
-1.700082
-1.678796
-1.656741
-1.640733
-1.635128
-1.640699
-1.655275
-1.675739
-1.700070
-1.728291
-1.761536
-1.799909
-1.841416
-1.883005
-1.922211
-1.958131
-1.991508
-2.023826
-2.055959
-2.087666
-2.118544
-2.149463
-2.182463
-2.218723
-2.257350
-2.296914
-2.337187
-2.378153
-2.417939
-2.452977
-2.480233
-2.498806
-2.509917
-2.516339
-2.521607
-2.528381
-2.536644
-2.543716
-2.546399
-2.543301
-2.535695
-2.526383
-2.517034
-2.506216
-2.490232
-2.466006
-2.433374
-2.395264
-2.356400
-2.321455
-2.293061
-2.270650
-2.251321
-2.232236
-2.212587
-2.194077
-2.180009
-2.173407
-2.175269
-2.184282
-2.197825
-2.212991
-2.227391
-2.239932
-2.251120
-2.262682
-2.276934
-2.296249
-2.322533
-2.356525
-2.397069
-2.440961
-2.483697
-2.520968
-2.550347
-2.572281
-2.589470
-2.604553
-2.617914
-2.627833
-2.632689
-2.632832
-2.630602
-2.628944
-2.629969
-2.634132
-2.640186
-2.646384
-2.652411
-2.659771
-2.669723
-2.681078
-2.690266
-2.693443
-2.688686
-2.676748
-2.660246
-2.642083
-2.624075
-2.606742
-2.590583
-2.577509
-2.570519
-2.571616
-2.580070
-2.592896
-2.607094
-2.621277
-2.635476
-2.650683
-2.669530
-2.696586
-2.736067
-2.787992
-2.846559
-2.902365
-2.946376
-2.973177
-2.982440
-2.977965
-2.964527
-2.944682
-2.918126
-2.883721
-2.841648
-2.793429
-2.740374
-2.682718
-2.620647
-2.556177
-2.493731
-2.438607
-2.394637
-2.362915
-2.342194
-2.329987
-2.323390
-2.319721
-2.317194
-2.315188
-2.313465
-2.310677
-2.304035
-2.291201
-2.272357
-2.249602
-2.224316
-2.195871
-2.162798
-2.123948
-2.078097
-2.023593
-1.959294
-1.885663
-1.804494
-1.717662
-1.626795
-1.534633
-1.446066
-1.366922
-1.301454
-1.250702
-1.212831
-1.185230
-1.166680
-1.157300
-1.156148
-1.159349
-1.161094
-1.156501
-1.143780
-1.124430
-1.102003
-1.080399
-1.062158
-1.047339
-1.034002
-1.020398
-1.006771
-0.994813
-0.985943
-0.980765
-0.979615
-0.982597
-0.988547
-0.993817
-0.992461
-0.978699
-0.950167
-0.909265
-0.861721
-0.813651
-0.768721
-0.726628
-0.683876
-0.636530
-0.583092
-0.525546
-0.467938
-0.413949
-0.365472
-0.322456
-0.282989
-0.243664
-0.201030
-0.153574
-0.102626
-0.051717
-0.005118
0.033893
0.064342
0.087291
0.104513
0.118053
0.130519
0.144067
0.158434
0.170613
0.177026
0.176001
0.168259
0.155448
0.138896
0.120225
0.102675
0.090250
0.084481
0.082511
0.079371
0.072121
0.061322
0.048953
0.035916
0.021857
0.006626
-0.009009
-0.024258
-0.039553
-0.056536
-0.076816
-0.100951
-0.128564
-0.158849
-0.190401
-0.220869
