EVENT_NAME: L_AQUILA
EVENT_ID: IT-2009-0009
EVENT_DATE_YYYYMMDD: 20090406
EVENT_TIME_HHMMSS: 013240
EVENT_LATITUDE_DEGREE: 42.3420
EVENT_LONGITUDE_DEGREE: 13.3800
EVENT_DEPTH_KM: 8.3
HYPOCENTER_REFERENCE: INGV-CNT_Seismic_Bulletin
MAGNITUDE_W: 6.1
MAGNITUDE_W_REFERENCE: INGV-CNT_Seismic_Bulletin
MAGNITUDE_L: 
MAGNITUDE_L_REFERENCE: 
FOCAL_MECHANISM: Normal faulting
NETWORK: IT
STATION_CODE: GSG
STATION_NAME: 
STATION_LATITUDE_DEGREE: 42.460000
STATION_LONGITUDE_DEGREE: 13.550000
STATION_ELEVATION_M: 1200
LOCATION: 
SENSOR_DEPTH_M: 200.0
VS30_M/S: 
SITE_CLASSIFICATION_EC8: B (inferred from geology)
MORPHOLOGIC_CLASSIFICATION: 
EPICENTRAL_DISTANCE_KM: 19.2
EARTHQUAKE_BACKAZIMUTH_DEGREE: 46.8
DATE_TIME_FIRST_SAMPLE_YYYYMMDD_HHMMSS: 
DATE_TIME_FIRST_SAMPLE_PRECISION: 
SAMPLING_INTERVAL_S: 0.005000
NDATA: 23000
DURATION_S: 115.000
STREAM: HNZ
UNITS: cm/s^2
INSTRUMENT: sensor = FBA-3 [Kinemetrics] | digitizer = Everest [Kinemetrics]
INSTRUMENT_ANALOG/DIGITAL: D
INSTRUMENTAL_FREQUENCY_HZ: 214.000
INSTRUMENTAL_DAMPING: 0.700000
FULL_SCALE_G: 1.0
N_BIT_DIGITAL_CONVERTER: 24
PGA_CM/S^2: 18.562780
TIME_PGA_S: 39.815000
BASELINE_CORRECTION: BASELINE NOT REMOVED
FILTER_TYPE: 
FILTER_ORDER: 
LOW_CUT_FREQUENCY_HZ: 
HIGH_CUT_FREQUENCY_HZ: 
LATE/NORMAL_TRIGGERED: NT
DATABASE_VERSION: 0.5
HEADER_FORMAT: DYNA 1.2
DATA_TYPE: ACCELERATION
PROCESSING: converted to cm/s^2
DATA_TIMESTAMP_YYYYMMDD_HHMMSS: 20211011_155808.511
DATA_LICENSE: CC-BY3_0-IT (http://creativecommons.org/licenses/by/3.0/deed.en)
DATA_CITATION: Luzi L, Pacor F, Puglia R (2019). Italian Accelerometric Archive v 3.0 - Istituto Nazionale di Geofisica e Vulcanologia, Dipartimento della Protezione Civile Nazionale. doi: 10.13127/itaca.3.1
DATA_CREATOR: ITACA working group
ORIGINAL_DATA_MEDIATOR_CITATION: data obtained within the DPC-INGV data exchange agreements
ORIGINAL_DATA_MEDIATOR: Archive of Italian Department of Civil Protection
ORIGINAL_DATA_CREATOR_CITATION: Presidency Of Counsil Of Ministers-Civil Protection Department. (1972). Italian Strong Motion Network. Presidency of Counsil of Ministers - Civil Protection Department. https://doi.org/10.7914/SN/IT http://www.fdsn.org/networks/detail/IT/
ORIGINAL_DATA_CREATOR: network: IT (Italian Strong Motion Network (RAN)); owner: Presidency of Counsil of Ministers - Civil Protection Department (PCM - DPC)
USER1: 
USER2: 
USER3: 
USER4: 
USER5: 
[...]
2.626313
3.088243
3.661154
4.655999
6.315790
7.203046
6.747314
5.016889
3.060762
1.764317
0.346952
-1.396337
-1.969598
-0.461250
1.419565
1.967332
0.793679
-1.439256
-3.227100
-4.104300
-3.956248
-2.990639
-2.267806
-2.190506
-2.172964
-1.996846
-1.802485
-1.057666
-0.051945
0.314792
-0.123983
-0.949259
-1.773482
-2.294002
-1.851367
-1.254601
-1.187007
-0.622984
-0.006688
-0.262562
-0.706366
-1.588827
-3.088287
-3.667980
-3.290952
-3.189795
-4.133068
-5.599199
-6.195732
-5.805254
-5.016231
-4.502495
-4.722584
-5.369754
-4.917530
-1.976498
2.262617
5.503845
6.219193
5.179559
4.785339
5.619503
7.079670
8.559015
8.665201
7.331802
5.941802
4.384922
3.594846
4.595890
5.847077
6.805436
7.138610
6.729305
6.096870
5.256625
4.666524
3.792950
2.106847
0.132710
-1.254834
-1.227236
-0.566968
-0.308404
-0.558197
-1.483811
-2.365805
-1.712788
0.365546
2.300156
4.003684
6.146103
7.877347
8.905872
9.505796
8.982237
7.778646
7.343613
6.808827
5.198854
2.835176
-0.501713
-2.906790
-3.049579
-1.613620
1.043004
3.154785
3.726058
3.805112
4.631675
5.867542
6.145519
4.848372
2.388683
0.151655
-1.012994
-1.260448
-1.387683
-1.152976
-0.485926
0.192702
1.220994
1.774842
1.871204
2.015630
2.871663
4.036428
3.976085
3.517429
2.588541
0.856244
-1.019659
-2.013686
-1.643206
-1.166541
-0.765305
-0.398919
-0.542410
-1.175780
-1.014397
0.318768
1.722217
3.506436
5.435550
6.574003
6.061787
4.631324
4.063208
3.235009
1.790512
1.064405
0.604112
0.015999
-0.377635
-0.724375
-1.476210
-2.833466
-4.361460
-5.255733
-4.961267
-3.829480
-2.130864
-0.136613
1.117966
1.332792
1.200996
1.335599
0.553592
-1.243959
-1.965037
-1.358213
0.369756
1.421553
0.748656
0.305904
0.004656
-0.494813
-1.127833
-1.766115
-1.574911
-0.124217
2.022413
2.997378
2.616724
2.411721
2.897858
2.204612
-0.603688
-3.607052
-6.395940
-8.557305
-8.297221
-6.132699
-4.040799
-3.131674
-3.286625
-3.358429
-2.999644
-2.164193
-0.319514
2.185083
4.576126
6.116166
6.661828
6.375431
5.585473
4.893396
4.672839
5.285744
5.954432
5.868595
4.871527
3.341194
2.725014
3.327512
3.917145
3.426564
2.899495
3.644548
4.377554
4.261897
4.045550
3.980996
3.774707
3.399081
3.402122
3.704423
3.590286
3.090699
2.591815
2.841257
3.937142
5.332756
7.351916
9.785645
11.999520
13.453130
14.318870
15.174550
15.106610
13.718720
11.255050
7.945993
4.852466
3.096079
2.578249
1.513705
0.300993
0.790171
2.381432
2.986385
1.023007
-1.544389
-2.251902
-1.351664
0.230475
1.329986
2.199350
2.949314
3.282956
4.376736
6.138619
7.755842
8.277882
7.132529
6.385489
7.314728
9.163617
11.737210
13.751690
13.657550
12.364500
10.927720
9.551522
8.218591
6.754682
5.346555
3.980061
3.073275
3.066609
3.282956
2.652977
0.337362
-2.941405
-5.556397
-7.106728
-8.166711
-9.152903
-10.476010
-12.579960
-14.007140
-13.534340
-12.961780
-13.549540
-14.318800
-14.284890
-13.352490
-11.471440
-8.655188
-5.657203
-3.252009
-1.552925
-0.455988
-0.176140
-1.060122
-3.441225
-6.794487
-9.896551
-12.117670
-12.784140
-11.703220
-9.409829
-6.081477
-1.852537
2.827575
6.949277
10.005270
12.028870
12.963840
13.036230
12.188260
11.252590
11.233530
11.469990
10.440300
7.742978
5.269606
4.088118
3.665715
3.036788
1.609015
0.169430
-0.478207
0.104994
1.129309
2.015513
2.685838
2.267879
0.861507
-0.993698
-2.028187
-1.118127
1.027802
3.331254
4.955844
5.110094
3.933751
2.054690
0.064882
-0.798752
-1.113449
-1.665426
-1.597247
-1.312722
-1.967961
-3.380531
-3.504024
-2.021872
-0.746478
-0.428506
-0.545684
-0.651168
-1.054743
-0.867047
-0.585562
-1.429081
-2.500642
-3.715577
-4.554301
-4.619907
-4.491970
-4.246036
-3.878246
-2.979529
-1.481472
0.040792
0.733804
0.569029
0.180774
-0.136028
-0.571763
-1.736411
-3.487418
-4.750183
-4.634174
-3.674763
-2.774175
-3.041159
-4.833681
-6.976803
-8.351249
-8.359319
-8.476964
-9.755633
-12.395070
-15.715350
-17.289419
-17.283569
-17.020100
-17.293751
-17.735800
-17.387541
-16.776970
-15.656760
-14.194960
-13.181520
-12.577970
-12.562770
-13.555040
-15.478070
-17.047701
-17.515940
-16.851351
-15.344520
-13.553630
-10.785450
-7.558250
-5.294909
-4.680367
-5.615688
-6.101007
-5.485061
-4.938346
-4.707148
-3.957417
-2.703190
-2.277629
-3.022097
-4.729133
-6.481427
-6.506336
-4.382042
-1.151923
2.041475
4.458831
5.869764
6.352393
5.932914
5.289720
4.483272
2.700924
0.344262
-1.204782
-0.548140
1.827467
3.789909
4.046719
2.717530
1.243564
1.283325
3.420365
5.886955
6.215451
4.927544
3.973278
3.404461
2.231276
-0.097904
-3.757560
-7.179584
-8.971171
-9.204592
-7.896219
-6.275722
-4.538865
-2.252136
-0.459496
0.011789
-0.765305
-0.976624
0.373147
2.194087
2.994454
2.275247
0.987456
0.073068
0.328825
0.959506
0.679775
-0.322437
-1.332368
-1.604966
-1.642154
-2.181033
-2.951463
-3.092614
-2.882816
-3.712887
-4.910513
-5.209657
-4.437474
-2.894043
-1.086785
0.845485
1.755429
0.294210
-2.291546
-4.080911
-5.136216
-5.915416
-6.252684
-5.564700
-3.882573
-2.871473
-3.408013
-4.163005
-4.228611
-4.926886
-6.029203
-5.870743
-5.681410
-6.390795
-6.830154
-6.339105
-5.517571
-5.793560
-7.149529
-8.347624
-9.091156
-9.573083
-9.535895
-8.258044
-6.215261
-4.167566
-1.169699
1.994463
3.322600
3.145897
2.410902
2.740334
4.920176
6.611074
6.719832
6.119557
5.905081
6.672704
7.104579
6.669663
5.310536
2.612982
-0.341149
-2.522861
-3.474905
-3.648685
-3.725400
-3.780832
-4.442736
-5.142297
-4.491502
-2.941756
-1.818155
-0.882250
0.342508
0.792627
0.192819
-0.952299
-2.574668
-4.264396
-5.321924
-5.110722
-3.607052
-1.142100
1.808522
3.779618
4.094316
3.779618
3.601395
3.666065
3.307280
1.770398
-0.598309
-1.812776
-0.848102
0.039271
-0.678299
-2.305345
-3.313522
-3.436548
-3.324983
-1.597598
1.815655
5.069865
6.944248
7.290521
7.025408
6.135929
4.725230
3.709686
3.342714
3.974915
4.646176
3.820783
2.777990
3.048833
4.453919
5.257327
4.141327
2.221803
0.726553
1.016341
2.666776
3.436270
3.080174
2.585500
1.872023
-0.102465
-2.535141
-4.847481
-7.267877
-8.414282
-7.819036
-6.817875
-6.594746
-6.786534
-7.213849
-7.530417
-6.503763
-3.736743
-0.343370
1.246137
1.060429
1.306831
2.756356
4.882988
7.218951
8.896634
9.097427
8.646139
8.402193
8.561120
8.441019
7.726957
7.439742
7.766133
8.261158
9.063279
10.260910
11.692190
13.008510
13.461090
13.282050
12.198320
10.570220
10.623200
11.388250
10.360890
7.010907
2.622688
-0.690695
-2.135074
-1.777575
-0.634562
-0.261042
-0.813136
-1.777926
-2.413519
-2.084086
-1.231562
-1.008433
-2.310023
-3.336560
-1.882358
0.569731
2.559772
4.506778
6.763803
8.975337
10.256580
10.773940
11.032150
11.567290
12.837190
13.402610
11.990510
9.197532
5.993374
3.480592
2.355003
2.417802
3.313010
4.215938
4.464211
4.334987
4.788731
6.373794
8.007389
8.904352
9.599586
10.456440
11.064660
10.504270
8.063289
5.408185
5.078285
6.504889
7.659129
7.502306
6.581019
5.256040
3.504682
2.104274
1.461782
2.033756
3.557307
5.577053
7.228306
7.873839
8.212744
7.636559
6.403381
5.303753
4.168458
3.743716
4.341419
5.297439
5.845323
5.926482
5.719725
5.588279
5.930926
6.082837
6.063190
6.241881
6.344324
6.343272
6.053133
5.808485
5.777378
4.910470
3.114439
2.089305
2.584097
3.456969
4.428776
5.056533
4.319901
3.631801
3.423991
2.208472
0.637559
-0.022475
0.891912
2.415814
2.538839
1.880793
0.950618
-0.145734
0.214922
1.920204
3.530644
4.545136
5.134535
5.051856
4.689211
4.978999
5.235341
5.630262
7.151123
8.759926
9.253781
9.479367
10.788210
12.465890
12.655690
11.199500
9.622507
8.212860
7.109023
7.547915
8.166667
7.453658
6.979799
7.502892
8.503584
9.578770
9.653498
8.724492
7.984234
7.204332
5.328546
2.667010
0.520380
-0.372723
0.281229
2.003117
3.463986
4.288443
4.609689
4.476139
4.398839
3.564207
1.135741
-1.179990
-1.821430
-0.816527
0.747018
1.600127
1.877168
1.900323
1.875297
2.104391
2.018554
1.247072
0.378410
0.466937
1.562354
2.731213
3.674018
4.306335
4.211611
3.145663
2.311733
2.324480
2.535682
3.222379
3.535789
3.167532
2.995273
2.752496
2.167892
0.332919
-2.546952
-4.529743
-4.998573
-4.681770
-4.601430
-5.056226
-4.990621
-3.278322
-1.082809
-0.219526
-0.783198
-2.256462
-3.467421
-4.047815
-4.312226
-3.813927
-3.612666
-4.371868
-5.268246
-6.027449
-6.261688
-6.155971
-5.808880
-5.687491
-6.305542
-6.655440
-6.737301
-6.202631
-4.813450
-3.452452
-2.433399
-2.468482
-2.967718
-2.988183
-2.772538
-2.732777
-3.395851
-3.894268
-2.634310
0.295029
2.987788
4.212663
4.126358
3.484334
3.594262
4.401645
4.868253
4.643135
4.019471
3.458489
2.376169
0.384140
-1.693025
-3.144421
-3.293408
-2.561570
-2.241377
-1.679225
-0.070773
1.541070
2.200987
1.768761
0.571719
-0.330624
-0.365590
-0.467098
-1.270973
-2.248627
-3.206752
-4.745388
-6.926283
-9.632725
-12.410850
-14.008900
-14.167010
-13.016390
-11.016760
-8.964739
-7.226713
-5.725148
-4.098335
-2.955906
-2.208281
-1.518193
-0.607197
0.853905
1.564342
1.684561
1.392668
-0.009728
-1.756759
-3.415264
-4.553483
-4.630198
-4.161368
-4.331873
-5.365427
-6.436169
-6.991187
-7.101816
-6.953648
-5.865481
-3.433390
-0.688941
0.990496
1.681871
2.222505
2.952120
3.555436
2.840439
0.769238
-1.631161
-3.415965
-3.906780
-4.290358
-5.819054
-7.975624
-10.061680
-11.407470
-11.290760
-9.677749
-7.373127
-5.545287
-4.774741
-5.149431
-6.226839
-7.263667
-8.332421
-9.271250
-9.164714
-7.605612
-4.972260
-2.042220
0.291988
1.461314
1.489030
1.246020
1.914824
3.286581
4.237572
4.223890
3.545262
2.650170
1.755780
1.059844
0.670420
0.877294
1.525166
1.947452
1.231519
-0.861901
-3.435027
-6.037623
-8.378614
-9.717509
-9.506191
-8.414048
-7.409965
-6.974698
-7.605145
-8.630746
-8.821716
-8.032576
-7.170345
-6.770981
-6.432427
-5.325081
-3.018705
-0.070072
2.790620
4.566536
5.047879
5.288434
6.326549
8.086911
9.428496
9.984567
9.615958
8.029842
5.624064
3.518131
1.762329
-0.707301
-3.620501
-6.443654
-8.259097
-8.514386
-7.722557
-5.721756
-3.308727
-1.511761
-0.668008
-0.964462
-1.537021
-1.944455
-2.358672
-3.145590
-4.909227
-6.919266
-8.130692
-8.257577
-7.260977
-6.156906
-6.217249
-7.204727
-8.578939
-10.364910
-11.989500
-13.589650
-15.881880
-17.769011
-18.193159
-17.506941
-16.446720
-15.680620
-15.343000
-15.186760
-14.575610
-13.061180
-10.768960
-8.164489
-5.929800
-4.444257
-4.292931
-5.709945
-7.775064
-9.451344
-10.342580
-10.762990
-11.002030
-11.061080
-10.698320
-9.382815
-7.096904
-4.307666
-1.971118
-0.958381
-0.770334
-0.713616
-0.284430
0.747369
1.984289
3.389492
4.235233
4.010934
3.232553
1.895528
0.155514
-1.909372
-4.058223
-5.683632
-6.810157
-7.685018
-8.195362
-7.950247
-7.518723
-7.344125
-6.686313
-5.172703
-2.979412
-0.483002
2.132341
4.413807
5.490982
5.233353
4.167289
2.817518
1.691811
0.822915
-0.215199
-0.864007
-1.206887
-2.396913
-3.973205
-4.999976
-5.564116
-6.278177
-7.191513
-7.728521
-7.720919
-7.337810
-6.620006
-5.346950
-4.075648
-3.160676
-1.937204
-0.476921
1.097383
2.943934
4.789666
6.083070
6.252873
5.527936
4.640563
3.825694
2.633564
0.866418
-1.199403
-3.386846
-5.239361
-6.536507
-7.405053
-7.373010
-6.021952
-3.446371
-0.127842
2.693322
4.175358
4.394745
3.210801
0.934012
-1.369440
-3.116003
-4.283809
-4.961384
-5.544118
-6.650411
-7.953288
-8.508773
-8.419895
-8.008135
-7.236068
-6.656726
-6.552529
-6.581297
-6.581882
-6.353256
-6.067444
-6.515925
-7.567255
-8.069413
-7.866983
-7.895634
-8.338502
-8.294882
-7.187770
-5.470209
-3.785275
-2.340545
-1.310734
-0.967268
-1.415282
-1.975328
-1.626133
-0.646490
0.517457
1.645501
1.951311
1.701869
1.845710
2.952939
4.807676
6.523132
7.596797
7.781687
7.034997
5.540683
4.184012
3.698108
3.727929
3.884166
3.714948
2.880199
1.259702
-0.602987
-1.890193
-2.783297
-3.205348
-2.959999
-2.544613
-2.286517
-2.357385
-2.921875
-3.907950
-5.260294
-6.864419
-8.216646
-8.914687
-8.726523
-7.575090
-5.945822
-4.318307
-3.271071
-3.124423
-2.945732
-2.146652
-1.031939
0.028396
0.473836
0.257489
-0.220111
-0.907861
-1.484045
-1.371662
-1.048428
-1.343010
-2.083853
-2.484738
-2.023743
-0.728585
0.977866
2.416398
3.323769
3.636595
3.445859
3.266701
3.195949
2.747585
1.480493
-0.285249
-1.925510
-2.766223
-2.760492
-2.794757
-2.981283
-3.200320
-3.708911
-5.092011
-7.804301
-10.649670
-11.988800
-11.315670
-8.933281
-5.381215
-1.666478
1.089314
2.700573
3.742196
5.087407
6.899342
8.527324
9.695598
10.505090
11.325920
12.341110
12.982790
12.624580
11.081620
8.700869
6.226561
4.120394
2.404470
1.243330
0.694510
0.495003
0.517807
0.433725
0.360517
1.092355
2.595089
4.027891
4.657987
4.837263
5.548401
6.742403
7.834546
9.025857
10.807150
12.867590
14.828280
16.329611
17.177931
18.018641
18.562780
17.879950
15.907910
13.070960
10.029820
7.378696
5.479053
3.958192
2.050480
0.119963
-0.848921
-0.477973
0.950384
2.635786
3.939598
4.570630
4.404685
3.672614
2.801730
2.469959
2.819623
2.943817
2.375936
1.671463
1.066042
0.293508
-0.490136
-1.115437
-1.208992
0.037868
2.677769
5.856900
8.363251
9.635488
9.765179
8.955808
8.240108
8.404766
9.397506
10.817680
11.725170
11.599800
10.750200
9.715594
8.683561
7.824488
7.719706
8.506508
9.592336
10.278450
10.260670
9.476794
7.835598
5.907420
4.606532
3.636245
2.659760
2.306588
2.692270
3.095845
2.655550
1.315368
-0.304779
-1.652562
-2.471874
-3.086299
-3.697684
-3.778142
-2.685063
-0.908211
0.013544
-0.516799
-1.644610
-2.342183
-2.390013
-2.411414
-2.725877
-3.094368
-3.217511
-2.999410
-2.911935
-3.275515
-4.048283
-4.888060
-5.433488
-5.937752
-6.318874
-6.169653
-5.386360
-4.193060
-3.238912
-2.726345
-2.361011
-2.160451
-2.099991
-1.938491
-1.354237
0.085581
2.191748
3.923811
4.588171
4.555076
4.118991
3.278863
2.497792
2.107198
2.102871
2.185199
2.021595
1.729584
1.401790
1.123345
1.047097
1.352322
2.280275
3.590753
5.064251
6.733164
8.378571
9.830434
10.624250
10.283240
9.287930
8.340096
7.646499
7.380568
7.274967
6.519390
5.391345
4.806974
4.783000
5.135471
5.637630
5.682653
5.284224
5.094540
5.459173
6.214983
7.134517
8.261860
9.114968
8.994750
8.045864
6.891039
6.167037
5.801118
5.315097
4.775282
4.309727
3.809439
3.354643
3.273717
3.595431
3.932581
3.921589
3.429253
2.494050
1.090952
-0.671282
-2.153668
-2.686934
-2.177408
-1.067139
-0.050893
0.502254
0.587623
0.439338
0.409400
0.148497
-0.673387
-1.533396
-2.089583
-2.553267
-3.129802
-3.528816
-3.658976
-3.978935
-4.481679
-4.937294
-5.207201
-5.158786
-4.999274
-4.966296
-5.020675
-5.070961
-5.313504
-5.837765
-6.265781
-6.549605
-7.074568
-7.681860
-7.552870
-6.103696
-3.896606
-2.097535
-0.769749
0.608556
2.002532
3.179226
3.726993
3.623615
3.255591
2.947793
2.847689
2.757993
2.736709
2.884877
3.455332
4.375917
4.701607
4.172434
3.278746
2.595206
2.287760
2.045919
1.785484
1.257012
0.372329
-0.216486
-0.131000
0.230709
0.179254
-0.828222
-2.632087
-4.446946
-5.574289
-5.792859
-5.202641
-4.066410
-2.938715
-2.258684
-1.962464
-1.612801
-0.872076
0.118443
0.952489
1.416758
1.800219
2.266242
2.473350
2.167658
1.571008
1.166381
1.175385
1.371150
1.239588
0.567743
-0.450725
-1.637827
-2.852878
-4.027467
-5.025821
-5.689480
-6.175851
-6.658831
-6.912483
-6.640705
-5.855190
-4.928991
-4.127454
-3.350477
-2.487310
-1.388151
-0.152167
1.033649
1.864655
1.974349
1.674504
1.333143
1.256077
1.520839
2.046504
3.096547
4.251138
4.650854
4.270433
3.807451
3.432294
2.834825
2.139123
1.406584
0.455125
-0.666020
-1.828212
-3.107817
-4.215046
-4.393737
-3.340419
-1.450365
0.720589
2.850613
4.616004
5.714111
5.996882
5.476714
4.552620
3.681502
2.913529
2.305769
2.271855
2.909202
3.714013
4.001345
3.568534
2.487968
0.824903
-0.673153
-1.426275
-1.445454
-0.846348
0.024770
0.918809
1.755312
2.473935
2.834357
2.725716
2.407861
2.163799
2.193619
2.293958
1.955989
0.995525
-0.252271
-1.276001
-1.857215
-1.973340
-1.600288
-0.972648
-0.349218
0.128500
0.233048
-0.247944
-1.442413
-3.009701
-4.310238
-5.065348
-5.368234
-5.491610
-5.516168
-5.242518
-4.683759
-3.930988
-3.071564
-2.403461
-1.951472
-1.624846
-1.439957
-1.485449
-1.848795
-2.269209
-2.705528
-3.142666
-3.213301
-2.943744
-2.677345
-2.429657
-1.871365
-0.923414
0.115402
0.819524
0.893199
0.497225
-0.341850
-1.583799
-2.574551
-2.914157
-2.697459
-2.296808
-1.892181
-1.108186
0.084061
1.361093
2.333251
2.620232
2.255483
1.535808
1.001723
0.981024
1.326244
1.993762
2.854472
3.658932
4.271720
4.623372
4.872229
5.033495
5.112550
5.316267
5.386082
5.128220
4.789783
4.596591
4.584078
4.521630
4.401645
4.288677
4.229152
4.277216
4.230205
4.125072
4.213950
4.786860
5.633186
6.226210
6.492843
6.509449
6.572132
6.628733
6.496118
6.542778
6.839232
7.267132
7.652697
7.536922
6.809295
5.738085
4.523969
3.344001
2.381315
1.811329
1.773556
2.143100
2.350442
1.835302
0.614754
-0.834069
-1.834410
-2.438428
-3.152139
-3.676868
-3.579453
-2.757101
-1.494453
-0.298932
0.729711
1.582469
2.202741
2.678237
3.016791
3.041583
2.796000
2.511942
2.230340
1.865240
1.431143
1.128374
1.001021
0.892848
0.615222
0.126161
-0.455871
-1.081172
-1.478549
-1.379146
-1.012175
-0.643450
-0.269579
-0.120124
-0.684380
-2.005383
-3.440056
-4.303105
-4.476066
-4.154819
-3.530103
-2.685063
-1.628822
-0.657951
-0.210288
-0.402544
-1.036149
-1.784826
-2.337154
-2.495029
-2.303240
-2.071340
-2.142910
-2.745757
-3.619565
-4.257964
-4.675105
-5.147326
-5.840922
-6.616147
-7.246125
-7.620347
-7.503403
-6.895994
-6.069081
-5.330461
-4.898118
-4.860344
-5.099730
-5.278888
-5.176913
-4.609967
-3.736276
-3.058934
-2.836155
-3.020694
-3.165471
-2.973448
-2.717691
-2.452695
-2.001173
-1.470714
-0.923882
-0.423711
-0.213094
-0.312731
-0.482534
-0.514694
-0.358924
-0.040835
0.464247
1.151996
1.744202
1.996451
2.003117
1.932717
1.894476
1.852259
1.658950
1.117966
0.250473
-0.628364
-1.224312
-1.356693
-1.111928
-0.556911
0.155280
0.519328
0.375018
0.016467
-0.273321
-0.445814
-0.653039
-1.038721
-1.597247
-2.134490
-2.435504
-2.471055
-2.227577
-1.734423
-1.368153
-1.348975
-1.509539
-1.677705
-1.738633
-1.675834
-1.588477
-1.669753
-2.028889
-2.577942
-3.092263
-3.493733
-3.769488
-3.701426
