EVENT_NAME: L_AQUILA
EVENT_ID: IT-2009-0009
EVENT_DATE_YYYYMMDD: 20090406
EVENT_TIME_HHMMSS: 013240
EVENT_LATITUDE_DEGREE: 42.3420
EVENT_LONGITUDE_DEGREE: 13.3800
EVENT_DEPTH_KM: 8.3
HYPOCENTER_REFERENCE: INGV-CNT_Seismic_Bulletin
MAGNITUDE_W: 6.1
MAGNITUDE_W_REFERENCE: INGV-CNT_Seismic_Bulletin
MAGNITUDE_L: 
MAGNITUDE_L_REFERENCE: 
FOCAL_MECHANISM: Normal faulting
NETWORK: IT
STATION_CODE: GSG
STATION_NAME: 
STATION_LATITUDE_DEGREE: 42.460000
STATION_LONGITUDE_DEGREE: 13.550000
STATION_ELEVATION_M: 1200
LOCATION: 
SENSOR_DEPTH_M: 200.0
VS30_M/S: 
SITE_CLASSIFICATION_EC8: B (inferred from geology)
MORPHOLOGIC_CLASSIFICATION: 
EPICENTRAL_DISTANCE_KM: 19.2
EARTHQUAKE_BACKAZIMUTH_DEGREE: 46.8
DATE_TIME_FIRST_SAMPLE_YYYYMMDD_HHMMSS: 20090406_013229.000 
DATE_TIME_FIRST_SAMPLE_PRECISION: 
SAMPLING_INTERVAL_S: 0.005000
NDATA: 20000
DURATION_S: 100.000
STREAM: HNZ
UNITS: cm
INSTRUMENT: sensor = FBA-3 [Kinemetrics] | digitizer = Everest [Kinemetrics]
INSTRUMENT_ANALOG/DIGITAL: D
INSTRUMENTAL_FREQUENCY_HZ: 214.000
INSTRUMENTAL_DAMPING: 0.700000
FULL_SCALE_G: 1.0
N_BIT_DIGITAL_CONVERTER: 24
PGD_CM: 1.691071
TIME_PGD_S: 38.550000
BASELINE_CORRECTION: BASELINE REMOVED
FILTER_TYPE: BUTTERWORTH
FILTER_ORDER: 2
LOW_CUT_FREQUENCY_HZ: 0.100
HIGH_CUT_FREQUENCY_HZ: 40.000
LATE/NORMAL_TRIGGERED: NT
DATABASE_VERSION: 0.5
HEADER_FORMAT: DYNA 1.2
DATA_TYPE: DISPLACEMENT
PROCESSING: manual (Paolucci et al., 2011)
DATA_TIMESTAMP_YYYYMMDD_HHMMSS: 20211011_155808.765
DATA_LICENSE: CC-BY3_0-IT (http://creativecommons.org/licenses/by/3.0/deed.en)
DATA_CITATION: Luzi L, Pacor F, Puglia R (2019). Italian Accelerometric Archive v 3.0 - Istituto Nazionale di Geofisica e Vulcanologia, Dipartimento della Protezione Civile Nazionale. doi: 10.13127/itaca.3.1
DATA_CREATOR: ITACA working group
ORIGINAL_DATA_MEDIATOR_CITATION: data obtained within the DPC-INGV data exchange agreements
ORIGINAL_DATA_MEDIATOR: Archive of Italian Department of Civil Protection
ORIGINAL_DATA_CREATOR_CITATION: Presidency Of Counsil Of Ministers-Civil Protection Department. (1972). Italian Strong Motion Network. Presidency of Counsil of Ministers - Civil Protection Department. https://doi.org/10.7914/SN/IT http://www.fdsn.org/networks/detail/IT/
ORIGINAL_DATA_CREATOR: network: IT (Italian Strong Motion Network (RAN)); owner: Presidency of Counsil of Ministers - Civil Protection Department (PCM - DPC)
USER1: 
USER2: 
USER3: 
USER4: 
USER5: 
[...]
-4.046440e-01
-4.055724e-01
-4.064079e-01
-4.071437e-01
-4.077910e-01
-4.083789e-01
-4.089485e-01
-4.095394e-01
-4.101740e-01
-4.108527e-01
-4.115631e-01
-4.122923e-01
-4.130356e-01
-4.137980e-01
-4.145859e-01
-4.153939e-01
-4.161980e-01
-4.169581e-01
-4.176269e-01
-4.181625e-01
-4.185435e-01
-4.187758e-01
-4.188823e-01
-4.188889e-01
-4.188215e-01
-4.187054e-01
-4.185619e-01
-4.184063e-01
-4.182494e-01
-4.181006e-01
-4.179719e-01
-4.178849e-01
-4.178720e-01
-4.179668e-01
-4.181893e-01
-4.185354e-01
-4.189768e-01
-4.194700e-01
-4.199716e-01
-4.204513e-01
-4.208956e-01
-4.213033e-01
-4.216841e-01
-4.220619e-01
-4.224661e-01
-4.229111e-01
-4.233835e-01
-4.238542e-01
-4.243024e-01
-4.247273e-01
-4.251402e-01
-4.255546e-01
-4.259853e-01
-4.264486e-01
-4.269541e-01
-4.274912e-01
-4.280274e-01
-4.285235e-01
-4.289549e-01
-4.293148e-01
-4.296028e-01
-4.298234e-01
-4.300021e-01
-4.301953e-01
-4.304794e-01
-4.309265e-01
-4.315775e-01
-4.324273e-01
-4.334350e-01
-4.345540e-01
-4.357575e-01
-4.370409e-01
-4.384066e-01
-4.398485e-01
-4.413417e-01
-4.428405e-01
-4.442856e-01
-4.456203e-01
-4.468053e-01
-4.478259e-01
-4.486891e-01
-4.494129e-01
-4.500129e-01
-4.504910e-01
-4.508364e-01
-4.510380e-01
-4.510998e-01
-4.510445e-01
-4.508993e-01
-4.506774e-01
-4.503754e-01
-4.499878e-01
-4.495157e-01
-4.489603e-01
-4.483146e-01
-4.475676e-01
-4.467147e-01
-4.457584e-01
-4.447044e-01
-4.435589e-01
-4.423261e-01
-4.410059e-01
-4.395969e-01
-4.381027e-01
-4.365332e-01
-4.348960e-01
-4.331861e-01
-4.313808e-01
-4.294415e-01
-4.273164e-01
-4.249485e-01
-4.222857e-01
-4.192878e-01
-4.159268e-01
-4.121872e-01
-4.080742e-01
-4.036220e-01
-3.988936e-01
-3.939660e-01
-3.889088e-01
-3.837693e-01
-3.785774e-01
-3.733557e-01
-3.681146e-01
-3.628426e-01
-3.575179e-01
-3.521389e-01
-3.467393e-01
-3.413651e-01
-3.360389e-01
-3.307477e-01
-3.254583e-01
-3.201379e-01
-3.147636e-01
-3.093204e-01
-3.037908e-01
-2.981461e-01
-2.923469e-01
-2.863612e-01
-2.801815e-01
-2.738220e-01
-2.672934e-01
-2.605793e-01
-2.536323e-01
-2.463945e-01
-2.388250e-01
-2.309180e-01
-2.226979e-01
-2.142018e-01
-2.054669e-01
-1.965289e-01
-1.874238e-01
-1.781880e-01
-1.688525e-01
-1.594345e-01
-1.499366e-01
-1.403604e-01
-1.307284e-01
-1.210937e-01
-1.115270e-01
-1.020930e-01
-9.283584e-02
-8.378440e-02
-7.496683e-02
-6.642055e-02
-5.818572e-02
-5.028745e-02
-4.272923e-02
-3.550771e-02
-2.862875e-02
-2.210415e-02
-1.593507e-02
-1.009900e-02
-4.547278e-03
7.872435e-04
5.975988e-03
1.108111e-02
1.614871e-02
2.120625e-02
2.625788e-02
3.127727e-02
3.620621e-02
4.096608e-02
4.547958e-02
4.969265e-02
5.358825e-02
5.718921e-02
6.055347e-02
6.376725e-02
6.693650e-02
7.017361e-02
7.358071e-02
7.723695e-02
8.119323e-02
8.547210e-02
9.007164e-02
9.497589e-02
1.001706e-01
1.056508e-01
1.114088e-01
1.174149e-01
1.236165e-01
1.299600e-01
1.364099e-01
1.429469e-01
1.495508e-01
1.561924e-01
1.628416e-01
1.694843e-01
1.761291e-01
1.828000e-01
1.895222e-01
1.963075e-01
2.031438e-01
2.099966e-01
2.168264e-01
2.236142e-01
2.303778e-01
2.371655e-01
2.440336e-01
2.510200e-01
2.581299e-01
2.653361e-01
2.725937e-01
2.798599e-01
2.871060e-01
2.943185e-01
3.014934e-01
3.086310e-01
3.157266e-01
3.227639e-01
3.297249e-01
3.366093e-01
3.434392e-01
3.502416e-01
3.570313e-01
3.638087e-01
3.705681e-01
3.773062e-01
3.840242e-01
3.907195e-01
3.973776e-01
4.039720e-01
4.104750e-01
4.168675e-01
4.231428e-01
4.293026e-01
4.353537e-01
4.413094e-01
4.471946e-01
4.530431e-01
4.588872e-01
4.647446e-01
4.706174e-01
4.764986e-01
4.823777e-01
4.882369e-01
4.940459e-01
4.997684e-01
5.053794e-01
5.108792e-01
5.162869e-01
5.216183e-01
5.268640e-01
5.319867e-01
5.369410e-01
5.416968e-01
5.462435e-01
5.505705e-01
5.546434e-01
5.584007e-01
5.617766e-01
5.647290e-01
5.672459e-01
5.693282e-01
5.709749e-01
5.721824e-01
5.729547e-01
5.733085e-01
5.732719e-01
5.728774e-01
5.721533e-01
5.711151e-01
5.697585e-01
5.680565e-01
5.659687e-01
5.634592e-01
5.605140e-01
5.571454e-01
5.533884e-01
5.492973e-01
5.449418e-01
5.403938e-01
5.357039e-01
5.308884e-01
5.259389e-01
5.208459e-01
5.156115e-01
5.102468e-01
5.047678e-01
4.991961e-01
4.935537e-01
4.878481e-01
4.820597e-01
4.761494e-01
4.700838e-01
4.638642e-01
4.575362e-01
4.511755e-01
4.448613e-01
4.386559e-01
4.325954e-01
4.266919e-01
4.209401e-01
4.153235e-01
4.098117e-01
4.043588e-01
3.989147e-01
3.934519e-01
3.879850e-01
3.825597e-01
3.772172e-01
3.719651e-01
3.667787e-01
3.616328e-01
3.565331e-01
3.515198e-01
3.466362e-01
3.418979e-01
3.372911e-01
3.327922e-01
3.283774e-01
3.240113e-01
3.196328e-01
3.151598e-01
3.105142e-01
3.056479e-01
3.005534e-01
2.952558e-01
2.897984e-01
2.842332e-01
2.786115e-01
2.729695e-01
2.673178e-01
2.616509e-01
2.559716e-01
2.503052e-01
2.446858e-01
2.391308e-01
2.336295e-01
2.281564e-01
2.226937e-01
2.172408e-01
2.118031e-01
2.063760e-01
2.009414e-01
1.954798e-01
1.899785e-01
1.844292e-01
1.788220e-01
1.731469e-01
1.673976e-01
1.615665e-01
1.556367e-01
1.495879e-01
1.434122e-01
1.371256e-01
1.307663e-01
1.243838e-01
1.180197e-01
1.116856e-01
1.053541e-01
9.897390e-02
9.249527e-02
8.588335e-02
7.911967e-02
7.220401e-02
6.515601e-02
5.800498e-02
5.077029e-02
4.345174e-02
3.603676e-02
2.850957e-02
2.085396e-02
1.305697e-02
5.112024e-03
-2.985829e-03
-1.124384e-02
-1.966475e-02
-2.824096e-02
-3.696385e-02
-4.583944e-02
-5.489134e-02
-6.414943e-02
-7.363773e-02
-8.336753e-02
-9.333233e-02
-1.035048e-01
-1.138381e-01
-1.242690e-01
-1.347246e-01
-1.451411e-01
-1.554848e-01
-1.657540e-01
-1.759544e-01
-1.860726e-01
-1.960732e-01
-2.059226e-01
-2.156093e-01
-2.251382e-01
-2.345111e-01
-2.437192e-01
-2.527539e-01
-2.616248e-01
-2.703703e-01
-2.790527e-01
-2.877404e-01
-2.964866e-01
-3.053192e-01
-3.142456e-01
-3.232675e-01
-3.323914e-01
-3.416297e-01
-3.509888e-01
-3.604569e-01
-3.700061e-01
-3.796035e-01
-3.892185e-01
-3.988277e-01
-4.084220e-01
-4.180125e-01
-4.276290e-01
-4.373128e-01
-4.471040e-01
-4.570265e-01
-4.670752e-01
-4.772121e-01
-4.873751e-01
-4.974992e-01
-5.075391e-01
-5.174784e-01
-5.273184e-01
-5.370633e-01
-5.467181e-01
-5.563007e-01
-5.658489e-01
-5.754050e-01
-5.849909e-01
-5.946008e-01
-6.042248e-01
-6.138727e-01
-6.235729e-01
-6.333540e-01
-6.432285e-01
-6.531819e-01
-6.631663e-01
-6.731078e-01
-6.829319e-01
-6.925886e-01
-7.020611e-01
-7.113589e-01
-7.205077e-01
-7.295387e-01
-7.384747e-01
-7.473208e-01
-7.560692e-01
-7.647165e-01
-7.732730e-01
-7.817500e-01
-7.901412e-01
-7.984254e-01
-8.065931e-01
-8.146644e-01
-8.226784e-01
-8.306630e-01
-8.386155e-01
-8.465119e-01
-8.543314e-01
-8.620704e-01
-8.697417e-01
-8.773730e-01
-8.850092e-01
-8.927093e-01
-9.005366e-01
-9.085420e-01
-9.167495e-01
-9.251536e-01
-9.337365e-01
-9.424879e-01
-9.514125e-01
-9.605221e-01
-9.698157e-01
-9.792615e-01
-9.887973e-01
-9.983567e-01
-1.007899e+00
-1.017410e+00
-1.026881e+00
-1.036281e+00
-1.045558e+00
-1.054660e+00
-1.063548e+00
-1.072211e+00
-1.080654e+00
-1.088883e+00
-1.096903e+00
-1.104718e+00
-1.112338e+00
-1.119771e+00
-1.127011e+00
-1.134048e+00
-1.140857e+00
-1.147409e+00
-1.153669e+00
-1.159608e+00
-1.165211e+00
-1.170491e+00
-1.175470e+00
-1.180171e+00
-1.184598e+00
-1.188750e+00
-1.192659e+00
-1.196399e+00
-1.200068e+00
-1.203746e+00
-1.207473e+00
-1.211243e+00
-1.215038e+00
-1.218847e+00
-1.222680e+00
-1.226556e+00
-1.230485e+00
-1.234462e+00
-1.238477e+00
-1.242533e+00
-1.246647e+00
-1.250829e+00
-1.255055e+00
-1.259279e+00
-1.263441e+00
-1.267488e+00
-1.271363e+00
-1.275019e+00
-1.278424e+00
-1.281562e+00
-1.284421e+00
-1.286982e+00
-1.289224e+00
-1.291142e+00
-1.292766e+00
-1.294161e+00
-1.295404e+00
-1.296557e+00
-1.297648e+00
-1.298678e+00
-1.299627e+00
-1.300479e+00
-1.301224e+00
-1.301858e+00
-1.302364e+00
-1.302713e+00
-1.302870e+00
-1.302806e+00
-1.302497e+00
-1.301922e+00
-1.301076e+00
-1.299983e+00
-1.298692e+00
-1.297250e+00
-1.295671e+00
-1.293936e+00
-1.292019e+00
-1.289917e+00
-1.287649e+00
-1.285253e+00
-1.282770e+00
-1.280234e+00
-1.277658e+00
-1.275030e+00
-1.272312e+00
-1.269458e+00
-1.266429e+00
-1.263200e+00
-1.259769e+00
-1.256149e+00
-1.252369e+00
-1.248459e+00
-1.244442e+00
-1.240328e+00
-1.236105e+00
-1.231753e+00
-1.227259e+00
-1.222618e+00
-1.217834e+00
-1.212906e+00
-1.207832e+00
-1.202609e+00
-1.197233e+00
-1.191701e+00
-1.186012e+00
-1.180166e+00
-1.174167e+00
-1.168018e+00
-1.161731e+00
-1.155331e+00
-1.148849e+00
-1.142305e+00
-1.135698e+00
-1.129004e+00
-1.122203e+00
-1.115283e+00
-1.108251e+00
-1.101121e+00
-1.093914e+00
-1.086658e+00
-1.079383e+00
-1.072096e+00
-1.064785e+00
-1.057423e+00
-1.050002e+00
-1.042536e+00
-1.035048e+00
-1.027556e+00
-1.020052e+00
-1.012503e+00
-1.004870e+00
-9.971242e-01
-9.892526e-01
-9.812551e-01
-9.731357e-01
-9.648948e-01
-9.565244e-01
-9.480048e-01
-9.393061e-01
-9.303992e-01
-9.212635e-01
-9.118791e-01
-9.022181e-01
-8.922542e-01
-8.819828e-01
-8.714289e-01
-8.606327e-01
-8.496305e-01
-8.384401e-01
-8.270614e-01
-8.154918e-01
-8.037355e-01
-7.917967e-01
-7.796662e-01
-7.673222e-01
-7.547453e-01
-7.419314e-01
-7.288922e-01
-7.156481e-01
-7.022301e-01
-6.886854e-01
-6.750725e-01
-6.614414e-01
-6.478132e-01
-6.341742e-01
-6.204890e-01
-6.067212e-01
-5.928469e-01
-5.788551e-01
-5.647444e-01
-5.505253e-01
-5.362289e-01
-5.219051e-01
-5.076002e-01
-4.933316e-01
-4.790828e-01
-4.648221e-01
-4.505243e-01
-4.361783e-01
-4.217819e-01
-4.073337e-01
-3.928334e-01
-3.782881e-01
-3.637131e-01
-3.491222e-01
-3.345134e-01
-3.198663e-01
-3.051516e-01
-2.903433e-01
-2.754289e-01
-2.604142e-01
-2.453177e-01
-2.301568e-01
-2.149366e-01
-1.996497e-01
-1.842845e-01
-1.688346e-01
-1.533006e-01
-1.376865e-01
-1.220010e-01
-1.062680e-01
-9.053383e-02
-7.485635e-02
-5.928083e-02
-4.382631e-02
-2.849423e-02
-1.328487e-02
1.800811e-03
1.677571e-02
3.167475e-02
4.653976e-02
6.139309e-02
7.622567e-02
9.100744e-02
1.057075e-01
1.203080e-01
1.348070e-01
1.492100e-01
1.635175e-01
1.777169e-01
1.917875e-01
2.057117e-01
2.194823e-01
2.331021e-01
2.465765e-01
2.599049e-01
2.730787e-01
2.860879e-01
2.989322e-01
3.116279e-01
3.242049e-01
3.366958e-01
3.491211e-01
3.614848e-01
3.737823e-01
3.860108e-01
3.981698e-01
4.102534e-01
4.222506e-01
4.341624e-01
4.460214e-01
4.578874e-01
4.698205e-01
4.818541e-01
4.939922e-01
5.062275e-01
5.185606e-01
5.310026e-01
5.435632e-01
5.562421e-01
5.690286e-01
5.819030e-01
5.948327e-01
6.077720e-01
6.206740e-01
6.335065e-01
6.462609e-01
6.589448e-01
6.715735e-01
6.841713e-01
6.967719e-01
7.094085e-01
7.220968e-01
7.348283e-01
7.475808e-01
7.603351e-01
7.730814e-01
7.858125e-01
7.985150e-01
8.111677e-01
8.237420e-01
8.361978e-01
8.484795e-01
8.605200e-01
8.722565e-01
8.836493e-01
8.946931e-01
9.054150e-01
9.158613e-01
9.260829e-01
9.361264e-01
9.460328e-01
9.558374e-01
9.655682e-01
9.752461e-01
9.848914e-01
9.945294e-01
1.004187e+00
1.013886e+00
1.023632e+00
1.033411e+00
1.043191e+00
1.052930e+00
1.062588e+00
1.072141e+00
1.081584e+00
1.090921e+00
1.100146e+00
1.109241e+00
1.118181e+00
1.126950e+00
1.135540e+00
1.143961e+00
1.152247e+00
1.160451e+00
1.168633e+00
1.176837e+00
1.185089e+00
1.193406e+00
1.201803e+00
1.210287e+00
1.218837e+00
1.227408e+00
1.235946e+00
1.244413e+00
1.252785e+00
1.261044e+00
1.269156e+00
1.277072e+00
1.284741e+00
1.292132e+00
1.299250e+00
1.306130e+00
1.312827e+00
1.319383e+00
1.325821e+00
1.332132e+00
1.338295e+00
1.344278e+00
1.350053e+00
1.355601e+00
1.360927e+00
1.366071e+00
1.371094e+00
1.376068e+00
1.381047e+00
1.386061e+00
1.391114e+00
1.396211e+00
1.401364e+00
1.406600e+00
1.411940e+00
1.417387e+00
1.422928e+00
1.428539e+00
1.434198e+00
1.439885e+00
1.445596e+00
1.451336e+00
1.457118e+00
1.462948e+00
1.468807e+00
1.474648e+00
1.480409e+00
1.486019e+00
1.491426e+00
1.496599e+00
1.501542e+00
1.506275e+00
1.510824e+00
1.515196e+00
1.519378e+00
1.523355e+00
1.527121e+00
1.530689e+00
1.534074e+00
1.537290e+00
1.540352e+00
1.543290e+00
1.546160e+00
1.549031e+00
1.551971e+00
1.555020e+00
1.558199e+00
1.561522e+00
1.565012e+00
1.568706e+00
1.572637e+00
1.576820e+00
1.581243e+00
1.585868e+00
1.590643e+00
1.595516e+00
1.600431e+00
1.605328e+00
1.610136e+00
1.614789e+00
1.619244e+00
1.623489e+00
1.627548e+00
1.631470e+00
1.635310e+00
1.639112e+00
1.642896e+00
1.646662e+00
1.650397e+00
1.654090e+00
1.657728e+00
1.661283e+00
1.664716e+00
1.667984e+00
1.671056e+00
1.673932e+00
1.676630e+00
1.679170e+00
1.681555e+00
1.683766e+00
1.685766e+00
1.687514e+00
1.688967e+00
1.690076e+00
1.690790e+00
1.691071e+00
1.690906e+00
1.690306e+00
1.689295e+00
1.687892e+00
1.686108e+00
1.683948e+00
1.681431e+00
1.678594e+00
1.675493e+00
1.672190e+00
1.668744e+00
1.665186e+00
1.661519e+00
1.657712e+00
1.653718e+00
1.649497e+00
1.645021e+00
1.640277e+00
1.635259e+00
1.629967e+00
1.624414e+00
1.618634e+00
1.612684e+00
1.606628e+00
1.600519e+00
1.594386e+00
1.588240e+00
1.582082e+00
1.575923e+00
1.569787e+00
1.563706e+00
1.557712e+00
1.551823e+00
1.546039e+00
1.540339e+00
1.534691e+00
1.529049e+00
1.523362e+00
1.517579e+00
1.511659e+00
1.505571e+00
1.499294e+00
1.492819e+00
1.486148e+00
1.479287e+00
1.472246e+00
1.465045e+00
1.457720e+00
1.450324e+00
1.442920e+00
1.435575e+00
1.428340e+00
1.421241e+00
1.414276e+00
1.407420e+00
1.400640e+00
1.393908e+00
1.387196e+00
1.380486e+00
1.373760e+00
1.367001e+00
1.360183e+00
1.353273e+00
1.346246e+00
1.339079e+00
1.331756e+00
1.324257e+00
1.316570e+00
1.308694e+00
1.300637e+00
1.292420e+00
1.284072e+00
1.275621e+00
1.267096e+00
1.258527e+00
1.249948e+00
1.241402e+00
1.232935e+00
1.224591e+00
1.216397e+00
1.208359e+00
1.200466e+00
1.192696e+00
1.185024e+00
1.177418e+00
1.169836e+00
1.162227e+00
1.154538e+00
1.146721e+00
1.138742e+00
1.130580e+00
1.122239e+00
1.113754e+00
1.105190e+00
1.096624e+00
1.088123e+00
1.079729e+00
1.071446e+00
1.063242e+00
1.055066e+00
1.046863e+00
1.038587e+00
1.030208e+00
1.021708e+00
1.013066e+00
1.004258e+00
9.952589e-01
9.860518e-01
9.766367e-01
9.670257e-01
9.572350e-01
9.472775e-01
9.371584e-01
9.268786e-01
9.164402e-01
9.058475e-01
8.951002e-01
8.841879e-01
8.730943e-01
8.618075e-01
8.503229e-01
8.386370e-01
8.267463e-01
8.146566e-01
8.023917e-01
7.899905e-01
7.774965e-01
7.649469e-01
7.523652e-01
7.397572e-01
7.271153e-01
7.144320e-01
7.017135e-01
6.889815e-01
6.762650e-01
6.635865e-01
6.509546e-01
6.383694e-01
6.258383e-01
6.133872e-01
6.010571e-01
5.888903e-01
5.769139e-01
5.651319e-01
5.535247e-01
5.420594e-01
5.307061e-01
5.194495e-01
5.082883e-01
4.972254e-01
4.862550e-01
4.753550e-01
4.644879e-01
4.536116e-01
4.426902e-01
4.317010e-01
4.206361e-01
4.094991e-01
3.982995e-01
3.870439e-01
3.757305e-01
3.643458e-01
3.528645e-01
3.412519e-01
3.294693e-01
3.174839e-01
3.052791e-01
2.928606e-01
2.802558e-01
2.675040e-01
2.546426e-01
2.416953e-01
2.286725e-01
2.155829e-01
2.024438e-01
1.892803e-01
1.761162e-01
1.629632e-01
1.498184e-01
1.366686e-01
1.234979e-01
1.102970e-01
9.706509e-02
8.380304e-02
7.050418e-02
5.715557e-02
4.375018e-02
3.029885e-02
1.683163e-02
3.388203e-03
-9.995536e-03
-2.329676e-02
-3.650718e-02
-4.962756e-02
-6.266127e-02
-7.561418e-02
-8.850173e-02
-1.013543e-01
-1.142124e-01
-1.271128e-01
-1.400772e-01
-1.531127e-01
-1.662191e-01
-1.793965e-01
-1.926499e-01
-2.059975e-01
-2.194805e-01
-2.331608e-01
-2.471008e-01
-2.613336e-01
-2.758454e-01
-2.905773e-01
-3.054431e-01
-3.203553e-01
-3.352452e-01
-3.500678e-01
-3.647912e-01
-3.793818e-01
-3.938005e-01
-4.080087e-01
-4.219758e-01
-4.356777e-01
-4.490913e-01
-4.621945e-01
-4.749754e-01
-4.874441e-01
-4.996371e-01
-5.116103e-01
-5.234249e-01
-5.351358e-01
-5.467858e-01
-5.584027e-01
-5.700013e-01
-5.815873e-01
-5.931632e-01
-6.047306e-01
-6.162840e-01
-6.278041e-01
-6.392601e-01
-6.506219e-01
-6.618699e-01
-6.729915e-01
-6.839709e-01
-6.947849e-01
-7.054046e-01
-7.157951e-01
-7.259130e-01
-7.357095e-01
-7.451378e-01
-7.541603e-01
-7.627486e-01
-7.708826e-01
-7.785557e-01
-7.857861e-01
-7.926207e-01
-7.991280e-01
-8.053815e-01
-8.114456e-01
-8.173718e-01
-8.232052e-01
-8.289917e-01
-8.347724e-01
-8.405692e-01
-8.463746e-01
-8.521571e-01
-8.578760e-01
-8.634982e-01
-8.690082e-01
-8.744102e-01
-8.797210e-01
-8.849577e-01
-8.901277e-01
-8.952297e-01
-9.002635e-01
-9.052376e-01
-9.101673e-01
-9.150711e-01
-9.199692e-01
-9.248822e-01
-9.298249e-01
-9.347940e-01
-9.397563e-01
-9.446498e-01
-9.494007e-01
-9.539470e-01
-9.582556e-01
-9.623238e-01
-9.661675e-01
-9.698006e-01
-9.732200e-01
-9.764026e-01
-9.793181e-01
-9.819458e-01
-9.842855e-01
-9.863552e-01
-9.881826e-01
-9.897949e-01
-9.912098e-01
-9.924282e-01
-9.934333e-01
-9.942012e-01
-9.947143e-01
-9.949729e-01
-9.949985e-01
-9.948290e-01
-9.945073e-01
-9.940708e-01
-9.935483e-01
-9.929580e-01
-9.923054e-01
-9.915851e-01
-9.907929e-01
-9.899399e-01
-9.890547e-01
-9.881747e-01
-9.873334e-01
-9.865562e-01
-9.858617e-01
-9.852606e-01
-9.847472e-01
-9.842960e-01
-9.838736e-01
-9.834610e-01
-9.830641e-01
-9.827035e-01
-9.823969e-01
-9.821522e-01
-9.819726e-01
-9.818633e-01
-9.818302e-01
-9.818752e-01
-9.819965e-01
-9.821943e-01
-9.824769e-01
-9.828610e-01
-9.833658e-01
-9.840086e-01
-9.848029e-01
-9.857549e-01
-9.868592e-01
-9.880974e-01
-9.894439e-01
-9.908749e-01
-9.923743e-01
-9.939334e-01
-9.955489e-01
-9.972195e-01
-9.989394e-01
-1.000690e+00
-1.002435e+00
-1.004128e+00
-1.005730e+00
-1.007220e+00
-1.008595e+00
-1.009870e+00
-1.011063e+00
-1.012193e+00
-1.013270e+00
-1.014295e+00
-1.015270e+00
-1.016195e+00
-1.017078e+00
-1.017928e+00
-1.018751e+00
-1.019549e+00
-1.020313e+00
-1.021020e+00
-1.021640e+00
-1.022134e+00
-1.022461e+00
-1.022577e+00
-1.022450e+00
-1.022063e+00
-1.021422e+00
-1.020549e+00
-1.019466e+00
-1.018190e+00
-1.016729e+00
-1.015094e+00
-1.013300e+00
-1.011370e+00
-1.009318e+00
-1.007146e+00
-1.004847e+00
-1.002412e+00
-9.998390e-01
-9.971345e-01
-9.943009e-01
-9.913317e-01
-9.882089e-01
