EVENT_NAME: L_AQUILA
EVENT_ID: IT-2009-0009
EVENT_DATE_YYYYMMDD: 20090406
EVENT_TIME_HHMMSS: 013240
EVENT_LATITUDE_DEGREE: 42.3420
EVENT_LONGITUDE_DEGREE: 13.3800
EVENT_DEPTH_KM: 8.3
HYPOCENTER_REFERENCE: INGV-CNT_Seismic_Bulletin
MAGNITUDE_W: 6.1
MAGNITUDE_W_REFERENCE: INGV-CNT_Seismic_Bulletin
MAGNITUDE_L: 
MAGNITUDE_L_REFERENCE: 
FOCAL_MECHANISM: Normal faulting
NETWORK: IT
STATION_CODE: GSG
STATION_NAME: 
STATION_LATITUDE_DEGREE: 42.460000
STATION_LONGITUDE_DEGREE: 13.550000
STATION_ELEVATION_M: 1200
LOCATION: 
SENSOR_DEPTH_M: 200.0
VS30_M/S: 
SITE_CLASSIFICATION_EC8: B (inferred from geology)
MORPHOLOGIC_CLASSIFICATION: 
EPICENTRAL_DISTANCE_KM: 19.2
EARTHQUAKE_BACKAZIMUTH_DEGREE: 46.8
DATE_TIME_FIRST_SAMPLE_YYYYMMDD_HHMMSS: 20090406_013229.000 
DATE_TIME_FIRST_SAMPLE_PRECISION: 
SAMPLING_INTERVAL_S: 0.005000
NDATA: 20000
DURATION_S: 100.000
STREAM: HNZ
UNITS: cm/s^2
INSTRUMENT: sensor = FBA-3 [Kinemetrics] | digitizer = Everest [Kinemetrics]
INSTRUMENT_ANALOG/DIGITAL: D
INSTRUMENTAL_FREQUENCY_HZ: 214.000
INSTRUMENTAL_DAMPING: 0.700000
FULL_SCALE_G: 1.0
N_BIT_DIGITAL_CONVERTER: 24
PGA_CM/S^2: 18.432478
TIME_PGA_S: 39.815000
BASELINE_CORRECTION: BASELINE REMOVED
FILTER_TYPE: BUTTERWORTH
FILTER_ORDER: 2
LOW_CUT_FREQUENCY_HZ: 0.100
HIGH_CUT_FREQUENCY_HZ: 40.000
LATE/NORMAL_TRIGGERED: NT
DATABASE_VERSION: 0.5
HEADER_FORMAT: DYNA 1.2
DATA_TYPE: ACCELERATION
PROCESSING: manual (Paolucci et al., 2011)
DATA_TIMESTAMP_YYYYMMDD_HHMMSS: 20211011_155808.641
DATA_LICENSE: CC-BY3_0-IT (http://creativecommons.org/licenses/by/3.0/deed.en)
DATA_CITATION: Luzi L, Pacor F, Puglia R (2019). Italian Accelerometric Archive v 3.0 - Istituto Nazionale di Geofisica e Vulcanologia, Dipartimento della Protezione Civile Nazionale. doi: 10.13127/itaca.3.1
DATA_CREATOR: ITACA working group
ORIGINAL_DATA_MEDIATOR_CITATION: data obtained within the DPC-INGV data exchange agreements
ORIGINAL_DATA_MEDIATOR: Archive of Italian Department of Civil Protection
ORIGINAL_DATA_CREATOR_CITATION: Presidency Of Counsil Of Ministers-Civil Protection Department. (1972). Italian Strong Motion Network. Presidency of Counsil of Ministers - Civil Protection Department. https://doi.org/10.7914/SN/IT http://www.fdsn.org/networks/detail/IT/
ORIGINAL_DATA_CREATOR: network: IT (Italian Strong Motion Network (RAN)); owner: Presidency of Counsil of Ministers - Civil Protection Department (PCM - DPC)
USER1: 
USER2: 
USER3: 
USER4: 
USER5: 
[...]
6.240346
6.949157
6.538643
5.147407
3.373722
1.626617
-0.012387
-1.240083
-1.405977
-0.335707
1.092646
1.603930
0.645227
-1.254889
-3.050937
-3.958606
-3.840019
-3.135339
-2.468987
-2.167667
-2.121589
-2.031195
-1.649067
-0.935165
-0.179364
0.154574
-0.165590
-0.943497
-1.716060
-2.066212
-1.910106
-1.487583
-1.009130
-0.526857
-0.178545
-0.219714
-0.799744
-1.811787
-2.824726
-3.340219
-3.381169
-3.560817
-4.327213
-5.363490
-5.940771
-5.730579
-5.118182
-4.792593
-5.037081
-5.260529
-4.315151
-1.615147
2.011869
4.858934
5.862942
5.506986
5.168627
5.761550
7.094651
8.251436
8.406515
7.426734
5.845300
4.464712
3.977533
4.557874
5.707030
6.681693
7.031589
6.753177
6.125812
5.423359
4.650121
3.537964
1.938182
0.216224
-0.929334
-1.129312
-0.729844
-0.462596
-0.803021
-1.571190
-2.017338
-1.453698
0.105703
2.118368
4.174034
6.131168
7.811897
8.931507
9.265688
8.867597
8.147194
7.460790
6.606051
5.019191
2.479055
-0.430155
-2.530608
-2.871376
-1.449307
0.793197
2.663216
3.644153
4.184751
4.913150
5.708110
5.782794
4.599092
2.500017
0.420483
-0.919250
-1.445680
-1.445699
-1.118047
-0.511088
0.292428
1.069619
1.582577
1.868213
2.267731
2.980243
3.716270
3.986916
3.539802
2.378939
0.730785
-0.854033
-1.746285
-1.764269
-1.267261
-0.753922
-0.563218
-0.761262
-1.022243
-0.807003
0.161460
1.757101
3.650909
5.332763
6.180000
5.946239
5.037667
3.991381
2.959727
1.949686
1.097257
0.483992
0.047958
-0.318515
-0.806376
-1.670750
-2.960431
-4.307963
-5.109590
-4.944176
-3.809964
-2.076109
-0.333643
0.878013
1.414838
1.464270
1.071978
0.124283
-1.056186
-1.632262
-1.098253
0.071598
0.898075
0.929489
0.481741
-0.057611
-0.652987
-1.306084
-1.684131
-1.269771
0.041231
1.603190
2.586123
2.858839
2.878727
2.694138
1.677859
-0.578600
-3.639911
-6.517502
-8.156214
-7.954078
-6.314195
-4.452263
-3.380915
-3.192243
-3.296081
-3.047602
-2.051778
-0.220745
2.143425
4.417011
5.988636
6.575797
6.297471
5.573705
4.956715
4.871453
5.308423
5.754444
5.589332
4.682961
3.599082
3.069054
3.199109
3.428831
3.378125
3.328632
3.618430
4.047345
4.236109
4.137159
3.908742
3.659198
3.492567
3.496012
3.553015
3.405741
3.013440
2.706703
2.909763
3.811313
5.366565
7.429209
9.710975
11.795471
13.404162
14.528239
15.139805
14.936707
13.567490
11.052026
7.962842
5.187699
3.291218
2.093190
1.195037
0.775061
1.233906
2.112732
2.168558
0.822065
-1.013554
-1.917714
-1.401122
-0.072805
1.239698
2.153658
2.761406
3.449545
4.610552
6.175226
7.460420
7.761385
7.194841
6.758932
7.424901
9.310006
11.636529
13.267389
13.499244
12.524020
11.040767
9.548691
8.127544
6.683087
5.226767
3.989978
3.300198
3.196872
3.128173
2.232847
0.111469
-2.723726
-5.305123
-7.075768
-8.228057
-9.355043
-10.851408
-12.457798
-13.462531
-13.602099
-13.468120
-13.702305
-14.174228
-14.220921
-13.320202
-11.374262
-8.687849
-5.831112
-3.344719
-1.501144
-0.402164
-0.236663
-1.289505
-3.618130
-6.762495
-9.854794
-12.017422
-12.698879
-11.785457
-9.467730
-6.019829
-1.780593
2.714135
6.799696
9.965618
12.001184
12.904130
12.826458
12.188535
11.619372
11.419395
11.109910
9.923325
7.824389
5.673453
4.256705
3.481154
2.681132
1.503015
0.306056
-0.259805
0.082870
1.045323
2.052857
2.521506
2.041594
0.662307
-0.922465
-1.680904
-0.969651
0.969804
3.210066
4.734986
4.939804
3.852688
2.056861
0.338572
-0.799472
-1.345560
-1.501994
-1.491501
-1.681704
-2.333399
-3.052383
-3.059261
-2.182890
-1.100346
-0.507586
-0.492905
-0.721263
-0.848070
-0.807295
-0.904597
-1.493369
-2.543818
-3.657689
-4.418778
-4.689406
-4.617091
-4.351089
-3.812736
-2.824665
-1.463069
-0.180898
0.537311
0.612132
0.336169
-0.083551
-0.795870
-2.005738
-3.462885
-4.456442
-4.452237
-3.682367
-3.051016
-3.429664
-4.918617
-6.736190
-7.941509
-8.363981
-8.787177
-10.163534
-12.625128
-15.255411
-16.937099
-17.425341
-17.379219
-17.428633
-17.562677
-17.410069
-16.741800
-15.617724
-14.311821
-13.183668
-12.565389
-12.739073
-13.810123
-15.436549
-16.866331
-17.429625
-16.935049
-15.535438
-13.365141
-10.572127
-7.705315
-5.673831
-5.023040
-5.357983
-5.744236
-5.655782
-5.210543
-4.572538
-3.707928
-2.824846
-2.533882
-3.307262
-4.877672
-6.211048
-6.163032
-4.332864
-1.309391
1.862226
4.348291
5.798682
6.277574
6.072229
5.402825
4.196737
2.354332
0.349198
-0.746232
-0.163187
1.662666
3.314532
3.613019
2.632562
1.614588
1.852605
3.450928
5.190218
5.813323
5.259542
4.316563
3.363568
1.946413
-0.495591
-3.777611
-6.908278
-8.825689
-9.125398
-8.126775
-6.391065
-4.313674
-2.259532
-0.810401
-0.386699
-0.611280
-0.494590
0.514739
1.882466
2.574897
2.147445
1.127624
0.416253
0.391102
0.611356
0.418912
-0.295216
-1.082865
-1.586811
-1.919684
-2.317970
-2.714572
-2.964930
-3.276818
-3.947015
-4.760083
-5.072237
-4.438230
-2.909562
-0.929146
0.738201
1.201523
0.101656
-1.947371
-3.937371
-5.331239
-6.070490
-6.079397
-5.293439
-4.121300
-3.346177
-3.354629
-3.857232
-4.488194
-5.136837
-5.655395
-5.918052
-6.116343
-6.406247
-6.515869
-6.212156
-5.867475
-6.107796
-7.052248
-8.247770
-9.208181
-9.659989
-9.400382
-8.307229
-6.432966
-3.900546
-0.990935
1.562482
2.911184
2.985765
2.745952
3.289619
4.707108
6.046775
6.507170
6.311840
6.236665
6.595877
6.937761
6.548036
5.018716
2.523314
-0.213119
-2.340629
-3.450955
-3.758812
-3.814947
-4.080975
-4.578146
-4.830091
-4.360378
-3.244932
-1.926125
-0.705704
0.231541
0.595656
0.154790
-1.041877
-2.690231
-4.297372
-5.253703
-5.047715
-3.525656
-1.044842
1.557979
3.364080
4.026064
3.970664
3.805726
3.603154
2.886839
1.380755
-0.322894
-1.186687
-0.962111
-0.564252
-0.954571
-2.092846
-3.236538
-3.734200
-3.157408
-1.240020
1.715306
4.698212
6.692495
7.370079
6.990170
5.956276
4.713381
3.800398
3.596256
3.907878
4.045336
3.630175
3.177255
3.437746
4.275169
4.662089
3.857005
2.292503
1.174397
1.281931
2.244902
3.077423
3.220223
2.708852
1.597395
-0.193668
-2.558475
-5.083828
-7.129445
-8.079204
-7.865996
-7.151734
-6.740403
-6.931160
-7.394022
-7.362207
-6.090650
-3.599013
-0.943059
0.692230
1.219896
1.633365
2.845515
4.884575
7.049002
8.524332
8.991944
8.813251
8.556622
8.400455
8.158261
7.782619
7.534933
7.656588
8.178884
9.069792
10.298211
11.691385
12.863949
13.372641
12.989781
11.986147
11.138173
10.988732
10.959799
9.742965
6.751830
2.847398
-0.393832
-1.908287
-1.774752
-0.969522
-0.559550
-0.945220
-1.715745
-2.147323
-1.924143
-1.503576
-1.636445
-2.349303
-2.687982
-1.796706
0.142895
2.412998
4.658841
6.843588
8.752394
10.041523
10.695945
11.162422
11.904816
12.780625
12.972246
11.731901
9.144309
6.094379
3.641559
2.431784
2.463443
3.197888
3.923650
4.263139
4.466700
5.086349
6.289105
7.678221
8.851465
9.811379
10.609763
10.842397
9.904244
7.906792
6.028694
5.486803
6.262168
7.240063
7.425689
6.620780
5.149253
3.473389
2.112933
1.570722
2.114326
3.587863
5.442541
7.032826
7.955798
8.103521
7.530853
6.440309
5.192466
4.230300
3.934158
4.360725
5.123583
5.700140
5.861204
5.769805
5.720567
5.825367
5.987713
6.122893
6.232250
6.291873
6.253765
6.144360
5.974310
5.527263
4.543956
3.268671
2.447423
2.576435
3.426898
4.330870
4.719401
4.494730
3.916595
3.087093
1.938130
0.805525
0.413512
1.026799
1.990864
2.372513
1.841210
0.831904
0.168217
0.501787
1.786818
3.349490
4.517346
5.033920
5.037467
4.875658
4.860594
5.178207
5.969610
7.163971
8.326627
9.154359
9.946730
11.062660
12.119804
12.294126
11.306131
9.686682
8.241913
7.531450
7.526578
7.641690
7.463880
7.300317
7.669625
8.538663
9.317621
9.477228
9.015366
8.191343
6.958359
5.070303
2.726745
0.724729
-0.113161
0.433381
1.846923
3.302206
4.264182
4.696776
4.755327
4.336146
3.092787
1.098046
-0.759493
-1.450568
-0.791506
0.476145
1.484309
1.924209
2.020583
2.071494
2.080547
1.803962
1.185427
0.639362
0.713754
1.528278
2.707853
3.745188
4.241726
4.013613
3.272732
2.574705
2.370167
2.669606
3.131041
3.388702
3.364144
3.204862
2.856032
1.899634
0.045794
-2.267119
-4.078435
-4.839689
-4.897685
-4.909241
-4.946666
-4.431504
-3.034077
-1.361576
-0.466895
-0.830262
-2.032119
-3.269757
-3.980105
-4.063035
-3.835713
-3.822756
-4.323951
-5.149785
-5.857324
-6.145280
-6.032656
-5.814690
-5.838651
-6.187979
-6.581143
-6.593022
-5.950195
-4.743211
-3.446985
-2.621951
-2.463068
-2.650629
-2.759971
-2.778062
-3.016375
-3.458961
-3.411670
-2.115334
0.283206
2.680978
4.020582
4.179383
3.889548
3.914446
4.351229
4.745361
4.731767
4.307698
3.513282
2.209616
0.388493
-1.497582
-2.773117
-3.127826
-2.822707
-2.201953
-1.241702
0.114174
1.441897
2.066772
1.728280
0.839685
0.069887
-0.317005
-0.607928
-1.147005
-1.991071
-3.133585
-4.739843
-6.968795
-9.644850
-12.159393
-13.749434
-13.958255
-12.877216
-11.022430
-8.989628
-7.124896
-5.483437
-4.069391
-2.956015
-2.113505
-1.301321
-0.296168
0.804369
1.634247
1.864395
1.330581
0.056342
-1.651147
-3.241627
-4.194414
-4.387891
-4.266627
-4.469471
-5.209580
-6.156885
-6.883159
-7.152657
-6.752319
-5.420856
-3.242995
-0.892708
0.873453
1.906112
2.608489
3.232383
3.435970
2.653269
0.841274
-1.294340
-2.894791
-3.763539
-4.516765
-5.864916
-7.864366
-9.890661
-11.105438
-10.946190
-9.468835
-7.369636
-5.590312
-4.780151
-5.019762
-5.959598
-7.178620
-8.348198
-9.072068
-8.834910
-7.331701
-4.804870
-1.997769
0.227033
1.368379
1.613275
1.704619
2.287721
3.308273
4.146268
4.291295
3.740091
2.823105
1.883055
1.175988
0.910761
1.170357
1.704961
1.903538
1.155899
-0.689035
-3.262637
-5.966810
-8.172508
-9.328777
-9.247659
-8.335635
-7.393159
-7.101509
-7.562360
-8.226467
-8.407664
-7.955658
-7.292454
-6.771924
-6.179056
-4.937740
-2.736811
0.082575
2.699698
4.408581
5.194476
5.732173
6.704082
8.142976
9.484387
10.086530
9.597200
8.085692
6.016287
3.876875
1.715469
-0.750063
-3.548526
-6.183419
-7.945212
-8.372987
-7.438736
-5.510318
-3.275765
-1.514308
-0.700001
-0.752773
-1.204277
-1.680323
-2.249083
-3.271717
-4.881412
-6.641075
-7.794513
-7.874241
-7.110896
-6.301731
-6.199447
-6.998955
-8.410215
-10.066335
-11.826144
-13.761045
-15.772237
-17.327471
-17.863316
-17.381138
-16.446346
-15.673916
-15.278357
-14.987338
-14.287659
-12.810061
-10.587088
-8.035894
-5.770691
-4.415736
-4.389379
-5.615558
-7.455954
-9.115330
-10.174955
-10.711119
-10.965296
-10.967685
-10.444993
-9.064797
-6.823347
-4.239397
-2.105919
-0.928768
-0.572546
-0.456735
-0.033122
0.906962
2.208838
3.466551
4.213720
4.183153
3.404570
2.040114
0.241147
-1.803869
-3.807904
-5.494388
-6.746161
-7.553415
-7.900280
-7.849601
-7.591211
-7.189426
-6.411571
-4.975326
-2.851493
-0.277820
2.327973
4.409678
5.458370
5.333574
4.361548
3.074280
1.860392
0.849557
0.050040
-0.600851
-1.339402
-2.394631
-3.636484
-4.718983
-5.545855
-6.289748
-7.008633
-7.515217
-7.604663
-7.211925
-6.382832
-5.270842
-4.099235
-2.968207
-1.773781
-0.367554
1.307793
3.163336
4.887529
6.017171
6.265037
5.774051
4.928431
3.923955
2.646602
0.949563
-1.092213
-3.202811
-5.082749
-6.520241
-7.310267
-7.143343
-5.742988
-3.191169
-0.093726
2.642395
4.257235
4.410914
3.201618
1.120977
-1.114207
-2.915115
-4.092837
-4.866259
-5.644077
-6.649124
-7.674484
-8.301472
-8.317797
-7.841245
-7.183986
-6.675417
-6.463601
-6.426581
-6.341443
-6.175608
-6.183703
-6.600055
-7.251965
-7.725328
-7.912871
-8.054535
-8.193318
-7.957241
-7.007538
-5.451197
-3.714515
-2.222200
-1.284524
-1.053580
-1.354734
-1.652526
-1.414465
-0.536698
0.619722
1.521128
1.862391
1.869914
2.163482
3.196886
4.845117
6.526434
7.621968
7.772790
6.989115
5.678643
4.482285
3.865790
3.816978
3.929858
3.701977
2.813589
1.320410
-0.372323
-1.802760
-2.708540
-3.033128
-2.880071
-2.508284
-2.237567
-2.312254
-2.850552
-3.862838
-5.256871
-6.798480
-8.108818
-8.778366
-8.547131
-7.454170
-5.875814
-4.386873
-3.437778
-3.016672
-2.672182
-1.983738
-0.971246
-0.028627
0.446101
0.331518
-0.204874
-0.832600
-1.210928
-1.239542
-1.205383
-1.471988
-1.990493
-2.270940
-1.837499
-0.635491
0.951395
2.387633
3.300418
3.632580
3.601474
3.466631
3.231900
2.614796
1.398008
-0.219437
-1.690849
-2.565101
-2.839597
-2.836708
-2.839727
-3.041485
-3.769426
-5.411131
-7.896110
-10.385049
-11.713411
-11.161236
-8.802254
-5.360192
-1.852524
0.894939
2.687722
3.968857
5.311255
6.880997
8.414538
9.643960
10.610868
11.531294
12.414224
12.893842
12.489258
11.024867
8.793916
6.344454
4.144144
2.441393
1.319437
0.733840
0.505411
0.401094
0.344690
0.557631
1.328456
2.566641
3.768769
4.551189
5.057206
5.688892
6.614569
7.770106
9.170054
10.900939
12.859701
14.726279
16.233814
17.366278
18.173466
18.432478
17.713341
15.828843
13.093548
10.150440
7.574133
5.520276
3.710047
1.875812
0.230521
-0.640151
-0.349083
0.918533
2.544211
3.870108
4.485331
4.320861
3.648178
2.963791
2.667361
2.720853
2.725389
2.391528
1.773962
1.035720
0.229911
-0.596335
-1.190044
-1.054036
0.271250
2.752338
5.706507
8.180348
9.508779
9.613973
8.986017
8.418633
8.550348
9.469387
10.687499
11.509162
11.521635
10.797835
9.695382
8.603287
7.893306
7.864989
8.526881
9.491164
10.189570
10.181869
9.319678
7.802219
6.089795
4.589899
3.444279
2.708052
2.493138
2.709680
2.873337
2.435902
1.282452
-0.204906
-1.548494
-2.562170
-3.310425
-3.734069
-3.510092
-2.484870
-1.153820
-0.394136
-0.627839
-1.450080
-2.159808
-2.473755
-2.607487
-2.811715
-3.046311
-3.127002
-3.049800
-3.059001
-3.396466
-4.056071
-4.826997
-5.522568
-6.057112
-6.310215
-6.093718
-5.355160
-4.328820
-3.382744
-2.735733
-2.388696
-2.254882
-2.202843
-1.975892
-1.224077
0.221576
2.064262
3.660379
4.510276
4.553207
4.024566
3.243561
2.538237
2.140243
2.047264
2.052950
1.950411
1.685906
1.340912
1.058022
1.014353
1.382596
2.234165
3.495536
5.032554
6.723335
8.397387
9.742686
10.381139
10.152464
9.314683
8.377090
7.726200
7.373546
6.998813
6.322255
5.472916
4.872642
4.788711
5.102552
5.438812
5.486882
5.281754
5.159373
5.425906
6.144810
7.178594
8.234592
8.883109
8.785326
8.010606
7.008486
6.199425
5.658460
5.217726
4.741805
4.216779
3.709926
3.361256
3.313215
3.544585
3.817928
3.830599
3.378183
2.385469
0.914763
-0.745066
-2.074992
-2.587781
-2.177964
-1.206144
-0.229708
0.370119
0.559931
0.515570
0.333297
-0.065990
-0.721072
-1.475336
-2.145913
-2.697275
-3.152538
-3.499610
-3.779778
-4.113462
-4.545601
-4.960580
-5.198271
-5.215496
-5.115691
-5.033446
-5.038264
-5.164661
-5.438856
-5.824308
-6.252761
-6.741926
-7.302770
-7.665941
-7.327615
-6.048946
-4.183171
-2.326009
-0.745387
0.663216
1.976355
3.021946
3.559720
3.563821
3.268062
2.953731
2.746492
2.638737
2.661621
2.947557
3.545306
4.193204
4.437562
4.068437
3.331144
2.649742
2.234996
1.982250
1.639787
1.054831
0.362613
-0.081014
-0.076144
0.117108
-0.072686
-1.047692
-2.680302
-4.387979
-5.535862
-5.789683
-5.210647
-4.165371
-3.130493
-2.418418
-1.987431
-1.542394
-0.860576
-0.007254
0.783768
1.388392
1.855522
2.201109
2.292066
2.032317
1.576773
1.240175
1.183679
1.242168
1.081277
0.493086
-0.485214
-1.681149
-2.922676
-4.071254
-5.022788
-5.753293
-6.321245
-6.741665
-6.888185
-6.609515
-5.932448
-5.070286
-4.219573
-3.398993
-2.489920
-1.395586
-0.171033
0.953393
1.683590
1.872063
1.650157
1.332051
1.209272
1.455730
2.132362
3.113688
4.018652
4.439387
4.304597
3.864056
3.341097
2.771371
2.113736
1.333720
0.399790
-0.708977
-1.974040
-3.250965
-4.173483
-4.277503
-3.338648
-1.549019
0.646680
2.797942
4.541174
5.605896
5.868945
5.430392
4.578397
3.624608
2.802158
2.321987
2.368580
2.908130
3.576925
3.873647
3.462885
2.332637
0.803973
-0.593901
-1.400686
-1.461234
-0.923484
-0.064224
0.878170
1.745736
2.398759
2.705130
2.649412
2.407790
2.233176
2.218459
2.172236
1.776606
0.904818
-0.234128
-1.259831
-1.875721
-1.979361
-1.638521
-1.030008
-0.374241
0.099055
0.151780
-0.402852
-1.547080
-2.972285
-4.237054
-5.063121
-5.463377
-5.592883
-5.532529
-5.246419
-4.698586
-3.951218
-3.157397
-2.472195
-1.965387
-1.634931
-1.490186
-1.568621
-1.868225
-2.312380
-2.774599
-3.102832
-3.185929
-3.048857
-2.794106
-2.418539
-1.800799
-0.912875
0.035888
0.709693
0.863267
0.434341
-0.472678
-1.575827
-2.471662
-2.873599
-2.798707
-2.438591
-1.876761
-1.034673
0.103362
1.311995
2.208534
2.499697
2.184824
1.568935
1.068965
0.965601
1.307346
1.982971
2.811986
3.601428
4.212119
4.609625
4.847506
5.010172
5.159995
5.279918
5.273128
5.089973
4.826582
4.627637
4.530009
4.464418
4.378384
4.293849
4.244884
4.207113
4.141177
4.115928
4.313569
4.834931
5.534106
6.127641
6.453720
6.561274
6.567730
6.530388
6.498763
6.584985
6.873917
7.285322
7.565077
7.435880
6.790602
5.741963
4.510044
3.318476
2.379950
1.880467
1.870167
2.125411
2.189790
1.678900
0.599350
-0.672070
-1.762162
-2.594102
-3.240836
-3.612112
-3.470652
-2.726215
-1.578427
-0.355191
0.715589
1.567387
2.221010
2.696471
2.967113
2.998079
2.824621
2.538582
2.199123
1.822203
1.454319
1.176969
1.009368
0.854978
0.576094
0.107139
-0.495266
-1.064104
-1.392727
-1.368440
-1.047743
-0.593725
-0.224299
-0.228867
-0.850343
-2.021967
-3.307405
-4.203459
-4.478249
-4.200735
-3.537361
-2.617571
-1.591746
-0.720296
-0.294909
-0.442800
-1.030183
-1.744923
-2.265788
-2.421240
-2.281515
-2.125778
-2.260156
-2.781878
-3.505139
-4.166321
-4.692707
-5.218038
-5.868348
-6.603075
-7.240064
-7.563631
-7.431866
-6.869026
-6.082121
-5.363261
-4.946315
-4.898500
-5.085375
-5.232798
-5.074561
-4.525815
-3.772525
-3.157899
-2.909844
-2.959681
-3.046109
-2.980938
-2.755034
-2.416660
-1.974823
-1.441532
-0.891157
-0.457786
-0.260837
-0.298381
-0.429911
-0.483193
-0.353601
-0.008071
0.531529
1.157976
1.686572
1.975052
2.035379
1.994391
1.950698
1.872281
1.616818
1.064374
0.259726
-0.572252
-1.158025
-1.324491
-1.055867
-0.490120
0.101155
0.427316
0.380688
0.102371
-0.192576
-0.425364
-0.681025
-1.069039
-1.582653
-2.083804
-2.398864
-2.418283
-2.150982
-1.746389
-1.432426
-1.353974
-1.469882
-1.622376
-1.681469
-1.635352
-1.592026
-1.699783
-2.031723
-2.530744
-3.063514
-3.498034
