EVENT_NAME: L_AQUILA
EVENT_ID: IT-2009-0009
EVENT_DATE_YYYYMMDD: 20090406
EVENT_TIME_HHMMSS: 013240
EVENT_LATITUDE_DEGREE: 42.3420
EVENT_LONGITUDE_DEGREE: 13.3800
EVENT_DEPTH_KM: 8.3
HYPOCENTER_REFERENCE: INGV-CNT_Seismic_Bulletin
MAGNITUDE_W: 6.1
MAGNITUDE_W_REFERENCE: INGV-CNT_Seismic_Bulletin
MAGNITUDE_L: 
MAGNITUDE_L_REFERENCE: 
FOCAL_MECHANISM: Normal faulting
NETWORK: IT
STATION_CODE: ANT
STATION_NAME: 
STATION_LATITUDE_DEGREE: 42.418110
STATION_LONGITUDE_DEGREE: 13.078598
STATION_ELEVATION_M: 568
LOCATION: 
SENSOR_DEPTH_M: 0.0
VS30_M/S: 912
SITE_CLASSIFICATION_EC8: A
MORPHOLOGIC_CLASSIFICATION: 
EPICENTRAL_DISTANCE_KM: 26.2
EARTHQUAKE_BACKAZIMUTH_DEGREE: 288.9
DATE_TIME_FIRST_SAMPLE_YYYYMMDD_HHMMSS: 
DATE_TIME_FIRST_SAMPLE_PRECISION: 
SAMPLING_INTERVAL_S: 
NDATA: 105
DURATION_S: 
STREAM: HNE
UNITS: cm/s^2
INSTRUMENT: sensor = FBA-3 [Kinemetrics] | digitizer = Etna [Kinemetrics]
INSTRUMENT_ANALOG/DIGITAL: D
INSTRUMENTAL_FREQUENCY_HZ: 216.000
INSTRUMENTAL_DAMPING: 0.700000
FULL_SCALE_G: 1.0
N_BIT_DIGITAL_CONVERTER: 18
PGA_CM/S^2: -19.744122
TIME_PGA_S: 
BASELINE_CORRECTION: BASELINE REMOVED
FILTER_TYPE: BUTTERWORTH
FILTER_ORDER: 2
LOW_CUT_FREQUENCY_HZ: 0.100
HIGH_CUT_FREQUENCY_HZ: 40.000
LATE/NORMAL_TRIGGERED: NT
DATABASE_VERSION: 0.5
HEADER_FORMAT: DYNA 1.2
DATA_TYPE: ACCELERATION RESPONSE SPECTRUM
PROCESSING: manual (Paolucci et al., 2011)
DATA_TIMESTAMP_YYYYMMDD_HHMMSS: 20211011_154922.164
DATA_LICENSE: CC-BY3_0-IT (http://creativecommons.org/licenses/by/3.0/deed.en)
DATA_CITATION: Luzi L, Pacor F, Puglia R (2019). Italian Accelerometric Archive v 3.0 - Istituto Nazionale di Geofisica e Vulcanologia, Dipartimento della Protezione Civile Nazionale. doi: 10.13127/itaca.3.1
DATA_CREATOR: ITACA working group
ORIGINAL_DATA_MEDIATOR_CITATION: data obtained within the DPC-INGV data exchange agreements
ORIGINAL_DATA_MEDIATOR: Archive of Italian Department of Civil Protection
ORIGINAL_DATA_CREATOR_CITATION: Presidency Of Counsil Of Ministers-Civil Protection Department. (1972). Italian Strong Motion Network. Presidency of Counsil of Ministers - Civil Protection Department. https://doi.org/10.7914/SN/IT http://www.fdsn.org/networks/detail/IT/
ORIGINAL_DATA_CREATOR: network: IT (Italian Strong Motion Network (RAN)); owner: Presidency of Counsil of Ministers - Civil Protection Department (PCM - DPC)
USER1: 
USER2: 
USER3: 
USER4: 
USER5: 
    0.010000    19.774958
    0.020000    19.845247
    0.022000    19.864611
    0.025000    19.892120
    0.029000    19.909878
    0.030000    19.916174
    0.032000    19.948233
    0.035001    20.067261
    0.036000    20.202007
    0.040000    20.265718
    0.041999    20.602999
    0.044001    21.009680
    0.045000    21.203928
    0.046000    21.376015
    0.048001    21.719959
    0.050000    21.540361
    0.054999    20.350628
    0.059999    20.861212
    0.064998    21.304878
    0.067002    21.768341
    0.069999    22.085844
    0.075002    22.497311
    0.080000    22.525505
    0.084998    22.181732
    0.090001    23.932867
    0.095003    24.792788
    0.100000    26.847496
    0.109999    30.315578
    0.120005    33.705708
    0.130005    35.179798
    0.132996    37.454884
    0.139997    42.893314
    0.149993    46.338108
    0.160000    43.437496
    0.170010    46.392288
    0.179986    41.757252
    0.190006    44.513187
    0.200000    53.423904
    0.220022    50.615688
    0.239981    58.372437
    0.250000    55.082981
    0.260010    57.126686
    0.280034    48.136333
    0.290023    48.888371
    0.300030    52.595711
    0.320000    46.918888
    0.340020    43.987652
    0.350017    51.876804
    0.359971    65.290550
    0.379939    75.030411
    0.400000    81.141388
    0.419992    81.219711
    0.439947    85.596550
    0.450045    89.112640
    0.459982    86.727814
    0.480077    75.148415
    0.500000    66.326744
    0.550055    35.088383
    0.599880    30.279657
    0.650195    34.544571
    0.667111    33.795376
    0.699790    28.385576
    0.750188    23.891026
    0.800000    22.782917
    0.850340    23.816940
    0.900090    23.269396
    0.949668    24.492393
    1.000000    20.284302
    1.100110    17.371614
    1.200480    11.530685
    1.300390    11.493339
    1.400560    14.447701
    1.499250    11.637691
    1.600000     8.730203
    1.700680     9.502817
    1.798561     9.116672
    1.901141     9.909575
    2.000000     9.958962
    2.197802     9.275921
    2.398082     5.821660
    2.500000     5.472985
    2.597403     4.742203
    2.801121     5.171791
    3.003003     4.604200
    3.205128     3.938179
    3.401361     3.471708
    3.496503     3.035564
    3.597122     2.997949
    3.802281     2.929270
    4.000000     2.442954
    4.201681     2.162348
    4.405286     1.899359
    4.608295     1.602130
    4.807692     1.332622
    5.000000     1.124572
    5.494505     1.080523
    5.988024     0.728977
    6.493506     0.568792
    6.993007     0.510393
    7.518797     0.463573
    8.000000     0.414760
    8.474576     0.367326
    9.009009     0.323247
    9.523809     0.283856
   10.000000     0.249640
