EVENT_NAME: L_AQUILA
EVENT_ID: IT-2009-0009
EVENT_DATE_YYYYMMDD: 20090406
EVENT_TIME_HHMMSS: 013240
EVENT_LATITUDE_DEGREE: 42.3420
EVENT_LONGITUDE_DEGREE: 13.3800
EVENT_DEPTH_KM: 8.3
HYPOCENTER_REFERENCE: INGV-CNT_Seismic_Bulletin
MAGNITUDE_W: 6.1
MAGNITUDE_W_REFERENCE: INGV-CNT_Seismic_Bulletin
MAGNITUDE_L: 
MAGNITUDE_L_REFERENCE: 
FOCAL_MECHANISM: Normal faulting
NETWORK: IT
STATION_CODE: ANT
STATION_NAME: 
STATION_LATITUDE_DEGREE: 42.418110
STATION_LONGITUDE_DEGREE: 13.078598
STATION_ELEVATION_M: 568
LOCATION: 
SENSOR_DEPTH_M: 0.0
VS30_M/S: 912
SITE_CLASSIFICATION_EC8: A
MORPHOLOGIC_CLASSIFICATION: 
EPICENTRAL_DISTANCE_KM: 26.2
EARTHQUAKE_BACKAZIMUTH_DEGREE: 288.9
DATE_TIME_FIRST_SAMPLE_YYYYMMDD_HHMMSS: 20090406_013216.000
DATE_TIME_FIRST_SAMPLE_PRECISION: seconds
SAMPLING_INTERVAL_S: 0.005000
NDATA: 24000
DURATION_S: 120.000
STREAM: HNZ
UNITS: cm
INSTRUMENT: sensor = FBA-3 [Kinemetrics] | digitizer = Etna [Kinemetrics]
INSTRUMENT_ANALOG/DIGITAL: D
INSTRUMENTAL_FREQUENCY_HZ: 206.000
INSTRUMENTAL_DAMPING: 0.700000
FULL_SCALE_G: 1.0
N_BIT_DIGITAL_CONVERTER: 18
PGD_CM: -0.302594
TIME_PGD_S: 40.685000
BASELINE_CORRECTION: BASELINE REMOVED
FILTER_TYPE: BUTTERWORTH
FILTER_ORDER: 2
LOW_CUT_FREQUENCY_HZ: 0.100
HIGH_CUT_FREQUENCY_HZ: 40.000
LATE/NORMAL_TRIGGERED: NT
DATABASE_VERSION: 0.5
HEADER_FORMAT: DYNA 1.2
DATA_TYPE: DISPLACEMENT
PROCESSING: manual (Paolucci et al., 2011)
DATA_TIMESTAMP_YYYYMMDD_HHMMSS: 20211011_154921.865
DATA_LICENSE: CC-BY3_0-IT (http://creativecommons.org/licenses/by/3.0/deed.en)
DATA_CITATION: Luzi L, Pacor F, Puglia R (2019). Italian Accelerometric Archive v 3.0 - Istituto Nazionale di Geofisica e Vulcanologia, Dipartimento della Protezione Civile Nazionale. doi: 10.13127/itaca.3.1
DATA_CREATOR: ITACA working group
ORIGINAL_DATA_MEDIATOR_CITATION: data obtained within the DPC-INGV data exchange agreements
ORIGINAL_DATA_MEDIATOR: Archive of Italian Department of Civil Protection
ORIGINAL_DATA_CREATOR_CITATION: Presidency Of Counsil Of Ministers-Civil Protection Department. (1972). Italian Strong Motion Network. Presidency of Counsil of Ministers - Civil Protection Department. https://doi.org/10.7914/SN/IT http://www.fdsn.org/networks/detail/IT/
ORIGINAL_DATA_CREATOR: network: IT (Italian Strong Motion Network (RAN)); owner: Presidency of Counsil of Ministers - Civil Protection Department (PCM - DPC)
USER1: 
USER2: 
USER3: 
USER4: 
USER5: 
[...]
1.094859e-01
1.113920e-01
1.133020e-01
1.152446e-01
1.172412e-01
1.193044e-01
1.214366e-01
1.236310e-01
1.258722e-01
1.281384e-01
1.304022e-01
1.326318e-01
1.347933e-01
1.368537e-01
1.387856e-01
1.405705e-01
1.422020e-01
1.436857e-01
1.450381e-01
1.462839e-01
1.474541e-01
1.485836e-01
1.497106e-01
1.508753e-01
1.521167e-01
1.534696e-01
1.549586e-01
1.565949e-01
1.583734e-01
1.602756e-01
1.622751e-01
1.643460e-01
1.664680e-01
1.686266e-01
1.708091e-01
1.729991e-01
1.751743e-01
1.773073e-01
1.793710e-01
1.813434e-01
1.832122e-01
1.849756e-01
1.866404e-01
1.882189e-01
1.897237e-01
1.911641e-01
1.925426e-01
1.938543e-01
1.950889e-01
1.962335e-01
1.972773e-01
1.982138e-01
1.990419e-01
1.997654e-01
2.003909e-01
2.009255e-01
2.013741e-01
2.017377e-01
2.020124e-01
2.021908e-01
2.022657e-01
2.022344e-01
2.021017e-01
2.018803e-01
2.015868e-01
2.012361e-01
2.008367e-01
2.003871e-01
1.998760e-01
1.992856e-01
1.985967e-01
1.977925e-01
1.968621e-01
1.957999e-01
1.946037e-01
1.932726e-01
1.918067e-01
1.902087e-01
1.884851e-01
1.866475e-01
1.847118e-01
1.826966e-01
1.806223e-01
1.785108e-01
1.763851e-01
1.742688e-01
1.721844e-01
1.701504e-01
1.681789e-01
1.662744e-01
1.644342e-01
1.626523e-01
1.609233e-01
1.592460e-01
1.576248e-01
1.560686e-01
1.545882e-01
1.531939e-01
1.518931e-01
1.506886e-01
1.495766e-01
1.485455e-01
1.475756e-01
1.466416e-01
1.457148e-01
1.447664e-01
1.437690e-01
1.426976e-01
1.415309e-01
1.402524e-01
1.388515e-01
1.373214e-01
1.356557e-01
1.338454e-01
1.318780e-01
1.297402e-01
1.274213e-01
1.249175e-01
1.222338e-01
1.193842e-01
1.163916e-01
1.132859e-01
1.101020e-01
1.068768e-01
1.036443e-01
1.004324e-01
9.726061e-02
9.414022e-02
9.107632e-02
8.807064e-02
8.512430e-02
8.223960e-02
7.942081e-02
7.667364e-02
7.400384e-02
7.141544e-02
6.890992e-02
6.648627e-02
6.414221e-02
6.187585e-02
5.968751e-02
5.758112e-02
5.556425e-02
5.364675e-02
5.183841e-02
5.014674e-02
4.857587e-02
4.712686e-02
4.579885e-02
4.459069e-02
4.350226e-02
4.253508e-02
4.169204e-02
4.097638e-02
4.039063e-02
3.993662e-02
3.961664e-02
3.943501e-02
3.939894e-02
3.951784e-02
3.980177e-02
4.025964e-02
4.089792e-02
4.171957e-02
4.272264e-02
4.389859e-02
4.523109e-02
4.669637e-02
4.826475e-02
4.990262e-02
5.157375e-02
5.324020e-02
5.486349e-02
5.640644e-02
5.783596e-02
5.912598e-02
6.025964e-02
6.123038e-02
6.204114e-02
6.270217e-02
6.322792e-02
6.363383e-02
6.393391e-02
6.414001e-02
6.426380e-02
6.432043e-02
6.433153e-02
6.432559e-02
6.433562e-02
6.439528e-02
6.453530e-02
6.478090e-02
6.515056e-02
6.565589e-02
6.630244e-02
6.709084e-02
6.801745e-02
6.907446e-02
7.025016e-02
7.152998e-02
7.289780e-02
7.433666e-02
7.582835e-02
7.735220e-02
7.888422e-02
8.039725e-02
8.186192e-02
8.324860e-02
8.453035e-02
8.568656e-02
8.670619e-02
8.758928e-02
8.834589e-02
8.899280e-02
8.954874e-02
9.002987e-02
9.044682e-02
9.080377e-02
9.109915e-02
9.132723e-02
9.147994e-02
9.154788e-02
9.152039e-02
9.138539e-02
9.112935e-02
9.073779e-02
9.019657e-02
8.949353e-02
8.862040e-02
8.757436e-02
8.635818e-02
8.497902e-02
8.344645e-02
8.177022e-02
7.995875e-02
7.801828e-02
7.595296e-02
7.376543e-02
7.145783e-02
6.903297e-02
6.649618e-02
6.385764e-02
6.113413e-02
5.834869e-02
5.552794e-02
5.269799e-02
4.988046e-02
4.708991e-02
4.433308e-02
4.161002e-02
3.891655e-02
3.624715e-02
3.359792e-02
3.096905e-02
2.836640e-02
2.580197e-02
2.329300e-02
2.086011e-02
1.852476e-02
1.630656e-02
1.422159e-02
1.228183e-02
1.049566e-02
8.868226e-03
7.400939e-03
6.090385e-03
4.927342e-03
3.896479e-03
2.977166e-03
2.145370e-03
1.375673e-03
6.422241e-04
-8.173676e-05
-8.249656e-04
-1.618374e-03
-2.493217e-03
-3.477894e-03
-4.595075e-03
-5.860431e-03
-7.283273e-03
-8.868755e-03
-1.062072e-02
-1.254415e-02
-1.464624e-02
-1.693590e-02
-1.942138e-02
-2.210692e-02
-2.498924e-02
-2.805523e-02
-3.128153e-02
-3.463593e-02
-3.808047e-02
-4.157597e-02
-4.508725e-02
-4.858787e-02
-5.206333e-02
-5.551217e-02
-5.894517e-02
-6.238264e-02
-6.584972e-02
-6.937082e-02
-7.296463e-02
-7.664184e-02
-8.040532e-02
-8.425124e-02
-8.817025e-02
-9.214893e-02
-9.617157e-02
-1.002215e-01
-1.042819e-01
-1.083361e-01
-1.123677e-01
-1.163609e-01
-1.203000e-01
-1.241678e-01
-1.279448e-01
-1.316096e-01
-1.351403e-01
-1.385169e-01
-1.417225e-01
-1.447447e-01
-1.475746e-01
-1.502063e-01
-1.526358e-01
-1.548609e-01
-1.568811e-01
-1.586982e-01
-1.603176e-01
-1.617487e-01
-1.630037e-01
-1.640949e-01
-1.650317e-01
-1.658196e-01
-1.664597e-01
-1.669512e-01
-1.672939e-01
-1.674911e-01
-1.675512e-01
-1.674877e-01
-1.673182e-01
-1.670632e-01
-1.667451e-01
-1.663869e-01
-1.660111e-01
-1.656375e-01
-1.652810e-01
-1.649510e-01
-1.646505e-01
-1.643784e-01
-1.641318e-01
-1.639092e-01
-1.637121e-01
-1.635453e-01
-1.634159e-01
-1.633308e-01
-1.632937e-01
-1.633036e-01
-1.633548e-01
-1.634389e-01
-1.635486e-01
-1.636793e-01
-1.638287e-01
-1.639940e-01
-1.641684e-01
-1.643386e-01
-1.644851e-01
-1.645849e-01
-1.646156e-01
-1.645596e-01
-1.644073e-01
-1.641573e-01
-1.638135e-01
-1.633818e-01
-1.628657e-01
-1.622647e-01
-1.615734e-01
-1.607831e-01
-1.598839e-01
-1.588681e-01
-1.577314e-01
-1.564736e-01
-1.550972e-01
-1.536051e-01
-1.520000e-01
-1.502840e-01
-1.484595e-01
-1.465303e-01
-1.445028e-01
-1.423861e-01
-1.401917e-01
-1.379317e-01
-1.356174e-01
-1.332577e-01
-1.308596e-01
-1.284288e-01
-1.259701e-01
-1.234868e-01
-1.209795e-01
-1.184461e-01
-1.158821e-01
-1.132827e-01
-1.106438e-01
-1.079630e-01
-1.052391e-01
-1.024720e-01
-9.966053e-02
-9.680176e-02
-9.388927e-02
-9.091390e-02
-8.786629e-02
-8.474049e-02
-8.153691e-02
-7.826306e-02
-7.493165e-02
-7.155746e-02
-6.815418e-02
-6.473265e-02
-6.130044e-02
-5.786196e-02
-5.441814e-02
-5.096566e-02
-4.749668e-02
-4.399974e-02
-4.046201e-02
-3.687185e-02
-3.322110e-02
-2.950655e-02
-2.573018e-02
-2.189829e-02
-1.801990e-02
-1.410510e-02
-1.016424e-02
-6.208136e-03
-2.249290e-03
1.697036e-03
5.612666e-03
9.478050e-03
1.327503e-02
1.698984e-02
2.061510e-02
2.414997e-02
2.759894e-02
3.097020e-02
3.427444e-02
3.752376e-02
4.073056e-02
4.390624e-02
4.706043e-02
5.020037e-02
5.333026e-02
5.645005e-02
5.955422e-02
6.263100e-02
6.566275e-02
6.862759e-02
7.150262e-02
7.426742e-02
7.690639e-02
7.940954e-02
8.177207e-02
8.399373e-02
8.607861e-02
8.803520e-02
8.987609e-02
9.161677e-02
9.327404e-02
9.486461e-02
9.640422e-02
9.790655e-02
9.938206e-02
1.008370e-01
1.022727e-01
1.036862e-01
1.050707e-01
1.064182e-01
1.077198e-01
1.089673e-01
1.101532e-01
1.112723e-01
1.123229e-01
1.133067e-01
1.142276e-01
1.150880e-01
1.158865e-01
1.166167e-01
1.172677e-01
1.178269e-01
1.182821e-01
1.186249e-01
1.188515e-01
1.189624e-01
1.189623e-01
1.188589e-01
1.186628e-01
1.183852e-01
1.180373e-01
1.176288e-01
1.171683e-01
1.166632e-01
1.161207e-01
1.155470e-01
1.149473e-01
1.143254e-01
1.136841e-01
1.130259e-01
1.123547e-01
1.116755e-01
1.109929e-01
1.103100e-01
1.096260e-01
1.089356e-01
1.082294e-01
1.074949e-01
1.067183e-01
1.058856e-01
1.049843e-01
1.040044e-01
1.029395e-01
1.017870e-01
1.005484e-01
9.922921e-02
9.783839e-02
9.638784e-02
9.489158e-02
9.336483e-02
9.182291e-02
9.027994e-02
8.874754e-02
8.723389e-02
8.574326e-02
8.427584e-02
8.282743e-02
8.138904e-02
7.994695e-02
7.848341e-02
7.697784e-02
7.540804e-02
7.375084e-02
7.198191e-02
7.007519e-02
6.800290e-02
6.573727e-02
6.325400e-02
6.053613e-02
5.757670e-02
5.437875e-02
5.095314e-02
4.731470e-02
4.347790e-02
3.945337e-02
3.524628e-02
3.085687e-02
2.628242e-02
2.152024e-02
1.657071e-02
1.143963e-02
6.139170e-03
6.872880e-04
-4.893954e-03
-1.058027e-02
-1.634650e-02
-2.216709e-02
-2.801590e-02
-3.386523e-02
-3.968454e-02
-4.543940e-02
-5.109183e-02
-5.660243e-02
-6.193402e-02
-6.705563e-02
-7.194510e-02
-7.658982e-02
-8.098543e-02
-8.513319e-02
-8.903677e-02
-9.269973e-02
-9.612442e-02
-9.931255e-02
-1.022667e-01
-1.049922e-01
-1.074976e-01
-1.097948e-01
-1.118969e-01
-1.138161e-01
-1.155611e-01
-1.171359e-01
-1.185409e-01
-1.197762e-01
-1.208454e-01
-1.217591e-01
-1.225352e-01
-1.231973e-01
-1.237708e-01
-1.242789e-01
-1.247407e-01
-1.251695e-01
-1.255744e-01
-1.259612e-01
-1.263335e-01
-1.266934e-01
-1.270419e-01
-1.273797e-01
-1.277072e-01
-1.280252e-01
-1.283347e-01
-1.286365e-01
-1.289313e-01
-1.292184e-01
-1.294945e-01
-1.297533e-01
-1.299847e-01
-1.301744e-01
-1.303051e-01
-1.303584e-01
-1.303170e-01
-1.301682e-01
-1.299053e-01
-1.295286e-01
-1.290448e-01
-1.284661e-01
-1.278089e-01
-1.270913e-01
-1.263318e-01
-1.255471e-01
-1.247503e-01
-1.239503e-01
-1.231516e-01
-1.223548e-01
-1.215571e-01
-1.207516e-01
-1.199265e-01
-1.190671e-01
-1.181592e-01
-1.171926e-01
-1.161640e-01
-1.150767e-01
-1.139387e-01
-1.127587e-01
-1.115439e-01
-1.102992e-01
-1.090274e-01
-1.077312e-01
-1.064134e-01
-1.050769e-01
-1.037224e-01
-1.023472e-01
-1.009435e-01
-9.949831e-02
-9.799476e-02
-9.641386e-02
-9.473687e-02
-9.294723e-02
-9.103176e-02
-8.898058e-02
-8.678647e-02
-8.444456e-02
-8.195305e-02
-7.931461e-02
-7.653732e-02
-7.363398e-02
-7.061980e-02
-6.750955e-02
-6.431556e-02
-6.104672e-02
-5.770861e-02
-5.430399e-02
-5.083331e-02
-4.729516e-02
-4.368621e-02
-4.000025e-02
-3.622712e-02
-3.235264e-02
-2.836053e-02
-2.423580e-02
-1.996902e-02
-1.555979e-02
-1.101834e-02
-6.364958e-03
-1.627779e-03
3.160073e-03
7.963325e-03
1.274701e-02
1.747825e-02
2.212713e-02
2.666693e-02
3.107416e-02
3.532879e-02
3.941460e-02
4.331968e-02
4.703650e-02
5.056162e-02
5.389550e-02
5.704273e-02
6.001287e-02
6.282128e-02
6.548934e-02
6.804372e-02
7.051478e-02
7.293382e-02
7.532971e-02
7.772570e-02
8.013719e-02
8.257165e-02
8.503066e-02
8.751314e-02
9.001830e-02
9.254722e-02
9.510287e-02
9.768905e-02
1.003084e-01
1.029604e-01
1.056391e-01
1.083325e-01
1.110227e-01
1.136882e-01
1.163069e-01
1.188583e-01
1.213244e-01
1.236901e-01
1.259423e-01
1.280679e-01
1.300522e-01
1.318773e-01
1.335229e-01
1.349688e-01
1.361971e-01
1.371953e-01
1.379571e-01
1.384823e-01
1.387752e-01
1.388424e-01
1.386900e-01
1.383232e-01
1.377464e-01
1.369650e-01
1.359874e-01
1.348267e-01
1.335015e-01
1.320354e-01
1.304547e-01
1.287852e-01
1.270497e-01
1.252668e-01
1.234508e-01
1.216134e-01
1.197658e-01
1.179214e-01
1.160967e-01
1.143108e-01
1.125829e-01
1.109299e-01
1.093646e-01
1.078948e-01
1.065235e-01
1.052502e-01
1.040719e-01
1.029852e-01
1.019870e-01
1.010748e-01
1.002461e-01
9.949848e-02
9.882898e-02
9.823362e-02
9.770607e-02
9.723678e-02
9.681298e-02
9.641992e-02
9.604278e-02
9.566862e-02
9.528777e-02
9.489424e-02
9.448459e-02
9.405539e-02
9.360055e-02
9.310946e-02
9.256649e-02
9.195153e-02
9.124138e-02
9.041168e-02
8.943904e-02
8.830274e-02
8.698561e-02
8.547397e-02
8.375685e-02
8.182493e-02
7.966923e-02
7.728003e-02
7.464670e-02
7.175859e-02
6.860718e-02
6.518917e-02
6.150981e-02
5.758477e-02
5.343991e-02
4.910911e-02
4.463105e-02
4.004568e-02
3.539163e-02
3.070479e-02
2.601754e-02
2.135835e-02
1.675166e-02
1.221771e-02
7.772107e-03
3.425046e-03
-8.192169e-04
-4.961960e-03
-9.008542e-03
-1.296675e-02
-1.684572e-02
-2.065541e-02
-2.440593e-02
-2.810619e-02
-3.176180e-02
-3.537296e-02
-3.893338e-02
-4.243093e-02
-4.584998e-02
-4.917468e-02
-5.239208e-02
-5.549443e-02
-5.848019e-02
-6.135340e-02
-6.412175e-02
-6.679394e-02
-6.937756e-02
-7.187768e-02
-7.429679e-02
-7.663581e-02
-7.889587e-02
-8.108001e-02
-8.319427e-02
-8.524772e-02
-8.725132e-02
-8.921584e-02
-9.114956e-02
-9.305637e-02
-9.493473e-02
-9.677749e-02
-9.857289e-02
-1.003072e-01
-1.019683e-01
-1.035496e-01
-1.050524e-01
-1.064870e-01
-1.078723e-01
-1.092339e-01
-1.106014e-01
-1.120048e-01
-1.134722e-01
-1.150289e-01
-1.166972e-01
-1.184973e-01
-1.204477e-01
-1.225650e-01
-1.248637e-01
-1.273561e-01
-1.300515e-01
-1.329559e-01
-1.360708e-01
-1.393919e-01
-1.429085e-01
-1.466038e-01
-1.504553e-01
-1.544362e-01
-1.585179e-01
-1.626723e-01
-1.668750e-01
-1.711066e-01
-1.753528e-01
-1.796038e-01
-1.838520e-01
-1.880903e-01
-1.923110e-01
-1.965050e-01
-2.006635e-01
-2.047789e-01
-2.088464e-01
-2.128639e-01
-2.168316e-01
-2.207497e-01
-2.246166e-01
-2.284276e-01
-2.321751e-01
-2.358499e-01
-2.394441e-01
-2.429534e-01
-2.463782e-01
-2.497226e-01
-2.529923e-01
-2.561914e-01
-2.593202e-01
-2.623740e-01
-2.653435e-01
-2.682157e-01
-2.709761e-01
-2.736114e-01
-2.761116e-01
-2.784717e-01
-2.806926e-01
-2.827808e-01
-2.847465e-01
-2.866022e-01
-2.883602e-01
-2.900316e-01
-2.916250e-01
-2.931456e-01
-2.945952e-01
-2.959712e-01
-2.972665e-01
-2.984686e-01
-2.995603e-01
-3.005207e-01
-3.013269e-01
-3.019558e-01
-3.023851e-01
-3.025943e-01
-3.025648e-01
-3.022796e-01
-3.017242e-01
-3.008874e-01
-2.997638e-01
-2.983554e-01
-2.966728e-01
-2.947346e-01
-2.925644e-01
-2.901881e-01
-2.876307e-01
-2.849145e-01
-2.820591e-01
-2.790822e-01
-2.760011e-01
-2.728333e-01
-2.695966e-01
-2.663087e-01
-2.629865e-01
-2.596453e-01
-2.562983e-01
-2.529566e-01
-2.496292e-01
-2.463230e-01
-2.430427e-01
-2.397895e-01
-2.365615e-01
-2.333533e-01
-2.301568e-01
-2.269633e-01
-2.237656e-01
-2.205610e-01
-2.173530e-01
-2.141505e-01
-2.109664e-01
-2.078133e-01
-2.047014e-01
-2.016352e-01
-1.986135e-01
-1.956312e-01
-1.926815e-01
-1.897584e-01
-1.868587e-01
-1.839832e-01
-1.811360e-01
-1.783235e-01
-1.755521e-01
-1.728263e-01
-1.701474e-01
-1.675131e-01
-1.649194e-01
-1.623604e-01
-1.598295e-01
-1.573177e-01
-1.548129e-01
-1.522984e-01
-1.497541e-01
-1.471561e-01
-1.444788e-01
-1.416957e-01
-1.387818e-01
-1.357149e-01
-1.324778e-01
-1.290592e-01
-1.254535e-01
-1.216596e-01
-1.176804e-01
-1.135225e-01
-1.091974e-01
-1.047217e-01
-1.001174e-01
-9.541082e-02
-9.063165e-02
-8.581058e-02
-8.097718e-02
-7.615759e-02
-7.137277e-02
-6.663744e-02
-6.195955e-02
-5.734058e-02
-5.277693e-02
-4.826214e-02
-4.378918e-02
-3.935240e-02
-3.494882e-02
-3.057889e-02
-2.624671e-02
-2.195949e-02
-1.772640e-02
-1.355687e-02
-9.459167e-03
-5.439816e-03
-1.504266e-03
2.341982e-03
6.092538e-03
9.740202e-03
1.327807e-02
1.670110e-02
2.000755e-02
2.319987e-02
2.628493e-02
2.927344e-02
3.217856e-02
3.501405e-02
3.779256e-02
4.052453e-02
4.321784e-02
4.587817e-02
4.850991e-02
5.111715e-02
5.370395e-02
5.627358e-02
5.882709e-02
6.136220e-02
6.387320e-02
6.635198e-02
6.878981e-02
7.117898e-02
7.351342e-02
7.578869e-02
7.800157e-02
8.015001e-02
8.223295e-02
8.425004e-02
8.620128e-02
8.808676e-02
8.990664e-02
9.166165e-02
9.335358e-02
9.498612e-02
9.656558e-02
9.810114e-02
9.960412e-02
1.010862e-01
1.025571e-01
1.040227e-01
1.054842e-01
1.069394e-01
1.083853e-01
1.098211e-01
1.112514e-01
1.126865e-01
1.141419e-01
1.156347e-01
1.171808e-01
1.187920e-01
1.204753e-01
1.222329e-01
1.240645e-01
1.259698e-01
1.279509e-01
1.300129e-01
1.321630e-01
1.344085e-01
1.367544e-01
1.392022e-01
1.417495e-01
1.443911e-01
1.471197e-01
1.499276e-01
1.528067e-01
1.557480e-01
1.587407e-01
1.617714e-01
1.648237e-01
1.678799e-01
1.709225e-01
1.739354e-01
1.769045e-01
1.798171e-01
1.826608e-01
1.854229e-01
1.880900e-01
1.906488e-01
1.930866e-01
1.953933e-01
1.975624e-01
1.995920e-01
2.014850e-01
2.032484e-01
2.048928e-01
2.064303e-01
2.078744e-01
2.092381e-01
2.105350e-01
2.117793e-01
2.129871e-01
2.141755e-01
2.153613e-01
2.165586e-01
2.177759e-01
2.190145e-01
2.202674e-01
2.215211e-01
2.227580e-01
2.239599e-01
2.251097e-01
2.261929e-01
2.271976e-01
2.281135e-01
2.289307e-01
2.296393e-01
2.302302e-01
2.306966e-01
2.310357e-01
2.312488e-01
2.313412e-01
2.313202e-01
2.311943e-01
2.309708e-01
2.306551e-01
2.302494e-01
2.297530e-01
2.291628e-01
2.284748e-01
2.276858e-01
2.267949e-01
2.258036e-01
2.247156e-01
2.235351e-01
2.222657e-01
2.209094e-01
2.194672e-01
2.179396e-01
2.163272e-01
2.146304e-01
2.128483e-01
2.109781e-01
2.090142e-01
2.069490e-01
2.047743e-01
2.024824e-01
2.000679e-01
1.975277e-01
1.948611e-01
1.920696e-01
1.891561e-01
1.861249e-01
1.829810e-01
1.797296e-01
1.763764e-01
1.729282e-01
1.693950e-01
1.657898e-01
1.621288e-01
1.584302e-01
1.547123e-01
1.509926e-01
1.472858e-01
1.436034e-01
1.399529e-01
1.363382e-01
1.327602e-01
1.292189e-01
1.257138e-01
1.222458e-01
1.188170e-01
1.154313e-01
1.120936e-01
1.088095e-01
1.055842e-01
1.024215e-01
9.932371e-02
9.629094e-02
9.332196e-02
9.041458e-02
8.756614e-02
8.477372e-02
8.203418e-02
7.934402e-02
7.669881e-02
7.409224e-02
7.151527e-02
6.895598e-02
6.640046e-02
6.383435e-02
6.124476e-02
5.862185e-02
5.595939e-02
5.325391e-02
5.050327e-02
4.770539e-02
4.485813e-02
4.196033e-02
3.901326e-02
3.602198e-02
3.299597e-02
2.994890e-02
2.689754e-02
2.385993e-02
2.085322e-02
1.789170e-02
1.498546e-02
1.213964e-02
9.354345e-03
6.625468e-03
3.946142e-03
1.308615e-03
-1.294138e-03
-3.867690e-03
-6.416288e-03
-8.943277e-03
-1.145130e-02
-1.394217e-02
-1.641661e-02
-1.887444e-02
-2.131507e-02
-2.373789e-02
-2.614191e-02
-2.852466e-02
-3.088095e-02
-3.320225e-02
-3.547730e-02
-3.769368e-02
-3.984010e-02
-4.190864e-02
-4.389651e-02
-4.580699e-02
-4.764926e-02
-4.943731e-02
-5.118788e-02
-5.291819e-02
-5.464368e-02
-5.637658e-02
-5.812498e-02
-5.989246e-02
-6.167752e-02
-6.347331e-02
-6.526754e-02
-6.704303e-02
-6.877860e-02
-7.045069e-02
-7.203535e-02
-7.351004e-02
-7.485509e-02
-7.605465e-02
-7.709745e-02
-7.797732e-02
-7.869378e-02
-7.925306e-02
-7.966929e-02
-7.996496e-02
-8.016979e-02
-8.031814e-02
-8.044560e-02
-8.058583e-02
-8.076887e-02
-8.102094e-02
-8.136521e-02
-8.182263e-02
-8.241225e-02
-8.315053e-02
-8.404989e-02
-8.511756e-02
-8.635515e-02
-8.775909e-02
-8.932161e-02
-9.103180e-02
-9.287658e-02
-9.484139e-02
-9.691065e-02
-9.906757e-02
-1.012935e-01
-1.035678e-01
-1.058681e-01
-1.081708e-01
-1.104517e-01
-1.126870e-01
-1.148549e-01
-1.169363e-01
-1.189156e-01
-1.207817e-01
-1.225278e-01
-1.241516e-01
-1.256545e-01
-1.270405e-01
-1.283149e-01
-1.294838e-01
-1.305529e-01
-1.315280e-01
-1.324143e-01
-1.332159e-01
-1.339361e-01
-1.345778e-01
-1.351440e-01
-1.356390e-01
-1.360687e-01
-1.364409e-01
-1.367646e-01
-1.370496e-01
-1.373057e-01
