EVENT_NAME: L_AQUILA
EVENT_ID: IT-2009-0009
EVENT_DATE_YYYYMMDD: 20090406
EVENT_TIME_HHMMSS: 013240
EVENT_LATITUDE_DEGREE: 42.3420
EVENT_LONGITUDE_DEGREE: 13.3800
EVENT_DEPTH_KM: 8.3
HYPOCENTER_REFERENCE: INGV-CNT_Seismic_Bulletin
MAGNITUDE_W: 6.1
MAGNITUDE_W_REFERENCE: INGV-CNT_Seismic_Bulletin
MAGNITUDE_L: 
MAGNITUDE_L_REFERENCE: 
FOCAL_MECHANISM: Normal faulting
NETWORK: IT
STATION_CODE: ANT
STATION_NAME: 
STATION_LATITUDE_DEGREE: 42.418110
STATION_LONGITUDE_DEGREE: 13.078598
STATION_ELEVATION_M: 568
LOCATION: 
SENSOR_DEPTH_M: 0.0
VS30_M/S: 912
SITE_CLASSIFICATION_EC8: A
MORPHOLOGIC_CLASSIFICATION: 
EPICENTRAL_DISTANCE_KM: 26.2
EARTHQUAKE_BACKAZIMUTH_DEGREE: 288.9
DATE_TIME_FIRST_SAMPLE_YYYYMMDD_HHMMSS: 20090406_013216.000
DATE_TIME_FIRST_SAMPLE_PRECISION: seconds
SAMPLING_INTERVAL_S: 0.005000
NDATA: 24000
DURATION_S: 120.000
STREAM: HNZ
UNITS: cm/s^2
INSTRUMENT: sensor = FBA-3 [Kinemetrics] | digitizer = Etna [Kinemetrics]
INSTRUMENT_ANALOG/DIGITAL: D
INSTRUMENTAL_FREQUENCY_HZ: 206.000
INSTRUMENTAL_DAMPING: 0.700000
FULL_SCALE_G: 1.0
N_BIT_DIGITAL_CONVERTER: 18
PGA_CM/S^2: 11.473948
TIME_PGA_S: 40.710000
BASELINE_CORRECTION: BASELINE REMOVED
FILTER_TYPE: BUTTERWORTH
FILTER_ORDER: 2
LOW_CUT_FREQUENCY_HZ: 0.100
HIGH_CUT_FREQUENCY_HZ: 40.000
LATE/NORMAL_TRIGGERED: NT
DATABASE_VERSION: 0.5
HEADER_FORMAT: DYNA 1.2
DATA_TYPE: ACCELERATION
PROCESSING: manual (Paolucci et al., 2011)
DATA_TIMESTAMP_YYYYMMDD_HHMMSS: 20211011_154921.726
DATA_LICENSE: CC-BY3_0-IT (http://creativecommons.org/licenses/by/3.0/deed.en)
DATA_CITATION: Luzi L, Pacor F, Puglia R (2019). Italian Accelerometric Archive v 3.0 - Istituto Nazionale di Geofisica e Vulcanologia, Dipartimento della Protezione Civile Nazionale. doi: 10.13127/itaca.3.1
DATA_CREATOR: ITACA working group
ORIGINAL_DATA_MEDIATOR_CITATION: data obtained within the DPC-INGV data exchange agreements
ORIGINAL_DATA_MEDIATOR: Archive of Italian Department of Civil Protection
ORIGINAL_DATA_CREATOR_CITATION: Presidency Of Counsil Of Ministers-Civil Protection Department. (1972). Italian Strong Motion Network. Presidency of Counsil of Ministers - Civil Protection Department. https://doi.org/10.7914/SN/IT http://www.fdsn.org/networks/detail/IT/
ORIGINAL_DATA_CREATOR: network: IT (Italian Strong Motion Network (RAN)); owner: Presidency of Counsil of Ministers - Civil Protection Department (PCM - DPC)
USER1: 
USER2: 
USER3: 
USER4: 
USER5: 
[...]
2.674592
1.391219
0.155071
-0.878995
-1.625104
-2.090046
-2.339814
-2.444601
-2.438677
-2.319907
-2.083283
-1.751666
-1.383322
-1.065985
-0.889831
-0.894014
-1.029806
-1.188634
-1.275208
-1.247740
-1.106900
-0.882233
-0.618423
-0.347824
-0.071091
0.240583
0.620407
1.071332
1.551981
1.989948
2.311342
2.478401
2.501529
2.406051
2.199003
1.873653
1.443808
0.981043
0.604814
0.408080
0.386002
0.435052
0.414980
0.227294
-0.142093
-0.646302
-1.226873
-1.826524
-2.377287
-2.807058
-3.063453
-3.133723
-3.033673
-2.771168
-2.332988
-1.703117
-0.888407
0.057877
1.034129
1.928264
2.669595
3.254786
3.739924
4.198586
4.665166
5.107638
5.441922
5.573651
5.441432
5.033759
4.382289
3.553571
2.652464
1.821636
1.214343
0.943883
1.027829
1.360657
1.754060
2.029378
2.092236
1.951441
1.691046
1.412038
1.180116
1.007586
0.851966
0.622678
0.214116
-0.431969
-1.265243
-2.126448
-2.833055
-3.284321
-3.496041
-3.548530
-3.509002
-3.391546
-3.166304
-2.803216
-2.321566
-1.801039
-1.339981
-0.999646
-0.782597
-0.653262
-0.572073
-0.511268
-0.451039
-0.383050
-0.327569
-0.344786
-0.522706
-0.935467
-1.591512
-2.404414
-3.212531
-3.846432
-4.192703
-4.215039
-3.951909
-3.496150
-2.943788
-2.340588
-1.666794
-0.871387
0.070853
1.130674
2.242525
3.334159
4.332016
5.153559
5.716276
5.962604
5.882622
5.525750
4.996242
4.429572
3.951214
3.622329
3.398699
3.146499
2.720898
2.053704
1.186631
0.232644
-0.697040
-1.539186
-2.270617
-2.874006
-3.317374
-3.570634
-3.643240
-3.586869
-3.450446
-3.242313
-2.943953
-2.564119
-2.177081
-1.896494
-1.800549
-1.876821
-2.033433
-2.159435
-2.187071
-2.117016
-2.004108
-1.932694
-1.993469
-2.254761
-2.721101
-3.283183
-3.714870
-3.773915
-3.351899
-2.549382
-1.609763
-0.753738
-0.043802
0.613994
1.356077
2.241848
3.206057
4.093738
4.738875
5.040785
5.002727
4.723630
4.375478
4.176220
4.320155
4.871503
5.702963
6.542227
7.100976
7.211977
6.898504
6.333198
5.720273
5.182869
4.718913
4.244796
3.679512
2.988218
2.175351
1.277493
0.365504
-0.473711
-1.181612
-1.757398
-2.235091
-2.633329
-2.932604
-3.099975
-3.135128
-3.095018
-3.065753
-3.100920
-3.191778
-3.285609
-3.318082
-3.248337
-3.080381
-2.849223
-2.586848
-2.304020
-2.013457
-1.763363
-1.621065
-1.619740
-1.733611
-1.901998
-2.074383
-2.224406
-2.302085
-2.195002
-1.784377
-1.064456
-0.217418
0.444243
0.639785
0.256222
-0.618730
-1.751229
-2.860261
-3.712363
-4.183835
-4.283955
-4.118750
-3.796662
-3.349095
-2.734070
-1.891011
-0.781823
0.578580
2.086049
3.536547
4.671974
5.276341
5.280263
4.801593
4.075239
3.326640
2.685106
2.163672
1.694755
1.197910
0.622422
-0.047412
-0.777136
-1.453508
-1.883486
-1.845603
-1.180929
0.118747
1.863589
3.713158
5.335989
6.549516
7.312766
7.641153
7.568870
7.159141
6.498266
5.654932
4.641499
3.421008
1.961392
0.296871
-1.444855
-3.053658
-4.275053
-4.878191
-4.735150
-3.875586
-2.490029
-0.872792
0.664950
1.870289
2.595115
2.803537
2.537444
1.879734
0.955187
-0.066602
-1.012442
-1.758292
-2.248107
-2.486998
-2.525511
-2.440269
-2.318975
-2.239263
-2.225797
-2.206729
-2.023086
-1.516185
-0.640758
0.475910
1.568581
2.350552
2.645040
2.449422
1.903391
1.192821
0.459008
-0.220876
-0.789480
-1.173118
-1.296427
-1.121384
-0.662716
0.024064
0.843732
1.656130
2.311234
2.708041
2.817446
2.668324
2.332980
1.913997
1.513323
1.185436
0.905364
0.591721
0.185557
-0.281199
-0.693332
-0.925080
-0.913353
-0.672707
-0.242311
0.378343
1.234494
2.355918
3.685694
5.043957
6.150720
6.720937
6.590511
5.794583
4.555759
3.181687
1.919100
0.857327
-0.064032
-0.973434
-1.971469
-3.061605
-4.132369
-4.996345
-5.463203
-5.411205
-4.828896
-3.813756
-2.531503
-1.158337
0.158372
1.299847
2.161806
2.662548
2.764374
2.483268
1.874647
0.999455
-0.096962
-1.366805
-2.725735
-4.040856
-5.144870
-5.876525
-6.136279
-5.910659
-5.254670
-4.261436
-3.027912
-1.625174
-0.097849
1.502348
3.074309
4.454121
5.448303
5.888294
5.693577
4.944047
3.892387
2.855098
2.044223
1.465401
0.953553
0.303813
-0.594406
-1.685491
-2.777677
-3.648228
-4.142297
-4.218209
-3.942009
-3.456970
-2.944222
-2.577199
-2.475456
-2.668874
-3.089181
-3.596078
-4.033977
-4.292535
-4.333599
-4.185047
-3.920356
-3.637496
-3.438518
-3.401876
-3.555362
-3.848846
-4.141203
-4.250710
-4.052383
-3.549986
-2.885915
-2.283019
-1.951043
-2.010779
-2.457526
-3.167735
-3.946909
-4.608213
-5.047844
-5.271803
-5.361463
-5.396479
-5.389696
-5.287923
-5.021846
-4.558902
-3.925550
-3.178994
-2.361788
-1.489744
-0.568975
0.375952
1.274637
2.018065
2.502125
2.675195
2.575174
2.331296
2.115327
2.068790
2.244519
2.598668
3.032976
3.443351
3.741574
3.850960
3.699137
3.233213
2.453774
1.432617
0.289114
-0.864160
-1.959696
-2.959286
-3.815069
-4.468122
-4.897558
-5.169588
-5.422891
-5.784458
-6.281142
-6.819897
-7.241479
-7.396359
-7.198393
-6.631820
-5.722955
-4.524104
-3.124049
-1.657303
-0.290225
0.824742
1.604308
2.055911
2.259342
2.329174
2.373305
2.465668
2.636113
2.865333
3.094235
3.256570
3.314597
3.275277
3.183653
3.107583
3.121200
3.277777
3.580681
3.974878
4.366487
4.666681
4.832402
4.874017
4.839999
4.794100
4.789215
4.849969
4.965627
5.094975
5.196768
5.269555
5.360803
5.534385
5.822187
6.199201
6.600752
6.957686
7.216694
7.334561
7.256779
6.915043
6.262455
5.310651
4.124388
2.779479
1.330225
-0.186780
-1.726844
-3.213374
-4.536864
-5.580688
-6.253783
-6.517151
-6.399143
-5.989227
-5.411342
-4.793053
-4.233620
-3.759309
-3.292192
-2.686257
-1.821482
-0.681443
0.638594
1.985498
3.214128
4.223296
4.962397
5.426890
5.648845
5.673777
5.528445
5.216039
4.747714
4.164651
3.520040
2.841882
2.112857
1.286277
0.327255
-0.759961
-1.934365
-3.119465
-4.197126
-5.021742
-5.463176
-5.461729
-5.058962
-4.388291
-3.638523
-2.992528
-2.567322
-2.399545
-2.463284
-2.691944
-3.014364
-3.391318
-3.817088
-4.300008
-4.842115
-5.420469
-5.986411
-6.473169
-6.803155
-6.916634
-6.805744
-6.518711
-6.137019
-5.745878
-5.409802
-5.159894
-4.994376
-4.887901
-4.802966
-4.690491
-4.477311
-4.069752
-3.398900
-2.477165
-1.412324
-0.368356
0.496998
1.079288
1.348680
1.351042
1.183372
0.962895
0.806875
0.814136
1.049108
1.528551
2.218316
3.043616
3.901251
4.686322
5.328746
5.808707
6.143634
6.349261
6.405959
6.269305
5.900460
5.287201
4.461996
3.500679
2.483966
1.449930
0.379512
-0.770720
-2.007197
-3.257372
-4.393319
-5.300218
-5.926986
-6.299432
-6.505594
-6.659505
-6.858161
-7.146926
-7.502271
-7.833150
-8.002497
-7.871039
-7.346724
-6.412281
-5.124108
-3.605687
-2.038480
-0.631115
0.426392
1.006580
1.064676
0.633276
-0.178239
-1.184970
-2.160270
-2.908569
-3.336133
-3.450647
-3.297657
-2.923578
-2.387040
-1.758111
-1.092292
-0.418284
0.250368
0.901934
1.532733
2.166855
2.853789
3.630994
4.487534
5.361898
6.168671
6.836144
7.337322
7.690318
7.930164
8.086379
8.176317
8.198080
8.123313
7.907561
7.531348
7.043825
6.553848
6.172266
5.960428
5.909421
5.944615
5.951791
5.819815
5.484192
4.944064
4.240025
3.419884
2.525508
1.601070
0.705530
-0.084938
-0.690608
-1.055841
-1.181125
-1.133769
-1.022866
-0.959199
-1.018065
-1.213702
-1.496532
-1.769636
-1.922202
-1.879982
-1.648977
-1.320532
-1.022774
-0.838706
-0.748022
-0.636557
-0.362468
0.166758
0.946059
1.869447
2.767040
3.465097
3.849572
3.911570
3.749142
3.519813
3.372556
3.397789
3.611625
3.962468
4.351174
4.667490
4.834654
4.843167
4.748224
4.624969
4.520105
4.435839
4.340393
4.186668
3.933507
3.566286
3.109429
2.622447
2.175212
1.813316
1.535826
1.309529
1.116549
0.983767
0.956421
1.047899
1.222091
1.417365
1.578591
1.678082
1.720182
1.733627
1.769829
1.893773
2.148940
2.514921
2.889917
3.127511
3.110825
2.811465
2.301782
1.711649
1.163448
0.729845
0.427332
0.250774
0.213748
0.346165
0.660195
1.118123
1.631929
2.097132
2.423403
2.552269
2.472739
2.220696
1.860053
1.456028
1.043089
0.609235
0.109865
-0.500830
-1.227806
-2.009854
-2.736089
-3.286802
-3.582213
-3.615352
-3.436222
-3.108082
-2.681185
-2.196485
-1.701183
-1.244386
-0.859882
-0.569603
-0.402279
-0.403932
-0.625252
-1.094989
-1.801592
-2.676277
-3.592196
-4.409428
-5.032895
-5.433028
-5.625075
-5.634380
-5.471281
-5.131836
-4.627934
-4.007977
-3.337022
-2.667637
-2.038523
-1.491088
-1.072594
-0.823608
-0.766741
-0.893421
-1.154974
-1.484186
-1.830822
-2.166833
-2.463550
-2.672740
-2.742144
-2.667289
-2.520089
-2.419399
-2.474418
-2.733064
-3.164431
-3.678291
-4.156409
-4.495722
-4.649485
-4.624697
-4.444023
-4.128149
-3.712710
-3.255273
-2.814172
-2.423312
-2.083560
-1.778938
-1.498982
-1.247104
-1.039230
-0.888326
-0.779889
-0.670810
-0.520233
-0.324774
-0.130549
-0.014019
-0.044928
-0.255639
-0.632606
-1.129354
-1.686648
-2.243828
-2.743986
-3.140993
-3.401926
-3.505312
-3.443383
-3.223722
-2.864529
-2.389493
-1.828504
-1.219429
-0.606861
-0.041929
0.423008
0.749639
0.920821
0.928610
0.760159
0.400950
-0.147842
-0.858075
-1.681284
-2.569226
-3.496134
-4.468884
-5.511711
-6.622984
-7.733482
-8.705801
-9.383442
-9.662987
-9.540491
-9.106350
-8.513248
-7.934442
-7.509515
-7.301945
-7.293052
-7.401370
-7.509358
-7.494092
-7.261944
-6.775106
-6.056927
-5.174406
-4.203097
-3.196126
-2.174689
-1.128828
-0.020967
1.201254
2.577616
4.097167
5.673611
7.159927
8.399660
9.285349
9.789987
9.964226
9.914317
9.766998
9.624873
9.530852
9.462548
9.357254
9.149167
8.802277
8.330705
7.801217
7.314783
6.968896
6.809023
6.791769
6.789550
6.640869
6.221550
5.502635
4.561982
3.546195
2.609876
1.857917
1.317113
0.955457
0.723890
0.580648
0.496878
0.453573
0.431342
0.409903
0.379981
0.343181
0.304224
0.280691
0.310771
0.436580
0.691439
1.099576
1.665598
2.358190
3.101404
3.784191
4.296152
4.563073
4.555418
4.283610
3.791335
3.143867
2.414653
1.677428
1.008774
0.480087
0.129563
-0.048449
-0.078705
0.033559
0.315667
0.782137
1.371322
1.943549
2.345754
2.480622
2.344714
2.031290
1.678935
1.391247
1.200431
1.080067
0.977391
0.861108
0.752693
0.716474
0.828368
1.140917
1.658474
2.335337
3.093553
3.843995
4.505830
5.033285
5.428410
5.717357
5.911743
5.983991
5.877424
5.553935
5.041678
4.434152
3.842271
3.349812
2.994050
2.770759
2.660438
2.642498
2.698511
2.832138
3.080429
3.487119
4.053391
4.705752
5.304364
5.681996
5.698375
5.288667
4.477166
3.351928
2.026914
0.615979
-0.782474
-2.098005
-3.294575
-4.363090
-5.302440
-6.104567
-6.752416
-7.229148
-7.530744
-7.667629
-7.649686
-7.466124
-7.083545
-6.469068
-5.614447
-4.546686
-3.332965
-2.081059
-0.925550
0.003447
0.620285
0.919112
0.981656
0.938667
0.907422
0.950349
1.069597
1.220462
1.327844
1.304255
1.070946
0.585545
-0.129148
-0.985660
-1.871315
-2.694609
-3.410055
-4.015385
-4.543126
-5.061336
-5.653562
-6.367629
-7.177604
-7.992821
-8.699998
-9.204909
-9.457162
-9.463606
-9.289147
-9.032217
-8.781395
-8.577256
-8.399332
-8.183371
-7.849049
-7.324991
-6.577879
-5.635283
-4.586134
-3.552237
-2.638630
-1.897401
-1.322245
-0.856622
-0.406954
0.125157
0.789247
1.551805
2.319992
2.995798
3.508040
3.821290
3.942403
3.914980
3.801441
3.664290
3.542184
3.438266
3.340331
3.240726
3.126682
2.965653
2.712218
2.330422
1.820006
1.229350
0.636748
0.119076
-0.267497
-0.507014
-0.645099
-0.781673
-1.025919
-1.449992
-2.075028
-2.879477
-3.807943
-4.781831
-5.717534
-6.546441
-7.232997
-7.780724
-8.219130
-8.591914
-8.951390
-9.339821
-9.765284
-10.190918
-10.532441
-10.663734
-10.453955
-9.827130
-8.793311
-7.437202
-5.890455
-4.292428
-2.747066
-1.311750
-0.016459
1.122732
2.099846
2.909499
3.533761
3.941822
4.111931
4.060800
3.846431
3.534971
3.169445
2.771396
2.366626
2.010208
1.786289
1.778181
2.029277
2.514722
3.140107
3.774254
4.291987
4.601732
4.663664
4.501741
4.195009
3.845783
3.543281
3.339864
3.240361
3.203314
3.158742
3.036916
2.794938
2.432330
1.994328
1.562942
1.232053
1.076445
1.137917
1.424094
1.894332
2.444659
2.926198
3.192451
3.140936
2.728816
1.972265
0.945021
-0.233888
-1.435604
-2.562484
-3.570369
-4.464494
-5.271933
-6.009880
-6.676075
-7.259098
-7.746193
-8.121643
-8.359572
-8.417720
-8.248242
-7.823115
-7.146146
-6.246769
-5.178849
-4.028841
-2.910133
-1.930639
-1.154414
-0.587640
-0.189430
0.111421
0.393086
0.708385
1.063747
1.421948
1.723408
1.918548
1.996494
1.994412
1.984870
2.047377
2.233994
2.542100
2.907123
3.224153
3.395696
3.380429
3.213323
2.989925
2.825512
2.812558
2.997211
3.373983
3.892095
4.468683
5.005018
5.406670
5.603840
5.566197
5.310622
4.896030
4.402591
3.906166
3.465160
3.122555
2.908270
2.841750
2.941524
3.230615
3.726188
4.416818
5.253109
6.166807
7.093634
7.982897
8.803959
9.550033
10.224319
10.810334
11.254060
11.473948
11.391006
10.966233
10.228886
9.276741
8.242552
7.245395
6.352776
5.569455
4.857116
4.168000
3.469973
2.756836
2.046761
1.371116
0.759979
0.231838
-0.210469
-0.572289
-0.851198
-1.030651
-1.087852
-1.006919
-0.790895
-0.471359
-0.117253
0.167613
0.274637
0.139351
-0.224789
-0.729998
-1.246612
-1.643381
-1.827880
-1.783562
-1.574089
-1.301900
-1.064903
-0.939045
-0.964913
-1.133274
-1.387927
-1.645407
-1.823258
-1.871501
-1.790516
-1.618376
-1.393416
-1.120855
-0.765624
-0.275456
0.381170
1.198384
2.144416
3.173416
4.227687
5.236635
6.120389
6.807135
7.258870
7.484963
7.526128
7.414464
7.145590
6.689932
6.023187
5.145781
4.087756
2.905369
1.676098
0.493114
-0.552217
-1.390994
-1.979593
-2.297428
-2.356808
-2.212938
-1.954180
-1.673606
-1.446961
-1.327718
-1.346489
-1.509775
-1.798372
-2.165066
-2.542863
-2.872662
-3.134189
-3.352086
-3.572041
-3.827677
-4.115733
-4.391911
-4.593219
-4.663464
-4.565286
-4.290003
-3.862161
-3.335789
-2.784968
-2.279341
-1.861759
-1.546224
-1.319205
-1.143564
-0.980058
-0.817477
-0.686980
-0.644830
-0.735796
-0.964540
-1.288826
-1.637593
-1.946989
-2.188731
-2.367291
-2.495094
-2.577766
-2.620215
-2.633840
-2.633788
-2.630968
-2.623396
-2.595320
-2.522816
-2.375618
-2.123351
-1.755882
-1.303208
-0.836274
-0.446946
-0.213232
-0.162307
-0.250975
-0.374529
-0.401714
-0.224165
0.196454
0.808997
1.497708
2.131272
2.607292
2.880402
2.971845
2.960279
2.950712
3.031009
3.234406
3.524206
3.814683
4.017028
4.076305
3.983108
3.767849
3.482356
3.171046
2.847105
2.489061
2.056593
1.516108
0.867707
0.156844
-0.546316
-1.186949
-1.750976
-2.261065
-2.755493
-3.265388
-3.798600
-4.335905
-4.836465
-5.244705
-5.504224
-5.579159
-5.464460
-5.180605
-4.765955
-4.270114
-3.741934
-3.211486
-2.675195
-2.100823
-1.462028
-0.775147
-0.103693
0.457622
0.803089
0.849154
0.573143
0.030545
-0.667625
-1.402833
-2.084357
-2.663220
-3.139467
-3.552783
-3.948975
-4.344189
-4.707957
-4.977230
-5.094099
-5.037741
-4.832129
-4.531430
-4.200168
-3.901789
-3.689773
-3.597466
-3.628787
-3.752944
-3.911836
-4.038396
-4.078482
-4.013539
-3.869048
-3.698924
-3.557943
-3.474307
-3.437372
-3.415870
-3.391760
-3.377362
-3.408566
-3.526053
-3.747979
-4.051471
-4.383272
-4.683634
-4.905886
-5.028567
-5.054460
-4.998699
-4.877621
-4.707669
-4.508705
-4.298778
-4.074685
-3.795777
-3.405437
-2.877270
-2.230086
-1.508206
-0.768406
-0.074228
0.519027
0.974376
1.274948
1.429512
1.474038
1.462682
1.451758
1.481738
1.570773
1.720992
1.920996
2.143572
2.351186
2.508195
2.592416
2.601797
2.551588
2.464132
2.357552
2.240728
2.115391
1.975095
1.797944
1.545748
1.183860
0.707560
0.150470
-0.423712
-0.939057
-1.332599
-1.582543
-1.720338
-1.806620
-1.889570
-1.974768
-2.022134
-1.970802
-1.768241
-1.389005
-0.842542
-0.171810
0.550280
1.235863
1.807671
2.211329
2.416401
2.421277
2.256694
1.981981
1.671999
1.390961
1.168042
0.998158
0.864355
0.758482
0.686385
0.656954
0.664627
0.688024
0.712304
0.751890
0.850805
1.058689
1.399122
1.850320
2.346781
2.798432
3.115161
3.226657
3.096037
2.727956
2.169068
1.498723
0.810988
0.192363
-0.295908
-0.620593
-0.762660
-0.703629
-0.428802
0.061916
0.750061
1.596671
2.538886
3.497642
4.398478
5.185733
5.819627
6.270449
6.517090
6.536273
6.287391
5.722022
4.822481
3.633352
2.259068
0.836104
-0.511009
-1.712522
-2.761394
-3.687562
-4.526042
-5.288424
-5.946059
-6.443277
-6.732322
-6.796895
-6.653996
-6.342937
-5.907256
-5.383272
-4.801109
-4.178293
-3.506135
-2.761150
-1.934814
-1.039674
-0.095190
0.872529
1.821112
2.698657
3.461516
4.079588
4.530426
4.799840
4.892116
4.835985
4.676487
4.460602
4.224754
3.988143
3.760442
3.554861
3.386279
3.255798
3.142949
3.016867
2.847592
2.611053
2.302411
1.939941
1.549132
1.151317
0.760960
0.385188
0.030706
-0.285556
-0.534825
-0.687064
-0.723975
-0.645362
-0.466132
-0.208512
0.101403
0.432756
0.752062
1.032994
1.271416
1.488013
1.709648
1.945392
2.171068
2.336639
2.399745
2.358405
2.261463
2.192767
2.238964
2.461966
2.884727
3.489309
4.224859
5.021714
5.808442
6.525499
7.128107
7.579473
7.846645
7.906604
7.757190
7.420996
6.939855
6.369095
5.772515
5.212550
4.734432
4.354583
4.060821
3.817505
3.577136
3.296436
2.946777
2.520276
2.027822
1.483714
0.893687
0.266135
-0.368731
-0.958237
-1.443118
-1.776381
-1.933294
-1.910911
-1.727871
-1.425321
-1.060481
-0.694460
-0.388007
-0.205604
-0.207702
-0.425464
-0.845718
-1.419663
-2.077085
-2.743063
-3.353223
-3.852069
-4.190777
-4.345183
-4.328801
-4.176504
-3.922700
-3.588233
-3.171482
-2.656297
-2.033353
-1.318062
-0.556105
0.183043
0.812035
1.237836
1.392285
1.260679
0.886599
0.353910
-0.241026
-0.813249
-1.301530
-1.668762
-1.897889
-1.987702
-1.951144
-1.816019
-1.618575
-1.396426
-1.186893
-1.020144
-0.914831
-0.880459
-0.916182
-1.009566
-1.139574
-1.285489
-1.436263
-1.589009
-1.744462
-1.900393
-2.033308
-2.090600
-2.017369
-1.793153
-1.442856
-1.024342
-0.603782
-0.225097
0.103365
0.396341
0.674938
0.956707
1.248436
1.542833
1.816146
2.027523
2.133514
2.114406
1.989311
1.805612
1.610384
1.422924
1.226902
0.993944
0.717468
0.416516
0.114537
-0.174385
-0.449816
-0.727445
-1.030564
-1.371346
-1.743612
-2.129560
-2.502070
-2.829178
-3.086843
-3.262235
-3.350593
-3.359696
-3.311101
-3.228487
-3.125262
-3.000617
-2.845226
-2.652864
-2.420250
-2.136023
-1.783545
-1.356600
-0.863000
