EVENT_NAME: L_AQUILA
EVENT_ID: IT-2009-0009
EVENT_DATE_YYYYMMDD: 20090406
EVENT_TIME_HHMMSS: 013240
EVENT_LATITUDE_DEGREE: 42.3420
EVENT_LONGITUDE_DEGREE: 13.3800
EVENT_DEPTH_KM: 8.3
HYPOCENTER_REFERENCE: INGV-CNT_Seismic_Bulletin
MAGNITUDE_W: 6.1
MAGNITUDE_W_REFERENCE: INGV-CNT_Seismic_Bulletin
MAGNITUDE_L: 
MAGNITUDE_L_REFERENCE: 
FOCAL_MECHANISM: Normal faulting
NETWORK: IT
STATION_CODE: ANT
STATION_NAME: 
STATION_LATITUDE_DEGREE: 42.418110
STATION_LONGITUDE_DEGREE: 13.078598
STATION_ELEVATION_M: 568
LOCATION: 
SENSOR_DEPTH_M: 0.0
VS30_M/S: 912
SITE_CLASSIFICATION_EC8: A
MORPHOLOGIC_CLASSIFICATION: 
EPICENTRAL_DISTANCE_KM: 26.2
EARTHQUAKE_BACKAZIMUTH_DEGREE: 288.9
DATE_TIME_FIRST_SAMPLE_YYYYMMDD_HHMMSS: 20090406_013216.000
DATE_TIME_FIRST_SAMPLE_PRECISION: seconds
SAMPLING_INTERVAL_S: 0.005000
NDATA: 24000
DURATION_S: 120.000
STREAM: HNN
UNITS: cm/s
INSTRUMENT: sensor = FBA-3 [Kinemetrics] | digitizer = Etna [Kinemetrics]
INSTRUMENT_ANALOG/DIGITAL: D
INSTRUMENTAL_FREQUENCY_HZ: 214.000
INSTRUMENTAL_DAMPING: 0.700000
FULL_SCALE_G: 1.0
N_BIT_DIGITAL_CONVERTER: 18
PGV_CM/S: 2.468156
TIME_PGV_S: 42.225000
BASELINE_CORRECTION: BASELINE REMOVED
FILTER_TYPE: BUTTERWORTH
FILTER_ORDER: 2
LOW_CUT_FREQUENCY_HZ: 0.100
HIGH_CUT_FREQUENCY_HZ: 40.000
LATE/NORMAL_TRIGGERED: NT
DATABASE_VERSION: 0.5
HEADER_FORMAT: DYNA 1.2
DATA_TYPE: VELOCITY
PROCESSING: manual (Paolucci et al., 2011)
DATA_TIMESTAMP_YYYYMMDD_HHMMSS: 20211011_154921.456
DATA_LICENSE: CC-BY3_0-IT (http://creativecommons.org/licenses/by/3.0/deed.en)
DATA_CITATION: Luzi L, Pacor F, Puglia R (2019). Italian Accelerometric Archive v 3.0 - Istituto Nazionale di Geofisica e Vulcanologia, Dipartimento della Protezione Civile Nazionale. doi: 10.13127/itaca.3.1
DATA_CREATOR: ITACA working group
ORIGINAL_DATA_MEDIATOR_CITATION: data obtained within the DPC-INGV data exchange agreements
ORIGINAL_DATA_MEDIATOR: Archive of Italian Department of Civil Protection
ORIGINAL_DATA_CREATOR_CITATION: Presidency Of Counsil Of Ministers-Civil Protection Department. (1972). Italian Strong Motion Network. Presidency of Counsil of Ministers - Civil Protection Department. https://doi.org/10.7914/SN/IT http://www.fdsn.org/networks/detail/IT/
ORIGINAL_DATA_CREATOR: network: IT (Italian Strong Motion Network (RAN)); owner: Presidency of Counsil of Ministers - Civil Protection Department (PCM - DPC)
USER1: 
USER2: 
USER3: 
USER4: 
USER5: 
[...]
-0.827411
-0.807657
-0.788209
-0.768324
-0.747365
-0.724870
-0.700585
-0.674438
-0.646516
-0.617044
-0.586271
-0.554271
-0.520791
-0.485293
-0.447119
-0.405715
-0.360846
-0.312689
-0.261785
-0.208936
-0.155097
-0.101299
-0.048594
0.001938
0.049170
0.092040
0.129782
0.162084
0.189059
0.211063
0.228438
0.241301
0.249575
0.253243
0.252559
0.248034
0.240289
0.229926
0.217495
0.203528
0.188586
0.173276
0.158229
0.144054
0.131219
0.119876
0.109738
0.100175
0.090462
0.080000
0.068345
0.055111
0.039868
0.022053
0.000911
-0.024455
-0.054826
-0.090530
-0.131228
-0.176003
-0.223616
-0.272751
-0.322118
-0.370486
-0.416776
-0.460197
-0.500400
-0.537575
-0.572412
-0.605795
-0.638421
-0.670536
-0.701914
-0.732000
-0.760087
-0.785412
-0.807214
-0.824825
-0.837786
-0.845917
-0.849287
-0.848144
-0.842910
-0.834244
-0.823040
-0.810299
-0.796969
-0.783859
-0.771607
-0.760633
-0.751104
-0.742949
-0.735881
-0.729349
-0.722525
-0.714405
-0.704001
-0.690532
-0.673562
-0.653029
-0.629120
-0.602014
-0.571726
-0.538172
-0.501301
-0.461180
-0.418006
-0.372051
-0.323585
-0.272792
-0.219766
-0.164626
-0.107713
-0.049730
0.008311
0.065284
0.120073
0.171499
0.218214
0.258730
0.291615
0.315777
0.330680
0.336420
0.333655
0.323428
0.306930
0.285286
0.259389
0.229869
0.197174
0.161717
0.123956
0.084403
0.043651
0.002433
-0.038406
-0.078054
-0.115912
-0.151740
-0.185757
-0.218605
-0.251173
-0.284391
-0.319053
-0.355684
-0.394450
-0.435151
-0.477338
-0.520461
-0.563930
-0.607111
-0.649365
-0.690164
-0.729169
-0.766248
-0.801400
-0.834631
-0.865866
-0.894994
-0.922019
-0.947117
-0.970486
-0.992141
-1.011862
-1.029374
-1.044543
-1.057420
-1.068112
-1.076591
-1.082553
-1.085390
-1.084313
-1.078567
-1.067592
-1.051056
-1.028825
-1.000930
-0.967561
-0.929132
-0.886396
-0.840529
-0.793008
-0.745345
-0.698806
-0.654237
-0.611980
-0.571878
-0.533378
-0.495660
-0.457773
-0.418795
-0.378036
-0.335193
-0.290384
-0.244032
-0.196707
-0.148931
-0.101000
-0.052914
-0.004428
0.044839
0.095288
0.147206
0.200563
0.254874
0.309267
0.362738
0.414405
0.463611
0.509895
0.552993
0.592904
0.629935
0.664704
0.698162
0.731529
0.766082
0.802885
0.842600
0.885391
0.930981
0.978872
1.028599
1.079845
1.132460
1.186415
1.241715
1.298289
1.355978
1.414568
1.473770
1.533151
1.592135
1.650152
1.706770
1.761658
1.814432
1.864541
1.911328
1.954200
1.992782
2.026948
2.056781
2.082459
2.104146
2.121894
2.135617
2.145098
2.150000
2.149802
2.143751
2.130944
2.110500
2.081668
2.043846
1.996587
1.939667
1.873201
1.797702
1.714036
1.623248
1.526358
1.424225
1.317515
1.206768
1.092517
0.975417
0.856254
0.735895
0.615316
0.495713
0.378503
0.265151
0.156918
0.054747
-0.040671
-0.128784
-0.209207
-0.281842
-0.346953
-0.405146
-0.457327
-0.504639
-0.548351
-0.589749
-0.630052
-0.670358
-0.711537
-0.754126
-0.798282
-0.843800
-0.890222
-0.936992
-0.983561
-1.029376
-1.073849
-1.116372
-1.156366
-1.193312
-1.226755
-1.256278
-1.281453
-1.301762
-1.316580
-1.325244
-1.327156
-1.321881
-1.309236
-1.289396
-1.262963
-1.230946
-1.194552
-1.154887
-1.112733
-1.068563
-1.022677
-0.975310
-0.926632
-0.876707
-0.825493
-0.772914
-0.718940
-0.663635
-0.607184
-0.549873
-0.492016
-0.433897
-0.375815
-0.318238
-0.261915
-0.207798
-0.156789
-0.109451
-0.065858
-0.025660
0.011685
0.046668
0.079602
0.110612
0.139732
0.167042
0.192724
0.217009
0.240114
0.262214
0.283462
0.304034
0.324102
0.343686
0.362504
0.379956
0.395297
0.407835
0.416960
0.422100
0.422791
0.418809
0.410278
0.397637
0.381509
0.362600
0.341706
0.319715
0.297445
0.275443
0.253940
0.233003
0.212731
0.193422
0.175746
0.160796
0.149884
0.144118
0.144057
0.149719
0.160813
0.176932
0.197560
0.222035
0.249533
0.279092
0.309647
0.340100
0.369532
0.397448
0.423907
0.449387
0.474453
0.499434
0.524287
0.548705
0.572361
0.595131
0.617215
0.639119
0.661522
0.685065
0.710184
0.737051
0.765612
0.795650
0.826822
0.858651
0.890483
0.921500
0.950825
0.977697
1.001624
1.022475
1.040462
1.056040
1.069777
1.082266
1.094070
1.105629
1.117170
1.128666
1.139825
1.150093
1.158746
1.165077
1.168627
1.169361
1.167703
1.164441
1.160568
1.157117
1.154987
1.154801
1.156827
1.160987
1.166949
1.174255
1.182437
1.191141
1.200202
1.209670
1.219782
1.230920
1.243527
1.257934
1.274145
1.291682
1.309600
1.326710
1.341880
1.354238
1.363230
1.368589
1.370253
1.368235
1.362488
1.352852
1.339060
1.320746
1.297463
1.268730
1.234121
1.193359
1.146409
1.093553
1.035429
0.973001
0.907501
0.840377
0.773206
0.707528
0.644686
0.585743
0.531513
0.482605
0.439455
0.402334
0.371345
0.346380
0.327075
0.312791
0.302640
0.295527
0.290169
0.285104
0.278765
0.269640
0.256439
0.238202
0.214343
0.184659
0.149297
0.108632
0.063146
0.013363
-0.040169
-0.096912
-0.156450
-0.218607
-0.283426
-0.350984
-0.421207
-0.493758
-0.568046
-0.643283
-0.718567
-0.793022
-0.865959
-0.936917
-1.005598
-1.071737
-1.135010
-1.195030
-1.251358
-1.303519
-1.351060
-1.393584
-1.430718
-1.462067
-1.487217
-1.505776
-1.517439
-1.522038
-1.519570
-1.510227
-1.494420
-1.472778
-1.446094
-1.415248
-1.381141
-1.344603
-1.306289
-1.266652
-1.226023
-1.184717
-1.143097
-1.101591
-1.060643
-1.020628
-0.981762
-0.944033
-0.907173
-0.870704
-0.834059
-0.796664
-0.757916
-0.717178
-0.673818
-0.627253
-0.576977
-0.522610
-0.463917
-0.400839
-0.333532
-0.262345
-0.187720
-0.110069
-0.029736
0.052905
0.137285
0.222531
0.307477
0.390825
0.471341
0.547997
0.620014
0.686845
0.748110
0.803481
0.852578
0.894965
0.930231
0.958136
0.978780
0.992682
1.000704
1.003864
1.003167
0.999522
0.993726
0.986481
0.978408
0.970030
0.961708
0.953614
0.945776
0.938122
0.930483
0.922613
0.914234
0.905081
0.894933
0.883574
0.870732
0.856034
0.838978
0.818935
0.795242
0.767322
0.734777
0.697407
0.655154
0.607990
0.555888
0.498902
0.437263
0.371371
0.301707
0.228778
0.153154
0.075531
-0.003229
-0.082131
-0.160086
-0.235951
-0.308572
-0.376836
-0.439690
-0.496133
-0.545273
-0.586467
-0.619409
-0.644097
-0.660689
-0.669370
-0.670288
-0.663548
-0.649238
-0.627491
-0.598603
-0.563129
-0.521909
-0.476070
-0.427014
-0.376363
-0.325886
-0.277391
-0.232559
-0.192712
-0.158634
-0.130518
-0.108062
-0.090629
-0.077415
-0.067623
-0.060578
-0.055712
-0.052476
-0.050298
-0.048618
-0.046966
-0.045029
-0.042708
-0.040169
-0.037931
-0.036913
-0.038286
-0.043129
-0.052113
-0.065395
-0.082734
-0.103698
-0.127913
-0.155265
-0.185970
-0.220452
-0.259112
-0.302125
-0.349346
-0.400314
-0.454382
-0.510891
-0.569327
-0.629373
-0.690841
-0.753568
-0.817332
-0.881885
-0.947059
-1.012835
-1.079265
-1.146286
-1.213648
-1.281071
-1.348441
-1.415816
-1.483321
-1.551076
-1.619186
-1.687772
-1.756933
-1.826662
-1.896713
-1.966498
-2.035022
-2.100953
-2.162818
-2.219256
-2.269136
-2.311518
-2.345641
-2.371063
-2.387843
-2.396500
-2.397707
-2.392012
-2.379789
-2.361328
-2.336906
-2.306806
-2.271299
-2.230623
-2.185018
-2.134801
-2.080386
-2.022292
-1.961178
-1.897827
-1.833009
-1.767306
-1.700977
-1.633959
-1.566005
-1.496821
-1.426143
-1.353695
-1.279130
-1.201998
-1.121759
-1.037876
-0.949973
-0.857950
-0.761958
-0.662289
-0.559267
-0.453214
-0.344569
-0.234084
-0.122959
-0.012831
0.094418
0.196989
0.293482
0.383013
0.465108
0.539587
0.606525
0.666240
0.719201
0.765869
0.806575
0.841491
0.870698
0.894288
0.912448
0.925462
0.933685
0.937539
0.937515
0.934101
0.927630
0.918126
0.905294
0.888645
0.867668
0.841971
0.811337
0.775717
0.735203
0.689982
0.640298
0.586432
0.528666
0.467215
0.402132
0.333268
0.260364
0.183301
0.102388
0.018497
-0.066989
-0.152316
-0.235514
-0.314600
-0.387773
-0.453560
-0.510941
-0.559456
-0.599252
-0.631001
-0.655759
-0.674805
-0.689423
-0.700616
-0.708909
-0.714448
-0.717309
-0.717697
-0.715940
-0.712352
-0.707108
-0.700206
-0.691489
-0.680713
-0.667664
-0.652247
-0.634494
-0.614499
-0.592335
-0.567986
-0.541356
-0.512353
-0.481004
-0.447529
-0.412386
-0.376297
-0.340182
-0.305003
-0.271606
-0.240617
-0.212397
-0.187008
-0.164206
-0.143557
-0.124623
-0.107079
-0.090716
-0.075396
-0.061000
-0.047385
-0.034385
-0.021837
-0.009643
0.002204
0.013609
0.024374
0.034168
0.042522
0.048881
0.052720
0.053671
0.051577
0.046401
0.038125
0.026756
0.012387
-0.004802
-0.024614
-0.046899
-0.071516
-0.098266
-0.126853
-0.156842
-0.187650
-0.218540
-0.248617
-0.276912
-0.302557
-0.324894
-0.343507
-0.358231
-0.369185
-0.376803
-0.381827
-0.385173
-0.387713
-0.390075
-0.392532
-0.395047
-0.397427
-0.399434
-0.400831
-0.401380
-0.400894
-0.399292
-0.396618
-0.393015
-0.388684
-0.383825
-0.378525
-0.372641
-0.365773
-0.357356
-0.346805
-0.333654
-0.317607
-0.298522
-0.276339
-0.251031
-0.222562
-0.190857
-0.155812
-0.117316
-0.075248
-0.029454
0.020237
0.073977
0.131833
0.193737
0.259466
0.328659
0.400873
0.475678
0.552707
0.631650
0.712189
0.793929
0.876309
0.958555
1.039700
1.118693
1.194531
1.266355
1.333452
1.395184
1.450967
1.500364
1.543160
1.579298
1.608767
1.631565
1.647732
1.657407
1.660866
1.658547
1.651066
1.639226
1.623992
1.606405
1.587394
1.567601
1.547323
1.526572
1.505188
1.482965
1.459747
1.435447
1.410042
1.383629
1.356525
1.329299
1.302661
1.277275
1.253637
1.232024
1.212472
1.194788
1.178617
1.163551
1.149201
1.135212
1.121232
1.106873
1.091755
1.075570
1.058109
1.039280
1.019142
0.997925
0.975965
0.953577
0.930948
0.908098
0.884906
0.861169
0.836687
0.811360
0.785213
0.758339
0.730836
0.702771
0.674171
0.645029
0.615330
0.585046
0.554123
0.522485
0.490064
0.456797
0.422593
0.387274
0.350525
0.311875
0.270739
0.226503
0.178625
0.126668
0.070307
0.009335
-0.056340
-0.126679
-0.201438
-0.280105
-0.361963
-0.446214
-0.532055
-0.618675
-0.705196
-0.790628
-0.873866
-0.953726
-1.028975
-1.098345
-1.160580
-1.214488
-1.259031
-1.293399
-1.317103
-1.330078
-1.332747
-1.325982
-1.310915
-1.288701
-1.260407
-1.227028
-1.189549
-1.148956
-1.106204
-1.062174
-1.017652
-0.973305
-0.929664
-0.887096
-0.845742
-0.805471
-0.765919
-0.726575
-0.686855
-0.646199
-0.604140
-0.560354
-0.514699
-0.467251
-0.418309
-0.368372
-0.318059
-0.267966
-0.218541
-0.170038
-0.122551
-0.076059
-0.030515
0.014078
0.057659
0.100172
0.141658
0.182299
0.222402
0.262329
0.302412
0.342906
0.383998
0.425816
0.468396
0.511666
0.555487
0.599709
0.644183
0.688717
0.733023
0.776689
0.819198
0.859933
0.898211
0.933373
0.964895
0.992428
1.015784
1.034905
1.049851
1.060733
1.067594
1.070306
1.068574
1.062049
1.050493
1.033896
1.012482
0.986618
0.956672
0.922950
0.885680
0.844987
0.800867
0.753223
0.701893
0.646663
0.587350
0.523954
0.456732
0.386209
0.313155
0.238516
0.163325
0.088604
0.015289
-0.055844
-0.124272
-0.189824
-0.252680
-0.313227
-0.371903
-0.429098
-0.485170
-0.540508
-0.595610
-0.651057
-0.707437
-0.765290
-0.825121
-0.887397
-0.952469
-1.020505
-1.091474
-1.165182
-1.241305
-1.319424
-1.399056
-1.479689
-1.560815
-1.641889
-1.722205
-1.800810
-1.876609
-1.948548
-2.015762
-2.077634
-2.133760
-2.183857
-2.227691
-2.265042
-2.295684
-2.319315
-2.335505
-2.343713
-2.343400
-2.334164
-2.315845
-2.288603
-2.252962
-2.209755
-2.160040
-2.105027
-2.046001
-1.984184
-1.920584
-1.855924
-1.790706
-1.725336
-1.660214
-1.595729
-1.532203
-1.469839
-1.408690
-1.348652
-1.289502
-1.230935
-1.172588
-1.114065
-1.054993
-0.995067
-0.934013
-0.871506
-0.807099
-0.740245
-0.670388
-0.597038
-0.519808
-0.438446
-0.352882
-0.263230
-0.169755
-0.072836
0.027063
0.129419
0.233629
0.339000
0.444760
0.550079
0.654108
0.756026
0.855084
0.950589
1.041852
1.128135
1.208641
1.282525
1.348955
1.407201
1.456705
1.497094
1.528145
1.549749
1.561897
1.564688
1.558357
1.543294
1.520056
1.489340
1.451905
1.408533
1.359979
1.306938
1.250031
1.189810
1.126769
1.061349
0.993934
0.924864
0.854441
0.782883
0.710264
0.636488
0.561341
0.484626
0.406322
0.326668
0.246167
0.165531
0.085616
0.007353
-0.068302
-0.140391
-0.207995
-0.270323
-0.326786
-0.377007
-0.420811
-0.458223
-0.489471
-0.515009
-0.535501
-0.551697
-0.564223
-0.573420
-0.579272
-0.581429
-0.579326
-0.572353
-0.559998
-0.541926
-0.518065
-0.488656
-0.454196
-0.415336
-0.372776
-0.327164
-0.279017
-0.228690
-0.176382
-0.122176
-0.066055
-0.007945
0.052214
0.114404
0.178518
0.244374
0.311738
0.380378
0.450154
0.521069
0.593255
0.666916
0.742265
0.819449
0.898479
0.979208
1.061343
1.144480
1.228113
1.311637
1.394389
1.475711
1.555026
1.631869
1.705904
1.776906
1.844740
1.909336
1.970649
2.028650
2.083306
2.134556
2.182281
2.226309
2.266461
2.302616
2.334750
2.362983
2.387585
2.408911
2.427233
2.442604
2.454825
2.463497
2.468109
2.468156
2.463202
2.452898
2.436969
2.415221
2.387553
2.353955
2.314491
2.269263
2.218365
2.161854
2.099751
2.032055
1.958779
1.880010
1.795955
1.706935
1.613334
1.515531
1.413851
1.308579
1.199982
1.088297
0.973691
0.856245
0.735980
0.612933
0.487277
0.359433
0.230119
0.100265
-0.029081
-0.156780
-0.281586
-0.402228
-0.517572
-0.626751
-0.729189
-0.824599
-0.912931
-0.994283
-1.068815
-1.136709
-1.198190
-1.253534
-1.303068
-1.347113
-1.385890
-1.419482
-1.447880
-1.471065
-1.489075
-1.502057
-1.510342
-1.514501
-1.515317
-1.513653
-1.510351
-1.506186
-1.501768
-1.497444
-1.493240
-1.488856
-1.483702
-1.477036
-1.468130
-1.456366
-1.441251
-1.422383
-1.399361
-1.371783
-1.339303
-1.301674
-1.258762
-1.210540
-1.157075
-1.098551
-1.035312
-0.967857
-0.896826
-0.822972
-0.747158
-0.670320
-0.593380
-0.517156
-0.442343
-0.369493
-0.299014
-0.231190
-0.166244
-0.104386
-0.045855
0.009050
0.059973
0.106536
0.148371
0.185160
0.216706
0.243007
0.264266
0.280813
0.293030
0.301323
0.306153
0.308073
0.307740
0.305892
0.303304
0.300769
0.299101
0.299152
0.301797
0.307925
0.318384
0.333883
0.354878
0.381512
0.413636
0.450870
0.492627
0.538094
0.586255
0.635991
0.686228
0.736007
0.784440
0.830650
0.873777
0.913017
0.947652
0.977051
1.000707
1.018274
1.029599
1.034666
1.033575
1.026599
1.014251
0.997275
0.976547
0.952942
0.927211
0.899896
0.871323
0.841628
0.810758
0.778479
0.744407
0.708079
0.669050
0.626956
0.581553
0.532744
0.480569
0.425188
0.366876
0.306034
0.243202
0.179024
0.114134
0.049077
-0.015752
-0.080125
-0.143964
-0.207289
-0.270125
-0.332393
-0.393875
-0.454248
-0.513102
-0.569939
-0.624217
-0.675408
-0.723061
-0.766803
-0.806282
-0.841134
-0.871013
-0.895645
-0.914793
-0.928218
-0.935700
-0.937064
-0.932222
-0.921208
-0.904203
-0.881554
-0.853759
-0.821418
-0.785150
-0.745528
-0.703037
-0.658072
-0.610953
-0.561975
-0.511474
-0.459868
-0.407680
-0.355518
-0.304043
-0.253918
-0.205718
-0.159866
-0.116644
-0.076228
-0.038723
-0.004192
0.027325
0.055797
0.081180
0.103412
0.122430
0.138170
0.150520
0.159304
0.164340
0.165543
0.162993
0.156946
0.147801
0.136067
0.122343
0.107288
0.091602
0.075976
0.061037
0.047294
0.035111
0.024723
0.016283
0.009892
0.005627
0.003548
0.003636
0.005722
0.009412
0.014033
0.018646
0.022186
0.023648
0.022221
0.017338
0.008700
-0.003752
-0.019909
-0.039569
-0.062434
-0.088087
-0.116023
-0.145706
-0.176588
-0.208100
-0.239674
-0.270772
-0.300885
-0.329513
-0.356158
-0.380368
-0.401813
-0.420320
-0.435820
-0.448308
-0.457848
-0.464619
-0.468973
-0.471404
-0.472482
-0.472796
-0.472862
-0.473043
-0.473543
-0.474456
-0.475757
-0.477271
-0.478654
-0.479430
-0.479047
-0.476928
-0.472522
-0.465378
-0.455205
-0.441858
-0.425259
-0.405328
-0.381959
-0.355068
-0.324660
-0.290888
-0.254078
-0.214724
-0.173414
-0.130749
-0.087315
-0.043659
-0.000248
0.042557
0.084483
0.125285
0.164702
0.202474
0.238325
0.271960
0.303083
0.331431
0.356780
0.378956
0.397873
0.413606
0.426408
0.436657
0.444805
0.451326
0.456648
0.461127
0.465049
0.468635
0.472039
0.475318
0.478429
0.481248
0.483637
0.485493
0.486751
0.487358
0.487267
0.486438
0.484815
0.482316
0.478850
0.474367
0.468922
0.462683
0.455904
0.448886
0.441937
0.435303
0.429160
0.423651
0.418904
0.414995
0.411903
0.409503
0.407617
0.406065
0.404666
0.403192
0.401357
0.398867
0.395464
0.390976
0.385354
0.378687
0.371193
0.363194
0.355083
0.347272
0.340135
0.333968
0.328977
0.325272
0.322816
0.321414
0.320766
0.320548
0.320480
0.320357
0.320056
0.319539
0.318870
0.318228
0.317904
0.318278
0.319783
0.322839
0.327779
0.334820
0.344044
0.355369
0.368535
0.383163
0.398848
0.415248
0.432130
0.449341
0.466753
0.484245
0.501687
0.518938
0.535851
0.552291
0.568141
0.583342
0.597928
0.612020
0.625789
0.639393
0.652942
0.666519
0.680217
0.694143
0.708407
0.723105
0.738325
0.754135
0.770570
0.787630
0.805300
0.823546
0.842315
0.861528
0.881085
0.900863
0.920724
0.940521
0.960087
0.979225
0.997692
1.015213
1.031530
1.046452
1.059875
1.071764
1.082107
1.090836
1.097766
1.102587
1.104883
1.104181
1.100023
1.092047
1.080052
1.064050
1.044280
1.021158
0.995219
0.967066
0.937340
0.906639
0.875416
0.843920
0.812208
0.780217
0.747841
0.714973
0.681494
0.647249
0.612043
0.575691
0.538076
0.499190
0.459125
0.418030
0.376086
0.333494
0.290467
0.247206
0.203885
0.160632
0.117507
0.074486
0.031456
-0.011789
-0.055527
-0.100063
-0.145699
-0.192714
-0.241339
-0.291736
-0.343977
-0.398033
-0.453758
-0.510894
-0.569101
-0.627982
-0.687094
-0.745968
-0.804160
-0.861316
-0.917207
-0.971685
-1.024633
-1.075931
-1.125455
-1.173093
-1.218768
-1.262436
-1.304049
-1.343526
-1.380725
-1.415439
-1.447415
-1.476373
-1.502028
-1.524113
-1.542389
-1.556651
-1.566766
-1.572686
-1.574415
-1.572022
-1.565658
-1.555560
-1.542040
-1.525450
-1.506140
-1.484448
-1.460687
-1.435131
-1.407993
-1.379425
-1.349513
-1.318262
-1.285579
-1.251290
-1.215201
-1.177151
-1.137039
-1.094814
-1.050472
-1.004067
-0.955735
-0.905692
-0.854202
-0.801532
-0.747910
-0.693488
-0.638330
-0.582437
-0.525801
-0.468473
-0.410580
-0.352306
-0.293874
-0.235510
-0.177406
-0.119701
-0.062478
-0.005774
0.050389
0.105939
0.160730
0.214536
0.267077
0.318052
0.367157
0.414072
0.458447
0.499919
0.538137
0.572747
0.603384
0.629647
0.651097
0.667292
0.677843
0.682460
0.680995
0.673438
0.659851
0.640295
0.614823
