EVENT_NAME: L_AQUILA
EVENT_ID: IT-2009-0009
EVENT_DATE_YYYYMMDD: 20090406
EVENT_TIME_HHMMSS: 013240
EVENT_LATITUDE_DEGREE: 42.3420
EVENT_LONGITUDE_DEGREE: 13.3800
EVENT_DEPTH_KM: 8.3
HYPOCENTER_REFERENCE: INGV-CNT_Seismic_Bulletin
MAGNITUDE_W: 6.1
MAGNITUDE_W_REFERENCE: INGV-CNT_Seismic_Bulletin
MAGNITUDE_L: 
MAGNITUDE_L_REFERENCE: 
FOCAL_MECHANISM: Normal faulting
NETWORK: IT
STATION_CODE: ANT
STATION_NAME: 
STATION_LATITUDE_DEGREE: 42.418110
STATION_LONGITUDE_DEGREE: 13.078598
STATION_ELEVATION_M: 568
LOCATION: 
SENSOR_DEPTH_M: 0.0
VS30_M/S: 912
SITE_CLASSIFICATION_EC8: A
MORPHOLOGIC_CLASSIFICATION: 
EPICENTRAL_DISTANCE_KM: 26.2
EARTHQUAKE_BACKAZIMUTH_DEGREE: 288.9
DATE_TIME_FIRST_SAMPLE_YYYYMMDD_HHMMSS: 
DATE_TIME_FIRST_SAMPLE_PRECISION: 
SAMPLING_INTERVAL_S: 
NDATA: 105
DURATION_S: 
STREAM: HNN
UNITS: cm/s^2
INSTRUMENT: sensor = FBA-3 [Kinemetrics] | digitizer = Etna [Kinemetrics]
INSTRUMENT_ANALOG/DIGITAL: D
INSTRUMENTAL_FREQUENCY_HZ: 214.000
INSTRUMENTAL_DAMPING: 0.700000
FULL_SCALE_G: 1.0
N_BIT_DIGITAL_CONVERTER: 18
PGA_CM/S^2: -25.970692
TIME_PGA_S: 
BASELINE_CORRECTION: BASELINE REMOVED
FILTER_TYPE: BUTTERWORTH
FILTER_ORDER: 2
LOW_CUT_FREQUENCY_HZ: 0.100
HIGH_CUT_FREQUENCY_HZ: 40.000
LATE/NORMAL_TRIGGERED: NT
DATABASE_VERSION: 0.5
HEADER_FORMAT: DYNA 1.2
DATA_TYPE: ACCELERATION RESPONSE SPECTRUM
PROCESSING: manual (Paolucci et al., 2011)
DATA_TIMESTAMP_YYYYMMDD_HHMMSS: 20211011_154922.446
DATA_LICENSE: CC-BY3_0-IT (http://creativecommons.org/licenses/by/3.0/deed.en)
DATA_CITATION: Luzi L, Pacor F, Puglia R (2019). Italian Accelerometric Archive v 3.0 - Istituto Nazionale di Geofisica e Vulcanologia, Dipartimento della Protezione Civile Nazionale. doi: 10.13127/itaca.3.1
DATA_CREATOR: ITACA working group
ORIGINAL_DATA_MEDIATOR_CITATION: data obtained within the DPC-INGV data exchange agreements
ORIGINAL_DATA_MEDIATOR: Archive of Italian Department of Civil Protection
ORIGINAL_DATA_CREATOR_CITATION: Presidency Of Counsil Of Ministers-Civil Protection Department. (1972). Italian Strong Motion Network. Presidency of Counsil of Ministers - Civil Protection Department. https://doi.org/10.7914/SN/IT http://www.fdsn.org/networks/detail/IT/
ORIGINAL_DATA_CREATOR: network: IT (Italian Strong Motion Network (RAN)); owner: Presidency of Counsil of Ministers - Civil Protection Department (PCM - DPC)
USER1: 
USER2: 
USER3: 
USER4: 
USER5: 
    0.010000    25.971640
    0.020000    26.043556
    0.022000    26.066324
    0.025000    26.097435
    0.029000    26.185171
    0.030000    26.207054
    0.032000    26.254934
    0.035001    26.368593
    0.036000    26.383209
    0.040000    26.335609
    0.041999    26.417067
    0.044001    26.548346
    0.045000    26.551348
    0.046000    26.517996
    0.048001    26.502775
    0.050000    26.464621
    0.054999    27.016811
    0.059999    27.437737
    0.064998    27.168577
    0.067002    26.304321
    0.069999    26.170357
    0.075002    26.920843
    0.080000    26.566145
    0.084998    27.701050
    0.090001    27.570263
    0.095003    28.459148
    0.100000    28.050434
    0.109999    33.575825
    0.120005    34.937134
    0.130005    35.073868
    0.132996    34.311409
    0.139997    34.307446
    0.149993    32.926773
    0.160000    41.421410
    0.170010    43.476730
    0.179986    48.520851
    0.190006    48.214191
    0.200000    54.849663
    0.220022    45.158978
    0.239981    43.587700
    0.250000    40.733624
    0.260010    43.439537
    0.280034    47.485928
    0.290023    49.160484
    0.300030    52.547054
    0.320000    54.600933
    0.340020    49.870892
    0.350017    53.531227
    0.359971    58.279999
    0.379939    65.544205
    0.400000    79.690628
    0.419992    83.017548
    0.439947    83.160019
    0.450045    87.107651
    0.459982    83.084114
    0.480077    75.141205
    0.500000    86.911034
    0.550055   108.534523
    0.599880    97.862801
    0.650195    66.224304
    0.667111    65.088348
    0.699790    70.193314
    0.750188    61.846718
    0.800000    58.747784
    0.850340    57.266464
    0.900090    51.587967
    0.949668    39.949539
    1.000000    33.012569
    1.100110    24.479078
    1.200480    20.838608
    1.300390    19.006531
    1.400560    15.125232
    1.499250    12.229721
    1.600000    14.785434
    1.700680    13.576242
    1.798561    13.859659
    1.901141    11.341575
    2.000000     9.834064
    2.197802    10.893027
    2.398082     8.364898
    2.500000     7.779879
    2.597403     6.825501
    2.801121     5.761114
    3.003003     4.272503
    3.205128     3.756609
    3.401361     3.794211
    3.496503     3.680653
    3.597122     3.278949
    3.802281     2.883517
    4.000000     2.731125
    4.201681     2.638208
    4.405286     2.461496
    4.608295     2.221674
    4.807692     2.089678
    5.000000     1.982231
    5.494505     1.391608
    5.988024     1.129062
    6.493506     0.910506
    6.993007     0.710011
    7.518797     0.543527
    8.000000     0.441990
    8.474576     0.406198
    9.009009     0.368609
    9.523809     0.344947
   10.000000     0.329681
