EVENT_NAME: L_AQUILA
EVENT_ID: IT-2009-0009
EVENT_DATE_YYYYMMDD: 20090406
EVENT_TIME_HHMMSS: 013240
EVENT_LATITUDE_DEGREE: 42.3420
EVENT_LONGITUDE_DEGREE: 13.3800
EVENT_DEPTH_KM: 8.3
HYPOCENTER_REFERENCE: INGV-CNT_Seismic_Bulletin
MAGNITUDE_W: 6.1
MAGNITUDE_W_REFERENCE: INGV-CNT_Seismic_Bulletin
MAGNITUDE_L: 
MAGNITUDE_L_REFERENCE: 
FOCAL_MECHANISM: Normal faulting
NETWORK: IT
STATION_CODE: ANT
STATION_NAME: 
STATION_LATITUDE_DEGREE: 42.418110
STATION_LONGITUDE_DEGREE: 13.078598
STATION_ELEVATION_M: 568
LOCATION: 
SENSOR_DEPTH_M: 0.0
VS30_M/S: 912
SITE_CLASSIFICATION_EC8: A
MORPHOLOGIC_CLASSIFICATION: 
EPICENTRAL_DISTANCE_KM: 26.2
EARTHQUAKE_BACKAZIMUTH_DEGREE: 288.9
DATE_TIME_FIRST_SAMPLE_YYYYMMDD_HHMMSS: 20090406_013216.000
DATE_TIME_FIRST_SAMPLE_PRECISION: seconds
SAMPLING_INTERVAL_S: 0.005000
NDATA: 24000
DURATION_S: 120.000
STREAM: HNE
UNITS: cm/s
INSTRUMENT: sensor = FBA-3 [Kinemetrics] | digitizer = Etna [Kinemetrics]
INSTRUMENT_ANALOG/DIGITAL: D
INSTRUMENTAL_FREQUENCY_HZ: 216.000
INSTRUMENTAL_DAMPING: 0.700000
FULL_SCALE_G: 1.0
N_BIT_DIGITAL_CONVERTER: 18
PGV_CM/S: -1.799668
TIME_PGV_S: 40.200000
BASELINE_CORRECTION: BASELINE REMOVED
FILTER_TYPE: BUTTERWORTH
FILTER_ORDER: 2
LOW_CUT_FREQUENCY_HZ: 0.100
HIGH_CUT_FREQUENCY_HZ: 40.000
LATE/NORMAL_TRIGGERED: NT
DATABASE_VERSION: 0.5
HEADER_FORMAT: DYNA 1.2
DATA_TYPE: VELOCITY
PROCESSING: manual (Paolucci et al., 2011)
DATA_TIMESTAMP_YYYYMMDD_HHMMSS: 20211011_154920.882
DATA_LICENSE: CC-BY3_0-IT (http://creativecommons.org/licenses/by/3.0/deed.en)
DATA_CITATION: Luzi L, Pacor F, Puglia R (2019). Italian Accelerometric Archive v 3.0 - Istituto Nazionale di Geofisica e Vulcanologia, Dipartimento della Protezione Civile Nazionale. doi: 10.13127/itaca.3.1
DATA_CREATOR: ITACA working group
ORIGINAL_DATA_MEDIATOR_CITATION: data obtained within the DPC-INGV data exchange agreements
ORIGINAL_DATA_MEDIATOR: Archive of Italian Department of Civil Protection
ORIGINAL_DATA_CREATOR_CITATION: Presidency Of Counsil Of Ministers-Civil Protection Department. (1972). Italian Strong Motion Network. Presidency of Counsil of Ministers - Civil Protection Department. https://doi.org/10.7914/SN/IT http://www.fdsn.org/networks/detail/IT/
ORIGINAL_DATA_CREATOR: network: IT (Italian Strong Motion Network (RAN)); owner: Presidency of Counsil of Ministers - Civil Protection Department (PCM - DPC)
USER1: 
USER2: 
USER3: 
USER4: 
USER5: 
[...]
0.025014
0.016169
0.009664
0.004946
0.001240
-0.002182
-0.005815
-0.009870
-0.014295
-0.018875
-0.023393
-0.027819
-0.032350
-0.037280
-0.042812
-0.048959
-0.055613
-0.062691
-0.070187
-0.078060
-0.086014
-0.093393
-0.099301
-0.102919
-0.103824
-0.102103
-0.098197
-0.092603
-0.085622
-0.077264
-0.067331
-0.055623
-0.042151
-0.027307
-0.011901
0.002964
0.016203
0.027103
0.035560
0.042046
0.047317
0.052009
0.056346
0.060054
0.062473
0.062766
0.060216
0.054531
0.045970
0.035167
0.022810
0.009464
-0.004335
-0.017894
-0.030317
-0.040723
-0.048567
-0.053757
-0.056520
-0.057210
-0.056230
-0.054078
-0.051381
-0.048836
-0.047024
-0.046213
-0.046295
-0.046964
-0.047982
-0.049317
-0.051053
-0.053223
-0.055737
-0.058486
-0.061486
-0.064919
-0.069014
-0.073882
-0.079436
-0.085465
-0.091790
-0.098325
-0.104974
-0.111498
-0.117493
-0.122528
-0.126349
-0.128991
-0.130780
-0.132262
-0.134073
-0.136805
-0.140882
-0.146473
-0.153507
-0.161830
-0.171391
-0.182285
-0.194636
-0.208448
-0.223554
-0.239708
-0.256739
-0.274649
-0.293575
-0.313670
-0.334950
-0.357224
-0.380161
-0.403439
-0.426842
-0.450257
-0.473601
-0.496712
-0.519250
-0.540695
-0.560462
-0.578080
-0.593385
-0.606602
-0.618231
-0.628776
-0.638488
-0.647304
-0.654946
-0.661067
-0.665369
-0.667654
-0.667844
-0.665987
-0.662210
-0.656602
-0.649152
-0.639809
-0.628620
-0.615833
-0.601845
-0.587071
-0.571875
-0.556657
-0.541972
-0.528533
-0.517005
-0.507670
-0.500257
-0.494073
-0.488282
-0.482127
-0.475028
-0.466588
-0.456586
-0.445029
-0.432147
-0.418250
-0.403559
-0.388134
-0.371951
-0.355045
-0.337585
-0.319854
-0.302202
-0.285003
-0.268650
-0.253583
-0.240269
-0.229107
-0.220304
-0.213802
-0.209297
-0.206331
-0.204419
-0.203181
-0.202426
-0.202195
-0.202716
-0.204274
-0.207033
-0.210915
-0.215545
-0.220261
-0.224197
-0.226454
-0.226344
-0.223627
-0.218531
-0.211543
-0.203129
-0.193568
-0.182964
-0.171324
-0.158580
-0.144594
-0.129231
-0.112527
-0.094851
-0.076927
-0.059637
-0.043676
-0.029251
-0.016011
-0.003205
0.010112
0.024910
0.042035
0.062040
0.085004
0.110459
0.137539
0.165268
0.192829
0.219667
0.245435
0.269900
0.292928
0.314593
0.335273
0.355514
0.375756
0.396151
0.416533
0.436520
0.455680
0.473688
0.490364
0.505614
0.519341
0.531369
0.541438
0.549288
0.554760
0.557846
0.558646
0.557288
0.553889
0.548642
0.541929
0.534401
0.526953
0.520622
0.516397
0.515043
0.517039
0.522654
0.532119
0.545758
0.563959
0.587035
0.615129
0.648188
0.685925
0.727803
0.773105
0.821008
0.870644
0.921107
0.971408
1.020408
1.066741
1.108761
1.144684
1.172952
1.192673
1.203761
1.206641
1.201744
1.189191
1.168823
1.140450
1.104110
1.060249
1.009824
0.954372
0.895959
0.836877
0.779183
0.724368
0.673394
0.626988
0.585853
0.550538
0.521102
0.496875
0.476598
0.458906
0.442868
0.428357
0.416003
0.406719
0.401071
0.398813
0.398746
0.398918
0.397092
0.391350
0.380671
0.365259
0.346380
0.325733
0.304733
0.284084
0.263833
0.243777
0.223938
0.204784
0.187182
0.172208
0.160968
0.154494
0.153647
0.158964
0.170561
0.188192
0.211419
0.239763
0.272768
0.309984
0.350974
0.395356
0.442818
0.493082
0.545753
0.600066
0.654704
0.707885
0.757734
0.802726
0.841945
0.875136
0.902628
0.925117
0.943332
0.957765
0.968591
0.975703
0.978752
0.977137
0.969980
0.956163
0.934542
0.904388
0.865916
0.820572
0.770828
0.719545
0.669299
0.622028
0.578992
0.540921
0.508285
0.481543
0.461164
0.447416
0.440149
0.438778
0.442418
0.450021
0.460436
0.472447
0.484848
0.496515
0.506390
0.513319
0.515891
0.512447
0.501362
0.481579
0.453096
0.417039
0.375278
0.329894
0.282795
0.235530
0.189172
0.144287
0.101092
0.059803
0.020992
-0.014301
-0.044779
-0.069223
-0.086819
-0.097443
-0.101795
-0.101239
-0.097362
-0.091465
-0.084269
-0.075958
-0.066393
-0.055244
-0.042113
-0.026772
-0.009473
0.008932
0.027128
0.043678
0.057439
0.067925
0.075556
0.081696
0.088334
0.097426
0.110260
0.127172
0.147680
0.170840
0.195679
0.221571
0.248466
0.276857
0.307438
0.340602
0.376074
0.412849
0.449424
0.484173
0.515589
0.542372
0.563551
0.578747
0.588449
0.594061
0.597641
0.601448
0.607406
0.616659
0.629441
0.645261
0.663226
0.682286
0.701344
0.719319
0.735292
0.748624
0.758987
0.766357
0.770998
0.773408
0.774168
0.773755
0.772372
0.769849
0.765717
0.759473
0.750802
0.739623
0.725983
0.709887
0.691131
0.669175
0.643194
0.612348
0.576136
0.534594
0.488250
0.437857
0.384059
0.327206
0.267481
0.205235
0.141257
0.076715
0.012747
-0.050072
-0.112101
-0.174579
-0.239163
-0.307244
-0.379389
-0.455148
-0.533263
-0.612098
-0.690043
-0.765727
-0.837992
-0.905768
-0.967927
-1.023233
-1.070383
-1.108125
-1.135468
-1.151971
-1.157939
-1.154382
-1.142713
-1.124353
-1.100451
-1.071832
-1.039053
-1.002513
-0.962622
-0.919960
-0.875370
-0.829869
-0.784423
-0.739700
-0.695940
-0.652985
-0.610414
-0.567704
-0.524297
-0.479559
-0.432759
-0.383199
-0.330469
-0.274738
-0.216923
-0.158680
-0.102256
-0.050143
-0.004599
0.032804
0.061338
0.080948
0.091953
0.094795
0.089852
0.077367
0.057482
0.030381
-0.003498
-0.043285
-0.087684
-0.135176
-0.184333
-0.234093
-0.283901
-0.333673
-0.383646
-0.434093
-0.485029
-0.536088
-0.586649
-0.636055
-0.683781
-0.729580
-0.773642
-0.816658
-0.859695
-0.903947
-0.950403
-0.999534
-1.051110
-1.104252
-1.157747
-1.210428
-1.261421
-1.310184
-1.356348
-1.399480
-1.438896
-1.473605
-1.502426
-1.524213
-1.538121
-1.543828
-1.541706
-1.532893
-1.519191
-1.502795
-1.485912
-1.470328
-1.457054
-1.446205
-1.437196
-1.429090
-1.420985
-1.412247
-1.402554
-1.391817
-1.380052
-1.367216
-1.353055
-1.337154
-1.319147
-1.298911
-1.276597
-1.252507
-1.226927
-1.200101
-1.172318
-1.143965
-1.115395
-1.086737
-1.057819
-1.028301
-0.997943
-0.966796
-0.935130
-0.903170
-0.870874
-0.837950
-0.804116
-0.769375
-0.734123
-0.698991
-0.664539
-0.631061
-0.598653
-0.567372
-0.537199
-0.507879
-0.478896
-0.449687
-0.419945
-0.389806
-0.359778
-0.330481
-0.302370
-0.275600
-0.250072
-0.225542
-0.201716
-0.178233
-0.154637
-0.130394
-0.104970
-0.077959
-0.049226
-0.018919
0.012689
0.045376
0.079017
0.113584
0.149164
0.185948
0.224122
0.263685
0.304396
0.345927
0.388057
0.430689
0.473716
0.516904
0.559862
0.602081
0.643075
0.682530
0.720298
0.756134
0.789425
0.819182
0.844326
0.864073
0.878131
0.886638
0.889929
0.888368
0.882327
0.872253
0.858729
0.842454
0.824182
0.804677
0.784665
0.764728
0.745214
0.726257
0.707890
0.690096
0.672719
0.655310
0.637015
0.616612
0.592763
0.564375
0.530825
0.491938
0.447819
0.398668
0.344719
0.286303
0.223965
0.158515
0.090980
0.022469
-0.045989
-0.113542
-0.179513
-0.243259
-0.303972
-0.360564
-0.411751
-0.456313
-0.493337
-0.522383
-0.543592
-0.557673
-0.565729
-0.569017
-0.568748
-0.565948
-0.561416
-0.555757
-0.549459
-0.542978
-0.536754
-0.531160
-0.526381
-0.522253
-0.518222
-0.513547
-0.507615
-0.500198
-0.491608
-0.482642
-0.474338
-0.467662
-0.463277
-0.461459
-0.462141
-0.465005
-0.469584
-0.475329
-0.481673
-0.488183
-0.494714
-0.501465
-0.508938
-0.517898
-0.529225
-0.543525
-0.560718
-0.579880
-0.599461
-0.617759
-0.633290
-0.644957
-0.652100
-0.654489
-0.652277
-0.645863
-0.635711
-0.622224
-0.605727
-0.586555
-0.565189
-0.542390
-0.519232
-0.497013
-0.477016
-0.460230
-0.447156
-0.437777
-0.431634
-0.427925
-0.425582
-0.423332
-0.419745
-0.413245
-0.402134
-0.384726
-0.359572
-0.325757
-0.283173
-0.232545
-0.175161
-0.112471
-0.045781
0.023827
0.095427
0.168138
0.240950
0.312587
0.381487
0.445866
0.503864
0.553780
0.594373
0.625106
0.646258
0.658811
0.664135
0.663655
0.658664
0.650312
0.639638
0.627622
0.615274
0.603732
0.594253
0.588029
0.585963
0.588541
0.595841
0.607600
0.623303
0.642223
0.663383
0.685522
0.707127
0.726537
0.742163
0.752787
0.757790
0.757150
0.751180
0.740193
0.724362
0.703827
0.678893
0.650114
0.618307
0.584529
0.550012
0.516036
0.483727
0.453806
0.426422
0.401179
0.377317
0.353962
0.330322
0.305765
0.279800
0.252072
0.222388
0.190787
0.157595
0.123408
0.089047
0.055504
0.023880
-0.004702
-0.029175
-0.048573
-0.062048
-0.068944
-0.068875
-0.061807
-0.048113
-0.028510
-0.003902
0.024798
0.056775
0.091409
0.128365
0.167548
0.208894
0.252049
0.296155
0.339877
0.381666
0.420118
0.454315
0.484020
0.509648
0.532002
0.551926
0.570084
0.586971
0.603044
0.618858
0.635061
0.652282
0.670943
0.691100
0.712342
0.733828
0.754464
0.773154
0.789052
0.801733
0.811231
0.817947
0.822460
0.825299
0.826752
0.826784
0.825084
0.821210
0.814730
0.805333
0.792905
0.777519
0.759401
0.738901
0.716445
0.692468
0.667332
0.641319
0.614683
0.587660
0.560409
0.532990
0.505433
0.477838
0.450503
0.423953
0.398777
0.375343
0.353570
0.332902
0.312523
0.291684
0.269969
0.247366
0.224167
0.200809
0.177764
0.155468
0.134318
0.114642
0.096629
0.080313
0.065614
0.052356
0.040319
0.029332
0.019368
0.010584
0.003272
-0.002250
-0.005755
-0.007192
-0.006749
-0.004891
-0.002372
-0.000085
0.001157
0.000740
-0.001770
-0.006622
-0.013849
-0.023334
-0.034957
-0.048637
-0.064254
-0.081549
-0.100048
-0.119094
-0.137967
-0.156011
-0.172746
-0.187959
-0.201713
-0.214240
-0.225825
-0.236765
-0.247397
-0.258118
-0.269388
-0.281634
-0.295110
-0.309854
-0.325771
-0.342730
-0.360592
-0.379213
-0.398454
-0.418134
-0.437942
-0.457390
-0.475810
-0.492399
-0.506358
-0.517052
-0.524121
-0.527432
-0.526905
-0.522387
-0.513722
-0.500938
-0.484408
-0.464870
-0.443240
-0.420360
-0.396807
-0.372829
-0.348402
-0.323337
-0.297344
-0.270104
-0.241437
-0.211475
-0.180725
-0.149941
-0.119908
-0.091239
-0.064308
-0.039308
-0.016395
0.004193
0.022116
0.037019
0.048667
0.057005
0.062083
0.063902
0.062312
0.057034
0.047808
0.034566
0.017567
-0.002625
-0.025274
-0.049632
-0.075022
-0.100822
-0.126400
-0.151085
-0.174213
-0.195183
-0.213468
-0.228637
-0.240410
-0.248701
-0.253641
-0.255536
-0.254796
-0.251842
-0.247031
-0.240635
-0.232866
-0.223887
-0.213758
-0.202401
-0.189664
-0.175466
-0.159950
-0.143529
-0.126773
-0.110236
-0.094285
-0.079002
-0.064215
-0.049598
-0.034753
-0.019307
-0.003039
0.014024
0.031617
0.049374
0.067009
0.084443
0.101778
0.119158
0.136588
0.153781
0.170131
0.184829
0.196995
0.205777
0.210460
0.210619
0.206229
0.197651
0.185514
0.170635
0.154017
0.136818
0.120218
0.105252
0.092764
0.083501
0.078277
0.078058
0.083858
0.096502
0.116326
0.143012
0.175672
0.213158
0.254363
0.298377
0.344511
0.392239
0.441076
0.490443
0.539552
0.587381
0.632784
0.674686
0.712234
0.744853
0.772227
0.794244
0.810927
0.822309
0.828287
0.828560
0.822654
0.810019
0.790186
0.762896
0.728124
0.685997
0.636664
0.580159
0.516410
0.445388
0.367302
0.282731
0.192652
0.098345
0.001206
-0.097397
-0.196118
-0.293541
-0.388133
-0.478272
-0.562335
-0.638805
-0.706396
-0.764133
-0.811393
-0.847905
-0.873731
-0.889268
-0.895166
-0.892171
-0.880999
-0.862354
-0.837030
-0.805995
-0.770407
-0.731502
-0.690432
-0.648219
-0.605778
-0.563948
-0.523522
-0.485209
-0.449538
-0.416756
-0.386774
-0.359141
-0.333051
-0.307441
-0.281134
-0.253006
-0.222118
-0.187736
-0.149249
-0.106105
-0.057857
-0.004277
0.054538
0.118131
0.185796
0.256811
0.330619
0.406886
0.485425
0.566011
0.648142
0.730913
0.813172
0.893853
0.972194
1.047733
1.120211
1.189512
1.255573
1.318226
1.377048
1.431323
1.480150
1.522673
1.558266
1.586605
1.607698
1.621890
1.629752
1.631856
1.628578
1.620065
1.606396
1.587757
1.564438
1.536672
1.504546
1.468073
1.427348
1.382712
1.334849
1.284749
1.233554
1.182309
1.131674
1.081673
1.031605
0.980225
0.926138
0.868194
0.805718
0.738572
0.667083
0.591910
0.513923
0.434074
0.353289
0.272444
0.192446
0.114330
0.039348
-0.031101
-0.095664
-0.153206
-0.202863
-0.244084
-0.276682
-0.300861
-0.317171
-0.326365
-0.329189
-0.326216
-0.317832
-0.304332
-0.286047
-0.263452
-0.237214
-0.208130
-0.176941
-0.144173
-0.110082
-0.074656
-0.037590
0.001662
0.043714
0.089016
0.137652
0.189220
0.242892
0.297669
0.352660
0.407282
0.461326
0.514858
0.567978
0.620571
0.672180
0.722021
0.769130
0.812557
0.851501
0.885391
0.913955
0.937272
0.955705
0.969719
0.979681
0.985673
0.987387
0.984243
0.975641
0.961156
0.940586
0.913962
0.881532
0.843730
0.801119
0.754290
0.703698
0.649565
0.591938
0.530803
0.466134
0.397916
0.326269
0.251569
0.174489
0.095987
0.017234
-0.060531
-0.136193
-0.209004
-0.278750
-0.345746
-0.410608
-0.473970
-0.536300
-0.597845
-0.658685
-0.718882
-0.778628
-0.838326
-0.898567
-0.959962
-1.022896
-1.087338
-1.152829
-1.218592
-1.283700
-1.347255
-1.408508
-1.466877
-1.521897
-1.573178
-1.620379
-1.663186
-1.701263
-1.734168
-1.761269
-1.781765
-1.794813
-1.799668
-1.795769
-1.782790
-1.760708
-1.729883
-1.691096
-1.645466
-1.594293
-1.538856
-1.480252
-1.419281
-1.356433
-1.292001
-1.226306
-1.159893
-1.093577
-1.028353
-0.965248
-0.905220
-0.849057
-0.797202
-0.749546
-0.705285
-0.662943
-0.620595
-0.576273
-0.528489
-0.476670
-0.421223
-0.363193
-0.303746
-0.243832
-0.184115
-0.125064
-0.067060
-0.010462
0.044311
0.096718
0.146069
0.191539
0.232191
0.266991
0.294885
0.314914
0.326304
0.328510
0.321282
0.304740
0.279409
0.246198
0.206320
0.161193
0.112353
0.061393
0.009905
-0.040544
-0.088469
-0.132598
-0.172046
-0.206445
-0.235974
-0.261296
-0.283431
-0.303571
-0.322874
-0.342273
-0.362381
-0.383496
-0.405731
-0.429231
-0.454354
-0.481717
-0.512078
-0.546118
-0.584238
-0.626421
-0.672173
-0.720571
-0.770361
-0.820036
-0.867939
-0.912444
-0.952140
-0.985988
-1.013390
-1.034167
-1.048498
-1.056888
-1.060088
-1.058970
-1.054452
-1.047474
-1.038981
-1.029860
-1.020841
-1.012451
-1.005040
-0.998861
-0.994194
-0.991413
-0.990952
-0.993176
-0.998259
-1.006087
-1.016269
-1.028228
-1.041331
-1.054967
-1.068522
-1.081258
-1.092203
-1.100191
-1.104031
-1.102656
-1.095231
-1.081224
-1.060425
-1.032927
-0.999033
-0.959136
-0.913652
-0.863013
-0.807703
-0.748268
-0.685323
-0.619580
-0.551903
-0.483283
-0.414726
-0.347115
-0.281138
-0.217333
-0.156179
-0.098186
-0.043874
0.006317
0.052123
0.093522
0.130732
0.164111
0.193984
0.220486
0.243484
0.262609
0.277370
0.287292
0.292052
0.291585
0.286157
0.276297
0.262589
0.245419
0.224832
0.200556
0.172194
0.139516
0.102680
0.062311
0.019477
-0.024362
-0.067517
-0.108325
-0.145414
-0.177834
-0.205049
-0.226805
-0.242966
-0.253371
-0.257796
-0.256020
-0.247908
-0.233461
-0.212859
-0.186490
-0.154970
-0.119116
-0.079833
-0.037947
0.005856
0.050991
0.096903
0.143017
0.188697
0.233214
0.275822
0.315879
0.352906
0.386616
0.416945
0.444048
0.468219
0.489783
0.508970
0.525807
0.540018
0.550983
0.557867
0.559858
0.556364
0.547118
0.532243
0.512220
0.487789
0.459857
0.429383
0.397252
0.364207
0.330867
0.297836
0.265778
0.235449
0.207666
0.183267
0.163023
0.147511
0.137016
0.131541
0.130900
0.134789
0.142812
0.154500
0.169326
0.186731
0.206117
0.226810
0.248019
0.268827
0.288250
0.305293
0.319011
0.328593
0.333450
0.333267
0.327999
0.317811
0.302985
0.283806
0.260492
0.233264
0.202501
0.168874
0.133388
0.097322
0.062093
0.029129
-0.000229
-0.024847
-0.043940
-0.057161
-0.064537
-0.066278
-0.062596
-0.053612
-0.039400
-0.020141
0.003754
0.031630
0.062632
0.095779
0.130026
0.164329
0.197656
0.228941
0.257055
0.280868
0.299357
0.311728
0.317506
0.316625
0.309448
0.296701
0.279370
0.258596
0.235584
0.211502
0.187384
0.164060
0.142088
0.121690
0.102745
0.084900
0.067705
0.050704
0.033507
0.015894
-0.002080
-0.020054
-0.037386
-0.053203
-0.066519
-0.076406
-0.082151
-0.083302
-0.079654
-0.071217
-0.058198
-0.040957
-0.019933
0.004383
0.031456
0.060695
0.091399
0.122672
0.153410
0.182372
0.208318
0.230172
0.247106
0.258533
0.264042
0.263340
0.256267
0.242778
0.222903
0.196785
0.164788
0.127529
0.085808
0.040504
-0.007491
-0.057325
-0.108209
-0.159398
-0.210129
-0.259572
-0.306839
-0.351043
-0.391387
-0.427226
-0.458059
-0.483461
-0.503041
-0.516481
-0.523575
-0.524253
-0.518565
-0.506683
-0.488933
-0.465875
-0.438346
-0.407390
-0.374150
-0.339739
-0.305098
-0.270893
-0.237441
-0.204727
-0.172496
-0.140443
-0.108423
-0.076625
-0.045548
-0.015810
0.012062
0.037784
0.061446
0.083503
0.104651
0.125703
0.147541
0.171095
0.197265
0.226784
0.260110
0.297391
0.338462
0.382910
0.430174
0.479643
0.530719
0.582811
0.635299
0.687496
0.738614
0.787753
0.833941
0.876246
0.913955
0.946745
0.974716
0.998250
1.017773
1.033535
1.045508
1.053432
1.056968
1.055890
1.050235
1.040340
1.026739
1.009948
0.990320
0.968045
0.943248
0.916052
0.886581
0.854971
0.821430
0.786284
0.749970
0.712983
0.675853
0.639150
0.603485
0.569475
0.537734
0.508868
0.483432
0.461867
0.444451
0.431332
0.422611
0.418415
0.418918
0.424266
0.434457
0.449215
0.467895
0.489466
0.512618
0.535958
0.558219
0.578425
0.595956
0.610565
0.622293
0.631326
0.637915
0.642388
0.645160
0.646671
0.647283
0.647187
0.646394
0.644777
0.642113
0.638145
0.632614
0.625240
0.615712
0.603652
0.588554
0.569796
0.546766
0.519009
0.486349
0.448971
0.407441
0.362657
0.315722
0.267744
0.219680
0.172321
0.126384
0.082570
0.041495
0.003591
-0.030903
-0.061878
-0.089311
-0.113285
-0.134042
-0.151985
-0.167577
-0.181224
-0.193294
-0.204225
-0.214604
-0.225126
-0.236517
-0.249464
-0.264589
-0.282441
-0.303452
-0.327884
-0.355776
-0.386940
-0.420962
-0.457190
-0.494720
-0.532456
-0.569226
-0.603864
-0.635254
-0.662394
-0.684464
-0.700850
-0.711180
-0.715349
-0.713510
-0.705996
-0.693289
-0.676060
-0.655172
-0.631583
-0.606230
-0.579975
-0.553611
-0.527891
-0.503550
-0.481278
-0.461651
-0.445103
-0.431956
-0.422442
-0.416658
-0.414502
-0.415625
-0.419355
-0.424701
-0.430447
-0.435300
-0.438074
-0.437884
-0.434217
-0.426892
-0.415979
-0.401711
-0.384429
-0.364604
-0.342837
-0.319788
-0.296096
-0.272315
-0.248876
-0.226070
-0.204047
-0.182920
-0.162889
-0.144246
-0.127302
-0.112312
-0.099428
-0.088655
-0.079878
-0.072922
-0.067586
-0.063721
-0.061294
-0.060399
-0.061216
-0.063921
-0.068627
-0.075360
-0.084064
-0.094642
-0.106978
-0.120906
-0.136142
-0.152237
-0.168614
-0.184668
-0.199858
-0.213742
-0.225985
