EVENT_NAME: L_AQUILA
EVENT_ID: IT-2009-0009
EVENT_DATE_YYYYMMDD: 20090406
EVENT_TIME_HHMMSS: 013240
EVENT_LATITUDE_DEGREE: 42.3420
EVENT_LONGITUDE_DEGREE: 13.3800
EVENT_DEPTH_KM: 8.3
HYPOCENTER_REFERENCE: INGV-CNT_Seismic_Bulletin
MAGNITUDE_W: 6.1
MAGNITUDE_W_REFERENCE: INGV-CNT_Seismic_Bulletin
MAGNITUDE_L: 
MAGNITUDE_L_REFERENCE: 
FOCAL_MECHANISM: Normal faulting
NETWORK: IT
STATION_CODE: ANT
STATION_NAME: 
STATION_LATITUDE_DEGREE: 42.418110
STATION_LONGITUDE_DEGREE: 13.078598
STATION_ELEVATION_M: 568
LOCATION: 
SENSOR_DEPTH_M: 0.0
VS30_M/S: 912
SITE_CLASSIFICATION_EC8: A
MORPHOLOGIC_CLASSIFICATION: 
EPICENTRAL_DISTANCE_KM: 26.2
EARTHQUAKE_BACKAZIMUTH_DEGREE: 288.9
DATE_TIME_FIRST_SAMPLE_YYYYMMDD_HHMMSS: 20090406_013216.000
DATE_TIME_FIRST_SAMPLE_PRECISION: seconds
SAMPLING_INTERVAL_S: 0.005000
NDATA: 24000
DURATION_S: 120.000
STREAM: HNE
UNITS: cm/s^2
INSTRUMENT: sensor = FBA-3 [Kinemetrics] | digitizer = Etna [Kinemetrics]
INSTRUMENT_ANALOG/DIGITAL: D
INSTRUMENTAL_FREQUENCY_HZ: 216.000
INSTRUMENTAL_DAMPING: 0.700000
FULL_SCALE_G: 1.0
N_BIT_DIGITAL_CONVERTER: 18
PGA_CM/S^2: -19.744122
TIME_PGA_S: 39.205000
BASELINE_CORRECTION: BASELINE REMOVED
FILTER_TYPE: BUTTERWORTH
FILTER_ORDER: 2
LOW_CUT_FREQUENCY_HZ: 0.100
HIGH_CUT_FREQUENCY_HZ: 40.000
LATE/NORMAL_TRIGGERED: NT
DATABASE_VERSION: 0.5
HEADER_FORMAT: DYNA 1.2
DATA_TYPE: ACCELERATION
PROCESSING: manual (Paolucci et al., 2011)
DATA_TIMESTAMP_YYYYMMDD_HHMMSS: 20211011_154920.579
DATA_LICENSE: CC-BY3_0-IT (http://creativecommons.org/licenses/by/3.0/deed.en)
DATA_CITATION: Luzi L, Pacor F, Puglia R (2019). Italian Accelerometric Archive v 3.0 - Istituto Nazionale di Geofisica e Vulcanologia, Dipartimento della Protezione Civile Nazionale. doi: 10.13127/itaca.3.1
DATA_CREATOR: ITACA working group
ORIGINAL_DATA_MEDIATOR_CITATION: data obtained within the DPC-INGV data exchange agreements
ORIGINAL_DATA_MEDIATOR: Archive of Italian Department of Civil Protection
ORIGINAL_DATA_CREATOR_CITATION: Presidency Of Counsil Of Ministers-Civil Protection Department. (1972). Italian Strong Motion Network. Presidency of Counsil of Ministers - Civil Protection Department. https://doi.org/10.7914/SN/IT http://www.fdsn.org/networks/detail/IT/
ORIGINAL_DATA_CREATOR: network: IT (Italian Strong Motion Network (RAN)); owner: Presidency of Counsil of Ministers - Civil Protection Department (PCM - DPC)
USER1: 
USER2: 
USER3: 
USER4: 
USER5: 
[...]
0.295248
0.600964
0.794565
0.803159
0.618811
0.313012
0.012260
-0.164844
-0.170647
-0.049016
0.093310
0.143008
0.033991
-0.225593
-0.563835
-0.887296
-1.127376
-1.260781
-1.302800
-1.293188
-1.286100
-1.334196
-1.456882
-1.616939
-1.740150
-1.768146
-1.700334
-1.589792
-1.495850
-1.439109
-1.398275
-1.340933
-1.255606
-1.162111
-1.097613
-1.088097
-1.124159
-1.163940
-1.166392
-1.127333
-1.086151
-1.102041
-1.222208
-1.455620
-1.759352
-2.049895
-2.237026
-2.258727
-2.103280
-1.813419
-1.465908
-1.131401
-0.839855
-0.577832
-0.318182
-0.057586
0.168461
0.307199
0.326675
0.235375
0.072059
-0.113105
-0.269833
-0.359957
-0.369259
-0.303260
-0.168581
0.037745
0.316580
0.650485
1.003428
1.326498
1.557919
1.632126
1.508402
1.199235
0.771324
0.311857
-0.108515
-0.446284
-0.681223
-0.800864
-0.785239
-0.623662
-0.338999
0.012849
0.357136
0.623108
0.770526
0.801803
0.755796
0.693241
0.677657
0.752936
0.923038
1.140778
1.322104
1.386537
1.291805
1.051367
0.744873
0.498000
0.420085
0.542096
0.794178
1.039615
1.154672
1.104551
0.962948
0.857139
0.881975
1.048106
1.289790
1.521290
1.690301
1.785015
1.817327
1.810401
1.791706
1.788210
1.819355
1.888522
1.982430
2.085730
2.195267
2.318311
2.465277
2.644488
2.853800
3.071280
3.260453
3.387062
3.424615
3.355882
3.178319
2.903361
2.557842
2.186767
1.844561
1.578538
1.414907
1.353626
1.369205
1.417489
1.450790
1.435536
1.370192
1.290311
1.246153
1.265028
1.322999
1.352828
1.289201
1.112373
0.859239
0.596829
0.375256
0.204665
0.074473
-0.025391
-0.104867
-0.181510
-0.285683
-0.449247
-0.677633
-0.935079
-1.167758
-1.351116
-1.508593
-1.678864
-1.870763
-2.048693
-2.158752
-2.172202
-2.110302
-2.036855
-2.026581
-2.125142
-2.323700
-2.561774
-2.754561
-2.831501
-2.771181
-2.620594
-2.478906
-2.439427
-2.529555
-2.695308
-2.831215
-2.829948
-2.631461
-2.250317
-1.768865
-1.301100
-0.943505
-0.741213
-0.684348
-0.726736
-0.810929
-0.885107
-0.915818
-0.903688
-0.885248
-0.906161
-0.986031
-1.106326
-1.229389
-1.330905
-1.415526
-1.499305
-1.574522
-1.590830
-1.475737
-1.181561
-0.723579
-0.181068
0.344122
0.781313
1.118814
1.396132
1.671685
1.986442
2.341628
2.694354
2.968895
3.081133
2.973160
2.647738
2.179942
1.691379
1.297272
1.054161
0.938490
0.867259
0.741600
0.483783
0.058693
-0.509985
-1.137104
-1.712207
-2.160471
-2.471513
-2.669097
-2.759752
-2.711900
-2.484565
-2.081234
-1.568845
-1.037962
-0.552559
-0.137927
0.195912
0.430445
0.539335
0.509114
0.362360
0.162208
-0.016554
-0.133767
-0.203587
-0.266864
-0.347288
-0.434005
-0.502792
-0.549733
-0.600115
-0.686477
-0.818994
-0.973717
-1.110712
-1.205814
-1.265100
-1.306873
-1.329814
-1.304871
-1.198990
-1.007092
-0.764189
-0.528327
-0.357848
-0.296370
-0.362181
-0.546387
-0.815500
-1.118186
-1.406630
-1.664602
-1.912342
-2.178733
-2.470142
-2.762533
-3.021209
-3.230668
-3.406352
-3.581850
-3.785236
-4.019067
-4.255940
-4.454766
-4.587527
-4.655500
-4.680547
-4.683082
-4.668818
-4.622214
-4.507614
-4.289046
-3.953309
-3.523516
-3.061025
-2.643488
-2.325776
-2.108946
-1.942532
-1.763103
-1.528316
-1.224281
-0.860407
-0.457099
-0.037918
0.371400
0.755389
1.121603
1.490036
1.868649
2.237714
2.557519
2.797498
2.954898
3.039155
3.043572
2.937017
2.687685
2.305740
1.866995
1.482545
1.236854
1.158152
1.231078
1.419698
1.687952
2.000563
2.311366
2.576311
2.779384
2.938163
3.085030
3.236647
3.381109
3.492042
3.546178
3.530433
3.439930
3.270577
3.013370
2.662730
2.232446
1.760642
1.300393
0.900995
0.593126
0.382338
0.247790
0.150887
0.046304
-0.104239
-0.311575
-0.551823
-0.776515
-0.925977
-0.943090
-0.787357
-0.451308
0.021923
0.543387
1.019330
1.397621
1.682699
1.912225
2.120823
2.327978
2.548802
2.797283
3.072513
3.340776
3.535203
3.584855
3.458068
3.192155
2.884961
2.647982
2.561278
2.663334
2.959549
3.425102
4.000971
4.592704
5.091146
5.415934
5.545833
5.512235
5.367501
5.153606
4.893035
4.605494
4.333093
4.136008
4.048173
4.048455
4.078880
4.076507
3.997382
3.832081
3.601605
3.335062
3.050042
2.745476
2.405540
2.013869
1.570012
1.094365
0.617048
0.160106
-0.271658
-0.679675
-1.049536
-1.342479
-1.505748
-1.489585
-1.266181
-0.845012
-0.270739
0.399200
1.123056
1.892960
2.727752
3.640302
4.615123
5.618748
6.611926
7.547255
8.375623
9.060370
9.580742
9.927241
10.092452
10.060151
9.800188
9.266448
8.404130
7.184518
5.653705
3.944164
2.217556
0.576026
-0.979357
-2.510674
-4.073561
-5.674641
-7.268019
-8.772276
-10.084997
-11.090278
-11.682619
-11.816353
-11.538890
-10.963061
-10.194777
-9.281036
-8.227173
-7.062872
-5.887169
-4.845556
-4.055242
-3.538574
-3.207600
-2.902170
-2.470819
-1.856714
-1.129546
-0.451677
-0.013433
0.034430
-0.365219
-1.148423
-2.135757
-3.082395
-3.775848
-4.129266
-4.200104
-4.129754
-4.050315
-4.011066
-3.967781
-3.830770
-3.520464
-2.994906
-2.247992
-1.294659
-0.169417
1.063405
2.319431
3.526217
4.645336
5.668837
6.600873
7.443168
8.198098
8.876323
9.492385
10.052834
10.534308
10.862633
10.927524
10.636176
9.969823
8.998365
7.843871
6.638154
5.498328
4.497905
3.643040
2.886603
2.165144
1.422321
0.609752
-0.322941
-1.431396
-2.763323
-4.324206
-6.030761
-7.694380
-9.068903
-9.948768
-10.256540
-10.049294
-9.454215
-8.607085
-7.614326
-6.527235
-5.348295
-4.075820
-2.749710
-1.453385
-0.274177
0.728147
1.520573
2.082853
2.402293
2.480210
2.333431
1.974925
1.385844
0.514422
-0.688904
-2.216959
-3.956557
-5.696629
-7.211417
-8.352124
-9.076843
-9.419773
-9.453067
-9.271652
-8.977000
-8.639001
-8.257770
-7.762089
-7.058682
-6.095563
-4.888759
-3.519219
-2.124793
-0.870481
0.111181
0.775453
1.179390
1.439311
1.662118
1.913077
2.229651
2.626361
3.068137
3.459793
3.681064
3.639166
3.309937
2.752249
2.097195
1.526075
1.228080
1.327590
1.818482
2.566673
3.382544
4.101568
4.631912
4.967811
5.178512
5.378974
5.678234
6.116164
6.632688
7.094499
7.354940
7.315075
6.949824
6.283067
5.356656
4.235860
3.039034
1.940534
1.122442
0.715831
0.761440
1.191610
1.850674
2.556299
3.164018
3.593071
3.812038
3.811444
3.595182
3.194509
2.666335
2.072767
1.473868
0.928231
0.482063
0.151989
-0.082623
-0.276542
-0.504743
-0.826322
-1.248841
-1.734231
-2.235728
-2.728039
-3.219164
-3.751298
-4.391118
-5.196218
-6.169162
-7.242407
-8.308346
-9.268859
-10.078559
-10.759600
-11.370552
-11.945055
-12.449149
-12.795610
-12.908560
-12.793426
-12.563870
-12.405746
-12.495662
-12.916734
-13.616272
-14.429083
-15.151821
-15.622943
-15.766880
-15.589168
-15.136638
-14.453119
-13.555181
-12.431849
-11.061159
-9.430011
-7.548392
-5.468537
-3.300538
-1.193730
0.711525
2.333738
3.672059
4.780312
5.723778
6.555891
7.307832
7.978339
8.532267
8.918011
9.100249
9.089218
8.944566
8.751970
8.591125
8.514107
8.541949
8.681433
8.947672
9.359951
9.912089
10.545990
11.146111
11.563101
11.648467
11.284957
10.422613
9.108803
7.480491
5.706816
3.921911
2.201006
0.568417
-0.988469
-2.496995
-3.976965
-5.420373
-6.775787
-7.957311
-8.879764
-9.498520
-9.831326
-9.952049
-9.961489
-9.954570
-9.994605
-10.089369
-10.187098
-10.211799
-10.112178
-9.881295
-9.545250
-9.159633
-8.812559
-8.603134
-8.607300
-8.850393
-9.291228
-9.826314
-10.315155
-10.628426
-10.699076
-10.536107
-10.198575
-9.752557
-9.232775
-8.626514
-7.883081
-6.941816
-5.764213
-4.357512
-2.781613
-1.141370
0.424436
1.762676
2.740367
3.279130
3.376698
3.116683
2.654945
2.169617
1.801979
1.621193
1.621006
1.747559
1.938562
2.147457
2.352846
2.567335
2.832120
3.180140
3.601462
4.047318
4.462675
4.818091
5.115857
5.365329
5.556572
5.670605
5.714044
5.731610
5.783513
5.903669
6.071521
6.229373
6.333224
6.391964
6.459328
6.584674
6.766829
6.948186
7.050437
7.026438
6.890350
6.695639
6.481527
6.256241
6.034649
5.864050
5.796511
5.841800
5.948327
6.027915
6.005642
5.859303
5.622289
5.353868
5.105720
4.905838
4.765255
4.696570
4.719227
4.848608
5.084785
5.402167
5.746692
6.061320
6.321654
6.537418
6.728235
6.913372
7.115946
7.356940
7.634646
7.912609
8.142331
8.306181
8.425968
8.526441
8.605377
8.637564
8.591497
8.443986
8.198633
7.891080
7.553613
7.167123
6.658236
5.951346
5.028977
3.949311
2.811642
1.701315
0.658160
-0.312140
-1.208197
-2.014846
-2.704839
-3.254817
-3.654402
-3.901052
-4.002446
-3.987394
-3.902772
-3.791325
-3.673410
-3.558839
-3.475449
-3.481847
-3.658921
-4.080646
-4.769816
-5.677483
-6.710118
-7.777305
-8.823783
-9.830198
-10.789896
-11.683203
-12.467654
-13.089921
-13.506982
-13.702319
-13.691406
-13.510732
-13.194210
-12.749065
-12.142756
-11.318351
-10.237420
-8.912465
-7.404748
-5.809134
-4.241760
-2.816173
-1.611204
-0.657689
0.053885
0.559989
0.906346
1.131860
1.259603
1.296179
1.244682
1.118892
0.955793
0.825570
0.806301
0.934891
1.186514
1.483357
1.717914
1.793157
1.660907
1.335212
0.877047
0.363538
-0.136406
-0.572825
-0.915884
-1.148914
-1.268832
-1.301886
-1.306352
-1.350220
-1.494489
-1.792107
-2.265256
-2.859987
-3.438754
-3.832237
-3.916232
-3.659575
-3.106319
-2.333446
-1.428448
-0.477879
0.442457
1.282833
2.030341
2.697385
3.299327
3.834569
4.273139
4.559869
4.631494
4.443828
3.999404
3.357236
2.614698
1.875778
1.228707
0.741815
0.468615
0.450007
0.717240
1.299990
2.222217
3.481588
5.030850
6.763072
8.516846
10.125520
11.476762
12.538030
13.338054
13.921586
14.320040
14.542047
14.562407
14.327533
13.779898
12.875881
11.599573
9.983212
8.118527
6.146594
4.230385
2.510614
1.064933
-0.096116
-0.998124
-1.670448
-2.134868
-2.403209
-2.469546
-2.308346
-1.895912
-1.244698
-0.413305
0.515656
1.460048
2.351713
3.140620
3.784116
4.232005
4.427775
4.320918
3.881997
3.125207
2.124767
1.000647
-0.127977
-1.194075
-2.197276
-3.166248
-4.106941
-4.986947
-5.755699
-6.361394
-6.755706
-6.903353
-6.795077
-6.461799
-5.984297
-5.476765
-5.048646
-4.772408
-4.671025
-4.727920
-4.911513
-5.192834
-5.545593
-5.936923
-6.320114
-6.638412
-6.837336
-6.872203
-6.708670
-6.324902
-5.716332
-4.894684
-3.879437
-2.695114
-1.379147
0.013868
1.413457
2.738960
3.920471
4.921694
5.740038
6.395208
6.926946
7.391114
7.836590
8.269166
8.631066
8.821133
8.744466
8.357816
7.690455
6.839290
5.940978
5.125671
4.470865
3.984696
3.631720
3.377256
3.214732
3.162692
3.240722
3.444103
3.732259
4.031398
4.248405
4.297216
4.127157
3.737970
3.179584
2.536250
1.899648
1.343165
0.902545
0.567753
0.290734
0.006367
-0.340090
-0.774821
-1.295988
-1.879265
-2.485715
-3.077198
-3.623483
-4.100110
-4.491114
-4.795405
-5.027229
-5.202658
-5.327132
-5.404564
-5.450332
-5.483715
-5.511509
-5.518950
-5.467010
-5.309984
-5.035183
-4.686857
-4.354566
-4.133555
-4.075880
-4.167631
-4.343008
-4.520616
-4.639922
-4.671499
-4.609035
-4.459128
-4.230042
-3.935270
-3.602661
-3.263131
-2.939818
-2.651513
-2.407398
-2.197382
-1.992815
-1.756799
-1.462377
-1.104544
-0.700853
-0.287395
0.088616
0.371406
0.503968
0.457349
0.248450
-0.083381
-0.502034
-0.970466
-1.445377
-1.897069
-2.324564
-2.735911
-3.123486
-3.458923
-3.699808
-3.809301
-3.774601
-3.608657
-3.347029
-3.042751
-2.750621
-2.505440
-2.317021
-2.188061
-2.126277
-2.144249
-2.254040
-2.449146
-2.695191
-2.948939
-3.183369
-3.391712
-3.572486
-3.724231
-3.848178
-3.935969
-3.961559
-3.889662
-3.683877
-3.317891
-2.791792
-2.138790
-1.413754
-0.662352
0.105483
0.903668
1.732949
2.556887
3.305815
3.907668
4.326088
4.575931
4.710544
4.795735
4.885369
5.012926
5.198685
5.447882
5.733498
5.992363
6.150080
6.156689
6.006722
5.733687
5.386216
5.000023
4.582529
4.117647
3.584676
2.980604
2.329503
1.667554
1.015597
0.363876
-0.318069
-1.055438
-1.845344
-2.648354
-3.399894
-4.038355
-4.529785
-4.871569
-5.077928
-5.160090
-5.115625
-4.936897
-4.625717
-4.194008
-3.656909
-3.033886
-2.354453
-1.658271
-0.987943
-0.379064
0.147935
0.590838
0.962148
1.279216
1.553825
1.795829
2.025823
2.271338
2.547350
2.839675
3.103172
3.284185
3.351183
3.307502
3.190189
3.056546
2.957379
2.923432
2.968998
3.089213
3.253644
3.412550
3.518647
3.551335
3.526984
3.486786
3.467077
3.476008
3.485981
3.438550
3.270038
2.939624
2.433226
1.756337
0.936661
0.031792
-0.877941
-1.715629
-2.427478
-2.975858
-3.323591
-3.439627
-3.320159
-2.993213
-2.497529
-1.852649
-1.044726
-0.043895
1.160126
2.528685
3.964889
5.337148
6.532007
7.497219
8.241018
8.802730
9.226816
9.545606
9.767472
9.873422
9.821837
9.565751
9.080640
8.380370
7.509491
6.523912
5.474789
4.403263
3.336659
2.276442
1.195633
0.054621
-1.181240
-2.527013
-3.966641
-5.457961
-6.954458
-8.425267
-9.866717
-11.300886
-12.749892
-14.204470
-15.617058
-16.914289
-18.015875
-18.861229
-19.427820
-19.720646
-19.744122
-19.484707
-18.918377
-18.027889
-16.812481
-15.294053
-13.518227
-11.547372
-9.452077
-7.302241
-5.165298
-3.107370
-1.179595
0.599020
2.234410
3.728942
5.064788
6.207058
7.117594
7.781081
8.213940
8.442545
8.488231
8.365951
8.085281
7.662496
7.134246
6.556473
5.996266
5.526665
5.217954
5.122045
5.261337
5.625589
6.177706
6.876325
7.697426
8.628879
9.649485
10.715997
11.763119
12.718547
13.533098
14.202950
14.761558
15.253356
15.707802
16.117214
16.426172
16.554197
16.451771
16.136189
15.668353
15.107708
14.495564
13.860321
13.212225
12.530433
11.764490
10.855008
9.765420
8.504531
7.118571
5.667793
4.218613
2.838524
1.572398
0.420703
-0.655650
-1.702507
-2.733873
-3.727726
-4.663789
-5.553286
-6.425157
-7.294574
-8.145040
-8.927169
-9.572662
-10.019896
-10.238970
-10.249035
-10.127003
-10.000235
-10.013618
-10.275983
-10.817339
-11.588869
-12.495149
-13.429133
-14.297957
-15.034570
-15.597329
-15.969757
-16.157175
-16.168884
-15.999711
-15.623049
-14.996446
-14.089749
-12.912718
-11.508265
-9.931428
-8.244286
-6.519639
-4.835788
-3.261931
-1.838812
-0.564732
0.594492
1.676782
2.700142
3.656872
4.518983
5.247689
5.816844
6.237671
6.553710
6.818044
7.085240
7.413271
7.850378
8.410362
9.060544
9.727188
10.313456
10.734541
10.955292
10.998246
10.924460
10.808687
10.706415
10.623965
10.518649
10.321838
9.968148
9.421853
8.685402
7.788864
6.777895
5.712728
4.663516
3.686577
2.802739
1.992539
1.198312
0.342786
-0.628879
-1.720272
-2.897116
-4.114018
-5.324759
-6.485851
-7.560478
-8.522213
-9.365859
-10.118368
-10.826563
-11.525479
-12.226850
-12.933968
-13.643565
-14.329328
-14.940120
-15.415922
-15.700314
-15.750746
-15.552837
-15.132534
-14.562084
-13.949198
-13.399309
-12.972456
-12.672265
-12.465998
-12.309000
-12.168101
-12.039435
-11.949108
-11.939639
-12.048171
-12.279060
-12.586683
-12.888499
-13.098228
-13.152423
-13.021661
-12.711109
-12.250567
-11.673782
-11.004054
-10.256130
-9.440198
-8.561326
-7.615482
-6.581070
-5.420175
-4.099161
-2.609565
-0.970920
0.779783
2.595697
4.416491
6.164880
7.757473
9.125908
10.234670
11.087355
11.720907
12.194095
12.569648
12.886415
13.138891
13.282782
13.263131
13.044747
12.621021
12.005585
11.232663
10.370909
9.531170
8.852246
8.468398
8.469699
8.864426
9.556631
10.363881
11.089312
11.606111
11.889361
11.982766
11.943495
11.810156
11.600887
11.319458
10.954689
10.481448
9.870065
9.094086
8.130363
6.960060
5.578784
4.005769
2.277907
0.441252
-1.445520
-3.308454
-5.066171
-6.642164
-7.975606
-9.025496
-9.767872
-10.192075
-10.297541
-10.089884
-9.585071
-8.825680
-7.889620
-6.879823
-5.905711
-5.064538
-4.427023
-4.028014
-3.860492
-3.879905
-4.021552
-4.222877
-4.447040
-4.699992
-5.024601
-5.472672
-6.072173
-6.807903
-7.624014
-8.436696
-9.150471
-9.679594
-9.957945
-9.934890
-9.580717
-8.900871
-7.939223
-6.769655
-5.480468
-4.155284
-2.866286
-1.678043
-0.639846
0.223558
0.903551
1.395663
1.698614
1.824202
1.803787
1.677976
1.482208
1.235649
0.933547
0.556196
0.092223
-0.444962
-1.016423
-1.565775
-2.036336
-2.391678
-2.620674
-2.727196
-2.711034
-2.547226
-2.188916
-1.597707
-0.767875
0.275032
1.484813
2.801544
4.159717
5.499530
6.778948
7.979296
9.096800
10.127789
11.062111
11.886923
12.589073
13.148559
13.535464
13.723934
13.711347
13.522332
13.195220
12.761184
12.230744
11.598604
10.862389
10.038083
9.161237
8.279843
7.442007
6.675821
5.974606
5.300313
4.599629
3.825038
2.952127
1.984548
0.951850
-0.093329
-1.085610
-1.972033
-2.741636
-3.433908
-4.117371
-4.855286
-5.672345
-6.535665
-7.367085
-8.073874
-8.566724
-8.767912
-8.630903
-8.161651
-7.417723
-6.484131
-5.442887
-4.351220
-3.232272
-2.080924
-0.885005
0.355080
1.622532
2.889379
4.120314
5.273795
6.304141
7.170735
7.856669
8.377044
8.760641
9.027142
9.182311
9.222871
9.136002
8.903409
8.521559
8.011301
7.405400
6.741990
6.065939
5.420522
4.834202
4.312699
3.837422
3.367476
2.842173
2.193108
1.376632
0.398281
-0.698735
-1.849325
-2.974966
-4.004481
-4.886192
-5.586523
-6.094871
-6.426008
-6.609144
-6.667863
-6.606246
-6.411572
-6.065942
-5.556442
-4.879792
-4.048896
-3.102383
-2.099007
-1.094960
-0.128198
0.777736
1.604661
2.337529
2.965297
3.480921
3.877133
4.138751
4.241635
4.161713
3.884632
3.408502
2.743659
1.916386
0.971327
-0.036452
-1.053651
-2.037695
-2.965109
-3.835886
-4.662795
-5.445595
-6.152540
-6.725342
-7.097168
-7.213319
-7.045857
-6.592730
-5.871684
-4.923590
-3.818550
-2.644262
-1.475122
-0.348183
0.736426
1.796839
2.842281
3.851815
4.779130
5.575013
6.200513
6.629320
6.849386
6.860726
6.665376
6.256881
5.622993
4.762489
3.697849
2.474087
1.155655
-0.176159
-1.435509
-2.549318
-3.466204
-4.154867
-4.602363
-4.816350
-4.823576
-4.664858
-4.394379
-4.079639
-3.788862
-3.569116
-3.439066
-3.400042
-3.439454
-3.522587
-3.594735
-3.594905
-3.466376
-3.163420
-2.663160
-1.977519
-1.148830
-0.230228
0.729605
1.687415
2.603680
3.448323
4.204726
4.863206
5.414548
5.847891
6.140848
6.254540
6.147503
5.792366
5.189337
4.370790
3.386791
2.285466
1.101626
-0.140270
-1.414583
-2.697794
-3.975020
-5.223594
-6.399412
-7.451771
-8.344352
-9.060690
-9.598952
-9.966848
-10.176909
-10.237723
-10.146131
-9.888723
-9.453365
-8.840786
-8.068766
-7.167829
-6.166692
-5.080308
-3.916076
-2.687860
-1.418914
-0.135451
1.137570
2.376322
3.550074
4.611503
5.505898
6.191231
6.647875
