EVENT_NAME: L_AQUILA
EVENT_ID: IT-2009-0009
EVENT_DATE_YYYYMMDD: 20090406
EVENT_TIME_HHMMSS: 013240
EVENT_LATITUDE_DEGREE: 42.3420
EVENT_LONGITUDE_DEGREE: 13.3800
EVENT_DEPTH_KM: 8.3
HYPOCENTER_REFERENCE: INGV-CNT_Seismic_Bulletin
MAGNITUDE_W: 6.1
MAGNITUDE_W_REFERENCE: INGV-CNT_Seismic_Bulletin
MAGNITUDE_L: 
MAGNITUDE_L_REFERENCE: 
FOCAL_MECHANISM: Normal faulting
NETWORK: IT
STATION_CODE: ANT
STATION_NAME: 
STATION_LATITUDE_DEGREE: 42.418110
STATION_LONGITUDE_DEGREE: 13.078598
STATION_ELEVATION_M: 568
LOCATION: 
SENSOR_DEPTH_M: 0.0
VS30_M/S: 912
SITE_CLASSIFICATION_EC8: A
MORPHOLOGIC_CLASSIFICATION: 
EPICENTRAL_DISTANCE_KM: 26.2
EARTHQUAKE_BACKAZIMUTH_DEGREE: 288.9
DATE_TIME_FIRST_SAMPLE_YYYYMMDD_HHMMSS: 20090406_013216.000
DATE_TIME_FIRST_SAMPLE_PRECISION: seconds
SAMPLING_INTERVAL_S: 0.005000
NDATA: 24400
DURATION_S: 122.000
STREAM: HNN
UNITS: cm/s^2
INSTRUMENT: sensor = FBA-3 [Kinemetrics] | digitizer = Etna [Kinemetrics]
INSTRUMENT_ANALOG/DIGITAL: D
INSTRUMENTAL_FREQUENCY_HZ: 214.000
INSTRUMENTAL_DAMPING: 0.700000
FULL_SCALE_G: 1.0
N_BIT_DIGITAL_CONVERTER: 18
PGA_CM/S^2: -25.939260
TIME_PGA_S: 42.375000
BASELINE_CORRECTION: BASELINE NOT REMOVED
FILTER_TYPE: 
FILTER_ORDER: 
LOW_CUT_FREQUENCY_HZ: 
HIGH_CUT_FREQUENCY_HZ: 
LATE/NORMAL_TRIGGERED: NT
DATABASE_VERSION: 0.5
HEADER_FORMAT: DYNA 1.2
DATA_TYPE: ACCELERATION
PROCESSING: converted to cm/s^2
DATA_TIMESTAMP_YYYYMMDD_HHMMSS: 20211011_154921.022
DATA_LICENSE: CC-BY3_0-IT (http://creativecommons.org/licenses/by/3.0/deed.en)
DATA_CITATION: Luzi L, Pacor F, Puglia R (2019). Italian Accelerometric Archive v 3.0 - Istituto Nazionale di Geofisica e Vulcanologia, Dipartimento della Protezione Civile Nazionale. doi: 10.13127/itaca.3.1
DATA_CREATOR: ITACA working group
ORIGINAL_DATA_MEDIATOR_CITATION: data obtained within the DPC-INGV data exchange agreements
ORIGINAL_DATA_MEDIATOR: Archive of Italian Department of Civil Protection
ORIGINAL_DATA_CREATOR_CITATION: Presidency Of Counsil Of Ministers-Civil Protection Department. (1972). Italian Strong Motion Network. Presidency of Counsil of Ministers - Civil Protection Department. https://doi.org/10.7914/SN/IT http://www.fdsn.org/networks/detail/IT/
ORIGINAL_DATA_CREATOR: network: IT (Italian Strong Motion Network (RAN)); owner: Presidency of Counsil of Ministers - Civil Protection Department (PCM - DPC)
USER1: 
USER2: 
USER3: 
USER4: 
USER5: 
[...]
-6.675271
-6.525990
-6.438949
-6.296688
-6.014505
-5.628201
-5.068984
-4.369377
-3.538740
-2.584092
-1.625233
-0.678307
0.221121
1.037251
1.740133
2.251852
2.545500
2.660385
2.623650
2.454481
2.189379
1.895965
1.641159
1.415366
1.296971
1.358976
1.607231
2.079173
2.692441
3.387602
4.137281
4.793367
5.402657
6.057807
6.702662
7.376297
8.031213
8.632313
9.206271
9.691083
10.154130
10.600100
11.008400
11.394240
11.613480
11.619100
11.388390
10.944290
10.293820
9.350638
8.126911
6.588244
4.836654
2.986088
1.133885
-0.554297
-2.052953
-3.306863
-4.323048
-5.170063
-5.891899
-6.524353
-7.093631
-7.553173
-7.885895
-8.152869
-8.248568
-8.168077
-7.933628
-7.568849
-7.167102
-6.779160
-6.556408
-6.503060
-6.629177
-6.925164
-7.314043
-7.757673
-8.142106
-8.437625
-8.607263
-8.687050
-8.645869
-8.438561
-8.158016
-7.792302
-7.393831
-7.022735
-6.635494
-6.252699
-5.832935
-5.375968
-5.000193
-4.659514
-4.336151
-3.956866
-3.487966
-3.021873
-2.549697
-2.127359
-1.683261
-1.183007
-0.583076
0.222056
1.160559
2.204354
3.320449
4.456666
5.586333
6.675988
7.684217
8.561884
9.202528
9.527763
9.546949
9.320221
8.928768
8.450977
8.024896
7.708317
7.546636
7.580329
7.792551
8.163880
8.588090
8.979074
9.288867
9.488922
9.569411
9.592342
9.622760
9.700910
9.867973
10.086510
10.378520
10.692530
10.888370
10.904510
10.713350
10.334770
9.845745
9.287463
8.628570
7.984884
7.434090
6.961446
6.692132
6.671308
6.912544
7.376062
7.946043
8.588793
9.153625
9.584153
9.959929
10.263400
10.528740
10.794540
11.073450
11.334810
11.550070
11.722280
11.847700
11.905260
11.818920
11.614180
11.323810
10.978920
10.575540
10.046270
9.380354
8.585282
7.729142
6.841179
5.971233
5.148084
4.347163
3.565194
2.762401
1.906260
0.981095
-0.018711
-1.181369
-2.545719
-4.077133
-5.755721
-7.546621
-9.430646
-11.365210
-13.281520
-15.093950
-16.733931
-18.148590
-19.362261
-20.412371
-21.319521
-22.126051
-22.832451
-23.420210
-23.816111
-24.041430
-24.100861
-23.916479
-23.445480
-22.662809
-21.625330
-20.403469
-19.074921
-17.621889
-16.071529
-14.509930
-13.004720
-11.628440
-10.412440
-9.443748
-8.726359
-8.265181
-8.045003
-8.033538
-8.225637
-8.504311
-8.814570
-9.108218
-9.273176
-9.331905
-9.301955
-9.142613
-8.888041
-8.492845
-7.977148
-7.381196
-6.667082
-5.885581
-5.017273
-4.050693
-2.959166
-1.717188
-0.371790
1.063223
2.538012
3.983788
5.303682
6.443409
7.309144
7.933174
8.445595
8.831900
9.196445
9.500387
9.738347
10.006020
10.244450
10.532250
10.812330
11.065260
11.319130
11.478240
11.586100
11.627050
11.618160
11.536270
11.292690
10.857020
10.222920
9.481435
8.714207
8.041508
7.482057
7.006605
6.610239
6.226040
5.844181
5.467236
5.148084
4.875260
4.627941
4.446839
4.266439
4.111075
4.025905
3.922485
3.788179
3.532437
3.069386
2.512742
1.849403
1.049184
0.158413
-0.779621
-1.703149
-2.526533
-3.198764
-3.764065
-4.172130
-4.402368
-4.445655
-4.363527
-4.282101
-4.168620
-4.026124
-3.840811
-3.527275
-3.002687
-2.196618
-1.132701
0.028787
1.153072
2.228688
3.234577
4.137281
4.914804
5.512394
5.922331
6.139233
6.119344
5.910866
5.591480
5.282390
5.093098
5.019394
5.018458
5.002313
4.907784
4.750782
4.568978
4.423441
4.383196
4.484510
4.722470
5.041622
5.392595
5.726956
6.021306
6.247333
6.370641
6.392168
6.227210
5.881150
5.399615
4.795004
4.177760
3.605673
3.123670
2.765443
2.506191
2.365802
2.329300
2.321111
2.310114
2.248810
2.076833
1.758384
1.288547
0.727692
0.151628
-0.326164
-0.639934
-0.773538
-0.681817
-0.412035
-0.029474
0.429365
0.853808
1.204782
1.486730
1.652624
1.754172
1.826005
1.902985
2.039162
2.230326
2.523272
2.887348
3.250722
3.537818
3.615734
3.444459
3.048562
2.479283
1.813370
1.078899
0.333198
-0.386765
-1.134104
-1.914201
-2.743434
-3.649647
-4.636116
-5.727409
-6.906212
-8.134384
-9.369576
-10.561480
-11.617210
-12.465390
-13.091300
-13.417230
-13.428930
-13.128500
-12.542610
-11.775620
-10.828690
-9.765943
-8.617791
-7.406934
-6.193736
-4.973987
-3.847596
-2.841941
-2.008262
-1.418861
-1.054317
-0.984122
-1.251330
-1.802592
-2.624571
-3.639118
-4.745386
-5.938227
-7.065320
-8.111220
-9.093009
-9.929964
-10.700000
-11.349070
-11.887690
-12.402690
-12.938510
-13.492340
-14.026060
-14.508530
-14.832590
-15.041310
-15.059090
-14.866750
-14.574280
-14.164570
-13.711820
-13.217410
-12.642050
-11.979180
-11.257580
-10.424600
-9.477442
-8.494015
-7.404828
-6.257145
-5.020315
-3.689892
-2.326478
-0.894507
0.504239
1.879586
3.191525
4.341313
5.358200
6.190007
6.842817
7.333712
7.667137
7.938790
8.145864
8.270343
8.348961
8.323690
8.208805
8.028639
7.788807
7.568162
7.380274
7.300487
7.360386
7.500541
7.757454
8.170198
8.692914
9.322093
10.080200
10.893050
11.748490
12.639490
13.485570
14.263800
14.952410
15.539940
16.075291
16.543020
16.893761
17.079769
17.020340
16.698380
16.120680
15.349710
14.427820
13.373030
12.269570
11.095910
9.843405
8.508069
7.080309
5.614878
4.144066
2.786501
1.622674
0.649542
-0.116048
-0.702875
-1.137848
-1.422605
-1.597623
-1.660330
-1.629913
-1.594581
-1.548955
-1.503796
-1.503562
-1.548487
-1.646994
-1.811483
-2.012240
-2.244584
-2.548761
-2.918921
-3.379164
-3.976286
-4.713097
-5.554730
-6.487383
-7.459579
-8.427564
-9.402334
-10.381080
-11.377140
-12.310030
-13.152130
-13.908830
-14.547600
-15.099100
-15.501550
-15.722900
-15.759400
-15.560750
-15.148240
-14.503150
-13.615180
-12.543780
-11.273720
-9.806890
-8.204813
-6.551495
-4.903558
-3.282295
-1.714380
-0.153719
1.379566
2.878690
4.374071
5.808382
7.125701
8.269641
9.201591
9.846447
10.158580
10.134480
9.741857
9.007387
8.004071
6.837669
5.646232
4.519842
3.507635
2.666703
1.994237
1.450931
1.009407
0.673876
0.467738
0.365254
0.359404
0.423983
0.492306
0.530679
0.486924
0.260429
-0.217830
-0.934284
-1.772174
-2.628081
-3.447019
-4.169322
-4.812071
-5.427444
-6.091018
-6.847950
-7.694264
-8.567251
-9.408885
-10.173770
-10.780020
-11.269510
-11.645520
-11.961160
-12.255040
-12.503070
-12.729090
-12.874630
-12.996300
-13.100890
-13.230520
-13.390330
-13.445550
-13.442040
-13.424250
-13.430810
-13.465200
-13.511760
-13.584060
-13.668060
-13.786690
-13.899710
-13.962650
-13.918660
-13.669940
-13.164770
-12.338340
-11.229970
-9.934175
-8.437391
-6.800920
-5.050499
-3.276680
-1.673433
-0.203791
1.176002
2.482792
3.740213
4.924631
6.069740
7.148866
8.162945
9.171642
10.097040
10.910360
11.671510
12.275650
12.719510
13.029540
13.176950
13.306340
13.444390
13.627370
13.895040
14.185880
14.536620
14.962940
15.473250
16.083481
16.814671
17.637819
18.456760
19.253229
19.991911
20.640980
21.248631
21.770651
22.144079
22.285410
22.088631
21.525431
20.566811
19.336060
17.948780
16.469311
14.955450
13.429650
11.986680
10.636140
9.384800
8.199446
7.039362
5.901506
4.768565
3.681249
2.655237
1.702228
0.822689
0.037912
-0.640402
-1.241736
-1.836051
-2.505006
-3.267554
-4.140074
-5.087468
-6.072533
-7.071637
-8.051086
-8.990057
-9.877786
-10.725740
-11.502560
-12.235620
-12.964480
-13.698720
-14.505020
-15.350400
-16.132360
-16.730419
-17.041849
-17.018221
-16.593540
-15.763840
-14.578020
-13.108850
-11.423710
-9.636082
-7.897126
-6.283117
-4.890455
-3.737157
-2.838899
-2.195214
-1.624063
-1.060400
-0.509138
-0.006310
0.414624
0.779402
1.104637
1.440870
1.793715
2.209501
2.671148
3.146132
3.619244
4.057961
4.499251
4.924163
5.373643
5.866175
6.327354
6.749458
7.094816
7.285746
7.295573
7.100666
6.737759
6.263711
5.708705
5.136619
4.605479
4.185247
3.856970
3.569874
3.338465
3.131859
2.937654
2.788139
2.658045
2.567026
2.508765
2.428977
2.342637
2.213947
2.024187
1.741069
1.339087
0.843045
0.242179
-0.368515
-0.962361
-1.588732
-2.205977
-2.817841
-3.381738
-3.889947
-4.389031
-4.859335
-5.283311
-5.649259
-5.939397
-6.089380
-6.113012
-5.969815
-5.596379
-5.060794
-4.403070
-3.660410
-2.879846
-2.131337
-1.453256
-0.921415
-0.600859
-0.432392
-0.408526
-0.443155
-0.439879
-0.411567
-0.333183
-0.214554
-0.053107
0.164263
0.390290
0.600172
0.786890
0.938510
1.047077
1.127334
1.236369
1.432680
1.741069
2.173936
2.699226
3.279970
3.887154
4.499719
5.134045
5.760649
6.398485
7.081245
7.767515
8.477182
9.225926
9.999237
10.811620
11.638750
12.445760
13.214620
13.912120
14.512990
15.023770
15.471380
15.849490
16.170990
16.411289
16.538570
16.527340
16.299440
15.869380
15.238100
14.420800
13.478790
12.425630
11.233490
9.932786
8.621082
7.291595
5.963044
4.632621
3.298689
2.003129
0.760216
-0.395891
-1.431730
-2.299570
-2.991221
-3.465971
-3.734583
-3.885501
-3.986114
-4.077835
-4.200207
-4.383649
-4.579025
-4.790077
-5.009318
-5.207267
-5.363567
-5.393283
-5.264826
-5.008616
-4.664428
-4.258235
-3.837769
-3.466205
-3.163198
-2.946297
-2.807779
-2.736415
-2.727757
-2.795846
-2.962441
-3.170920
-3.421515
-3.698783
-3.961545
-4.189444
-4.328897
-4.415003
-4.456652
-4.499237
-4.574579
-4.669810
-4.828683
-5.007680
-5.167256
-5.307177
-5.437505
-5.547009
-5.650897
-5.762975
-5.876456
-5.993915
-6.110438
-6.266972
-6.419061
-6.589400
-6.782903
-6.994189
-7.289007
-7.656826
-8.154740
-8.783217
-9.513709
-10.322350
-11.207270
-12.135950
-13.060410
-13.995410
-14.891320
-15.681250
-16.305981
-16.785410
-17.099409
-17.252199
-17.242611
-17.021971
-16.584890
-15.904470
-14.987720
-13.810320
-12.385610
-10.722460
-8.841947
-6.818234
-4.680807
-2.529341
-0.462342
1.437360
3.081787
4.498315
5.720404
6.738929
7.560441
8.187981
8.612892
8.867465
8.976969
8.925492
8.796334
8.591366
8.321819
8.115681
7.976227
7.923815
8.005942
8.195234
8.473439
8.818329
9.195041
9.555607
9.849723
10.062880
10.135650
10.077620
9.950335
9.759171
9.558649
9.356488
9.167196
8.992880
8.781593
8.567967
8.363467
8.181897
8.084560
8.042210
8.080115
8.173006
8.269173
8.426409
8.585517
8.717951
8.828858
8.905370
8.951699
8.967376
8.930172
8.791187
8.565628
8.212783
7.727270
7.099262
6.355198
5.576037
4.730192
3.885048
3.047860
2.224242
1.441338
0.606489
-0.272114
-1.234717
-2.253943
-3.256089
-4.235773
-5.114142
-5.918105
-6.688140
-7.398510
-8.069805
-8.756075
-9.478144
-10.199750
-10.965800
-11.804630
-12.619590
-13.377460
-14.050390
-14.552980
-14.868630
-14.982580
-14.882200
-14.604690
-14.174870
-13.627580
-13.035840
-12.500730
-12.047970
-11.670560
-11.387670
-11.158600
-11.004640
-10.956680
-11.019150
-11.224820
-11.512620
-11.895650
-12.393330
-12.953010
-13.550840
-14.134390
-14.682140
-15.166490
-15.564020
-15.868200
-16.070360
-16.153419
-16.139620
-16.018881
-15.670950
-15.102840
-14.336080
-13.375350
-12.311670
-11.160010
-9.957339
-8.715128
-7.398978
-6.067619
-4.667704
-3.180513
-1.600431
0.129165
1.898539
3.713539
5.519413
7.186771
8.704145
10.000640
11.066900
11.876480
12.421650
12.776840
12.978770
13.094350
13.138110
13.083830
12.956770
12.766540
12.529290
12.287120
12.060620
11.887940
11.774230
11.719010
11.760890
11.872500
12.048450
12.275420
12.555260
12.933610
13.420060
14.032150
14.726610
15.494780
16.331499
17.172430
17.986919
18.751579
19.444401
20.031691
20.523520
20.902109
21.128130
21.208389
21.122520
20.863029
20.439289
19.860180
19.152390
18.309580
17.308611
16.157650
14.838460
13.343540
11.702160
9.952675
8.130187
6.260669
4.378517
2.483963
0.609531
-1.205469
-2.963143
-4.601721
-6.086572
-7.438521
-8.622939
-9.656906
-10.558210
-11.324260
-11.992520
-12.560160
-13.027420
-13.429400
-13.767970
-14.034480
-14.264720
-14.471090
-14.695710
-14.969000
-15.287920
-15.613860
-15.880130
-16.055849
-16.077610
-15.937460
-15.601460
-15.077570
-14.380310
-13.471050
-12.417430
-11.240970
-9.995479
-8.713490
-7.431268
-6.211285
-5.049797
-4.034782
-3.187766
-2.453530
-1.791829
-1.128957
-0.394487
0.458145
1.446251
2.512040
3.649662
4.831272
5.929585
6.942260
7.823905
8.558609
9.173280
9.670024
10.108740
10.506040
10.887900
11.261340
11.662380
12.079340
12.479920
12.870900
13.212050
13.524650
13.778280
13.990040
14.227530
14.475790
14.772240
15.108470
15.475360
15.853470
16.186899
16.471420
16.664450
16.769979
16.752670
16.589350
16.312080
15.900030
15.407740
14.848280
14.236420
13.607480
12.954670
12.305370
11.637580
10.964880
10.292180
9.583450
8.849683
8.070522
7.267261
6.470785
5.683201
4.943583
4.293113
3.706519
3.109163
2.486302
1.779910
0.957229
0.048676
-0.959320
-2.025577
-3.145416
-4.318836
-5.497171
-6.686268
-7.862731
-9.011818
-10.144530
-11.267870
-12.387250
-13.500300
-14.618030
-15.722900
-16.780729
-17.772350
-18.694700
-19.526039
-20.295839
-21.029610
-21.687571
-22.306919
-22.891411
-23.450159
-24.020370
-24.570000
-25.093880
-25.547340
-25.840990
-25.939260
-25.831631
-25.512711
-24.946939
-24.102970
-23.037649
-21.806900
-20.457991
-19.049191
-17.628910
-16.244209
-14.881960
-13.548260
-12.273060
-11.039740
-9.869596
-8.780877
-7.733105
-6.696564
-5.655811
-4.612718
-3.577113
-2.578243
-1.634592
-0.789449
-0.134766
0.350513
0.693531
0.867145
0.905050
0.889140
0.871357
0.888906
1.042398
1.358508
1.803074
2.375395
3.056751
3.800814
4.613200
5.541174
6.522027
7.539616
8.615466
9.661601
10.706100
11.735620
12.662660
13.517630
14.227300
14.783710
15.197390
15.389720
15.406330
15.265480
14.983290
14.590200
14.108900
13.582670
13.008010
12.387730
11.722280
11.006530
10.202570
9.327942
8.395055
7.374659
6.333438
5.271392
4.258016
3.335190
2.455885
1.682573
0.983903
0.396139
-0.047959
-0.359857
-0.495099
-0.490653
-0.319378
0.026681
0.545186
1.234497
2.099764
3.114311
4.209347
5.356328
6.433115
7.457254
8.371189
9.100745
9.665812
9.962502
10.050710
9.967416
9.697634
9.260555
8.638163
7.857364
6.942962
5.891913
4.749144
3.522141
2.263317
1.041462
-0.205195
-1.385401
-2.460550
-3.394841
-4.134692
-4.721520
-5.130521
-5.446865
-5.711967
-5.923954
-6.164254
-6.448543
-6.789454
-7.261397
-7.796748
-8.398785
-9.084820
-9.746287
-10.428110
-11.072970
-11.643180
-12.164730
-12.567650
-12.829710
-12.970800
-13.008700
-12.953950
-12.865740
-12.761620
-12.643690
-12.559920
-12.457440
-12.284760
-12.068560
-11.766020
-11.365210
-10.854190
-10.231100
-9.524707
-8.731741
-7.897360
-6.976406
-5.958584
-4.919235
-3.831919
-2.677217
-1.495139
-0.273284
0.976415
2.201780
3.404917
4.536688
5.565508
6.477337
7.253924
7.930367
8.499645
8.991476
9.424811
9.792865
10.103590
10.323540
10.440530
10.435610
10.299900
10.035270
9.636799
9.165091
8.651500
8.077541
7.500541
6.912310
6.296000
5.696538
5.079527
4.447541
3.798943
3.143090
2.476709
1.759554
1.013852
0.238201
-0.516859
-1.205937
-1.834647
-2.348940
-2.742966
-3.018597
-3.138864
-3.129505
-2.994263
-2.746242
-2.436215
-2.079861
-1.689812
-1.276600
-0.860111
-0.428180
0.018960
0.406434
0.727926
0.935702
0.926109
0.709909
0.289677
-0.292003
-0.976869
-1.739650
-2.501029
-3.234329
-3.930894
-4.579727
-5.144092
-5.590296
-5.937993
-6.183207
-6.314237
-6.315640
-6.223686
-6.031820
-5.725070
-5.347188
-4.852784
-4.283739
-3.709547
-3.107276
-2.504538
-1.924730
-1.359195
-0.867599
-0.499545
-0.220404
-0.056148
-0.027837
-0.052873
-0.100605
-0.191624
-0.267902
-0.307679
-0.296448
-0.161674
0.069500
0.405031
0.871357
1.418875
2.030973
2.666001
3.308983
3.975131
4.658125
5.364985
6.073249
6.738461
7.356408
7.871403
8.242498
8.526085
8.678408
8.718184
8.676769
8.538018
8.371423
8.155224
7.869063
7.536574
7.164309
6.715765
6.209661
5.661207
5.050280
4.435608
3.772268
3.120394
2.554157
2.032143
1.609805
1.292291
1.050821
0.883524
0.769575
0.701252
0.667091
0.638545
0.614211
0.554311
0.458846
0.354958
0.235393
0.110915
-0.040706
-0.178989
-0.338799
-0.519433
-0.694686
-0.918373
-1.109068
-1.260923
-1.374638
-1.426114
-1.408566
-1.335095
-1.246416
-1.121001
-0.971253
-0.797872
-0.634552
-0.492057
-0.392615
-0.339267
-0.294108
-0.310019
-0.383958
-0.513584
-0.698664
-0.912289
-1.147207
-1.352176
-1.516197
-1.625701
-1.639506
-1.587328
-1.446471
-1.245480
-1.029982
-0.759031
-0.506564
-0.298554
-0.142956
-0.066678
-0.032282
-0.045619
-0.081418
-0.120494
-0.155357
-0.153017
-0.082822
0.050313
0.270023
0.594322
0.967290
1.381672
1.821091
2.247640
2.615928
2.907236
3.119926
3.253062
3.348761
3.420827
3.460838
3.471601
3.468326
3.429251
3.355312
3.269441
3.150344
3.014166
2.893899
2.790011
2.726134
2.701800
2.687293
2.692909
2.713499
2.758424
2.832596
2.913554
3.016740
3.139815
3.262421
3.388070
3.507869
3.624626
3.728982
3.816023
3.888792
3.929037
3.947287
3.932546
3.886218
3.802452
3.669316
3.484236
3.235513
2.958478
2.657811
2.345679
2.037992
1.720479
1.361784
0.936872
0.438490
-0.164716
-0.855198
-1.617980
-2.427090
-3.226607
-3.987986
-4.653197
-5.210309
-5.664000
-5.978472
-6.170338
-6.271184
-6.320788
-6.365947
-6.424208
-6.502593
-6.604843
-6.725577
-6.871114
-7.066957
-7.296260
-7.549195
-7.811489
-8.041260
-8.245994
-8.416567
-8.549001
-8.634872
-8.676989
-8.698515
-8.677691
-8.650549
-8.638850
-8.629725
-8.674883
-8.777601
-8.931796
-9.158056
-9.429242
-9.751202
-10.112240
-10.471630
-10.840150
-11.178960
-11.452950
-11.673130
-11.803460
-11.851190
-11.813290
-11.664470
-11.459970
-11.201890
-10.920880
-10.624420
-10.283740
-9.938387
-9.558167
-9.157121
-8.764732
-8.349882
-7.920759
-7.474086
-6.971727
-6.421401
-5.826618
-5.158833
-4.441209
-3.691764
-2.883590
-2.042189
-1.218572
-0.377640
0.454401
1.238475
1.995174
2.678636
3.285820
3.835210
4.309024
4.724342
5.083973
5.394701
5.688115
5.955323
6.219722
6.507052
6.820355
7.192387
7.583137
7.989798
8.421261
8.834005
9.251196
9.643818
9.978413
10.271830
10.509080
10.694400
10.855850
11.001380
11.142240
11.300410
11.439400
11.549840
11.627050
11.661450
11.647410
11.585170
11.521060
11.412260
11.303220
11.212200
11.074390
10.934000
10.737450
10.476090
10.172380
9.784442
9.357190
8.856702
8.253730
7.621978
6.894995
6.087288
5.239103
4.259419
3.210711
2.090872
0.892181
-0.322654
-1.546381
-2.744604
-3.934404
-5.120225
-6.291774
-7.432438
-8.533324
-9.578756
-10.540190
-11.412240
-12.193510
-12.892650
-13.487200
-13.990730
-14.409090
-14.735720
-14.989130
-15.135370
-15.156660
