EVENT_NAME: L_AQUILA
EVENT_ID: IT-2009-0009
EVENT_DATE_YYYYMMDD: 20090406
EVENT_TIME_HHMMSS: 013240
EVENT_LATITUDE_DEGREE: 42.3420
EVENT_LONGITUDE_DEGREE: 13.3800
EVENT_DEPTH_KM: 8.3
HYPOCENTER_REFERENCE: INGV-CNT_Seismic_Bulletin
MAGNITUDE_W: 6.1
MAGNITUDE_W_REFERENCE: INGV-CNT_Seismic_Bulletin
MAGNITUDE_L: 
MAGNITUDE_L_REFERENCE: 
FOCAL_MECHANISM: Normal faulting
NETWORK: IT
STATION_CODE: ANT
STATION_NAME: 
STATION_LATITUDE_DEGREE: 42.418110
STATION_LONGITUDE_DEGREE: 13.078598
STATION_ELEVATION_M: 568
LOCATION: 
SENSOR_DEPTH_M: 0.0
VS30_M/S: 912
SITE_CLASSIFICATION_EC8: A
MORPHOLOGIC_CLASSIFICATION: 
EPICENTRAL_DISTANCE_KM: 26.2
EARTHQUAKE_BACKAZIMUTH_DEGREE: 288.9
DATE_TIME_FIRST_SAMPLE_YYYYMMDD_HHMMSS: 
DATE_TIME_FIRST_SAMPLE_PRECISION: 
SAMPLING_INTERVAL_S: 
NDATA: 105
DURATION_S: 
STREAM: HNZ
UNITS: cm/s^2
INSTRUMENT: sensor = FBA-3 [Kinemetrics] | digitizer = Etna [Kinemetrics]
INSTRUMENT_ANALOG/DIGITAL: D
INSTRUMENTAL_FREQUENCY_HZ: 206.000
INSTRUMENTAL_DAMPING: 0.700000
FULL_SCALE_G: 1.0
N_BIT_DIGITAL_CONVERTER: 18
PGA_CM/S^2: 11.473948
TIME_PGA_S: 
BASELINE_CORRECTION: BASELINE REMOVED
FILTER_TYPE: BUTTERWORTH
FILTER_ORDER: 2
LOW_CUT_FREQUENCY_HZ: 0.100
HIGH_CUT_FREQUENCY_HZ: 40.000
LATE/NORMAL_TRIGGERED: NT
DATABASE_VERSION: 0.5
HEADER_FORMAT: DYNA 1.2
DATA_TYPE: ACCELERATION RESPONSE SPECTRUM
PROCESSING: manual (Paolucci et al., 2011)
DATA_TIMESTAMP_YYYYMMDD_HHMMSS: 20211011_154922.727
DATA_LICENSE: CC-BY3_0-IT (http://creativecommons.org/licenses/by/3.0/deed.en)
DATA_CITATION: Luzi L, Pacor F, Puglia R (2019). Italian Accelerometric Archive v 3.0 - Istituto Nazionale di Geofisica e Vulcanologia, Dipartimento della Protezione Civile Nazionale. doi: 10.13127/itaca.3.1
DATA_CREATOR: ITACA working group
ORIGINAL_DATA_MEDIATOR_CITATION: data obtained within the DPC-INGV data exchange agreements
ORIGINAL_DATA_MEDIATOR: Archive of Italian Department of Civil Protection
ORIGINAL_DATA_CREATOR_CITATION: Presidency Of Counsil Of Ministers-Civil Protection Department. (1972). Italian Strong Motion Network. Presidency of Counsil of Ministers - Civil Protection Department. https://doi.org/10.7914/SN/IT http://www.fdsn.org/networks/detail/IT/
ORIGINAL_DATA_CREATOR: network: IT (Italian Strong Motion Network (RAN)); owner: Presidency of Counsil of Ministers - Civil Protection Department (PCM - DPC)
USER1: 
USER2: 
USER3: 
USER4: 
USER5: 
    0.010000    11.492211
    0.020000    11.600248
    0.022000    11.636265
    0.025000    11.675370
    0.029000    11.771793
    0.030000    11.781006
    0.032000    11.851219
    0.035001    11.990811
    0.036000    11.977781
    0.040000    11.828568
    0.041999    12.070156
    0.044001    12.011353
    0.045000    12.597094
    0.046000    13.290771
    0.048001    13.556134
    0.050000    13.595411
    0.054999    13.787909
    0.059999    14.347344
    0.064998    13.792365
    0.067002    13.576553
    0.069999    14.127557
    0.075002    15.165284
    0.080000    16.628031
    0.084998    17.186712
    0.090001    19.731968
    0.095003    26.748053
    0.100000    35.858063
    0.109999    25.999567
    0.120005    28.777151
    0.130005    27.342810
    0.132996    25.894537
    0.139997    22.718571
    0.149993    25.810873
    0.160000    32.898197
    0.170010    32.819942
    0.179986    26.356716
    0.190006    27.286089
    0.200000    26.509241
    0.220022    34.599644
    0.239981    38.595356
    0.250000    32.878441
    0.260010    32.133194
    0.280034    37.746952
    0.290023    37.132828
    0.300030    35.032898
    0.320000    32.555050
    0.340020    24.580769
    0.350017    24.624895
    0.359971    26.549328
    0.379939    28.636484
    0.400000    33.707836
    0.419992    33.768665
    0.439947    23.946995
    0.450045    20.223423
    0.459982    17.253588
    0.480077    15.682575
    0.500000    13.853139
    0.550055    16.395931
    0.599880    12.407407
    0.650195    15.400885
    0.667111    15.856182
    0.699790    14.868744
    0.750188    13.746613
    0.800000    12.626968
    0.850340    13.607589
    0.900090    12.540687
    0.949668    12.901559
    1.000000    14.245101
    1.100110    19.168024
    1.200480    18.898624
    1.300390    17.878450
    1.400560    14.892278
    1.499250    13.824762
    1.600000    13.260162
    1.700680    12.780133
    1.798561    10.894861
    1.901141     8.373558
    2.000000     7.311568
    2.197802     6.321990
    2.398082     5.686707
    2.500000     5.352667
    2.597403     4.669988
    2.801121     4.191561
    3.003003     3.331616
    3.205128     2.616642
    3.401361     2.129178
    3.496503     1.991818
    3.597122     1.970573
    3.802281     1.506108
    4.000000     1.234654
    4.201681     1.177820
    4.405286     1.103098
    4.608295     1.013265
    4.807692     0.913203
    5.000000     0.808972
    5.494505     0.668363
    5.988024     0.572135
    6.493506     0.431292
    6.993007     0.317768
    7.518797     0.285881
    8.000000     0.250621
    8.474576     0.215641
    9.009009     0.185103
    9.523809     0.160074
   10.000000     0.140545
