EVENT_NAME: L_AQUILA
EVENT_ID: IT-2009-0009
EVENT_DATE_YYYYMMDD: 20090406
EVENT_TIME_HHMMSS: 013240
EVENT_LATITUDE_DEGREE: 42.3420
EVENT_LONGITUDE_DEGREE: 13.3800
EVENT_DEPTH_KM: 8.3
HYPOCENTER_REFERENCE: INGV-CNT_Seismic_Bulletin
MAGNITUDE_W: 6.1
MAGNITUDE_W_REFERENCE: INGV-CNT_Seismic_Bulletin
MAGNITUDE_L: 
MAGNITUDE_L_REFERENCE: 
FOCAL_MECHANISM: Normal faulting
NETWORK: IT
STATION_CODE: ANT
STATION_NAME: 
STATION_LATITUDE_DEGREE: 42.418110
STATION_LONGITUDE_DEGREE: 13.078598
STATION_ELEVATION_M: 568
LOCATION: 
SENSOR_DEPTH_M: 0.0
VS30_M/S: 912
SITE_CLASSIFICATION_EC8: A
MORPHOLOGIC_CLASSIFICATION: 
EPICENTRAL_DISTANCE_KM: 26.2
EARTHQUAKE_BACKAZIMUTH_DEGREE: 288.9
DATE_TIME_FIRST_SAMPLE_YYYYMMDD_HHMMSS: 20090406_013216.000
DATE_TIME_FIRST_SAMPLE_PRECISION: seconds
SAMPLING_INTERVAL_S: 0.005000
NDATA: 24400
DURATION_S: 122.000
STREAM: HNZ
UNITS: cm/s^2
INSTRUMENT: sensor = FBA-3 [Kinemetrics] | digitizer = Etna [Kinemetrics]
INSTRUMENT_ANALOG/DIGITAL: D
INSTRUMENTAL_FREQUENCY_HZ: 206.000
INSTRUMENTAL_DAMPING: 0.700000
FULL_SCALE_G: 1.0
N_BIT_DIGITAL_CONVERTER: 18
PGA_CM/S^2: 11.498160
TIME_PGA_S: 40.710000
BASELINE_CORRECTION: BASELINE NOT REMOVED
FILTER_TYPE: 
FILTER_ORDER: 
LOW_CUT_FREQUENCY_HZ: 
HIGH_CUT_FREQUENCY_HZ: 
LATE/NORMAL_TRIGGERED: NT
DATABASE_VERSION: 0.5
HEADER_FORMAT: DYNA 1.2
DATA_TYPE: ACCELERATION
PROCESSING: converted to cm/s^2
DATA_TIMESTAMP_YYYYMMDD_HHMMSS: 20211011_154921.589
DATA_LICENSE: CC-BY3_0-IT (http://creativecommons.org/licenses/by/3.0/deed.en)
DATA_CITATION: Luzi L, Pacor F, Puglia R (2019). Italian Accelerometric Archive v 3.0 - Istituto Nazionale di Geofisica e Vulcanologia, Dipartimento della Protezione Civile Nazionale. doi: 10.13127/itaca.3.1
DATA_CREATOR: ITACA working group
ORIGINAL_DATA_MEDIATOR_CITATION: data obtained within the DPC-INGV data exchange agreements
ORIGINAL_DATA_MEDIATOR: Archive of Italian Department of Civil Protection
ORIGINAL_DATA_CREATOR_CITATION: Presidency Of Counsil Of Ministers-Civil Protection Department. (1972). Italian Strong Motion Network. Presidency of Counsil of Ministers - Civil Protection Department. https://doi.org/10.7914/SN/IT http://www.fdsn.org/networks/detail/IT/
ORIGINAL_DATA_CREATOR: network: IT (Italian Strong Motion Network (RAN)); owner: Presidency of Counsil of Ministers - Civil Protection Department (PCM - DPC)
USER1: 
USER2: 
USER3: 
USER4: 
USER5: 
[...]
5.538779
4.840719
3.866339
2.709307
1.408261
0.134378
-0.894564
-1.629856
-2.080398
-2.313866
-2.422520
-2.425565
-2.327213
-2.077120
-1.747877
-1.388427
-1.036236
-0.856862
-0.855925
-1.029914
-1.212566
-1.256590
-1.248160
-1.109531
-0.858267
-0.605364
-0.325297
-0.056236
0.238817
0.615596
1.076442
1.559534
2.003286
2.353603
2.483099
2.499257
2.415893
2.204906
1.905403
1.478980
0.987692
0.574617
0.394540
0.384705
0.457532
0.458000
0.256380
-0.138898
-0.647749
-1.195472
-1.823514
-2.366320
-2.803514
-3.079132
-3.100208
-3.018482
-2.761598
-2.320891
-1.708537
-0.889880
0.055697
1.068714
1.953408
2.692681
3.286769
3.721154
4.198860
4.659472
5.109312
5.475085
5.588189
5.469464
5.043978
4.400714
3.582760
2.663878
1.829532
1.201957
0.920251
1.007362
1.381331
1.796280
2.061126
2.128801
1.966990
1.681302
1.414349
1.182053
0.999401
0.859367
0.639482
0.254975
-0.376112
-1.248160
-2.145498
-2.860183
-3.292461
-3.468322
-3.521713
-3.484714
-3.373015
-3.176078
-2.811242
-2.319252
-1.772934
-1.309044
-0.981440
-0.769283
-0.655945
-0.555018
-0.499754
-0.451046
-0.378220
-0.332323
-0.331151
-0.492963
-0.901354
-1.552112
-2.389971
-3.229703
-3.847911
-4.194013
-4.229373
-3.935724
-3.468790
-2.912403
-2.313397
-1.669665
-0.879343
0.072323
1.146927
2.257828
3.335477
4.341470
5.170898
5.737589
5.987448
5.908533
5.544165
5.006745
4.429517
3.928394
3.603367
3.405259
3.183501
2.766913
2.083840
1.194932
0.218679
-0.695051
-1.525651
-2.255792
-2.849880
-3.325244
-3.581660
-3.623576
-3.563161
-3.422659
-3.240709
-2.959706
-2.569579
-2.158845
-1.849273
-1.770826
-1.860982
-2.036843
-2.175472
-2.183668
-2.112480
-1.999610
-1.914372
-1.975959
-2.219964
-2.660203
-3.259911
-3.748623
-3.827538
-3.389407
-2.533048
-1.535486
-0.693178
-0.029541
0.599439
1.323023
2.228791
3.216050
4.116901
4.785221
5.069737
5.019859
4.756184
4.387367
4.155070
4.265833
4.840485
5.710894
6.580599
7.174688
7.261799
6.912184
6.314349
5.690989
5.162000
4.740026
4.279649
3.683921
3.007873
2.191558
1.297498
0.369718
-0.493197
-1.180016
-1.742492
-2.206850
-2.619457
-2.934884
-3.107467
-3.146807
-3.070000
-3.027615
-3.095524
-3.172566
-3.281220
-3.334377
-3.239538
-3.078195
-2.824121
-2.572623
-2.319018
-2.016939
-1.740384
-1.589579
-1.609249
-1.720246
-1.921163
-2.065880
-2.170320
-2.294430
-2.209660
-1.838501
-1.113747
-0.186201
0.501556
0.698024
0.302746
-0.604193
-1.761928
-2.877746
-3.738788
-4.212981
-4.273632
-4.077397
-3.761268
-3.350301
-2.732795
-1.884398
-0.805111
0.560567
2.069321
3.551381
4.714502
5.340671
5.328963
4.782176
4.058826
3.301991
2.662005
2.173995
1.721345
1.201723
0.632925
-0.010807
-0.757340
-1.421914
-1.899385
-1.876437
-1.214674
0.053355
1.877303
3.786487
5.383290
6.545240
7.314487
7.659887
7.579567
7.166258
6.475457
5.645092
4.644251
3.443897
1.999539
0.309537
-1.415357
-3.053139
-4.299156
-4.903782
-4.782482
-3.890998
-2.486917
-0.852413
0.695448
1.903061
2.622664
2.797355
2.550072
1.906340
0.960762
-0.084571
-1.024762
-1.763567
-2.261880
-2.480829
-2.526258
-2.440083
-2.303797
-2.211768
-2.184370
-2.200059
-2.055576
-1.559839
-0.681469
0.469006
1.609412
2.402545
2.686124
2.463663
1.881283
1.168237
0.461747
-0.203295
-0.784035
-1.180953
-1.314664
-1.122645
-0.658755
0.001838
0.836886
1.681068
2.333933
2.717269
2.827328
2.680270
2.336977
1.904232
1.490688
1.161914
0.911821
0.629881
0.213761
-0.278463
-0.712380
-0.954043
-0.919151
-0.650325
-0.219218
0.377212
1.207811
2.329250
3.650903
5.032035
6.192346
6.770511
6.642654
5.824934
4.531147
3.130578
1.876600
0.845083
-0.055534
-0.945612
-1.935916
-3.042133
-4.129617
-5.016183
-5.490143
-5.439796
-4.845708
-3.811849
-2.520404
-1.143017
0.146086
1.306397
2.173293
2.669732
2.783539
2.473967
1.868170
0.988394
-0.078482
-1.354239
-2.725302
-4.021899
-5.177057
-5.898066
-6.148394
-5.921249
-5.255270
-4.253259
-3.012160
-1.632432
-0.106349
1.472892
3.063372
4.467453
5.448623
5.927266
5.758664
4.958038
3.862124
2.784944
1.985489
1.470784
0.967085
0.358712
-0.548461
-1.695190
-2.791103
-3.689144
-4.164977
-4.233588
-3.960312
-3.446778
-2.944485
-2.548738
-2.453899
-2.656690
-3.073980
-3.628728
-4.046487
-4.311567
-4.350204
-4.180432
-3.937129
-3.627557
-3.426874
-3.399242
-3.519371
-3.828709
-4.172938
-4.278549
-4.096833
-3.581894
-2.868380
-2.273823
-1.913201
-1.985794
-2.444298
-3.160624
-3.988413
-4.632145
-5.076365
-5.277751
-5.327394
-5.382424
-5.390152
-5.296719
-5.048265
-4.574539
-3.909497
-3.174439
-2.365383
-1.487949
-0.588270
0.350282
1.286727
2.018273
2.521269
2.711648
2.569976
2.334167
2.078688
2.037709
2.234411
2.595735
3.043701
3.437340
3.743166
3.839410
3.716705
3.250005
2.464131
1.434488
0.256146
-0.870444
-1.955352
-2.948231
-3.822621
-4.502649
-4.924857
-5.173311
-5.388982
-5.747495
-6.270396
-6.826549
-7.260231
-7.426023
-7.201220
-6.630314
-5.739768
-4.532857
-3.140250
-1.661937
-0.267926
0.847893
1.615267
2.064872
2.253379
2.311921
2.368122
2.449847
2.618917
2.864327
3.100370
3.268270
3.323534
3.273890
3.187481
3.105756
3.099434
3.265694
3.565197
3.970076
4.388537
4.675161
4.837440
4.881699
4.830650
4.784986
4.783816
4.834396
4.960848
5.110483
5.211878
5.274168
5.351443
5.510678
5.810884
6.202884
6.603080
6.964638
7.210984
7.318468
7.261096
6.933961
6.278755
5.310932
4.107066
2.776045
1.330282
-0.180112
-1.709240
-3.217526
-4.540819
-5.591772
-6.272503
-6.531729
-6.408790
-5.984475
-5.410993
-4.780609
-4.197058
-3.731763
-3.304637
-2.718511
-1.854191
-0.697861
0.651659
1.995090
3.226588
4.233283
4.968107
5.437851
5.637833
5.657503
5.535032
5.230377
4.752437
4.156710
3.504313
2.832714
2.113580
1.309207
0.330612
-0.760150
-1.909689
-3.118473
-4.189096
-5.039132
-5.497402
-5.471409
-5.078707
-4.390014
-3.608590
-2.970009
-2.560212
-2.384819
-2.454836
-2.711954
-3.024102
-3.381211
-3.830348
-4.279719
-4.831423
-5.430664
-5.961526
-6.482319
-6.815074
-6.931222
-6.811093
-6.513932
-6.134109
-5.727591
-5.407481
-5.145679
-4.994640
-4.885985
-4.793488
-4.677105
-4.469631
-4.102453
-3.416570
-2.493942
-1.406459
-0.341689
0.503429
1.112270
1.362832
1.344332
1.201723
0.949757
0.806679
0.813002
1.024223
1.540801
2.205608
3.039955
3.926989
4.694364
5.346994
5.818377
6.120222
6.347132
6.420896
6.267281
5.920241
5.306716
4.468155
3.489560
2.466942
1.446898
0.388686
-0.735094
-1.979940
-3.265531
-4.408279
-5.308661
-5.946774
-6.294281
-6.499179
-6.642257
-6.830530
-7.135653
-7.471920
-7.836054
-8.003251
-7.890381
-7.360456
-6.405512
-5.154578
-3.592666
-2.037312
-0.613560
0.466899
1.009470
1.092600
0.657279
-0.160442
-1.178143
-2.191863
-2.941440
-3.327352
-3.428045
-3.305574
-2.925517
-2.370301
-1.743897
-1.082602
-0.414282
0.252399
0.918144
1.554148
2.168375
2.842783
3.622569
4.489465
5.369240
6.188365
6.862072
7.341182
7.690798
7.938783
8.086310
8.176231
8.197072
8.127056
7.942998
7.562239
7.042616
6.548050
6.161670
5.949981
5.906659
5.950449
5.971992
5.848351
5.502717
4.944690
4.244289
3.427271
2.535787
1.617374
0.712777
-0.079419
-0.695285
-1.074172
-1.180251
-1.123816
-1.012585
-0.928752
-0.997364
-1.196877
-1.477178
-1.774573
-1.934745
-1.898449
-1.657020
-1.298506
-0.981206
-0.801598
-0.734391
-0.643065
-0.381966
0.148194
0.936877
1.877303
2.787988
3.500800
3.890459
3.932141
3.754172
3.507591
3.361938
3.394956
3.601493
3.971013
4.366292
4.692021
4.869990
4.851959
4.744475
4.619195
4.522248
4.440055
4.348026
4.204480
3.948299
3.588614
3.120275
2.623133
2.172356
1.802602
1.552041
1.341288
1.130536
0.981603
0.942263
1.054665
1.236380
1.425121
1.608241
1.681068
1.732117
1.761389
1.761154
1.897207
2.127161
2.500193
2.921465
3.147673
3.156103
2.839271
2.290846
1.719004
1.146927
0.725890
0.463152
0.255912
0.222894
0.343960
0.640418
1.135453
1.643835
2.107257
2.447037
2.575830
2.481226
2.234879
1.862550
1.438469
1.055835
0.607166
0.126650
-0.460647
-1.215610
-1.995161
-2.732093
-3.307916
-3.590324
-3.598988
-3.426640
-3.089435
-2.677531
-2.201230
-1.670836
-1.240198
-0.853350
-0.562043
-0.412408
-0.372600
-0.617073
-1.079792
-1.758883
-2.672379
-3.595710
-4.423032
-5.035619
-5.419424
-5.617297
-5.609569
-5.466257
-5.146147
-4.617627
-3.993799
-3.319624
-2.663481
-2.038950
-1.472963
-1.065273
-0.810028
-0.744461
-0.872084
-1.163156
-1.484905
-1.813913
-2.161889
-2.432121
-2.682683
-2.768623
-2.658329
-2.518296
-2.391610
-2.434697
-2.723194
-3.142826
-3.667132
-4.174344
-4.501010
-4.643620
-4.600064
-4.444809
-4.134300
-3.693827
-3.248905
-2.787591
-2.409173
-2.086487
-1.765909
-1.497785
-1.243008
-1.017502
-0.867634
-0.772093
-0.673273
-0.526917
-0.325531
-0.118994
0.006755
-0.024389
-0.237484
-0.623629
-1.123816
-1.672709
-2.241039
-2.738883
-3.130181
-3.397368
-3.499467
-3.436943
-3.213311
-2.855500
-2.384585
-1.819065
-1.209756
-0.604896
-0.026263
0.441140
0.758908
0.927510
0.931023
0.776705
0.417021
-0.132576
-0.847730
-1.680905
-2.567237
-3.498061
-4.455347
-5.477966
-6.593316
-7.714988
-8.707868
-9.409674
-9.672647
-9.539872
-9.109937
-8.492900
-7.900217
-7.481521
-7.278262
-7.275920
-7.389961
-7.503767
-7.504002
-7.263275
-6.778778
-6.051447
-5.147787
-4.191438
-3.177483
-2.156269
-1.116322
-0.007997
1.198210
2.564356
4.089503
5.679046
7.184523
8.434521
9.309144
9.814716
9.980040
9.917750
9.760388
9.613799
9.533947
9.470955
9.376819
9.171453
8.826755
8.351858
7.810692
7.316829
6.951524
6.793928
6.794631
6.806339
6.679185
6.264705
5.526134
4.575405
3.543653
2.594096
1.851076
1.331453
0.972237
0.731042
0.603420
0.501790
0.459405
0.449570
0.425919
0.386813
0.348643
0.338808
0.281905
0.314923
0.456127
0.692873
1.104074
1.665613
2.356179
3.106927
3.816695
4.311262
4.580088
4.580088
4.289952
3.811309
3.147204
2.423854
1.702846
1.001040
0.476500
0.140232
-0.039610
-0.041952
0.047267
0.294316
0.766401
1.378521
1.977996
2.372337
2.519396
2.382406
2.014526
1.664911
1.402172
1.188375
1.102201
1.013685
0.872949
0.775300
0.717226
0.826115
1.141073
1.656949
2.353603
3.098029
3.860953
4.543324
5.041402
5.438320
5.715811
5.903615
6.004308
5.902444
5.596853
5.048428
4.429283
3.856270
3.329857
3.014196
2.790798
2.652169
2.671840
2.717971
2.850043
3.083042
3.467548
4.054378
4.703730
5.320767
5.715343
5.731734
5.316786
4.485484
3.363109
2.034196
0.618641
-0.778415
-2.098664
-3.281689
-4.348097
-5.290630
-6.088212
-6.749507
-7.221827
-7.520393
-7.652465
-7.622491
-7.459978
-7.079920
-6.463820
-5.613784
-4.544097
-3.333909
-2.068222
-0.906272
0.031812
0.659386
0.944371
0.983243
0.931257
0.904093
0.950459
1.075506
1.224203
1.344566
1.315998
1.098688
0.624729
-0.122975
-0.975586
-1.878544
-2.696967
-3.395261
-4.020260
-4.543863
-5.039132
-5.618233
-6.338773
-7.162582
-7.990372
-8.698969
-9.205244
-9.463532
-9.464938
-9.271046
-9.011585
-8.750252
-8.553082
-8.395017
-8.163657
-7.850807
-7.332355
-6.576690
-5.644694
-4.563767
-3.523820
-2.618286
-1.872456
-1.306468
-0.834382
-0.409832
0.105341
0.782794
1.566793
2.346344
3.002722
3.535692
3.843859
3.949001
3.933078
3.806860
3.656523
3.550444
3.460992
3.348121
3.242277
3.133388
2.980476
2.726636
2.361799
1.841475
1.229355
0.649785
0.122669
-0.273546
-0.515677
-0.637211
-0.752657
-1.003218
-1.431046
-2.057918
-2.859949
-3.796394
-4.776862
-5.707218
-6.555849
-7.222529
-7.765803
-8.220326
-8.574157
-8.932904
-9.313430
-9.749454
-10.163470
-10.508870
-10.674660
-10.466010
-9.831648
-8.787251
-7.438434
-5.859194
-4.262391
-2.740054
-1.293354
-0.005656
1.138731
2.103979
2.914674
3.545293
3.962115
4.145001
4.069599
3.845966
3.540843
3.180691
2.793374
2.392476
2.021082
1.788552
1.775439
2.017804
2.517756
3.160084
3.792810
4.312666
4.632776
4.689680
4.520141
4.200734
3.847372
3.547634
3.335945
3.246961
3.215582
3.177646
3.061732
2.815386
2.456638
2.011247
1.568432
1.231463
1.088151
1.144585
1.411539
1.895333
2.457575
2.952609
3.220968
3.161020
2.754502
1.999305
0.960528
-0.234205
-1.435729
-2.564661
-3.565502
-4.442936
-5.251758
-5.997120
-6.665674
-7.243371
-7.734424
-8.102539
-8.337879
-8.415624
-8.245149
-7.813340
-7.134950
-6.243232
-5.178229
-4.015810
-2.884771
-1.898917
-1.135992
-0.568833
-0.169574
0.113537
0.391496
0.711137
1.068246
1.436361
1.748977
1.942402
2.019912
2.008438
1.991109
2.045670
2.228791
2.543281
2.916547
3.258435
3.425632
3.409943
3.233145
2.988437
2.830841
2.810234
2.999677
3.380672
3.899357
4.481269
5.024542
5.426611
5.626124
5.592638
5.323577
4.910033
4.402119
3.918793
3.478086
3.123085
2.929426
2.851214
2.958698
3.237360
3.717876
4.430220
5.268781
6.179701
7.110525
8.000135
8.824647
9.553148
10.220530
10.817430
11.259540
11.498160
11.416900
10.998910
10.250510
9.278468
8.244843
7.232996
6.355328
5.580695
4.872800
4.187386
3.485111
2.774641
2.052930
1.380628
0.767807
0.233666
-0.190884
-0.558062
-0.839768
-1.018674
-1.086114
-0.998301
-0.791295
-0.472590
-0.113374
0.188939
0.309537
0.165522
-0.202358
-0.725259
-1.240666
-1.651634
-1.851615
-1.777149
-1.555624
-1.291013
-1.051457
-0.912829
-0.944207
-1.121006
-1.373441
-1.649058
-1.827027
-1.876671
-1.782066
-1.592623
-1.380465
-1.095949
-0.769985
-0.283381
0.392433
1.199849
2.153857
3.176476
4.232581
5.241852
6.138487
6.827648
7.277254
7.491285
7.512126
7.416351
7.155720
6.704475
6.034750
5.161531
4.094889
2.917250
1.690669
0.481886
-0.546119
-1.385851
-1.981579
-2.299347
-2.365851
-2.203104
-1.939897
-1.665684
-1.435964
-1.315835
-1.338315
-1.496848
-1.784877
-2.160250
-2.550377
-2.883601
-3.133459
-3.341870
-3.560117
-3.806931
-4.103624
-4.400786
-4.583204
-4.667505
-4.575476
-4.280656
-3.874138
-3.330396
-2.763705
-2.277101
-1.851381
-1.531739
-1.316772
-1.145828
-0.992915
-0.824078
-0.677020
-0.632294
-0.719405
-0.951935
-1.288203
-1.648824
-1.955586
-2.185541
-2.357187
-2.493708
-2.581522
-2.614540
-2.635146
-2.626717
-2.621565
-2.625779
-2.589249
-2.518296
-2.377326
-2.134960
-1.766143
-1.306000
-0.837426
-0.428098
-0.196270
-0.143816
-0.240996
-0.382903
-0.411471
-0.258325
0.184490
0.809021
1.501460
2.153389
2.615405
2.901794
2.977665
2.953078
2.940901
3.006234
3.220968
3.523983
3.828404
4.025575
4.085053
3.990683
3.763070
3.472232
3.158210
2.842783
2.487782
2.062999
1.531200
0.875759
0.148194
-0.561809
-1.197813
-1.755605
-2.260241
-2.751529
-3.257335
-3.798501
-4.334516
-4.831892
-5.256441
-5.515199
-5.584513
-5.470941
-5.184551
-4.771008
-4.266372
-3.736212
-3.203008
-2.672379
-2.127233
-1.474836
-0.779820
-0.118057
0.461279
0.813236
0.868734
0.588198
0.023616
-0.683342
-1.411142
-2.098898
-2.685961
-3.137206
-3.550750
-3.938769
-4.331003
-4.720193
-4.988083
-5.111959
-5.050372
-4.831189
-4.538712
-4.201975
-3.898960
-3.691486
-3.589622
-3.624981
-3.758458
-3.915118
-4.051639
-4.099877
-4.021665
-3.873904
-3.699447
-3.544193
-3.474410
-3.446076
-3.434602
-3.399242
-3.383084
-3.416805
-3.504384
-3.753072
-4.055151
-4.386970
-4.702630
-4.910338
-5.042410
-5.052480
-5.004006
-4.886687
-4.709421
-4.517402
-4.283935
-4.068733
-3.816298
-3.429684
-2.880322
-2.233780
-1.524948
-0.765770
-0.072628
0.511625
0.977623
1.278296
1.424418
1.474531
1.449709
1.437766
1.476638
1.563281
1.711042
1.909618
2.144022
2.343066
2.513307
2.589646
2.596203
2.549603
2.446569
2.359926
2.227854
2.110535
1.961603
1.784805
1.561408
1.178072
0.715352
0.147023
-0.434889
-0.945847
-1.366181
-1.591920
-1.718372
-1.807357
-1.870349
-1.982516
-2.031692
-1.976427
-1.792838
-1.391940
-0.858970
-0.187840
0.556117
1.234038
1.804475
2.211462
2.420576
2.418234
2.258999
1.974951
1.651329
1.376179
1.158870
0.999635
0.860538
0.757503
0.675778
0.638779
0.665240
0.689126
0.718397
0.749073
0.835013
1.043424
1.378287
1.840772
2.340958
2.797121
3.117231
3.228227
3.102478
2.726870
2.169312
1.488815
0.798483
0.178168
-0.307501
-0.618243
-0.770219
-0.713316
-0.439572
0.055462
0.736896
1.582717
2.537427
3.497522
4.398607
5.174645
5.820016
6.266344
6.499577
6.524165
6.283906
5.741570
4.826669
3.634043
2.258765
0.804337
-0.533240
-1.724929
-2.768389
-3.688442
-4.519275
-5.279624
-5.961292
-6.457966
-6.744589
-6.810859
-6.659820
-6.342754
-5.912585
-5.394835
-4.793020
-4.174109
-3.525459
-2.776350
-1.936150
-1.044901
-0.110329
0.860538
1.821102
2.697130
3.452796
4.074047
4.525995
4.802783
4.889426
4.825732
4.671649
4.444973
4.212910
3.989512
3.752767
3.547400
3.369197
3.243214
3.149546
2.996867
2.849107
2.620557
2.284523
1.937484
1.538693
1.141541
0.753054
0.380958
0.030875
-0.294621
-0.543543
-0.700203
-0.734860
-0.653369
-0.471419
-0.219687
0.094335
0.425451
0.747200
1.042253
1.258860
1.477340
1.696523
1.918048
2.173527
2.337914
2.404418
2.367185
2.245651
2.183362
2.219424
2.443759
2.872757
3.472466
4.222277
5.012599
5.810181
6.515500
7.118019
7.575352
7.837388
7.913727
7.743486
7.420331
6.932322
6.358841
5.767562
5.184714
4.729723
4.336083
4.045948
3.818334
3.564495
3.297307
2.942306
2.513775
2.012419
1.467974
0.902688
0.256146
-0.371663
-0.970669
-1.463830
-1.781832
-1.953244
-1.919290
-1.748112
-1.430109
-1.067615
-0.709101
-0.397655
-0.215706
-0.190181
-0.440977
-0.846090
-1.424021
-2.101239
-2.748719
-3.364819
-3.858449
-4.225861
-4.354654
-4.330066
-4.197058
-3.912776
-3.598286
-3.185211
-2.667462
-2.060494
-1.327075
-0.570005
0.161307
0.810894
1.240829
1.395849
1.261436
0.873886
0.342086
-0.261369
-0.829699
-1.312791
-1.689335
-1.903132
-2.007572
-1.967060
-1.816255
-1.641330
-1.401775
-1.190554
-1.038812
-0.917512
-0.891753
-0.927582
-1.013990
-1.163624
-1.295696
-1.445331
-1.608781
-1.748112
-1.899619
-2.039419
-2.120207
-2.040355
-1.809230
-1.464532
-1.025230
-0.603256
-0.233269
0.088949
0.386110
0.658449
0.938516
1.238488
1.518789
1.802368
2.021551
2.132313
2.112643
1.972610
1.787381
1.583888
1.401469
1.227950
0.993312
0.697087
0.402970
0.099721
-0.193694
-0.466501
-0.739075
-1.029680
-1.391003
-1.754200
-2.133087
-2.526492
-2.843323
-3.099036
-3.278410
-3.371142
-3.373483
-3.317283
-3.243753
-3.129478
-3.018716
-2.866506
-2.655285
-2.433995
-2.151118
-1.807357
-1.367352
-0.869976
-0.343797
