EVENT_NAME: L_AQUILA
EVENT_ID: IT-2009-0009
EVENT_DATE_YYYYMMDD: 20090406
EVENT_TIME_HHMMSS: 013240
EVENT_LATITUDE_DEGREE: 42.3420
EVENT_LONGITUDE_DEGREE: 13.3800
EVENT_DEPTH_KM: 8.3
HYPOCENTER_REFERENCE: INGV-CNT_Seismic_Bulletin
MAGNITUDE_W: 6.1
MAGNITUDE_W_REFERENCE: INGV-CNT_Seismic_Bulletin
MAGNITUDE_L: 
MAGNITUDE_L_REFERENCE: 
FOCAL_MECHANISM: Normal faulting
NETWORK: IT
STATION_CODE: ANT
STATION_NAME: 
STATION_LATITUDE_DEGREE: 42.418110
STATION_LONGITUDE_DEGREE: 13.078598
STATION_ELEVATION_M: 568
LOCATION: 
SENSOR_DEPTH_M: 0.0
VS30_M/S: 912
SITE_CLASSIFICATION_EC8: A
MORPHOLOGIC_CLASSIFICATION: 
EPICENTRAL_DISTANCE_KM: 26.2
EARTHQUAKE_BACKAZIMUTH_DEGREE: 288.9
DATE_TIME_FIRST_SAMPLE_YYYYMMDD_HHMMSS: 
DATE_TIME_FIRST_SAMPLE_PRECISION: 
SAMPLING_INTERVAL_S: 
NDATA: 105
DURATION_S: 
STREAM: HNE
UNITS: cm
INSTRUMENT: sensor = FBA-3 [Kinemetrics] | digitizer = Etna [Kinemetrics]
INSTRUMENT_ANALOG/DIGITAL: D
INSTRUMENTAL_FREQUENCY_HZ: 216.000
INSTRUMENTAL_DAMPING: 0.700000
FULL_SCALE_G: 1.0
N_BIT_DIGITAL_CONVERTER: 18
PGD_CM: 0.390935
TIME_PGD_S: 
BASELINE_CORRECTION: BASELINE REMOVED
FILTER_TYPE: BUTTERWORTH
FILTER_ORDER: 2
LOW_CUT_FREQUENCY_HZ: 0.100
HIGH_CUT_FREQUENCY_HZ: 40.000
LATE/NORMAL_TRIGGERED: NT
DATABASE_VERSION: 0.5
HEADER_FORMAT: DYNA 1.2
DATA_TYPE: DISPLACEMENT RESPONSE SPECTRUM
PROCESSING: manual (Paolucci et al., 2011)
DATA_TIMESTAMP_YYYYMMDD_HHMMSS: 20211011_154922.308
DATA_LICENSE: CC-BY3_0-IT (http://creativecommons.org/licenses/by/3.0/deed.en)
DATA_CITATION: Luzi L, Pacor F, Puglia R (2019). Italian Accelerometric Archive v 3.0 - Istituto Nazionale di Geofisica e Vulcanologia, Dipartimento della Protezione Civile Nazionale. doi: 10.13127/itaca.3.1
DATA_CREATOR: ITACA working group
ORIGINAL_DATA_MEDIATOR_CITATION: data obtained within the DPC-INGV data exchange agreements
ORIGINAL_DATA_MEDIATOR: Archive of Italian Department of Civil Protection
ORIGINAL_DATA_CREATOR_CITATION: Presidency Of Counsil Of Ministers-Civil Protection Department. (1972). Italian Strong Motion Network. Presidency of Counsil of Ministers - Civil Protection Department. https://doi.org/10.7914/SN/IT http://www.fdsn.org/networks/detail/IT/
ORIGINAL_DATA_CREATOR: network: IT (Italian Strong Motion Network (RAN)); owner: Presidency of Counsil of Ministers - Civil Protection Department (PCM - DPC)
USER1: 
USER2: 
USER3: 
USER4: 
USER5: 
    0.010000     0.000050
    0.020000     0.000201
    0.022000     0.000244
    0.025000     0.000315
    0.029000     0.000424
    0.030000     0.000454
    0.032000     0.000517
    0.035001     0.000622
    0.036000     0.000663
    0.040000     0.000821
    0.041999     0.000920
    0.044001     0.001030
    0.045000     0.001087
    0.046000     0.001146
    0.048001     0.001268
    0.050000     0.001366
    0.054999     0.001559
    0.059999     0.001903
    0.064998     0.002281
    0.067002     0.002477
    0.069999     0.002737
    0.075002     0.003200
    0.080000     0.003646
    0.084998     0.004065
    0.090001     0.004888
    0.095003     0.005659
    0.100000     0.006787
    0.109999     0.009267
    0.120005     0.012264
    0.130005     0.015043
    0.132996     0.016658
    0.139997     0.021232
    0.149993     0.026362
    0.160000     0.028044
    0.170010     0.033865
    0.179986     0.034101
    0.190006     0.040470
    0.200000     0.053816
    0.220022     0.061686
    0.239981     0.084678
    0.250000     0.086788
    0.260010     0.097398
    0.280034     0.095283
    0.290023     0.103730
    0.300030     0.119406
    0.320000     0.121209
    0.340020     0.128196
    0.350017     0.160358
    0.359971     0.213501
    0.379939     0.273380
    0.400000     0.327594
    0.419992     0.361464
    0.439947     0.417850
    0.450045     0.454792
    0.459982     0.462416
    0.480077     0.436281
    0.500000     0.417778
    0.550055     0.267445
    0.599880     0.274448
    0.650195     0.367275
    0.667111     0.378374
    0.699790     0.350716
    0.750188     0.338712
    0.800000     0.367436
    0.850340     0.433062
    0.900090     0.474240
    0.949668     0.555721
    1.000000     0.510049
    1.100110     0.528826
    1.200480     0.416033
    1.300390     0.488346
    1.400560     0.711688
    1.499250     0.659657
    1.600000     0.563190
    1.700680     0.692852
    1.798561     0.739986
    1.901141     0.902110
    2.000000     1.003003
    2.197802     1.132042
    2.398082     0.840609
    2.500000     0.857687
    2.597403     0.807325
    2.801121     1.018926
    3.003003     1.043316
    3.205128     1.009819
    3.401361     1.001912
    3.496503     0.929478
    3.597122     0.978164
    3.802281     1.058349
    4.000000     0.967171
    4.201681     0.933687
    4.405286     0.895282
    4.608295     0.832089
    4.807692     0.757864
    5.000000     0.700089
    5.494505     0.811501
    5.988024     0.618799
    6.493506     0.590317
    6.993007     0.598165
    7.518797     0.614679
    8.000000     0.618722
    8.474576     0.610941
    9.009009     0.594578
    9.523809     0.573263
   10.000000     0.550035
