EVENT_NAME: L_AQUILA
EVENT_ID: IT-2009-0009
EVENT_DATE_YYYYMMDD: 20090406
EVENT_TIME_HHMMSS: 013240
EVENT_LATITUDE_DEGREE: 42.3420
EVENT_LONGITUDE_DEGREE: 13.3800
EVENT_DEPTH_KM: 8.3
HYPOCENTER_REFERENCE: INGV-CNT_Seismic_Bulletin
MAGNITUDE_W: 6.1
MAGNITUDE_W_REFERENCE: INGV-CNT_Seismic_Bulletin
MAGNITUDE_L: 
MAGNITUDE_L_REFERENCE: 
FOCAL_MECHANISM: Normal faulting
NETWORK: IT
STATION_CODE: ANT
STATION_NAME: 
STATION_LATITUDE_DEGREE: 42.418110
STATION_LONGITUDE_DEGREE: 13.078598
STATION_ELEVATION_M: 568
LOCATION: 
SENSOR_DEPTH_M: 0.0
VS30_M/S: 912
SITE_CLASSIFICATION_EC8: A
MORPHOLOGIC_CLASSIFICATION: 
EPICENTRAL_DISTANCE_KM: 26.2
EARTHQUAKE_BACKAZIMUTH_DEGREE: 288.9
DATE_TIME_FIRST_SAMPLE_YYYYMMDD_HHMMSS: 20090406_013216.000
DATE_TIME_FIRST_SAMPLE_PRECISION: seconds
SAMPLING_INTERVAL_S: 0.005000
NDATA: 24000
DURATION_S: 120.000
STREAM: HNN
UNITS: cm
INSTRUMENT: sensor = FBA-3 [Kinemetrics] | digitizer = Etna [Kinemetrics]
INSTRUMENT_ANALOG/DIGITAL: D
INSTRUMENTAL_FREQUENCY_HZ: 214.000
INSTRUMENTAL_DAMPING: 0.700000
FULL_SCALE_G: 1.0
N_BIT_DIGITAL_CONVERTER: 18
PGD_CM: -0.446723
TIME_PGD_S: 41.605000
BASELINE_CORRECTION: BASELINE REMOVED
FILTER_TYPE: BUTTERWORTH
FILTER_ORDER: 2
LOW_CUT_FREQUENCY_HZ: 0.100
HIGH_CUT_FREQUENCY_HZ: 40.000
LATE/NORMAL_TRIGGERED: NT
DATABASE_VERSION: 0.5
HEADER_FORMAT: DYNA 1.2
DATA_TYPE: DISPLACEMENT
PROCESSING: manual (Paolucci et al., 2011)
DATA_TIMESTAMP_YYYYMMDD_HHMMSS: 20211011_154921.300
DATA_LICENSE: CC-BY3_0-IT (http://creativecommons.org/licenses/by/3.0/deed.en)
DATA_CITATION: Luzi L, Pacor F, Puglia R (2019). Italian Accelerometric Archive v 3.0 - Istituto Nazionale di Geofisica e Vulcanologia, Dipartimento della Protezione Civile Nazionale. doi: 10.13127/itaca.3.1
DATA_CREATOR: ITACA working group
ORIGINAL_DATA_MEDIATOR_CITATION: data obtained within the DPC-INGV data exchange agreements
ORIGINAL_DATA_MEDIATOR: Archive of Italian Department of Civil Protection
ORIGINAL_DATA_CREATOR_CITATION: Presidency Of Counsil Of Ministers-Civil Protection Department. (1972). Italian Strong Motion Network. Presidency of Counsil of Ministers - Civil Protection Department. https://doi.org/10.7914/SN/IT http://www.fdsn.org/networks/detail/IT/
ORIGINAL_DATA_CREATOR: network: IT (Italian Strong Motion Network (RAN)); owner: Presidency of Counsil of Ministers - Civil Protection Department (PCM - DPC)
USER1: 
USER2: 
USER3: 
USER4: 
USER5: 
[...]
2.016105e-02
2.827729e-02
3.590908e-02
4.303021e-02
4.961778e-02
5.565162e-02
6.111421e-02
6.599129e-02
7.027256e-02
7.395203e-02
7.702861e-02
7.950718e-02
8.139969e-02
8.272545e-02
8.351004e-02
8.378378e-02
8.358042e-02
8.293650e-02
8.189047e-02
8.048126e-02
7.874649e-02
7.672076e-02
7.443413e-02
7.191093e-02
6.916918e-02
6.622043e-02
6.307017e-02
5.971838e-02
5.616070e-02
5.239007e-02
4.839866e-02
4.417966e-02
3.972855e-02
3.504359e-02
3.012578e-02
2.497890e-02
1.960966e-02
1.402779e-02
8.245964e-03
2.279401e-03
-3.854373e-03
-1.013576e-02
-1.654303e-02
-2.305184e-02
-2.963474e-02
-3.626096e-02
-4.289673e-02
-4.950614e-02
-5.605232e-02
-6.249930e-02
-6.881411e-02
-7.496884e-02
-8.094160e-02
-8.671604e-02
-9.227970e-02
-9.762252e-02
-1.027359e-01
-1.076125e-01
-1.122456e-01
-1.166292e-01
-1.207566e-01
-1.246212e-01
-1.282159e-01
-1.315341e-01
-1.345700e-01
-1.373193e-01
-1.397794e-01
-1.419489e-01
-1.438280e-01
-1.454192e-01
-1.467287e-01
-1.477677e-01
-1.485517e-01
-1.490989e-01
-1.494282e-01
-1.495565e-01
-1.494981e-01
-1.492648e-01
-1.488668e-01
-1.483137e-01
-1.476150e-01
-1.467798e-01
-1.458162e-01
-1.447312e-01
-1.435306e-01
-1.422195e-01
-1.408022e-01
-1.392820e-01
-1.376615e-01
-1.359431e-01
-1.341306e-01
-1.322308e-01
-1.302543e-01
-1.282151e-01
-1.261303e-01
-1.240198e-01
-1.219059e-01
-1.198118e-01
-1.177605e-01
-1.157723e-01
-1.138647e-01
-1.120517e-01
-1.103432e-01
-1.087446e-01
-1.072574e-01
-1.058802e-01
-1.046105e-01
-1.034455e-01
-1.023818e-01
-1.014147e-01
-1.005360e-01
-9.973199e-02
-9.898257e-02
-9.826198e-02
-9.754170e-02
-9.679310e-02
-9.598904e-02
-9.510438e-02
-9.411658e-02
-9.300640e-02
-9.175874e-02
-9.036327e-02
-8.881504e-02
-8.711454e-02
-8.526688e-02
-8.327964e-02
-8.116010e-02
-7.891317e-02
-7.654090e-02
-7.404373e-02
-7.142229e-02
-6.867877e-02
-6.581696e-02
-6.284130e-02
-5.975523e-02
-5.655964e-02
-5.325203e-02
-4.982671e-02
-4.627578e-02
-4.259053e-02
-3.876247e-02
-3.478421e-02
-3.065010e-02
-2.635685e-02
-2.190443e-02
-1.729693e-02
-1.254280e-02
-7.654318e-03
-2.646196e-03
2.466177e-03
7.668487e-03
1.294869e-02
1.829757e-02
2.370890e-02
2.917925e-02
3.470740e-02
4.029325e-02
4.593658e-02
5.163570e-02
5.738617e-02
6.317990e-02
6.900528e-02
7.484842e-02
8.069522e-02
8.653374e-02
9.235595e-02
9.815879e-02
1.039444e-01
1.097193e-01
1.154933e-01
1.212774e-01
1.270824e-01
1.329171e-01
1.387884e-01
1.447006e-01
1.506563e-01
1.566573e-01
1.627057e-01
1.688046e-01
1.749592e-01
1.811768e-01
1.874665e-01
1.938372e-01
2.002956e-01
2.068436e-01
2.134772e-01
2.201866e-01
2.269577e-01
2.337739e-01
2.406168e-01
2.474681e-01
2.543093e-01
2.611217e-01
2.678860e-01
2.745813e-01
2.811850e-01
2.876723e-01
2.940160e-01
3.001866e-01
3.061534e-01
3.118854e-01
3.173532e-01
3.225303e-01
3.273953e-01
3.319328e-01
3.361347e-01
3.400007e-01
3.435384e-01
3.467618e-01
3.496905e-01
3.523481e-01
3.547611e-01
3.569584e-01
3.589701e-01
3.608268e-01
3.625587e-01
3.641941e-01
3.657580e-01
3.672712e-01
3.687489e-01
3.701997e-01
3.716252e-01
3.730190e-01
3.743672e-01
3.756494e-01
3.768405e-01
3.779122e-01
3.788355e-01
3.795820e-01
3.801251e-01
3.804408e-01
3.805077e-01
3.803068e-01
3.798223e-01
3.790400e-01
3.779470e-01
3.765298e-01
3.747749e-01
3.726689e-01
3.702001e-01
3.673599e-01
3.641435e-01
3.605506e-01
3.565855e-01
3.522557e-01
3.475711e-01
3.425431e-01
3.371844e-01
3.315094e-01
3.255342e-01
3.192775e-01
3.127599e-01
3.060046e-01
2.990366e-01
2.918831e-01
2.845727e-01
2.771366e-01
2.696078e-01
2.620206e-01
2.544104e-01
2.468125e-01
2.392614e-01
2.317893e-01
2.244254e-01
2.171949e-01
2.101187e-01
2.032130e-01
1.964900e-01
1.899585e-01
1.836253e-01
1.774951e-01
1.715716e-01
1.658561e-01
1.603481e-01
1.550449e-01
1.499418e-01
1.450330e-01
1.403128e-01
1.357769e-01
1.314234e-01
1.272531e-01
1.232698e-01
1.194802e-01
1.158943e-01
1.125252e-01
1.093890e-01
1.065041e-01
1.038910e-01
1.015715e-01
9.956726e-02
9.789960e-02
9.658788e-02
9.564928e-02
9.509894e-02
9.495025e-02
9.521478e-02
9.590120e-02
9.701386e-02
9.855124e-02
1.005054e-01
1.028621e-01
1.056021e-01
1.087021e-01
1.121364e-01
1.158769e-01
1.198943e-01
1.241572e-01
1.286320e-01
1.332832e-01
1.380739e-01
1.429678e-01
1.479312e-01
1.529347e-01
1.579540e-01
1.629698e-01
1.679675e-01
1.729361e-01
1.778685e-01
1.827605e-01
1.876107e-01
1.924192e-01
1.971873e-01
2.019162e-01
2.066068e-01
2.112592e-01
2.158723e-01
2.204434e-01
2.249688e-01
2.294435e-01
2.338614e-01
2.382150e-01
2.424952e-01
2.466901e-01
2.507848e-01
2.547610e-01
2.585976e-01
2.622715e-01
2.657585e-01
2.690343e-01
2.720742e-01
2.748537e-01
2.773482e-01
2.795345e-01
2.813913e-01
2.828999e-01
2.840438e-01
2.848095e-01
2.851872e-01
2.851710e-01
2.847604e-01
2.839600e-01
2.827802e-01
2.812373e-01
2.793532e-01
2.771547e-01
2.746740e-01
2.719477e-01
2.690153e-01
2.659183e-01
2.626978e-01
2.593944e-01
2.560475e-01
2.526961e-01
2.493783e-01
2.461322e-01
2.429947e-01
2.400017e-01
2.371860e-01
2.345765e-01
2.321961e-01
2.300611e-01
2.281793e-01
2.265498e-01
2.251629e-01
2.240001e-01
2.230365e-01
2.222433e-01
2.215908e-01
2.210505e-01
2.205973e-01
2.202102e-01
2.198721e-01
2.195692e-01
2.192907e-01
2.190283e-01
2.187768e-01
2.185337e-01
2.182989e-01
2.180737e-01
2.178602e-01
2.176593e-01
2.174697e-01
2.172851e-01
2.170937e-01
2.168780e-01
2.166175e-01
2.162905e-01
2.158768e-01
2.153583e-01
2.147188e-01
2.139425e-01
2.130126e-01
2.119104e-01
2.106148e-01
2.091042e-01
2.073574e-01
2.053559e-01
2.030840e-01
2.005295e-01
1.976829e-01
1.945360e-01
1.910818e-01
1.873140e-01
1.832273e-01
1.788179e-01
1.740826e-01
1.690184e-01
1.636221e-01
1.578907e-01
1.518224e-01
1.454171e-01
1.386749e-01
1.315958e-01
1.241792e-01
1.164238e-01
1.083279e-01
9.988900e-02
9.110434e-02
8.197103e-02
7.248746e-02
6.265497e-02
5.247986e-02
4.197509e-02
3.116101e-02
2.006473e-02
8.719045e-03
-2.838543e-03
-1.456675e-02
-2.642206e-02
-3.836128e-02
-5.034378e-02
-6.233232e-02
-7.429237e-02
-8.619132e-02
-9.799795e-02
-1.096825e-01
-1.212165e-01
-1.325730e-01
-1.437261e-01
-1.546512e-01
-1.653252e-01
-1.757271e-01
-1.858386e-01
-1.956445e-01
-2.051336e-01
-2.142987e-01
-2.231352e-01
-2.316401e-01
-2.398099e-01
-2.476399e-01
-2.551240e-01
-2.622547e-01
-2.690232e-01
-2.754188e-01
-2.814288e-01
-2.870376e-01
-2.922270e-01
-2.969769e-01
-3.012666e-01
-3.050764e-01
-3.083879e-01
-3.111842e-01
-3.134503e-01
-3.151731e-01
-3.163435e-01
-3.169583e-01
-3.170225e-01
-3.165504e-01
-3.155654e-01
-3.140980e-01
-3.121830e-01
-3.098574e-01
-3.071595e-01
-3.041269e-01
-3.007957e-01
-2.971997e-01
-2.933703e-01
-2.893374e-01
-2.851300e-01
-2.807765e-01
-2.763051e-01
-2.717428e-01
-2.671155e-01
-2.624471e-01
-2.577594e-01
-2.530718e-01
-2.484013e-01
-2.437632e-01
-2.391725e-01
-2.346461e-01
-2.302028e-01
-2.258645e-01
-2.216546e-01
-2.175979e-01
-2.137194e-01
-2.100433e-01
-2.065934e-01
-2.033919e-01
-2.004598e-01
-1.978165e-01
-1.954804e-01
-1.934697e-01
-1.918034e-01
-1.905016e-01
-1.895850e-01
-1.890731e-01
-1.889806e-01
-1.893156e-01
-1.900771e-01
-1.912547e-01
-1.928277e-01
-1.947666e-01
-1.970344e-01
-1.995891e-01
-2.023864e-01
-2.053826e-01
-2.085376e-01
-2.118164e-01
-2.151904e-01
-2.186376e-01
-2.221406e-01
-2.256852e-01
-2.292574e-01
-2.328440e-01
-2.364325e-01
-2.400122e-01
-2.435739e-01
-2.471095e-01
-2.506105e-01
-2.540679e-01
-2.574715e-01
-2.608098e-01
-2.640711e-01
-2.672435e-01
-2.703160e-01
-2.732777e-01
-2.761176e-01
-2.788244e-01
-2.813862e-01
-2.837912e-01
-2.860288e-01
-2.880908e-01
-2.899723e-01
-2.916732e-01
-2.931982e-01
-2.945562e-01
-2.957593e-01
-2.968213e-01
-2.977563e-01
-2.985774e-01
-2.992951e-01
-2.999183e-01
-3.004537e-01
-3.009072e-01
-3.012842e-01
-3.015892e-01
-3.018261e-01
-3.019981e-01
-3.021072e-01
-3.021555e-01
-3.021444e-01
-3.020764e-01
-3.019545e-01
-3.017837e-01
-3.015711e-01
-3.013267e-01
-3.010631e-01
-3.007947e-01
-3.005368e-01
-3.003048e-01
-3.001142e-01
-2.999804e-01
-2.999185e-01
-2.999425e-01
-3.000656e-01
-3.003001e-01
-3.006576e-01
-3.011490e-01
-3.017832e-01
-3.025675e-01
-3.035057e-01
-3.045984e-01
-3.058415e-01
-3.072260e-01
-3.087388e-01
-3.103633e-01
-3.120808e-01
-3.138720e-01
-3.157179e-01
-3.176019e-01
-3.195111e-01
-3.214369e-01
-3.233755e-01
-3.253259e-01
-3.272885e-01
-3.292638e-01
-3.312509e-01
-3.332481e-01
-3.352522e-01
-3.372591e-01
-3.392636e-01
-3.412601e-01
-3.432431e-01
-3.452082e-01
-3.471516e-01
-3.490708e-01
-3.509634e-01
-3.528266e-01
-3.546555e-01
-3.564422e-01
-3.581763e-01
-3.598445e-01
-3.614326e-01
-3.629252e-01
-3.643069e-01
-3.655620e-01
-3.666748e-01
-3.676291e-01
-3.684082e-01
-3.689948e-01
-3.693710e-01
-3.695183e-01
-3.694171e-01
-3.690472e-01
-3.683880e-01
-3.674194e-01
-3.661220e-01
-3.644787e-01
-3.624744e-01
-3.600960e-01
-3.573324e-01
-3.541742e-01
-3.506132e-01
-3.466436e-01
-3.422621e-01
-3.374693e-01
-3.322708e-01
-3.266773e-01
-3.207047e-01
-3.143729e-01
-3.077056e-01
-3.007297e-01
-2.934749e-01
-2.859731e-01
-2.782573e-01
-2.703608e-01
-2.623169e-01
-2.541591e-01
-2.459205e-01
-2.376334e-01
-2.293291e-01
-2.210364e-01
-2.127810e-01
-2.045849e-01
-1.964649e-01
-1.884329e-01
-1.804959e-01
-1.726579e-01
-1.649213e-01
-1.572885e-01
-1.497625e-01
-1.423477e-01
-1.350490e-01
-1.278717e-01
-1.208215e-01
-1.139034e-01
-1.071208e-01
-1.004743e-01
-9.396095e-02
-8.757458e-02
-8.130639e-02
-7.514627e-02
-6.908391e-02
-6.310997e-02
-5.721688e-02
-5.139912e-02
-4.565312e-02
-3.997706e-02
-3.437090e-02
-2.883653e-02
-2.337776e-02
-1.799991e-02
-1.270936e-02
-7.512966e-03
-2.417256e-03
2.572371e-03
7.452196e-03
1.222008e-02
1.687482e-02
2.141531e-02
2.583984e-02
3.014569e-02
3.432912e-02
3.838592e-02
4.231199e-02
4.610368e-02
4.975786e-02
5.327172e-02
5.664257e-02
5.986772e-02
6.294437e-02
6.586960e-02
6.864021e-02
7.125263e-02
7.370295e-02
7.598694e-02
7.809991e-02
8.003628e-02
8.178890e-02
8.334828e-02
8.470197e-02
8.583449e-02
8.672762e-02
8.736096e-02
8.771249e-02
8.775917e-02
8.747747e-02
8.684408e-02
8.583689e-02
8.443637e-02
8.262655e-02
8.039548e-02
7.773520e-02
7.464183e-02
7.111585e-02
6.716271e-02
6.279339e-02
5.802476e-02
5.287988e-02
4.738815e-02
4.158526e-02
3.551281e-02
2.921766e-02
2.275067e-02
1.616515e-02
9.514763e-03
2.851030e-03
-3.778880e-03
-1.033345e-02
-1.677696e-02
-2.307899e-02
-2.921414e-02
-3.516188e-02
-4.090666e-02
-4.643768e-02
-5.174855e-02
-5.683681e-02
-6.170334e-02
-6.635166e-02
-7.078713e-02
-7.501584e-02
-7.904320e-02
-8.287279e-02
-8.650567e-02
-8.993994e-02
-9.317094e-02
-9.619164e-02
-9.899341e-02
-1.015669e-01
-1.039032e-01
-1.059947e-01
-1.078366e-01
-1.094269e-01
-1.107667e-01
-1.118594e-01
-1.127096e-01
-1.133223e-01
-1.137026e-01
-1.138552e-01
-1.137848e-01
-1.134965e-01
-1.129957e-01
-1.122874e-01
-1.113759e-01
-1.102639e-01
-1.089522e-01
-1.074402e-01
-1.057256e-01
-1.038056e-01
-1.016766e-01
-9.933457e-02
-9.677624e-02
-9.399881e-02
-9.100026e-02
-8.777935e-02
-8.433576e-02
-8.067065e-02
-7.678720e-02
-7.269121e-02
-6.839155e-02
-6.390049e-02
-5.923362e-02
-5.440915e-02
-4.944701e-02
-4.436809e-02
-3.919356e-02
-3.394431e-02
-2.864064e-02
-2.330267e-02
-1.795114e-02
-1.260827e-02
-7.298026e-03
-2.045561e-03
3.123916e-03
8.186327e-03
1.311941e-02
1.790278e-02
2.251753e-02
2.694593e-02
3.117087e-02
3.517520e-02
3.894132e-02
4.245078e-02
4.568410e-02
4.862085e-02
5.124062e-02
5.352428e-02
5.545532e-02
5.702110e-02
5.821368e-02
5.903030e-02
5.947332e-02
5.954976e-02
5.927054e-02
5.864918e-02
5.770006e-02
5.643666e-02
5.487052e-02
5.301101e-02
5.086552e-02
4.843967e-02
4.573713e-02
4.275908e-02
3.950379e-02
3.596660e-02
3.214016e-02
2.801455e-02
2.357757e-02
1.881522e-02
1.371270e-02
8.255324e-03
2.429414e-03
-3.777112e-03
-1.037423e-02
-1.736952e-02
-2.476796e-02
-3.257203e-02
-4.078148e-02
-4.939251e-02
-5.839656e-02
-6.777960e-02
-7.752234e-02
-8.760115e-02
-9.798932e-02
-1.086581e-01
-1.195774e-01
-1.307159e-01
-1.420411e-01
-1.535195e-01
-1.651161e-01
-1.767936e-01
-1.885122e-01
-2.002292e-01
-2.119000e-01
-2.234792e-01
-2.349222e-01
-2.461870e-01
-2.572358e-01
-2.680360e-01
-2.785611e-01
-2.887911e-01
-2.987121e-01
-3.083150e-01
-3.175946e-01
-3.265481e-01
-3.351748e-01
-3.434759e-01
-3.514545e-01
-3.591155e-01
-3.664647e-01
-3.735082e-01
-3.802514e-01
-3.866989e-01
-3.928536e-01
-3.987166e-01
-4.042869e-01
-4.095618e-01
-4.145372e-01
-4.192072e-01
-4.235648e-01
-4.276003e-01
-4.313015e-01
-4.346534e-01
-4.376386e-01
-4.402377e-01
-4.424299e-01
-4.441943e-01
-4.455105e-01
-4.463592e-01
-4.467234e-01
-4.465881e-01
-4.459410e-01
-4.447729e-01
-4.430779e-01
-4.408541e-01
-4.381037e-01
-4.348331e-01
-4.310530e-01
-4.267776e-01
-4.220246e-01
-4.168154e-01
-4.111747e-01
-4.051315e-01
-3.987189e-01
-3.919741e-01
-3.849381e-01
-3.776546e-01
-3.701691e-01
-3.625284e-01
-3.547796e-01
-3.469701e-01
-3.391467e-01
-3.313549e-01
-3.236384e-01
-3.160382e-01
-3.085915e-01
-3.013319e-01
-2.942893e-01
-2.874894e-01
-2.809547e-01
-2.747045e-01
-2.687555e-01
-2.631216e-01
-2.578149e-01
-2.528452e-01
-2.482209e-01
-2.439487e-01
-2.400343e-01
-2.364830e-01
-2.333005e-01
-2.304938e-01
-2.280707e-01
-2.260391e-01
-2.244057e-01
-2.231749e-01
-2.223472e-01
-2.219192e-01
-2.218824e-01
-2.222239e-01
-2.229259e-01
-2.239658e-01
-2.253175e-01
-2.269514e-01
-2.288364e-01
-2.309405e-01
-2.332316e-01
-2.356789e-01
-2.382540e-01
-2.409315e-01
-2.436900e-01
-2.465111e-01
-2.493782e-01
-2.522745e-01
-2.551817e-01
-2.580783e-01
-2.609401e-01
-2.637401e-01
-2.664497e-01
-2.690400e-01
-2.714833e-01
-2.737543e-01
-2.758310e-01
-2.776948e-01
-2.793307e-01
-2.807258e-01
-2.818692e-01
-2.827511e-01
-2.833620e-01
-2.836923e-01
-2.837320e-01
-2.834709e-01
-2.828989e-01
-2.820063e-01
-2.807844e-01
-2.792258e-01
-2.773239e-01
-2.750731e-01
-2.724678e-01
-2.695015e-01
-2.661669e-01
-2.624556e-01
-2.583583e-01
-2.538659e-01
-2.489699e-01
-2.436632e-01
-2.379408e-01
-2.318002e-01
-2.252420e-01
-2.182701e-01
-2.108915e-01
-2.031164e-01
-1.949571e-01
-1.864275e-01
-1.775430e-01
-1.683193e-01
-1.587726e-01
-1.489194e-01
-1.387761e-01
-1.283596e-01
-1.176868e-01
-1.067754e-01
-9.564388e-02
-8.431157e-02
-7.279849e-02
-6.112474e-02
-4.930983e-02
-3.737190e-02
-2.532735e-02
-1.319118e-02
-9.781624e-04
1.129596e-02
2.361345e-02
3.595399e-02
4.829477e-02
6.061078e-02
7.287527e-02
8.506011e-02
9.713622e-02
1.090740e-01
1.208438e-01
1.324162e-01
1.437625e-01
1.548544e-01
1.656636e-01
1.761624e-01
1.863227e-01
1.961165e-01
2.055166e-01
2.144964e-01
2.230310e-01
2.310977e-01
2.386754e-01
2.457446e-01
2.522875e-01
2.582874e-01
2.637289e-01
2.685974e-01
2.728786e-01
2.765585e-01
2.796232e-01
2.820595e-01
2.838567e-01
2.850073e-01
2.855086e-01
2.853632e-01
2.845793e-01
2.831714e-01
2.811603e-01
2.785724e-01
2.754386e-01
2.717927e-01
2.676697e-01
2.631050e-01
2.581336e-01
2.527896e-01
2.471060e-01
2.411151e-01
2.348474e-01
2.283320e-01
2.215965e-01
2.146670e-01
2.075696e-01
2.003302e-01
1.929749e-01
1.855295e-01
1.780192e-01
1.704675e-01
1.628950e-01
1.553184e-01
1.477502e-01
1.401984e-01
1.326675e-01
1.251586e-01
1.176714e-01
1.102052e-01
1.027609e-01
9.534244e-02
8.795726e-02
8.061661e-02
7.333478e-02
6.612852e-02
5.901661e-02
5.201980e-02
4.516088e-02
3.846437e-02
3.195600e-02
2.566219e-02
1.960949e-02
1.382411e-02
8.331359e-03
3.154801e-03
-1.684485e-03
-6.168615e-03
-1.028347e-02
-1.401926e-02
-1.737086e-02
-2.033776e-02
-2.292354e-02
-2.513526e-02
-2.698273e-02
-2.847779e-02
-2.963374e-02
-3.046496e-02
-3.098689e-02
-3.121617e-02
-3.117092e-02
-3.087106e-02
-3.033838e-02
-2.959652e-02
-2.867072e-02
-2.758719e-02
-2.637216e-02
-2.505083e-02
-2.364676e-02
-2.218161e-02
-2.067500e-02
-1.914423e-02
-1.760386e-02
-1.606516e-02
-1.453571e-02
-1.301918e-02
-1.151534e-02
-1.001983e-02
-8.524074e-03
-7.015089e-03
-5.475463e-03
-3.883542e-03
-2.214127e-03
-4.397360e-04
1.467825e-03
3.536003e-03
5.790354e-03
8.253490e-03
1.094396e-02
1.387523e-02
1.705519e-02
2.048633e-02
2.416637e-02
2.808857e-02
3.224182e-02
3.661070e-02
4.117579e-02
4.591405e-02
5.079930e-02
5.580284e-02
6.089421e-02
6.604220e-02
7.121553e-02
7.638341e-02
8.151640e-02
8.658766e-02
9.157404e-02
9.645677e-02
1.012215e-01
1.058575e-01
1.103570e-01
1.147136e-01
1.189218e-01
1.229756e-01
1.268680e-01
1.305900e-01
1.341304e-01
1.374756e-01
1.406104e-01
1.435182e-01
1.461819e-01
1.485847e-01
1.507107e-01
1.525451e-01
1.540752e-01
1.552912e-01
1.561864e-01
1.567570e-01
1.570024e-01
1.569237e-01
1.565230e-01
1.558032e-01
1.547668e-01
1.534161e-01
1.517542e-01
1.497848e-01
1.475136e-01
1.449481e-01
1.420984e-01
1.389773e-01
1.356002e-01
1.319849e-01
1.281509e-01
1.241195e-01
1.199138e-01
1.155588e-01
1.110805e-01
1.065066e-01
1.018655e-01
9.718698e-02
9.250166e-02
8.784055e-02
8.323452e-02
7.871350e-02
7.430573e-02
7.003693e-02
6.592984e-02
6.200409e-02
5.827645e-02
5.476127e-02
5.147091e-02
4.841614e-02
4.560626e-02
4.304890e-02
4.074955e-02
3.871115e-02
3.693356e-02
3.541335e-02
3.414375e-02
3.311517e-02
3.231583e-02
3.173261e-02
3.135147e-02
3.115786e-02
3.113690e-02
3.127352e-02
3.155251e-02
3.195841e-02
3.247547e-02
3.308762e-02
3.377847e-02
3.453107e-02
3.532759e-02
3.614929e-02
3.697700e-02
3.779196e-02
3.857669e-02
3.931570e-02
3.999603e-02
4.060775e-02
4.114419e-02
4.160220e-02
4.198208e-02
4.228726e-02
4.252373e-02
4.269929e-02
4.282290e-02
4.290431e-02
4.295377e-02
4.298191e-02
4.299965e-02
4.301783e-02
4.304644e-02
4.309350e-02
4.316366e-02
4.325689e-02
4.336782e-02
4.348606e-02
4.359717e-02
4.368386e-02
4.372735e-02
4.370860e-02
4.360905e-02
4.341120e-02
4.309904e-02
4.265860e-02
4.207848e-02
4.134995e-02
4.046701e-02
3.942651e-02
3.822814e-02
3.687428e-02
3.536985e-02
3.372229e-02
3.194150e-02
3.003966e-02
2.803060e-02
2.592900e-02
2.374990e-02
2.150836e-02
1.921912e-02
1.689602e-02
1.455116e-02
1.219413e-02
9.831723e-03
7.467744e-03
5.103431e-03
2.738216e-03
