EVENT_NAME: L_AQUILA
EVENT_ID: IT-2009-0009
EVENT_DATE_YYYYMMDD: 20090406
EVENT_TIME_HHMMSS: 013240
EVENT_LATITUDE_DEGREE: 42.3420
EVENT_LONGITUDE_DEGREE: 13.3800
EVENT_DEPTH_KM: 8.3
HYPOCENTER_REFERENCE: INGV-CNT_Seismic_Bulletin
MAGNITUDE_W: 6.1
MAGNITUDE_W_REFERENCE: INGV-CNT_Seismic_Bulletin
MAGNITUDE_L: 
MAGNITUDE_L_REFERENCE: 
FOCAL_MECHANISM: Normal faulting
NETWORK: IT
STATION_CODE: ANT
STATION_NAME: 
STATION_LATITUDE_DEGREE: 42.418110
STATION_LONGITUDE_DEGREE: 13.078598
STATION_ELEVATION_M: 568
LOCATION: 
SENSOR_DEPTH_M: 0.0
VS30_M/S: 912
SITE_CLASSIFICATION_EC8: A
MORPHOLOGIC_CLASSIFICATION: 
EPICENTRAL_DISTANCE_KM: 26.2
EARTHQUAKE_BACKAZIMUTH_DEGREE: 288.9
DATE_TIME_FIRST_SAMPLE_YYYYMMDD_HHMMSS: 20090406_013216.000
DATE_TIME_FIRST_SAMPLE_PRECISION: seconds
SAMPLING_INTERVAL_S: 0.005000
NDATA: 24400
DURATION_S: 122.000
STREAM: HNE
UNITS: cm/s^2
INSTRUMENT: sensor = FBA-3 [Kinemetrics] | digitizer = Etna [Kinemetrics]
INSTRUMENT_ANALOG/DIGITAL: D
INSTRUMENTAL_FREQUENCY_HZ: 216.000
INSTRUMENTAL_DAMPING: 0.700000
FULL_SCALE_G: 1.0
N_BIT_DIGITAL_CONVERTER: 18
PGA_CM/S^2: -19.746929
TIME_PGA_S: 39.205000
BASELINE_CORRECTION: BASELINE NOT REMOVED
FILTER_TYPE: 
FILTER_ORDER: 
LOW_CUT_FREQUENCY_HZ: 
HIGH_CUT_FREQUENCY_HZ: 
LATE/NORMAL_TRIGGERED: NT
DATABASE_VERSION: 0.5
HEADER_FORMAT: DYNA 1.2
DATA_TYPE: ACCELERATION
PROCESSING: converted to cm/s^2
DATA_TIMESTAMP_YYYYMMDD_HHMMSS: 20211011_154920.435
DATA_LICENSE: CC-BY3_0-IT (http://creativecommons.org/licenses/by/3.0/deed.en)
DATA_CITATION: Luzi L, Pacor F, Puglia R (2019). Italian Accelerometric Archive v 3.0 - Istituto Nazionale di Geofisica e Vulcanologia, Dipartimento della Protezione Civile Nazionale. doi: 10.13127/itaca.3.1
DATA_CREATOR: ITACA working group
ORIGINAL_DATA_MEDIATOR_CITATION: data obtained within the DPC-INGV data exchange agreements
ORIGINAL_DATA_MEDIATOR: Archive of Italian Department of Civil Protection
ORIGINAL_DATA_CREATOR_CITATION: Presidency Of Counsil Of Ministers-Civil Protection Department. (1972). Italian Strong Motion Network. Presidency of Counsil of Ministers - Civil Protection Department. https://doi.org/10.7914/SN/IT http://www.fdsn.org/networks/detail/IT/
ORIGINAL_DATA_CREATOR: network: IT (Italian Strong Motion Network (RAN)); owner: Presidency of Counsil of Ministers - Civil Protection Department (PCM - DPC)
USER1: 
USER2: 
USER3: 
USER4: 
USER5: 
[...]
-0.264414
-0.021951
0.311171
0.630004
0.831705
0.845292
0.660927
0.333192
0.009440
-0.168132
-0.166491
-0.028276
0.130555
0.184435
0.075503
-0.196946
-0.553729
-0.877950
-1.113619
-1.241761
-1.282523
-1.274792
-1.257925
-1.288614
-1.420035
-1.601824
-1.732777
-1.767917
-1.676788
-1.547709
-1.461266
-1.410899
-1.385599
-1.325627
-1.237778
-1.137279
-1.060207
-1.053179
-1.097689
-1.154849
-1.156723
-1.106591
-1.058098
-1.069577
-1.183195
-1.416053
-1.736057
-2.032634
-2.223325
-2.250031
-2.087920
-1.787595
-1.425658
-1.091130
-0.812356
-0.558414
-0.310095
-0.038115
0.202473
0.345374
0.362944
0.255182
0.102677
-0.088482
-0.255043
-0.336801
-0.346874
-0.265351
-0.143300
0.054653
0.340220
0.674748
1.029892
1.341462
1.594467
1.672008
1.550191
1.240026
0.775247
0.340923
-0.084734
-0.436832
-0.628693
-0.780028
-0.776279
-0.593788
-0.324385
0.043643
0.391992
0.663972
0.806405
0.831705
0.790006
0.710591
0.700986
0.765877
0.934781
1.173027
1.364888
1.421815
1.334668
1.108136
0.759786
0.506782
0.423618
0.539344
0.835687
1.088692
1.220582
1.155926
0.966641
0.869890
0.882306
1.067842
1.347787
1.552065
1.724717
1.818891
1.841146
1.846768
1.813737
1.818188
1.840443
1.913299
2.027151
2.109143
2.230023
2.346218
2.492633
2.673484
2.866517
3.115071
3.290066
3.409774
3.470683
3.380023
3.211119
2.944527
2.584464
2.221121
1.864806
1.602666
1.444538
1.370276
1.406822
1.446880
1.486471
1.486237
1.398622
1.319675
1.260641
1.274463
1.359969
1.396514
1.336543
1.154754
0.884648
0.605172
0.403706
0.247920
0.094243
0.013188
-0.081454
-0.159464
-0.238411
-0.413171
-0.627522
-0.919649
-1.159534
-1.319068
-1.469934
-1.628061
-1.834447
-2.024669
-2.146018
-2.148829
-2.086046
-1.996323
-1.976411
-2.084407
-2.279079
-2.540283
-2.730739
-2.818588
-2.761896
-2.585730
-2.426900
-2.379110
-2.491322
-2.657883
-2.813200
-2.822571
-2.611031
-2.234803
-1.725749
-1.253943
-0.899736
-0.696395
-0.656337
-0.695224
-0.780965
-0.861083
-0.898565
-0.875607
-0.840936
-0.863426
-0.945652
-1.079885
-1.210604
-1.302201
-1.377399
-1.450021
-1.531310
-1.568558
-1.458220
-1.171950
-0.699207
-0.132758
0.390352
0.830299
1.155691
1.420643
1.694966
2.006536
2.365428
2.724319
3.004498
3.129829
3.027925
2.692694
2.212453
1.706445
1.305620
1.071122
0.969452
0.908543
0.782978
0.526460
0.113453
-0.465412
-1.118304
-1.704665
-2.138990
-2.424791
-2.625321
-2.714810
-2.693257
-2.483357
-2.047158
-1.526625
-0.988756
-0.517184
-0.114485
0.227540
0.462506
0.583620
0.554806
0.402768
0.183966
-0.007193
-0.106520
-0.162509
-0.220607
-0.307050
-0.412234
-0.481810
-0.516716
-0.562631
-0.639235
-0.779325
-0.950103
-1.085273
-1.183663
-1.219974
-1.260033
-1.301732
-1.271044
-1.189754
-0.974701
-0.724741
-0.503597
-0.305644
-0.266288
-0.320871
-0.506876
-0.784010
-1.089021
-1.398483
-1.623610
-1.876146
-2.134305
-2.429008
-2.743155
-2.993583
-3.206997
-3.367936
-3.544570
-3.740649
-3.981238
-4.229322
-4.428446
-4.567833
-4.613280
-4.644906
-4.650997
-4.619840
-4.592431
-4.484904
-4.256732
-3.938836
-3.496312
-3.017712
-2.603534
-2.265258
-2.078550
-1.926279
-1.725515
-1.511164
-1.190926
-0.821024
-0.434723
-0.001102
0.414013
0.793520
1.147258
1.516691
1.890341
2.271019
2.609062
2.828332
2.983180
3.060019
3.071263
2.981775
2.739312
2.360040
1.880502
1.492562
1.269543
1.178883
1.265561
1.465856
1.701525
2.031836
2.361679
2.606719
2.827864
2.958583
3.102186
3.273433
3.406963
3.534870
3.573056
3.566965
3.467871
3.293814
3.062596
2.689883
2.276173
1.789374
1.319441
0.938998
0.605172
0.415653
0.280483
0.172488
0.093541
-0.065524
-0.276830
-0.516716
-0.746762
-0.899034
-0.917306
-0.767378
-0.442454
0.053247
0.589711
1.063626
1.443133
1.703165
1.933212
2.156933
2.356760
2.578607
2.817790
3.088130
3.368778
3.574696
3.633261
3.509102
3.225643
2.896269
2.668565
2.587509
2.684729
2.983649
3.445148
4.017453
4.632395
5.140981
5.454191
5.584208
5.529624
5.390003
5.180806
4.922882
4.657930
4.346828
4.139270
4.073911
4.075316
4.110456
4.113736
4.038303
3.856514
3.625531
3.358236
3.070561
2.773280
2.436175
2.049875
1.598215
1.119146
0.637266
0.180452
-0.236536
-0.644155
-1.021788
-1.315085
-1.483521
-1.473916
-1.251366
-0.821961
-0.238645
0.432754
1.162719
1.917048
2.734627
3.664653
4.647153
5.635043
6.633239
7.582240
8.400054
9.087617
9.609088
9.943148
10.115330
10.080890
9.815005
9.291192
8.447844
7.239513
5.689157
3.947174
2.201912
0.582214
-0.946120
-2.473987
-4.035118
-5.645211
-7.244059
-8.744047
-10.056630
-11.080120
-11.693660
-11.813130
-11.512810
-10.915440
-10.152440
-9.272078
-8.229371
-7.062505
-5.858390
-4.792492
-4.008178
-3.496547
-3.181931
-2.915573
-2.488979
-1.855297
-1.119241
-0.419496
0.027244
0.086044
-0.319934
-1.105186
-2.116969
-3.111651
-3.793358
-4.133275
-4.176379
-4.083376
-3.999042
-3.983112
-3.960622
-3.816550
-3.519504
-2.973436
-2.229181
-1.289785
-0.158995
1.084241
2.353480
3.545881
4.670111
5.679318
6.613327
7.473308
8.207489
8.895287
9.507886
10.046220
10.538410
10.881610
10.961490
10.686000
9.993748
9.005859
7.863825
6.646123
5.488628
4.497694
3.662544
2.902359
2.186450
1.434465
0.617822
-0.303536
-1.419098
-2.723008
-4.275238
-6.000823
-7.681897
-9.098722
-9.980256
-10.245680
-10.031330
-9.441216
-8.570927
-7.584209
-6.513860
-5.346994
-4.088530
-2.728396
-1.429875
-0.258089
0.746199
1.524422
2.104927
2.414623
2.498255
2.332397
1.965774
1.407993
0.523648
-0.641812
-2.167804
-3.944927
-5.710102
-7.236328
-8.353296
-9.067566
-9.411230
-9.453163
-9.249588
-8.948092
-8.604661
-8.233354
-7.775837
-7.064613
-6.094996
-4.893459
-3.525829
-2.103147
-0.837656
0.147656
0.810621
1.171855
1.432591
1.666620
1.928526
2.226744
2.604376
3.080400
3.470214
3.707991
3.675195
3.325908
2.779137
2.111017
1.524890
1.198327
1.290158
1.824279
2.582590
3.411414
4.132477
4.654650
4.990818
5.186896
5.371964
5.646522
6.110129
6.638158
7.106451
7.402092
7.322442
6.955351
6.294260
5.367982
4.281234
3.037529
1.933212
1.117975
0.685525
0.752055
1.184037
1.879799
2.582121
3.176917
3.612880
3.800291
3.837305
3.612880
3.189098
2.678638
2.076581
1.482957
0.924708
0.477030
0.155855
-0.087545
-0.271676
-0.473845
-0.806265
-1.246681
-1.731840
-2.241832
-2.726288
-3.222692
-3.751425
-4.364024
-5.168016
-6.154265
-7.239139
-8.315814
-9.285196
-10.086610
-10.744420
-11.340620
-11.919020
-12.444710
-12.813910
-12.935020
-12.810160
-12.556450
-12.374430
-12.451740
-12.878330
-13.602910
-14.438290
-15.170830
-15.639360
-15.769840
-15.577280
-15.121170
-14.439460
-13.543170
-12.431350
-11.060210
-9.423646
-7.568982
-5.473730
-3.287115
-1.183429
0.754398
2.348326
3.672852
4.785135
5.722891
6.557338
7.298079
7.983768
8.535692
8.942374
9.119477
9.100736
8.951041
8.743718
8.597538
8.505004
8.562164
8.696397
8.938157
9.364516
9.893015
10.544270
11.161790
11.564720
11.673180
11.316160
10.452200
9.134002
7.459252
5.698060
3.927965
2.185045
0.582214
-0.980791
-2.490151
-3.947738
-5.408370
-6.762179
-7.964419
-8.889057
-9.502827
-9.837121
-9.930123
-9.957298
-9.931294
-9.962452
-10.080290
-10.182660
-10.229040
-10.103480
-9.871792
-9.560690
-9.150026
-8.796288
-8.591308
-8.574206
-8.831662
-9.274420
-9.808072
-10.339380
-10.634550
-10.703190
-10.533350
-10.170480
-9.739667
-9.204375
-8.619888
-7.879381
-6.939985
-5.777335
-4.348094
-2.786494
-1.137045
0.437205
1.784688
2.769063
3.300607
3.415865
3.128892
2.647949
2.167006
1.784688
1.621875
1.632886
1.762668
1.956169
2.157636
2.385809
2.572282
2.821773
3.185115
3.603510
4.073442
4.480358
4.834798
5.115212
5.361188
5.588658
5.686815
5.733433
5.739056
5.768573
5.906085
6.084126
6.261229
6.361962
6.400147
6.453559
6.576782
6.772860
6.967064
7.083962
7.055148
6.892569
6.683137
6.501114
6.289106
6.045472
5.865324
5.786376
5.842600
5.966291
6.054374
6.039147
5.873523
5.630123
5.361188
5.106544
4.926161
4.782089
4.705719
4.729380
4.857757
5.087101
5.404761
5.781223
6.084828
6.330102
6.548904
6.743577
6.931222
7.120975
7.360393
7.634950
7.940663
8.178441
8.311502
8.429103
8.532647
8.621199
8.651184
8.605971
8.478532
8.213346
7.883503
7.547335
7.176730
6.694382
5.988078
5.054304
3.957716
2.805843
1.705508
0.677794
-0.296274
-1.186475
-1.999603
-2.704033
-3.233000
-3.641087
-3.895731
-3.991779
-3.976787
-3.873711
-3.770869
-3.670136
-3.552770
-3.465389
-3.474760
-3.630311
-4.037695
-4.748919
-5.663952
-6.709001
-7.775602
-8.808939
-9.813460
-10.763870
-11.664840
-12.458290
-13.078160
-13.502880
-13.694270
-13.672480
-13.491630
-13.165540
-12.721370
-12.132670
-11.323760
-10.232560
-8.899130
-7.399610
-5.795843
-4.216672
-2.782980
-1.595499
-0.632208
0.071754
0.563941
0.928456
1.130391
1.276805
1.320847
1.251271
1.153817
0.983742
0.815072
0.808747
0.942511
1.184271
1.506383
1.745098
1.825451
1.689812
1.350598
0.887460
0.375360
-0.126667
-0.564505
-0.891303
-1.146884
-1.267061
-1.284631
-1.287208
-1.330781
-1.493125
-1.743553
-2.221216
-2.845763
-3.418537
-3.865980
-3.915175
-3.634528
-3.109543
-2.302037
-1.420270
-0.459555
0.479373
1.293672
2.052452
2.703704
3.306464
3.842693
4.282640
4.579920
4.654650
4.479187
4.020967
3.372995
2.621946
1.885187
1.242369
0.755335
0.479373
0.464380
0.742919
1.300935
2.229086
3.490829
5.014713
6.778482
8.554902
10.151410
11.520440
12.546750
13.336450
13.949290
14.310520
14.549240
14.579220
14.342850
13.798650
12.895100
11.639210
9.998433
8.145878
6.157684
4.219154
2.510905
1.065500
-0.071146
-0.984071
-1.656876
-2.113455
-2.384732
-2.446812
-2.309533
-1.900041
-1.231453
-0.398178
0.530911
1.480146
2.370113
3.144588
3.793732
4.250077
4.438190
4.343548
3.912972
3.150913
2.139832
0.996158
-0.140254
-1.190223
-2.172021
-3.137186
-4.093215
-4.981308
-5.734934
-6.354560
-6.751169
-6.891258
-6.804815
-6.458339
-5.968729
-5.455457
-5.023476
-4.749622
-4.657088
-4.724087
-4.897676
-5.183712
-5.527845
-5.921173
-6.311924
-6.629820
-6.828007
-6.861038
-6.703613
-6.316610
-5.709399
-4.876358
-3.876053
-2.690446
-1.365218
0.012720
1.427203
2.760630
3.942255
4.928738
5.755922
6.413266
6.934268
7.395064
7.819549
8.267929
8.641580
8.845623
8.773002
8.381079
7.714599
6.844076
5.938414
5.109590
4.468645
3.999649
3.648957
3.397827
3.221426
3.165906
3.237825
3.446553
3.734229
4.036897
4.271863
4.312860
4.148875
3.756953
3.184178
2.542531
1.896667
1.338417
0.901047
0.570501
0.299458
0.026073
-0.326259
-0.770423
-1.273621
-1.881066
-2.483591
-3.063159
-3.626797
-4.088765
-4.495680
-4.790383
-5.009420
-5.197768
-5.326847
-5.403920
-5.433437
-5.477478
-5.499968
-5.498796
-5.477244
-5.323567
-5.035423
-4.694804
-4.329822
-4.106334
-4.066978
-4.145222
-4.358870
-4.522620
-4.632021
-4.681451
-4.594539
-4.452576
-4.237756
-3.932979
-3.582756
-3.270717
-2.932674
-2.633989
-2.410735
-2.177643
-1.999603
-1.759717
-1.457986
-1.112682
-0.694756
-0.283858
0.083233
0.377703
0.534893
0.459460
0.241830
-0.077706
-0.494695
-0.963690
-1.466419
-1.893248
-2.307191
-2.739876
-3.107200
-3.457190
-3.713475
-3.803666
-3.781879
-3.610633
-3.345212
-3.040436
-2.728865
-2.510532
-2.322418
-2.176238
-2.138990
-2.135242
-2.235741
-2.453840
-2.693023
-2.963363
-3.179588
-3.379884
-3.589081
-3.713709
-3.836931
-3.941413
-3.955937
-3.888469
-3.693796
-3.323894
-2.798910
-2.141567
-1.393330
-0.652588
0.094946
0.896362
1.719329
2.552838
3.319817
3.920703
4.335583
4.576640
4.707125
4.784432
4.883525
5.017524
5.183617
5.436388
5.727108
5.999322
6.163775
6.163072
6.011972
5.725468
5.375479
4.991989
4.578983
4.120061
3.594374
2.983180
2.321152
1.656312
1.003889
0.366692
-0.314078
-1.047556
-1.837727
-2.652730
-3.411743
-4.050579
-4.534568
-4.874484
-5.072437
-5.158880
-5.125849
-4.942889
-4.625228
-4.198400
-3.662874
-3.040436
-2.359197
-1.658750
-0.989694
-0.375455
0.145313
0.590648
0.955630
1.266966
1.561201
1.794996
2.014970
2.263523
2.530583
2.828332
3.113197
3.286551
3.350037
3.318645
3.177385
3.039872
2.959520
2.909856
2.958817
3.078291
3.244618
3.422190
3.516598
3.561108
3.518004
3.465763
3.464826
3.450536
3.479585
3.447022
3.266873
2.937499
2.428444
1.759388
0.940403
0.023730
-0.895285
-1.726921
-2.428774
-2.977185
-3.341464
-3.456722
-3.326940
-2.997331
-2.486871
-1.853891
-1.058567
-0.060839
1.135779
2.508094
3.961699
5.353224
6.541876
7.491580
8.233493
8.794319
9.208965
9.533186
9.753628
9.858578
9.822268
9.570434
9.078949
8.373816
7.500014
6.507908
5.471995
4.386184
3.313960
2.272191
1.184505
0.051373
-1.182961
-2.523651
-3.977958
-5.473730
-6.964114
-8.450281
-9.876009
-11.297050
-12.747140
-14.212460
-15.619680
-16.926640
-18.042900
-18.875000
-19.437241
-19.720230
-19.746929
-19.502600
-18.927710
-18.040091
-16.835979
-15.297570
-13.536840
-11.555680
-9.453163
-7.326285
-5.165439
-3.113526
-1.175464
0.584088
2.206363
3.728841
5.036734
6.204303
7.129878
7.757001
8.202335
8.434725
8.467053
8.357418
8.082158
7.654862
7.124489
6.545156
5.989249
5.509009
5.197204
5.108418
5.237731
5.611147
6.180408
6.867034
7.681568
8.611360
9.631108
10.700050
11.752360
12.727370
13.527850
14.190340
14.749060
15.227190
15.687050
16.084360
16.424049
16.571871
16.446541
16.119270
15.641610
15.101390
14.478490
13.835430
13.193080
12.510440
11.758450
10.853960
9.768855
8.483685
7.104577
5.665965
4.193854
2.814042
1.545974
0.402534
-0.656805
-1.698106
-2.748543
-3.762435
-4.680046
-5.560173
-6.432570
-7.298173
-8.153469
-8.941766
-9.596766
-10.042800
-10.267930
-10.278470
-10.147050
-10.010940
-9.999231
-10.270270
-10.826420
-11.599020
-12.517330
-13.450630
-14.318580
-15.050650
-15.622490
-15.987240
-16.157310
-16.188940
-15.999890
-15.635140
-15.036830
-14.104930
-12.929870
-11.519840
-9.952378
-8.263574
-6.526978
-4.854572
-3.255724
-1.847332
-0.582075
0.576358
1.646473
2.689883
3.631622
4.502144
5.251788
5.809334
6.220467
6.535083
6.808702
7.071780
7.386396
7.822126
8.388575
9.036079
9.711226
10.315630
10.738940
10.942050
10.988200
10.912300
10.767990
10.682480
10.604470
10.498120
10.321480
9.960483
9.413946
8.671331
7.771760
6.776374
5.691266
4.633566
3.669104
2.775389
1.967649
1.187785
0.350996
-0.633847
-1.743553
-2.906203
-4.130932
-5.343480
-6.498632
-7.580461
-8.544924
-9.393894
-10.125030
-10.825480
-11.547240
-12.243940
-12.939470
-13.646480
-14.347390
-14.955540
-15.427120
-15.727210
-15.768670
-15.580560
-15.158880
-14.577910
-13.949620
-13.389020
-12.990070
-12.677560
-12.483590
-12.336240
-12.185610
-12.062860
-11.957670
-11.952990
-12.040370
-12.282600
-12.604480
-12.904800
-13.125240
-13.167410
-13.047940
-12.722310
-12.254950
-11.688510
-11.016170
-10.266290
-9.453631
-8.570927
-7.615835
-6.597960
-5.440230
-4.119219
-2.626024
-0.980791
0.763768
2.577202
4.400240
6.157684
7.752784
9.123460
10.231760
11.075810
11.716050
12.175910
12.539960
12.868860
13.117890
13.283280
13.261960
13.031210
12.615390
11.998110
11.239560
10.365760
9.521238
8.834613
8.436131
8.439176
8.820791
9.541619
10.380520
11.110010
11.615320
11.874180
11.965310
11.927360
11.800390
11.588380
11.301640
10.947430
10.472820
9.861624
9.083869
8.121046
6.961911
5.574368
3.991919
2.274534
0.439079
-1.454706
-3.314758
-5.079933
-6.654886
-7.985503
-9.035940
-9.775743
-10.202810
-10.299090
-10.104880
-9.606371
-8.833302
-7.902105
-6.881887
-5.905946
-5.066112
-4.423059
-4.024576
-3.863169
-3.889172
-4.029730
-4.245955
-4.464523
-4.706283
-5.028161
-5.461314
-6.069931
-6.810906
-7.620520
-8.447236
-9.166190
-9.681335
-9.963858
-9.952378
-9.592550
-8.911312
-7.949192
-6.771315
-5.475604
-4.163963
-2.872469
-1.663903
-0.648606
0.220512
0.901047
1.385738
1.713238
1.814908
1.798042
1.676927
1.463982
1.231124
0.929861
0.564645
0.094243
-0.446671
-1.009137
-1.584020
-2.042473
-2.395040
-2.629303
-2.714810
-2.703799
-2.550591
-2.205052
-1.605338
-0.769251
0.266427
1.485066
2.800220
4.161760
5.508072
6.780591
7.977209
9.091599
10.126340
11.063860
11.884490
12.581890
13.146000
13.545650
13.729080
13.715960
13.519650
13.186060
12.756890
12.229790
11.607820
10.866850
10.039430
9.166096
8.275660
7.429501
6.670956
5.970976
5.301217
4.609906
3.832151
2.957177
1.992246
0.957973
-0.092699
-1.095346
-1.989998
-2.744092
-3.431187
-4.108911
-4.833488
-5.656690
-6.535178
-7.369858
-8.067026
-8.570458
-8.781764
-8.641206
-8.166120
-7.411791
-6.473567
-5.433671
-4.336615
-3.228549
-2.086515
-0.883572
0.353339
1.627029
2.888538
4.122638
5.276854
6.306676
7.195471
7.856094
8.376159
8.760117
9.026240
9.192099
9.210137
9.149228
8.920353
8.520465
8.014222
7.416382
6.744046
6.065384
5.420926
4.829411
4.315905
3.833791
3.369715
2.842154
2.226744
1.386675
0.390352
-0.666644
-1.863028
-2.976247
-3.992951
-4.896505
-5.581491
-6.098979
-6.418749
-6.592806
-6.663320
-6.595852
-6.411017
-6.063839
-5.548226
-4.887134
-4.049877
-3.096190
-2.084875
-1.085976
-0.127136
0.786961
1.607819
2.344344
2.972170
3.481693
3.878301
4.143253
4.250546
4.169256
3.891420
3.414928
2.756413
1.924778
0.972028
-0.029682
-1.054584
-2.038257
-2.965237
-3.829669
-4.639518
-5.437888
-6.143489
-6.718840
-7.104906
-7.209388
-7.043764
-6.588590
-5.874555
-4.927896
-3.805774
-2.626961
-1.458455
-0.339847
0.743387
1.790077
2.835594
3.864948
4.785369
5.582568
6.209925
6.637690
6.856961
6.860475
6.667207
6.263571
5.639259
4.771079
3.704009
2.489821
1.160142
-0.172348
-1.437137
-2.547545
-3.459533
-4.156935
-4.598990
-4.812873
-4.818261
-4.664115
-4.392370
-4.066041
-3.771338
-3.562140
-3.437746
-3.381523
-3.430016
-3.516225
-3.590252
-3.591658
-3.460001
-3.172326
-2.663037
-1.975005
-1.136811
-0.222715
0.731674
1.698479
2.611170
3.460844
4.200881
4.875326
5.420457
5.835104
6.156044
6.259355
6.154873
5.816362
5.192050
4.375408
3.391501
2.278281
1.116335
-0.131586
-1.422846
-2.688806
-3.954063
-5.220257
-6.399071
-7.450679
-8.343457
-9.052104
-9.600514
-9.955893
-10.169540
-10.227640
-10.137910
-9.893110
-9.444730
-8.845484
-8.061404
-7.153867
-6.160356
-5.076419
-3.918689
-2.677327
-1.416053
-0.130415
1.147492
2.369176
3.550098
4.626304
5.512289
6.200320
6.662756
6.888352
