EVENT_NAME: L_AQUILA
EVENT_ID: IT-2009-0009
EVENT_DATE_YYYYMMDD: 20090406
EVENT_TIME_HHMMSS: 013240
EVENT_LATITUDE_DEGREE: 42.3420
EVENT_LONGITUDE_DEGREE: 13.3800
EVENT_DEPTH_KM: 8.3
HYPOCENTER_REFERENCE: INGV-CNT_Seismic_Bulletin
MAGNITUDE_W: 6.1
MAGNITUDE_W_REFERENCE: INGV-CNT_Seismic_Bulletin
MAGNITUDE_L: 
MAGNITUDE_L_REFERENCE: 
FOCAL_MECHANISM: Normal faulting
NETWORK: IT
STATION_CODE: ANT
STATION_NAME: 
STATION_LATITUDE_DEGREE: 42.418110
STATION_LONGITUDE_DEGREE: 13.078598
STATION_ELEVATION_M: 568
LOCATION: 
SENSOR_DEPTH_M: 0.0
VS30_M/S: 912
SITE_CLASSIFICATION_EC8: A
MORPHOLOGIC_CLASSIFICATION: 
EPICENTRAL_DISTANCE_KM: 26.2
EARTHQUAKE_BACKAZIMUTH_DEGREE: 288.9
DATE_TIME_FIRST_SAMPLE_YYYYMMDD_HHMMSS: 20090406_013216.000
DATE_TIME_FIRST_SAMPLE_PRECISION: seconds
SAMPLING_INTERVAL_S: 0.005000
NDATA: 24000
DURATION_S: 120.000
STREAM: HNE
UNITS: cm
INSTRUMENT: sensor = FBA-3 [Kinemetrics] | digitizer = Etna [Kinemetrics]
INSTRUMENT_ANALOG/DIGITAL: D
INSTRUMENTAL_FREQUENCY_HZ: 216.000
INSTRUMENTAL_DAMPING: 0.700000
FULL_SCALE_G: 1.0
N_BIT_DIGITAL_CONVERTER: 18
PGD_CM: 0.390935
TIME_PGD_S: 40.035000
BASELINE_CORRECTION: BASELINE REMOVED
FILTER_TYPE: BUTTERWORTH
FILTER_ORDER: 2
LOW_CUT_FREQUENCY_HZ: 0.100
HIGH_CUT_FREQUENCY_HZ: 40.000
LATE/NORMAL_TRIGGERED: NT
DATABASE_VERSION: 0.5
HEADER_FORMAT: DYNA 1.2
DATA_TYPE: DISPLACEMENT
PROCESSING: manual (Paolucci et al., 2011)
DATA_TIMESTAMP_YYYYMMDD_HHMMSS: 20211011_154920.722
DATA_LICENSE: CC-BY3_0-IT (http://creativecommons.org/licenses/by/3.0/deed.en)
DATA_CITATION: Luzi L, Pacor F, Puglia R (2019). Italian Accelerometric Archive v 3.0 - Istituto Nazionale di Geofisica e Vulcanologia, Dipartimento della Protezione Civile Nazionale. doi: 10.13127/itaca.3.1
DATA_CREATOR: ITACA working group
ORIGINAL_DATA_MEDIATOR_CITATION: data obtained within the DPC-INGV data exchange agreements
ORIGINAL_DATA_MEDIATOR: Archive of Italian Department of Civil Protection
ORIGINAL_DATA_CREATOR_CITATION: Presidency Of Counsil Of Ministers-Civil Protection Department. (1972). Italian Strong Motion Network. Presidency of Counsil of Ministers - Civil Protection Department. https://doi.org/10.7914/SN/IT http://www.fdsn.org/networks/detail/IT/
ORIGINAL_DATA_CREATOR: network: IT (Italian Strong Motion Network (RAN)); owner: Presidency of Counsil of Ministers - Civil Protection Department (PCM - DPC)
USER1: 
USER2: 
USER3: 
USER4: 
USER5: 
[...]
1.642661e-01
1.665719e-01
1.688090e-01
1.710098e-01
1.732036e-01
1.754157e-01
1.776658e-01
1.799680e-01
1.823303e-01
1.847545e-01
1.872371e-01
1.897690e-01
1.923356e-01
1.949151e-01
1.974773e-01
1.999841e-01
2.023920e-01
2.046575e-01
2.067427e-01
2.086191e-01
2.102685e-01
2.116825e-01
2.128602e-01
2.138060e-01
2.145275e-01
2.150329e-01
2.153319e-01
2.154369e-01
2.153654e-01
2.151415e-01
2.147954e-01
2.143613e-01
2.138741e-01
2.133651e-01
2.128589e-01
2.123721e-01
2.119148e-01
2.114934e-01
2.111136e-01
2.107817e-01
2.105054e-01
2.102949e-01
2.101610e-01
2.101137e-01
2.101583e-01
2.102940e-01
2.105124e-01
2.107996e-01
2.111392e-01
2.115170e-01
2.119254e-01
2.123671e-01
2.128542e-01
2.134055e-01
2.140414e-01
2.147798e-01
2.156340e-01
2.166124e-01
2.177203e-01
2.189626e-01
2.203469e-01
2.218841e-01
2.235871e-01
2.254674e-01
2.275317e-01
2.297788e-01
2.321997e-01
2.347776e-01
2.374895e-01
2.403072e-01
2.432010e-01
2.461432e-01
2.491135e-01
2.521017e-01
2.551090e-01
2.581460e-01
2.612293e-01
2.643765e-01
2.676028e-01
2.709189e-01
2.743304e-01
2.778371e-01
2.814337e-01
2.851101e-01
2.888532e-01
2.926482e-01
2.964800e-01
3.003350e-01
3.042020e-01
3.080728e-01
3.119416e-01
3.158035e-01
3.196527e-01
3.234813e-01
3.272787e-01
3.310327e-01
3.347308e-01
3.383607e-01
3.419101e-01
3.453658e-01
3.487117e-01
3.519276e-01
3.549894e-01
3.578701e-01
3.605430e-01
3.629843e-01
3.651736e-01
3.670939e-01
3.687299e-01
3.700673e-01
3.710935e-01
3.717998e-01
3.721833e-01
3.722471e-01
3.719967e-01
3.714362e-01
3.705633e-01
3.693675e-01
3.678313e-01
3.659343e-01
3.636586e-01
3.609923e-01
3.579318e-01
3.544816e-01
3.506530e-01
3.464630e-01
3.419342e-01
3.370945e-01
3.319783e-01
3.266264e-01
3.210858e-01
3.154085e-01
3.096486e-01
3.038589e-01
2.980870e-01
2.923734e-01
2.867517e-01
2.812494e-01
2.758903e-01
2.706950e-01
2.656824e-01
2.608693e-01
2.562695e-01
2.518927e-01
2.477433e-01
2.438212e-01
2.401227e-01
2.366430e-01
2.333781e-01
2.303260e-01
2.274875e-01
2.248660e-01
2.224682e-01
2.203044e-01
2.183884e-01
2.167361e-01
2.153624e-01
2.142778e-01
2.134844e-01
2.129731e-01
2.127224e-01
2.126994e-01
2.128634e-01
2.131701e-01
2.135748e-01
2.140346e-01
2.145086e-01
2.149578e-01
2.153447e-01
2.156321e-01
2.157840e-01
2.157665e-01
2.155501e-01
2.151116e-01
2.144358e-01
2.135141e-01
2.123436e-01
2.109241e-01
2.092558e-01
2.073375e-01
2.051671e-01
2.027419e-01
2.000615e-01
1.971282e-01
1.939480e-01
1.905291e-01
1.868812e-01
1.830129e-01
1.789297e-01
1.746312e-01
1.701115e-01
1.653594e-01
1.603618e-01
1.551062e-01
1.495850e-01
1.437962e-01
1.377441e-01
1.314370e-01
1.248861e-01
1.181043e-01
1.111069e-01
1.039124e-01
9.654442e-02
8.903229e-02
8.141122e-02
7.372062e-02
6.600148e-02
5.829295e-02
5.062848e-02
4.303253e-02
3.551855e-02
2.808900e-02
2.073735e-02
1.345209e-02
6.221059e-03
-9.649182e-04
-8.110366e-03
-1.521529e-02
-2.227652e-02
-2.928929e-02
-3.624838e-02
-4.314864e-02
-4.998472e-02
-5.674999e-02
-6.343576e-02
-7.003150e-02
-7.652605e-02
-8.290904e-02
-8.917157e-02
-9.530621e-02
-1.013067e-01
-1.071683e-01
-1.128881e-01
-1.184651e-01
-1.238988e-01
-1.291879e-01
-1.343294e-01
-1.393191e-01
-1.441531e-01
-1.488287e-01
-1.533446e-01
-1.576989e-01
-1.618887e-01
-1.659093e-01
-1.697562e-01
-1.734268e-01
-1.769217e-01
-1.802444e-01
-1.833997e-01
-1.863930e-01
-1.892299e-01
-1.919158e-01
-1.944552e-01
-1.968497e-01
-1.990982e-01
-2.011979e-01
-2.031469e-01
-2.049458e-01
-2.065982e-01
-2.081101e-01
-2.094881e-01
-2.107384e-01
-2.118661e-01
-2.128747e-01
-2.137659e-01
-2.145391e-01
-2.151910e-01
-2.157159e-01
-2.161057e-01
-2.163518e-01
-2.164464e-01
-2.163830e-01
-2.161561e-01
-2.157610e-01
-2.151931e-01
-2.144473e-01
-2.135175e-01
-2.123969e-01
-2.110785e-01
-2.095565e-01
-2.078269e-01
-2.058866e-01
-2.037331e-01
-2.013645e-01
-1.987800e-01
-1.959807e-01
-1.929703e-01
-1.897549e-01
-1.863423e-01
-1.827408e-01
-1.789601e-01
-1.750130e-01
-1.709171e-01
-1.666955e-01
-1.623751e-01
-1.579844e-01
-1.535513e-01
-1.491016e-01
-1.446598e-01
-1.402481e-01
-1.358869e-01
-1.315932e-01
-1.273810e-01
-1.232600e-01
-1.192367e-01
-1.153133e-01
-1.114897e-01
-1.077636e-01
-1.041323e-01
-1.005929e-01
-9.714241e-02
-9.377881e-02
-9.050226e-02
-8.731719e-02
-8.423413e-02
-8.127031e-02
-7.844843e-02
-7.579431e-02
-7.333462e-02
-7.109552e-02
-6.910218e-02
-6.737859e-02
-6.594707e-02
-6.482725e-02
-6.403467e-02
-6.357977e-02
-6.346743e-02
-6.369737e-02
-6.426508e-02
-6.516265e-02
-6.637894e-02
-6.789880e-02
-6.970162e-02
-7.176038e-02
-7.404195e-02
-7.650863e-02
-7.912055e-02
-8.183851e-02
-8.462687e-02
-8.745551e-02
-9.030060e-02
-9.314433e-02
-9.597407e-02
-9.878115e-02
-1.015599e-01
-1.043072e-01
-1.070221e-01
-1.097059e-01
-1.123617e-01
-1.149936e-01
-1.176049e-01
-1.201960e-01
-1.227637e-01
-1.253018e-01
-1.278028e-01
-1.302608e-01
-1.326740e-01
-1.350457e-01
-1.373840e-01
-1.397004e-01
-1.420077e-01
-1.443184e-01
-1.466434e-01
-1.489913e-01
-1.513680e-01
-1.537764e-01
-1.562173e-01
-1.586908e-01
-1.611982e-01
-1.637429e-01
-1.663323e-01
-1.689785e-01
-1.716961e-01
-1.744997e-01
-1.773991e-01
-1.803964e-01
-1.834852e-01
-1.866516e-01
-1.898764e-01
-1.931369e-01
-1.964094e-01
-1.996707e-01
-2.029001e-01
-2.060786e-01
-2.091897e-01
-2.122184e-01
-2.151511e-01
-2.179771e-01
-2.206890e-01
-2.232852e-01
-2.257703e-01
-2.281553e-01
-2.304565e-01
-2.326923e-01
-2.348812e-01
-2.370393e-01
-2.391789e-01
-2.413069e-01
-2.434235e-01
-2.455222e-01
-2.475885e-01
-2.495991e-01
-2.515228e-01
-2.533206e-01
-2.549494e-01
-2.563653e-01
-2.575280e-01
-2.584038e-01
-2.589662e-01
-2.591951e-01
-2.590759e-01
-2.585988e-01
-2.577581e-01
-2.565534e-01
-2.549904e-01
-2.530830e-01
-2.508537e-01
-2.483343e-01
-2.455654e-01
-2.425936e-01
-2.394680e-01
-2.362368e-01
-2.329427e-01
-2.296220e-01
-2.263038e-01
-2.230104e-01
-2.197589e-01
-2.165607e-01
-2.134226e-01
-2.103462e-01
-2.073275e-01
-2.043563e-01
-2.014161e-01
-1.984863e-01
-1.955436e-01
-1.925644e-01
-1.895264e-01
-1.864099e-01
-1.831988e-01
-1.798819e-01
-1.764543e-01
-1.729186e-01
-1.692859e-01
-1.655751e-01
-1.618112e-01
-1.580222e-01
-1.542365e-01
-1.504806e-01
-1.467796e-01
-1.431578e-01
-1.396387e-01
-1.362442e-01
-1.329937e-01
-1.299021e-01
-1.269795e-01
-1.242294e-01
-1.216492e-01
-1.192306e-01
-1.169616e-01
-1.148295e-01
-1.128236e-01
-1.109370e-01
-1.091672e-01
-1.075156e-01
-1.059867e-01
-1.045877e-01
-1.033274e-01
-1.022154e-01
-1.012615e-01
-1.004735e-01
-9.985648e-02
-9.941124e-02
-9.913372e-02
-9.901432e-02
-9.903783e-02
-9.918371e-02
-9.942657e-02
-9.973682e-02
-1.000815e-01
-1.004259e-01
-1.007349e-01
-1.009755e-01
-1.011181e-01
-1.011376e-01
-1.010136e-01
-1.007297e-01
-1.002727e-01
-9.963083e-02
-9.879309e-02
-9.774863e-02
-9.648838e-02
-9.500761e-02
-9.330822e-02
-9.139989e-02
-8.929930e-02
-8.702773e-02
-8.460763e-02
-8.205939e-02
-7.939938e-02
-7.663975e-02
-7.378933e-02
-7.085447e-02
-6.783925e-02
-6.474496e-02
-6.156966e-02
-5.830825e-02
-5.495353e-02
-5.149803e-02
-4.793632e-02
-4.426718e-02
-4.049486e-02
-3.662909e-02
-3.268383e-02
-2.867516e-02
-2.461901e-02
-2.052927e-02
-1.641697e-02
-1.229048e-02
-8.156715e-03
-4.022794e-03
1.026242e-04
4.208672e-03
8.282321e-03
1.230899e-02
1.627351e-02
2.016111e-02
2.395811e-02
2.765262e-02
3.123484e-02
3.469718e-02
3.803384e-02
4.124044e-02
4.431385e-02
4.725216e-02
5.005420e-02
5.271915e-02
5.524631e-02
5.763550e-02
5.988801e-02
6.200778e-02
6.400166e-02
6.587838e-02
6.764622e-02
6.931073e-02
7.087335e-02
7.233177e-02
7.368162e-02
7.491845e-02
7.603928e-02
7.704333e-02
7.793215e-02
7.870949e-02
7.938108e-02
7.995429e-02
8.043743e-02
8.083900e-02
8.116707e-02
8.142885e-02
8.163044e-02
8.177711e-02
8.187395e-02
8.192687e-02
8.194323e-02
8.193198e-02
8.190321e-02
8.186725e-02
8.183351e-02
8.180905e-02
8.179719e-02
8.179677e-02
8.180255e-02
8.180625e-02
8.179741e-02
8.176430e-02
8.169505e-02
8.157838e-02
8.140359e-02
8.116041e-02
8.083914e-02
8.043140e-02
7.993116e-02
7.933569e-02
7.864585e-02
7.786580e-02
7.700207e-02
7.606227e-02
7.505371e-02
7.398251e-02
7.285339e-02
7.166956e-02
7.043258e-02
6.914199e-02
6.779505e-02
6.638688e-02
6.491133e-02
6.336206e-02
6.173320e-02
6.001956e-02
5.821659e-02
5.632053e-02
5.432826e-02
5.223759e-02
5.004788e-02
4.776093e-02
4.538188e-02
4.291988e-02
4.038809e-02
3.780283e-02
3.518223e-02
3.254507e-02
2.991054e-02
2.729861e-02
2.473000e-02
2.222531e-02
1.980327e-02
1.747892e-02
1.526272e-02
1.316092e-02
1.117688e-02
9.312740e-03
7.570731e-03
5.954046e-03
4.467327e-03
3.116806e-03
1.909621e-03
8.522463e-04
-5.137674e-05
-8.010826e-04
-1.400620e-03
-1.856816e-03
-2.178356e-03
-2.374896e-03
-2.456872e-03
-2.435907e-03
-2.325326e-03
-2.140229e-03
-1.896895e-03
-1.611871e-03
-1.301458e-03
-9.819483e-04
-6.703901e-04
-3.852177e-04
-1.461790e-04
2.665090e-05
1.144834e-04
1.013571e-04
-2.501387e-05
-2.731741e-04
-6.482825e-04
-1.152393e-03
-1.784394e-03
-2.539818e-03
-3.410885e-03
-4.386801e-03
-5.454141e-03
-6.597328e-03
-7.799376e-03
-9.042880e-03
-1.031108e-02
-1.158876e-02
-1.286275e-02
-1.412196e-02
-1.535711e-02
-1.656029e-02
-1.772462e-02
-1.884406e-02
-1.991285e-02
-2.092485e-02
-2.187317e-02
-2.275050e-02
-2.355026e-02
-2.426790e-02
-2.490177e-02
-2.545295e-02
-2.592437e-02
-2.631938e-02
-2.664046e-02
-2.688845e-02
-2.706222e-02
-2.715875e-02
-2.717395e-02
-2.710383e-02
-2.694574e-02
-2.669887e-02
-2.636383e-02
-2.594162e-02
-2.543273e-02
-2.483694e-02
-2.415400e-02
-2.338509e-02
-2.253444e-02
-2.161030e-02
-2.062532e-02
-1.959644e-02
-1.854413e-02
-1.749104e-02
-1.645989e-02
-1.547164e-02
-1.454407e-02
-1.369089e-02
-1.292081e-02
-1.223672e-02
-1.163563e-02
-1.110937e-02
-1.064555e-02
-1.022805e-02
-9.836664e-03
-9.446376e-03
-9.027085e-03
-8.544576e-03
-7.962946e-03
-7.247887e-03
-6.369527e-03
-5.303737e-03
-4.031922e-03
-2.540038e-03
-8.174844e-04
1.143710e-03
3.349091e-03
5.801307e-03
8.499070e-03
1.143598e-02
1.459990e-02
1.797333e-02
2.153450e-02
2.525876e-02
2.911990e-02
3.309112e-02
3.714575e-02
4.125730e-02
4.539873e-02
4.954154e-02
5.365481e-02
5.770490e-02
6.165583e-02
6.547031e-02
6.911093e-02
7.254092e-02
7.572424e-02
7.862503e-02
8.120708e-02
8.343402e-02
8.527053e-02
8.668419e-02
8.764745e-02
8.813917e-02
8.814520e-02
8.765822e-02
8.667763e-02
8.520993e-02
8.326926e-02
8.087790e-02
7.806623e-02
7.487220e-02
7.134022e-02
6.751955e-02
6.346259e-02
5.922306e-02
5.485441e-02
5.040807e-02
4.593224e-02
4.147138e-02
3.706639e-02
3.275462e-02
2.856947e-02
2.453949e-02
2.068746e-02
1.702995e-02
1.357779e-02
1.033669e-02
7.307805e-03
4.488064e-03
1.870455e-03
-5.555916e-04
-2.803282e-03
-4.887060e-03
-6.820932e-03
-8.616638e-03
-1.028189e-02
-1.181910e-02
-1.322477e-02
-1.448980e-02
-1.560039e-02
-1.653907e-02
-1.728532e-02
-1.781584e-02
-1.810513e-02
-1.812652e-02
-1.785383e-02
-1.726317e-02
-1.633419e-02
-1.505013e-02
-1.339704e-02
-1.136261e-02
-8.935484e-03
-6.105430e-03
-2.864721e-03
7.898425e-04
4.855700e-03
9.324963e-03
1.418593e-02
1.942460e-02
2.502565e-02
3.097321e-02
3.725108e-02
4.384221e-02
5.072745e-02
5.788406e-02
6.528481e-02
7.289818e-02
8.068951e-02
8.862253e-02
9.666102e-02
1.047705e-01
1.129192e-01
1.210785e-01
1.292214e-01
1.373217e-01
1.453537e-01
1.532925e-01
1.611147e-01
1.687980e-01
1.763208e-01
1.836611e-01
1.907979e-01
1.977114e-01
2.043857e-01
2.108094e-01
2.169772e-01
2.228887e-01
2.285471e-01
2.339555e-01
2.391135e-01
2.440146e-01
2.486453e-01
2.529863e-01
2.570149e-01
2.607077e-01
2.640431e-01
2.670027e-01
2.695723e-01
2.717427e-01
2.735091e-01
2.748713e-01
2.758336e-01
2.764052e-01
2.766020e-01
2.764465e-01
2.759681e-01
2.752021e-01
2.741878e-01
2.729674e-01
2.715840e-01
2.700797e-01
2.684938e-01
2.668620e-01
2.652160e-01
2.635850e-01
2.619958e-01
2.604741e-01
2.590439e-01
2.577266e-01
2.565406e-01
2.554999e-01
2.546152e-01
2.538944e-01
2.533439e-01
2.529707e-01
2.527827e-01
2.527910e-01
2.530096e-01
2.534547e-01
2.541429e-01
2.550890e-01
2.563035e-01
2.577918e-01
2.595551e-01
2.615915e-01
2.638982e-01
2.664725e-01
2.693124e-01
2.724152e-01
2.757761e-01
2.793862e-01
2.832319e-01
2.872947e-01
2.915522e-01
2.959791e-01
3.005489e-01
3.052353e-01
3.100138e-01
3.148624e-01
3.197608e-01
3.246891e-01
3.296261e-01
3.345473e-01
3.394255e-01
3.442313e-01
3.489342e-01
3.535040e-01
3.579117e-01
3.621303e-01
3.661359e-01
3.699074e-01
3.734259e-01
3.766737e-01
3.796334e-01
3.822874e-01
3.846181e-01
3.866076e-01
3.882390e-01
3.894968e-01
3.903693e-01
3.908492e-01
3.909354e-01
3.906327e-01
3.899518e-01
3.889067e-01
3.875130e-01
3.857843e-01
3.837312e-01
3.813614e-01
3.786799e-01
3.756906e-01
3.723972e-01
3.688028e-01
3.649097e-01
3.607180e-01
3.562252e-01
3.514254e-01
3.463109e-01
3.408742e-01
3.351101e-01
3.290171e-01
3.225986e-01
3.158623e-01
3.088198e-01
3.014854e-01
2.938759e-01
2.860100e-01
2.779081e-01
2.695922e-01
2.610859e-01
2.524151e-01
2.436087e-01
2.346999e-01
2.257258e-01
2.167275e-01
2.077486e-01
1.988347e-01
1.900311e-01
1.813817e-01
1.729263e-01
1.646989e-01
1.567275e-01
1.490332e-01
1.416319e-01
1.345355e-01
1.277533e-01
1.212933e-01
1.151618e-01
1.093623e-01
1.038945e-01
9.875269e-02
9.392645e-02
8.940035e-02
8.515507e-02
8.116906e-02
7.742133e-02
7.389490e-02
7.058018e-02
6.747721e-02
6.459585e-02
6.195340e-02
5.957005e-02
5.746393e-02
5.564797e-02
5.412924e-02
5.291008e-02
5.198950e-02
5.136418e-02
5.102889e-02
5.097657e-02
5.119813e-02
5.168172e-02
5.241207e-02
5.336976e-02
5.453072e-02
5.586567e-02
5.734010e-02
5.891467e-02
6.054619e-02
6.218874e-02
6.379515e-02
6.531885e-02
6.671589e-02
6.794688e-02
6.897849e-02
6.978445e-02
7.034622e-02
7.065318e-02
7.070271e-02
7.049999e-02
7.005764e-02
6.939465e-02
6.853442e-02
6.750220e-02
6.632233e-02
6.501585e-02
6.359869e-02
6.208083e-02
6.046646e-02
5.875510e-02
5.694319e-02
5.502571e-02
5.299706e-02
5.085090e-02
4.857914e-02
4.617055e-02
4.361016e-02
4.087957e-02
3.795838e-02
3.482628e-02
3.146541e-02
2.786256e-02
2.401075e-02
1.991057e-02
1.557088e-02
1.100866e-02
6.247961e-03
1.318021e-03
-3.748930e-03
-8.919763e-03
-1.416225e-02
-1.944670e-02
-2.474713e-02
-3.004198e-02
-3.531424e-02
-4.055161e-02
-4.574651e-02
-5.089581e-02
-5.600001e-02
-6.106227e-02
-6.608747e-02
-7.108177e-02
-7.605274e-02
-8.100981e-02
-8.596456e-02
-9.093045e-02
-9.592174e-02
-1.009522e-01
-1.060335e-01
-1.111747e-01
-1.163813e-01
-1.216561e-01
-1.269988e-01
-1.324051e-01
-1.378661e-01
-1.433670e-01
-1.488872e-01
-1.544005e-01
-1.598766e-01
-1.652827e-01
-1.705849e-01
-1.757495e-01
-1.807447e-01
-1.855403e-01
-1.901086e-01
-1.944237e-01
-1.984622e-01
-2.022035e-01
-2.056301e-01
-2.087280e-01
-2.114875e-01
-2.139040e-01
-2.159776e-01
-2.177132e-01
-2.191189e-01
-2.202055e-01
-2.209864e-01
-2.214773e-01
-2.216967e-01
-2.216651e-01
-2.214045e-01
-2.209369e-01
-2.202832e-01
-2.194627e-01
-2.184928e-01
-2.173903e-01
-2.161729e-01
-2.148599e-01
-2.134730e-01
-2.120366e-01
-2.105763e-01
-2.091184e-01
-2.076876e-01
-2.063061e-01
-2.049932e-01
-2.037661e-01
-2.026419e-01
-2.016391e-01
-2.007782e-01
-2.000806e-01
-1.995672e-01
-1.992556e-01
-1.991583e-01
-1.992801e-01
-1.996176e-01
-2.001593e-01
-2.008863e-01
-2.017755e-01
-2.028008e-01
-2.039348e-01
-2.051496e-01
-2.064165e-01
-2.077054e-01
-2.089855e-01
-2.102251e-01
-2.113924e-01
-2.124567e-01
-2.133891e-01
-2.141640e-01
-2.147596e-01
-2.151587e-01
-2.153485e-01
-2.153192e-01
-2.150642e-01
-2.145797e-01
-2.138646e-01
-2.129211e-01
-2.117551e-01
-2.103760e-01
-2.087966e-01
-2.070320e-01
-2.050990e-01
-2.030142e-01
-2.007940e-01
-1.984529e-01
-1.960040e-01
-1.934591e-01
-1.908301e-01
-1.881300e-01
-1.853751e-01
-1.825858e-01
-1.797865e-01
-1.770046e-01
-1.742691e-01
-1.716078e-01
-1.690467e-01
-1.666078e-01
-1.643085e-01
-1.621616e-01
-1.601753e-01
-1.583543e-01
-1.567000e-01
-1.552108e-01
-1.538819e-01
-1.527047e-01
-1.516663e-01
-1.507500e-01
-1.499349e-01
-1.491973e-01
-1.485122e-01
-1.478545e-01
-1.472000e-01
-1.465261e-01
-1.458120e-01
-1.450395e-01
-1.441929e-01
-1.432592e-01
-1.422286e-01
-1.410946e-01
-1.398545e-01
-1.385104e-01
-1.370691e-01
-1.355427e-01
-1.339476e-01
-1.323046e-01
-1.306374e-01
-1.289710e-01
-1.273311e-01
-1.257420e-01
-1.242271e-01
-1.228080e-01
-1.215056e-01
-1.203393e-01
-1.193268e-01
-1.184824e-01
-1.178154e-01
-1.173288e-01
-1.170184e-01
-1.168727e-01
-1.168739e-01
-1.169981e-01
-1.172178e-01
-1.175036e-01
-1.178263e-01
-1.181577e-01
-1.184707e-01
-1.187387e-01
-1.189357e-01
-1.190364e-01
-1.190177e-01
-1.188595e-01
-1.185464e-01
-1.180675e-01
-1.174173e-01
-1.165957e-01
-1.156074e-01
-1.144627e-01
-1.131774e-01
-1.117731e-01
-1.102763e-01
-1.087177e-01
-1.071301e-01
-1.055470e-01
-1.039998e-01
-1.025163e-01
-1.011194e-01
-9.982644e-02
-9.864853e-02
-9.759101e-02
-9.665409e-02
-9.583379e-02
-9.512335e-02
-9.451491e-02
-9.400118e-02
-9.357668e-02
-9.323816e-02
-9.298463e-02
-9.281710e-02
-9.273763e-02
-9.274803e-02
-9.284830e-02
-9.303523e-02
-9.330124e-02
-9.363384e-02
-9.401587e-02
-9.442662e-02
-9.484313e-02
-9.524140e-02
-9.559748e-02
-9.588847e-02
-9.609325e-02
-9.619292e-02
-9.617100e-02
-9.601373e-02
-9.571025e-02
-9.525325e-02
-9.463989e-02
-9.387284e-02
-9.296098e-02
-9.191939e-02
-9.076853e-02
-8.953300e-02
-8.824034e-02
-8.692013e-02
-8.560343e-02
-8.432209e-02
-8.310820e-02
-8.199368e-02
-8.100976e-02
-8.018581e-02
-7.954817e-02
-7.911913e-02
-7.891661e-02
-7.895406e-02
-7.924069e-02
-7.978173e-02
-8.057872e-02
-8.162937e-02
-8.292723e-02
-8.446142e-02
-8.621664e-02
-8.817357e-02
-9.030970e-02
-9.260000e-02
-9.501731e-02
-9.753251e-02
-1.001149e-01
-1.027328e-01
-1.053541e-01
-1.079469e-01
-1.104803e-01
-1.129250e-01
-1.152543e-01
-1.174461e-01
-1.194830e-01
-1.213538e-01
-1.230525e-01
-1.245779e-01
-1.259324e-01
-1.271196e-01
-1.281433e-01
-1.290057e-01
-1.297079e-01
-1.302501e-01
-1.306332e-01
-1.308609e-01
-1.309400e-01
