EVENT_NAME: L_AQUILA
EVENT_ID: IT-2009-0009
EVENT_DATE_YYYYMMDD: 20090406
EVENT_TIME_HHMMSS: 013240
EVENT_LATITUDE_DEGREE: 42.3420
EVENT_LONGITUDE_DEGREE: 13.3800
EVENT_DEPTH_KM: 8.3
HYPOCENTER_REFERENCE: INGV-CNT_Seismic_Bulletin
MAGNITUDE_W: 6.1
MAGNITUDE_W_REFERENCE: INGV-CNT_Seismic_Bulletin
MAGNITUDE_L: 
MAGNITUDE_L_REFERENCE: 
FOCAL_MECHANISM: Normal faulting
NETWORK: IT
STATION_CODE: ANT
STATION_NAME: 
STATION_LATITUDE_DEGREE: 42.418110
STATION_LONGITUDE_DEGREE: 13.078598
STATION_ELEVATION_M: 568
LOCATION: 
SENSOR_DEPTH_M: 0.0
VS30_M/S: 912
SITE_CLASSIFICATION_EC8: A
MORPHOLOGIC_CLASSIFICATION: 
EPICENTRAL_DISTANCE_KM: 26.2
EARTHQUAKE_BACKAZIMUTH_DEGREE: 288.9
DATE_TIME_FIRST_SAMPLE_YYYYMMDD_HHMMSS: 20090406_013216.000
DATE_TIME_FIRST_SAMPLE_PRECISION: seconds
SAMPLING_INTERVAL_S: 0.005000
NDATA: 24000
DURATION_S: 120.000
STREAM: HNZ
UNITS: cm/s
INSTRUMENT: sensor = FBA-3 [Kinemetrics] | digitizer = Etna [Kinemetrics]
INSTRUMENT_ANALOG/DIGITAL: D
INSTRUMENTAL_FREQUENCY_HZ: 206.000
INSTRUMENTAL_DAMPING: 0.700000
FULL_SCALE_G: 1.0
N_BIT_DIGITAL_CONVERTER: 18
PGV_CM/S: -1.169867
TIME_PGV_S: 38.920000
BASELINE_CORRECTION: BASELINE REMOVED
FILTER_TYPE: BUTTERWORTH
FILTER_ORDER: 2
LOW_CUT_FREQUENCY_HZ: 0.100
HIGH_CUT_FREQUENCY_HZ: 40.000
LATE/NORMAL_TRIGGERED: NT
DATABASE_VERSION: 0.5
HEADER_FORMAT: DYNA 1.2
DATA_TYPE: VELOCITY
PROCESSING: manual (Paolucci et al., 2011)
DATA_TIMESTAMP_YYYYMMDD_HHMMSS: 20211011_154922.020
DATA_LICENSE: CC-BY3_0-IT (http://creativecommons.org/licenses/by/3.0/deed.en)
DATA_CITATION: Luzi L, Pacor F, Puglia R (2019). Italian Accelerometric Archive v 3.0 - Istituto Nazionale di Geofisica e Vulcanologia, Dipartimento della Protezione Civile Nazionale. doi: 10.13127/itaca.3.1
DATA_CREATOR: ITACA working group
ORIGINAL_DATA_MEDIATOR_CITATION: data obtained within the DPC-INGV data exchange agreements
ORIGINAL_DATA_MEDIATOR: Archive of Italian Department of Civil Protection
ORIGINAL_DATA_CREATOR_CITATION: Presidency Of Counsil Of Ministers-Civil Protection Department. (1972). Italian Strong Motion Network. Presidency of Counsil of Ministers - Civil Protection Department. https://doi.org/10.7914/SN/IT http://www.fdsn.org/networks/detail/IT/
ORIGINAL_DATA_CREATOR: network: IT (Italian Strong Motion Network (RAN)); owner: Presidency of Counsil of Ministers - Civil Protection Department (PCM - DPC)
USER1: 
USER2: 
USER3: 
USER4: 
USER5: 
[...]
-0.067038
-0.072638
-0.076729
-0.078606
-0.078279
-0.076554
-0.074770
-0.074156
-0.075203
-0.077548
-0.080339
-0.082679
-0.083866
-0.083495
-0.081558
-0.078469
-0.074893
-0.071476
-0.068650
-0.066617
-0.065435
-0.065043
-0.065229
-0.065648
-0.065866
-0.065433
-0.064059
-0.061828
-0.059204
-0.056773
-0.054899
-0.053502
-0.052086
-0.049962
-0.046519
-0.041484
-0.035091
-0.028056
-0.021271
-0.015333
-0.010186
-0.005192
0.000391
0.006885
0.014023
0.021198
0.027893
0.033986
0.039817
0.046013
0.053176
0.061582
0.071053
0.081049
0.090956
0.100417
0.109501
0.118573
0.127965
0.137591
0.146726
0.154150
0.158713
0.159977
0.158495
0.155471
0.152027
0.148617
0.144991
0.140651
0.135403
0.129649
0.124285
0.120368
0.118747
0.119860
0.123700
0.129860
0.137549
0.145591
0.152622
0.157561
0.160031
0.160292
0.158755
0.155610
0.150881
0.144775
0.137845
0.130771
0.123960
0.117354
0.110675
0.103913
0.097612
0.092703
0.089962
0.089477
0.090477
0.091635
0.091599
0.089420
0.084699
0.077563
0.068620
0.058881
0.049527
0.041545
0.035416
0.031066
0.028073
0.025935
0.024239
0.022674
0.020978
0.018902
0.016243
0.012947
0.009217
0.005456
0.002013
-0.001139
-0.004561
-0.009140
-0.015614
-0.024231
-0.034815
-0.047043
-0.060606
-0.075166
-0.090289
-0.105479
-0.120249
-0.134142
-0.146707
-0.157480
-0.165998
-0.171855
-0.174748
-0.174443
-0.170682
-0.163233
-0.152201
-0.138365
-0.123276
-0.108928
-0.097162
-0.089144
-0.085068
-0.084127
-0.084828
-0.085555
-0.085228
-0.083656
-0.081374
-0.079139
-0.077465
-0.076393
-0.075479
-0.073967
-0.071000
-0.065827
-0.058019
-0.047634
-0.035181
-0.021383
-0.006904
0.007785
0.022331
0.036335
0.049281
0.060649
0.070093
0.077482
0.082823
0.086212
0.087797
0.087750
0.086257
0.083506
0.079624
0.074625
0.068438
0.060988
0.052316
0.042656
0.032345
0.021650
0.010767
-0.000007
-0.010246
-0.019610
-0.028133
-0.036330
-0.045024
-0.054984
-0.066589
-0.079690
-0.093707
-0.107879
-0.121597
-0.134655
-0.147280
-0.159962
-0.173176
-0.187050
-0.201115
-0.214415
-0.226024
-0.235552
-0.243241
-0.249667
-0.255319
-0.260382
-0.264833
-0.268592
-0.271511
-0.273264
-0.273408
-0.271617
-0.267906
-0.262598
-0.256072
-0.248526
-0.240009
-0.230727
-0.221298
-0.212622
-0.205420
-0.199820
-0.195333
-0.191312
-0.187535
-0.184422
-0.182749
-0.183114
-0.185554
-0.189512
-0.194052
-0.198120
-0.200761
-0.201343
-0.199769
-0.196509
-0.192375
-0.188149
-0.184226
-0.180434
-0.176143
-0.170665
-0.163728
-0.155699
-0.147414
-0.139762
-0.133324
-0.128267
-0.124452
-0.121593
-0.119365
-0.117531
-0.116069
-0.115186
-0.115143
-0.116015
-0.117626
-0.119683
-0.121937
-0.124114
-0.125720
-0.125991
-0.124155
-0.119888
-0.113633
-0.106545
-0.100036
-0.095209
-0.092426
-0.091214
-0.090517
-0.089234
-0.086728
-0.083022
-0.078688
-0.074627
-0.071825
-0.071017
-0.072350
-0.075309
-0.078968
-0.082424
-0.085119
-0.086973
-0.088368
-0.090057
-0.092968
-0.097900
-0.105245
-0.114862
-0.126155
-0.138344
-0.150758
-0.162930
-0.174463
-0.184890
-0.193774
-0.200961
-0.206669
-0.211290
-0.215190
-0.218772
-0.222693
-0.227889
-0.235271
-0.245284
-0.257597
-0.271214
-0.285030
-0.298420
-0.311379
-0.324188
-0.336937
-0.349223
-0.360127
-0.368468
-0.373125
-0.373237
-0.368225
-0.357862
-0.342530
-0.323484
-0.302786
-0.282803
-0.265574
-0.252458
-0.244107
-0.240574
-0.241389
-0.245610
-0.251941
-0.258860
-0.264730
-0.267908
-0.266936
-0.260743
-0.248777
-0.231066
-0.208215
-0.181318
-0.151816
-0.121333
-0.091493
-0.063816
-0.039707
-0.020448
-0.007075
-0.000119
0.000656
-0.003739
-0.011864
-0.022314
-0.034013
-0.046236
-0.058430
-0.070029
-0.080446
-0.089204
-0.096121
-0.101451
-0.105900
-0.110370
-0.115519
-0.121462
-0.127838
-0.134077
-0.139611
-0.144022
-0.147115
-0.148854
-0.149209
-0.148006
-0.144904
-0.139547
-0.131788
-0.121838
-0.110281
-0.097889
-0.085381
-0.073351
-0.062356
-0.052988
-0.045769
-0.040864
-0.037840
-0.035799
-0.033869
-0.031694
-0.029619
-0.028483
-0.029193
-0.032425
-0.038559
-0.047692
-0.059578
-0.073613
-0.088931
-0.104599
-0.119768
-0.133623
-0.145288
-0.153804
-0.158246
-0.157957
-0.152786
-0.143145
-0.129797
-0.113523
-0.094823
-0.073830
-0.050504
-0.024966
0.002244
0.030112
0.057319
0.082488
0.104399
0.122167
0.135429
0.144538
0.150609
0.155329
0.160468
0.167271
0.176041
0.186188
0.196649
0.206407
0.214862
0.221922
0.227823
0.232861
0.237120
0.240234
0.241304
0.239145
0.232818
0.222186
0.208021
0.191599
0.174119
0.156376
0.138831
0.121874
0.106042
0.092026
0.080418
0.071413
0.064713
0.059715
0.055802
0.052536
0.049675
0.047119
0.044864
0.042948
0.041311
0.039587
0.036973
0.032296
0.024338
0.012316
-0.003747
-0.022979
-0.043942
-0.065017
-0.084777
-0.102258
-0.116977
-0.128680
-0.137014
-0.141370
-0.141016
-0.135363
-0.124150
-0.107479
-0.085819
-0.060052
-0.031470
-0.001657
0.027756
0.055385
0.080366
0.102514
0.122270
0.140381
0.157375
0.173107
0.186712
0.196980
0.202914
0.204077
0.200592
0.192896
0.181543
0.167173
0.150586
0.132733
0.114516
0.096582
0.079330
0.063118
0.048398
0.035578
0.024692
0.015210
0.006207
-0.003177
-0.013344
-0.024141
-0.035077
-0.045662
-0.055682
-0.065346
-0.075313
-0.086587
-0.100192
-0.116608
-0.135183
-0.154052
-0.170812
-0.183559
-0.191607
-0.195376
-0.195595
-0.192525
-0.185745
-0.174535
-0.158505
-0.138036
-0.114342
-0.089138
-0.064125
-0.040506
-0.018629
0.002252
0.023853
0.048210
0.076725
0.109436
0.144941
0.181001
0.215494
0.247160
0.275761
0.301675
0.325270
0.346494
0.364891
0.379833
0.390709
0.397097
0.398924
0.396556
0.390648
0.381861
0.370685
0.357519
0.342856
0.327356
0.311680
0.296205
0.280876
0.265372
0.249413
0.232985
0.216394
0.200153
0.184751
0.170505
0.157570
0.146050
0.135983
0.127166
0.119061
0.110962
0.102294
0.092784
0.082412
0.071290
0.059780
0.048805
0.039883
0.034560
0.033473
0.035695
0.038894
0.040175
0.037081
0.028325
0.014024
-0.004538
-0.025457
-0.046877
-0.067471
-0.086454
-0.103200
-0.116870
-0.126325
-0.130234
-0.127341
-0.116911
-0.099228
-0.075869
-0.049487
-0.023086
0.000922
0.021299
0.037932
0.051357
0.062176
0.070649
0.076639
0.079751
0.079514
0.075628
0.068361
0.058943
0.049715
0.043811
0.044405
0.053722
0.072288
0.098968
0.131716
0.168280
0.206485
0.244330
0.280125
0.312617
0.340891
0.364099
0.381204
0.391011
0.392495
0.385271
0.370003
0.348627
0.324236
0.300561
0.281183
0.268733
0.264369
0.267693
0.277045
0.290020
0.304038
0.316725
0.326124
0.330900
0.330567
0.325505
0.316713
0.305473
0.293038
0.280410
0.268209
0.256614
0.245418
0.234289
0.223255
0.213140
0.205559
0.202355
0.204734
0.212577
0.224330
0.237555
0.249802
0.259319
0.265283
0.267579
0.266474
0.262527
0.256661
0.250179
0.244572
0.241259
0.241379
0.245598
0.253878
0.265434
0.278975
0.293062
0.306403
0.318068
0.327638
0.335205
0.341132
0.345659
0.348617
0.349545
0.348139
0.344673
0.340047
0.335480
0.332117
0.330905
0.332797
0.338970
0.350749
0.369178
0.394397
0.425151
0.458756
0.491708
0.520681
0.543460
0.559368
0.568964
0.573251
0.572930
0.568063
0.558206
0.542898
0.522236
0.497254
0.469938
0.442882
0.418738
0.399669
0.387011
0.381220
0.382012
0.388511
0.399320
0.412633
0.426454
0.438871
0.448244
0.453241
0.452757
0.445922
0.432294
0.412090
0.386365
0.356983
0.326301
0.296748
0.270475
0.249167
0.234028
0.225902
0.225413
0.232924
0.248296
0.270567
0.297808
0.327250
0.355717
0.380438
0.399900
0.414175
0.424396
0.431723
0.436491
0.438010
0.435038
0.426611
0.412722
0.394481
0.373770
0.352678
0.332968
0.315684
0.300962
0.288076
0.275699
0.262355
0.246909
0.228929
0.208759
0.187296
0.165628
0.144703
0.125101
0.106913
0.089721
0.072712
0.054935
0.035690
0.014984
-0.006269
-0.026531
-0.044281
-0.058710
-0.070126
-0.079881
-0.089935
-0.102222
-0.118061
-0.137796
-0.160837
-0.186076
-0.212435
-0.239242
-0.266225
-0.293173
-0.319613
-0.344722
-0.367516
-0.387144
-0.403039
-0.414848
-0.422297
-0.425142
-0.423262
-0.416889
-0.406798
-0.394288
-0.380912
-0.368036
-0.356379
-0.345803
-0.335459
-0.324236
-0.311243
-0.296078
-0.278861
-0.260153
-0.240899
-0.222403
-0.206237
-0.193968
-0.186805
-0.185359
-0.189680
-0.199479
-0.214275
-0.233350
-0.255691
-0.280179
-0.306027
-0.333141
-0.362063
-0.393469
-0.427569
-0.463776
-0.500758
-0.536750
-0.569909
-0.598524
-0.621144
-0.636764
-0.645051
-0.646502
-0.642378
-0.634357
-0.624077
-0.612781
-0.601135
-0.589268
-0.576940
-0.563759
-0.549433
-0.533961
-0.517679
-0.501106
-0.484729
-0.468811
-0.453273
-0.437667
-0.421278
-0.403375
-0.383500
-0.361668
-0.338335
-0.314173
-0.289802
-0.265602
-0.241632
-0.217686
-0.193436
-0.168608
-0.143133
-0.117149
-0.090801
-0.063997
-0.036325
-0.007215
0.023781
0.056785
0.091574
0.127657
0.164330
0.200614
0.235189
0.266501
0.293055
0.313677
0.327574
0.334225
0.333291
0.324657
0.308590
0.285906
0.258002
0.226733
0.194148
0.162152
0.132206
0.105149
0.081184
0.060016
0.041219
0.024758
0.011327
0.002220
-0.001188
0.002005
0.011933
0.028003
0.049120
0.073932
0.101066
0.129311
0.157679
0.185322
0.211402
0.235140
0.255964
0.273564
0.287773
0.298338
0.304769
0.306405
0.302605
0.292934
0.277336
0.256351
0.231242
0.203926
0.176617
0.151323
0.129381
0.111189
0.096226
0.083389
0.071392
0.059075
0.045615
0.030544
0.013587
-0.005498
-0.026998
-0.051209
-0.078311
-0.108243
-0.140609
-0.174625
-0.209208
-0.243237
-0.275831
-0.306516
-0.335245
-0.362294
-0.388093
-0.413065
-0.437505
-0.461520
-0.484972
-0.507359
-0.527707
-0.544702
-0.557088
-0.564149
-0.565991
-0.563506
-0.558110
-0.551366
-0.544611
-0.538694
-0.533880
-0.529845
-0.525775
-0.520529
-0.512886
-0.501795
-0.486577
-0.467071
-0.443639
-0.416995
-0.387952
-0.357234
-0.325487
-0.293457
-0.262111
-0.232609
-0.206173
-0.183863
-0.166359
-0.153939
-0.146690
-0.144792
-0.148646
-0.158682
-0.174969
-0.196935
-0.223436
-0.253071
-0.284568
-0.317096
-0.350394
-0.384685
-0.420419
-0.457931
-0.497096
-0.537109
-0.576464
-0.613198
-0.645259
-0.670880
-0.688908
-0.699101
-0.702256
-0.700124
-0.695091
-0.689768
-0.686601
-0.687493
-0.693417
-0.704219
-0.718762
-0.735442
-0.752696
-0.769184
-0.783802
-0.795737
-0.804528
-0.809989
-0.812080
-0.810829
-0.806319
-0.798655
-0.787821
-0.773552
-0.755397
-0.732959
-0.706150
-0.675307
-0.641126
-0.604439
-0.565988
-0.526337
-0.485905
-0.445023
-0.404033
-0.363416
-0.323879
-0.286222
-0.251003
-0.218233
-0.187372
-0.157570
-0.128023
-0.098300
-0.068541
-0.039442
-0.012021
0.012700
0.033900
0.050999
0.063627
0.071632
0.075160
0.074735
0.071282
0.066003
0.060097
0.054428
0.049314
0.044518
0.039428
0.033359
0.025876
0.017028
0.007417
-0.001983
-0.010228
-0.016830
-0.021944
-0.026138
-0.029878
-0.033061
-0.034873
-0.034039
-0.029309
-0.019962
-0.006126
0.011199
0.030447
0.050005
0.068751
0.086350
0.103212
0.120201
0.138259
0.158072
0.179828
0.203165
0.227338
0.251554
0.275295
0.298420
0.321021
0.343200
0.364902
0.385835
0.405503
0.423334
0.438881
0.451994
0.462870
0.471936
0.479615
0.486163
0.491746
0.496665
0.501447
0.506686
0.512797
0.519883
0.527776
0.536167
0.544768
0.553436
0.562285
0.571754
0.582499
0.595073
0.609523
0.625160
0.640714
0.654772
0.666281
0.674839
0.680656
0.684305
0.686442
0.687696
0.688765
0.690495
0.693796
0.699387
0.707547
0.718032
0.730149
0.742911
0.755274
0.766378
0.775678
0.782958
0.788174
0.791220
0.791769
0.789265
0.783126
0.773077
0.759396
0.742962
0.725051
0.706974
0.689793
0.674253
0.660847
0.649865
0.641359
0.635137
0.630837
0.627989
0.625978
0.623958
0.620832
0.615357
0.606349
0.592968
0.575007
0.552960
0.527795
0.500630
0.472505
0.444333
0.416976
0.391317
0.368178
0.348138
0.331453
0.318114
0.307922
0.300466
0.295103
0.290985
0.287152
0.282684
0.276910
0.269489
0.260335
0.249500
0.237183
0.223819
0.210108
0.196772
0.184171
0.172074
0.159702
0.146037
0.130215
0.111823
0.091041
0.068563
0.045315
0.022192
-0.000028
-0.020669
-0.039233
-0.055509
-0.069580
-0.081696
-0.092114
-0.101009
-0.108504
-0.114739
-0.119936
-0.124377
-0.128277
-0.131631
-0.134232
-0.135856
-0.136508
-0.136579
-0.136803
-0.138081
-0.141244
-0.146891
-0.155324
-0.166544
-0.180263
-0.195968
-0.212978
-0.230505
-0.247722
-0.263840
-0.278163
-0.290110
-0.299253
-0.305350
-0.308384
-0.308594
-0.306479
-0.302731
-0.298127
-0.293483
-0.289683
-0.287678
-0.288417
-0.292708
-0.301114
-0.313960
-0.331441
-0.353785
-0.381344
-0.414459
-0.453126
-0.496655
-0.543572
-0.591887
-0.639590
-0.685121
-0.727688
-0.767360
-0.804907
-0.841417
-0.877882
-0.914889
-0.952436
-0.989907
-1.026216
-1.060092
-1.090376
-1.116248
-1.137264
-1.153245
-1.164118
-1.169762
-1.169867
-1.163861
-1.150973
-1.130487
-1.102119
-1.066319
-1.024321
-0.977894
-0.928944
-0.879123
-0.829551
-0.780716
-0.732592
-0.684938
-0.637625
-0.590839
-0.545093
-0.501082
-0.459428
-0.420422
-0.383848
-0.349004
-0.314958
-0.281000
-0.247052
-0.213848
-0.182740
-0.155227
-0.132417
-0.114686
-0.101636
-0.092347
-0.085761
-0.080984
-0.077364
-0.074461
-0.071977
-0.069709
-0.067552
-0.065503
-0.063603
-0.061887
-0.060366
-0.058962
-0.057408
-0.055226
-0.051768
-0.046271
-0.037943
-0.026152
-0.010645
0.008276
0.029757
0.052573
0.075350
0.096768
0.115724
0.131444
0.143517
0.151904
0.156948
0.159348
0.159996
0.159754
0.159360
0.159528
0.161107
0.165017
0.171874
0.181592
0.193320
0.205723
0.217447
0.227604
0.235998
0.242954
0.248957
0.254357
0.259244
0.263549
0.267313
0.270895
0.275037
0.280742
0.289034
0.300711
0.316178
0.335398
0.357928
0.383094
0.410236
0.438823
0.468382
0.498302
0.527689
0.555458
0.580667
0.602837
0.622049
0.638798
0.653768
0.667622
0.680924
0.694137
0.707629
0.721790
0.737192
0.754628
0.774895
0.798423
0.824945
0.853355
0.881847
0.908290
0.930676
0.947436
0.957570
0.960650
0.956738
0.946248
0.929775
0.907960
0.881447
0.850925
0.817162
0.781017
0.743363
0.705025
0.666776
0.629446
0.594028
0.561683
0.533610
0.510877
0.494212
0.483807
0.479179
0.479196
0.482298
0.486893
0.491802
0.496495
0.501032
0.505784
0.511132
0.517234
0.523873
0.530395
0.535749
0.538677
0.538031
0.533103
0.523746
0.510273
0.493223
0.473146
0.450431
0.425124
0.396856
0.365018
0.329130
0.289166
0.245666
0.199641
0.152356
0.105037
0.058592
0.013431
-0.030476
-0.073363
-0.115359
-0.156276
-0.195521
-0.232146
-0.265036
-0.293212
-0.316143
-0.333904
-0.347097
-0.356584
-0.363195
-0.367478
-0.369513
-0.368887
-0.364941
-0.357182
-0.345582
-0.330603
-0.313063
-0.293957
-0.274245
-0.254670
-0.235662
-0.217341
-0.199630
-0.182439
-0.165737
-0.149533
-0.133900
-0.119072
-0.105511
-0.093859
-0.084759
-0.078612
-0.075428
-0.074833
-0.076170
-0.078705
-0.081931
-0.085839
-0.090969
-0.098219
-0.108594
-0.122991
-0.142031
-0.165940
-0.194528
-0.227260
-0.263425
-0.302329
-0.343424
-0.386384
-0.431141
-0.477840
-0.526666
-0.577621
-0.630283
-0.683602
-0.735871
-0.785007
-0.828974
-0.866160
-0.895612
-0.917074
-0.930809
-0.937368
-0.937451
-0.931837
-0.921338
-0.906790
-0.889121
-0.869412
-0.848853
-0.828549
-0.809316
-0.791642
-0.775794
-0.761937
-0.750104
-0.740053
-0.731122
-0.722231
-0.712084
-0.699511
-0.683810
-0.664939
-0.643479
-0.620470
-0.597152
-0.574643
-0.553668
-0.534439
-0.516723
-0.500024
-0.483822
-0.467805
-0.452012
-0.436827
-0.422852
-0.410691
-0.400719
-0.392904
-0.386744
-0.381362
-0.375672
-0.368552
-0.359080
-0.346857
-0.332226
-0.316264
-0.300559
-0.286915
-0.277054
-0.272328
-0.273498
-0.280676
-0.293488
-0.311340
-0.333663
-0.360022
-0.390072
-0.423452
-0.459748
-0.498479
-0.539087
-0.580885
-0.622973
-0.664214
-0.703330
-0.739061
-0.770295
-0.796189
-0.816333
-0.830884
-0.840537
-0.846309
-0.849247
-0.850194
-0.849637
-0.847672
-0.844130
-0.838811
-0.831701
-0.823084
-0.813492
-0.803509
-0.793537
-0.783613
-0.773376
-0.762206
-0.749495
-0.734960
-0.718839
-0.701860
-0.684958
-0.668892
-0.653942
-0.639815
-0.625752
-0.610766
-0.593896
-0.574435
-0.552092
-0.527067
-0.500033
-0.472014
-0.444183
-0.417630
-0.393150
-0.371137
-0.351606
-0.334280
-0.318668
-0.304126
-0.289918
-0.275210
-0.259057
-0.240426
-0.218342
-0.192076
-0.161242
-0.125774
-0.085860
-0.041840
0.005910
0.057032
0.111084
0.167354
0.224724
0.281679
0.336510
0.387654
0.434038
0.475251
0.511478
0.543242
0.571089
0.595374
0.616214
0.633564
0.647349
0.657582
0.664438
0.668238
0.669397
0.668345
0.665483
0.661227
0.656074
0.650635
0.645600
0.641646
0.639289
0.638703
0.639541
0.640914
0.641611
0.640487
0.636837
0.630604
0.622387
0.613247
0.604329
0.596459
0.589950
0.584625
0.579930
0.575105
0.569439
0.562499
0.554272
0.545156
0.535798
0.526846
0.518754
0.511787
0.506183
0.502354
0.500977
0.502883
0.508875
0.519597
0.535464
0.556603
0.582786
0.613388
0.647423
0.683718
0.721143
0.758773
0.795845
0.831573
0.865023
0.895139
0.920868
0.941307
0.955834
0.964214
0.966680
0.963919
0.956964
0.947066
0.935578
0.923794
0.912730
0.902959
0.894591
0.887356
0.880717
0.873985
0.866436
0.857444
0.846619
0.833905
0.819541
0.803870
0.787110
0.769250
0.750111
0.729533
0.707573
0.684607
0.661290
0.638463
0.617013
0.597702
0.581023
0.567099
0.555702
0.546393
0.538662
0.532066
0.526348
0.521448
0.517360
0.513926
0.510701
0.507022
0.502200
0.495756
0.487568
0.477833
0.466889
0.455053
0.442577
0.429688
0.416587
0.403418
0.390249
0.377094
0.363977
0.351001
0.338387
0.326508
0.315892
0.307112
0.300596
0.296415
0.294180
0.293114
0.292302
0.291048
0.289175
0.287166
0.286046
0.287028
0.291073
0.298561
0.309218
0.322254
0.336656
0.351515
0.366317
0.381070
0.396225
0.412397
0.430018
0.449092
0.469177
0.489559
0.509474
0.528313
0.545725
0.561580
0.575816
0.588261
0.598544
0.606125
0.610463
0.611247
0.608516
0.602581
0.593826
0.582521
0.568743
0.552417
0.533424
0.511744
0.487562
0.461338
0.433817
0.405921
0.378599
0.352696
0.328866
0.307516
0.288806
0.272748
0.259372
0.248868
0.241558
0.237682
0.237164
0.239452
0.243468
0.247713
0.250579
0.250732
0.247394
0.240379
0.229958
0.216642
0.200944
0.183180
0.163435
0.141715
0.118175
0.093289
0.067818
0.042629
0.018469
