EVENT_NAME: L_AQUILA
EVENT_ID: IT-2009-0009
EVENT_DATE_YYYYMMDD: 20090406
EVENT_TIME_HHMMSS: 013240
EVENT_LATITUDE_DEGREE: 42.3420
EVENT_LONGITUDE_DEGREE: 13.3800
EVENT_DEPTH_KM: 8.3
HYPOCENTER_REFERENCE: INGV-CNT_Seismic_Bulletin
MAGNITUDE_W: 6.1
MAGNITUDE_W_REFERENCE: INGV-CNT_Seismic_Bulletin
MAGNITUDE_L: 
MAGNITUDE_L_REFERENCE: 
FOCAL_MECHANISM: Normal faulting
NETWORK: IT
STATION_CODE: ANT
STATION_NAME: 
STATION_LATITUDE_DEGREE: 42.418110
STATION_LONGITUDE_DEGREE: 13.078598
STATION_ELEVATION_M: 568
LOCATION: 
SENSOR_DEPTH_M: 0.0
VS30_M/S: 912
SITE_CLASSIFICATION_EC8: A
MORPHOLOGIC_CLASSIFICATION: 
EPICENTRAL_DISTANCE_KM: 26.2
EARTHQUAKE_BACKAZIMUTH_DEGREE: 288.9
DATE_TIME_FIRST_SAMPLE_YYYYMMDD_HHMMSS: 20090406_013216.000
DATE_TIME_FIRST_SAMPLE_PRECISION: seconds
SAMPLING_INTERVAL_S: 0.005000
NDATA: 24000
DURATION_S: 120.000
STREAM: HNN
UNITS: cm/s^2
INSTRUMENT: sensor = FBA-3 [Kinemetrics] | digitizer = Etna [Kinemetrics]
INSTRUMENT_ANALOG/DIGITAL: D
INSTRUMENTAL_FREQUENCY_HZ: 214.000
INSTRUMENTAL_DAMPING: 0.700000
FULL_SCALE_G: 1.0
N_BIT_DIGITAL_CONVERTER: 18
PGA_CM/S^2: -25.970692
TIME_PGA_S: 42.375000
BASELINE_CORRECTION: BASELINE REMOVED
FILTER_TYPE: BUTTERWORTH
FILTER_ORDER: 2
LOW_CUT_FREQUENCY_HZ: 0.100
HIGH_CUT_FREQUENCY_HZ: 40.000
LATE/NORMAL_TRIGGERED: NT
DATABASE_VERSION: 0.5
HEADER_FORMAT: DYNA 1.2
DATA_TYPE: ACCELERATION
PROCESSING: manual (Paolucci et al., 2011)
DATA_TIMESTAMP_YYYYMMDD_HHMMSS: 20211011_154921.161
DATA_LICENSE: CC-BY3_0-IT (http://creativecommons.org/licenses/by/3.0/deed.en)
DATA_CITATION: Luzi L, Pacor F, Puglia R (2019). Italian Accelerometric Archive v 3.0 - Istituto Nazionale di Geofisica e Vulcanologia, Dipartimento della Protezione Civile Nazionale. doi: 10.13127/itaca.3.1
DATA_CREATOR: ITACA working group
ORIGINAL_DATA_MEDIATOR_CITATION: data obtained within the DPC-INGV data exchange agreements
ORIGINAL_DATA_MEDIATOR: Archive of Italian Department of Civil Protection
ORIGINAL_DATA_CREATOR_CITATION: Presidency Of Counsil Of Ministers-Civil Protection Department. (1972). Italian Strong Motion Network. Presidency of Counsil of Ministers - Civil Protection Department. https://doi.org/10.7914/SN/IT http://www.fdsn.org/networks/detail/IT/
ORIGINAL_DATA_CREATOR: network: IT (Italian Strong Motion Network (RAN)); owner: Presidency of Counsil of Ministers - Civil Protection Department (PCM - DPC)
USER1: 
USER2: 
USER3: 
USER4: 
USER5: 
[...]
-6.423052
-6.275569
-6.017253
-5.617417
-5.064901
-4.360489
-3.522288
-2.592056
-1.626224
-0.674113
0.228770
1.046767
1.733097
2.240908
2.548218
2.665916
2.622033
2.450468
2.194711
1.905899
1.630917
1.413568
1.306415
1.364812
1.623936
2.080902
2.693678
3.394007
4.106698
4.781836
5.421205
6.057456
6.710823
7.374309
8.024125
8.634919
9.190995
9.693180
10.158579
10.605141
11.027923
11.382734
11.596647
11.608013
11.394734
10.957784
10.285176
9.343082
8.103039
6.576997
4.832551
2.980594
1.147846
-0.552865
-2.045494
-3.299537
-4.328812
-5.179306
-5.904113
-6.538901
-7.091498
-7.552230
-7.910461
-8.150446
-8.243717
-8.167748
-7.929649
-7.571467
-7.165616
-6.803479
-6.569564
-6.513670
-6.643509
-6.932370
-7.326308
-7.753076
-8.140196
-8.437520
-8.624572
-8.693839
-8.636073
-8.450832
-8.159763
-7.801085
-7.415722
-7.030456
-6.646235
-6.246921
-5.825664
-5.405013
-5.019530
-4.673948
-4.330859
-3.944341
-3.502406
-3.033716
-2.575445
-2.138427
-1.695683
-1.192359
-0.567488
0.215497
1.149174
2.194851
3.307216
4.446277
5.579032
6.673695
7.685966
8.547032
9.173491
9.504114
9.532605
9.307849
8.913837
8.451440
8.020256
7.700019
7.543630
7.577468
7.795541
8.151901
8.568449
8.961964
9.270360
9.464894
9.555323
9.586226
9.617070
9.697235
9.853401
10.089845
10.383549
10.671499
10.862128
10.878546
10.694244
10.333351
9.841170
9.256948
8.619466
7.982234
7.406238
6.953768
6.691557
6.673473
6.910488
7.360679
7.942988
8.558283
9.117963
9.578175
9.945351
10.249359
10.522831
10.791099
11.059906
11.314783
11.537790
11.718004
11.840583
11.876062
11.796762
11.603534
11.323492
10.977587
10.554849
10.021884
9.357246
8.574550
7.716330
6.833282
5.966444
5.135769
4.337307
3.549666
2.744547
1.896262
0.980326
-0.039647
-1.210238
-2.561386
-4.088794
-5.766262
-7.564367
-9.451968
-11.383957
-13.293272
-15.099736
-16.733206
-18.157537
-19.377960
-20.426735
-21.341862
-22.149454
-22.850147
-23.420122
-23.832632
-24.071791
-24.115696
-23.920691
-23.441898
-22.670448
-21.646517
-20.434219
-19.083618
-17.622690
-16.084511
-14.527005
-13.022180
-11.638631
-10.436271
-9.462327
-8.742489
-8.279451
-8.060697
-8.061160
-8.235785
-8.517901
-8.831143
-9.103623
-9.284277
-9.354138
-9.313838
-9.162855
-8.894615
-8.504726
-7.998772
-7.389243
-6.688471
-5.904649
-5.034935
-4.061814
-2.963709
-1.732671
-0.382384
1.054959
2.528929
3.968126
5.286444
6.403559
7.278625
7.933119
8.430822
8.833872
9.177216
9.473546
9.735442
9.985042
10.242881
10.515818
10.794816
11.060825
11.290238
11.462330
11.571292
11.623811
11.616425
11.515341
11.264614
10.823399
10.201856
9.467525
8.718603
8.039715
7.468866
6.996593
6.586938
6.201967
5.823883
5.462081
5.136425
4.856966
4.621004
4.420064
4.249523
4.114371
4.013622
3.916895
3.763599
3.490292
3.068178
2.507704
1.824975
1.028062
0.138042
-0.796217
-1.706244
-2.528280
-3.225548
-3.781859
-4.178678
-4.398317
-4.454003
-4.400423
-4.300637
-4.187248
-4.054488
-3.861812
-3.535189
-2.989931
-2.182384
-1.153309
-0.012068
1.132238
2.218933
3.223720
4.125727
4.894983
5.499442
5.911970
6.110879
6.090656
5.886288
5.583283
5.291862
5.095962
5.013252
4.996193
4.970579
4.883608
4.731174
4.554064
4.416648
4.380794
4.480580
4.708663
5.023857
5.373423
5.712191
6.007633
6.234415
6.365613
6.366542
6.203422
5.865007
5.374394
4.785400
4.170040
3.597499
3.115643
2.747260
2.497923
2.360856
2.311715
2.308118
2.299276
2.231709
2.053666
1.730710
1.266188
0.709942
0.146724
-0.331486
-0.652390
-0.774604
-0.690189
-0.426023
-0.037334
0.405191
0.832018
1.192467
1.461144
1.636560
1.740739
1.812266
1.893539
2.022292
2.227667
2.521401
2.881369
3.242237
3.507373
3.583590
3.422071
3.033976
2.471551
1.798465
1.071822
0.332831
-0.403668
-1.149414
-1.927153
-2.758502
-3.662837
-4.656540
-5.746507
-6.921935
-8.152331
-9.389949
-10.571263
-11.624809
-12.485585
-13.100080
-13.424705
-13.434233
-13.135502
-12.568498
-11.788526
-10.846013
-9.781590
-8.630134
-7.424155
-6.197804
-4.992944
-3.861052
-2.856789
-2.030139
-1.422659
-1.071552
-1.012958
-1.267899
-1.825002
-2.640098
-3.647371
-4.771923
-5.936753
-7.072406
-8.132946
-9.097233
-9.956596
-10.706418
-11.348680
-11.907503
-12.431458
-12.963688
-13.511703
-14.044552
-14.510208
-14.857580
-15.047456
-15.056737
-14.891139
-14.587350
-14.191625
-13.736174
-13.227713
-12.654642
-12.003987
-11.265557
-10.432244
-9.508197
-8.504848
-7.426776
-6.269849
-5.029920
-3.711815
-2.332658
-0.919693
0.493456
1.868603
3.161518
4.328271
5.336864
6.169325
6.821369
7.307595
7.662805
7.927366
8.125719
8.261182
8.324004
8.301288
8.189581
8.003006
7.773245
7.545796
7.371991
7.293725
7.328939
7.479181
7.749571
8.147618
8.671860
9.313106
10.055204
10.873437
11.738597
12.615577
13.461412
14.237377
14.925053
15.530179
16.066488
16.528162
16.876139
17.049049
16.989273
16.669559
16.103186
15.331322
14.403417
13.366081
12.253053
11.074196
9.819487
8.477376
7.053086
5.581135
4.128753
2.780298
1.604427
0.631981
-0.139391
-0.728940
-1.159164
-1.449067
-1.614559
-1.675639
-1.664464
-1.618784
-1.567468
-1.530853
-1.527832
-1.573890
-1.675970
-1.830589
-2.029499
-2.271779
-2.568503
-2.939459
-3.411221
-4.008653
-4.738713
-5.583937
-6.509057
-7.473906
-8.450687
-9.432747
-10.420402
-11.397261
-12.327713
-13.178328
-13.932909
-14.585725
-15.124909
-15.524425
-15.752073
-15.780500
-15.590932
-15.172896
-14.524290
-13.652805
-12.570712
-11.288641
-9.828124
-8.238651
-6.588573
-4.937557
-3.318256
-1.736321
-0.183641
1.348052
2.862099
4.349369
5.777503
7.094838
8.244032
9.167743
9.811269
10.130149
10.095476
9.698960
8.966484
7.969266
6.815604
5.623306
4.491183
3.486575
2.642814
1.958380
1.408976
0.973173
0.647173
0.435680
0.335871
0.330407
0.387451
0.464286
0.507775
0.447538
0.203609
-0.274555
-0.968704
-1.796621
-2.656396
-3.467838
-4.192888
-4.842894
-5.470476
-6.141049
-6.896290
-7.731961
-8.602789
-9.444023
-10.193714
-10.813540
-11.301783
-11.687317
-12.009034
-12.293715
-12.545327
-12.752807
-12.910635
-13.034750
-13.155179
-13.286093
-13.404233
-13.472260
-13.484757
-13.473979
-13.474901
-13.501156
-13.550881
-13.622098
-13.717028
-13.832310
-13.945729
-14.010333
-13.956873
-13.704922
-13.186129
-12.372942
-11.287678
-9.975997
-8.476320
-6.824601
-5.084484
-3.356022
-1.731406
-0.241404
1.139105
2.444642
3.692194
4.884377
6.019993
7.101348
8.135236
9.121042
10.043358
10.882905
11.618894
12.222696
12.670345
12.963587
13.140430
13.265945
13.403534
13.590904
13.836698
14.135681
14.489582
14.912980
15.426413
16.047768
16.776682
17.580517
18.404560
19.198530
19.933735
20.604404
21.210632
21.728937
22.096945
22.225006
22.025705
21.449764
20.514103
19.298740
17.906036
16.419037
14.895870
13.387612
11.943004
10.592168
9.333672
8.141194
6.983182
5.841290
4.718161
3.631949
2.602672
1.644639
0.770908
-0.004911
-0.682744
-1.294267
-1.900735
-2.566322
-3.329936
-4.195377
-5.139289
-6.126828
-7.123998
-8.102878
-9.044178
-9.936710
-10.773361
-11.553128
-12.290156
-13.016633
-13.772746
-14.580785
-15.412589
-16.182594
-16.778248
-17.097347
-17.065231
-16.639620
-15.817260
-14.634517
-13.157455
-11.476125
-9.703120
-7.959156
-6.349768
-4.951711
-3.809172
-2.923576
-2.238605
-1.658513
-1.107965
-0.572062
-0.077581
0.351236
0.717671
1.048840
1.380301
1.743479
2.155179
2.609736
3.083410
3.550662
3.998950
4.432950
4.869689
5.325940
5.800686
6.269803
6.695016
7.028507
7.217794
7.223179
7.035718
6.679334
6.197853
5.643934
5.077885
4.560377
4.129712
3.786800
3.508880
3.272643
3.063955
2.879272
2.722925
2.600064
2.509461
2.438985
2.369307
2.280983
2.153022
1.958814
1.670691
1.271803
0.767799
0.190333
-0.418871
-1.035235
-1.655101
-2.273771
-2.873912
-3.437692
-3.962502
-4.456985
-4.923273
-5.350194
-5.717301
-5.997733
-6.161735
-6.178008
-6.015252
-5.659158
-5.128932
-4.467347
-3.722590
-2.944929
-2.190745
-1.523645
-1.004747
-0.669110
-0.508067
-0.472355
-0.491358
-0.503169
-0.475832
-0.401481
-0.279317
-0.109988
0.097218
0.320504
0.534719
0.720618
0.866243
0.971746
1.059991
1.176911
1.373587
1.683426
2.110054
2.630364
3.209336
3.817004
4.436503
5.061635
5.693883
6.340902
7.009031
7.699210
8.413675
9.158639
9.938258
10.748053
11.571207
12.380760
13.145849
13.838495
14.442856
14.960982
15.405921
15.788466
16.107906
16.347900
16.476040
16.449247
16.229004
15.798508
15.167595
14.364759
13.419437
12.346463
11.156515
9.879449
8.559277
7.227462
5.893804
4.559673
3.233398
1.934979
0.691893
-0.463864
-1.496248
-2.368025
-3.046634
-3.517507
-3.802228
-3.958548
-4.055604
-4.150197
-4.276888
-4.444608
-4.643482
-4.860020
-5.081100
-5.282586
-5.420769
-5.445135
-5.327600
-5.077159
-4.727653
-4.322604
-3.910323
-3.536908
-3.234076
-3.013201
-2.870187
-2.797637
-2.796045
-2.871822
-3.023609
-3.237016
-3.492149
-3.765887
-4.027542
-4.243328
-4.392084
-4.477639
-4.525744
-4.569958
-4.638434
-4.747432
-4.896291
-5.065445
-5.229516
-5.374731
-5.500611
-5.612991
-5.720045
-5.828279
-5.939876
-6.056824
-6.184668
-6.327559
-6.484206
-6.653294
-6.840784
-7.063842
-7.349897
-7.729834
-8.227252
-8.847169
-9.575626
-10.391366
-11.272221
-12.194419
-13.134950
-14.067850
-14.951764
-15.733471
-16.371639
-16.850145
-17.168213
-17.323931
-17.304253
-17.086342
-16.647591
-15.972143
-15.049681
-13.874162
-12.446901
-10.781678
-8.908457
-6.873591
-4.740920
-2.594875
-0.533814
1.352924
3.013497
4.442658
5.658842
6.675761
7.495795
8.118623
8.550446
8.805980
8.904485
8.869308
8.728193
8.513685
8.270752
8.054181
7.910349
7.868945
7.943880
8.131195
8.411793
8.757284
9.131015
9.489609
9.788375
9.987395
10.062584
10.018524
9.885136
9.700416
9.497530
9.298398
9.108741
8.918713
8.716085
8.502581
8.297225
8.128248
8.020622
7.985297
8.016605
8.098941
8.218383
8.363545
8.516034
8.653915
8.764214
8.844515
8.894728
8.906843
8.861074
8.733262
8.501774
8.147049
7.655649
7.032389
6.304253
5.506771
4.671067
3.824222
2.989298
2.176390
1.372108
0.542441
-0.346418
-1.305036
-2.311192
-3.319460
-4.282704
-5.172899
-5.989031
-6.744415
-7.453995
-8.138597
-8.824005
-9.528894
-10.265924
-11.046081
-11.862558
-12.679239
-13.444348
-14.104548
-14.610938
-14.927764
-15.038253
-14.944169
-14.663037
-14.226566
-13.685528
-13.110461
-12.571093
-12.109503
-11.735080
-11.439171
-11.214223
-11.067771
-11.020401
-11.089391
-11.275914
-11.570511
-11.966286
-12.455212
-13.014494
-13.607111
-14.193829
-14.741562
-15.224638
-15.623858
-15.926372
-16.126585
-16.225086
-16.214928
-16.063114
-15.721031
-15.159754
-14.387773
-13.442834
-12.374445
-11.225117
-10.019473
-8.766759
-7.470263
-6.128313
-4.726289
-3.238045
-1.641586
0.062695
1.847139
3.663896
5.448375
7.128184
8.641301
9.943115
11.002652
11.805176
12.363328
12.720049
12.931905
13.043662
13.074081
13.024343
12.896995
12.705255
12.472706
12.229855
12.007576
11.830035
11.713339
11.669408
11.704685
11.814256
11.985240
12.210802
12.501483
12.881389
13.370669
13.971424
14.670000
15.446053
16.272358
17.112801
17.930428
18.695086
19.383692
19.979864
20.471075
20.842003
21.074293
21.151983
21.063881
20.805735
20.383617
19.811520
19.101053
18.252541
17.256657
16.101208
14.776883
13.285934
11.649120
9.900912
8.077783
6.210169
4.320853
2.429460
0.558308
-1.266168
-3.012749
-4.647426
-6.143355
-7.486836
-8.674403
-9.710917
-10.608200
-11.381323
-12.044325
-12.608205
-13.083909
-13.483052
-13.813962
-14.084623
-14.311664
-14.523741
-14.755080
-15.029488
-15.343037
-15.660817
-15.930679
-16.100288
-16.127220
-15.982880
-15.652588
-15.131141
-14.417763
-13.520703
-12.465741
-11.292601
-10.044043
-8.760836
-7.482480
-6.249641
-5.107443
-4.098452
-3.239244
-2.505183
-1.839327
-1.170447
-0.431475
0.420727
1.394527
2.470984
3.614400
4.772109
5.881896
6.892022
7.771915
8.512029
9.122490
9.629243
10.065484
10.461530
10.841251
11.224205
11.622076
12.031744
12.437966
12.822824
13.171183
13.472762
13.728075
13.955116
14.183028
14.437256
14.732258
15.069782
15.436675
15.806115
16.145714
16.426954
16.627432
16.726622
16.704882
16.550270
16.264582
15.862829
15.368580
14.807006
14.200408
13.566961
12.919061
12.262750
11.600186
10.931144
10.249962
9.544974
8.805582
8.030544
7.230863
6.426949
5.646477
4.920425
4.265239
3.664373
3.074118
2.444353
1.734228
0.922404
0.009403
-0.990700
-2.060821
-3.185740
-4.349582
-5.533676
-6.719638
-7.892775
-9.045534
-10.179636
-11.302245
-12.420581
-13.539152
-14.655260
-15.753864
-16.810909
-17.803925
-18.720238
-19.560707
-20.335897
-21.054422
-21.719427
-22.337072
-22.921152
-23.489122
-24.053068
-24.609352
-25.131290
-25.568665
-25.862867
-25.970692
-25.869307
-25.539873
-24.961187
-24.128256
-23.068947
-21.835667
-20.487677
-19.081944
-17.666346
-16.270578
-14.906291
-13.578900
-12.296156
-11.068793
-9.906848
-8.808968
-7.755350
-6.718355
-5.679640
-4.637046
-3.601924
-2.596496
-1.656872
-0.831824
-0.163265
0.332843
0.660276
0.833069
0.883535
0.864969
0.840713
0.876713
1.030862
1.333268
1.781120
2.352914
3.022847
3.773774
4.604284
5.515541
6.496150
7.525810
8.582274
9.644357
10.693096
11.704746
12.647928
13.490882
14.206261
14.770805
15.162858
15.367499
15.388104
15.244619
14.962643
14.569980
14.095932
13.564760
12.989243
12.371568
11.706114
10.980975
10.184626
9.312648
8.367018
7.357722
6.309238
5.260308
4.251645
3.309490
2.443404
1.658647
0.966009
0.383903
-0.066614
-0.369627
-0.517470
-0.507044
-0.333529
0.010026
0.529079
1.225619
2.091817
3.099764
4.199051
5.326786
6.424686
7.446918
8.351392
9.093336
9.632199
9.947274
10.047420
9.955814
9.686510
9.241958
8.625380
7.848165
6.926874
5.879921
4.731032
3.513562
2.264912
1.013482
-0.218195
-1.395369
-2.469488
-3.395131
-4.145746
-4.720946
-5.146137
-5.463070
-5.714574
-5.939024
-6.174024
-6.455791
-6.814462
-7.265600
-7.805704
-8.418774
-9.080563
-9.761797
-10.435120
-11.076234
-11.662304
-12.168494
-12.566274
-12.835746
-12.977861
-13.011410
-12.965816
-12.874669
-12.767806
-12.664944
-12.567159
-12.453611
-12.296456
-12.074663
-11.770686
-11.367526
-10.855500
-10.238253
-9.530609
-8.748245
-7.895962
-6.970258
-5.975808
-4.926437
-3.829532
-2.685163
-1.496399
-0.272779
0.968500
2.202825
3.400832
4.529881
5.559031
6.468201
7.253498
7.924543
8.498110
8.992938
9.423841
9.795548
10.100376
10.321090
10.437535
10.432492
10.294951
10.025024
9.640037
9.170298
8.644504
8.083224
7.500976
6.906191
6.303337
5.694421
5.076691
4.446325
3.803654
3.147991
2.469960
1.756792
1.007285
0.240455
-0.509990
-1.209299
-1.829097
-2.346719
-2.744880
-3.010910
-3.137213
-3.125234
-2.987774
-2.748514
-2.436732
-2.077602
-1.687977
-1.278219
-0.852913
-0.415930
0.017716
0.417152
0.738043
0.924257
0.922541
0.707909
0.292528
-0.285544
-0.976574
-1.727574
-2.490314
-3.231500
-3.931967
-4.572946
-5.130702
-5.587222
-5.936556
-6.176370
-6.302425
-6.314769
-6.219653
-6.022621
-5.725425
-5.329000
-4.842022
-4.289099
-3.701300
-3.100060
-2.497698
-1.907834
-1.354344
-0.870812
-0.486153
-0.215644
-0.062686
-0.013334
-0.036140
-0.100045
-0.182587
-0.260203
-0.302643
-0.276690
-0.155164
0.076606
0.423677
0.881243
1.428852
2.034577
2.669497
3.319715
3.986243
4.673779
5.378251
6.081517
6.754433
7.361929
7.870792
8.262128
8.532976
8.686745
8.731265
8.682168
8.560916
8.385293
8.160306
7.883540
7.554224
7.170235
6.727033
6.224716
5.669537
5.069834
4.435138
3.783328
3.146638
2.560421
2.049768
1.629671
1.304161
1.064461
0.895782
0.784288
0.717376
0.680622
0.655792
0.622244
0.563903
0.477690
0.371217
0.251624
0.121317
-0.018104
-0.165772
-0.324642
-0.499746
-0.693186
-0.896651
-1.089085
-1.247621
-1.355924
-1.403552
-1.389851
-1.326778
-1.228658
-1.101821
-0.949339
-0.781721
-0.618491
-0.479994
-0.377256
-0.310330
-0.279706
-0.294893
-0.366891
-0.498080
-0.680605
-0.897590
-1.124431
-1.333313
-1.498777
-1.599848
-1.622288
-1.562217
-1.427317
-1.233480
-0.998071
-0.741001
-0.491193
-0.280412
-0.129707
-0.043648
-0.013548
-0.024536
-0.060236
-0.103365
-0.133834
-0.128344
-0.064752
0.074672
0.300933
0.611274
0.988094
1.408070
1.844828
2.264944
2.633262
2.925659
3.136902
3.280001
3.376457
3.442130
3.482539
3.498382
3.488424
3.450086
3.382688
3.287932
3.170027
3.040275
2.917086
2.818426
2.753832
2.720726
2.709812
2.715540
2.739512
2.785228
2.852729
2.939654
3.044022
3.162044
3.286863
3.412144
3.534001
3.649187
3.753639
3.842702
3.911468
3.955572
3.972199
3.959272
3.913294
3.827647
3.693335
3.504159
3.263412
2.984500
2.684587
2.377801
2.068522
1.745725
1.386137
0.964175
0.459086
-0.140407
-0.831410
-1.595251
-2.399110
-3.200271
-3.954139
-4.624353
-5.187852
-5.630523
-5.945213
-6.140229
-6.244503
-6.299211
-6.342496
-6.398227
-6.475070
-6.573637
-6.695754
-6.849016
-7.041142
-7.270435
-7.522963
-7.777218
-8.013134
-8.218901
-8.388817
-8.518424
-8.605442
-8.652182
-8.664236
-8.650546
-8.625003
-8.604169
-8.605975
-8.649125
-8.747556
-8.907086
-9.127232
-9.402992
-9.725102
-10.079421
-10.448229
-10.811203
-11.144930
-11.427137
-11.641417
-11.776202
-11.822441
-11.774827
-11.638275
-11.431346
-11.178040
-10.895607
-10.589736
-10.259613
-9.904674
-9.527581
-9.135116
-8.733580
-8.322660
-7.895370
-7.439800
-6.942791
-6.395124
-5.791609
-5.130994
-4.417091
-3.655126
-2.852335
-2.023177
-1.183841
-0.345820
0.478563
1.272816
2.019570
2.703943
3.318139
3.861977
4.338395
4.752110
5.111263
5.427530
5.713623
5.982448
6.250232
6.536587
6.857678
7.217970
7.609945
8.022312
8.445012
8.868461
9.280980
9.666418
10.008517
10.297979
10.534009
10.724411
10.884433
11.031558
11.178695
11.327133
11.465549
11.578682
11.654758
11.686435
11.672760
11.620820
11.541137
11.444478
11.340926
11.232555
11.110007
10.958141
10.761258
10.508230
10.194984
9.820883
9.382961
8.874995
8.294520
7.643540
6.922048
6.127315
5.252716
4.289968
3.238972
2.110218
0.923437
-0.292952
-1.511408
-2.717550
-3.911046
-5.094577
-6.263699
-7.406610
-8.507488
-9.547869
-10.510513
-11.385435
-12.169758
-12.861805
-13.459631
-13.964724
-14.382210
-14.715743
-14.961064
-15.104939
