EVENT_NAME: L_AQUILA
EVENT_ID: IT-2009-0009
EVENT_DATE_YYYYMMDD: 20090406
EVENT_TIME_HHMMSS: 013240
EVENT_LATITUDE_DEGREE: 42.3420
EVENT_LONGITUDE_DEGREE: 13.3800
EVENT_DEPTH_KM: 8.3
HYPOCENTER_REFERENCE: INGV-CNT_Seismic_Bulletin
MAGNITUDE_W: 6.1
MAGNITUDE_W_REFERENCE: INGV-CNT_Seismic_Bulletin
MAGNITUDE_L: 
MAGNITUDE_L_REFERENCE: 
FOCAL_MECHANISM: Normal faulting
NETWORK: IV
STATION_CODE: GUMA
STATION_NAME: 
STATION_LATITUDE_DEGREE: 43.062700
STATION_LONGITUDE_DEGREE: 13.335200
STATION_ELEVATION_M: 574
LOCATION: 
SENSOR_DEPTH_M: 0.0
VS30_M/S: 488
SITE_CLASSIFICATION_EC8: B
MORPHOLOGIC_CLASSIFICATION: 
EPICENTRAL_DISTANCE_KM: 80.1
EARTHQUAKE_BACKAZIMUTH_DEGREE: 357.4
DATE_TIME_FIRST_SAMPLE_YYYYMMDD_HHMMSS: 20090406_013152.000
DATE_TIME_FIRST_SAMPLE_PRECISION: milliseconds
SAMPLING_INTERVAL_S: 0.005000
NDATA: 62478
DURATION_S: 312.390
STREAM: HNE
UNITS: cm/s
INSTRUMENT: sensor = EPISENSOR-FBA-ES-T-CL-2G-FS-40-VPP [Unknown] | digitizer = Unknown [Unknown]
INSTRUMENT_ANALOG/DIGITAL: D
INSTRUMENTAL_FREQUENCY_HZ: 
INSTRUMENTAL_DAMPING: 
FULL_SCALE_G: 
N_BIT_DIGITAL_CONVERTER: 
PGV_CM/S: -1.700457
TIME_PGV_S: 86.525000
BASELINE_CORRECTION: BASELINE REMOVED
FILTER_TYPE: BUTTERWORTH
FILTER_ORDER: 2
LOW_CUT_FREQUENCY_HZ: 0.040
HIGH_CUT_FREQUENCY_HZ: 40.000
LATE/NORMAL_TRIGGERED: NT
DATABASE_VERSION: 0.5
HEADER_FORMAT: DYNA 1.2
DATA_TYPE: VELOCITY
PROCESSING: manual (Paolucci et al., 2011)
DATA_TIMESTAMP_YYYYMMDD_HHMMSS: 20211011_160607.463
DATA_LICENSE: CC-BY4_0 (http://creativecommons.org/licenses/by/4.0/)
DATA_CITATION: Luzi L, Pacor F, Puglia R (2019). Italian Accelerometric Archive v 3.0 - Istituto Nazionale di Geofisica e Vulcanologia, Dipartimento della Protezione Civile Nazionale. doi: 10.13127/itaca.3.1
DATA_CREATOR: ITACA working group
ORIGINAL_DATA_MEDIATOR_CITATION: Orfeus - European Integrated Data Archive (EIDA) http://www.orfeus-eu.org/eida/
ORIGINAL_DATA_MEDIATOR: Orfeus - European Integrated Data Archive (EIDA)
ORIGINAL_DATA_CREATOR_CITATION: INGV Seismological Data Centre. (1997). Rete Sismica Nazionale (RSN). Istituto Nazionale di Geofisica e Vulcanologia (INGV), Italy. https://doi.org/10.13127/SD/X0FXnH7QfY http://www.fdsn.org/networks/detail/IV/
ORIGINAL_DATA_CREATOR: network: IV (Italian National Seismic Network (INSN)); owner: Istituto Nazionale di Geofisica e Vulcanologia (INGV)
USER1: 
USER2: 
USER3: 
USER4: 
USER5: 
[...]
-0.034570
-0.005190
0.020722
0.042809
0.060501
0.073041
0.079592
0.079371
0.071795
0.056571
0.033808
0.004123
-0.031440
-0.071617
-0.115083
-0.160606
-0.207249
-0.254403
-0.301662
-0.348772
-0.395633
-0.442276
-0.488799
-0.535236
-0.581435
-0.627019
-0.671378
-0.713683
-0.753047
-0.788661
-0.819817
-0.846023
-0.867221
-0.883832
-0.896599
-0.906364
-0.913836
-0.919393
-0.922992
-0.924185
-0.922294
-0.916678
-0.906866
-0.892574
-0.873793
-0.850832
-0.824189
-0.794441
-0.762224
-0.728128
-0.692551
-0.655649
-0.617370
-0.577559
-0.536052
-0.492730
-0.447595
-0.400842
-0.352785
-0.303799
-0.254431
-0.205481
-0.157905
-0.112710
-0.070850
-0.033069
0.000168
0.028601
0.052093
0.070565
0.084031
0.092698
0.096956
0.097284
0.094278
0.088686
0.081287
0.072794
0.063866
0.055030
0.046613
0.038789
0.031722
0.025644
0.020853
0.017616
0.016132
0.016545
0.018856
0.022852
0.028215
0.034627
0.041756
0.049310
0.057141
0.065271
0.073946
0.083690
0.095275
0.109629
0.127673
0.150084
0.177155
0.208772
0.244368
0.282963
0.323386
0.364471
0.405128
0.444421
0.481623
0.516170
0.547630
0.575712
0.600285
0.621348
0.638896
0.652755
0.662559
0.667816
0.667923
0.662267
0.650436
0.632294
0.607885
0.577392
0.541143
0.499601
0.453389
0.403291
0.350223
0.295234
0.239435
0.183899
0.129692
0.077913
0.029571
-0.014514
-0.053681
-0.087410
-0.115346
-0.137313
-0.153352
-0.163741
-0.168971
-0.169676
-0.166477
-0.159802
-0.149897
-0.136946
-0.121098
-0.102534
-0.081588
-0.058728
-0.034406
-0.008998
0.017153
0.043685
0.070157
0.096010
0.120599
0.143229
0.163253
0.180180
0.193653
0.203406
0.209362
0.211682
0.210693
0.206878
0.200907
0.193567
0.185639
0.177809
0.170625
0.164491
0.159687
0.156367
0.154630
0.154594
0.156338
0.159861
0.165210
0.172546
0.182070
0.194018
0.208702
0.226478
0.247675
0.272505
0.300967
0.332827
0.367654
0.404873
0.443903
0.484262
0.525474
0.566977
0.608190
0.648564
0.687601
0.724909
0.760225
0.793390
0.824327
0.853033
0.879594
0.904245
0.927311
0.949054
0.969617
0.989000
1.006951
1.022936
1.036252
1.046134
1.051831
1.052749
1.048587
1.039400
1.025591
1.007804
0.986817
0.963463
0.938496
0.912469
0.885811
0.858925
0.832170
0.805871
0.780370
0.755954
0.732773
0.710855
0.690167
0.670684
0.652422
0.635415
0.619692
0.605292
0.592178
0.580156
0.568930
0.558134
0.547298
0.535916
0.523594
0.510100
0.495354
0.479391
0.462318
0.444278
0.425396
0.405707
0.385202
0.363932
0.341967
0.319332
0.296073
0.272327
0.248341
0.224572
0.201792
0.181042
0.163467
0.150094
0.141612
0.138266
0.139846
0.145758
0.155234
0.167540
0.181991
0.197935
0.214846
0.232335
0.250092
0.267878
0.285478
0.302586
0.318767
0.333525
0.346467
0.357485
0.366767
0.374655
0.381503
0.387548
0.392776
0.397021
0.400278
0.402910
0.405627
0.409341
0.414945
0.423084
0.434043
0.447750
0.463857
0.481846
0.501058
0.520717
0.540109
0.558709
0.576103
0.591910
0.605770
0.617303
0.626159
0.632185
0.635574
0.636888
0.636986
0.636847
0.637422
0.639514
0.643599
0.649670
0.657331
0.665972
0.674885
0.683414
0.691089
0.697549
0.702385
0.705063
0.704914
0.701173
0.693054
0.679822
0.660945
0.636247
0.605875
0.570217
0.529940
0.485959
0.439282
0.390967
0.342168
0.294137
0.248156
0.205473
0.167246
0.134474
0.107885
0.087840
0.074433
0.067659
0.067416
0.073439
0.085303
0.102387
0.123833
0.148671
0.176003
0.205138
0.235659
0.267464
0.300774
0.336132
0.374286
0.415998
0.461950
0.512655
0.568286
0.628587
0.692974
0.760609
0.830425
0.901171
0.971476
1.039924
1.105203
1.166212
1.222100
1.272243
1.316081
1.352991
1.382362
1.403761
1.417040
1.422466
1.420797
1.413065
1.400206
1.382848
1.361256
1.335385
1.304988
1.269700
1.229105
1.182843
1.130648
1.072365
1.008090
0.938260
0.863582
0.784994
0.703682
0.620993
0.538325
0.457077
0.378564
0.303931
0.234103
0.169782
0.111531
0.059863
0.015155
-0.022468
-0.053126
-0.077213
-0.095494
-0.109075
-0.119250
-0.127341
-0.134532
-0.141722
-0.149436
-0.157771
-0.166424
-0.174820
-0.182210
-0.187754
-0.190721
-0.190652
-0.187383
-0.181074
-0.172264
-0.161795
-0.150682
-0.140002
-0.130817
-0.124053
-0.120382
-0.120106
-0.123186
-0.129385
-0.138396
-0.149989
-0.164219
-0.181466
-0.202247
-0.227038
-0.256181
-0.289753
-0.327480
-0.368746
-0.412691
-0.458362
-0.504838
-0.551198
-0.596483
-0.639701
-0.679797
-0.715734
-0.746757
-0.772538
-0.793087
-0.808628
-0.819490
-0.825987
-0.828344
-0.826683
-0.820992
-0.811120
-0.796771
-0.777531
-0.753027
-0.723111
-0.687852
-0.647485
-0.602407
-0.553071
-0.499831
-0.442970
-0.382858
-0.320120
-0.255775
-0.191241
-0.128194
-0.068344
-0.013124
0.036586
0.080480
0.118708
0.151782
0.180418
0.205305
0.227030
0.246099
0.262937
0.277881
0.291193
0.303055
0.313590
0.322882
0.330939
0.337698
0.343067
0.346896
0.348987
0.349231
0.347628
0.344180
0.338907
0.331919
0.323365
0.313404
0.302226
0.290025
0.276936
0.262987
0.248117
0.232305
0.215678
0.198423
0.180707
0.162696
0.144501
0.126126
0.107611
0.089186
0.071246
0.054285
0.038770
0.025080
0.013507
0.004224
-0.002762
-0.007512
-0.010079
-0.010569
-0.009139
-0.005901
-0.000920
0.005766
0.014135
0.024149
0.035747
0.048877
0.063480
0.079495
0.096902
0.115652
0.135574
0.156399
0.177784
0.199311
0.220593
0.241419
0.261773
0.281772
0.301529
0.320978
0.339767
0.357232
0.372477
0.384582
0.392782
0.396434
0.394992
0.388136
0.375829
0.358263
0.335864
0.309281
0.279261
0.246474
0.211409
0.174383
0.135655
0.095526
0.054381
0.012728
-0.028818
-0.069662
-0.109249
-0.146963
-0.182123
-0.214101
-0.242382
-0.266611
-0.286659
-0.302665
-0.315001
-0.324188
-0.330766
-0.335261
-0.338221
-0.340168
-0.341543
-0.342772
-0.344268
-0.346380
-0.349457
-0.353906
-0.360129
-0.368464
-0.379165
-0.392388
-0.408228
-0.426730
-0.447886
-0.471723
-0.498335
-0.527755
-0.559871
-0.594476
-0.631227
-0.669522
-0.708494
-0.747084
-0.784138
-0.818522
-0.849204
-0.875340
-0.896358
-0.911920
-0.921836
-0.926112
-0.924989
-0.918871
-0.908261
-0.893732
-0.875801
-0.854812
-0.830959
-0.804349
-0.775079
-0.743279
-0.709096
-0.672693
-0.634248
-0.593833
-0.551352
-0.506623
-0.459487
-0.409827
-0.357651
-0.303175
-0.246792
-0.189011
-0.130420
-0.071651
-0.013345
0.043921
0.099696
0.153622
0.205359
0.254604
0.301054
0.344274
0.383721
0.418899
0.449411
0.474938
0.495258
0.510268
0.519979
0.524489
0.523939
0.518542
0.508614
0.494468
0.476322
0.454332
0.428601
0.399112
0.365778
0.328546
0.287438
0.242599
0.194328
0.143052
0.089272
0.033509
-0.023764
-0.082078
-0.140891
-0.199632
-0.257742
-0.314644
-0.369806
-0.422856
-0.473539
-0.521594
-0.566659
-0.608253
-0.645836
-0.678867
-0.706834
-0.729343
-0.746269
-0.757776
-0.764267
-0.766429
-0.765142
-0.761250
-0.755411
-0.748054
-0.739362
-0.729300
-0.717668
-0.704177
-0.688535
-0.670505
-0.649886
-0.626568
-0.600555
-0.571850
-0.540402
-0.506221
-0.469413
-0.430119
-0.388524
-0.344900
-0.299595
-0.252999
-0.205484
-0.157354
-0.108839
-0.060047
-0.010942
0.038556
0.088480
0.138828
0.189529
0.240366
0.291008
0.341083
0.390165
0.437766
0.483335
0.526279
0.566031
0.602096
0.634079
0.661799
0.685337
0.704899
0.720716
0.733062
0.742175
0.748165
0.751061
0.750922
0.747929
0.742429
0.734893
0.725840
0.715775
0.705052
0.693762
0.681801
0.668966
0.654945
0.639339
0.621721
0.601629
0.578569
0.552087
0.521808
0.487463
0.448910
0.406144
0.359346
0.308895
0.255207
0.198589
0.139252
0.077342
0.012930
-0.053877
-0.122791
-0.193361
-0.265058
-0.337345
-0.409698
-0.481608
-0.552642
-0.622547
-0.691228
-0.758660
-0.824866
-0.889862
-0.953533
-1.015624
-1.075836
-1.133828
-1.189231
-1.241717
-1.291029
-1.336954
-1.379257
-1.417610
-1.451593
-1.480738
-1.504470
-1.522064
-1.532774
-1.535941
-1.531050
-1.517862
-1.496533
-1.467552
-1.431612
-1.389514
-1.342073
-1.290085
-1.234301
-1.175381
-1.113904
-1.050415
-0.985383
-0.919209
-0.852329
-0.785235
-0.718423
-0.652454
-0.588046
-0.526065
-0.467499
-0.413400
-0.364843
-0.322886
-0.288477
-0.262366
-0.245150
-0.237314
-0.239123
-0.250570
-0.271404
-0.301048
-0.338464
-0.382181
-0.430411
-0.481237
-0.532864
-0.583754
-0.632647
-0.678546
-0.720611
-0.758069
-0.790279
-0.816808
-0.837425
-0.852150
-0.861310
-0.865433
-0.865130
-0.861076
-0.854007
-0.844680
-0.833793
-0.821874
-0.809272
-0.796246
-0.782991
-0.769651
-0.756381
-0.743313
-0.730397
-0.717350
-0.703721
-0.688901
-0.672161
-0.652740
-0.629950
-0.603269
-0.572427
-0.537427
-0.498585
-0.456525
-0.412042
-0.365963
-0.319130
-0.272327
-0.226172
-0.181120
-0.137502
-0.095505
-0.055214
-0.016679
0.020081
0.055069
0.088311
0.119878
0.149824
0.178130
0.204754
0.229591
0.252366
0.272668
0.290114
0.304431
0.315504
0.323381
0.328201
0.330138
0.329353
0.325933
0.319913
0.311321
0.300120
0.286196
0.269474
0.249932
0.227481
0.201953
0.173120
0.140670
0.104213
0.063396
0.018085
-0.031471
-0.084626
-0.140466
-0.197916
-0.255876
-0.313472
-0.370186
-0.425781
-0.480230
-0.533654
-0.586174
-0.637782
-0.688286
-0.737293
-0.784254
-0.828554
-0.869590
-0.906847
-0.939937
-0.968493
-0.992108
-1.010422
-1.023185
-1.030237
-1.031539
-1.027238
-1.017643
-1.003176
-0.984331
-0.961634
-0.935636
-0.906866
-0.875757
-0.842663
-0.807878
-0.771537
-0.733589
-0.693908
-0.652333
-0.608628
-0.562529
-0.513802
-0.462260
-0.407804
-0.350474
-0.290501
-0.228316
-0.164470
-0.099533
-0.034109
0.031172
0.095784
0.159366
0.221654
0.282497
0.341875
0.399813
0.456264
0.511047
0.563835
0.614206
0.661687
0.705733
0.745768
0.781239
0.811595
0.836322
0.855052
0.867570
0.873736
0.873493
0.866854
0.853839
0.834450
0.808681
0.776497
0.737847
0.692659
0.640846
0.582387
0.517341
0.445772
0.367802
0.283793
0.194381
0.100409
0.002862
-0.097190
-0.198686
-0.300628
-0.402133
-0.502420
-0.600764
-0.696508
-0.789086
-0.877949
-0.962538
-1.042381
-1.117096
-1.186328
-1.249752
-1.307106
-1.358206
-1.402974
-1.441411
-1.473544
-1.499418
-1.519049
-1.532374
-1.539329
-1.539927
-1.534205
-1.522249
-1.504335
-1.480944
-1.452685
-1.420283
-1.384569
-1.346410
-1.306642
-1.266012
-1.225128
-1.184450
-1.144189
-1.104223
-1.064178
-1.023532
-0.981642
-0.937853
-0.891659
-0.842706
-0.790721
-0.735510
-0.676973
-0.615098
-0.549970
-0.481774
-0.410851
-0.337745
-0.263116
-0.187604
-0.111802
-0.036221
0.038800
0.113026
0.186178
0.257892
0.327730
0.395177
0.459688
0.520716
0.577750
0.630377
0.678273
0.721196
0.759079
0.792059
0.820337
0.844129
0.863734
0.879509
0.891844
0.901217
0.908192
0.913320
0.917056
0.919697
0.921375
0.922100
0.921722
0.919942
0.916448
0.910973
0.903230
0.892951
0.880001
0.864371
0.846123
0.825372
0.802287
0.777080
0.749953
0.721037
0.690442
0.658365
0.625042
0.590696
0.555599
0.520062
0.484322
0.448523
0.412785
0.377194
0.341810
0.306707
0.271976
0.237735
0.204113
0.171206
0.139107
0.107913
0.077577
0.047846
0.018342
-0.011387
-0.041819
-0.073271
-0.105776
-0.139147
-0.173111
-0.207364
-0.241533
-0.275104
-0.307431
-0.337769
-0.365268
-0.389063
-0.408462
-0.423006
-0.432383
-0.436428
-0.435225
-0.429125
-0.418723
-0.404774
-0.388080
-0.369412
-0.349423
-0.328588
-0.307235
-0.285620
-0.263923
-0.242268
-0.220803
-0.199682
-0.179016
-0.158948
-0.139719
-0.121592
-0.104724
-0.089131
-0.074741
-0.061503
-0.049425
-0.038540
-0.028913
-0.020606
-0.013556
-0.007561
-0.002382
0.002280
0.006832
0.011705
0.017300
0.024010
0.032199
0.042163
0.054149
0.068384
0.085126
0.104655
0.127166
0.152701
0.181245
0.212772
0.247202
0.284411
0.324252
0.366469
0.410652
0.456297
0.502874
0.549881
0.596832
0.643202
0.688483
0.732298
0.774386
0.814610
0.853021
0.889795
0.925064
0.958895
0.991303
1.022205
1.051394
1.078550
1.103287
1.125217
1.143953
1.159082
1.170247
1.177158
1.179474
1.176832
1.169027
1.156064
1.138110
1.115478
1.088573
1.057797
1.023543
0.986219
0.946277
0.904277
0.860856
0.816621
0.772162
0.728125
0.685153
0.643830
0.604680
0.568108
0.534347
0.503494
0.475550
0.450454
0.428121
0.408464
0.391455
0.377190
0.365829
0.357514
0.352396
0.350570
0.351965
0.356395
0.363692
0.373675
0.386069
0.400480
0.416423
0.433364
0.450769
0.468129
0.485012
0.501108
0.516138
0.529811
0.541863
0.552028
0.559953
0.565266
0.567667
0.566944
0.562987
0.555805
0.545503
0.532223
0.516041
0.496887
0.474597
0.448994
0.419824
0.386753
0.349497
0.307860
0.261686
0.210903
0.155577
0.095866
0.031968
-0.035872
-0.107367
-0.182199
-0.260037
-0.340517
-0.423126
-0.507158
-0.591849
-0.676480
-0.760338
-0.842760
-0.923192
-1.001135
-1.076089
-1.147570
-1.215173
-1.278636
-1.337854
-1.392801
-1.443491
-1.489963
-1.532198
-1.570098
-1.603574
-1.632517
-1.656702
-1.675841
-1.689669
-1.697942
-1.700457
-1.697105
-1.687877
-1.672843
-1.652091
-1.625682
-1.593732
-1.556496
-1.514329
-1.467711
-1.417346
-1.364108
-1.308904
-1.252628
-1.196126
-1.140120
-1.085185
-1.031741
-0.980090
-0.930476
-0.883051
-0.837833
-0.794779
-0.753832
-0.714898
-0.677915
-0.642979
-0.610313
-0.580171
-0.552785
-0.528298
-0.506705
-0.487850
-0.471449
-0.457169
-0.444686
-0.433622
-0.423506
-0.413868
-0.404273
-0.394275
-0.383464
-0.371559
-0.358371
-0.343740
-0.327502
-0.309500
-0.289632
-0.267903
-0.244426
-0.219451
-0.193370
-0.166603
-0.139532
-0.112559
-0.086103
-0.060495
-0.035953
-0.012611
0.009480
0.030318
0.049893
0.068142
0.084922
0.100061
0.113430
0.124912
0.134399
0.141902
0.147539
0.151439
0.153747
0.154667
0.154396
0.153066
0.150800
0.147789
0.144337
0.140839
0.137732
0.135505
0.134699
0.135803
0.139203
0.145241
0.154170
0.166086
0.180966
0.198755
0.219407
0.242898
0.269208
0.298267
0.329952
0.364070
0.400333
0.438430
0.478063
0.518862
0.560382
0.602194
0.643882
0.685023
0.725248
0.764289
0.801935
0.837988
0.872228
0.904427
0.934375
0.961842
0.986539
1.008215
1.026686
1.041783
1.053397
1.061589
1.066534
1.068417
1.067409
1.063644
1.057190
1.048069
1.036283
1.021866
1.004941
0.985644
0.964043
0.940232
0.914402
0.886797
0.857753
0.827717
0.797155
0.766448
0.735892
0.705716
0.676104
0.647180
0.618929
0.591211
0.563827
0.536540
0.509184
0.481828
0.454784
0.428477
0.403392
0.380033
0.358834
0.340102
0.324008
0.310584
0.299736
0.291260
0.284847
0.280185
0.277005
0.274994
0.273764
0.272925
0.272066
0.270691
0.268288
0.264416
0.258735
0.251014
0.241134
0.229111
0.215119
0.199401
0.182174
0.163652
0.144071
0.123643
0.102592
0.081246
0.059986
0.039177
0.019200
0.000471
-0.016615
-0.031764
-0.044837
-0.055817
-0.064742
-0.071748
-0.077099
-0.081087
-0.083991
-0.086117
-0.087747
-0.089036
-0.090033
-0.090724
-0.091043
-0.090882
-0.090104
-0.088555
-0.086101
-0.082592
-0.077816
-0.071556
-0.063633
-0.053854
-0.042032
-0.028097
-0.012100
0.005824
0.025425
0.046350
0.068221
0.090685
0.113432
0.136144
0.158440
0.179943
0.200344
0.219351
0.236687
0.252183
0.265773
0.277445
0.287269
0.295401
0.302017
0.307261
0.311222
0.313946
0.315498
0.315965
0.315435
0.314044
0.311959
0.309257
0.305924
0.301968
0.297431
0.292359
0.286854
0.281097
0.275319
0.269727
0.264427
0.259411
0.254621
0.249936
0.245179
0.240232
0.235064
0.229638
0.223906
0.217882
0.211624
0.205208
0.198757
0.192434
0.186388
0.180698
0.175333
0.170229
0.165369
0.160740
0.156301
0.152072
0.148151
0.144634
0.141636
0.139304
0.137728
0.136882
0.136651
0.136865
0.137327
0.137798
0.137979
0.137583
0.136390
0.134190
0.130759
0.125932
0.119573
0.111514
0.101630
0.089896
0.076373
0.061179
0.044468
0.026428
0.007312
-0.012568
-0.032868
-0.053155
-0.072926
-0.091756
-0.109310
-0.125263
-0.139303
-0.151176
-0.160654
-0.167525
-0.171642
-0.172945
-0.171453
-0.167220
-0.160280
-0.150693
-0.138572
-0.124022
-0.107136
-0.088094
-0.067142
-0.044493
-0.020324
0.005176
0.031807
0.059338
0.087489
0.115930
0.144272
0.172133
0.199203
0.225196
0.249808
0.272802
0.294001
0.313188
0.330128
0.344683
0.356802
0.366482
0.373744
0.378601
0.381032
0.380957
0.378221
0.372652
0.364106
0.352403
0.337323
0.318727
0.296584
0.270951
0.242040
0.210238
0.176020
0.139885
0.102332
0.063855
0.024977
-0.013767
-0.051886
-0.088886
-0.124239
-0.157466
-0.188163
-0.215951
-0.240531
-0.261731
-0.279448
-0.293613
-0.304220
-0.311328
-0.315024
-0.315375
-0.312369
-0.305955
-0.296093
-0.282687
-0.265611
-0.244844
-0.220476
-0.192632
-0.161493
-0.127308
-0.090355
-0.050916
-0.009281
0.034261
0.079433
0.125981
0.173658
0.222142
0.271006
0.319850
0.368347
0.416185
0.463094
0.508890
0.553429
0.596551
0.638075
0.677818
0.715630
0.751395
0.784990
0.816282
0.845112
0.871185
0.894081
0.913402
0.928833
0.940101
0.947008
0.949441
0.947317
0.940576
0.929235
0.913432
0.893470
0.869770
0.842768
0.812927
0.780756
0.746725
0.711260
0.674797
0.637715
0.600231
0.562408
0.524198
0.485496
0.446195
0.406237
0.365645
0.324543
0.283110
0.241532
0.200047
0.158930
0.118360
0.078415
0.039172
0.000700
-0.036951
-0.073698
-0.109413
-0.143957
-0.177224
-0.209150
-0.239642
-0.268534
-0.295674
-0.320984
-0.344396
-0.365882
-0.385535
-0.403525
-0.420027
-0.435243
-0.449416
-0.462791
-0.475598
-0.488025
-0.500208
-0.512249
-0.524173
-0.535919
-0.547429
-0.558647
-0.569429
-0.579572
-0.588910
-0.597294
-0.604557
-0.610555
-0.615203
-0.618494
-0.620487
-0.621266
-0.620950
-0.619686
-0.617535
-0.614444
-0.610380
-0.605360
-0.599378
-0.592460
-0.584742
-0.576426
-0.567723
-0.558851
-0.550024
-0.541441
-0.533258
-0.525560
-0.518444
-0.512068
-0.506559
-0.501951
-0.498260
-0.495486
-0.493573
-0.492450
-0.492055
-0.492270
-0.492883
-0.493620
-0.494223
-0.494552
-0.494595
-0.494414
-0.494150
-0.493982
-0.494010
-0.494256
-0.494760
-0.495563
-0.496660
-0.498011
-0.499552
-0.501183
-0.502768
-0.504122
-0.505040
-0.505348
-0.504886
-0.503491
-0.501073
-0.497612
-0.493057
-0.487331
-0.480413
-0.472300
-0.462957
-0.452326
-0.440326
-0.426838
-0.411706
-0.394727
-0.375734
-0.354655
-0.331457
-0.306123
-0.278744
-0.249529
-0.218701
-0.186491
-0.153189
-0.119108
-0.084564
-0.049865
-0.015308
0.018838
0.052375
0.085224
0.117379
0.148832
0.179601
0.209710
0.239082
0.267566
0.295013
0.321235
0.345968
0.368908
0.389751
0.408198
0.423972
0.436795
0.446407
