EVENT_NAME: L_AQUILA
EVENT_ID: IT-2009-0009
EVENT_DATE_YYYYMMDD: 20090406
EVENT_TIME_HHMMSS: 013240
EVENT_LATITUDE_DEGREE: 42.3420
EVENT_LONGITUDE_DEGREE: 13.3800
EVENT_DEPTH_KM: 8.3
HYPOCENTER_REFERENCE: INGV-CNT_Seismic_Bulletin
MAGNITUDE_W: 6.1
MAGNITUDE_W_REFERENCE: INGV-CNT_Seismic_Bulletin
MAGNITUDE_L: 
MAGNITUDE_L_REFERENCE: 
FOCAL_MECHANISM: Normal faulting
NETWORK: IV
STATION_CODE: GUMA
STATION_NAME: 
STATION_LATITUDE_DEGREE: 43.062700
STATION_LONGITUDE_DEGREE: 13.335200
STATION_ELEVATION_M: 574
LOCATION: 
SENSOR_DEPTH_M: 0.0
VS30_M/S: 488
SITE_CLASSIFICATION_EC8: B
MORPHOLOGIC_CLASSIFICATION: 
EPICENTRAL_DISTANCE_KM: 80.1
EARTHQUAKE_BACKAZIMUTH_DEGREE: 357.4
DATE_TIME_FIRST_SAMPLE_YYYYMMDD_HHMMSS: 20090406_013152.000
DATE_TIME_FIRST_SAMPLE_PRECISION: milliseconds
SAMPLING_INTERVAL_S: 0.005000
NDATA: 62478
DURATION_S: 312.390
STREAM: HNE
UNITS: cm
INSTRUMENT: sensor = EPISENSOR-FBA-ES-T-CL-2G-FS-40-VPP [Unknown] | digitizer = Unknown [Unknown]
INSTRUMENT_ANALOG/DIGITAL: D
INSTRUMENTAL_FREQUENCY_HZ: 
INSTRUMENTAL_DAMPING: 
FULL_SCALE_G: 
N_BIT_DIGITAL_CONVERTER: 
PGD_CM: 0.475277
TIME_PGD_S: 82.035000
BASELINE_CORRECTION: BASELINE REMOVED
FILTER_TYPE: BUTTERWORTH
FILTER_ORDER: 2
LOW_CUT_FREQUENCY_HZ: 0.040
HIGH_CUT_FREQUENCY_HZ: 40.000
LATE/NORMAL_TRIGGERED: NT
DATABASE_VERSION: 0.5
HEADER_FORMAT: DYNA 1.2
DATA_TYPE: DISPLACEMENT
PROCESSING: manual (Paolucci et al., 2011)
DATA_TIMESTAMP_YYYYMMDD_HHMMSS: 20211011_160607.201
DATA_LICENSE: CC-BY4_0 (http://creativecommons.org/licenses/by/4.0/)
DATA_CITATION: Luzi L, Pacor F, Puglia R (2019). Italian Accelerometric Archive v 3.0 - Istituto Nazionale di Geofisica e Vulcanologia, Dipartimento della Protezione Civile Nazionale. doi: 10.13127/itaca.3.1
DATA_CREATOR: ITACA working group
ORIGINAL_DATA_MEDIATOR_CITATION: Orfeus - European Integrated Data Archive (EIDA) http://www.orfeus-eu.org/eida/
ORIGINAL_DATA_MEDIATOR: Orfeus - European Integrated Data Archive (EIDA)
ORIGINAL_DATA_CREATOR_CITATION: INGV Seismological Data Centre. (1997). Rete Sismica Nazionale (RSN). Istituto Nazionale di Geofisica e Vulcanologia (INGV), Italy. https://doi.org/10.13127/SD/X0FXnH7QfY http://www.fdsn.org/networks/detail/IV/
ORIGINAL_DATA_CREATOR: network: IV (Italian National Seismic Network (INSN)); owner: Istituto Nazionale di Geofisica e Vulcanologia (INGV)
USER1: 
USER2: 
USER3: 
USER4: 
USER5: 
[...]
2.892594e-01
2.858243e-01
2.823917e-01
2.789829e-01
2.756170e-01
2.723108e-01
2.690789e-01
2.659324e-01
2.628793e-01
2.599242e-01
2.570699e-01
2.543190e-01
2.516756e-01
2.491465e-01
2.467392e-01
2.444609e-01
2.423168e-01
2.403106e-01
2.384446e-01
2.367202e-01
2.351386e-01
2.337007e-01
2.324075e-01
2.312600e-01
2.302604e-01
2.294130e-01
2.287238e-01
2.282002e-01
2.278490e-01
2.276755e-01
2.276827e-01
2.278714e-01
2.282405e-01
2.287866e-01
2.295044e-01
2.303858e-01
2.314209e-01
2.325978e-01
2.339032e-01
2.353217e-01
2.368364e-01
2.384288e-01
2.400793e-01
2.417684e-01
2.434770e-01
2.451866e-01
2.468792e-01
2.485377e-01
2.501466e-01
2.516937e-01
2.531706e-01
2.545727e-01
2.558986e-01
2.571491e-01
2.583247e-01
2.594245e-01
2.604460e-01
2.613850e-01
2.622360e-01
2.629927e-01
2.636488e-01
2.641986e-01
2.646377e-01
2.649625e-01
2.651709e-01
2.652619e-01
2.652362e-01
2.650961e-01
2.648462e-01
2.644929e-01
2.640432e-01
2.635035e-01
2.628782e-01
2.621694e-01
2.613770e-01
2.604999e-01
2.595381e-01
2.584943e-01
2.573752e-01
2.561916e-01
2.549592e-01
2.536972e-01
2.524269e-01
2.511698e-01
2.499460e-01
2.487728e-01
2.476647e-01
2.466326e-01
2.456862e-01
2.448343e-01
2.440863e-01
2.434524e-01
2.429426e-01
2.425659e-01
2.423285e-01
2.422324e-01
2.422761e-01
2.424542e-01
2.427573e-01
2.431726e-01
2.436849e-01
2.442778e-01
2.449342e-01
2.456366e-01
2.463681e-01
2.471132e-01
2.478594e-01
2.485983e-01
2.493264e-01
2.500436e-01
2.507516e-01
2.514513e-01
2.521425e-01
2.528245e-01
2.534960e-01
2.541560e-01
2.548044e-01
2.554416e-01
2.560679e-01
2.566840e-01
2.572905e-01
2.578880e-01
2.584773e-01
2.590589e-01
2.596329e-01
2.601996e-01
2.607590e-01
2.613120e-01
2.618615e-01
2.624135e-01
2.629778e-01
2.635690e-01
2.642062e-01
2.649114e-01
2.657068e-01
2.666125e-01
2.676446e-01
2.688132e-01
2.701219e-01
2.715675e-01
2.731398e-01
2.748230e-01
2.765953e-01
2.784308e-01
2.803001e-01
2.821721e-01
2.840152e-01
2.857984e-01
2.874925e-01
2.890710e-01
2.905108e-01
2.917922e-01
2.928992e-01
2.938201e-01
2.945458e-01
2.950684e-01
2.953793e-01
2.954686e-01
2.953246e-01
2.949352e-01
2.942896e-01
2.933800e-01
2.922019e-01
2.907548e-01
2.890417e-01
2.870688e-01
2.848450e-01
2.823818e-01
2.796929e-01
2.767941e-01
2.737034e-01
2.704405e-01
2.670271e-01
2.634865e-01
2.598424e-01
2.561181e-01
2.523353e-01
2.485141e-01
2.446713e-01
2.408201e-01
2.369701e-01
2.331273e-01
2.292954e-01
2.254763e-01
2.216723e-01
2.178871e-01
2.141261e-01
2.103970e-01
2.067092e-01
2.030746e-01
1.995074e-01
1.960249e-01
1.926478e-01
1.893992e-01
1.863038e-01
1.833863e-01
1.806704e-01
1.781781e-01
1.759289e-01
1.739388e-01
1.722193e-01
1.707770e-01
1.696116e-01
1.687160e-01
1.680768e-01
1.676748e-01
1.674870e-01
1.674882e-01
1.676514e-01
1.679496e-01
1.683551e-01
1.688404e-01
1.693788e-01
1.699459e-01
1.705215e-01
1.710899e-01
1.716405e-01
1.721665e-01
1.726631e-01
1.731263e-01
1.735523e-01
1.739374e-01
1.742774e-01
1.745674e-01
1.748015e-01
1.749732e-01
1.750745e-01
1.750961e-01
1.750278e-01
1.748596e-01
1.745822e-01
1.741880e-01
1.736728e-01
1.730372e-01
1.722873e-01
1.714348e-01
1.704966e-01
1.694949e-01
1.684573e-01
1.674170e-01
1.664117e-01
1.654828e-01
1.646727e-01
1.640230e-01
1.635732e-01
1.633598e-01
1.634144e-01
1.637624e-01
1.644198e-01
1.653916e-01
1.666692e-01
1.682318e-01
1.700495e-01
1.720869e-01
1.743076e-01
1.766769e-01
1.791644e-01
1.817455e-01
1.844014e-01
1.871185e-01
1.898869e-01
1.926990e-01
1.955474e-01
1.984234e-01
2.013171e-01
2.042163e-01
2.071062e-01
2.099693e-01
2.127853e-01
2.155315e-01
2.181837e-01
2.207169e-01
2.231060e-01
2.253271e-01
2.273576e-01
2.291782e-01
2.307736e-01
2.321344e-01
2.332564e-01
2.341408e-01
2.347937e-01
2.352248e-01
2.354468e-01
2.354747e-01
2.353263e-01
2.350208e-01
2.345774e-01
2.340132e-01
2.333421e-01
2.325734e-01
2.317127e-01
2.307631e-01
2.297271e-01
2.286081e-01
2.274112e-01
2.261441e-01
2.248173e-01
2.234430e-01
2.220337e-01
2.206004e-01
2.191525e-01
2.176974e-01
2.162407e-01
2.147867e-01
2.133395e-01
2.119032e-01
2.104814e-01
2.090775e-01
2.076945e-01
2.063350e-01
2.050013e-01
2.036949e-01
2.024156e-01
2.011602e-01
1.999216e-01
1.986883e-01
1.974444e-01
1.961704e-01
1.948432e-01
1.934382e-01
1.919309e-01
1.902989e-01
1.885239e-01
1.865936e-01
1.845036e-01
1.822578e-01
1.798681e-01
1.773528e-01
1.747352e-01
1.720411e-01
1.692968e-01
1.665273e-01
1.637546e-01
1.609973e-01
1.582698e-01
1.555831e-01
1.529457e-01
1.503652e-01
1.478482e-01
1.454009e-01
1.430289e-01
1.407371e-01
1.385302e-01
1.364128e-01
1.343906e-01
1.324695e-01
1.306550e-01
1.289500e-01
1.273542e-01
1.258642e-01
1.244732e-01
1.231726e-01
1.219522e-01
1.208011e-01
1.197077e-01
1.186614e-01
1.176541e-01
1.166810e-01
1.157418e-01
1.148400e-01
1.139819e-01
1.131747e-01
1.124245e-01
1.117346e-01
1.111060e-01
1.105374e-01
1.100265e-01
1.095697e-01
1.091632e-01
1.088024e-01
1.084817e-01
1.081954e-01
1.079382e-01
1.077048e-01
1.074905e-01
1.072909e-01
1.071024e-01
1.069221e-01
1.067485e-01
1.065821e-01
1.064257e-01
1.062849e-01
1.061663e-01
1.060774e-01
1.060263e-01
1.060208e-01
1.060683e-01
1.061755e-01
1.063480e-01
1.065891e-01
1.068993e-01
1.072768e-01
1.077181e-01
1.082197e-01
1.087779e-01
1.093884e-01
1.100458e-01
1.107428e-01
1.114706e-01
1.122191e-01
1.129780e-01
1.137361e-01
1.144799e-01
1.151931e-01
1.158562e-01
1.164472e-01
1.169428e-01
1.173190e-01
1.175528e-01
1.176224e-01
1.175080e-01
1.171923e-01
1.166619e-01
1.159077e-01
1.149255e-01
1.137153e-01
1.122806e-01
1.106275e-01
1.087632e-01
1.066963e-01
1.044361e-01
1.019930e-01
9.937770e-02
9.660050e-02
9.367112e-02
9.059881e-02
8.739302e-02
8.406508e-02
8.062982e-02
7.710611e-02
7.351643e-02
6.988561e-02
6.623903e-02
6.260054e-02
5.899081e-02
5.542613e-02
5.191828e-02
4.847495e-02
4.510051e-02
4.179725e-02
3.856738e-02
3.541433e-02
3.234330e-02
2.936109e-02
2.647517e-02
2.369206e-02
2.101618e-02
1.844964e-02
1.599277e-02
1.364503e-02
1.140564e-02
9.273979e-03
7.249912e-03
5.334022e-03
3.527148e-03
1.829841e-03
2.417348e-04
-1.239562e-03
-2.619537e-03
-3.906983e-03
-5.113562e-03
-6.253048e-03
-7.340338e-03
-8.390542e-03
-9.418132e-03
-1.043605e-02
-1.145516e-02
-1.248413e-02
-1.352994e-02
-1.459896e-02
-1.569861e-02
-1.683816e-02
-1.802879e-02
-1.928369e-02
-2.061811e-02
-2.204911e-02
-2.359515e-02
-2.527564e-02
-2.710987e-02
-2.911555e-02
-3.130717e-02
-3.369515e-02
-3.628589e-02
-3.908225e-02
-4.208365e-02
-4.528631e-02
-4.868331e-02
-5.226420e-02
-5.601451e-02
-5.991598e-02
-6.394728e-02
-6.808446e-02
-7.230127e-02
-7.656951e-02
-8.085966e-02
-8.514183e-02
-8.938682e-02
-9.356692e-02
-9.765665e-02
-1.016326e-01
-1.054726e-01
-1.091551e-01
-1.126594e-01
-1.159660e-01
-1.190572e-01
-1.219181e-01
-1.245370e-01
-1.269064e-01
-1.290224e-01
-1.308853e-01
-1.324989e-01
-1.338701e-01
-1.350085e-01
-1.359254e-01
-1.366339e-01
-1.371486e-01
-1.374846e-01
-1.376574e-01
-1.376834e-01
-1.375797e-01
-1.373657e-01
-1.370632e-01
-1.366980e-01
-1.363000e-01
-1.359032e-01
-1.355442e-01
-1.352613e-01
-1.350923e-01
-1.350717e-01
-1.352289e-01
-1.355870e-01
-1.361624e-01
-1.369654e-01
-1.380017e-01
-1.392737e-01
-1.407820e-01
-1.425258e-01
-1.445040e-01
-1.467154e-01
-1.491594e-01
-1.518356e-01
-1.547427e-01
-1.578778e-01
-1.612347e-01
-1.648031e-01
-1.685684e-01
-1.725117e-01
-1.766108e-01
-1.808409e-01
-1.851770e-01
-1.895961e-01
-1.940791e-01
-1.986110e-01
-2.031801e-01
-2.077771e-01
-2.123921e-01
-2.170130e-01
-2.216245e-01
-2.262078e-01
-2.307422e-01
-2.352050e-01
-2.395740e-01
-2.438282e-01
-2.479491e-01
-2.519213e-01
-2.557324e-01
-2.593731e-01
-2.628358e-01
-2.661141e-01
-2.692009e-01
-2.720887e-01
-2.747690e-01
-2.772326e-01
-2.794706e-01
-2.814748e-01
-2.832387e-01
-2.847577e-01
-2.860299e-01
-2.870573e-01
-2.878468e-01
-2.884104e-01
-2.887646e-01
-2.889300e-01
-2.889291e-01
-2.887861e-01
-2.885257e-01
-2.881728e-01
-2.877527e-01
-2.872892e-01
-2.868044e-01
-2.863180e-01
-2.858466e-01
-2.854032e-01
-2.849967e-01
-2.846328e-01
-2.843134e-01
-2.840383e-01
-2.838052e-01
-2.836113e-01
-2.834527e-01
-2.833244e-01
-2.832202e-01
-2.831321e-01
-2.830514e-01
-2.829687e-01
-2.828744e-01
-2.827602e-01
-2.826191e-01
-2.824460e-01
-2.822372e-01
-2.819906e-01
-2.817049e-01
-2.813786e-01
-2.810088e-01
-2.805904e-01
-2.801140e-01
-2.795659e-01
-2.789275e-01
-2.781771e-01
-2.772913e-01
-2.762474e-01
-2.750256e-01
-2.736108e-01
-2.719939e-01
-2.701715e-01
-2.681459e-01
-2.659238e-01
-2.635157e-01
-2.609348e-01
-2.581966e-01
-2.553181e-01
-2.523167e-01
-2.492099e-01
-2.460154e-01
-2.427517e-01
-2.394389e-01
-2.360998e-01
-2.327602e-01
-2.294489e-01
-2.261967e-01
-2.230352e-01
-2.199958e-01
-2.171088e-01
-2.144031e-01
-2.119051e-01
-2.096381e-01
-2.076217e-01
-2.058706e-01
-2.043944e-01
-2.031972e-01
-2.022777e-01
-2.016293e-01
-2.012397e-01
-2.010919e-01
-2.011644e-01
-2.014328e-01
-2.018699e-01
-2.024466e-01
-2.031332e-01
-2.038999e-01
-2.047186e-01
-2.055635e-01
-2.064119e-01
-2.072443e-01
-2.080433e-01
-2.087928e-01
-2.094775e-01
-2.100830e-01
-2.105956e-01
-2.110036e-01
-2.112972e-01
-2.114693e-01
-2.115142e-01
-2.114285e-01
-2.112100e-01
-2.108593e-01
-2.103792e-01
-2.097762e-01
-2.090601e-01
-2.082438e-01
-2.073429e-01
-2.063746e-01
-2.053576e-01
-2.043108e-01
-2.032524e-01
-2.021989e-01
-2.011645e-01
-2.001600e-01
-1.991922e-01
-1.982640e-01
-1.973749e-01
-1.965218e-01
-1.956994e-01
-1.949009e-01
-1.941191e-01
-1.933459e-01
-1.925730e-01
-1.917913e-01
-1.909920e-01
-1.901659e-01
-1.893032e-01
-1.883928e-01
-1.874227e-01
-1.863792e-01
-1.852468e-01
-1.840085e-01
-1.826459e-01
-1.811411e-01
-1.794770e-01
-1.776387e-01
-1.756143e-01
-1.733948e-01
-1.709735e-01
-1.683461e-01
-1.655113e-01
-1.624703e-01
-1.592275e-01
-1.557895e-01
-1.521649e-01
-1.483638e-01
-1.443969e-01
-1.402752e-01
-1.360101e-01
-1.316121e-01
-1.270909e-01
-1.224543e-01
-1.177090e-01
-1.128609e-01
-1.079159e-01
-1.028812e-01
-9.776651e-02
-9.258525e-02
-8.735458e-02
-8.209542e-02
-7.683168e-02
-7.158874e-02
-6.639174e-02
-6.126378e-02
-5.622476e-02
-5.129068e-02
-4.647336e-02
-4.178088e-02
-3.721854e-02
-3.278948e-02
-2.849486e-02
-2.433401e-02
-2.030465e-02
-1.640280e-02
-1.262303e-02
-8.959171e-03
-5.404897e-03
-1.954060e-03
1.399357e-03
4.661468e-03
7.838544e-03
1.093700e-02
1.396346e-02
1.692435e-02
1.982513e-02
2.266978e-02
2.546045e-02
2.819694e-02
3.087652e-02
3.349449e-02
3.604499e-02
3.852176e-02
4.091872e-02
4.323031e-02
4.545170e-02
4.757868e-02
4.960721e-02
5.153322e-02
5.335288e-02
5.506271e-02
5.665938e-02
5.813974e-02
5.950138e-02
6.074308e-02
6.186594e-02
6.287491e-02
6.378012e-02
6.459745e-02
6.534792e-02
6.605598e-02
6.674731e-02
6.744654e-02
6.817533e-02
6.895150e-02
6.978920e-02
7.069916e-02
7.168883e-02
7.276306e-02
7.392473e-02
7.517519e-02
7.651459e-02
7.794198e-02
7.945491e-02
8.104874e-02
8.271637e-02
8.444870e-02
8.623613e-02
8.806996e-02
8.994324e-02
9.185076e-02
9.378850e-02
9.575238e-02
9.773748e-02
9.973887e-02
1.017534e-01
1.037816e-01
1.058283e-01
1.079030e-01
1.100184e-01
1.121886e-01
1.144274e-01
1.167467e-01
1.191559e-01
1.216612e-01
1.242648e-01
1.269653e-01
1.297588e-01
1.326394e-01
1.355989e-01
1.386278e-01
1.417143e-01
1.448451e-01
1.480060e-01
1.511839e-01
1.543683e-01
1.575532e-01
1.607375e-01
1.639246e-01
1.671222e-01
1.703401e-01
1.735885e-01
1.768752e-01
1.802050e-01
1.835794e-01
1.869965e-01
1.904520e-01
1.939397e-01
1.974516e-01
2.009769e-01
2.045015e-01
2.080074e-01
2.114726e-01
2.148718e-01
2.181765e-01
2.213577e-01
2.243871e-01
2.272382e-01
2.298879e-01
2.323177e-01
2.345141e-01
2.364689e-01
2.381798e-01
2.396504e-01
2.408912e-01
2.419186e-01
2.427548e-01
2.434272e-01
2.439666e-01
2.444058e-01
2.447780e-01
2.451163e-01
2.454534e-01
2.458205e-01
2.462471e-01
2.467590e-01
2.473782e-01
2.481215e-01
2.490015e-01
2.500272e-01
2.512055e-01
2.525428e-01
2.540467e-01
2.557274e-01
2.575988e-01
2.596788e-01
2.619885e-01
2.645518e-01
2.673932e-01
2.705362e-01
2.740010e-01
2.778041e-01
2.819562e-01
2.864621e-01
2.913194e-01
2.965191e-01
3.020451e-01
3.078761e-01
3.139866e-01
3.203479e-01
3.269283e-01
3.336932e-01
3.406050e-01
3.476238e-01
3.547090e-01
3.618214e-01
3.689253e-01
3.759907e-01
3.829917e-01
3.899059e-01
3.967122e-01
4.033891e-01
4.099141e-01
4.162626e-01
4.224081e-01
4.283223e-01
4.339756e-01
4.393374e-01
4.443778e-01
4.490691e-01
4.533871e-01
4.573120e-01
4.608304e-01
4.639354e-01
4.666270e-01
4.689124e-01
4.708052e-01
4.723249e-01
4.734954e-01
4.743443e-01
4.749020e-01
4.752013e-01
4.752771e-01
4.751647e-01
4.748991e-01
4.745130e-01
4.740356e-01
4.734902e-01
4.728939e-01
4.722572e-01
4.715846e-01
4.708760e-01
4.701288e-01
4.693399e-01
4.685078e-01
4.676337e-01
4.667227e-01
4.657839e-01
4.648303e-01
4.638770e-01
4.629401e-01
4.620347e-01
4.611734e-01
4.603644e-01
4.596110e-01
4.589110e-01
4.582569e-01
4.576367e-01
4.570348e-01
4.564342e-01
4.558183e-01
4.551714e-01
4.544794e-01
4.537295e-01
4.529084e-01
4.520010e-01
4.509898e-01
4.498546e-01
4.485737e-01
4.471249e-01
4.454875e-01
4.436438e-01
4.415804e-01
4.392886e-01
4.367644e-01
4.340084e-01
4.310260e-01
4.278275e-01
4.244285e-01
4.208498e-01
4.171160e-01
4.132533e-01
4.092879e-01
4.052447e-01
4.011473e-01
3.970174e-01
3.928756e-01
3.887422e-01
3.846373e-01
3.805817e-01
3.765978e-01
3.727102e-01
3.689450e-01
3.653295e-01
3.618902e-01
3.586528e-01
3.556407e-01
3.528754e-01
3.503762e-01
3.481614e-01
3.462471e-01
3.446465e-01
3.433676e-01
3.424114e-01
3.417704e-01
3.414287e-01
3.413631e-01
3.415460e-01
3.419484e-01
3.425420e-01
3.433009e-01
3.442030e-01
3.452295e-01
3.463647e-01
3.475952e-01
3.489098e-01
3.502992e-01
3.517552e-01
3.532705e-01
3.548384e-01
3.564528e-01
3.581075e-01
3.597960e-01
3.615114e-01
3.632458e-01
3.649908e-01
3.667369e-01
3.684751e-01
3.701960e-01
3.718905e-01
3.735501e-01
3.751669e-01
3.767339e-01
3.782451e-01
3.796952e-01
3.810799e-01
3.823948e-01
3.836354e-01
3.847969e-01
3.858753e-01
3.868674e-01
3.877710e-01
3.885844e-01
3.893069e-01
3.899376e-01
3.904756e-01
3.909216e-01
3.912778e-01
3.915492e-01
3.917431e-01
3.918685e-01
3.919360e-01
3.919571e-01
3.919433e-01
3.919057e-01
3.918554e-01
3.918025e-01
3.917568e-01
3.917273e-01
3.917227e-01
3.917515e-01
3.918222e-01
3.919430e-01
3.921217e-01
3.923661e-01
3.926835e-01
3.930810e-01
3.935655e-01
3.941437e-01
3.948216e-01
3.956036e-01
3.964925e-01
3.974891e-01
3.985920e-01
3.997991e-01
4.011080e-01
4.025169e-01
4.040245e-01
4.056294e-01
4.073282e-01
4.091144e-01
4.109768e-01
4.128997e-01
4.148636e-01
4.168458e-01
4.188207e-01
4.207614e-01
4.226405e-01
4.244319e-01
4.261112e-01
4.276576e-01
4.290539e-01
4.302863e-01
4.313433e-01
4.322152e-01
4.328935e-01
4.333711e-01
4.336430e-01
4.337067e-01
4.335626e-01
4.332143e-01
4.326680e-01
4.319332e-01
4.310226e-01
4.299521e-01
4.287402e-01
4.274071e-01
4.259738e-01
4.244605e-01
4.228855e-01
4.212646e-01
4.196107e-01
4.179344e-01
4.162433e-01
4.145425e-01
4.128348e-01
4.111209e-01
4.093996e-01
4.076677e-01
4.059204e-01
4.041509e-01
4.023502e-01
4.005079e-01
3.986121e-01
3.966501e-01
3.946090e-01
3.924753e-01
3.902359e-01
3.878773e-01
3.853856e-01
3.827468e-01
3.799475e-01
3.769751e-01
3.738190e-01
3.704714e-01
3.669289e-01
3.631935e-01
3.592728e-01
3.551802e-01
3.509342e-01
3.465575e-01
3.420757e-01
3.375161e-01
3.329069e-01
3.282763e-01
3.236514e-01
3.190570e-01
3.145157e-01
3.100471e-01
3.056681e-01
3.013940e-01
2.972392e-01
2.932175e-01
2.893421e-01
2.856257e-01
2.820802e-01
2.787167e-01
2.755455e-01
2.725763e-01
2.698196e-01
2.672864e-01
2.649890e-01
2.629399e-01
2.611516e-01
2.596357e-01
2.584018e-01
2.574567e-01
2.568046e-01
2.564464e-01
2.563797e-01
2.565993e-01
2.570977e-01
2.578658e-01
2.588926e-01
2.601657e-01
2.616709e-01
2.633923e-01
2.653109e-01
2.674054e-01
2.696525e-01
2.720271e-01
2.745034e-01
2.770548e-01
2.796547e-01
2.822771e-01
2.848968e-01
2.874895e-01
2.900326e-01
2.925049e-01
2.948865e-01
2.971582e-01
2.993012e-01
3.012968e-01
3.031257e-01
3.047684e-01
3.062056e-01
3.074186e-01
3.083902e-01
3.091055e-01
3.095518e-01
3.097194e-01
3.096006e-01
3.091902e-01
3.084857e-01
3.074876e-01
3.061988e-01
3.046256e-01
3.027766e-01
3.006623e-01
2.982946e-01
2.956867e-01
2.928534e-01
2.898121e-01
2.865829e-01
2.831886e-01
2.796544e-01
2.760077e-01
2.722763e-01
2.684875e-01
2.646661e-01
2.608340e-01
2.570083e-01
2.532020e-01
2.494250e-01
2.456847e-01
2.419879e-01
2.383414e-01
2.347531e-01
2.312322e-01
2.277895e-01
2.244370e-01
2.211875e-01
2.180547e-01
2.150519e-01
2.121927e-01
2.094907e-01
2.069596e-01
2.046125e-01
2.024619e-01
2.005193e-01
1.987948e-01
1.972968e-01
1.960318e-01
1.950044e-01
1.942176e-01
1.936734e-01
1.933732e-01
1.933185e-01
1.935113e-01
1.939537e-01
1.946478e-01
1.955954e-01
1.967973e-01
1.982523e-01
1.999577e-01
2.019086e-01
2.040974e-01
2.065141e-01
2.091454e-01
2.119756e-01
2.149861e-01
2.181565e-01
2.214655e-01
2.248922e-01
2.284167e-01
2.320202e-01
2.356855e-01
2.393964e-01
2.431373e-01
2.468926e-01
2.506472e-01
2.543868e-01
2.580990e-01
2.617734e-01
2.654026e-01
2.689815e-01
2.725068e-01
2.759756e-01
2.793846e-01
2.827294e-01
2.860041e-01
2.892008e-01
2.923094e-01
2.953176e-01
2.982104e-01
3.009709e-01
3.035799e-01
3.060172e-01
3.082618e-01
3.102925e-01
3.120892e-01
3.136337e-01
3.149097e-01
3.159027e-01
3.165989e-01
3.169856e-01
3.170503e-01
3.167809e-01
3.161669e-01
3.152001e-01
3.138748e-01
3.121881e-01
3.101396e-01
3.077316e-01
3.049684e-01
3.018556e-01
2.983995e-01
2.946062e-01
2.904819e-01
2.860326e-01
2.812649e-01
2.761868e-01
2.708076e-01
2.651385e-01
2.591923e-01
2.529837e-01
2.465286e-01
2.398438e-01
2.329475e-01
2.258595e-01
2.186015e-01
2.111978e-01
2.036755e-01
1.960651e-01
1.884013e-01
1.807216e-01
1.730663e-01
1.654770e-01
1.579943e-01
1.506566e-01
1.434985e-01
1.365510e-01
1.298406e-01
1.233902e-01
1.172187e-01
1.113418e-01
1.057722e-01
1.005202e-01
9.559325e-02
