EVENT_NAME: L_AQUILA
EVENT_ID: IT-2009-0009
EVENT_DATE_YYYYMMDD: 20090406
EVENT_TIME_HHMMSS: 013240
EVENT_LATITUDE_DEGREE: 42.3420
EVENT_LONGITUDE_DEGREE: 13.3800
EVENT_DEPTH_KM: 8.3
HYPOCENTER_REFERENCE: INGV-CNT_Seismic_Bulletin
MAGNITUDE_W: 6.1
MAGNITUDE_W_REFERENCE: INGV-CNT_Seismic_Bulletin
MAGNITUDE_L: 
MAGNITUDE_L_REFERENCE: 
FOCAL_MECHANISM: Normal faulting
NETWORK: IV
STATION_CODE: GUMA
STATION_NAME: 
STATION_LATITUDE_DEGREE: 43.062700
STATION_LONGITUDE_DEGREE: 13.335200
STATION_ELEVATION_M: 574
LOCATION: 
SENSOR_DEPTH_M: 0.0
VS30_M/S: 488
SITE_CLASSIFICATION_EC8: B
MORPHOLOGIC_CLASSIFICATION: 
EPICENTRAL_DISTANCE_KM: 80.1
EARTHQUAKE_BACKAZIMUTH_DEGREE: 357.4
DATE_TIME_FIRST_SAMPLE_YYYYMMDD_HHMMSS: 20090406_013151.480
DATE_TIME_FIRST_SAMPLE_PRECISION: milliseconds
SAMPLING_INTERVAL_S: 0.005000
NDATA: 62746
DURATION_S: 313.730
STREAM: HNZ
UNITS: cm/s^2
INSTRUMENT: sensor = EPISENSOR-FBA-ES-T-CL-2G-FS-40-VPP [Unknown] | digitizer = Unknown [Unknown]
INSTRUMENT_ANALOG/DIGITAL: D
INSTRUMENTAL_FREQUENCY_HZ: 
INSTRUMENTAL_DAMPING: 
FULL_SCALE_G: 
N_BIT_DIGITAL_CONVERTER: 
PGA_CM/S^2: 9.667272
TIME_PGA_S: 79.605000
BASELINE_CORRECTION: BASELINE NOT REMOVED
FILTER_TYPE: 
FILTER_ORDER: 
LOW_CUT_FREQUENCY_HZ: 
HIGH_CUT_FREQUENCY_HZ: 
LATE/NORMAL_TRIGGERED: NT
DATABASE_VERSION: 0.5
HEADER_FORMAT: DYNA 1.2
DATA_TYPE: ACCELERATION
PROCESSING: converted to cm/s^2
DATA_TIMESTAMP_YYYYMMDD_HHMMSS: 20211011_160608.584
DATA_LICENSE: CC-BY4_0 (http://creativecommons.org/licenses/by/4.0/)
DATA_CITATION: Luzi L, Pacor F, Puglia R (2019). Italian Accelerometric Archive v 3.0 - Istituto Nazionale di Geofisica e Vulcanologia, Dipartimento della Protezione Civile Nazionale. doi: 10.13127/itaca.3.1
DATA_CREATOR: ITACA working group
ORIGINAL_DATA_MEDIATOR_CITATION: Orfeus - European Integrated Data Archive (EIDA) http://www.orfeus-eu.org/eida/
ORIGINAL_DATA_MEDIATOR: Orfeus - European Integrated Data Archive (EIDA)
ORIGINAL_DATA_CREATOR_CITATION: INGV Seismological Data Centre. (1997). Rete Sismica Nazionale (RSN). Istituto Nazionale di Geofisica e Vulcanologia (INGV), Italy. https://doi.org/10.13127/SD/X0FXnH7QfY http://www.fdsn.org/networks/detail/IV/
ORIGINAL_DATA_CREATOR: network: IV (Italian National Seismic Network (INSN)); owner: Istituto Nazionale di Geofisica e Vulcanologia (INGV)
USER1: 
USER2: 
USER3: 
USER4: 
USER5: 
[...]
0.277055
0.016432
-0.223616
-0.389155
-0.531936
-0.729586
-0.987403
-1.237426
-1.363061
-1.301335
-1.159177
-1.081863
-1.081240
-1.056611
-0.972751
-0.964957
-1.166659
-1.537330
-1.849079
-1.915794
-1.767401
-1.517066
-1.248026
-1.012655
-0.847427
-0.702464
-0.564670
-0.534430
-0.609562
-0.738003
-0.905724
-1.073758
-1.209681
-1.289800
-1.287930
-1.174765
-0.908530
-0.445893
0.131467
0.599092
0.841322
0.933911
0.921130
0.734703
0.351874
-0.132897
-0.511361
-0.613303
-0.487044
-0.267572
-0.100475
-0.059947
-0.125726
-0.218316
-0.177789
0.009261
0.281731
0.554512
0.642737
0.487174
0.185712
-0.090187
-0.213328
-0.177165
-0.079899
-0.052153
-0.116997
-0.248556
-0.335222
-0.251050
-0.012873
0.302306
0.606574
0.849739
0.971010
0.929235
0.795183
0.699164
0.748109
0.928612
1.168971
1.375661
1.477603
1.484150
1.421800
1.366620
1.378778
1.431464
1.474174
1.477915
1.402471
1.247532
1.094774
1.009978
1.055494
1.271848
1.588586
1.845156
1.942734
1.908441
1.838298
1.850768
1.896283
1.840792
1.684917
1.468562
1.242544
1.024631
0.783960
0.547653
0.386167
0.350627
0.386790
0.390220
0.282666
-0.009755
-0.478939
-0.999873
-1.441311
-1.720015
-1.803564
-1.749008
-1.622749
-1.468433
-1.323781
-1.215916
-1.141719
-1.093710
-1.117091
-1.199081
-1.264860
-1.242103
-1.070328
-0.749538
-0.376061
-0.087381
0.063194
0.108398
0.122427
0.144873
0.177918
0.270508
0.462234
0.710699
0.894631
0.899619
0.649284
0.157654
-0.416589
-0.871120
-1.114597
-1.210928
-1.225892
-1.185364
-1.152630
-1.168218
-1.238050
-1.338121
-1.373973
-1.340615
-1.296347
-1.190976
-0.944070
-0.559059
-0.124168
0.315400
0.737197
1.132808
1.542447
1.967674
2.374819
2.709639
2.928175
3.046017
3.084674
3.015153
2.817816
2.576521
2.410359
2.345827
2.357050
2.406306
2.435299
2.399759
2.276306
2.034700
1.650001
1.158060
0.644296
0.202546
-0.069611
-0.189635
-0.251985
-0.299371
-0.391337
-0.602392
-0.916947
-1.200016
-1.342486
-1.331263
-1.217786
-1.079993
-0.986779
-0.992391
-1.096515
-1.260184
-1.392054
-1.447546
-1.468745
-1.489320
-1.548553
-1.675123
-1.862173
-2.027089
-2.103779
-2.060446
-1.861238
-1.541382
-1.166659
-0.848362
-0.682200
-0.625773
-0.569035
-0.434359
-0.213328
0.066935
0.335663
0.507749
0.570099
0.528013
0.403001
0.247750
0.122115
0.088134
0.118374
0.088134
-0.075535
-0.301553
-0.457740
-0.476757
-0.339275
-0.027837
0.339404
0.561682
0.561994
0.377438
0.087511
-0.218004
-0.449323
-0.514167
-0.369203
-0.125415
0.065688
0.204417
0.338157
0.449452
0.502138
0.477510
0.426694
0.431059
0.510867
0.649284
0.802041
0.913024
0.954799
0.945446
0.898995
0.759020
0.509620
0.214081
-0.086134
-0.340210
-0.464598
-0.428435
-0.327740
-0.297189
-0.370138
-0.499203
-0.625773
-0.729898
-0.835581
-0.931288
-0.964333
-0.917259
-0.781960
-0.552512
-0.274431
-0.049971
0.057894
0.110892
0.200052
0.381802
0.624032
0.831346
0.968516
1.037101
1.088228
1.169906
1.264678
1.307076
1.274966
1.273095
1.341680
1.406212
1.393119
1.270601
1.047077
0.783960
0.563241
0.413289
0.357174
0.347198
0.297630
0.265520
0.316335
0.379932
0.396455
0.391778
0.401754
0.411730
0.401443
0.411107
0.481874
0.582258
0.624032
0.581322
0.510243
0.513673
0.635879
0.841945
1.097580
1.284630
1.386260
1.485397
1.583286
1.664030
1.683982
1.639401
1.524989
1.389690
1.322664
1.339810
1.444246
1.531848
1.520001
1.453287
1.335134
1.112232
0.762449
0.378373
0.086575
-0.089875
-0.150043
-0.106086
-0.015055
0.095616
0.163578
0.169189
0.148614
0.084393
-0.041242
-0.228292
-0.469898
-0.789753
-1.153566
-1.437881
-1.587833
-1.609967
-1.538888
-1.419488
-1.263925
-1.095268
-0.927547
-0.731768
-0.518531
-0.395702
-0.399443
-0.446517
-0.462416
-0.453999
-0.469275
-0.483303
-0.468651
-0.399754
-0.310282
-0.261961
-0.259155
-0.334910
-0.455869
-0.576828
-0.678771
-0.744550
-0.720545
-0.511984
-0.160331
0.182906
0.390531
0.452570
0.440723
0.429500
0.438853
0.440100
0.430435
0.382426
0.265520
0.099045
-0.047165
-0.128532
-0.101098
0.076911
0.311035
0.499644
0.609068
0.643361
0.634943
0.599716
0.524584
0.412977
0.315088
0.215952
0.087822
-0.006326
-0.030954
-0.038748
-0.069611
-0.084575
-0.064623
0.005520
0.125856
0.234033
0.295136
0.309476
0.330675
0.415160
0.540171
0.596598
0.487797
0.263338
0.040436
-0.163136
-0.380426
-0.559682
-0.654142
-0.650090
-0.545342
-0.385414
-0.241385
-0.193688
-0.278172
-0.452440
-0.610497
-0.700905
-0.742679
-0.704022
-0.605821
-0.523831
-0.453375
-0.358292
-0.237644
-0.107021
0.022043
0.130220
0.194441
0.176983
0.048542
-0.143496
-0.353304
-0.566541
-0.762319
-0.897307
-0.961528
-1.012343
-1.110856
-1.335939
-1.711598
-2.153036
-2.543658
-2.818933
-2.988525
-3.081427
-3.098261
-2.949245
-2.553011
-1.987185
-1.386131
-0.860521
-0.463663
-0.176542
0.025784
0.157966
0.232474
0.292642
0.358733
0.409236
0.462546
0.516478
0.560747
0.606262
0.622473
0.504632
0.241515
-0.066494
-0.335534
-0.460234
-0.394766
-0.167189
0.131467
0.448829
0.781466
1.077628
1.313935
1.437076
1.430841
1.403718
1.432399
1.486020
1.537147
1.545565
1.455157
1.233191
0.877485
0.470028
0.068182
-0.295942
-0.613303
-0.850545
-0.971192
-1.028866
-1.034477
-0.975245
-0.839945
-0.641984
-0.428435
-0.230163
-0.088005
0.022355
0.159525
0.353433
0.629644
0.956046
1.262496
1.545565
1.777195
1.852015
1.748826
1.544629
1.301153
1.006237
0.691058
0.395208
0.110580
-0.090499
-0.161578
-0.069300
0.203793
0.568541
0.936094
1.277772
1.592639
1.837986
1.988561
2.053093
2.050911
2.001655
1.943046
1.922782
1.897218
1.847962
1.799017
1.789353
1.890360
2.015995
2.048105
1.983261
1.807746
1.551800
1.297412
1.115038
1.008420
0.927676
0.884967
0.845998
0.758396
0.612497
0.376503
0.109645
-0.139755
-0.421889
-0.809394
-1.276707
-1.740279
-2.202292
-2.620349
-2.977926
-3.308381
-3.584591
-3.792528
-3.914734
-3.971784
-4.072791
-4.280728
-4.507682
-4.592478
-4.482742
-4.254853
-3.959938
-3.622936
-3.259748
-2.839197
-2.391836
-2.008384
-1.694140
-1.378961
-0.964645
-0.408483
0.203170
0.748109
1.189858
1.558658
1.840168
2.061822
2.298441
2.568104
2.862084
3.195968
3.631171
4.141506
4.654334
5.089537
5.364500
5.495747
5.480783
5.299345
5.027499
4.744118
4.430186
4.087573
3.714720
3.270788
2.771053
2.242637
1.702063
1.099451
0.409236
-0.328987
-1.040400
-1.648936
-2.198239
-2.725720
-3.188669
-3.563704
-3.841161
-3.976460
-3.948091
-3.809363
-3.663775
-3.609219
-3.628859
-3.612337
-3.493872
-3.291546
-3.037470
-2.740684
-2.488790
-2.362531
-2.346009
-2.471020
-2.754401
-3.110419
-3.391930
-3.499483
-3.437445
-3.220467
-2.915887
-2.534617
-2.049223
-1.506155
-0.889513
-0.256349
0.268014
0.633385
0.904919
1.213239
1.585157
2.024724
2.488920
2.851485
3.009542
2.901053
2.550334
2.026595
1.423982
0.856286
0.420148
0.204417
0.136144
0.065065
-0.090187
-0.457116
-1.037906
-1.650807
-2.122484
-2.376560
-2.504378
-2.652147
-2.877230
-3.130683
-3.361378
-3.539699
-3.583032
-3.435574
-3.125383
-2.731643
-2.311405
-1.903012
-1.541694
-1.195652
-0.860521
-0.533807
-0.192753
0.145496
0.518661
0.923624
1.255326
1.457339
1.593574
1.741344
1.919664
2.166259
2.429375
2.636066
2.812204
2.938151
3.001125
2.964650
2.772300
2.451510
2.104220
1.811176
1.472615
1.057988
0.715063
0.515855
0.438853
0.416718
0.402066
0.391467
0.404248
0.427941
0.402378
0.336287
0.208158
0.016743
-0.144120
-0.286277
-0.453687
-0.640425
-0.783830
-0.839633
-0.845245
-0.806588
-0.755149
-0.696229
-0.616109
-0.546589
-0.421265
-0.179347
0.150796
0.552330
1.018396
1.522807
1.988561
2.388225
2.737073
2.970885
3.089350
3.141100
3.154817
3.181004
3.202827
3.170717
3.060357
2.835274
2.461174
1.956451
1.406524
0.834151
0.185088
-0.562800
-1.421982
-2.336345
-3.163105
-3.800322
-4.240824
-4.555380
-4.792933
-4.951614
-4.995571
-4.928233
-4.850919
-4.805403
-4.724037
-4.565044
-4.358666
-4.112695
-3.862048
-3.670634
-3.547804
-3.498548
-3.497924
-3.528164
-3.557780
-3.543752
-3.412505
-3.059916
-2.542411
-1.898336
-1.151695
-0.432488
0.232786
0.851609
1.445805
2.083957
2.751413
3.408894
4.020547
4.556756
4.978242
5.230448
5.408457
5.579608
5.704308
5.814355
5.901022
5.931262
5.868912
5.628552
5.211743
4.723543
4.247189
3.786423
3.315680
2.826233
2.290335
1.667147
0.959163
0.180100
-0.628267
-1.357762
-1.933564
-2.359414
-2.633754
-2.739125
-2.655265
-2.373754
-2.031141
-1.785483
-1.604356
-1.419488
-1.233685
-1.028866
-0.785077
-0.558747
-0.375750
-0.170618
0.064129
0.263026
0.374320
0.379620
0.331611
0.301371
0.269884
0.203170
0.160772
0.238086
0.474392
0.882161
1.440817
2.015372
2.502637
2.895753
3.212491
3.494313
3.715655
3.836926
3.861554
3.808557
3.724384
3.640835
3.620572
3.618389
3.539205
3.440380
3.376160
3.335009
3.185369
2.797552
2.136642
1.222280
0.164201
-0.960592
-2.059511
-3.058669
-3.965237
-4.714061
-5.220966
-5.507464
-5.642140
-5.657104
-5.592883
-5.459766
-5.240918
-4.956290
-4.610248
-4.192191
-3.750130
-3.293728
-2.712938
-1.980950
-1.147954
-0.218004
0.707581
1.483838
2.046858
2.347074
2.409112
2.352685
2.285659
2.273189
2.355179
2.543164
2.784770
3.060669
3.394865
3.682610
3.795463
3.748077
3.553857
3.248342
2.927863
2.617984
2.341150
2.078657
1.790600
1.483215
1.175518
0.861585
0.451323
-0.051530
-0.522896
-0.881408
-1.108362
-1.245532
-1.348409
-1.480279
-1.641766
-1.820398
-2.057328
-2.375937
-2.779341
-3.190851
-3.520682
-3.768212
-4.077156
-4.556939
-5.093460
-5.594442
-5.961060
-6.077654
-5.975089
-5.750317
-5.486889
-5.210990
-4.912022
-4.528569
-4.013559
-3.379460
-2.592603
-1.682605
-0.759514
0.112762
0.864079
1.427100
1.803694
2.055276
2.228920
2.362038
2.520095
2.695922
2.856473
2.954674
2.930981
2.843068
2.781653
2.749854
2.653835
2.462109
2.195251
1.833310
1.390625
0.884343
0.370891
-0.092993
-0.537860
-0.963398
-1.313493
-1.557593
-1.745579
-1.920782
-2.028959
-2.062628
-2.039870
-1.930758
-1.769583
-1.585963
-1.373661
-1.141407
-0.918506
-0.746420
-0.676588
-0.761384
-0.974309
-1.289488
-1.727185
-2.232532
-2.668670
-3.003489
-3.302146
-3.551234
-3.744830
-3.846773
-3.824015
-3.703679
-3.477661
-3.168717
-2.842626
-2.492843
-2.055458
-1.561334
-1.072822
-0.603327
-0.143184
0.287342
0.602833
0.783025
0.838828
0.831969
0.853480
0.867820
0.895566
0.993767
1.084175
1.125949
1.146525
1.125949
1.041777
0.932664
0.854727
0.775854
0.671418
0.539860
0.359980
0.233410
0.230604
0.374320
0.731274
1.250649
1.803382
2.312158
2.810334
3.262059
3.578797
3.727190
3.701627
3.553234
3.348726
3.154194
2.946257
2.744866
2.529759
2.253237
2.009137
1.750696
1.431776
1.108491
0.816070
0.634943
0.616238
0.790507
1.136861
1.549929
1.910935
2.180599
2.428440
2.667864
2.844626
2.921317
2.940957
2.949998
2.907288
2.799423
2.651965
2.455251
2.218009
2.019424
1.896907
1.826140
1.728874
1.562087
1.409330
1.328587
1.308011
1.325781
1.400913
1.558970
1.777818
2.056834
2.378560
2.672540
2.933475
3.142036
3.239302
3.217167
3.000501
2.560934
2.002902
1.422423
0.865950
0.412042
0.167942
0.105592
0.148302
0.246503
0.312282
0.308541
0.246815
0.129285
-0.058388
-0.284719
-0.506996
-0.721169
-0.934717
-1.257067
-1.765219
-2.404618
-3.073321
-3.655046
-4.136076
-4.493342
-4.723725
-4.890199
-5.012405
-5.163604
-5.284875
-5.194467
-4.825979
-4.181904
-3.323033
-2.426440
-1.686970
-1.180064
-0.943446
-0.934717
-1.026995
-1.095268
-1.055676
-0.916012
-0.781648
-0.779154
-0.889202
-1.026372
-1.127379
-1.188482
-1.239297
-1.306323
-1.417929
-1.533589
-1.652054
-1.751814
-1.802629
-1.812917
-1.705986
-1.493373
-1.281695
-1.132367
-1.059105
-1.033230
-1.059105
-1.078122
-1.018578
-0.877043
-0.648531
-0.410042
-0.229851
-0.113880
-0.011314
0.130220
0.302306
0.504008
0.658948
0.714440
0.735327
0.730962
0.683265
0.631514
0.632449
0.730651
0.923312
1.185182
1.442999
1.640025
1.754125
1.723886
1.611344
1.478538
1.319858
1.144654
0.908348
0.635255
0.351251
0.115880
-0.025343
-0.147861
-0.227669
-0.296877
-0.405366
-0.541601
-0.779777
-1.121144
-1.518001
-1.921094
-2.292076
-2.584186
-2.739125
-2.791811
-2.768742
-2.684569
-2.547087
-2.354114
-2.138383
-1.891166
-1.619320
-1.322222
-1.028554
-0.782895
-0.474263
-0.123232
0.165448
0.391467
0.517102
0.548277
0.474392
0.274561
-0.019731
-0.373256
-0.715557
-1.040712
-1.324093
-1.508960
-1.637713
-1.717833
-1.744643
-1.810111
-1.943540
-2.092244
-2.242820
-2.360037
-2.464162
-2.642795
-2.892506
-3.218597
-3.609219
-4.018547
-4.370201
-4.590296
-4.714372
-4.705955
-4.513294
-4.175980
-3.730178
-3.198021
-2.569222
-1.874331
-1.136108
-0.334599
0.494032
1.336692
2.146307
2.884842
3.636471
4.436421
5.250400
6.057520
6.854976
7.595694
8.222935
8.717682
9.047825
9.266673
9.453411
9.603051
9.667272
9.571565
9.255762
8.748233
8.197683
7.712912
7.311690
7.038909
6.901739
6.803849
6.617423
6.276992
5.742029
5.029993
4.188268
3.212491
2.171247
1.128755
0.066935
-1.018266
-2.071045
-3.090156
-4.084326
-4.974372
-5.759670
-6.411227
-6.889451
-7.231129
-7.438754
-7.581224
-7.732423
-7.885492
-7.982758
-7.946283
-7.829065
-7.602735
-7.178131
-6.621034
-5.921468
-5.134299
-4.348378
-3.554975
-2.818622
-2.132148
-1.483397
-0.907283
-0.387284
0.125856
0.715687
1.373790
2.002278
2.547529
3.007360
3.375225
3.631483
3.782993
3.831003
3.795463
3.713473
3.605296
3.538893
3.550428
3.583785
3.594385
3.558222
3.453785
3.284194
3.086856
2.914770
2.747049
2.554075
2.360791
2.155036
1.908441
1.590457
1.250338
0.991273
0.832593
0.772737
0.732521
0.623409
0.390531
-0.036878
-0.617668
-1.306946
-2.067304
-2.804281
-3.463632
-4.007324
-4.430680
-4.796363
-5.173580
-5.540509
-5.871276
-6.189884
-6.434608
-6.528133
-6.456742
-6.245064
-5.908686
-5.433268
-4.860583
-4.202167
-3.454591
-2.626895
-1.687281
-0.720233
0.225304
1.181129
2.099544
2.938151
3.701938
4.412416
5.059609
5.658169
6.257975
6.842195
7.354088
7.756245
7.992863
8.065501
8.048978
7.933631
7.793343
7.682984
7.556414
7.439507
7.273656
7.080683
6.863082
6.516104
6.063755
5.485459
4.822056
4.145558
3.423546
2.684075
1.926211
1.096957
0.227175
-0.595533
-1.354332
-2.059511
-2.643106
-3.072698
-3.399411
-3.638524
-3.806245
-3.944662
-4.049410
-4.134829
-4.185333
-4.150417
-4.036628
-3.886365
-3.706797
-3.478596
-3.307445
-3.267853
-3.328644
-3.458332
-3.617013
-3.776629
-3.876701
-3.867036
-3.733296
-3.514759
-3.256942
-2.957662
-2.668358
-2.441092
-2.244067
-2.028336
-1.798576
-1.564452
-1.310376
-1.031671
-0.726157
-0.433423
-0.180594
0.060388
0.290772
0.466910
0.547653
0.577270
0.564488
0.493721
0.422953
0.339404
0.270820
0.285160
0.432618
0.754655
1.178947
1.626620
2.023165
2.348632
2.580262
2.630766
2.517912
2.283477
1.962374
1.615085
1.363814
1.283695
1.315805
1.392807
1.424917
1.410889
1.400601
1.393431
1.386884
1.383766
1.386260
1.347915
1.288995
1.226333
1.102256
0.915206
0.708516
0.490915
0.198182
-0.141626
-0.521649
-0.995820
-1.485267
-2.026465
-2.641236
-3.197086
-3.673440
-4.065621
-4.336843
-4.482430
-4.511423
-4.462478
-4.313774
-4.050345
-3.689339
-3.196151
-2.589797
-1.941981
-1.306323
-0.723039
-0.164383
0.422642
1.032424
1.584533
2.050288
2.519159
2.999566
3.492442
4.010259
4.494095
4.972007
5.438073
5.860806
6.247688
6.531068
6.681332
6.706583
6.669173
6.604641
6.475889
6.336848
6.232100
6.162892
6.098671
5.964619
5.729871
5.397234
4.970137
4.462296
3.922346
3.393306
2.858343
2.294076
1.740097
1.179570
0.577581
-0.003520
-0.557188
-1.146084
-1.802317
-2.527135
-3.291234
-4.068427
-4.815379
-5.441685
-5.875329
-6.100412
-6.192067
-6.191443
-6.072355
-5.888422
-5.668015
-5.395234
-5.045451
-4.649840
-4.248618
-3.840538
-3.481402
-3.136606
-2.830468
-2.618478
-2.403371
-2.194810
-1.949151
-1.560087
-1.042894
-0.461793
0.098422
0.625279
1.123144
1.599809
2.035324
2.402877
2.741749
3.054122
3.287623
3.400788
3.421987
3.333762
3.117096
2.794746
2.367961
1.860432
1.303335
0.775543
0.302306
-0.112009
-0.454622
-0.768866
-1.034477
-1.266107
-1.518001
-1.791406
-2.022101
-2.205721
-2.370637
-2.447639
-2.456056
-2.415841
-2.321381
-2.206657
-2.032700
-1.827880
-1.645819
-1.482462
-1.341551
-1.180064
-0.998938
-0.800665
-0.522896
-0.208028
0.075664
0.331299
0.514296
0.580699
0.526143
0.368709
0.198805
0.093746
0.050412
0.021731
-0.017237
-0.064312
-0.125726
-0.168436
-0.132897
-0.027213
0.092499
0.236527
0.411730
0.587246
0.717869
0.751850
0.711634
0.638373
0.571970
0.522402
0.521778
0.563241
0.557006
0.528013
0.513361
0.503385
0.504632
0.537989
0.627773
0.767125
0.915206
1.009043
1.022760
0.954487
0.788013
0.546095
0.297006
0.091252
-0.058700
-0.152537
-0.165942
-0.127597
-0.066806
0.033266
0.125856
0.193817
0.241827
0.246815
0.244009
0.234968
0.192259
0.180412
0.259597
0.433553
0.677965
0.976309
1.353527
1.769401
2.173741
2.545035
2.856473
3.134865
3.369301
3.533282
3.626183
3.600620
3.420740
3.116784
2.759207
2.359544
1.880696
1.348850
0.758708
0.077223
-0.679706
-1.519248
-2.397447
-3.241978
-4.040369
-4.761447
-5.334755
-5.745017
-6.014058
-6.120052
-6.061755
-5.901204
-5.702931
-5.459766
-5.174827
-4.871494
-4.528569
-4.190009
-3.866413
-3.520682
-3.169964
-2.765001
-2.211333
-1.488385
-0.650401
0.248997
1.177076
2.076786
2.914147
3.733113
4.558939
5.378217
6.179726
6.929173
7.576677
8.090441
8.450200
8.657826
8.765379
8.802789
8.763509
8.679960
8.576771
8.387227
8.054590
7.601306
7.054808
6.452196
5.830255
5.190232
4.543351
3.894600
3.230884
2.594291
2.061511
1.627867
1.238803
0.894943
0.597533
0.312906
0.005520
-0.323687
-0.654454
-0.959657
-1.208434
-1.390184
-1.466874
-1.472797
-1.512701
-1.604044
-1.728744
-1.864355
-1.962868
-1.978767
-1.862796
-1.625867
-1.302894
-0.907283
-0.492032
-0.044048
0.433865
0.907724
1.395613
1.813981
2.075228
2.153477
2.032830
1.716092
1.215422
0.589116
-0.095175
-0.809705
-1.552917
-2.317640
-3.106678
-3.911617
-4.721854
-5.527416
-6.240700
-6.809020
-7.218659
-7.410073
-7.369234
-7.145709
-6.784703
-6.279357
-5.652428
-4.987465
-4.331544
-3.743895
-3.247589
-2.826104
-2.504066
-2.240637
-1.956010
-1.647377
-1.332822
-0.976492
-0.558123
-0.128220
0.250556
0.550147
0.720986
0.730339
0.617797
0.410483
