EVENT_NAME: L_AQUILA
EVENT_ID: IT-2009-0009
EVENT_DATE_YYYYMMDD: 20090406
EVENT_TIME_HHMMSS: 013240
EVENT_LATITUDE_DEGREE: 42.3420
EVENT_LONGITUDE_DEGREE: 13.3800
EVENT_DEPTH_KM: 8.3
HYPOCENTER_REFERENCE: INGV-CNT_Seismic_Bulletin
MAGNITUDE_W: 6.1
MAGNITUDE_W_REFERENCE: INGV-CNT_Seismic_Bulletin
MAGNITUDE_L: 
MAGNITUDE_L_REFERENCE: 
FOCAL_MECHANISM: Normal faulting
NETWORK: IV
STATION_CODE: GUMA
STATION_NAME: 
STATION_LATITUDE_DEGREE: 43.062700
STATION_LONGITUDE_DEGREE: 13.335200
STATION_ELEVATION_M: 574
LOCATION: 
SENSOR_DEPTH_M: 0.0
VS30_M/S: 488
SITE_CLASSIFICATION_EC8: B
MORPHOLOGIC_CLASSIFICATION: 
EPICENTRAL_DISTANCE_KM: 80.1
EARTHQUAKE_BACKAZIMUTH_DEGREE: 357.4
DATE_TIME_FIRST_SAMPLE_YYYYMMDD_HHMMSS: 
DATE_TIME_FIRST_SAMPLE_PRECISION: 
SAMPLING_INTERVAL_S: 
NDATA: 105
DURATION_S: 
STREAM: HNN
UNITS: cm/s^2
INSTRUMENT: sensor = EPISENSOR-FBA-ES-T-CL-2G-FS-40-VPP [Unknown] | digitizer = Unknown [Unknown]
INSTRUMENT_ANALOG/DIGITAL: D
INSTRUMENTAL_FREQUENCY_HZ: 
INSTRUMENTAL_DAMPING: 
FULL_SCALE_G: 
N_BIT_DIGITAL_CONVERTER: 
PGA_CM/S^2: 17.526403
TIME_PGA_S: 
BASELINE_CORRECTION: BASELINE REMOVED
FILTER_TYPE: BUTTERWORTH
FILTER_ORDER: 2
LOW_CUT_FREQUENCY_HZ: 0.040
HIGH_CUT_FREQUENCY_HZ: 40.000
LATE/NORMAL_TRIGGERED: NT
DATABASE_VERSION: 0.5
HEADER_FORMAT: DYNA 1.2
DATA_TYPE: ACCELERATION RESPONSE SPECTRUM
PROCESSING: manual (Paolucci et al., 2011)
DATA_TIMESTAMP_YYYYMMDD_HHMMSS: 20211011_160609.789
DATA_LICENSE: CC-BY4_0 (http://creativecommons.org/licenses/by/4.0/)
DATA_CITATION: Luzi L, Pacor F, Puglia R (2019). Italian Accelerometric Archive v 3.0 - Istituto Nazionale di Geofisica e Vulcanologia, Dipartimento della Protezione Civile Nazionale. doi: 10.13127/itaca.3.1
DATA_CREATOR: ITACA working group
ORIGINAL_DATA_MEDIATOR_CITATION: Orfeus - European Integrated Data Archive (EIDA) http://www.orfeus-eu.org/eida/
ORIGINAL_DATA_MEDIATOR: Orfeus - European Integrated Data Archive (EIDA)
ORIGINAL_DATA_CREATOR_CITATION: INGV Seismological Data Centre. (1997). Rete Sismica Nazionale (RSN). Istituto Nazionale di Geofisica e Vulcanologia (INGV), Italy. https://doi.org/10.13127/SD/X0FXnH7QfY http://www.fdsn.org/networks/detail/IV/
ORIGINAL_DATA_CREATOR: network: IV (Italian National Seismic Network (INSN)); owner: Istituto Nazionale di Geofisica e Vulcanologia (INGV)
USER1: 
USER2: 
USER3: 
USER4: 
USER5: 
    0.010000    17.537884
    0.020000    17.572948
    0.022000    17.580055
    0.025000    17.600727
    0.029000    17.624460
    0.030000    17.613951
    0.032000    17.626469
    0.035001    17.674456
    0.036000    17.742788
    0.040000    18.012486
    0.041999    17.951872
    0.044001    17.976311
    0.045000    17.971748
    0.046000    17.919624
    0.048001    17.739183
    0.050000    17.873167
    0.054999    17.605164
    0.059999    17.533680
    0.064998    17.877335
    0.067002    18.092468
    0.069999    18.693428
    0.075002    18.592487
    0.080000    18.468845
    0.084998    20.218571
    0.090001    20.869070
    0.095003    21.365335
    0.100000    23.313272
    0.109999    27.965248
    0.120005    28.471556
    0.130005    26.323423
    0.132996    25.898722
    0.139997    29.746128
    0.149993    36.089657
    0.160000    35.796379
    0.170010    36.953789
    0.179986    41.425274
    0.190006    36.153984
    0.200000    38.818676
    0.220022    46.064915
    0.239981    51.687527
    0.250000    51.965755
    0.260010    47.336582
    0.280034    51.388924
    0.290023    57.339916
    0.300030    63.487278
    0.320000    61.700146
    0.340020    60.580173
    0.350017    56.435535
    0.359971    48.065105
    0.379939    48.496670
    0.400000    56.110985
    0.419992    63.218685
    0.439947    72.877800
    0.450045    73.468529
    0.459982    70.675919
    0.480077    65.104706
    0.500000    51.685478
    0.550055    46.939198
    0.599880    45.856049
    0.650195    35.455292
    0.667111    36.990738
    0.699790    31.997059
    0.750188    23.645161
    0.800000    21.153223
    0.850340    21.138926
    0.900090    24.427362
    0.949668    20.814774
    1.000000    18.411001
    1.100110    13.864769
    1.200480    10.970469
    1.300390     8.199480
    1.400560     5.849352
    1.499250     5.508914
    1.600000     5.935606
    1.700680     5.317068
    1.798561     4.503588
    1.901141     4.027438
    2.000000     4.321331
    2.197802     4.278131
    2.398082     4.319252
    2.500000     4.185112
    2.597403     4.360924
    2.801121     5.000150
    3.003003     4.799525
    3.205128     4.439960
    3.401361     4.066156
    3.496503     3.718460
    3.597122     3.426808
    3.802281     2.839735
    4.000000     2.515084
    4.201681     2.519321
    4.405286     2.658362
    4.608295     2.699816
    4.807692     2.534233
    5.000000     2.285482
    5.494505     1.562362
    5.988024     1.105564
    6.493506     0.889209
    6.993007     0.756628
    7.518797     0.666810
    8.000000     0.546736
    8.474576     0.445926
    9.009009     0.367306
    9.523809     0.336739
   10.000000     0.309608
