EVENT_NAME: L_AQUILA
EVENT_ID: IT-2009-0009
EVENT_DATE_YYYYMMDD: 20090406
EVENT_TIME_HHMMSS: 013240
EVENT_LATITUDE_DEGREE: 42.3420
EVENT_LONGITUDE_DEGREE: 13.3800
EVENT_DEPTH_KM: 8.3
HYPOCENTER_REFERENCE: INGV-CNT_Seismic_Bulletin
MAGNITUDE_W: 6.1
MAGNITUDE_W_REFERENCE: INGV-CNT_Seismic_Bulletin
MAGNITUDE_L: 
MAGNITUDE_L_REFERENCE: 
FOCAL_MECHANISM: Normal faulting
NETWORK: IV
STATION_CODE: GUMA
STATION_NAME: 
STATION_LATITUDE_DEGREE: 43.062700
STATION_LONGITUDE_DEGREE: 13.335200
STATION_ELEVATION_M: 574
LOCATION: 
SENSOR_DEPTH_M: 0.0
VS30_M/S: 488
SITE_CLASSIFICATION_EC8: B
MORPHOLOGIC_CLASSIFICATION: 
EPICENTRAL_DISTANCE_KM: 80.1
EARTHQUAKE_BACKAZIMUTH_DEGREE: 357.4
DATE_TIME_FIRST_SAMPLE_YYYYMMDD_HHMMSS: 
DATE_TIME_FIRST_SAMPLE_PRECISION: 
SAMPLING_INTERVAL_S: 
NDATA: 105
DURATION_S: 
STREAM: HNZ
UNITS: cm/s^2
INSTRUMENT: sensor = EPISENSOR-FBA-ES-T-CL-2G-FS-40-VPP [Unknown] | digitizer = Unknown [Unknown]
INSTRUMENT_ANALOG/DIGITAL: D
INSTRUMENTAL_FREQUENCY_HZ: 
INSTRUMENTAL_DAMPING: 
FULL_SCALE_G: 
N_BIT_DIGITAL_CONVERTER: 
PGA_CM/S^2: 9.657338
TIME_PGA_S: 
BASELINE_CORRECTION: BASELINE REMOVED
FILTER_TYPE: BUTTERWORTH
FILTER_ORDER: 2
LOW_CUT_FREQUENCY_HZ: 0.040
HIGH_CUT_FREQUENCY_HZ: 40.000
LATE/NORMAL_TRIGGERED: NT
DATABASE_VERSION: 0.5
HEADER_FORMAT: DYNA 1.2
DATA_TYPE: ACCELERATION RESPONSE SPECTRUM
PROCESSING: manual (Paolucci et al., 2011)
DATA_TIMESTAMP_YYYYMMDD_HHMMSS: 20211011_160610.060
DATA_LICENSE: CC-BY4_0 (http://creativecommons.org/licenses/by/4.0/)
DATA_CITATION: Luzi L, Pacor F, Puglia R (2019). Italian Accelerometric Archive v 3.0 - Istituto Nazionale di Geofisica e Vulcanologia, Dipartimento della Protezione Civile Nazionale. doi: 10.13127/itaca.3.1
DATA_CREATOR: ITACA working group
ORIGINAL_DATA_MEDIATOR_CITATION: Orfeus - European Integrated Data Archive (EIDA) http://www.orfeus-eu.org/eida/
ORIGINAL_DATA_MEDIATOR: Orfeus - European Integrated Data Archive (EIDA)
ORIGINAL_DATA_CREATOR_CITATION: INGV Seismological Data Centre. (1997). Rete Sismica Nazionale (RSN). Istituto Nazionale di Geofisica e Vulcanologia (INGV), Italy. https://doi.org/10.13127/SD/X0FXnH7QfY http://www.fdsn.org/networks/detail/IV/
ORIGINAL_DATA_CREATOR: network: IV (Italian National Seismic Network (INSN)); owner: Istituto Nazionale di Geofisica e Vulcanologia (INGV)
USER1: 
USER2: 
USER3: 
USER4: 
USER5: 
    0.010000     9.658834
    0.020000     9.711045
    0.022000     9.742990
    0.025000     9.746150
    0.029000     9.721207
    0.030000     9.752025
    0.032000     9.814499
    0.035001     9.738237
    0.036000     9.746119
    0.040000    10.076553
    0.041999    11.259394
    0.044001    12.020484
    0.045000    12.043594
    0.046000    11.839782
    0.048001    12.390584
    0.050000    10.934960
    0.054999    10.160044
    0.059999    11.924200
    0.064998    10.868460
    0.067002    11.397715
    0.069999    11.981160
    0.075002    11.401781
    0.080000    11.383858
    0.084998    11.895900
    0.090001    11.807708
    0.095003    13.016530
    0.100000    12.431928
    0.109999    14.542560
    0.120005    16.014355
    0.130005    15.112885
    0.132996    14.637646
    0.139997    17.153332
    0.149993    16.836275
    0.160000    19.356625
    0.170010    19.355320
    0.179986    21.366465
    0.190006    23.937193
    0.200000    23.337833
    0.220022    28.454639
    0.239981    28.110306
    0.250000    32.433422
    0.260010    35.244354
    0.280034    35.406090
    0.290023    39.723713
    0.300030    43.640942
    0.320000    39.013340
    0.340020    36.971577
    0.350017    32.762283
    0.359971    27.777199
    0.379939    22.736666
    0.400000    19.552382
    0.419992    18.011044
    0.439947    19.319170
    0.450045    19.937782
    0.459982    20.409189
    0.480077    20.490805
    0.500000    19.281803
    0.550055    16.828215
    0.599880    15.985031
    0.650195    13.037427
    0.667111    13.305397
    0.699790    13.973089
    0.750188    10.406648
    0.800000    10.032179
    0.850340    12.833737
    0.900090    12.771994
    0.949668    11.227669
    1.000000    12.162267
    1.100110    10.851936
    1.200480     7.808949
    1.300390     6.619496
    1.400560     8.961700
    1.499250     7.412889
    1.600000     6.532302
    1.700680     5.605566
    1.798561     4.074438
    1.901141     4.253848
    2.000000     4.169720
    2.197802     5.199179
    2.398082     5.996347
    2.500000     6.287533
    2.597403     6.647371
    2.801121     5.969353
    3.003003     4.622208
    3.205128     3.168341
    3.401361     2.066648
    3.496503     2.052647
    3.597122     1.935493
    3.802281     1.829141
    4.000000     1.903569
    4.201681     1.793615
    4.405286     1.493168
    4.608295     1.292057
    4.807692     1.326810
    5.000000     1.319494
    5.494505     1.365882
    5.988024     1.057139
    6.493506     0.785585
    6.993007     0.623001
    7.518797     0.528245
    8.000000     0.416524
    8.474576     0.362150
    9.009009     0.374975
    9.523809     0.361541
   10.000000     0.336213
