EVENT_NAME: L_AQUILA
EVENT_ID: IT-2009-0009
EVENT_DATE_YYYYMMDD: 20090406
EVENT_TIME_HHMMSS: 013240
EVENT_LATITUDE_DEGREE: 42.3420
EVENT_LONGITUDE_DEGREE: 13.3800
EVENT_DEPTH_KM: 8.3
HYPOCENTER_REFERENCE: INGV-CNT_Seismic_Bulletin
MAGNITUDE_W: 6.1
MAGNITUDE_W_REFERENCE: INGV-CNT_Seismic_Bulletin
MAGNITUDE_L: 
MAGNITUDE_L_REFERENCE: 
FOCAL_MECHANISM: Normal faulting
NETWORK: IV
STATION_CODE: GUMA
STATION_NAME: 
STATION_LATITUDE_DEGREE: 43.062700
STATION_LONGITUDE_DEGREE: 13.335200
STATION_ELEVATION_M: 574
LOCATION: 
SENSOR_DEPTH_M: 0.0
VS30_M/S: 488
SITE_CLASSIFICATION_EC8: B
MORPHOLOGIC_CLASSIFICATION: 
EPICENTRAL_DISTANCE_KM: 80.1
EARTHQUAKE_BACKAZIMUTH_DEGREE: 357.4
DATE_TIME_FIRST_SAMPLE_YYYYMMDD_HHMMSS: 20090406_013152.000
DATE_TIME_FIRST_SAMPLE_PRECISION: milliseconds
SAMPLING_INTERVAL_S: 0.005000
NDATA: 62478
DURATION_S: 312.390
STREAM: HNZ
UNITS: cm
INSTRUMENT: sensor = EPISENSOR-FBA-ES-T-CL-2G-FS-40-VPP [Unknown] | digitizer = Unknown [Unknown]
INSTRUMENT_ANALOG/DIGITAL: D
INSTRUMENTAL_FREQUENCY_HZ: 
INSTRUMENTAL_DAMPING: 
FULL_SCALE_G: 
N_BIT_DIGITAL_CONVERTER: 
PGD_CM: 0.560808
TIME_PGD_S: 82.745000
BASELINE_CORRECTION: BASELINE REMOVED
FILTER_TYPE: BUTTERWORTH
FILTER_ORDER: 2
LOW_CUT_FREQUENCY_HZ: 0.040
HIGH_CUT_FREQUENCY_HZ: 40.000
LATE/NORMAL_TRIGGERED: NT
DATABASE_VERSION: 0.5
HEADER_FORMAT: DYNA 1.2
DATA_TYPE: DISPLACEMENT
PROCESSING: manual (Paolucci et al., 2011)
DATA_TIMESTAMP_YYYYMMDD_HHMMSS: 20211011_160609.031
DATA_LICENSE: CC-BY4_0 (http://creativecommons.org/licenses/by/4.0/)
DATA_CITATION: Luzi L, Pacor F, Puglia R (2019). Italian Accelerometric Archive v 3.0 - Istituto Nazionale di Geofisica e Vulcanologia, Dipartimento della Protezione Civile Nazionale. doi: 10.13127/itaca.3.1
DATA_CREATOR: ITACA working group
ORIGINAL_DATA_MEDIATOR_CITATION: Orfeus - European Integrated Data Archive (EIDA) http://www.orfeus-eu.org/eida/
ORIGINAL_DATA_MEDIATOR: Orfeus - European Integrated Data Archive (EIDA)
ORIGINAL_DATA_CREATOR_CITATION: INGV Seismological Data Centre. (1997). Rete Sismica Nazionale (RSN). Istituto Nazionale di Geofisica e Vulcanologia (INGV), Italy. https://doi.org/10.13127/SD/X0FXnH7QfY http://www.fdsn.org/networks/detail/IV/
ORIGINAL_DATA_CREATOR: network: IV (Italian National Seismic Network (INSN)); owner: Istituto Nazionale di Geofisica e Vulcanologia (INGV)
USER1: 
USER2: 
USER3: 
USER4: 
USER5: 
[...]
-1.108532e-01
-1.089761e-01
-1.070882e-01
-1.051958e-01
-1.033009e-01
-1.014024e-01
-9.949804e-02
-9.758628e-02
-9.566687e-02
-9.374133e-02
-9.181287e-02
-8.988609e-02
-8.796637e-02
-8.605909e-02
-8.416946e-02
-8.230347e-02
-8.046978e-02
-7.868078e-02
-7.695194e-02
-7.529956e-02
-7.373853e-02
-7.228088e-02
-7.093540e-02
-6.970806e-02
-6.860310e-02
-6.762431e-02
-6.677534e-02
-6.605820e-02
-6.547045e-02
-6.500290e-02
-6.463938e-02
-6.435899e-02
-6.413990e-02
-6.396353e-02
-6.381725e-02
-6.369513e-02
-6.359654e-02
-6.352339e-02
-6.347704e-02
-6.345654e-02
-6.345904e-02
-6.348200e-02
-6.352508e-02
-6.359037e-02
-6.368098e-02
-6.379959e-02
-6.394799e-02
-6.412762e-02
-6.434026e-02
-6.458839e-02
-6.487496e-02
-6.520294e-02
-6.557484e-02
-6.599212e-02
-6.645439e-02
-6.695888e-02
-6.750094e-02
-6.807550e-02
-6.867868e-02
-6.930841e-02
-6.996430e-02
-7.064685e-02
-7.135618e-02
-7.209081e-02
-7.284709e-02
-7.361969e-02
-7.440306e-02
-7.519266e-02
-7.598521e-02
-7.677783e-02
-7.756706e-02
-7.834854e-02
-7.911773e-02
-7.987103e-02
-8.060642e-02
-8.132335e-02
-8.202232e-02
-8.270450e-02
-8.337092e-02
-8.402135e-02
-8.465336e-02
-8.526218e-02
-8.584150e-02
-8.638495e-02
-8.688756e-02
-8.734691e-02
-8.776333e-02
-8.813924e-02
-8.847810e-02
-8.878393e-02
-8.906149e-02
-8.931665e-02
-8.955614e-02
-8.978673e-02
-9.001409e-02
-9.024237e-02
-9.047435e-02
-9.071205e-02
-9.095734e-02
-9.121265e-02
-9.148185e-02
-9.177095e-02
-9.208822e-02
-9.244349e-02
-9.284692e-02
-9.330766e-02
-9.383272e-02
-9.442626e-02
-9.508980e-02
-9.582273e-02
-9.662286e-02
-9.748667e-02
-9.840954e-02
-9.938596e-02
-1.004097e-01
-1.014738e-01
-1.025712e-01
-1.036950e-01
-1.048379e-01
-1.059923e-01
-1.071501e-01
-1.083040e-01
-1.094483e-01
-1.105796e-01
-1.116974e-01
-1.128035e-01
-1.139031e-01
-1.150032e-01
-1.161126e-01
-1.172400e-01
-1.183935e-01
-1.195799e-01
-1.208041e-01
-1.220693e-01
-1.233773e-01
-1.247291e-01
-1.261268e-01
-1.275731e-01
-1.290717e-01
-1.306262e-01
-1.322394e-01
-1.339146e-01
-1.356561e-01
-1.374701e-01
-1.393649e-01
-1.413502e-01
-1.434358e-01
-1.456304e-01
-1.479400e-01
-1.503677e-01
-1.529127e-01
-1.555705e-01
-1.583330e-01
-1.611889e-01
-1.641247e-01
-1.671249e-01
-1.701721e-01
-1.732476e-01
-1.763316e-01
-1.794031e-01
-1.824415e-01
-1.854268e-01
-1.883400e-01
-1.911619e-01
-1.938729e-01
-1.964529e-01
-1.988813e-01
-2.011383e-01
-2.032056e-01
-2.050676e-01
-2.067121e-01
-2.081306e-01
-2.093172e-01
-2.102670e-01
-2.109766e-01
-2.114448e-01
-2.116744e-01
-2.116732e-01
-2.114533e-01
-2.110281e-01
-2.104101e-01
-2.096092e-01
-2.086318e-01
-2.074817e-01
-2.061619e-01
-2.046770e-01
-2.030356e-01
-2.012508e-01
-1.993402e-01
-1.973252e-01
-1.952300e-01
-1.930801e-01
-1.909021e-01
-1.887228e-01
-1.865688e-01
-1.844667e-01
-1.824421e-01
-1.805196e-01
-1.787215e-01
-1.770675e-01
-1.755736e-01
-1.742520e-01
-1.731109e-01
-1.721558e-01
-1.713909e-01
-1.708196e-01
-1.704456e-01
-1.702707e-01
-1.702947e-01
-1.705148e-01
-1.709246e-01
-1.715139e-01
-1.722686e-01
-1.731713e-01
-1.742027e-01
-1.753428e-01
-1.765720e-01
-1.778718e-01
-1.792248e-01
-1.806152e-01
-1.820286e-01
-1.834519e-01
-1.848716e-01
-1.862729e-01
-1.876401e-01
-1.889577e-01
-1.902117e-01
-1.913905e-01
-1.924850e-01
-1.934889e-01
-1.943983e-01
-1.952120e-01
-1.959310e-01
-1.965574e-01
-1.970935e-01
-1.975407e-01
-1.978992e-01
-1.981683e-01
-1.983477e-01
-1.984383e-01
-1.984429e-01
-1.983654e-01
-1.982105e-01
-1.979827e-01
-1.976865e-01
-1.973263e-01
-1.969071e-01
-1.964341e-01
-1.959139e-01
-1.953543e-01
-1.947632e-01
-1.941470e-01
-1.935096e-01
-1.928529e-01
-1.921781e-01
-1.914879e-01
-1.907884e-01
-1.900901e-01
-1.894072e-01
-1.887573e-01
-1.881590e-01
-1.876307e-01
-1.871888e-01
-1.868467e-01
-1.866156e-01
-1.865047e-01
-1.865234e-01
-1.866805e-01
-1.869848e-01
-1.874440e-01
-1.880638e-01
-1.888467e-01
-1.897910e-01
-1.908916e-01
-1.921398e-01
-1.935240e-01
-1.950299e-01
-1.966409e-01
-1.983383e-01
-2.001010e-01
-2.019061e-01
-2.037295e-01
-2.055472e-01
-2.073353e-01
-2.090712e-01
-2.107338e-01
-2.123038e-01
-2.137637e-01
-2.150972e-01
-2.162890e-01
-2.173242e-01
-2.181883e-01
-2.188687e-01
-2.193556e-01
-2.196429e-01
-2.197285e-01
-2.196132e-01
-2.192994e-01
-2.187905e-01
-2.180896e-01
-2.171997e-01
-2.161241e-01
-2.148666e-01
-2.134318e-01
-2.118257e-01
-2.100569e-01
-2.081369e-01
-2.060797e-01
-2.039018e-01
-2.016203e-01
-1.992531e-01
-1.968187e-01
-1.943366e-01
-1.918274e-01
-1.893123e-01
-1.868120e-01
-1.843458e-01
-1.819311e-01
-1.795821e-01
-1.773100e-01
-1.751230e-01
-1.730269e-01
-1.710262e-01
-1.691241e-01
-1.673235e-01
-1.656265e-01
-1.640338e-01
-1.625448e-01
-1.611568e-01
-1.598661e-01
-1.586676e-01
-1.575562e-01
-1.565280e-01
-1.555817e-01
-1.547187e-01
-1.539421e-01
-1.532562e-01
-1.526646e-01
-1.521698e-01
-1.517714e-01
-1.514663e-01
-1.512493e-01
-1.511136e-01
-1.510519e-01
-1.510573e-01
-1.511239e-01
-1.512464e-01
-1.514196e-01
-1.516379e-01
-1.518953e-01
-1.521854e-01
-1.525012e-01
-1.528353e-01
-1.531804e-01
-1.535300e-01
-1.538779e-01
-1.542186e-01
-1.545480e-01
-1.548636e-01
-1.551648e-01
-1.554521e-01
-1.557268e-01
-1.559912e-01
-1.562474e-01
-1.564969e-01
-1.567390e-01
-1.569698e-01
-1.571816e-01
-1.573641e-01
-1.575062e-01
-1.575977e-01
-1.576303e-01
-1.575989e-01
-1.575019e-01
-1.573420e-01
-1.571252e-01
-1.568597e-01
-1.565536e-01
-1.562127e-01
-1.558394e-01
-1.554333e-01
-1.549929e-01
-1.545172e-01
-1.540061e-01
-1.534599e-01
-1.528789e-01
-1.522632e-01
-1.516128e-01
-1.509280e-01
-1.502095e-01
-1.494585e-01
-1.486771e-01
-1.478684e-01
-1.470367e-01
-1.461870e-01
-1.453253e-01
-1.444587e-01
-1.435955e-01
-1.427456e-01
-1.419204e-01
-1.411324e-01
-1.403957e-01
-1.397247e-01
-1.391335e-01
-1.386342e-01
-1.382365e-01
-1.379471e-01
-1.377697e-01
-1.377053e-01
-1.377526e-01
-1.379076e-01
-1.381641e-01
-1.385126e-01
-1.389406e-01
-1.394334e-01
-1.399751e-01
-1.405498e-01
-1.411427e-01
-1.417393e-01
-1.423250e-01
-1.428852e-01
-1.434064e-01
-1.438761e-01
-1.442827e-01
-1.446142e-01
-1.448582e-01
-1.450023e-01
-1.450340e-01
-1.449413e-01
-1.447127e-01
-1.443373e-01
-1.438058e-01
-1.431114e-01
-1.422503e-01
-1.412213e-01
-1.400253e-01
-1.386645e-01
-1.371419e-01
-1.354606e-01
-1.336233e-01
-1.316317e-01
-1.294878e-01
-1.271951e-01
-1.247592e-01
-1.221884e-01
-1.194936e-01
-1.166871e-01
-1.137823e-01
-1.107926e-01
-1.077316e-01
-1.046132e-01
-1.014513e-01
-9.826016e-02
-9.505442e-02
-9.184840e-02
-8.865636e-02
-8.549323e-02
-8.237532e-02
-7.932061e-02
-7.634833e-02
-7.347802e-02
-7.072800e-02
-6.811360e-02
-6.564564e-02
-6.333037e-02
-6.117016e-02
-5.916453e-02
-5.731076e-02
-5.560446e-02
-5.403990e-02
-5.260995e-02
-5.130605e-02
-5.011849e-02
-4.903713e-02
-4.805198e-02
-4.715366e-02
-4.633373e-02
-4.558500e-02
-4.490159e-02
-4.427848e-02
-4.371041e-02
-4.319055e-02
-4.270921e-02
-4.225390e-02
-4.181051e-02
-4.136488e-02
-4.090358e-02
-4.041401e-02
-3.988449e-02
-3.930433e-02
-3.866393e-02
-3.795468e-02
-3.716913e-02
-3.630166e-02
-3.534906e-02
-3.431087e-02
-3.318943e-02
-3.199005e-02
-3.072086e-02
-2.939260e-02
-2.801798e-02
-2.661057e-02
-2.518358e-02
-2.374896e-02
-2.231704e-02
-2.089663e-02
-1.949528e-02
-1.811964e-02
-1.677592e-02
-1.547041e-02
-1.420947e-02
-1.299896e-02
-1.184383e-02
-1.074773e-02
-9.712691e-03
-8.739105e-03
-7.825918e-03
-6.970917e-03
-6.170817e-03
-5.421370e-03
-4.717812e-03
-4.055527e-03
-3.430403e-03
-2.838673e-03
-2.276468e-03
-1.739347e-03
-1.221831e-03
-7.172133e-04
-2.179887e-04
2.832471e-04
7.928415e-04
1.315139e-03
1.851675e-03
2.401018e-03
2.959686e-03
3.523829e-03
4.090642e-03
4.658649e-03
5.227048e-03
5.794942e-03
6.361035e-03
6.923955e-03
7.483045e-03
8.039048e-03
8.594134e-03
9.151484e-03
9.714986e-03
1.028899e-02
1.087764e-02
1.148390e-02
1.210878e-02
1.275151e-02
1.341032e-02
1.408349e-02
1.477002e-02
1.546987e-02
1.618339e-02
1.691070e-02
1.765141e-02
1.840498e-02
1.917105e-02
1.994974e-02
2.074210e-02
2.155042e-02
2.237805e-02
2.322841e-02
2.410389e-02
2.500497e-02
2.592974e-02
2.687400e-02
2.783202e-02
2.879772e-02
2.976581e-02
3.073243e-02
3.169544e-02
3.265433e-02
3.360996e-02
3.456411e-02
3.551908e-02
3.647712e-02
3.744003e-02
3.840890e-02
3.938411e-02
4.036548e-02
4.135239e-02
4.234408e-02
4.334064e-02
4.434394e-02
4.535801e-02
4.638893e-02
4.744454e-02
4.853415e-02
4.966793e-02
5.085596e-02
5.210747e-02
5.343055e-02
5.483214e-02
5.631802e-02
5.789245e-02
5.955749e-02
6.131218e-02
6.315224e-02
6.507056e-02
6.705815e-02
6.910459e-02
7.119817e-02
7.332561e-02
7.547196e-02
7.762023e-02
7.975131e-02
8.184437e-02
8.387773e-02
8.583004e-02
8.768125e-02
8.941369e-02
9.101295e-02
9.246850e-02
9.377385e-02
9.492656e-02
9.592777e-02
9.678118e-02
9.749200e-02
9.806642e-02
9.851149e-02
9.883500e-02
9.904524e-02
9.915062e-02
9.915945e-02
9.908000e-02
9.892113e-02
9.869356e-02
9.841121e-02
9.809177e-02
9.775604e-02
9.742662e-02
9.712648e-02
9.687795e-02
9.670236e-02
9.662035e-02
9.665247e-02
9.681921e-02
9.714058e-02
9.763517e-02
9.831912e-02
9.920519e-02
1.003024e-01
1.016162e-01
1.031492e-01
1.049023e-01
1.068747e-01
1.090645e-01
1.114689e-01
1.140825e-01
1.168974e-01
1.199023e-01
1.230838e-01
1.264267e-01
1.299155e-01
1.335342e-01
1.372665e-01
1.410959e-01
1.450060e-01
1.489814e-01
1.530087e-01
1.570766e-01
1.611754e-01
1.652968e-01
1.694333e-01
1.735774e-01
1.777216e-01
1.818577e-01
1.859775e-01
1.900734e-01
1.941391e-01
1.981706e-01
2.021657e-01
2.061238e-01
2.100438e-01
2.139236e-01
2.177602e-01
2.215502e-01
2.252913e-01
2.289832e-01
2.326289e-01
2.362339e-01
2.398064e-01
2.433561e-01
2.468935e-01
2.504300e-01
2.539774e-01
2.575479e-01
2.611535e-01
2.648042e-01
2.685067e-01
2.722630e-01
2.760701e-01
2.799200e-01
2.838002e-01
2.876955e-01
2.915887e-01
2.954616e-01
2.992959e-01
3.030723e-01
3.067710e-01
3.103719e-01
3.138545e-01
3.171991e-01
3.203879e-01
3.234065e-01
3.262449e-01
3.288984e-01
3.313677e-01
3.336582e-01
3.357793e-01
3.377437e-01
3.395669e-01
3.412654e-01
3.428555e-01
3.443519e-01
3.457673e-01
3.471118e-01
3.483936e-01
3.496199e-01
3.507974e-01
3.519336e-01
3.530366e-01
3.541156e-01
3.551808e-01
3.562429e-01
3.573113e-01
3.583934e-01
3.594933e-01
3.606113e-01
3.617447e-01
3.628887e-01
3.640380e-01
3.651882e-01
3.663349e-01
3.674735e-01
3.685981e-01
3.697014e-01
3.707749e-01
3.718090e-01
3.727936e-01
3.737186e-01
3.745743e-01
3.753527e-01
3.760481e-01
3.766583e-01
3.771839e-01
3.776288e-01
3.780000e-01
3.783077e-01
3.785643e-01
3.787840e-01
3.789818e-01
3.791723e-01
3.793691e-01
3.795847e-01
3.798306e-01
3.801165e-01
3.804508e-01
3.808395e-01
3.812873e-01
3.817965e-01
3.823675e-01
3.829987e-01
3.836860e-01
3.844228e-01
3.852003e-01
3.860081e-01
3.868352e-01
3.876711e-01
3.885071e-01
3.893373e-01
3.901599e-01
3.909772e-01
3.917946e-01
3.926195e-01
3.934597e-01
3.943226e-01
3.952136e-01
3.961353e-01
3.970867e-01
3.980640e-01
3.990606e-01
4.000675e-01
4.010730e-01
4.020632e-01
4.030220e-01
4.039330e-01
4.047811e-01
4.055544e-01
4.062450e-01
4.068495e-01
4.073687e-01
4.078075e-01
4.081735e-01
4.084763e-01
4.087274e-01
4.089398e-01
4.091286e-01
4.093099e-01
4.094994e-01
4.097112e-01
4.099560e-01
4.102411e-01
4.105711e-01
4.109492e-01
4.113770e-01
4.118543e-01
4.123792e-01
4.129490e-01
4.135607e-01
4.142121e-01
4.149023e-01
4.156307e-01
4.163970e-01
4.172007e-01
4.180405e-01
4.189153e-01
4.198239e-01
4.207661e-01
4.217434e-01
4.227586e-01
4.238148e-01
4.249135e-01
4.260534e-01
4.272293e-01
4.284333e-01
4.296554e-01
4.308859e-01
4.321154e-01
4.333349e-01
4.345355e-01
4.357080e-01
4.368425e-01
4.379281e-01
4.389541e-01
4.399121e-01
4.407970e-01
4.416087e-01
4.423521e-01
4.430363e-01
4.436735e-01
4.442780e-01
4.448657e-01
4.454535e-01
4.460592e-01
4.467003e-01
4.473933e-01
4.481530e-01
4.489916e-01
4.499186e-01
4.509418e-01
4.520679e-01
4.533036e-01
4.546567e-01
4.561361e-01
4.577511e-01
4.595091e-01
4.614145e-01
4.634683e-01
4.656690e-01
4.680132e-01
4.704962e-01
4.731119e-01
4.758529e-01
4.787115e-01
4.816794e-01
4.847466e-01
4.879014e-01
4.911303e-01
4.944176e-01
4.977472e-01
5.011028e-01
5.044688e-01
5.078302e-01
5.111724e-01
5.144814e-01
5.177434e-01
5.209445e-01
5.240711e-01
5.271099e-01
5.300479e-01
5.328722e-01
5.355714e-01
5.381359e-01
5.405583e-01
5.428334e-01
5.449576e-01
5.469292e-01
5.487479e-01
5.504151e-01
5.519339e-01
5.533090e-01
5.545458e-01
5.556511e-01
5.566322e-01
5.574973e-01
5.582545e-01
5.589106e-01
5.594699e-01
5.599339e-01
5.603018e-01
5.605715e-01
5.607408e-01
5.608082e-01
5.607727e-01
5.606332e-01
5.603881e-01
5.600352e-01
5.595712e-01
5.589925e-01
5.582951e-01
5.574764e-01
5.565353e-01
5.554718e-01
5.542873e-01
5.529832e-01
5.515612e-01
5.500233e-01
5.483725e-01
5.466136e-01
5.447533e-01
5.428015e-01
5.407706e-01
5.386752e-01
5.365307e-01
5.343517e-01
5.321515e-01
5.299419e-01
5.277334e-01
5.255345e-01
5.233515e-01
5.211882e-01
5.190466e-01
5.169264e-01
5.148262e-01
5.127429e-01
5.106719e-01
5.086071e-01
5.065405e-01
5.044630e-01
5.023636e-01
5.002298e-01
4.980482e-01
4.958055e-01
4.934893e-01
4.910885e-01
4.885938e-01
4.859982e-01
4.832966e-01
4.804859e-01
4.775647e-01
4.745333e-01
4.713932e-01
4.681466e-01
4.647966e-01
4.613473e-01
4.578040e-01
4.541738e-01
4.504648e-01
4.466861e-01
4.428475e-01
4.389592e-01
4.350316e-01
4.310751e-01
4.270995e-01
4.231136e-01
4.191244e-01
4.151375e-01
4.111571e-01
4.071858e-01
4.032257e-01
3.992781e-01
3.953442e-01
3.914246e-01
3.875202e-01
3.836321e-01
3.797620e-01
3.759120e-01
3.720850e-01
3.682840e-01
3.645122e-01
3.607724e-01
3.570675e-01
3.533997e-01
3.497711e-01
3.461833e-01
3.426378e-01
3.391359e-01
3.356785e-01
3.322656e-01
3.288965e-01
3.255700e-01
3.222841e-01
3.190355e-01
3.158192e-01
3.126288e-01
3.094571e-01
3.062970e-01
3.031424e-01
2.999891e-01
2.968348e-01
2.936794e-01
2.905246e-01
2.873741e-01
2.842331e-01
2.811079e-01
2.780067e-01
2.749387e-01
2.719139e-01
2.689422e-01
2.660321e-01
2.631908e-01
2.604229e-01
2.577313e-01
2.551168e-01
2.525786e-01
2.501157e-01
2.477258e-01
2.454064e-01
2.431539e-01
2.409637e-01
2.388303e-01
2.367474e-01
2.347094e-01
2.327114e-01
2.307497e-01
2.288215e-01
2.269246e-01
2.250569e-01
2.232158e-01
2.213995e-01
2.196070e-01
2.178396e-01
2.160999e-01
2.143916e-01
2.127188e-01
2.110856e-01
2.094945e-01
2.079464e-01
2.064402e-01
2.049735e-01
2.035437e-01
2.021494e-01
2.007909e-01
1.994695e-01
1.981868e-01
1.969444e-01
1.957434e-01
1.945845e-01
1.934680e-01
1.923933e-01
1.913593e-01
1.903631e-01
1.894000e-01
1.884637e-01
1.875469e-01
1.866421e-01
1.857420e-01
1.848402e-01
1.839323e-01
1.830157e-01
1.820896e-01
1.811547e-01
1.802121e-01
1.792622e-01
1.783047e-01
1.773382e-01
1.763602e-01
1.753670e-01
1.743536e-01
1.733134e-01
1.722391e-01
1.711230e-01
1.699569e-01
1.687324e-01
1.674414e-01
1.660769e-01
1.646332e-01
1.631056e-01
1.614907e-01
1.597858e-01
1.579894e-01
1.561012e-01
1.541225e-01
1.520565e-01
1.499078e-01
1.476834e-01
1.453921e-01
1.430452e-01
1.406551e-01
1.382358e-01
1.358029e-01
1.333728e-01
1.309633e-01
1.285919e-01
1.262768e-01
1.240350e-01
1.218828e-01
1.198353e-01
1.179061e-01
1.161083e-01
1.144540e-01
1.129546e-01
1.116200e-01
1.104581e-01
1.094743e-01
1.086709e-01
1.080470e-01
1.075984e-01
1.073177e-01
1.071952e-01
1.072206e-01
1.073833e-01
1.076727e-01
1.080779e-01
1.085886e-01
1.091954e-01
1.098904e-01
1.106674e-01
1.115217e-01
1.124489e-01
1.134448e-01
1.145046e-01
1.156227e-01
1.167922e-01
1.180047e-01
1.192507e-01
1.205206e-01
1.218060e-01
1.231007e-01
1.244009e-01
1.257049e-01
1.270116e-01
1.283201e-01
1.296292e-01
1.309368e-01
1.322403e-01
1.335370e-01
1.348237e-01
1.360975e-01
1.373555e-01
1.385944e-01
1.398106e-01
1.410000e-01
1.421583e-01
1.432802e-01
1.443598e-01
1.453910e-01
1.463680e-01
1.472869e-01
1.481463e-01
1.489478e-01
1.496954e-01
1.503947e-01
1.510524e-01
1.516763e-01
1.522747e-01
1.528553e-01
1.534254e-01
1.539912e-01
1.545577e-01
1.551296e-01
1.557111e-01
1.563062e-01
1.569182e-01
1.575497e-01
1.582016e-01
1.588739e-01
1.595653e-01
1.602731e-01
1.609937e-01
1.617231e-01
1.624573e-01
1.631926e-01
1.639252e-01
1.646503e-01
1.653617e-01
1.660519e-01
1.667118e-01
1.673321e-01
1.679038e-01
1.684191e-01
1.688720e-01
1.692590e-01
1.695786e-01
1.698319e-01
1.700221e-01
1.701544e-01
1.702349e-01
1.702701e-01
1.702661e-01
1.702288e-01
1.701633e-01
1.700741e-01
1.699638e-01
1.698330e-01
1.696789e-01
1.694960e-01
1.692763e-01
1.690109e-01
1.686906e-01
1.683067e-01
1.678518e-01
1.673201e-01
1.667077e-01
1.660125e-01
1.652339e-01
1.643727e-01
1.634307e-01
1.624112e-01
1.613188e-01
1.601605e-01
1.589450e-01
1.576821e-01
1.563823e-01
1.550563e-01
1.537142e-01
1.523652e-01
1.510179e-01
1.496797e-01
1.483571e-01
1.470546e-01
1.457752e-01
1.445201e-01
1.432888e-01
1.420785e-01
1.408848e-01
1.397016e-01
1.385230e-01
1.373435e-01
1.361589e-01
1.349659e-01
1.337623e-01
1.325461e-01
1.313163e-01
1.300720e-01
1.288124e-01
1.275368e-01
1.262443e-01
1.249342e-01
1.236058e-01
1.222577e-01
1.208877e-01
1.194933e-01
1.180718e-01
1.166209e-01
1.151389e-01
1.136238e-01
1.120734e-01
1.104845e-01
1.088542e-01
1.071802e-01
1.054617e-01
1.036988e-01
1.018935e-01
1.000490e-01
9.816944e-02
9.625949e-02
9.432422e-02
9.236909e-02
9.039989e-02
8.842261e-02
8.644315e-02
8.446689e-02
8.249805e-02
8.053936e-02
7.859219e-02
7.665716e-02
7.473480e-02
7.282643e-02
7.093482e-02
6.906432e-02
6.722034e-02
6.540835e-02
6.363283e-02
6.189672e-02
6.020161e-02
5.854859e-02
5.693947e-02
5.537755e-02
5.386750e-02
5.241479e-02
5.102523e-02
4.970442e-02
4.845729e-02
4.728794e-02
4.619996e-02
4.519709e-02
4.428341e-02
4.346295e-02
4.273890e-02
4.211294e-02
4.158434e-02
4.114915e-02
4.080012e-02
4.052720e-02
4.031839e-02
4.016109e-02
4.004345e-02
3.995542e-02
3.988915e-02
3.983887e-02
3.980052e-02
3.977140e-02
3.974970e-02
3.973418e-02
3.972425e-02
3.972014e-02
3.972254e-02
3.973180e-02
