EVENT_NAME: L_AQUILA
EVENT_ID: IT-2009-0009
EVENT_DATE_YYYYMMDD: 20090406
EVENT_TIME_HHMMSS: 013240
EVENT_LATITUDE_DEGREE: 42.3420
EVENT_LONGITUDE_DEGREE: 13.3800
EVENT_DEPTH_KM: 8.3
HYPOCENTER_REFERENCE: INGV-CNT_Seismic_Bulletin
MAGNITUDE_W: 6.1
MAGNITUDE_W_REFERENCE: INGV-CNT_Seismic_Bulletin
MAGNITUDE_L: 
MAGNITUDE_L_REFERENCE: 
FOCAL_MECHANISM: Normal faulting
NETWORK: IV
STATION_CODE: GUMA
STATION_NAME: 
STATION_LATITUDE_DEGREE: 43.062700
STATION_LONGITUDE_DEGREE: 13.335200
STATION_ELEVATION_M: 574
LOCATION: 
SENSOR_DEPTH_M: 0.0
VS30_M/S: 488
SITE_CLASSIFICATION_EC8: B
MORPHOLOGIC_CLASSIFICATION: 
EPICENTRAL_DISTANCE_KM: 80.1
EARTHQUAKE_BACKAZIMUTH_DEGREE: 357.4
DATE_TIME_FIRST_SAMPLE_YYYYMMDD_HHMMSS: 20090406_013152.000
DATE_TIME_FIRST_SAMPLE_PRECISION: milliseconds
SAMPLING_INTERVAL_S: 0.005000
NDATA: 62478
DURATION_S: 312.390
STREAM: HNN
UNITS: cm
INSTRUMENT: sensor = EPISENSOR-FBA-ES-T-CL-2G-FS-40-VPP [Unknown] | digitizer = Unknown [Unknown]
INSTRUMENT_ANALOG/DIGITAL: D
INSTRUMENTAL_FREQUENCY_HZ: 
INSTRUMENTAL_DAMPING: 
FULL_SCALE_G: 
N_BIT_DIGITAL_CONVERTER: 
PGD_CM: 0.619821
TIME_PGD_S: 81.460000
BASELINE_CORRECTION: BASELINE REMOVED
FILTER_TYPE: BUTTERWORTH
FILTER_ORDER: 2
LOW_CUT_FREQUENCY_HZ: 0.040
HIGH_CUT_FREQUENCY_HZ: 40.000
LATE/NORMAL_TRIGGERED: NT
DATABASE_VERSION: 0.5
HEADER_FORMAT: DYNA 1.2
DATA_TYPE: DISPLACEMENT
PROCESSING: manual (Paolucci et al., 2011)
DATA_TIMESTAMP_YYYYMMDD_HHMMSS: 20211011_160608.100
DATA_LICENSE: CC-BY4_0 (http://creativecommons.org/licenses/by/4.0/)
DATA_CITATION: Luzi L, Pacor F, Puglia R (2019). Italian Accelerometric Archive v 3.0 - Istituto Nazionale di Geofisica e Vulcanologia, Dipartimento della Protezione Civile Nazionale. doi: 10.13127/itaca.3.1
DATA_CREATOR: ITACA working group
ORIGINAL_DATA_MEDIATOR_CITATION: Orfeus - European Integrated Data Archive (EIDA) http://www.orfeus-eu.org/eida/
ORIGINAL_DATA_MEDIATOR: Orfeus - European Integrated Data Archive (EIDA)
ORIGINAL_DATA_CREATOR_CITATION: INGV Seismological Data Centre. (1997). Rete Sismica Nazionale (RSN). Istituto Nazionale di Geofisica e Vulcanologia (INGV), Italy. https://doi.org/10.13127/SD/X0FXnH7QfY http://www.fdsn.org/networks/detail/IV/
ORIGINAL_DATA_CREATOR: network: IV (Italian National Seismic Network (INSN)); owner: Istituto Nazionale di Geofisica e Vulcanologia (INGV)
USER1: 
USER2: 
USER3: 
USER4: 
USER5: 
[...]
8.493136e-02
8.295225e-02
8.075496e-02
7.838232e-02
7.588152e-02
7.330243e-02
7.069556e-02
6.810982e-02
6.559038e-02
6.317679e-02
6.090134e-02
5.878793e-02
5.685169e-02
5.509911e-02
5.352846e-02
5.213085e-02
5.089176e-02
4.979265e-02
4.881188e-02
4.792500e-02
4.710583e-02
4.632852e-02
4.556998e-02
4.481123e-02
4.403758e-02
4.323767e-02
4.240208e-02
4.152251e-02
4.059194e-02
3.960530e-02
3.855996e-02
3.745560e-02
3.629363e-02
3.507710e-02
3.381095e-02
3.250237e-02
3.116124e-02
2.980056e-02
2.843661e-02
2.708881e-02
2.577927e-02
2.453171e-02
2.336978e-02
2.231507e-02
2.138571e-02
2.059587e-02
1.995585e-02
1.947234e-02
1.914869e-02
1.898577e-02
1.898322e-02
1.914073e-02
1.945914e-02
1.994060e-02
2.058716e-02
2.139854e-02
2.237015e-02
2.349237e-02
2.475078e-02
2.612687e-02
2.759893e-02
2.914298e-02
3.073355e-02
3.234427e-02
3.394842e-02
3.551974e-02
3.703302e-02
3.846433e-02
3.979108e-02
4.099175e-02
4.204549e-02
4.293246e-02
4.363543e-02
4.414216e-02
4.444735e-02
4.455349e-02
4.447035e-02
4.421355e-02
4.380269e-02
4.325979e-02
4.260830e-02
4.187253e-02
4.107644e-02
4.024211e-02
3.938882e-02
3.853279e-02
3.768723e-02
3.686241e-02
3.606586e-02
3.530272e-02
3.457679e-02
3.389214e-02
3.325444e-02
3.267153e-02
3.215286e-02
3.170843e-02
3.134779e-02
3.107898e-02
3.090698e-02
3.083237e-02
3.085121e-02
3.095626e-02
3.113921e-02
3.139319e-02
3.171451e-02
3.210277e-02
3.255993e-02
3.308921e-02
3.369466e-02
3.438082e-02
3.515227e-02
3.601309e-02
3.696715e-02
3.801856e-02
3.917194e-02
4.043216e-02
4.180380e-02
4.329020e-02
4.489231e-02
4.660786e-02
4.843137e-02
5.035504e-02
5.237047e-02
5.447016e-02
5.664863e-02
5.890240e-02
6.122881e-02
6.362405e-02
6.608200e-02
6.859375e-02
7.114798e-02
7.373173e-02
7.633131e-02
7.893321e-02
8.152513e-02
8.409714e-02
8.664256e-02
8.915862e-02
9.164663e-02
9.411180e-02
9.656250e-02
9.900881e-02
1.014601e-01
1.039226e-01
1.063990e-01
1.088891e-01
1.113907e-01
1.139010e-01
1.164171e-01
1.189367e-01
1.214576e-01
1.239776e-01
1.264928e-01
1.289980e-01
1.314856e-01
1.339460e-01
1.363675e-01
1.387385e-01
1.410476e-01
1.432858e-01
1.454459e-01
1.475236e-01
1.495160e-01
1.514211e-01
1.532354e-01
1.549522e-01
1.565600e-01
1.580416e-01
1.593738e-01
1.605291e-01
1.614767e-01
1.621851e-01
1.626246e-01
1.627696e-01
1.625991e-01
1.620972e-01
1.612533e-01
1.600615e-01
1.585211e-01
1.566361e-01
1.544139e-01
1.518654e-01
1.490027e-01
1.458393e-01
1.423889e-01
1.386663e-01
1.346879e-01
1.304726e-01
1.260431e-01
1.214272e-01
1.166573e-01
1.117694e-01
1.068026e-01
1.017986e-01
9.680115e-02
9.185447e-02
8.700135e-02
8.228097e-02
7.772724e-02
7.336741e-02
6.922170e-02
6.530387e-02
6.162226e-02
5.818112e-02
5.498228e-02
5.202651e-02
4.931372e-02
4.684304e-02
4.461339e-02
4.262507e-02
4.088156e-02
3.939055e-02
3.816379e-02
3.721548e-02
3.655907e-02
3.620336e-02
3.614958e-02
3.639000e-02
3.690770e-02
3.767759e-02
3.866866e-02
3.984725e-02
4.117979e-02
4.263467e-02
4.418300e-02
4.579880e-02
4.745917e-02
4.914416e-02
5.083653e-02
5.252170e-02
5.418758e-02
5.582450e-02
5.742577e-02
5.898811e-02
6.051138e-02
6.199782e-02
6.345132e-02
6.487611e-02
6.627566e-02
6.765211e-02
6.900627e-02
7.033762e-02
7.164383e-02
7.292016e-02
7.415945e-02
7.535242e-02
7.648778e-02
7.755237e-02
7.853178e-02
7.941118e-02
8.017596e-02
8.081230e-02
8.130740e-02
8.164911e-02
8.182520e-02
8.182287e-02
8.162925e-02
8.123296e-02
8.062550e-02
7.980191e-02
7.876115e-02
7.750642e-02
7.604514e-02
7.438837e-02
7.254991e-02
7.054522e-02
6.839063e-02
6.610282e-02
6.369824e-02
6.119275e-02
5.860103e-02
5.593631e-02
5.321060e-02
5.043557e-02
4.762306e-02
4.478499e-02
4.193334e-02
3.908018e-02
3.623747e-02
3.341668e-02
3.062875e-02
2.788421e-02
2.519321e-02
2.256514e-02
2.000803e-02
1.752819e-02
1.513061e-02
1.281985e-02
1.060087e-02
8.479267e-03
6.460782e-03
4.550877e-03
2.754921e-03
1.078711e-03
-4.712934e-04
-1.888260e-03
-3.165698e-03
-4.298334e-03
-5.282986e-03
-6.119202e-03
-6.809060e-03
-7.355770e-03
-7.761975e-03
-8.029053e-03
-8.157763e-03
-8.149898e-03
-8.010364e-03
-7.748575e-03
-7.378251e-03
-6.915849e-03
-6.378184e-03
-5.779890e-03
-5.131735e-03
-4.440556e-03
-3.710826e-03
-2.947024e-03
-2.155246e-03
-1.343114e-03
-5.187706e-04
3.098961e-04
1.135556e-03
1.951493e-03
2.751760e-03
3.531949e-03
4.290643e-03
5.030914e-03
5.761430e-03
6.496833e-03
7.257153e-03
8.066139e-03
8.948479e-03
9.926454e-03
1.101764e-02
1.223437e-02
1.358408e-02
1.506995e-02
1.669206e-02
1.844856e-02
2.033576e-02
2.234714e-02
2.447188e-02
2.669367e-02
2.899059e-02
3.133573e-02
3.369836e-02
3.604499e-02
3.834040e-02
4.054840e-02
4.263285e-02
4.455857e-02
4.629163e-02
4.779926e-02
4.905015e-02
5.001495e-02
5.066664e-02
5.098088e-02
5.093661e-02
5.051705e-02
4.971113e-02
4.851499e-02
4.693332e-02
4.498027e-02
4.267908e-02
4.006036e-02
3.716013e-02
3.401830e-02
3.067751e-02
2.718215e-02
2.357727e-02
1.990742e-02
1.621545e-02
1.254173e-02
8.923622e-03
5.395473e-03
1.988601e-03
-1.268786e-03
-4.351602e-03
-7.237683e-03
-9.907889e-03
-1.234668e-02
-1.454276e-02
-1.648974e-02
-1.818691e-02
-1.963968e-02
-2.085941e-02
-2.186283e-02
-2.267133e-02
-2.330988e-02
-2.380573e-02
-2.418703e-02
-2.448140e-02
-2.471446e-02
-2.490799e-02
-2.507848e-02
-2.523721e-02
-2.539139e-02
-2.554526e-02
-2.570118e-02
-2.586120e-02
-2.602842e-02
-2.620764e-02
-2.640530e-02
-2.662901e-02
-2.688705e-02
-2.718819e-02
-2.754148e-02
-2.795587e-02
-2.843972e-02
-2.900005e-02
-2.964184e-02
-3.036732e-02
-3.117514e-02
-3.205924e-02
-3.300844e-02
-3.400728e-02
-3.503810e-02
-3.608362e-02
-3.712955e-02
-3.816630e-02
-3.918994e-02
-4.020214e-02
-4.120940e-02
-4.222207e-02
-4.325352e-02
-4.431912e-02
-4.543518e-02
-4.661805e-02
-4.788284e-02
-4.924179e-02
-5.070299e-02
-5.226991e-02
-5.394190e-02
-5.571531e-02
-5.758493e-02
-5.954510e-02
-6.159006e-02
-6.371344e-02
-6.590735e-02
-6.816243e-02
-7.046882e-02
-7.281734e-02
-7.520045e-02
-7.761302e-02
-8.005281e-02
-8.251994e-02
-8.501531e-02
-8.753829e-02
-9.008526e-02
-9.264913e-02
-9.521968e-02
-9.778404e-02
-1.003271e-01
-1.028320e-01
-1.052800e-01
-1.076526e-01
-1.099321e-01
-1.121030e-01
-1.141533e-01
-1.160756e-01
-1.178678e-01
-1.195328e-01
-1.210775e-01
-1.225106e-01
-1.238418e-01
-1.250791e-01
-1.262279e-01
-1.272904e-01
-1.282646e-01
-1.291443e-01
-1.299184e-01
-1.305711e-01
-1.310818e-01
-1.314267e-01
-1.315812e-01
-1.315218e-01
-1.312289e-01
-1.306876e-01
-1.298886e-01
-1.288280e-01
-1.275069e-01
-1.259306e-01
-1.241071e-01
-1.220468e-01
-1.197614e-01
-1.172635e-01
-1.145662e-01
-1.116830e-01
-1.086290e-01
-1.054211e-01
-1.020785e-01
-9.862237e-02
-9.507580e-02
-9.146294e-02
-8.780852e-02
-8.413730e-02
-8.047343e-02
-7.683938e-02
-7.325484e-02
-6.973622e-02
-6.629693e-02
-6.294758e-02
-5.969658e-02
-5.655146e-02
-5.352015e-02
-5.061157e-02
-4.783588e-02
-4.520447e-02
-4.272980e-02
-4.042484e-02
-3.830223e-02
-3.637378e-02
-3.465062e-02
-3.314335e-02
-3.186257e-02
-3.081960e-02
-3.002722e-02
-2.949981e-02
-2.925288e-02
-2.930207e-02
-2.966166e-02
-3.034322e-02
-3.135473e-02
-3.270020e-02
-3.438005e-02
-3.639158e-02
-3.872917e-02
-4.138492e-02
-4.434995e-02
-4.761561e-02
-5.117399e-02
-5.501792e-02
-5.914005e-02
-6.353130e-02
-6.817904e-02
-7.306576e-02
-7.816880e-02
-8.346107e-02
-8.891234e-02
-9.449061e-02
-1.001631e-01
-1.058966e-01
-1.116575e-01
-1.174124e-01
-1.231298e-01
-1.287817e-01
-1.343445e-01
-1.397994e-01
-1.451328e-01
-1.503354e-01
-1.554014e-01
-1.603275e-01
-1.651123e-01
-1.697549e-01
-1.742548e-01
-1.786116e-01
-1.828248e-01
-1.868948e-01
-1.908227e-01
-1.946101e-01
-1.982585e-01
-2.017675e-01
-2.051325e-01
-2.083436e-01
-2.113847e-01
-2.142342e-01
-2.168666e-01
-2.192551e-01
-2.213744e-01
-2.232021e-01
-2.247195e-01
-2.259113e-01
-2.267652e-01
-2.272703e-01
-2.274165e-01
-2.271949e-01
-2.265981e-01
-2.256219e-01
-2.242659e-01
-2.225344e-01
-2.204377e-01
-2.179910e-01
-2.152134e-01
-2.121253e-01
-2.087471e-01
-2.050969e-01
-2.011901e-01
-1.970392e-01
-1.926545e-01
-1.880455e-01
-1.832221e-01
-1.781966e-01
-1.729842e-01
-1.676033e-01
-1.620749e-01
-1.564225e-01
-1.506712e-01
-1.448474e-01
-1.389770e-01
-1.330851e-01
-1.271947e-01
-1.213265e-01
-1.154993e-01
-1.097301e-01
-1.040359e-01
-9.843426e-02
-9.294493e-02
-8.758976e-02
-8.239265e-02
-7.737842e-02
-7.257156e-02
-6.799538e-02
-6.367145e-02
-5.961884e-02
-5.585349e-02
-5.238812e-02
-4.923273e-02
-4.639504e-02
-4.388098e-02
-4.169523e-02
-3.984154e-02
-3.832204e-02
-3.713628e-02
-3.628035e-02
-3.574593e-02
-3.551936e-02
-3.558118e-02
-3.590627e-02
-3.646457e-02
-3.722201e-02
-3.814180e-02
-3.918655e-02
-4.032102e-02
-4.151419e-02
-4.273984e-02
-4.397609e-02
-4.520428e-02
-4.640764e-02
-4.757004e-02
-4.867529e-02
-4.970666e-02
-5.064698e-02
-5.147951e-02
-5.218927e-02
-5.276422e-02
-5.319629e-02
-5.348177e-02
-5.362133e-02
-5.361957e-02
-5.348365e-02
-5.322146e-02
-5.284008e-02
-5.234454e-02
-5.173734e-02
-5.101867e-02
-5.018724e-02
-4.924114e-02
-4.817819e-02
-4.699604e-02
-4.569237e-02
-4.426534e-02
-4.271395e-02
-4.103772e-02
-3.923661e-02
-3.731090e-02
-3.526089e-02
-3.308614e-02
-3.078444e-02
-2.835081e-02
-2.577670e-02
-2.305001e-02
-2.015624e-02
-1.708022e-02
-1.380821e-02
-1.033009e-02
-6.641721e-03
-2.746728e-03
1.342838e-03
5.607005e-03
1.001899e-02
1.454667e-02
1.915446e-02
2.380539e-02
2.846308e-02
3.309319e-02
3.766437e-02
4.214896e-02
4.652364e-02
5.076983e-02
5.487357e-02
5.882508e-02
6.261829e-02
6.625033e-02
6.972127e-02
7.303341e-02
7.618982e-02
7.919303e-02
8.204467e-02
8.474557e-02
8.729588e-02
8.969525e-02
9.194346e-02
9.404145e-02
9.599216e-02
9.780098e-02
9.947532e-02
1.010238e-01
1.024549e-01
1.037753e-01
1.049899e-01
1.061018e-01
1.071129e-01
1.080245e-01
1.088386e-01
1.095597e-01
1.101947e-01
1.107530e-01
1.112453e-01
1.116829e-01
1.120769e-01
1.124367e-01
1.127703e-01
1.130833e-01
1.133795e-01
1.136613e-01
1.139304e-01
1.141898e-01
1.144439e-01
1.146997e-01
1.149660e-01
1.152530e-01
1.155705e-01
1.159263e-01
1.163252e-01
1.167691e-01
1.172576e-01
1.177891e-01
1.183625e-01
1.189782e-01
1.196384e-01
1.203469e-01
1.211087e-01
1.219305e-01
1.228199e-01
1.237855e-01
1.248356e-01
1.259785e-01
1.272205e-01
1.285655e-01
1.300147e-01
1.315664e-01
1.332170e-01
1.349620e-01
1.367975e-01
1.387218e-01
1.407359e-01
1.428451e-01
1.450580e-01
1.473864e-01
1.498429e-01
1.524402e-01
1.551899e-01
1.581026e-01
1.611878e-01
1.644539e-01
1.679090e-01
1.715609e-01
1.754167e-01
1.794817e-01
1.837581e-01
1.882443e-01
1.929355e-01
1.978228e-01
2.028943e-01
2.081345e-01
2.135255e-01
2.190472e-01
2.246777e-01
2.303944e-01
2.361744e-01
2.419949e-01
2.478334e-01
2.536673e-01
2.594743e-01
2.652319e-01
2.709190e-01
2.765169e-01
2.820113e-01
2.873925e-01
2.926564e-01
2.978044e-01
3.028427e-01
3.077821e-01
3.126363e-01
3.174209e-01
3.221511e-01
3.268408e-01
3.315007e-01
3.361396e-01
3.407645e-01
3.453823e-01
3.500015e-01
3.546324e-01
3.592865e-01
3.639755e-01
3.687086e-01
3.734921e-01
3.783275e-01
3.832125e-01
3.881419e-01
3.931092e-01
3.981082e-01
4.031334e-01
4.081804e-01
4.132451e-01
4.183237e-01
4.234112e-01
4.285004e-01
4.335815e-01
4.386408e-01
4.436615e-01
4.486239e-01
4.535074e-01
4.582914e-01
4.629568e-01
4.674877e-01
4.718718e-01
4.761014e-01
4.801727e-01
4.840857e-01
4.878433e-01
4.914510e-01
4.949157e-01
4.982467e-01
5.014549e-01
5.045535e-01
5.075565e-01
5.104784e-01
5.133331e-01
5.161327e-01
5.188859e-01
5.215982e-01
5.242716e-01
5.269052e-01
5.294971e-01
5.320451e-01
5.345488e-01
5.370105e-01
5.394351e-01
5.418291e-01
5.441994e-01
5.465521e-01
5.488916e-01
5.512200e-01
5.535364e-01
5.558368e-01
5.581144e-01
5.603601e-01
5.625640e-01
5.647157e-01
5.668053e-01
5.688241e-01
5.707647e-01
5.726215e-01
5.743905e-01
5.760705e-01
5.776633e-01
5.791732e-01
5.806068e-01
5.819717e-01
5.832754e-01
5.845242e-01
5.857224e-01
5.868711e-01
5.879692e-01
5.890130e-01
5.899985e-01
5.909223e-01
5.917837e-01
5.925849e-01
5.933306e-01
5.940278e-01
5.946838e-01
5.953059e-01
5.958994e-01
5.964683e-01
5.970147e-01
5.975399e-01
5.980447e-01
5.985301e-01
5.989977e-01
5.994505e-01
5.998930e-01
6.003319e-01
6.007756e-01
6.012337e-01
6.017155e-01
6.022293e-01
6.027812e-01
6.033744e-01
6.040097e-01
6.046858e-01
6.053999e-01
6.061487e-01
6.069287e-01
6.077368e-01
6.085702e-01
6.094258e-01
6.102993e-01
6.111843e-01
6.120721e-01
6.129521e-01
6.138124e-01
6.146417e-01
6.154305e-01
6.161716e-01
6.168600e-01
6.174910e-01
6.180602e-01
6.185617e-01
6.189887e-01
6.193339e-01
6.195908e-01
6.197541e-01
6.198206e-01
6.197884e-01
6.196567e-01
6.194251e-01
6.190925e-01
6.186571e-01
6.181167e-01
6.174684e-01
6.167097e-01
6.158394e-01
6.148582e-01
6.137701e-01
6.125835e-01
6.113117e-01
6.099730e-01
6.085891e-01
6.071839e-01
6.057816e-01
6.044057e-01
6.030777e-01
6.018162e-01
6.006366e-01
5.995510e-01
5.985686e-01
5.976962e-01
5.969380e-01
5.962957e-01
5.957667e-01
5.953430e-01
5.950112e-01
5.947533e-01
5.945489e-01
5.943773e-01
5.942190e-01
5.940573e-01
5.938785e-01
5.936726e-01
5.934338e-01
5.931604e-01
5.928545e-01
5.925211e-01
5.921659e-01
5.917944e-01
5.914093e-01
5.910093e-01
5.905896e-01
5.901427e-01
5.896612e-01
5.891388e-01
5.885726e-01
5.879632e-01
5.873149e-01
5.866342e-01
5.859290e-01
5.852078e-01
5.844787e-01
5.837477e-01
5.830182e-01
5.822906e-01
5.815624e-01
5.808283e-01
5.800818e-01
5.793154e-01
5.785215e-01
5.776914e-01
5.768157e-01
5.758835e-01
5.748822e-01
5.737982e-01
5.726170e-01
5.713244e-01
5.699072e-01
5.683546e-01
5.666588e-01
5.648173e-01
5.628324e-01
5.607114e-01
5.584660e-01
5.561101e-01
5.536587e-01
5.511259e-01
5.485243e-01
5.458644e-01
5.431555e-01
5.404054e-01
5.376221e-01
5.348138e-01
5.319901e-01
5.291615e-01
5.263390e-01
5.235330e-01
5.207530e-01
5.180061e-01
5.152976e-01
5.126318e-01
5.100134e-01
5.074498e-01
5.049524e-01
5.025370e-01
5.002232e-01
4.980327e-01
4.959881e-01
4.941117e-01
4.924237e-01
4.909406e-01
4.896739e-01
4.886301e-01
4.878103e-01
4.872124e-01
4.868327e-01
4.866680e-01
4.867163e-01
4.869763e-01
4.874468e-01
4.881250e-01
4.890049e-01
4.900764e-01
4.913246e-01
4.927299e-01
4.942693e-01
4.959166e-01
4.976445e-01
4.994258e-01
5.012342e-01
5.030452e-01
5.048374e-01
5.065922e-01
5.082942e-01
5.099306e-01
5.114911e-01
5.129688e-01
5.143596e-01
5.156618e-01
5.168753e-01
5.179998e-01
5.190335e-01
5.199709e-01
5.208024e-01
5.215133e-01
5.220844e-01
5.224936e-01
5.227180e-01
5.227361e-01
5.225285e-01
5.220786e-01
5.213723e-01
5.203974e-01
5.191427e-01
5.175974e-01
5.157513e-01
5.135957e-01
5.111246e-01
5.083345e-01
5.052243e-01
5.017946e-01
4.980457e-01
4.939764e-01
4.895842e-01
4.848654e-01
4.798164e-01
4.744341e-01
4.687172e-01
4.626662e-01
4.562843e-01
4.495768e-01
4.425515e-01
4.352186e-01
4.275905e-01
4.196826e-01
4.115125e-01
4.031004e-01
3.944680e-01
3.856375e-01
3.766312e-01
3.674703e-01
3.581736e-01
3.487562e-01
3.392280e-01
3.295936e-01
3.198533e-01
3.100042e-01
3.000417e-01
2.899608e-01
2.797565e-01
2.694245e-01
2.589619e-01
2.483679e-01
2.376447e-01
2.267986e-01
2.158415e-01
2.047917e-01
1.936734e-01
1.825157e-01
1.713512e-01
1.602145e-01
1.491415e-01
1.381694e-01
1.273367e-01
1.166830e-01
1.062482e-01
9.607063e-02
8.618631e-02
7.662739e-02
6.742145e-02
5.859130e-02
5.015523e-02
4.212775e-02
3.452010e-02
2.734075e-02
2.059572e-02
1.428841e-02
8.419257e-03
2.985933e-03
-2.015722e-03
-6.590621e-03
-1.074395e-02
-1.448122e-02
-1.780837e-02
-2.073199e-02
-2.325954e-02
-2.539933e-02
-2.716059e-02
-2.855387e-02
-2.959153e-02
-3.028818e-02
-3.066094e-02
-3.072938e-02
-3.051562e-02
-3.004434e-02
-2.934233e-02
-2.843780e-02
-2.735991e-02
-2.613823e-02
-2.480215e-02
-2.338047e-02
-2.190108e-02
-2.039074e-02
-1.887497e-02
-1.737809e-02
-1.592364e-02
-1.453468e-02
-1.323341e-02
-1.204034e-02
-1.097390e-02
-1.005050e-02
-9.284334e-03
-8.687683e-03
-8.271589e-03
-8.046397e-03
-8.021964e-03
-8.207502e-03
-8.610993e-03
-9.238359e-03
-1.009244e-02
-1.117188e-02
-1.247034e-02
-1.397604e-02
-1.567132e-02
-1.753285e-02
-1.953288e-02
-2.164130e-02
-2.382776e-02
-2.606391e-02
-2.832519e-02
-3.059168e-02
-3.284796e-02
-3.508279e-02
-3.728908e-02
-3.946452e-02
-4.161142e-02
-4.373546e-02
-4.584397e-02
-4.794430e-02
-5.004229e-02
-5.214140e-02
-5.424297e-02
-5.634695e-02
-5.845272e-02
-6.055943e-02
-6.266613e-02
-6.477124e-02
-6.687182e-02
-6.896300e-02
-7.103812e-02
-7.308958e-02
-7.510985e-02
-7.709252e-02
-7.903296e-02
-8.092882e-02
-8.277998e-02
-8.458842e-02
-8.635760e-02
-8.809173e-02
-8.979475e-02
-9.146942e-02
-9.311620e-02
-9.473218e-02
-9.631022e-02
-9.783854e-02
-9.930087e-02
-1.006768e-01
-1.019428e-01
-1.030735e-01
-1.040442e-01
-1.048326e-01
-1.054206e-01
-1.057945e-01
-1.059461e-01
-1.058716e-01
-1.055715e-01
-1.050498e-01
-1.043132e-01
-1.033714e-01
-1.022358e-01
-1.009199e-01
-9.943817e-02
-9.780603e-02
-9.603953e-02
-9.415499e-02
-9.216907e-02
-9.009883e-02
-8.796142e-02
-8.577407e-02
-8.355418e-02
-8.131902e-02
-7.908526e-02
-7.686826e-02
-7.468176e-02
-7.253794e-02
-7.044758e-02
-6.842053e-02
-6.646650e-02
-6.459582e-02
-6.281961e-02
-6.114948e-02
-5.959685e-02
-5.817168e-02
-5.688109e-02
-5.572848e-02
-5.471292e-02
-5.382915e-02
-5.306824e-02
-5.241854e-02
-5.186707e-02
-5.140121e-02
-5.100990e-02
-5.068442e-02
-5.041924e-02
-5.021287e-02
-5.006819e-02
-4.999244e-02
-4.999683e-02
-5.009601e-02
-5.030719e-02
-5.064928e-02
-5.114211e-02
-5.180590e-02
-5.266081e-02
-5.372639e-02
-5.502099e-02
-5.656093e-02
-5.835916e-02
-6.042403e-02
-6.275900e-02
-6.536272e-02
-6.822903e-02
-7.134737e-02
-7.470385e-02
-7.828219e-02
-8.206467e-02
-8.603318e-02
-9.017025e-02
-9.445998e-02
-9.888814e-02
-1.034420e-01
-1.081098e-01
-1.128808e-01
-1.177430e-01
-1.226829e-01
-1.276841e-01
-1.327275e-01
-1.377907e-01
-1.428495e-01
-1.478780e-01
-1.528494e-01
-1.577360e-01
-1.625096e-01
-1.671410e-01
-1.716005e-01
-1.758580e-01
-1.798838e-01
-1.836497e-01
-1.871297e-01
