EVENT_NAME: L_AQUILA
EVENT_ID: IT-2009-0009
EVENT_DATE_YYYYMMDD: 20090406
EVENT_TIME_HHMMSS: 013240
EVENT_LATITUDE_DEGREE: 42.3420
EVENT_LONGITUDE_DEGREE: 13.3800
EVENT_DEPTH_KM: 8.3
HYPOCENTER_REFERENCE: INGV-CNT_Seismic_Bulletin
MAGNITUDE_W: 6.1
MAGNITUDE_W_REFERENCE: INGV-CNT_Seismic_Bulletin
MAGNITUDE_L: 
MAGNITUDE_L_REFERENCE: 
FOCAL_MECHANISM: Normal faulting
NETWORK: IV
STATION_CODE: GUMA
STATION_NAME: 
STATION_LATITUDE_DEGREE: 43.062700
STATION_LONGITUDE_DEGREE: 13.335200
STATION_ELEVATION_M: 574
LOCATION: 
SENSOR_DEPTH_M: 0.0
VS30_M/S: 488
SITE_CLASSIFICATION_EC8: B
MORPHOLOGIC_CLASSIFICATION: 
EPICENTRAL_DISTANCE_KM: 80.1
EARTHQUAKE_BACKAZIMUTH_DEGREE: 357.4
DATE_TIME_FIRST_SAMPLE_YYYYMMDD_HHMMSS: 
DATE_TIME_FIRST_SAMPLE_PRECISION: 
SAMPLING_INTERVAL_S: 
NDATA: 105
DURATION_S: 
STREAM: HNE
UNITS: cm/s^2
INSTRUMENT: sensor = EPISENSOR-FBA-ES-T-CL-2G-FS-40-VPP [Unknown] | digitizer = Unknown [Unknown]
INSTRUMENT_ANALOG/DIGITAL: D
INSTRUMENTAL_FREQUENCY_HZ: 
INSTRUMENTAL_DAMPING: 
FULL_SCALE_G: 
N_BIT_DIGITAL_CONVERTER: 
PGA_CM/S^2: -20.388400
TIME_PGA_S: 
BASELINE_CORRECTION: BASELINE REMOVED
FILTER_TYPE: BUTTERWORTH
FILTER_ORDER: 2
LOW_CUT_FREQUENCY_HZ: 0.040
HIGH_CUT_FREQUENCY_HZ: 40.000
LATE/NORMAL_TRIGGERED: NT
DATABASE_VERSION: 0.5
HEADER_FORMAT: DYNA 1.2
DATA_TYPE: ACCELERATION RESPONSE SPECTRUM
PROCESSING: manual (Paolucci et al., 2011)
DATA_TIMESTAMP_YYYYMMDD_HHMMSS: 20211011_160609.511
DATA_LICENSE: CC-BY4_0 (http://creativecommons.org/licenses/by/4.0/)
DATA_CITATION: Luzi L, Pacor F, Puglia R (2019). Italian Accelerometric Archive v 3.0 - Istituto Nazionale di Geofisica e Vulcanologia, Dipartimento della Protezione Civile Nazionale. doi: 10.13127/itaca.3.1
DATA_CREATOR: ITACA working group
ORIGINAL_DATA_MEDIATOR_CITATION: Orfeus - European Integrated Data Archive (EIDA) http://www.orfeus-eu.org/eida/
ORIGINAL_DATA_MEDIATOR: Orfeus - European Integrated Data Archive (EIDA)
ORIGINAL_DATA_CREATOR_CITATION: INGV Seismological Data Centre. (1997). Rete Sismica Nazionale (RSN). Istituto Nazionale di Geofisica e Vulcanologia (INGV), Italy. https://doi.org/10.13127/SD/X0FXnH7QfY http://www.fdsn.org/networks/detail/IV/
ORIGINAL_DATA_CREATOR: network: IV (Italian National Seismic Network (INSN)); owner: Istituto Nazionale di Geofisica e Vulcanologia (INGV)
USER1: 
USER2: 
USER3: 
USER4: 
USER5: 
    0.010000    20.388449
    0.020000    20.450712
    0.022000    20.477283
    0.025000    20.493761
    0.029000    20.494225
    0.030000    20.501282
    0.032000    20.554239
    0.035001    20.578159
    0.036000    20.612410
    0.040000    20.775694
    0.041999    20.851215
    0.044001    20.859547
    0.045000    20.905832
    0.046000    20.982059
    0.048001    20.956762
    0.050000    21.038359
    0.054999    21.207382
    0.059999    21.506678
    0.064998    21.499842
    0.067002    22.142902
    0.069999    22.723850
    0.075002    23.121456
    0.080000    23.918577
    0.084998    25.029457
    0.090001    23.231958
    0.095003    24.252455
    0.100000    24.719616
    0.109999    29.388748
    0.120005    25.968878
    0.130005    27.188848
    0.132996    27.145996
    0.139997    26.448790
    0.149993    25.396326
    0.160000    31.576227
    0.170010    29.745705
    0.179986    27.094748
    0.190006    32.691753
    0.200000    38.337799
    0.220022    43.552948
    0.239981    40.780594
    0.250000    46.015148
    0.260010    59.369289
    0.280034    56.377445
    0.290023    49.295906
    0.300030    51.630867
    0.320000    56.359875
    0.340020    60.391602
    0.350017    65.497467
    0.359971    71.148842
    0.379939    87.840530
    0.400000    95.785934
    0.419992    90.591301
    0.439947    70.850380
    0.450045    69.372086
    0.459982    64.727585
    0.480077    51.734917
    0.500000    57.706711
    0.550055    62.594837
    0.599880    49.538704
    0.650195    36.545845
    0.667111    37.112644
    0.699790    36.233841
    0.750188    44.561874
    0.800000    39.115578
    0.850340    31.563717
    0.900090    25.494083
    0.949668    21.697737
    1.000000    17.753223
    1.100110    17.841131
    1.200480    15.949540
    1.300390    15.066424
    1.400560    11.829988
    1.499250     9.444036
    1.600000     8.075042
    1.700680     6.649108
    1.798561     5.537457
    1.901141     4.992659
    2.000000     5.162260
    2.197802     6.767428
    2.398082     5.624877
    2.500000     4.064716
    2.597403     3.429698
    2.801121     2.806902
    3.003003     2.840568
    3.205128     2.781382
    3.401361     2.562074
    3.496503     2.546930
    3.597122     2.509107
    3.802281     2.372985
    4.000000     2.234667
    4.201681     2.375999
    4.405286     2.421629
    4.608295     2.341694
    4.807692     2.228969
    5.000000     2.082900
    5.494505     1.886473
    5.988024     1.555163
    6.493506     1.232928
    6.993007     1.064111
    7.518797     0.816905
    8.000000     0.620136
    8.474576     0.483569
    9.009009     0.423245
    9.523809     0.394428
   10.000000     0.366703
