EVENT_NAME: L_AQUILA
EVENT_ID: IT-2009-0009
EVENT_DATE_YYYYMMDD: 20090406
EVENT_TIME_HHMMSS: 013240
EVENT_LATITUDE_DEGREE: 42.3420
EVENT_LONGITUDE_DEGREE: 13.3800
EVENT_DEPTH_KM: 8.3
HYPOCENTER_REFERENCE: INGV-CNT_Seismic_Bulletin
MAGNITUDE_W: 6.1
MAGNITUDE_W_REFERENCE: INGV-CNT_Seismic_Bulletin
MAGNITUDE_L: 
MAGNITUDE_L_REFERENCE: 
FOCAL_MECHANISM: Normal faulting
NETWORK: IV
STATION_CODE: GUMA
STATION_NAME: 
STATION_LATITUDE_DEGREE: 43.062700
STATION_LONGITUDE_DEGREE: 13.335200
STATION_ELEVATION_M: 574
LOCATION: 
SENSOR_DEPTH_M: 0.0
VS30_M/S: 488
SITE_CLASSIFICATION_EC8: B
MORPHOLOGIC_CLASSIFICATION: 
EPICENTRAL_DISTANCE_KM: 80.1
EARTHQUAKE_BACKAZIMUTH_DEGREE: 357.4
DATE_TIME_FIRST_SAMPLE_YYYYMMDD_HHMMSS: 20090406_013152.000
DATE_TIME_FIRST_SAMPLE_PRECISION: milliseconds
SAMPLING_INTERVAL_S: 0.005000
NDATA: 62478
DURATION_S: 312.390
STREAM: HNN
UNITS: cm/s^2
INSTRUMENT: sensor = EPISENSOR-FBA-ES-T-CL-2G-FS-40-VPP [Unknown] | digitizer = Unknown [Unknown]
INSTRUMENT_ANALOG/DIGITAL: D
INSTRUMENTAL_FREQUENCY_HZ: 
INSTRUMENTAL_DAMPING: 
FULL_SCALE_G: 
N_BIT_DIGITAL_CONVERTER: 
PGA_CM/S^2: 17.526403
TIME_PGA_S: 82.515000
BASELINE_CORRECTION: BASELINE REMOVED
FILTER_TYPE: BUTTERWORTH
FILTER_ORDER: 2
LOW_CUT_FREQUENCY_HZ: 0.040
HIGH_CUT_FREQUENCY_HZ: 40.000
LATE/NORMAL_TRIGGERED: NT
DATABASE_VERSION: 0.5
HEADER_FORMAT: DYNA 1.2
DATA_TYPE: ACCELERATION
PROCESSING: manual (Paolucci et al., 2011)
DATA_TIMESTAMP_YYYYMMDD_HHMMSS: 20211011_160607.881
DATA_LICENSE: CC-BY4_0 (http://creativecommons.org/licenses/by/4.0/)
DATA_CITATION: Luzi L, Pacor F, Puglia R (2019). Italian Accelerometric Archive v 3.0 - Istituto Nazionale di Geofisica e Vulcanologia, Dipartimento della Protezione Civile Nazionale. doi: 10.13127/itaca.3.1
DATA_CREATOR: ITACA working group
ORIGINAL_DATA_MEDIATOR_CITATION: Orfeus - European Integrated Data Archive (EIDA) http://www.orfeus-eu.org/eida/
ORIGINAL_DATA_MEDIATOR: Orfeus - European Integrated Data Archive (EIDA)
ORIGINAL_DATA_CREATOR_CITATION: INGV Seismological Data Centre. (1997). Rete Sismica Nazionale (RSN). Istituto Nazionale di Geofisica e Vulcanologia (INGV), Italy. https://doi.org/10.13127/SD/X0FXnH7QfY http://www.fdsn.org/networks/detail/IV/
ORIGINAL_DATA_CREATOR: network: IV (Italian National Seismic Network (INSN)); owner: Istituto Nazionale di Geofisica e Vulcanologia (INGV)
USER1: 
USER2: 
USER3: 
USER4: 
USER5: 
[...]
-4.830727
-4.736819
-4.697403
-4.687229
-4.650905
-4.524688
-4.274440
-3.920701
-3.531886
-3.189332
-2.957864
-2.884292
-2.988358
-3.233333
-3.536120
-3.824976
-4.070073
-4.268719
-4.429852
-4.563581
-4.668637
-4.736696
-4.764168
-4.741508
-4.630387
-4.366225
-3.906260
-3.285591
-2.605403
-1.962100
-1.413349
-0.999097
-0.747790
-0.653246
-0.664763
-0.704804
-0.699839
-0.601233
-0.381299
-0.024252
0.476372
1.125291
1.915476
2.800983
3.713750
4.610777
5.472303
6.268287
6.957345
7.501371
7.867338
8.032459
7.991049
7.758585
7.378954
6.910535
6.398808
5.875903
5.365850
4.873477
4.388578
3.900758
3.392974
2.834143
2.193873
1.459504
0.642134
-0.226906
-1.106411
-1.952103
-2.726606
-3.419556
-4.046270
-4.619931
-5.145303
-5.632592
-6.085947
-6.479680
-6.755181
-6.830520
-6.621987
-6.078752
-5.198156
-4.011697
-2.571561
-0.949151
0.763081
2.461170
4.066942
5.561248
6.961003
8.267282
9.449182
10.461897
11.264900
11.834508
12.168424
12.277702
12.178557
11.892789
11.453771
10.910614
10.316928
9.704616
9.074191
8.408245
7.669954
6.799027
5.744453
4.501755
3.116228
1.662748
0.218748
-1.151606
-2.393331
-3.459350
-4.316392
-4.940362
-5.326206
-5.516634
-5.593547
-5.637764
-5.712618
-5.871587
-6.161414
-6.603131
-7.167721
-7.794074
-8.438738
-9.090529
-9.743349
-10.382899
-10.996215
-11.571636
-12.092955
-12.536532
-12.864903
-13.031537
-12.997589
-12.732546
-12.200268
-11.361292
-10.196447
-8.727652
-7.014006
-5.125926
-3.131949
-1.111239
0.845177
2.652006
4.234179
5.525517
6.481567
7.087032
7.346126
7.277381
6.921329
6.340844
5.599511
4.733194
3.756103
2.707939
1.674785
0.750366
-0.008322
-0.595744
-1.050568
-1.427227
-1.758786
-2.040299
-2.243171
-2.347342
-2.361120
-2.304564
-2.182359
-1.984479
-1.697334
-1.302387
-0.781713
-0.130466
0.645744
1.530138
2.479651
3.424720
4.288904
5.014337
5.580412
5.993104
6.260309
6.394435
6.429171
6.414629
6.402615
6.436058
6.521658
6.604468
6.592366
6.409362
6.024611
5.447392
4.707090
3.838891
2.879531
1.861104
0.805889
-0.262903
-1.313423
-2.321397
-3.278476
-4.182700
-5.043206
-5.877089
-6.671215
-7.359630
-7.849512
-8.061813
-7.962071
-7.570902
-6.946744
-6.162067
-5.281850
-4.343425
-3.371179
-2.412823
-1.529668
-0.758563
-0.109287
0.418552
0.829845
1.130721
1.336226
1.488588
1.651044
1.878108
2.191344
2.569988
2.969589
3.351332
3.673220
3.872499
3.895595
3.738027
3.448552
3.115762
2.841305
2.693418
2.677867
2.755600
2.885157
3.046626
3.228831
3.410986
3.575282
3.729144
3.894192
4.078834
4.273796
4.456832
4.590141
4.628246
4.538038
4.317915
4.006807
3.669993
3.370802
3.150938
3.012420
2.904956
2.753839
2.507850
2.152300
1.699314
1.180602
0.633226
0.092633
-0.398962
-0.796406
-1.063509
-1.174891
-1.121371
-0.913862
-0.579087
-0.175126
0.198281
0.449969
0.555653
0.545889
0.463205
0.347113
0.231642
0.136773
0.056947
-0.039926
-0.187880
-0.403935
-0.701558
-1.091033
-1.550568
-2.026748
-2.468837
-2.841556
-3.120453
-3.300840
-3.407441
-3.493651
-3.632405
-3.899085
-4.358373
-5.050686
-5.972689
-7.079920
-8.307025
-9.567255
-10.754764
-11.783888
-12.618188
-13.252099
-13.684741
-13.914301
-13.943290
-13.788241
-13.480942
-13.058628
-12.562470
-12.031515
-11.478733
-10.887785
-10.232989
-9.476983
-8.565040
-7.457584
-6.162238
-4.717444
-3.154957
-1.488880
0.259655
2.032416
3.742713
5.309632
6.665624
7.756352
8.564715
9.115220
9.448770
9.618561
9.692502
9.722198
9.719794
9.684052
9.641049
9.653532
9.792421
10.099847
10.570020
11.138012
11.675827
12.028280
12.077214
11.767628
11.091626
10.087172
8.847798
7.500156
6.158233
4.893928
3.737605
2.698994
1.782826
0.984540
0.295317
-0.287833
-0.771782
-1.158333
-1.426050
-1.556955
-1.563352
-1.472507
-1.318154
-1.148262
-1.009457
-0.923937
-0.891655
-0.912593
-1.005575
-1.194976
-1.481840
-1.852627
-2.304345
-2.831214
-3.406927
-4.000175
-4.585018
-5.137783
-5.649318
-6.135389
-6.625122
-7.137127
-7.651212
-8.106811
-8.446727
-8.645107
-8.687196
-8.558723
-8.261806
-7.819413
-7.268071
-6.649106
-5.995558
-5.329440
-4.670153
-4.036839
-3.448906
-2.920342
-2.439581
-1.972563
-1.499205
-1.022450
-0.543396
-0.060094
0.417796
0.876935
1.314354
1.735568
2.141542
2.517344
2.838075
3.090979
3.290645
3.472622
3.671191
3.895006
4.124801
4.343181
4.557972
4.789826
5.048245
5.321509
5.581135
5.792076
5.919391
5.937419
5.854313
5.725911
5.620208
5.565098
5.534718
5.463007
5.266727
4.890229
4.341359
3.683159
3.010527
2.425117
1.994460
1.720963
1.542042
1.362889
1.119047
0.814127
0.488483
0.172920
-0.120288
-0.388878
-0.626838
-0.803068
-0.859870
-0.736868
-0.390223
0.195503
0.996637
1.946687
2.934120
3.825427
4.528380
5.021858
5.319242
5.446202
5.449799
5.375445
5.227895
4.967447
4.534238
3.882306
3.004782
1.929244
0.699091
-0.639575
-2.048848
-3.496436
-4.942167
-6.349077
-7.706456
-9.017069
-10.269710
-11.443682
-12.524274
-13.497985
-14.340732
-15.011402
-15.454058
-15.609166
-15.421299
-14.854914
-13.925602
-12.701184
-11.260517
-9.664191
-7.958034
-6.182913
-4.380782
-2.599074
-0.884354
0.729508
2.224847
3.598246
4.851087
5.979403
6.982833
7.869382
8.635039
9.256653
9.708382
9.963939
9.992513
9.775913
9.321627
8.652141
7.797138
6.798056
5.707682
4.582397
3.476994
2.452114
1.581488
0.921777
0.470280
0.181742
0.012646
-0.082077
-0.163926
-0.288026
-0.480046
-0.737728
-1.041775
-1.373270
-1.723970
-2.086057
-2.444154
-2.777909
-3.059627
-3.258359
-3.347739
-3.293334
-3.051226
-2.603790
-1.986036
-1.278872
-0.588464
-0.016035
0.367119
0.524620
0.457373
0.197775
-0.216435
-0.751446
-1.365849
-2.018296
-2.672453
-3.276998
-3.766338
-4.089714
-4.229206
-4.202528
-4.056776
-3.848494
-3.621861
-3.391984
-3.136537
-2.821314
-2.446567
-2.052389
-1.685485
-1.383470
-1.178529
-1.088390
-1.094106
-1.129155
-1.104879
-0.959237
-0.676156
-0.267022
0.247632
0.850150
1.531096
2.269966
3.019328
3.725056
4.342567
4.824145
5.119952
5.203542
5.087102
4.816675
4.457739
4.080909
3.754968
3.536484
3.456700
3.530882
3.778884
4.221009
4.860699
5.679545
6.628768
7.620495
8.551932
9.340940
9.935405
10.310012
10.464489
10.418534
10.209436
9.884138
9.475978
9.004438
8.497661
7.977541
7.432735
6.833785
6.156660
5.389933
4.538413
3.618512
2.651580
1.662149
0.672168
-0.293915
-1.193258
-1.979720
-2.637243
-3.173309
-3.597215
-3.934121
-4.235524
-4.551905
-4.909469
-5.315643
-5.771138
-6.269622
-6.788335
-7.293765
-7.766982
-8.211063
-8.635972
-9.059266
-9.512589
-10.023755
-10.598521
-11.219425
-11.844658
-12.415866
-12.879261
-13.197613
-13.358254
-13.375511
-13.267246
-13.042218
-12.726315
-12.371520
-12.024962
-11.709074
-11.421504
-11.128330
-10.765021
-10.259222
-9.559095
-8.652985
-7.569468
-6.359801
-5.079716
-3.769803
-2.440560
-1.093345
0.239840
1.497266
2.620286
3.566919
4.312998
4.860153
5.232836
5.464849
5.593366
5.655722
5.685230
5.707138
5.728877
5.739486
5.726918
5.686162
5.620277
5.560572
5.578156
5.756450
6.156349
6.800377
7.665330
8.682608
9.752769
10.771401
11.665051
12.412119
13.021892
13.518722
13.949918
14.353426
14.717696
15.004160
15.176434
15.194279
15.014583
14.611885
13.999853
13.238938
12.415025
11.607423
10.877727
10.263613
9.765361
9.351089
8.973883
8.573750
8.086302
7.474636
6.740485
5.899010
4.963108
3.952447
2.902366
1.859134
0.864037
-0.057549
-0.891915
-1.638087
-2.322666
-2.995957
-3.706574
-4.490316
-5.366498
-6.322739
-7.315020
-8.294510
-9.227574
-10.089814
-10.852802
-11.490268
-11.999279
-12.399106
-12.708455
-12.944697
-13.132772
-13.282247
-13.367612
-13.349520
-13.193088
-12.860479
-12.314319
-11.535459
-10.530727
-9.328102
-7.965796
-6.494266
-4.998190
-3.588726
-2.348203
-1.299244
-0.423582
0.321826
0.993648
1.638392
2.285824
2.955158
3.642212
4.311253
4.911259
5.391982
5.715358
5.863830
5.836456
5.652939
5.366546
5.050344
4.768230
4.565919
4.466436
4.459208
4.509965
4.586826
4.674041
4.768067
4.861084
4.933817
4.975060
4.992969
4.995613
4.984039
4.971659
4.989867
5.077853
5.277105
5.619396
6.103035
6.683480
7.289713
7.839956
8.244095
8.409970
8.265041
7.782884
6.984059
5.912826
4.627689
3.204122
1.725898
0.270385
-1.103160
-2.357076
-3.463750
-4.396377
-5.139618
-5.698195
-6.088806
-6.332395
-6.446779
-6.443817
-6.351927
-6.229219
-6.128024
-6.063113
-6.029292
-6.023589
-6.037677
-6.046162
-6.009382
-5.890487
-5.676079
-5.378974
-5.033864
-4.697857
-4.425556
-4.232857
-4.106617
-4.032465
-3.981728
-3.897065
-3.723458
-3.441994
-3.069112
-2.638477
-2.186272
-1.749018
-1.363246
-1.052203
-0.821683
-0.670397
-0.580030
-0.503860
-0.391080
-0.208592
0.063249
0.422490
0.829526
1.219316
1.529882
1.724617
1.800969
1.783719
1.720620
1.674830
1.692620
1.780915
1.929008
2.134835
2.398126
2.707179
3.043228
3.385770
3.706472
3.965338
4.124069
4.165032
4.098408
3.955478
3.778765
3.622381
3.546181
3.596573
3.799168
4.152859
4.616894
5.126421
5.629438
6.098391
6.520837
6.896768
7.237257
7.559053
7.872601
8.158679
8.366822
8.452129
8.396750
8.195718
7.848578
7.363013
6.752328
6.032512
5.224128
4.353213
3.448286
2.533203
1.620720
0.715879
-0.181077
-1.077782
-1.972120
-2.823558
-3.565383
-4.143591
-4.525419
-4.691144
-4.638875
-4.384755
-3.958751
-3.406390
-2.787108
-2.170982
-1.625754
-1.186690
-0.843778
-0.559108
-0.279677
0.052348
0.465521
0.932955
1.390857
1.769868
2.010681
2.079457
1.983799
1.773266
1.517161
1.268683
1.049884
0.866629
0.712363
0.556082
0.354156
0.070451
-0.327875
-0.867971
-1.547579
-2.328970
-3.158189
-3.980163
-4.740155
-5.384076
-5.869649
-6.181979
-6.330788
-6.333480
-6.213074
-6.000574
-5.715234
-5.352476
-4.906513
-4.388874
-3.823093
-3.241794
-2.687559
-2.208653
-1.850671
-1.637800
-1.559836
-1.585229
-1.671611
-1.756896
-1.771861
-1.678576
-1.484298
-1.224955
-0.948425
-0.702604
-0.526222
-0.446554
-0.480920
-0.638035
-0.912508
-1.273886
-1.676470
-2.086332
-2.481147
-2.834371
-3.126752
-3.355189
-3.508836
-3.560102
-3.491622
-3.312624
-3.051551
-2.748654
-2.448535
-2.194692
-2.028246
-1.974502
-2.029894
-2.166799
-2.335104
-2.464903
-2.496924
-2.410425
-2.216261
-1.944769
-1.643138
-1.361871
-1.138046
-0.987190
-0.898796
-0.848094
-0.814953
-0.778571
-0.711286
-0.592474
-0.408910
-0.146537
0.192482
0.574459
0.951205
1.278862
1.520893
1.655605
1.684441
1.628931
1.520795
1.387887
1.249643
1.123225
1.012106
0.889267
0.714221
0.459860
0.114471
-0.314669
-0.787551
-1.240853
-1.619701
-1.904044
-2.113770
-2.290817
-2.477419
-2.704883
-2.979449
-3.271276
-3.534793
-3.740008
-3.876412
-3.947862
-3.977254
-3.998647
-4.038576
-4.108671
-4.205621
-4.314209
-4.412592
-4.468201
-4.436142
-4.272788
-3.940500
-3.408440
-2.679253
-1.804496
-0.853263
0.116725
1.055013
1.914952
2.661791
3.276843
3.759962
4.127445
4.396739
4.572034
4.633840
4.532005
4.214059
3.673808
2.957988
2.141235
1.308534
0.533923
-0.137994
-0.682979
-1.081476
-1.317741
-1.385079
-1.298405
-1.104273
-0.866599
-0.654430
-0.544634
-0.593246
-0.792820
-1.082785
-1.387863
-1.632783
-1.754488
-1.725249
-1.559218
-1.296159
-0.977622
-0.638055
-0.319740
-0.075056
0.060265
0.076181
-0.026741
-0.231825
-0.499001
-0.792502
-1.104523
-1.444454
-1.825383
-2.261521
-2.760006
-3.310920
-3.887811
-4.456454
-4.981586
-5.421385
-5.721418
-5.832550
-5.735347
-5.440003
-4.980639
-4.417189
-3.821829
-3.255182
-2.753969
-2.327702
-1.964669
-1.643458
-1.333006
-0.996505
-0.615116
-0.196608
0.239959
0.665059
1.036578
1.325346
1.536513
1.706135
1.897623
2.191149
2.648380
3.282383
4.061246
4.931623
5.838568
6.727260
7.534106
8.194266
8.660851
8.912580
8.962962
8.872892
8.729612
8.601047
8.516622
8.470127
8.420628
8.307199
8.070269
7.662711
7.064852
6.288421
5.359684
4.318723
3.225093
2.134333
1.082777
0.106805
-0.755845
-1.491915
-2.112606
-2.627630
-3.032051
-3.314455
-3.475629
-3.540559
-3.551070
-3.559684
-3.635023
-3.846494
-4.237899
-4.825090
-5.591989
-6.476908
-7.389994
-8.253943
-9.025523
-9.691433
-10.257464
-10.745093
-11.190868
-11.624206
-12.033861
-12.377107
-12.621932
-12.759968
-12.800719
-12.782819
-12.769861
-12.812028
-12.918264
-13.063108
-13.210078
-13.327972
-13.387944
-13.361984
-13.237980
-13.020918
-12.712619
-12.307539
-11.803339
-11.196951
-10.484424
-9.679202
-8.813859
-7.921947
-7.033733
-6.185686
-5.429529
-4.829296
-4.432811
-4.245521
-4.236601
-4.353467
-4.535180
-4.736498
-4.934854
-5.108044
-5.224609
-5.255658
-5.169105
-4.914993
-4.438948
-3.710214
-2.739012
-1.573870
-0.274522
1.111313
2.550919
4.034831
5.574043
7.161780
8.753626
10.292685
11.728547
13.015700
14.119820
15.030897
15.763640
16.343412
16.793219
17.132162
17.372606
17.508839
17.526403
17.433081
17.266768
17.070211
16.862822
16.642481
16.404617
16.141163
15.842869
15.510464
15.141125
14.719160
14.225082
13.640191
12.955615
12.172746
11.288103
10.300676
9.229263
8.100601
6.934652
5.751725
4.575519
3.424330
2.308698
1.237430
0.217367
-0.755448
-1.697171
-2.619745
-3.507612
-4.327692
-5.065715
-5.721260
-6.289463
-6.780575
-7.222300
-7.636040
-8.030382
-8.398864
-8.718083
-8.955029
-9.068649
-9.014360
-8.760767
-8.289341
-7.583521
-6.649701
-5.540377
-4.335466
-3.121495
-1.987608
-1.005455
-0.207934
0.407825
0.858401
1.141386
1.234318
1.141428
0.914402
0.621134
0.327124
0.093830
-0.044971
-0.098183
-0.096940
-0.070920
-0.038155
0.000602
0.063648
0.181234
0.376000
0.642314
0.946765
1.247001
1.504475
1.688818
1.783715
1.787468
1.709187
1.569947
1.402423
1.244212
1.134274
1.115383
1.231797
1.517990
1.988575
2.639436
3.454382
4.399653
5.411254
6.401751
7.289341
8.019146
8.559230
8.896241
9.041709
9.023456
8.867269
8.591915
8.212608
7.746607
7.215071
6.634285
6.015280
5.374071
4.721878
4.054881
3.373129
2.686607
1.997317
1.302217
0.610304
-0.055726
-0.670475
-1.220227
-1.706857
-2.138640
-2.532354
-2.920729
-3.333920
-3.778637
-4.243524
-4.700147
-5.097993
-5.383596
-5.518963
-5.481821
-5.272013
-4.914271
-4.448193
-3.929308
-3.424247
-2.982336
-2.633097
-2.411821
-2.352473
-2.467917
-2.756580
-3.206241
-3.791333
-4.479757
-5.236608
-6.029789
-6.838317
-7.644686
-8.426601
-9.160904
-9.813983
-10.331287
-10.665461
-10.804212
-10.750094
-10.503293
-10.081611
-9.525192
-8.874613
-8.165895
-7.440518
-6.743090
-6.106044
-5.537054
-5.026634
-4.562641
-4.120707
-3.652652
-3.107289
-2.454346
-1.682560
-0.796821
0.178216
1.211942
2.285061
3.388841
4.522281
5.687340
6.877569
8.078224
9.266299
10.401192
11.431719
12.315107
13.026899
13.568042
13.964030
14.241487
14.405129
14.438640
14.317582
14.021628
13.530019
12.807781
11.827842
10.602846
9.171597
7.584882
5.925324
4.305883
2.828812
1.558262
0.526715
-0.252755
-0.783960
-1.090328
-1.211189
-1.186631
-1.048668
-0.830021
-0.567486
-0.289956
-0.018887
0.221016
0.408178
0.534453
0.602510
0.622444
0.610526
0.583689
0.554529
0.527957
0.499143
0.462214
0.419419
0.376926
0.343876
0.331364
0.338439
0.352789
0.365981
0.368256
0.336464
0.244326
0.082033
-0.136183
-0.381089
-0.626352
-0.853345
-1.044279
-1.194407
-1.325516
-1.462689
-1.610951
-1.768863
-1.940590
-2.124443
-2.304925
-2.456897
-2.554835
-2.580270
-2.519319
-2.363670
-2.121185
-1.811072
-1.450222
-1.059016
-0.661515
-0.264696
0.145068
0.585597
1.069452
1.597341
2.151431
2.697487
3.191840
3.596299
3.898497
4.107543
4.232852
4.289296
4.310346
4.329659
4.357842
4.385983
4.394682
4.353418
4.224863
3.972823
3.566987
2.990193
2.243453
1.350714
0.364153
-0.653380
-1.657387
-2.622188
-3.531152
-4.389266
-5.228213
-6.086306
-6.992354
-7.958116
-8.972572
-10.004697
-11.007249
-11.921612
-12.690397
-13.258241
-13.566273
-13.574812
-13.287717
-12.738645
-11.973841
-11.055189
-10.053085
-9.029073
-8.032901
-7.105725
-6.276315
-5.557031
-4.946360
-4.440249
-4.040122
-3.734491
-3.476770
-3.208884
-2.901167
-2.546486
-2.136773
-1.666457
-1.136972
-0.548425
0.099006
0.796065
1.520661
2.242528
2.935809
3.582343
4.164938
4.677439
5.136047
5.558349
5.942854
6.282718
6.579186
6.836889
7.063540
7.271210
7.471536
7.670487
7.860955
8.026990
8.164423
8.281359
8.378378
8.449759
8.493049
8.501158
8.460149
8.354661
8.166538
7.886940
7.527518
7.103469
6.623249
6.095443
5.531196
4.949456
4.376747
3.833817
3.331081
2.876567
2.475098
2.113179
1.755659
1.367078
0.927941
0.429768
-0.129251
-0.733695
-1.337294
-1.875151
-2.303287
-2.615770
-2.826159
-2.957402
-3.039930
-3.092655
-3.116877
-3.117594
-3.108213
-3.095156
-3.080676
-3.077374
-3.108074
-3.189612
-3.314864
-3.460257
-3.613917
-3.781696
-3.975224
-4.211710
-4.507571
-4.857091
-5.233027
-5.608821
-5.963328
-6.273699
-6.517017
-6.675314
-6.743769
-6.730651
-6.640623
-6.473225
-6.236536
-5.936602
-5.563671
-5.111210
-4.590297
-4.012512
-3.379938
-2.698203
-1.986854
-1.277469
-0.604615
-0.000466
0.502881
0.885240
1.158828
1.359740
1.524128
1.685648
1.873711
2.095935
2.340068
2.595419
2.856788
3.117904
3.372082
3.613664
3.840120
4.049807
4.230900
4.362353
4.432040
4.444345
4.412122
4.356768
4.310827
4.301667
4.338609
4.420965
4.538189
4.661515
4.750847
4.768653
4.688229
4.490198
4.151823
3.656594
3.015685
2.259820
1.417097
0.517708
-0.398504
-1.298314
-2.163481
-2.985656
-3.768955
-4.525262
-5.263461
-5.986483
-6.685901
-7.344792
-7.947588
-8.467061
-8.854029
-9.063098
-9.070497
-8.860901
-8.431027
-7.810613
-7.057101
-6.232916
-5.388821
-4.555087
-3.747835
-2.977319
-2.239625
-1.515701
-0.784807
-0.027127
0.771530
1.604203
2.447455
3.277769
4.068008
4.784076
5.400941
5.913864
6.334548
6.677496
6.941634
7.110583
7.170039
7.109796
6.922186
6.618788
6.229093
5.773496
5.263303
4.723889
4.190046
3.680240
3.190985
2.715341
2.260408
1.841946
1.461489
1.104516
0.760740
0.419143
0.054990
-0.349097
-0.787269
-1.241999
-1.687746
-2.089978
-2.415742
-2.641696
-2.757631
-2.767852
-2.681322
-2.505435
-2.251769
-1.930763
-1.547357
-1.118737
-0.679310
-0.255112
0.149864
0.538324
0.909000
1.266819
1.631929
2.025185
2.446710
2.882878
3.326909
3.768155
4.172385
4.508765
4.780644
5.001559
5.173610
5.301437
5.391811
5.440968
5.439372
5.378968
5.253116
5.053599
4.764763
4.368972
