EVENT_NAME: L_AQUILA
EVENT_ID: IT-2009-0009
EVENT_DATE_YYYYMMDD: 20090406
EVENT_TIME_HHMMSS: 013240
EVENT_LATITUDE_DEGREE: 42.3420
EVENT_LONGITUDE_DEGREE: 13.3800
EVENT_DEPTH_KM: 8.3
HYPOCENTER_REFERENCE: INGV-CNT_Seismic_Bulletin
MAGNITUDE_W: 6.1
MAGNITUDE_W_REFERENCE: INGV-CNT_Seismic_Bulletin
MAGNITUDE_L: 
MAGNITUDE_L_REFERENCE: 
FOCAL_MECHANISM: Normal faulting
NETWORK: IV
STATION_CODE: GUMA
STATION_NAME: 
STATION_LATITUDE_DEGREE: 43.062700
STATION_LONGITUDE_DEGREE: 13.335200
STATION_ELEVATION_M: 574
LOCATION: 
SENSOR_DEPTH_M: 0.0
VS30_M/S: 488
SITE_CLASSIFICATION_EC8: B
MORPHOLOGIC_CLASSIFICATION: 
EPICENTRAL_DISTANCE_KM: 80.1
EARTHQUAKE_BACKAZIMUTH_DEGREE: 357.4
DATE_TIME_FIRST_SAMPLE_YYYYMMDD_HHMMSS: 
DATE_TIME_FIRST_SAMPLE_PRECISION: 
SAMPLING_INTERVAL_S: 
NDATA: 105
DURATION_S: 
STREAM: HNZ
UNITS: cm
INSTRUMENT: sensor = EPISENSOR-FBA-ES-T-CL-2G-FS-40-VPP [Unknown] | digitizer = Unknown [Unknown]
INSTRUMENT_ANALOG/DIGITAL: D
INSTRUMENTAL_FREQUENCY_HZ: 
INSTRUMENTAL_DAMPING: 
FULL_SCALE_G: 
N_BIT_DIGITAL_CONVERTER: 
PGD_CM: 0.560808
TIME_PGD_S: 
BASELINE_CORRECTION: BASELINE REMOVED
FILTER_TYPE: BUTTERWORTH
FILTER_ORDER: 2
LOW_CUT_FREQUENCY_HZ: 0.040
HIGH_CUT_FREQUENCY_HZ: 40.000
LATE/NORMAL_TRIGGERED: NT
DATABASE_VERSION: 0.5
HEADER_FORMAT: DYNA 1.2
DATA_TYPE: DISPLACEMENT RESPONSE SPECTRUM
PROCESSING: manual (Paolucci et al., 2011)
DATA_TIMESTAMP_YYYYMMDD_HHMMSS: 20211011_160610.204
DATA_LICENSE: CC-BY4_0 (http://creativecommons.org/licenses/by/4.0/)
DATA_CITATION: Luzi L, Pacor F, Puglia R (2019). Italian Accelerometric Archive v 3.0 - Istituto Nazionale di Geofisica e Vulcanologia, Dipartimento della Protezione Civile Nazionale. doi: 10.13127/itaca.3.1
DATA_CREATOR: ITACA working group
ORIGINAL_DATA_MEDIATOR_CITATION: Orfeus - European Integrated Data Archive (EIDA) http://www.orfeus-eu.org/eida/
ORIGINAL_DATA_MEDIATOR: Orfeus - European Integrated Data Archive (EIDA)
ORIGINAL_DATA_CREATOR_CITATION: INGV Seismological Data Centre. (1997). Rete Sismica Nazionale (RSN). Istituto Nazionale di Geofisica e Vulcanologia (INGV), Italy. https://doi.org/10.13127/SD/X0FXnH7QfY http://www.fdsn.org/networks/detail/IV/
ORIGINAL_DATA_CREATOR: network: IV (Italian National Seismic Network (INSN)); owner: Istituto Nazionale di Geofisica e Vulcanologia (INGV)
USER1: 
USER2: 
USER3: 
USER4: 
USER5: 
    0.010000     0.000024
    0.020000     0.000098
    0.022000     0.000119
    0.025000     0.000154
    0.029000     0.000207
    0.030000     0.000222
    0.032000     0.000255
    0.035001     0.000302
    0.036000     0.000320
    0.040000     0.000409
    0.041999     0.000505
    0.044001     0.000592
    0.045000     0.000611
    0.046000     0.000637
    0.048001     0.000725
    0.050000     0.000689
    0.054999     0.000778
    0.059999     0.001087
    0.064998     0.001176
    0.067002     0.001280
    0.069999     0.001500
    0.075002     0.001623
    0.080000     0.001843
    0.084998     0.002171
    0.090001     0.002413
    0.095003     0.002973
    0.100000     0.003150
    0.109999     0.004467
    0.120005     0.005843
    0.130005     0.006448
    0.132996     0.006545
    0.139997     0.008468
    0.149993     0.009587
    0.160000     0.012493
    0.170010     0.014095
    0.179986     0.017485
    0.190006     0.021776
    0.200000     0.023599
    0.220022     0.034795
    0.239981     0.040868
    0.250000     0.051087
    0.260010     0.060127
    0.280034     0.069982
    0.290023     0.084246
    0.300030     0.099009
    0.320000     0.100720
    0.340020     0.107696
    0.350017     0.101079
    0.359971     0.090674
    0.379939     0.082719
    0.400000     0.078820
    0.419992     0.080050
    0.439947     0.094141
    0.450045     0.101637
    0.459982     0.108681
    0.480077     0.119082
    0.500000     0.121531
    0.550055     0.127975
    0.599880     0.145197
    0.650195     0.138930
    0.667111     0.149178
    0.699790     0.172570
    0.750188     0.147420
    0.800000     0.161710
    0.850340     0.233771
    0.900090     0.260898
    0.949668     0.255353
    1.000000     0.306472
    1.100110     0.330663
    1.200480     0.283205
    1.300390     0.281984
    1.400560     0.442798
    1.499250     0.418930
    1.600000     0.419780
    1.700680     0.408269
    1.798561     0.332289
    1.901141     0.386578
    2.000000     0.420000
    2.197802     0.634006
    2.398082     0.869214
    2.500000     0.989092
    2.597403     1.130626
    2.801121     1.179056
    3.003003     1.045661
    3.205128     0.814636
    3.401361     0.592664
    3.496503     0.623476
    3.597122     0.622564
    3.802281     0.663573
    4.000000     0.762237
    4.201681     0.795803
    4.405286     0.723796
    4.608295     0.677620
    4.807692     0.757548
    5.000000     0.830968
    5.494505     1.025073
    5.988024     0.930931
    6.493506     0.832420
    6.993007     0.759566
    7.518797     0.737490
    8.000000     0.665298
    8.474576     0.632915
    9.009009     0.730706
    9.523809     0.779809
   10.000000     0.798825
