EVENT_NAME: L_AQUILA
EVENT_ID: IT-2009-0009
EVENT_DATE_YYYYMMDD: 20090406
EVENT_TIME_HHMMSS: 013240
EVENT_LATITUDE_DEGREE: 42.3420
EVENT_LONGITUDE_DEGREE: 13.3800
EVENT_DEPTH_KM: 8.3
HYPOCENTER_REFERENCE: INGV-CNT_Seismic_Bulletin
MAGNITUDE_W: 6.1
MAGNITUDE_W_REFERENCE: INGV-CNT_Seismic_Bulletin
MAGNITUDE_L: 
MAGNITUDE_L_REFERENCE: 
FOCAL_MECHANISM: Normal faulting
NETWORK: IV
STATION_CODE: GUMA
STATION_NAME: 
STATION_LATITUDE_DEGREE: 43.062700
STATION_LONGITUDE_DEGREE: 13.335200
STATION_ELEVATION_M: 574
LOCATION: 
SENSOR_DEPTH_M: 0.0
VS30_M/S: 488
SITE_CLASSIFICATION_EC8: B
MORPHOLOGIC_CLASSIFICATION: 
EPICENTRAL_DISTANCE_KM: 80.1
EARTHQUAKE_BACKAZIMUTH_DEGREE: 357.4
DATE_TIME_FIRST_SAMPLE_YYYYMMDD_HHMMSS: 20090406_013152.000
DATE_TIME_FIRST_SAMPLE_PRECISION: milliseconds
SAMPLING_INTERVAL_S: 0.005000
NDATA: 62478
DURATION_S: 312.390
STREAM: HNE
UNITS: cm/s^2
INSTRUMENT: sensor = EPISENSOR-FBA-ES-T-CL-2G-FS-40-VPP [Unknown] | digitizer = Unknown [Unknown]
INSTRUMENT_ANALOG/DIGITAL: D
INSTRUMENTAL_FREQUENCY_HZ: 
INSTRUMENTAL_DAMPING: 
FULL_SCALE_G: 
N_BIT_DIGITAL_CONVERTER: 
PGA_CM/S^2: -20.388399
TIME_PGA_S: 85.015000
BASELINE_CORRECTION: BASELINE REMOVED
FILTER_TYPE: BUTTERWORTH
FILTER_ORDER: 2
LOW_CUT_FREQUENCY_HZ: 0.040
HIGH_CUT_FREQUENCY_HZ: 40.000
LATE/NORMAL_TRIGGERED: NT
DATABASE_VERSION: 0.5
HEADER_FORMAT: DYNA 1.2
DATA_TYPE: ACCELERATION
PROCESSING: manual (Paolucci et al., 2011)
DATA_TIMESTAMP_YYYYMMDD_HHMMSS: 20211011_160606.967
DATA_LICENSE: CC-BY4_0 (http://creativecommons.org/licenses/by/4.0/)
DATA_CITATION: Luzi L, Pacor F, Puglia R (2019). Italian Accelerometric Archive v 3.0 - Istituto Nazionale di Geofisica e Vulcanologia, Dipartimento della Protezione Civile Nazionale. doi: 10.13127/itaca.3.1
DATA_CREATOR: ITACA working group
ORIGINAL_DATA_MEDIATOR_CITATION: Orfeus - European Integrated Data Archive (EIDA) http://www.orfeus-eu.org/eida/
ORIGINAL_DATA_MEDIATOR: Orfeus - European Integrated Data Archive (EIDA)
ORIGINAL_DATA_CREATOR_CITATION: INGV Seismological Data Centre. (1997). Rete Sismica Nazionale (RSN). Istituto Nazionale di Geofisica e Vulcanologia (INGV), Italy. https://doi.org/10.13127/SD/X0FXnH7QfY http://www.fdsn.org/networks/detail/IV/
ORIGINAL_DATA_CREATOR: network: IV (Italian National Seismic Network (INSN)); owner: Istituto Nazionale di Geofisica e Vulcanologia (INGV)
USER1: 
USER2: 
USER3: 
USER4: 
USER5: 
[...]
-0.112994
1.404772
3.054916
4.751240
6.415293
7.997063
9.453718
10.723823
11.731152
12.382621
12.571269
12.232499
11.401524
10.201009
8.791303
7.329593
5.944132
4.729708
3.743936
2.992994
2.444963
2.053285
1.748687
1.450126
1.108197
0.704603
0.219082
-0.369820
-1.071684
-1.884890
-2.791780
-3.761171
-4.761350
-5.759663
-6.723469
-7.620920
-8.401479
-9.001731
-9.386696
-9.552573
-9.502867
-9.260519
-8.871116
-8.367534
-7.758709
-7.053819
-6.285060
-5.517148
-4.829122
-4.280649
-3.900360
-3.678836
-3.556982
-3.455985
-3.321498
-3.116514
-2.806757
-2.387267
-1.898798
-1.403963
-0.956709
-0.584362
-0.289591
-0.064645
0.111141
0.271281
0.432248
0.583326
0.716352
0.835137
0.940761
1.030744
1.091801
1.084607
0.957322
0.671222
0.210019
-0.421424
-1.207692
-2.123700
-3.113234
-4.093050
-4.986290
-5.721011
-6.212196
-6.389112
-6.230415
-5.757888
-5.021497
-4.093786
-3.059083
-2.005321
-1.011153
-0.127799
0.613692
1.194568
1.631581
1.975981
2.271675
2.539315
2.787682
3.013603
3.210991
3.391665
3.582514
3.804178
4.048019
4.262377
4.380867
4.369574
4.227046
3.964943
3.613707
3.209253
2.768070
2.310388
1.886643
1.557198
1.370556
1.353576
1.495690
1.748525
2.037454
2.277557
2.414457
2.448674
2.404333
2.303028
2.168204
2.011738
1.824594
1.606519
1.378451
1.158518
0.953680
0.765111
0.591358
0.440275
0.327763
0.268347
0.286031
0.405599
0.618265
0.889148
1.191931
1.509262
1.822930
2.120724
2.390869
2.609062
2.742924
2.767239
2.688571
2.554472
2.411003
2.263392
2.092589
1.874975
1.586775
1.228534
0.831570
0.416416
-0.036143
-0.570001
-1.223896
-2.004306
-2.882341
-3.818611
-4.772390
-5.698774
-6.567212
-7.361940
-8.051046
-8.589002
-8.948190
-9.122241
-9.120707
-8.977533
-8.739952
-8.444208
-8.107256
-7.729950
-7.315688
-6.888625
-6.475976
-6.087027
-5.717564
-5.339030
-4.886033
-4.293100
-3.537646
-2.638811
-1.645401
-0.630865
0.324009
1.149936
1.802285
2.273163
2.581095
2.754983
2.847893
2.935106
3.072802
3.280840
3.553085
3.851301
4.112515
4.289328
4.373314
4.386923
4.365240
4.334356
4.308593
4.303990
4.327023
4.360697
4.382639
4.368056
4.272356
4.052897
3.701153
3.234658
2.683755
2.087801
1.483455
0.904579
0.386717
-0.047263
-0.394976
-0.673108
-0.928688
-1.225059
-1.595998
-2.043331
-2.570635
-3.180958
-3.862986
-4.601762
-5.377746
-6.150148
-6.857607
-7.437645
-7.854228
-8.110775
-8.224484
-8.201934
-8.050024
-7.773728
-7.355764
-6.776582
-6.046686
-5.193043
-4.235035
-3.185329
-2.057397
-0.876048
0.318876
1.487511
2.595431
3.615001
4.550692
5.438749
6.300231
7.127324
7.907017
8.616146
9.215767
9.675624
9.982971
10.132469
10.126005
9.973143
9.692913
9.315062
8.860462
8.334023
7.752915
7.147416
6.526135
5.876043
5.182212
4.417478
3.538457
2.507984
1.310080
-0.044043
-1.515183
-3.044816
-4.552580
-5.937159
-7.112538
-8.035424
-8.693145
-9.104572
-9.328693
-9.430747
-9.451762
-9.421946
-9.372234
-9.328666
-9.304600
-9.287466
-9.239702
-9.116909
-8.871678
-8.461016
-7.872861
-7.122782
-6.231126
-5.241205
-4.239572
-3.322307
-2.553379
-1.952955
-1.494411
-1.111451
-0.719682
-0.238640
0.378068
1.123270
1.962489
2.858388
3.756204
4.592167
5.328598
5.949490
6.443390
6.819270
7.115350
7.380532
7.655738
7.962166
8.301408
8.664522
9.026975
9.350626
9.611382
9.797190
9.873436
9.790037
9.515355
9.038966
8.371867
7.556336
6.647351
5.686572
4.698324
3.694482
2.693119
1.733408
0.851731
0.065576
-0.601260
-1.118372
-1.479895
-1.698416
-1.785716
-1.767069
-1.683594
-1.564608
-1.413514
-1.215586
-0.958115
-0.647428
-0.296866
0.082686
0.462182
0.799082
1.072752
1.282398
1.425675
1.510905
1.566103
1.626015
1.734995
1.948850
2.316981
2.870768
3.608854
4.482171
5.414123
6.323418
7.119266
7.718932
8.084576
8.217052
8.131414
7.858633
7.440314
6.909545
6.291965
5.616301
4.914562
4.212652
3.509727
2.771776
1.960664
1.051390
0.021514
-1.131324
-2.366096
-3.628330
-4.881889
-6.098561
-7.249825
-8.308439
-9.242384
-10.019641
-10.613470
-10.997802
-11.159937
-11.107218
-10.841225
-10.355806
-9.668472
-8.817040
-7.833421
-6.745837
-5.587139
-4.393362
-3.207749
-2.077860
-1.045905
-0.141026
0.639779
1.334993
1.980880
2.590355
3.169528
3.712795
4.189257
4.571976
4.864425
5.081565
5.230120
5.306522
5.294249
5.170676
4.917871
4.525911
4.004751
3.385548
2.694521
1.950567
1.191207
0.464015
-0.197720
-0.763079
-1.194206
-1.467911
-1.585753
-1.565867
-1.436804
-1.226866
-0.960803
-0.663899
-0.347434
-0.007170
0.348638
0.704598
1.069994
1.467080
1.904750
2.389729
2.936800
3.555063
4.239421
4.966124
5.692292
6.371969
6.965517
7.443771
7.806037
8.071802
8.242280
8.300745
8.242594
8.074803
7.807406
7.461509
7.063299
6.632918
6.187444
5.741233
5.312199
4.930066
4.613187
4.348720
4.112590
3.876481
3.590256
3.197033
2.663276
1.976364
1.139403
0.183598
-0.832464
-1.837298
-2.761845
-3.557359
-4.197434
-4.670776
-4.993575
-5.205408
-5.331539
-5.377129
-5.351085
-5.259748
-5.100216
-4.883163
-4.636274
-4.383610
-4.137455
-3.896774
-3.652288
-3.401381
-3.144652
-2.880086
-2.622734
-2.404299
-2.245308
-2.159189
-2.167160
-2.276342
-2.464491
-2.698740
-2.949304
-3.192535
-3.414573
-3.608040
-3.776375
-3.937820
-4.101041
-4.254020
-4.392890
-4.527007
-4.651795
-4.749177
-4.797222
-4.753809
-4.555979
-4.150035
-3.515060
-2.674609
-1.696268
-0.669228
0.315917
1.182359
1.895260
2.461305
2.890106
3.188813
3.382107
3.497794
3.551568
3.557205
3.519840
3.421736
3.236187
2.951454
2.588517
2.203612
1.856462
1.577549
1.369617
1.208914
1.045695
0.848992
0.651296
0.526440
0.543368
0.742806
1.120805
1.627731
2.191857
2.741470
3.221280
3.597879
3.842399
3.931807
3.878435
3.719965
3.478846
3.161442
2.771860
2.306713
1.771090
1.205283
0.677736
0.262796
0.019567
-0.027665
0.114843
0.418564
0.816981
1.214155
1.532152
1.728251
1.782516
1.705909
1.535000
1.291936
0.967230
0.535670
-0.029924
-0.748148
-1.623729
-2.646405
-3.775383
-4.939604
-6.074434
-7.131621
-8.055465
-8.796250
-9.335209
-9.663181
-9.759733
-9.606109
-9.196280
-8.536652
-7.645438
-6.554242
-5.317820
-4.009083
-2.681417
-1.354696
-0.048612
1.204488
2.372880
3.416835
4.289234
4.967427
5.466546
5.826941
6.104288
6.360925
6.661912
7.071616
7.630789
8.342532
9.190394
10.141046
11.126017
12.060241
12.877387
13.527100
13.963145
14.149289
14.060893
13.689712
13.055804
12.201644
11.177763
10.028441
8.767622
7.382044
5.874127
4.279862
2.655804
1.085171
-0.333681
-1.546453
-2.571841
-3.471629
-4.318344
-5.174250
-6.079281
-7.057657
-8.119046
-9.252306
-10.438996
-11.656627
-12.855119
-13.965956
-14.935498
-15.717606
-16.262390
-16.537798
-16.533604
-16.249666
-15.702559
-14.926703
-13.965528
-12.864120
-11.650209
-10.333706
-8.941605
-7.524577
-6.131650
-4.817415
-3.656180
-2.716191
-2.034900
-1.618167
-1.438322
-1.437988
-1.542702
-1.667016
-1.730649
-1.679233
-1.477948
-1.108905
-0.593352
0.013905
0.653806
1.261682
1.762120
2.093606
2.222771
2.135870
1.837137
1.352715
0.734159
0.055184
-0.615841
-1.239837
-1.802273
-2.318549
-2.845995
-3.449503
-4.156060
-4.958207
-5.828601
-6.714538
-7.545353
-8.253263
-8.788853
-9.134270
-9.295125
-9.271985
-9.057116
-8.643667
-8.019196
-7.187386
-6.204459
-5.156168
-4.109922
-3.108123
-2.172446
-1.299358
-0.471429
0.332200
1.138103
1.974494
2.869794
3.848011
4.900731
5.983199
7.051797
8.073516
9.015514
9.867192
10.648057
11.372246
12.022430
12.547524
12.869011
12.906768
12.609375
11.970006
11.044012
9.941977
8.778903
7.645542
6.614842
5.727041
4.977485
4.345021
3.813867
3.367544
2.988724
2.662398
2.372461
2.106969
1.858330
1.611553
1.351806
1.073695
0.765754
0.418273
0.048827
-0.320575
-0.689647
-1.054497
-1.397639
-1.710861
-1.992275
-2.235575
-2.440212
-2.617779
-2.789648
-2.974158
-3.162404
-3.325330
-3.450925
-3.543318
-3.602137
-3.638942
-3.675182
-3.702821
-3.685160
-3.587861
-3.392324
-3.102847
-2.738185
-2.314586
-1.856455
-1.397198
-0.950129
-0.513417
-0.097994
0.286160
0.647522
0.996273
1.337149
1.673817
2.002821
2.319579
2.625976
2.920555
3.203047
3.481398
3.749966
3.984445
4.165053
4.276921
4.305301
4.256533
4.165077
4.070884
3.999833
3.951269
3.889963
3.757824
3.492964
3.048906
2.421092
1.640024
0.730260
-0.288403
-1.371148
-2.461392
-3.513108
-4.479946
-5.316525
-6.003949
-6.557507
-7.013054
-7.405139
-7.745597
-8.025749
-8.229069
-8.330476
-8.309251
-8.168878
-7.917420
-7.542633
-7.032076
-6.395572
-5.656276
-4.845720
-4.009679
-3.201090
-2.467258
-1.837405
-1.315619
-0.899003
-0.592075
-0.389253
-0.275034
-0.245848
-0.299124
-0.422428
-0.615534
-0.889797
-1.244484
-1.667052
-2.140224
-2.644590
-3.167899
-3.700390
-4.231318
-4.767275
-5.322414
-5.884074
-6.423242
-6.921008
-7.350114
-7.658992
-7.794353
-7.718012
-7.410834
-6.876795
-6.136455
-5.227137
-4.203623
-3.112462
-1.983251
-0.855056
0.224499
1.223647
2.122018
2.905726
3.586286
4.197743
4.770725
5.321950
5.853880
6.360025
6.836735
7.280453
7.689124
8.082858
8.496379
8.945728
9.427262
9.931949
10.435095
10.895263
11.276620
11.556223
11.718250
11.753712
11.661209
11.453123
11.155105
10.785083
10.347394
9.849136
9.289914
8.644051
7.889462
7.035532
6.102409
5.105334
4.063993
3.002037
1.942266
0.902009
-0.110026
-1.079354
-1.985599
-2.829211
-3.629319
-4.397891
-5.146294
-5.897826
-6.666740
-7.446430
-8.221497
-8.967856
-9.654124
-10.255342
-10.755984
-11.152572
-11.454586
-11.662754
-11.762586
-11.748300
-11.622054
-11.380219
-11.032485
-10.610027
-10.136606
-9.610890
-9.013044
-8.318918
-7.516470
-6.606342
-5.593354
-4.501681
-3.385347
-2.301230
-1.298317
-0.432308
0.257425
0.778264
1.167766
1.471427
1.738390
2.012540
2.326286
2.698321
3.128251
3.606104
4.123751
4.663585
5.202677
5.741035
6.289438
6.836190
7.361647
7.858850
8.319009
8.724844
9.060901
9.319131
9.503159
9.625908
9.702953
9.758445
9.821011
9.899560
9.984769
10.069655
10.140310
10.167361
10.128463
10.014883
9.816390
9.520181
9.113817
8.588750
7.950437
7.213068
6.396624
5.544008
4.707617
3.912303
3.163494
2.469104
1.822627
1.198082
0.579087
-0.027816
-0.598583
-1.100010
-1.507241
-1.810511
-2.012948
-2.144597
-2.257973
-2.392203
-2.567097
-2.804223
-3.121169
-3.523539
-4.018456
-4.611939
-5.296446
-6.055826
-6.869055
-7.710571
-8.553118
-9.359557
-10.090336
-10.737502
-11.323710
-11.867416
-12.381882
-12.882504
-13.361381
-13.782808
-14.113944
-14.339499
-14.457285
-14.470553
-14.382085
-14.206849
-13.980910
-13.736319
-13.486385
-13.241051
-12.999252
-12.734131
-12.418343
-12.042289
-11.598358
-11.080650
-10.497263
-9.862416
-9.184878
-8.460754
-7.670606
-6.796470
-5.829043
-4.746352
-3.518899
-2.141888
-0.633417
0.978141
2.637560
4.265846
5.796238
7.187873
8.419670
9.488204
10.397665
11.156656
11.784028
12.295490
12.697859
13.006239
13.234856
13.376090
13.418814
13.362350
13.193674
12.881771
12.396037
11.713257
10.819742
9.711425
8.391444
6.881725
5.222289
3.443239
1.567142
-0.361857
-2.289235
-4.166974
-5.928755
-7.483130
-8.743392
-9.645986
-10.165328
-10.325382
-10.177889
-9.778624
-9.179855
-8.413063
-7.491515
-6.441958
-5.305908
-4.123315
-2.945021
-1.831971
-0.824608
0.060578
0.810727
1.413813
1.865460
2.177442
2.383713
2.520394
2.605327
2.650871
2.668033
2.653986
2.613541
2.583326
2.609334
2.725877
2.963914
3.348069
3.884080
4.558151
5.336189
6.168363
6.999917
7.768533
8.412014
8.896613
9.215645
9.366634
9.360601
9.231016
9.010337
8.723680
8.399487
8.058107
7.706933
7.352026
6.997553
6.648435
6.313483
5.989120
5.661302
5.324747
4.967449
4.554883
4.060520
3.489070
2.863389
2.214713
1.575366
0.964100
0.387382
-0.157079
-0.683893
-1.204013
-1.718497
-2.240237
-2.784800
-3.344278
-3.908556
-4.490062
-5.105705
-5.766620
-6.489951
-7.291395
-8.163401
-9.062194
-9.911182
-10.631026
-11.168015
-11.489913
-11.592017
-11.519265
-11.342783
-11.118975
-10.889805
-10.684811
-10.504056
-10.321575
-10.100807
-9.801395
-9.392124
-8.860065
-8.207102
-7.451502
-6.617942
-5.711211
-4.723002
-3.662771
-2.552685
-1.410276
-0.260392
0.860185
1.919008
2.893301
3.768973
4.539405
5.199658
5.754004
6.221740
6.618764
6.957118
7.268247
7.589555
7.936140
8.315069
8.740911
9.219859
9.745423
10.308252
10.891360
11.465891
11.994583
12.437100
12.769152
12.987381
13.084928
13.056076
12.922513
12.716400
12.457587
12.168483
11.875717
11.587585
11.290088
10.956595
10.557617
10.074311
9.496074
8.809190
8.007024
7.094173
6.071239
4.945348
3.746141
2.503500
1.233166
-0.048602
-1.327692
-2.603045
-3.877702
-5.153927
-6.436759
-7.730004
-9.037675
-10.362470
-11.691774
-13.009186
-14.313898
-15.593925
-16.801947
-17.882269
-18.794489
-19.509293
-20.010561
-20.299191
-20.388399
-20.300873
-20.057467
-19.668736
-19.148756
-18.515675
-17.772533
-16.917965
-15.968537
-14.942958
-13.846354
-12.684805
-11.470790
-10.220069
-8.953657
-7.687322
-6.426586
-5.174846
-3.926219
-2.664976
-1.391064
-0.119580
1.144513
2.391184
3.582685
4.678173
5.651987
6.480386
7.142715
7.631893
7.953454
8.126075
8.176701
8.135629
8.052213
7.993231
8.009083
8.129061
8.377975
8.757959
9.238755
9.790492
10.397180
11.042173
11.707278
12.374957
13.025733
13.639157
14.184676
14.621163
14.925769
15.102497
15.160213
15.116232
15.004331
14.845192
14.630311
14.342903
13.967512
13.489416
12.902125
12.205632
11.406912
10.525358
9.579264
8.584459
7.576548
6.596065
5.655613
4.758455
3.921017
3.155016
2.466914
1.874694
1.394883
1.025550
0.747375
0.528067
0.335604
0.144969
-0.075554
-0.355920
-0.698766
-1.095063
-1.548668
-2.055754
-2.590018
-3.125919
-3.649686
-4.150241
-4.616982
-5.041421
-5.425257
-5.783289
-6.118978
-6.415438
-6.664504
-6.869186
-7.019524
-7.107332
-7.148073
-7.159674
-7.147700
-7.118265
-7.076653
-7.020693
-6.946243
-6.848081
-6.724433
-6.581513
-6.419624
-6.238821
-6.067179
-5.946314
-5.900684
-5.945840
-6.086395
-6.290452
-6.500966
-6.674252
-6.792760
-6.850642
-6.833776
-6.714167
-6.465361
-6.067606
-5.499897
-4.758881
-3.879794
-2.908972
-1.875246
-0.809156
0.240643
1.219960
2.080401
2.789833
3.338751
3.733777
3.997710
4.166993
4.270562
4.323042
4.339469
4.330895
4.293017
4.224210
4.133132
4.013702
3.845749
3.625491
3.373518
3.118608
2.878034
2.647603
2.415633
2.176955
1.925413
1.661368
1.409987
1.198943
1.035873
0.932436
0.910314
0.974635
1.119041
1.342077
1.637693
1.992771
2.397163
2.847149
3.348318
3.905821
4.502133
5.107057
5.708729
6.305523
6.885930
7.441778
7.968341
8.443383
8.836568
9.129008
9.315315
9.401389
9.390265
9.273920
9.056347
8.762899
8.417653
8.044729
7.682288
7.354779
7.053857
6.766006
6.481605
6.180502
5.837692
5.431303
4.947392
4.386091
3.747146
3.025721
2.232967
1.382183
0.463248
-0.528326
-1.561088
-2.592480
-3.590776
-4.526531
-5.381005
-6.155075
-6.850848
-7.464845
-7.988370
-8.399990
-8.684143
-8.847126
-8.891761
-8.807436
-8.594381
-8.264562
-7.829977
-7.314353
-6.752258
-6.170696
-5.588750
-5.019189
-4.466513
-3.931438
-3.401909
-2.852866
-2.272350
-1.662920
-1.023559
-0.365134
0.278865
0.886106
1.459376
1.996626
2.478675
2.882332
3.188540
3.388142
3.481123
3.471856
3.376752
3.219097
3.006000
2.734545
2.410510
2.032865
1.585164
1.062547
0.480089
-0.144452
-0.791434
-1.436450
-2.060302
-2.656050
-3.236372
-3.830796
-4.457961
-5.120782
-5.833995
-6.614184
-7.451222
-8.327218
-9.234807
-10.156771
-11.065029
-11.942216
-12.779683
-13.567948
-14.298972
-14.966491
-15.567563
-16.095919
-16.521910
-16.806351
-16.938322
-16.926050
-16.771605
-16.484495
-16.086349
-15.588571
-14.990780
-14.296354
-13.520473
-12.692542
-11.843609
-10.989466
-10.138075
-9.294424
-8.446870
-7.579998
-6.695289
-5.788587
-4.836943
-3.827852
-2.765666
-1.654426
-0.503011
0.670238
1.845667
3.006883
4.150350
5.281887
6.389965
7.447078
8.433458
9.323686
10.072948
10.647608
11.040850
11.255063
11.300475
11.201127
10.987030
10.688819
10.330123
9.922869
9.485027
9.043567
8.610847
8.189267
7.786873
7.396556
6.987191
6.533307
6.028381
5.477100
4.897498
4.318659
3.770987
3.280178
2.856029
2.496533
2.212790
2.023224
1.927610
1.918894
1.999745
2.162211
2.381021
2.637467
2.926336
3.247532
3.600431
3.973592
4.345726
4.695371
4.995015
5.216241
5.353315
5.414277
5.394668
5.291179
5.121501
4.908406
4.668508
4.418209
4.167598
3.914987
3.649780
3.355951
3.027789
2.673831
2.296321
1.897520
1.500461
1.127469
0.780031
0.461509
0.184032
-0.054220
-0.265928
-0.453104
-0.602213
-0.690541
-0.699540
-0.621356
-0.445400
-0.161161
0.220653
0.680045
1.207532
1.785970
2.383091
2.975939
3.557942
4.130254
4.698282
5.261982
5.811788
6.337069
6.823467
7.252638
7.619540
7.926485
8.159770
8.304099
8.362375
8.337682
8.228035
8.045002
7.808188
7.529259
7.210627
6.848044
6.439694
5.989749
5.493238
4.939527
4.335206
3.694239
3.019233
2.322835
1.638476
0.989019
0.376465
-0.201568
-0.752892
-1.290778
-1.824194
-2.357345
-2.883389
-3.384862
-3.859554
-4.320218
-4.762037
-5.166161
-5.520876
-5.808934
-6.007019
-6.112423
-6.141458
-6.111156
-6.035247
-5.922321
-5.784889
-5.650198
-5.543527
-5.476902
-5.457362
-5.471293
-5.471129
-5.408766
-5.261341
-5.017057
-4.671751
-4.239841
-3.746493
-3.218714
-2.684890
-2.169486
-1.695280
-1.282548
-0.932489
-0.636027
-0.402096
-0.245973
-0.167829
-0.171908
-0.274881
-0.480586
-0.774370
-1.136209
-1.544270
-1.976022
-2.404526
-2.798483
-3.143457
-3.445429
-3.704541
-3.916061
-4.085632
-4.210192
-4.269240
-4.252046
-4.161831
-3.995379
-3.745750
-3.417144
-3.029759
-2.614733
-2.195973
-1.784952
-1.401275
-1.070132
-0.797619
-0.580786
-0.425323
-0.325952
-0.257829
-0.199333
-0.138222
-0.063690
0.032168
0.155579
0.309722
0.490889
0.701823
0.955178
1.252026
1.584506
1.955856
2.364412
2.786951
3.199411
3.584825
3.920183
4.184997
4.374131
4.492923
4.549439
4.542255
4.459233
4.300668
4.080186
3.801343
3.467251
3.099175
2.718077
2.334401
1.964671
1.626482
1.323255
1.048759
0.792113
0.544833
0.310382
0.093418
-0.105912
-0.278205
-0.417045
-0.540422
-0.666663
-0.791232
-0.907351
-1.014277
-1.101174
-1.151330
-1.155654
-1.118357
-1.060056
-1.003124
-0.958047
-0.936961
-0.951294
-0.989449
-1.033587
