EVENT_NAME: L_AQUILA
EVENT_ID: IT-2009-0009
EVENT_DATE_YYYYMMDD: 20090406
EVENT_TIME_HHMMSS: 013240
EVENT_LATITUDE_DEGREE: 42.3420
EVENT_LONGITUDE_DEGREE: 13.3800
EVENT_DEPTH_KM: 8.3
HYPOCENTER_REFERENCE: INGV-CNT_Seismic_Bulletin
MAGNITUDE_W: 6.1
MAGNITUDE_W_REFERENCE: INGV-CNT_Seismic_Bulletin
MAGNITUDE_L: 
MAGNITUDE_L_REFERENCE: 
FOCAL_MECHANISM: Normal faulting
NETWORK: IV
STATION_CODE: GUMA
STATION_NAME: 
STATION_LATITUDE_DEGREE: 43.062700
STATION_LONGITUDE_DEGREE: 13.335200
STATION_ELEVATION_M: 574
LOCATION: 
SENSOR_DEPTH_M: 0.0
VS30_M/S: 488
SITE_CLASSIFICATION_EC8: B
MORPHOLOGIC_CLASSIFICATION: 
EPICENTRAL_DISTANCE_KM: 80.1
EARTHQUAKE_BACKAZIMUTH_DEGREE: 357.4
DATE_TIME_FIRST_SAMPLE_YYYYMMDD_HHMMSS: 20090406_013151.910
DATE_TIME_FIRST_SAMPLE_PRECISION: milliseconds
SAMPLING_INTERVAL_S: 0.005000
NDATA: 62496
DURATION_S: 312.480
STREAM: HNE
UNITS: cm/s^2
INSTRUMENT: sensor = EPISENSOR-FBA-ES-T-CL-2G-FS-40-VPP [Unknown] | digitizer = Unknown [Unknown]
INSTRUMENT_ANALOG/DIGITAL: D
INSTRUMENTAL_FREQUENCY_HZ: 
INSTRUMENTAL_DAMPING: 
FULL_SCALE_G: 
N_BIT_DIGITAL_CONVERTER: 
PGA_CM/S^2: -20.396120
TIME_PGA_S: 85.105000
BASELINE_CORRECTION: BASELINE NOT REMOVED
FILTER_TYPE: 
FILTER_ORDER: 
LOW_CUT_FREQUENCY_HZ: 
HIGH_CUT_FREQUENCY_HZ: 
LATE/NORMAL_TRIGGERED: NT
DATABASE_VERSION: 0.5
HEADER_FORMAT: DYNA 1.2
DATA_TYPE: ACCELERATION
PROCESSING: converted to cm/s^2
DATA_TIMESTAMP_YYYYMMDD_HHMMSS: 20211011_160606.750
DATA_LICENSE: CC-BY4_0 (http://creativecommons.org/licenses/by/4.0/)
DATA_CITATION: Luzi L, Pacor F, Puglia R (2019). Italian Accelerometric Archive v 3.0 - Istituto Nazionale di Geofisica e Vulcanologia, Dipartimento della Protezione Civile Nazionale. doi: 10.13127/itaca.3.1
DATA_CREATOR: ITACA working group
ORIGINAL_DATA_MEDIATOR_CITATION: Orfeus - European Integrated Data Archive (EIDA) http://www.orfeus-eu.org/eida/
ORIGINAL_DATA_MEDIATOR: Orfeus - European Integrated Data Archive (EIDA)
ORIGINAL_DATA_CREATOR_CITATION: INGV Seismological Data Centre. (1997). Rete Sismica Nazionale (RSN). Istituto Nazionale di Geofisica e Vulcanologia (INGV), Italy. https://doi.org/10.13127/SD/X0FXnH7QfY http://www.fdsn.org/networks/detail/IV/
ORIGINAL_DATA_CREATOR: network: IV (Italian National Seismic Network (INSN)); owner: Istituto Nazionale di Geofisica e Vulcanologia (INGV)
USER1: 
USER2: 
USER3: 
USER4: 
USER5: 
[...]
-3.412301
-2.541584
-1.459188
-0.123340
1.391141
3.044039
4.768327
6.413431
7.968127
9.454239
10.722749
11.699150
12.383752
12.610706
12.245335
11.394882
10.201815
8.770883
7.310647
5.947365
4.699742
3.718042
3.009746
2.425527
2.023370
1.772723
1.460973
1.080638
0.701238
0.228314
-0.387080
-1.070436
-1.875998
-2.813741
-3.761772
-4.757501
-5.783782
-6.719655
-7.602219
-8.431473
-9.029721
-9.365476
-9.569360
-9.536003
-9.242958
-8.867612
-8.382217
-7.763082
-7.072244
-6.304716
-5.505701
-4.824839
-4.295800
-3.877432
-3.669494
-3.594675
-3.463428
-3.308800
-3.137026
-2.835564
-2.389450
-1.904055
-1.405255
-0.945113
-0.599070
-0.296985
-0.050390
0.096444
0.239849
0.440616
0.590879
0.691262
0.836850
0.941598
1.002701
1.083756
1.091238
0.949391
0.673493
0.212726
-0.443195
-1.198565
-2.106069
-3.139520
-4.107191
-4.968868
-5.728291
-6.247978
-6.397617
-6.234572
-5.781288
-5.021242
-4.098462
-3.076235
-1.991033
-1.007462
-0.152021
0.623924
1.216249
1.606248
1.956967
2.279628
2.521858
2.773440
3.024710
3.208643
3.378546
3.578690
3.780080
4.023245
4.285738
4.388304
4.343412
4.238041
3.974612
3.576819
3.204278
2.794015
2.292721
1.872794
1.562292
1.343443
1.335961
1.497448
1.724090
2.036151
2.309556
2.404951
2.425527
2.415551
2.297709
2.135288
2.016823
1.841619
1.581620
1.369942
1.164187
0.930375
0.768576
0.599920
0.412558
0.332127
0.281311
0.251695
0.386059
0.633589
0.883612
1.172916
1.515841
1.820732
2.099125
2.390299
2.603224
2.733847
2.792145
2.685214
2.511882
2.410251
2.269028
2.066703
1.879341
1.607184
1.210638
0.804428
0.412558
-0.044467
-0.571013
-1.204800
-2.018156
-2.898849
-3.803547
-4.788053
-5.726108
-6.552869
-7.353754
-8.078884
-8.599195
-8.942431
-9.147251
-9.133534
-8.966748
-8.750394
-8.443008
-8.102889
-7.758717
-7.323514
-6.871477
-6.491766
-6.096467
-5.691816
-5.346085
-4.919611
-4.301723
-3.544171
-2.659737
-1.651538
-0.626192
0.312798
1.158575
1.814497
2.247206
2.585455
2.775622
2.821137
2.911545
3.078331
3.263510
3.525069
3.861447
4.122070
4.281685
4.379263
4.376457
4.343100
4.343100
4.306625
4.271709
4.328136
4.372093
4.349335
4.358688
4.297585
4.041950
3.691231
3.246052
2.666510
2.076367
1.493083
0.888912
0.368290
-0.043844
-0.409838
-0.704442
-0.910197
-1.206359
-1.629092
-2.045590
-2.557795
-3.198440
-3.871508
-4.593833
-5.379442
-6.156947
-6.862436
-7.466296
-7.867206
-8.092290
-8.240059
-8.221354
-8.030875
-7.773058
-7.389917
-6.782629
-6.036923
-5.208604
-4.235632
-3.188776
-2.081129
-0.874345
0.323086
1.466273
2.598236
3.642910
4.523915
5.408349
6.319594
7.114245
7.879591
8.627167
9.218244
9.658747
9.986396
10.129801
10.111096
9.983590
9.686181
9.284959
8.867838
8.350021
7.722157
7.128897
6.542495
5.858204
5.160508
4.426961
3.533174
2.504088
1.321309
-0.052573
-1.523097
-3.028849
-4.561411
-5.973949
-7.113083
-8.034616
-8.733871
-9.107347
-9.307179
-9.448713
-9.459624
-9.417850
-9.385428
-9.325884
-9.292527
-9.303750
-9.247946
-9.104853
-8.897539
-8.486341
-7.856607
-7.132412
-6.268865
-5.244143
-4.225344
-3.327817
-2.546260
-1.940842
-1.505951
-1.114081
-0.724705
-0.275162
0.363302
1.142053
1.939509
2.832984
3.781639
4.591253
5.304537
5.958276
6.452088
6.807171
7.110815
7.372062
7.634867
7.963763
8.296712
8.636519
9.034000
9.366637
9.579562
9.778147
9.894118
9.782200
9.501002
9.059252
8.367479
7.533236
6.649114
5.672713
4.683843
3.713677
2.686461
1.700397
0.859919
0.079609
-0.635233
-1.132162
-1.462617
-1.718252
-1.807101
-1.755974
-1.684895
-1.569236
-1.408685
-1.239716
-0.969741
-0.630869
-0.318495
0.057475
0.480520
0.805363
1.045099
1.284211
1.440709
1.488095
1.564162
1.639294
1.711620
1.942938
2.316414
2.834854
3.596771
4.493987
5.394944
6.305254
7.144173
7.726521
8.060717
8.226256
8.134914
7.836257
7.436594
6.908178
6.283120
5.613169
4.906744
4.183796
3.503870
2.789962
1.937327
1.040111
0.053111
-1.139021
-2.396620
-3.622420
-4.883760
-6.118913
-7.242148
-8.312385
-9.263846
-10.011422
-10.618710
-11.028350
-11.154920
-11.092258
-10.871851
-10.373675
-9.652286
-8.829578
-7.847254
-6.739919
-5.602344
-4.404289
-3.202181
-2.089858
-1.048925
-0.118040
0.626730
1.303851
1.990324
2.588884
3.136628
3.709313
4.210607
4.558831
4.848758
5.086000
5.211635
5.296431
5.300484
5.157079
4.913291
4.541997
3.989576
3.360153
2.712337
1.953226
1.161381
0.462438
-0.186625
-0.783314
-1.211347
-1.465423
-1.603528
-1.572041
-1.427701
-1.249380
-0.963506
-0.644274
-0.373052
-0.028256
0.370784
0.704356
1.041358
1.466896
1.913010
2.370035
2.929938
3.553126
4.213724
4.966288
5.696718
6.351081
6.973334
7.459663
7.778584
8.049806
8.259302
8.295465
8.221892
8.085969
7.803212
7.440647
7.068106
6.625109
6.169331
5.755639
5.306096
4.894897
4.614634
4.356505
4.083724
3.863317
3.607994
3.190249
2.649987
1.987207
1.140806
0.173134
-0.830700
-1.850434
-2.785372
-3.549783
-4.210692
-4.704192
-4.979779
-5.193016
-5.360426
-5.381001
-5.335174
-5.284047
-5.117261
-4.874408
-4.645895
-4.389637
-4.129326
-3.913906
-3.667624
-3.386114
-3.163213
-2.907890
-2.605804
-2.405037
-2.273479
-2.156572
-2.151273
-2.292495
-2.472999
-2.696523
-2.969616
-3.195946
-3.413548
-3.634578
-3.779854
-3.917336
-4.121532
-4.279277
-4.375920
-4.528677
-4.674576
-4.741290
-4.787429
-4.773089
-4.568581
-4.160189
-3.544171
-2.681871
-1.692689
-0.687607
0.322462
1.208144
1.871236
2.440803
2.913415
3.176532
3.357347
3.506364
3.545956
3.530992
3.516340
3.423126
3.227971
2.967660
2.586078
2.172386
1.850972
1.575385
1.339702
1.200350
1.080326
0.850567
0.628601
0.526035
0.523541
0.714644
1.119295
1.621212
2.182050
2.754423
3.213630
3.572455
3.860511
3.945931
3.844924
3.708689
3.491400
3.137252
2.760346
2.328573
1.763994
1.196297
0.679416
0.237043
0.001672
-0.022333
0.095197
0.385124
0.830303
1.229031
1.508982
1.734689
1.799845
1.681380
1.513347
1.293251
0.954379
0.529153
-0.022645
-0.763051
-1.625351
-2.625756
-3.792324
-4.970738
-6.056251
-7.131788
-8.096654
-8.793415
-9.327131
-9.680343
-9.767010
-9.612694
-9.208666
-8.543080
-7.651475
-6.581238
-5.317404
-3.983427
-2.703693
-1.376263
-0.034491
1.191309
2.346966
3.430297
4.296338
4.955689
5.471011
5.820795
6.090458
6.365733
6.651920
7.039736
7.627385
8.347527
9.158700
10.122942
11.144858
12.053298
12.859483
13.534733
13.956530
14.136098
14.073125
13.687802
13.041233
12.206678
11.160758
9.996372
8.776495
7.397625
5.853840
4.278568
2.679915
1.053828
-0.375234
-1.546166
-2.584293
-3.480574
-4.307023
-5.182105
-6.091479
-7.046992
-8.122218
-9.278498
-10.425737
-11.641873
-12.891679
-13.972827
-14.917117
-15.746684
-16.278841
-16.527306
-16.555676
-16.263565
-15.698051
-14.946110
-13.968774
-12.844916
-11.673048
-10.362764
-8.925597
-7.530205
-6.164117
-4.813928
-3.646425
-2.727075
-2.030314
-1.610698
-1.452018
-1.438613
-1.539619
-1.695494
-1.742257
-1.669619
-1.507509
-1.134656
-0.580677
0.005101
0.628601
1.267064
1.770852
2.079485
2.223825
2.137782
1.826344
1.364019
0.728049
0.025677
-0.620269
-1.241275
-1.837029
-2.333958
-2.819664
-3.453452
-4.171100
-4.946734
-5.829609
-6.729631
-7.549533
-8.266558
-8.816485
-9.125740
-9.290033
-9.300944
-9.047803
-8.638475
-8.063920
-7.204738
-6.185004
-5.162776
-4.122155
-3.093693
-2.179954
-1.314848
-0.465018
0.322774
1.123348
1.982530
2.855742
3.806890
4.914226
5.991945
7.016355
8.085034
9.030259
9.847667
10.630783
11.364330
12.003729
12.532457
12.885981
12.898763
12.612577
12.002482
11.023276
9.915005
8.787406
7.632685
6.578347
5.725711
4.984370
4.326266
3.809696
3.368570
2.974830
2.655287
2.379700
2.089149
1.842866
1.630253
1.332532
1.050087
0.792269
0.415987
0.008219
-0.313196
-0.672955
-1.089453
-1.399332
-1.702976
-2.014103
-2.238563
-2.448370
-2.631991
-2.785995
-2.958081
-3.186906
-3.352757
-3.424147
-3.562253
-3.636761
-3.609639
-3.671677
-3.729662
-3.678535
-3.604651
-3.416354
-3.086211
-2.750144
-2.342999
-1.841705
-1.386239
-0.984393
-0.518327
-0.077513
0.262918
0.637641
1.004259
1.317568
1.663610
2.014017
2.303009
2.609459
2.940226
3.183703
3.453990
3.765739
3.977418
4.144516
4.283556
4.314731
4.243964
4.154180
4.066266
3.975859
3.938137
3.893869
3.741111
3.499817
3.073967
2.391858
1.620277
0.754859
-0.294179
-1.397150
-2.457723
-3.508632
-4.504984
-5.330186
-6.009801
-6.572821
-7.004594
-7.399581
-7.764641
-8.022769
-8.224160
-8.361018
-8.318932
-8.149963
-7.927374
-7.566991
-7.032964
-6.397617
-5.675917
-4.850091
-4.010237
-3.212469
-2.456788
-1.836094
-1.344464
-0.894297
-0.577559
-0.422308
-0.281085
-0.225594
-0.325977
-0.439766
-0.599694
-0.899285
-1.257486
-1.657149
-2.157819
-2.659113
-3.150743
-3.724051
-4.253714
-4.745343
-5.318651
-5.914093
-6.425051
-6.899223
-7.371524
-7.669869
-7.790828
-7.745312
-7.413298
-6.875842
-6.165676
-5.225750
-4.185440
-3.136402
-2.001321
-0.837559
0.218650
1.203467
2.134353
2.913727
3.565284
4.193149
4.766768
5.300484
5.861322
6.357316
6.813094
7.293501
7.697840
8.057288
8.481579
8.955128
9.413712
9.907835
10.446227
10.892029
11.264259
11.561668
11.708190
11.748406
11.670469
11.442268
11.132388
10.792581
10.350520
9.815245
9.284647
8.669565
7.876161
7.015420
6.116333
5.092547
4.054108
3.010370
1.916439
0.902629
-0.096841
-1.104417
-2.003815
-2.817794
-3.629279
-4.426423
-5.141577
-5.884165
-6.687545
-7.445097
-8.214184
-8.988259
-9.657897
-10.253963
-10.780197
-11.153050
-11.436742
-11.685207
-11.779667
-11.727916
-11.637821
-11.407749
-11.019932
-10.609670
-10.141110
-9.608017
-9.025357
-8.333584
-7.513682
-6.607425
-5.628219
-4.500308
-3.366474
-2.334582
-1.301443
-0.402980
0.248889
0.766706
1.176033
1.458479
1.727207
2.014641
2.308621
2.687085
3.136317
3.598642
4.097753
4.680414
5.216935
5.699836
6.289043
6.853310
7.340575
7.851845
8.321652
8.715704
9.059875
9.323616
9.489779
9.621960
9.714862
9.738243
9.800281
9.914382
9.978914
10.041576
10.150065
10.175316
10.106731
10.016948
9.816181
9.502872
9.123472
8.591004
7.927600
7.225539
6.410937
5.509356
4.694442
3.932214
3.146293
2.444232
1.836631
1.199726
0.569057
-0.017033
-0.609670
-1.118757
-1.497845
-1.824559
-2.041225
-2.130697
-2.246356
-2.415948
-2.569641
-2.788801
-3.140767
-3.531701
-4.004002
-4.625008
-5.300881
-6.049081
-6.884259
-7.712578
-8.539027
-9.381999
-10.119911
-10.718470
-11.322330
-11.896885
-12.366068
-12.867362
-13.382685
-13.787959
-14.117167
-14.352850
-14.453234
-14.471315
-14.408030
-14.208198
-13.960045
-13.756473
-13.496473
-13.214340
-13.010767
-12.759185
-12.407531
-12.042472
-11.620051
-11.078853
-10.496193
-9.873940
-9.172503
-8.462960
-7.696056
-6.785123
-5.816204
-4.775271
-3.531389
-2.127580
-0.652379
0.952821
2.653416
4.271398
5.782761
7.201846
8.415177
9.471385
10.414117
11.149223
11.761811
12.307374
12.704231
12.975454
13.231712
13.398186
13.394445
13.349242
13.203655
12.871953
12.394040
11.719725
10.808792
9.708003
8.412059
6.864221
5.198542
3.469577
1.568527
-0.392380
-2.275661
-4.148031
-5.952439
-7.486560
-8.742912
-9.681590
-10.170102
-10.313819
-10.198160
-9.772310
-9.159098
-8.437397
-7.506512
-6.422557
-5.319275
-4.146160
-2.925971
-1.825182
-0.840365
0.062151
0.811910
1.404858
1.877159
2.182362
2.355071
2.523105
2.617877
2.623800
2.664016
2.680227
2.606654
2.562385
2.619435
2.723871
2.944590
3.350800
3.875475
4.541997
5.344441
6.163408
6.980816
7.784507
8.427335
8.874696
9.214815
9.390019
9.343880
9.215127
9.030259
8.709780
8.382131
8.073187
7.695658
7.341510
7.014173
6.634773
6.293096
6.009715
5.659308
5.293626
4.975329
4.573795
4.049744
3.487347
2.873511
2.196391
1.567903
0.975578
0.365172
-0.160126
-0.660797
-1.227246
-1.733840
-2.211129
-2.788801
-3.373644
-3.899878
-4.482226
-5.123184
-5.767883
-6.481478
-7.290469
-8.151834
-9.055908
-9.938161
-10.634610
-11.155232
-11.528085
-11.605710
-11.493481
-11.350699
-11.129980
-10.870916
-10.679813
-10.515833
-10.311637
-10.106194
-9.818137
-9.386987
-8.866676
-8.224160
-7.437927
-6.603372
-5.736396
-4.731626
-3.644554
-2.564965
-1.425831
-0.247105
0.855866
1.913634
2.904375
3.758257
4.534515
5.216623
5.746598
6.200506
6.640073
6.965852
7.236139
7.592469
7.950981
8.300141
8.730668
9.230091
9.737620
10.296275
10.900447
11.451932
11.993130
12.462313
12.751929
12.970154
13.115118
13.056509
12.894710
12.730106
12.465119
12.148693
11.871236
11.588479
11.279223
10.961238
10.568745
10.056228
9.496637
8.827934
7.988079
7.086499
6.098564
4.935737
3.724900
2.519675
1.231213
-0.065666
-1.322642
-2.599569
-3.889590
-5.150618
-6.430663
-7.748741
-9.024422
-10.349047
-11.723864
-13.004532
-14.285200
-15.603279
-16.817232
-17.874376
-18.799337
-19.524157
-20.002380
-20.308519
-20.396120
-20.282021
-20.067225
-19.682215
-19.133533
-18.507229
-17.796751
-16.920422
-15.944021
-14.962633
-13.849062
-12.672207
-11.490987
-10.213436
-8.943055
-7.700108
-6.426298
-5.158412
-3.937288
-2.689353
-1.366287
-0.115546
1.108384
2.402146
3.598330
4.662020
5.651826
6.492927
7.134820
7.634867
7.965322
8.108415
8.183858
8.157360
8.033595
7.974362
8.030166
8.123067
8.342851
8.777430
9.248172
9.773783
10.404141
11.044163
11.698214
12.379076
13.030010
13.616100
14.195019
14.645809
14.905185
15.101276
15.183266
15.105952
14.979070
14.857799
14.633028
14.326577
13.984588
13.486412
12.891905
12.223825
11.403611
10.506395
9.597332
8.601603
7.540095
6.594558
5.685183
4.736840
3.912885
3.176844
2.460131
1.860636
1.402052
1.015171
0.741454
0.547546
0.322774
0.132295
-0.051014
-0.347488
-0.725952
-1.088517
-1.524344
-2.072088
-2.596140
-3.116762
-3.657024
-4.150213
-4.610356
-5.060211
-5.423711
-5.754789
-6.137306
-6.431598
-6.640782
-6.866177
-7.047616
-7.101237
-7.127736
-7.180110
-7.143011
-7.107160
-7.088143
-7.016129
-6.940686
-6.861813
-6.724643
-6.556298
-6.450927
-6.251719
-6.031623
-5.962726
-5.907235
-5.922511
-6.075268
-6.305028
-6.508912
-6.672893
-6.798216
-6.832820
-6.839679
-6.726202
-6.451550
-6.066539
-5.525341
-4.766542
-3.849686
-2.919424
-1.892520
-0.794537
0.233302
1.221237
2.097878
2.783416
3.340513
3.749217
3.989264
4.154803
4.278568
4.330942
4.319095
4.331877
4.317848
4.203748
4.121134
4.032909
3.848977
3.626387
3.375117
3.106389
2.871953
2.664016
2.410251
2.163345
1.952291
1.667351
1.377424
1.212508
1.058816
0.903252
0.909487
0.994283
1.104331
1.339702
1.647711
1.987207
2.400587
2.858547
3.334278
3.890439
4.523915
5.117799
5.682689
6.316165
6.905060
7.412589
7.971868
8.459757
8.823569
9.143736
9.318316
9.381601
9.399683
9.293064
9.047405
8.747814
8.446664
8.042324
7.644843
7.376738
7.061871
6.744509
6.491680
6.185542
5.825471
5.449812
4.951948
4.358064
3.775404
3.034374
2.200755
1.388959
0.489560
-0.526432
-1.584511
-2.574006
-3.587816
-4.555488
-5.361049
-6.150712
-6.868048
-7.441356
-7.985983
-8.428044
-8.671521
-8.828019
-8.908451
-8.816173
-8.573943
-8.274975
-7.846007
-7.289846
-6.759247
-6.175963
-5.567739
-5.034335
-4.463210
-3.907983
-3.418848
-2.865492
-2.252280
-1.662761
-1.051419
-0.352164
0.304693
0.868648
1.452556
2.006847
2.472913
2.885981
3.200537
3.377611
3.486100
3.490153
3.358282
3.210201
3.028139
2.731353
2.388429
2.048933
1.601260
1.047593
0.485508
-0.134251
-0.800772
-1.435807
-2.057124
-2.674389
-3.230551
-3.802923
-4.480356
-5.132537
-5.798434
-6.617089
-7.473778
-8.308332
-9.222695
-10.175402
-11.062019
-11.932736
-12.788489
-13.563500
-14.293306
-14.979467
-15.553399
-16.072462
-16.552557
-16.815363
-16.908888
-16.939751
-16.784811
-16.465267
-16.082750
-15.595797
-14.985702
-14.301411
-13.528895
-12.674077
-11.839523
-11.005280
-10.119287
-9.281615
-8.474495
-7.574473
-6.664475
-5.808722
-4.849468
-3.804170
-2.776643
-1.661514
-0.488711
0.661334
1.849413
3.025957
4.137969
5.263386
6.414678
7.450934
8.402395
9.342009
10.093326
10.633277
11.046034
11.269247
11.293563
11.203156
10.996777
10.670999
10.334932
9.946492
9.464527
9.034935
8.637143
8.179494
7.764867
7.413525
6.998897
6.523479
6.039955
5.486287
4.887104
4.329071
3.769480
3.261328
2.874758
2.510946
2.190156
2.021187
1.951979
1.909269
1.981907
2.181738
2.385623
2.630035
2.939914
3.241376
3.589913
3.989888
4.342165
4.681972
5.015545
5.230652
5.332282
5.413649
5.421131
5.283961
5.111875
4.924825
4.662956
4.409503
4.180055
3.904156
3.650080
3.382287
3.011617
2.664327
2.326079
1.897111
1.475937
1.139870
0.798816
0.441863
0.181240
-0.037920
-0.268615
-0.446001
-0.595953
-0.705377
-0.692595
-0.604370
-0.465330
-0.169479
0.249513
0.670999
1.188503
1.808262
2.387182
2.970154
3.570584
4.128616
4.688519
5.271803
5.816118
6.323024
6.835852
7.270743
7.597145
7.922924
8.190405
8.292971
8.349398
8.362179
8.227815
8.035154
7.817552
7.523884
7.207770
6.865780
6.432448
5.976358
5.514968
4.949454
4.313484
3.700272
3.049027
2.306750
1.623083
1.011118
0.367666
-0.209071
-0.734681
-1.297390
-1.825182
-2.334582
-2.893237
-3.405754
-3.834098
-4.306088
-4.786806
-5.154359
-5.498843
-5.834285
-6.009177
-6.096155
-6.152894
-6.102079
-6.024765
-5.941839
-5.780041
-5.628219
-5.558075
-5.475461
-5.423711
-5.477020
-5.491672
-5.397836
-5.253807
-5.034335
-4.667718
-4.229397
-3.758967
-3.206858
-2.678753
-2.182759
-1.679595
-1.265280
-0.952595
-0.644274
-0.370558
-0.254898
-0.186625
-0.148592
-0.268927
-0.487152
-0.764921
-1.135280
-1.550219
-1.958300
-2.408155
-2.822158
-3.122373
-3.433812
-3.727480
-3.906424
-4.060741
-4.225344
-4.279901
-4.231579
-4.162683
-4.002132
-3.739638
-3.426330
-3.027602
-2.593957
-2.204582
-1.799619
-1.375639
-1.061707
-0.820101
-0.567895
-0.403603
-0.340318
-0.260198
-0.185378
-0.147656
-0.060366
0.042511
0.143206
0.313733
0.511071
0.690951
0.941286
1.278287
1.585985
1.930780
2.379076
2.800874
3.183079
3.589601
3.937514
4.177561
4.382069
4.498975
4.529527
4.556961
4.479023
4.281374
4.077489
3.827778
3.463654
3.080825
2.739771
2.339172
1.946056
1.639917
1.321932
1.041046
0.811598
0.545987
0.296275
0.109225
-0.092477
-0.305714
-0.414826
-0.508974
-0.677943
-0.801708
-0.885568
-1.014321
-1.109716
-1.139644
-1.167078
-1.123122
-1.036455
-1.008398
-0.972858
-0.909573
-0.940125
-1.019309
-1.021491
