EVENT_NAME: L_AQUILA
EVENT_ID: IT-2009-0009
EVENT_DATE_YYYYMMDD: 20090406
EVENT_TIME_HHMMSS: 013240
EVENT_LATITUDE_DEGREE: 42.3420
EVENT_LONGITUDE_DEGREE: 13.3800
EVENT_DEPTH_KM: 8.3
HYPOCENTER_REFERENCE: INGV-CNT_Seismic_Bulletin
MAGNITUDE_W: 6.1
MAGNITUDE_W_REFERENCE: INGV-CNT_Seismic_Bulletin
MAGNITUDE_L: 
MAGNITUDE_L_REFERENCE: 
FOCAL_MECHANISM: Normal faulting
NETWORK: IV
STATION_CODE: GUMA
STATION_NAME: 
STATION_LATITUDE_DEGREE: 43.062700
STATION_LONGITUDE_DEGREE: 13.335200
STATION_ELEVATION_M: 574
LOCATION: 
SENSOR_DEPTH_M: 0.0
VS30_M/S: 488
SITE_CLASSIFICATION_EC8: B
MORPHOLOGIC_CLASSIFICATION: 
EPICENTRAL_DISTANCE_KM: 80.1
EARTHQUAKE_BACKAZIMUTH_DEGREE: 357.4
DATE_TIME_FIRST_SAMPLE_YYYYMMDD_HHMMSS: 20090406_013150.710
DATE_TIME_FIRST_SAMPLE_PRECISION: milliseconds
SAMPLING_INTERVAL_S: 0.005000
NDATA: 62764
DURATION_S: 313.820
STREAM: HNN
UNITS: cm/s^2
INSTRUMENT: sensor = EPISENSOR-FBA-ES-T-CL-2G-FS-40-VPP [Unknown] | digitizer = Unknown [Unknown]
INSTRUMENT_ANALOG/DIGITAL: D
INSTRUMENTAL_FREQUENCY_HZ: 
INSTRUMENTAL_DAMPING: 
FULL_SCALE_G: 
N_BIT_DIGITAL_CONVERTER: 
PGA_CM/S^2: 17.528543
TIME_PGA_S: 83.800000
BASELINE_CORRECTION: BASELINE NOT REMOVED
FILTER_TYPE: 
FILTER_ORDER: 
LOW_CUT_FREQUENCY_HZ: 
HIGH_CUT_FREQUENCY_HZ: 
LATE/NORMAL_TRIGGERED: NT
DATABASE_VERSION: 0.5
HEADER_FORMAT: DYNA 1.2
DATA_TYPE: ACCELERATION
PROCESSING: converted to cm/s^2
DATA_TIMESTAMP_YYYYMMDD_HHMMSS: 20211011_160607.679
DATA_LICENSE: CC-BY4_0 (http://creativecommons.org/licenses/by/4.0/)
DATA_CITATION: Luzi L, Pacor F, Puglia R (2019). Italian Accelerometric Archive v 3.0 - Istituto Nazionale di Geofisica e Vulcanologia, Dipartimento della Protezione Civile Nazionale. doi: 10.13127/itaca.3.1
DATA_CREATOR: ITACA working group
ORIGINAL_DATA_MEDIATOR_CITATION: Orfeus - European Integrated Data Archive (EIDA) http://www.orfeus-eu.org/eida/
ORIGINAL_DATA_MEDIATOR: Orfeus - European Integrated Data Archive (EIDA)
ORIGINAL_DATA_CREATOR_CITATION: INGV Seismological Data Centre. (1997). Rete Sismica Nazionale (RSN). Istituto Nazionale di Geofisica e Vulcanologia (INGV), Italy. https://doi.org/10.13127/SD/X0FXnH7QfY http://www.fdsn.org/networks/detail/IV/
ORIGINAL_DATA_CREATOR: network: IV (Italian National Seismic Network (INSN)); owner: Istituto Nazionale di Geofisica e Vulcanologia (INGV)
USER1: 
USER2: 
USER3: 
USER4: 
USER5: 
[...]
-5.282817
-5.145336
-4.962650
-4.825169
-4.734138
-4.685816
-4.680829
-4.663994
-4.538671
-4.291453
-3.926706
-3.516755
-3.187547
-2.966516
-2.863015
-2.960593
-3.250520
-3.557282
-3.822581
-4.073228
-4.276177
-4.421141
-4.557687
-4.680829
-4.735696
-4.754713
-4.731332
-4.625961
-4.398383
-3.940734
-3.270160
-2.582128
-1.970787
-1.418678
-0.984722
-0.735946
-0.648344
-0.663308
-0.720047
-0.706641
-0.594411
-0.393956
-0.024533
0.490166
1.100261
1.895223
2.827667
3.724571
4.591547
5.468188
6.279049
6.949311
7.500485
7.881444
8.021731
8.003961
7.773266
7.355522
6.910031
6.407178
5.861304
5.355958
4.884592
4.385481
3.885746
3.398481
2.837643
2.196373
1.468437
0.640118
-0.230288
-1.100070
-1.962682
-2.746421
-3.410136
-4.035506
-4.636248
-5.146895
-5.615455
-6.084015
-6.475572
-6.746483
-6.844372
-6.642359
-6.081209
-5.201451
-4.019919
-2.572464
-0.960406
0.761389
2.490977
4.079342
5.544255
6.947129
8.268637
9.447675
10.461797
11.276711
11.830691
12.168627
12.277428
12.177356
11.899587
11.454097
10.908846
10.291893
9.709856
9.078563
8.378061
7.679430
6.814636
5.753127
4.510181
3.114477
1.652993
0.214268
-1.143403
-2.409107
-3.462510
-4.302364
-4.970132
-5.345479
-5.500107
-5.595503
-5.635718
-5.712409
-5.879195
-6.137012
-6.589361
-7.183245
-7.812979
-8.435855
-9.078372
-9.757987
-10.381798
-10.990334
-11.581100
-12.084576
-12.531625
-12.872991
-13.039154
-12.992391
-12.727404
-12.209587
-11.371604
-10.212830
-8.730459
-7.002741
-5.135360
-3.145460
-1.101005
0.847120
2.642799
4.242388
5.533655
6.482934
7.083052
7.351781
7.285066
6.919383
6.334229
5.575118
4.743370
3.785674
2.698602
1.660475
0.739566
-0.024844
-0.603452
-1.042084
-1.415561
-1.754121
-2.041243
-2.260403
-2.356422
-2.346757
-2.302489
-2.190882
-1.981387
-1.691459
-1.317359
-0.785514
-0.121175
0.625777
1.522058
2.481001
3.419056
4.305361
5.024568
5.567324
5.990057
6.270944
6.399073
6.419648
6.416219
6.403126
6.400008
6.510368
6.615116
6.600775
6.422454
6.022479
5.446054
4.705336
3.839295
2.871312
1.853760
0.820621
-0.270192
-1.331700
-2.310594
-3.281695
-4.203851
-5.030924
-5.853008
-6.671975
-7.365930
-7.857248
-8.087319
-7.970101
-7.567944
-6.958473
-6.148859
-5.265983
-4.369079
-3.385820
-2.389467
-1.527167
-0.767433
-0.102158
0.414099
0.821556
1.142970
1.347478
1.473737
1.647070
1.864983
2.168939
2.588866
2.971383
3.324596
3.674379
3.895722
3.900710
3.742652
3.462389
3.098889
2.817691
2.679586
2.675845
2.769058
2.885340
3.035292
3.222654
3.424356
3.583660
3.710854
3.889487
4.081836
4.260157
4.452507
4.594041
4.629581
4.550708
4.326560
3.997976
3.662221
3.367929
3.126635
2.993518
2.926803
2.760329
2.501888
2.165510
1.695703
1.168534
0.641053
0.095491
-0.413908
-0.794243
-1.064842
-1.194530
-1.116281
-0.914890
-0.612181
-0.180719
0.236090
0.462109
0.540046
0.550022
0.460238
0.337721
0.231414
0.117002
0.052158
-0.021415
-0.195683
-0.419208
-0.686378
-1.072636
-1.567694
-2.036566
-2.460546
-2.855533
-3.130185
-3.305388
-3.421983
-3.492126
-3.628673
-3.906130
-4.344450
-5.033729
-5.983631
-7.080055
-8.288086
-9.577483
-10.784267
-11.787478
-12.614862
-13.258626
-13.683229
-13.919224
-13.957257
-13.784859
-13.479968
-13.075005
-12.550954
-12.014432
-11.494122
-10.889639
-10.215947
-9.483335
-8.591419
-7.468496
-6.154782
-4.713874
-3.153566
-1.505656
0.236402
2.047669
3.747329
5.291114
6.681207
7.776072
8.551706
9.110361
9.466692
9.609473
9.664964
9.721079
9.726691
9.695516
9.645636
9.634101
9.782806
10.086450
10.547840
11.117719
11.690091
12.057956
12.066685
11.776446
11.108678
10.095803
8.839451
7.479286
6.152791
4.874928
3.751070
2.690808
1.761794
1.012971
0.275059
-0.301055
-0.741246
-1.167719
-1.452347
-1.553977
-1.556471
-1.494433
-1.318606
-1.135609
-1.011844
-0.919878
-0.905538
-0.926737
-0.989710
-1.184866
-1.506280
-1.855751
-2.282849
-2.843998
-3.416995
-3.990614
-4.594474
-5.153753
-5.650059
-6.138883
-6.622718
-7.110919
-7.658351
-8.138134
-8.438661
-8.639428
-8.704584
-8.564296
-8.263146
-7.830126
-7.265235
-6.642359
-6.006389
-5.329268
-4.668670
-4.049223
-3.442558
-2.901984
-2.455246
-1.996039
-1.484769
-1.020885
-0.562925
-0.057578
0.419399
0.875489
1.313809
1.724384
2.133712
2.518411
2.846060
3.094213
3.286874
3.466130
3.650375
3.893539
4.141692
4.337471
4.553202
4.779533
5.040467
5.319483
5.577924
5.790537
5.915861
5.962935
5.857875
5.699506
5.604423
5.558595
5.520562
5.459459
5.300155
4.892698
4.339030
3.697449
2.991335
2.402128
1.980954
1.699444
1.544816
1.398917
1.122083
0.794746
0.486425
0.168752
-0.128969
-0.382733
-0.612181
-0.814195
-0.867504
-0.737505
-0.412973
0.189328
0.987096
1.918604
2.946443
3.864547
4.520157
5.004304
5.342864
5.443871
5.422361
5.366869
5.217541
4.963777
4.550708
3.887616
2.998506
1.932009
0.693115
-0.653644
-2.040931
-3.491815
-4.965768
-6.358978
-7.692956
-9.016957
-10.284220
-11.442683
-12.522896
-13.501791
-14.330733
-15.018765
-15.461450
-15.601426
-15.444616
-14.882842
-13.921094
-12.694047
-11.262180
-9.667891
-7.957943
-6.189698
-4.388719
-2.591169
-0.887456
0.728343
2.231601
3.582413
4.847182
5.993175
6.968952
7.852139
8.641178
9.256572
9.692710
9.965180
10.005707
9.769401
9.316740
8.655830
7.796024
6.794995
5.704806
4.574401
3.483588
2.460425
1.543257
0.899182
0.491725
0.178105
-0.012374
-0.075971
-0.152662
-0.292949
-0.472517
-0.740934
-1.056425
-1.373786
-1.718581
-2.095487
-2.445894
-2.768243
-3.079370
-3.258937
-3.329393
-3.313182
-3.073135
-2.611121
-2.000092
-1.283690
-0.573836
-0.016115
0.366402
0.543787
0.447768
0.180287
-0.202230
-0.754027
-1.388750
-2.004768
-2.664119
-3.295412
-3.773325
-4.100974
-4.243443
-4.207904
-4.052029
-3.850639
-3.612462
-3.377714
-3.163854
-2.842440
-2.440282
-2.050907
-1.693641
-1.384697
-1.172084
-1.079182
-1.080429
-1.147767
-1.129998
-0.958847
-0.682325
-0.274556
0.255107
0.849302
1.504289
2.268387
3.033110
3.709919
4.333107
4.831906
5.127445
5.205695
5.091906
4.809772
4.452507
4.084019
3.735482
3.526610
3.463013
3.531286
3.764475
4.212460
4.863081
5.650250
6.620727
7.635161
8.548900
9.344797
9.937434
10.313092
10.457433
10.427816
10.203668
9.852326
9.500672
9.003119
8.462234
7.981515
7.434394
6.824923
6.164325
5.389627
4.527950
3.624188
2.645293
1.649564
0.681892
-0.285156
-1.219470
-1.996662
-2.619227
-3.185988
-3.620879
-3.929823
-4.227856
-4.553635
-4.912147
-5.320227
-5.771953
-6.259842
-6.801039
-7.313244
-7.761229
-8.212643
-8.655639
-9.059667
-9.501416
-10.031079
-10.595347
-11.208870
-11.859804
-12.423136
-12.878603
-13.222463
-13.362438
-13.357450
-13.283877
-13.065653
-12.718987
-12.362968
-12.033761
-11.701747
-11.410573
-11.135921
-10.769927
-10.274868
-9.577795
-8.656886
-7.573867
-6.365525
-5.068957
-3.760543
-2.465534
-1.112851
0.249807
1.497430
2.611936
3.575555
4.317519
4.851235
5.232193
5.463200
5.583224
5.655238
5.678619
5.688283
5.730993
5.744087
5.712912
5.688907
5.640274
5.555790
5.562960
5.748451
6.140321
6.784084
7.653866
8.678900
9.748825
10.793499
11.675439
12.379682
13.050880
13.522869
13.896969
14.359605
14.724041
14.989028
15.171090
15.196030
15.017398
14.623034
14.009822
13.220160
12.408363
11.607790
10.855225
10.249807
9.765971
9.345109
8.956669
8.580387
8.106527
7.462140
6.732334
5.900585
4.960659
3.955889
2.895628
1.847837
0.856161
-0.055396
-0.906161
-1.659661
-2.313712
-2.996444
-3.716586
-4.481620
-5.356079
-6.329673
-7.328208
-8.299933
-9.229882
-10.086571
-10.866881
-11.510333
-11.992610
-12.395702
-12.729586
-12.946876
-13.109921
-13.289801
-13.384261
-13.342486
-13.194717
-12.875173
-12.321817
-11.545560
-10.540167
-9.323096
-7.980701
-6.524517
-4.986655
-3.561335
-2.357045
-1.300837
-0.410479
0.304052
0.979302
1.645199
2.273687
2.932103
3.642581
4.308478
4.900803
5.404903
5.709794
5.854758
5.851952
5.656173
5.350970
5.040467
4.770180
4.542914
4.453130
4.464977
4.504569
4.590924
4.669797
4.751163
4.858405
4.947877
4.965647
4.973129
5.007110
4.984976
4.961906
4.991834
5.071954
5.266798
5.595382
6.095117
6.684948
7.274155
7.840293
8.235903
8.419524
8.283913
7.769837
6.982669
5.917731
4.622722
3.197402
1.719084
0.256666
-1.112228
-2.352369
-3.471863
-4.413659
-5.140971
-5.701498
-6.101473
-6.323127
-6.451256
-6.475884
-6.351184
-6.209338
-6.131089
-6.079650
-6.027588
-6.021353
-6.042864
-6.041928
-6.028211
-5.905070
-5.673128
-5.398477
-5.047446
-4.677711
-4.415218
-4.257784
-4.107832
-4.011502
-3.993420
-3.918288
-3.733421
-3.451911
-3.072823
-2.637932
-2.199300
-1.751315
-1.350093
-1.068271
-0.828536
-0.648968
-0.589735
-0.524891
-0.388968
-0.212206
0.036259
0.413164
0.831532
1.212179
1.545128
1.720955
1.794216
1.797957
1.707549
1.650187
1.682298
1.791098
1.923280
2.118436
2.398699
2.699226
3.041527
3.371670
3.699008
3.974594
4.117064
4.175985
4.086824
3.950590
3.791909
3.597689
3.540639
3.594883
3.775074
4.135769
4.624905
5.132745
5.617828
6.101664
6.519408
6.888209
7.238927
7.547248
7.843722
8.161083
8.383984
8.435735
8.394272
8.196934
7.840604
7.360510
6.745427
6.033079
5.215671
4.351812
3.437138
2.522152
1.625871
0.699974
-0.190072
-1.064218
-1.958941
-2.847428
-3.579105
-4.135266
-4.547088
-4.698286
-4.639366
-4.401812
-3.962869
-3.411071
-2.802847
-2.164072
-1.608845
-1.193906
-0.848799
-0.553260
-0.289208
0.018801
0.453068
0.937216
1.379277
1.772393
2.018364
2.082585
1.990307
1.760859
1.494313
1.264553
1.052875
0.844002
0.698727
0.569351
0.343020
0.056522
-0.316954
-0.861269
-1.552730
-2.336158
-3.162607
-3.985003
-4.743802
-5.398788
-5.887300
-6.180969
-6.333414
-6.349937
-6.217132
-5.984566
-5.724567
-5.373537
-4.902794
-4.399318
-3.834428
-3.242103
-2.698723
-2.210523
-1.838917
-1.637526
-1.575488
-1.578917
-1.662466
-1.782490
-1.791219
-1.684601
-1.494122
-1.230381
-0.948871
-0.705706
-0.530503
-0.447266
-0.489352
-0.634939
-0.902732
-1.293043
-1.693018
-2.074288
-2.488604
-2.859274
-3.122703
-3.344357
-3.523301
-3.579728
-3.491503
-3.324717
-3.060976
-2.743303
-2.463352
-2.197429
-2.016614
-1.979516
-2.036255
-2.154719
-2.341458
-2.494527
-2.503256
-2.414095
-2.233280
-1.950835
-1.638150
-1.368486
-1.135921
-0.977240
-0.921437
-0.852852
-0.803284
-0.797672
-0.721917
-0.585371
-0.417649
-0.171367
0.186522
0.579950
0.938463
1.277646
1.527982
1.648005
1.687286
1.622442
1.504289
1.390500
1.247095
1.098702
0.999254
0.902611
0.706521
0.450262
0.128848
-0.314148
-0.797049
-1.254074
-1.639397
-1.915296
-2.112945
-2.295319
-2.482992
-2.691553
-2.975869
-3.292918
-3.544189
-3.738720
-3.893972
-3.959128
-3.972533
-4.003084
-4.042053
-4.105338
-4.214762
-4.319822
-4.404306
-4.478191
-4.451381
-4.264331
-3.951957
-3.445052
-2.680641
-1.795584
-0.864387
0.110767
1.055992
1.913304
2.656516
3.283133
3.753875
4.111141
4.398262
4.550085
4.614617
4.556008
4.225865
3.661598
2.963278
2.137141
1.283881
0.527265
-0.138010
-0.691989
-1.088535
-1.319542
-1.408702
-1.310189
-1.091964
-0.889327
-0.664555
-0.514603
-0.581941
-0.810454
-1.082612
-1.387503
-1.656543
-1.767214
-1.737598
-1.565824
-1.289614
-0.985658
-0.658944
-0.314772
-0.060384
0.042182
0.072110
-0.009569
-0.242446
-0.522397
-0.795802
-1.105993
-1.455776
-1.827382
-2.260091
-2.761385
-3.313182
-3.894284
-4.463851
-4.976991
-5.420611
-5.746389
-5.841785
-5.736413
-5.460515
-4.989149
-4.413035
-3.823205
-3.254885
-2.746732
-2.337717
-1.970164
-1.634097
-1.347599
-1.018391
-0.612493
-0.197866
0.215515
0.668487
1.050381
1.318174
1.539205
1.713784
1.888053
2.165822
2.634694
3.273781
4.056273
4.935096
5.824830
6.717058
7.542260
8.193817
8.655518
8.927988
8.973503
8.852544
8.709763
8.600962
8.495591
8.454440
8.432929
8.291706
8.073170
7.680053
7.050318
6.282790
5.373104
4.313778
3.197090
2.140570
1.091532
0.081150
-0.767121
-1.490692
-2.112010
-2.629203
-3.038219
-3.328458
-3.488385
-3.533901
-3.567570
-3.575987
-3.612774
-3.852821
-4.245314
-4.803658
-5.589579
-6.488666
-7.406457
-8.263770
-9.033480
-9.697507
-10.264580
-10.761198
-11.172396
-11.608534
-12.057142
-12.389779
-12.617668
-12.774166
-12.824982
-12.775102
-12.758579
-12.811265
-12.915389
-13.076564
-13.215916
-13.321911
-13.400472
-13.379273
-13.233374
-13.016708
-12.727404
-12.311530
-11.794648
-11.212923
-10.501198
-9.671944
-8.818373
-7.930821
-7.035163
-6.202480
-5.433704
-4.807711
-4.434546
-4.250302
-4.226921
-4.367208
-4.553323
-4.736320
-4.926176
-5.121019
-5.235431
-5.239172
-5.174952
-4.928358
-4.446704
-3.732797
-2.745174
-1.562083
-0.282662
1.106807
2.572967
4.019798
5.543320
7.169095
8.753096
10.285035
11.727190
13.018458
14.126417
15.026127
15.759986
16.333918
16.795931
17.123268
17.349598
17.528543
17.527920
17.430653
17.261374
17.040342
16.882284
16.634443
16.380367
16.170250
15.824830
15.493440
15.157062
14.698789
14.227735
13.651933
12.937403
12.165510
11.302898
10.298752
9.210745
8.107462
6.932165
5.743775
4.572219
3.416250
2.315150
1.223402
0.212085
-0.757768
-1.701435
-2.589610
-3.540136
-4.346633
-5.028741
-5.754807
-6.301928
-6.761759
-7.237489
-7.631541
-8.023722
-8.406239
-8.719860
-8.948996
-9.078060
-9.032233
-8.747917
-8.292451
-7.617824
-6.652958
-5.530970
-4.355985
-3.118026
-1.969852
-1.011221
-0.196307
0.398512
0.829038
1.154505
1.260500
1.129877
0.900741
0.636377
0.312157
0.068369
-0.044173
-0.100600
-0.098106
-0.067554
-0.037626
0.003525
0.061198
0.167817
0.362349
0.640741
0.949374
1.239613
1.508965
1.691962
1.777381
1.791410
1.708796
1.569133
1.397047
1.243666
1.136112
1.107431
1.226831
1.506159
1.987813
2.638123
3.437449
4.391092
5.407708
6.414037
7.293172
8.008326
8.573840
8.898683
9.029930
9.024007
8.861897
8.588180
8.215951
7.743962
7.200582
6.642238
6.020609
5.345982
4.730588
4.068431
3.351095
2.686132
2.003712
1.300092
0.612060
-0.061007
-0.682637
-1.220717
-1.702059
-2.157213
-2.536613
-2.901984
-3.338745
-3.786418
-4.223803
-4.704521
-5.116655
-5.375095
-5.529412
-5.497925
-5.268477
-4.916511
-4.467903
-3.922029
-3.400472
-3.009849
-2.636996
-2.388220
-2.367021
-2.467405
-2.745174
-3.217163
-3.790159
-4.475385
-5.251642
-6.031641
-6.830344
-7.652428
-8.433361
-9.143216
-9.811608
-10.363717
-10.665490
-10.787385
-10.767121
-10.518656
-10.072230
-9.523551
-8.885087
-8.164945
-7.443244
-6.735884
-6.095861
-5.550299
-5.027494
-4.546153
-4.122173
-3.669824
-3.109297
-2.453064
-1.696759
-0.802972
0.191510
1.207191
2.280857
3.401910
4.505504
5.685166
6.885715
8.060076
9.262807
10.406929
11.431963
12.317020
13.038410
13.569008
13.945602
14.240205
14.402003
14.431620
14.334354
14.000470
13.518504
12.843878
11.822585
10.590861
9.186117
7.601492
5.915861
4.285721
2.827978
1.550428
0.524771
-0.257722
-0.793931
-1.088535
-1.207312
-1.184866
-1.062036
-0.822612
-0.558872
-0.305731
-0.014557
0.226738
0.406617
0.534435
0.604890
0.621725
0.604890
0.585873
0.547528
0.521965
0.510742
0.457744
0.411917
0.391653
0.331486
0.319016
0.352685
0.349255
0.355802
0.366090
0.343020
0.248872
0.087074
-0.136763
-0.394892
-0.617169
-0.851293
-1.067648
-1.195465
-1.306136
-1.466688
-1.624121
-1.758174
-1.940547
-2.123544
-2.300930
-2.466158
-2.555006
-2.576517
-2.526325
-2.377309
-2.106398
-1.813665
-1.467623
-1.041149
-0.655826
-0.270815
0.145683
0.584938
1.059422
1.594073
2.151793
2.688938
3.203949
3.610782
3.884187
4.104594
4.251117
4.286344
4.296320
4.325625
4.361164
4.378622
4.389533
4.361476
4.217136
3.978647
3.574619
2.984789
2.258723
1.358078
0.349255
-0.663308
-1.645632
-2.630450
-3.551047
-4.379055
-5.228573
-6.086820
-6.980295
-7.956696
-8.972377
-9.995540
-11.009350
-11.933065
-12.675342
-13.258314
-13.594692
-13.575987
-13.280448
-12.750473
-11.979204
-11.044890
-10.051967
-9.030986
-8.027463
-7.103125
-6.272311
-5.554040
-4.952986
-4.445769
-4.018360
-3.722509
-3.503661
-3.215604
-2.885773
-2.553136
-2.144743
-1.657478
-1.137791
-0.554196
0.100479
0.788199
1.522682
2.253423
2.926803
3.580854
4.182843
4.679461
5.115911
5.562025
5.955141
6.271879
6.584564
6.841134
7.058112
7.274467
7.469622
7.658542
7.868662
8.043553
8.147054
8.279860
8.390843
8.442593
8.485615
8.512425
8.454752
8.343769
8.197870
7.873650
7.518255
7.121709
6.607010
6.105716
5.537396
4.942578
4.374881
3.832748
3.337378
2.870688
2.462919
2.114695
1.769276
1.363689
0.929422
0.433428
-0.123357
-0.714123
-1.349781
-1.895344
-2.298124
-2.611745
-2.839634
-2.951552
-3.020761
-3.103686
-3.125197
-3.104933
-3.105245
-3.104621
-3.079058
-3.079993
-3.100569
-3.171024
-3.330952
-3.467186
-3.604668
-3.785795
-3.981885
-4.201357
-4.490038
-4.870061
-5.234496
-5.598308
-5.971161
-6.269194
-6.516412
-6.689121
-6.736507
-6.717490
-6.655764
-6.474949
-6.215885
-5.940610
-5.578980
-5.104497
-4.579198
-4.019607
-3.381455
-2.699346
-1.991986
-1.266544
-0.609064
-0.005516
0.523212
0.895129
1.149517
1.358701
1.536711
1.673257
1.860307
2.111266
2.340090
2.590425
2.863830
3.115724
3.372294
3.621694
3.834930
4.042244
4.238647
4.371452
4.431620
4.442219
4.424449
4.358982
4.293203
4.310037
4.342459
4.405744
4.542914
4.662626
4.751787
4.780468
4.681020
4.484929
4.170685
3.666586
3.004741
2.258411
1.435392
0.510430
-0.410791
-1.283067
-2.174983
-2.990833
-3.753061
-4.535241
-5.256319
-5.972720
-6.699409
-7.341613
-7.926144
-8.468901
-8.873864
-9.052497
-9.061849
-8.883528
-8.433050
-7.805497
-7.058545
-6.221496
-5.380083
-4.562987
-3.741526
-2.960281
-2.251674
-1.512203
-0.773979
-0.041991
0.766065
1.614960
2.449202
3.265052
4.079654
4.792314
5.400538
5.925525
6.325188
6.669048
6.950247
7.118592
7.157872
7.119839
6.944012
6.601710
6.223870
5.788355
5.271162
4.714689
4.182843
3.683420
3.196155
2.726036
2.256541
1.825703
1.475919
1.116783
0.734578
0.431246
0.075539
-0.360599
-0.778967
-1.234122
-1.689900
-2.092369
-2.412225
-2.647908
-2.761385
-2.751097
-2.692800
-2.504815
-2.235463
-1.938365
-1.558030
-1.112540
-0.660502
-0.260216
0.149112
0.540982
0.916640
1.277335
1.615895
2.023040
2.455126
2.894381
3.307761
3.758240
4.215265
4.501140
4.762386
5.022074
5.174520
5.291738
5.396485
5.446054
5.435766
5.386821
5.250898
5.046390
4.779533
4.373946
