EVENT_NAME: L_AQUILA
EVENT_ID: IT-2009-0009
EVENT_DATE_YYYYMMDD: 20090406
EVENT_TIME_HHMMSS: 013240
EVENT_LATITUDE_DEGREE: 42.3420
EVENT_LONGITUDE_DEGREE: 13.3800
EVENT_DEPTH_KM: 8.3
HYPOCENTER_REFERENCE: INGV-CNT_Seismic_Bulletin
MAGNITUDE_W: 6.1
MAGNITUDE_W_REFERENCE: INGV-CNT_Seismic_Bulletin
MAGNITUDE_L: 
MAGNITUDE_L_REFERENCE: 
FOCAL_MECHANISM: Normal faulting
NETWORK: IV
STATION_CODE: GUMA
STATION_NAME: 
STATION_LATITUDE_DEGREE: 43.062700
STATION_LONGITUDE_DEGREE: 13.335200
STATION_ELEVATION_M: 574
LOCATION: 
SENSOR_DEPTH_M: 0.0
VS30_M/S: 488
SITE_CLASSIFICATION_EC8: B
MORPHOLOGIC_CLASSIFICATION: 
EPICENTRAL_DISTANCE_KM: 80.1
EARTHQUAKE_BACKAZIMUTH_DEGREE: 357.4
DATE_TIME_FIRST_SAMPLE_YYYYMMDD_HHMMSS: 20090406_013152.000
DATE_TIME_FIRST_SAMPLE_PRECISION: milliseconds
SAMPLING_INTERVAL_S: 0.005000
NDATA: 62478
DURATION_S: 312.390
STREAM: HNN
UNITS: cm/s
INSTRUMENT: sensor = EPISENSOR-FBA-ES-T-CL-2G-FS-40-VPP [Unknown] | digitizer = Unknown [Unknown]
INSTRUMENT_ANALOG/DIGITAL: D
INSTRUMENTAL_FREQUENCY_HZ: 
INSTRUMENTAL_DAMPING: 
FULL_SCALE_G: 
N_BIT_DIGITAL_CONVERTER: 
PGV_CM/S: -2.232902
TIME_PGV_S: 82.425000
BASELINE_CORRECTION: BASELINE REMOVED
FILTER_TYPE: BUTTERWORTH
FILTER_ORDER: 2
LOW_CUT_FREQUENCY_HZ: 0.040
HIGH_CUT_FREQUENCY_HZ: 40.000
LATE/NORMAL_TRIGGERED: NT
DATABASE_VERSION: 0.5
HEADER_FORMAT: DYNA 1.2
DATA_TYPE: VELOCITY
PROCESSING: manual (Paolucci et al., 2011)
DATA_TIMESTAMP_YYYYMMDD_HHMMSS: 20211011_160608.368
DATA_LICENSE: CC-BY4_0 (http://creativecommons.org/licenses/by/4.0/)
DATA_CITATION: Luzi L, Pacor F, Puglia R (2019). Italian Accelerometric Archive v 3.0 - Istituto Nazionale di Geofisica e Vulcanologia, Dipartimento della Protezione Civile Nazionale. doi: 10.13127/itaca.3.1
DATA_CREATOR: ITACA working group
ORIGINAL_DATA_MEDIATOR_CITATION: Orfeus - European Integrated Data Archive (EIDA) http://www.orfeus-eu.org/eida/
ORIGINAL_DATA_MEDIATOR: Orfeus - European Integrated Data Archive (EIDA)
ORIGINAL_DATA_CREATOR_CITATION: INGV Seismological Data Centre. (1997). Rete Sismica Nazionale (RSN). Istituto Nazionale di Geofisica e Vulcanologia (INGV), Italy. https://doi.org/10.13127/SD/X0FXnH7QfY http://www.fdsn.org/networks/detail/IV/
ORIGINAL_DATA_CREATOR: network: IV (Italian National Seismic Network (INSN)); owner: Istituto Nazionale di Geofisica e Vulcanologia (INGV)
USER1: 
USER2: 
USER3: 
USER4: 
USER5: 
[...]
0.152877
0.181477
0.209481
0.237753
0.267187
0.298429
0.331609
0.366291
0.401675
0.436848
0.470945
0.503230
0.533111
0.560054
0.583538
0.603212
0.619092
0.631597
0.641426
0.649342
0.655891
0.661195
0.664910
0.666377
0.664897
0.659977
0.651425
0.639382
0.624268
0.606573
0.586639
0.564626
0.540607
0.514737
0.487423
0.459356
0.431257
0.403538
0.376201
0.349029
0.321891
0.294844
0.268051
0.241718
0.216058
0.191192
0.167039
0.143355
0.119868
0.096432
0.073177
0.050554
0.029181
0.009578
-0.008082
-0.024028
-0.038818
-0.053239
-0.068181
-0.084347
-0.102028
-0.121153
-0.141503
-0.162847
-0.184996
-0.207814
-0.231157
-0.254841
-0.278662
-0.302369
-0.325521
-0.347352
-0.366883
-0.383311
-0.396338
-0.406149
-0.413216
-0.418211
-0.421950
-0.425216
-0.428540
-0.432064
-0.435563
-0.438570
-0.440476
-0.440597
-0.438215
-0.432589
-0.423012
-0.409007
-0.390438
-0.367384
-0.340023
-0.308681
-0.273894
-0.236388
-0.197051
-0.156889
-0.116933
-0.078140
-0.041246
-0.006693
0.025301
0.054681
0.081510
0.105877
0.127820
0.147324
0.164289
0.178460
0.189429
0.196726
0.199937
0.198803
0.193271
0.183510
0.169877
0.152779
0.132548
0.109448
0.083722
0.055559
0.025129
-0.007269
-0.041045
-0.075198
-0.108308
-0.138702
-0.164692
-0.184751
-0.197609
-0.202354
-0.198539
-0.186233
-0.165898
-0.138092
-0.103287
-0.061951
-0.014705
0.037605
0.093929
0.153102
0.213944
0.275332
0.336225
0.395689
0.452958
0.507511
0.559096
0.607619
0.652990
0.695031
0.733381
0.767376
0.796098
0.818607
0.834188
0.842502
0.843595
0.837837
0.825871
0.808574
0.786992
0.762290
0.735659
0.708076
0.680108
0.651919
0.623356
0.593998
0.563191
0.530176
0.494337
0.455367
0.413173
0.367720
0.319004
0.267089
0.212108
0.154250
0.093785
0.031102
-0.033222
-0.098380
-0.163368
-0.227030
-0.288032
-0.344838
-0.395821
-0.439459
-0.474529
-0.500158
-0.515818
-0.521374
-0.517148
-0.503888
-0.482718
-0.455090
-0.422682
-0.387247
-0.350516
-0.314129
-0.279523
-0.247819
-0.219821
-0.196155
-0.177375
-0.163835
-0.155461
-0.151709
-0.151751
-0.154729
-0.159982
-0.167118
-0.175912
-0.186114
-0.197330
-0.209066
-0.220872
-0.232395
-0.243307
-0.253229
-0.261716
-0.268228
-0.272136
-0.272788
-0.269560
-0.261909
-0.249511
-0.232387
-0.210943
-0.185871
-0.157969
-0.128003
-0.096702
-0.064730
-0.032584
-0.000511
0.031502
0.063683
0.096291
0.129313
0.162275
0.194322
0.224445
0.251682
0.275217
0.294412
0.308809
0.318115
0.322144
0.320830
0.314263
0.302656
0.286263
0.265350
0.240134
0.210748
0.177392
0.140594
0.101347
0.061038
0.021227
-0.016627
-0.051361
-0.082171
-0.108581
-0.130298
-0.147154
-0.159218
-0.166866
-0.170659
-0.171205
-0.169113
-0.164963
-0.159310
-0.152629
-0.145186
-0.136930
-0.127540
-0.116583
-0.103733
-0.088885
-0.072129
-0.053762
-0.034400
-0.014922
0.003768
0.021011
0.036590
0.050796
0.064263
0.077653
0.091431
0.105856
0.121090
0.137234
0.154289
0.172165
0.190811
0.210282
0.230676
0.252045
0.274329
0.297280
0.320421
0.343111
0.364701
0.384735
0.403085
0.419939
0.435693
0.450756
0.465280
0.479050
0.491589
0.502350
0.510847
0.516750
0.519916
0.520379
0.518384
0.514402
0.509085
0.503210
0.497603
0.493034
0.490139
0.489263
0.490254
0.492504
0.495283
0.498012
0.500328
0.502064
0.503222
0.503906
0.504190
0.503991
0.503051
0.501032
0.497524
0.492069
0.484316
0.474182
0.461838
0.447630
0.432028
0.415524
0.398487
0.381018
0.362856
0.343361
0.321569
0.296316
0.266452
0.231053
0.189517
0.141681
0.087907
0.028988
-0.034103
-0.100364
-0.168787
-0.238359
-0.308075
-0.377016
-0.444421
-0.509714
-0.572527
-0.632684
-0.690078
-0.744517
-0.795682
-0.843067
-0.885892
-0.923180
-0.953991
-0.977578
-0.993353
-1.000797
-0.999499
-0.989337
-0.970623
-0.944075
-0.910747
-0.871965
-0.829142
-0.783566
-0.736322
-0.688229
-0.639767
-0.591156
-0.542557
-0.494136
-0.445931
-0.397663
-0.348701
-0.298202
-0.245352
-0.189662
-0.131283
-0.071141
-0.010755
0.048083
0.103541
0.153977
0.198216
0.235717
0.266508
0.290977
0.309665
0.323160
0.332074
0.336997
0.338474
0.337035
0.333176
0.327384
0.320254
0.312469
0.304652
0.297290
0.290699
0.284958
0.279910
0.275291
0.270832
0.266269
0.261242
0.255267
0.247857
0.238594
0.227073
0.212917
0.195882
0.175881
0.152956
0.127267
0.099020
0.068343
0.035218
-0.000468
-0.038724
-0.079258
-0.121492
-0.164717
-0.208153
-0.250947
-0.292256
-0.331353
-0.367693
-0.400939
-0.430916
-0.457564
-0.480914
-0.501099
-0.518343
-0.532945
-0.545143
-0.555006
-0.562502
-0.567614
-0.570331
-0.570631
-0.568542
-0.564158
-0.557586
-0.548908
-0.538200
-0.525614
-0.511423
-0.495968
-0.479515
-0.462152
-0.443796
-0.424321
-0.403697
-0.381981
-0.359191
-0.335242
-0.310001
-0.283393
-0.255488
-0.226527
-0.196930
-0.167243
-0.137972
-0.109342
-0.081241
-0.053416
-0.025742
0.001573
0.027907
0.052358
0.074065
0.092480
0.107533
0.119659
0.129631
0.138236
0.145946
0.152760
0.158356
0.162426
0.164869
0.165733
0.165132
0.163188
0.160053
0.156038
0.151739
0.148054
0.146103
0.147081
0.152064
0.161797
0.176468
0.195595
0.218237
0.243346
0.269942
0.297173
0.324422
0.351300
0.377439
0.402276
0.424948
0.444359
0.459383
0.469029
0.472525
0.469327
0.459083
0.441600
0.416890
0.385144
0.346612
0.301527
0.250178
0.192960
0.130338
0.062848
-0.008855
-0.083912
-0.161183
-0.239229
-0.316335
-0.390610
-0.460238
-0.523744
-0.580046
-0.628367
-0.668157
-0.699072
-0.720976
-0.733971
-0.738393
-0.734745
-0.723621
-0.705630
-0.681374
-0.651477
-0.616563
-0.577216
-0.534041
-0.487758
-0.439216
-0.389396
-0.339434
-0.290554
-0.243946
-0.200685
-0.161700
-0.127709
-0.099171
-0.076259
-0.058874
-0.046613
-0.038706
-0.034097
-0.031746
-0.030837
-0.030774
-0.031184
-0.032004
-0.033444
-0.035844
-0.039533
-0.044742
-0.051608
-0.060228
-0.070658
-0.082879
-0.096768
-0.112067
-0.128358
-0.145097
-0.161564
-0.176820
-0.189839
-0.199769
-0.206163
-0.209106
-0.209186
-0.207350
-0.204727
-0.202440
-0.201451
-0.202534
-0.206291
-0.213120
-0.223211
-0.236574
-0.252959
-0.271790
-0.292239
-0.313385
-0.334398
-0.354682
-0.373924
-0.392033
-0.408993
-0.424676
-0.438783
-0.451015
-0.461277
-0.469705
-0.476622
-0.482515
-0.487957
-0.493427
-0.499073
-0.504597
-0.509394
-0.512774
-0.514109
-0.512871
-0.508621
-0.500965
-0.489615
-0.474519
-0.455893
-0.434180
-0.410060
-0.384460
-0.358442
-0.333007
-0.308923
-0.286635
-0.266230
-0.247455
-0.229773
-0.212489
-0.194835
-0.175941
-0.154836
-0.130532
-0.102134
-0.068990
-0.030888
0.011872
0.058576
0.108253
0.159803
0.212126
0.264219
0.315266
0.364686
0.412066
0.457089
0.499577
0.539465
0.576628
0.610797
0.641580
0.668530
0.691222
0.709315
0.722573
0.730883
0.734244
0.732775
0.726808
0.716910
0.703724
0.687857
0.669871
0.650200
0.629023
0.606263
0.581716
0.555138
0.526282
0.494934
0.460992
0.424523
0.385688
0.344633
0.301453
0.256157
0.208594
0.158475
0.105483
0.049385
-0.009838
-0.071917
-0.136313
-0.202302
-0.269093
-0.335970
-0.402307
-0.467518
-0.531149
-0.593007
-0.653132
-0.711677
-0.768785
-0.824426
-0.878251
-0.929547
-0.977343
-1.020608
-1.058455
-1.090254
-1.115653
-1.134502
-1.146705
-1.152171
-1.150972
-1.143486
-1.130384
-1.112550
-1.090985
-1.066684
-1.040520
-1.013196
-0.985229
-0.956950
-0.928524
-0.899988
-0.871344
-0.842646
-0.814012
-0.785581
-0.757480
-0.729677
-0.701786
-0.673004
-0.642222
-0.608220
-0.569894
-0.526480
-0.477717
-0.423860
-0.365534
-0.303474
-0.238364
-0.170771
-0.101021
-0.029254
0.044334
0.119355
0.195237
0.271209
0.346282
0.419341
0.489340
0.555535
0.617610
0.675647
0.730036
0.781354
0.830181
0.876936
0.921806
0.964675
1.005106
1.042479
1.076182
1.105677
1.130492
1.150254
1.164766
1.174062
1.178382
1.178094
1.173635
1.165444
1.153831
1.138851
1.120318
1.097867
1.071034
1.039421
1.002846
0.961373
0.915235
0.864786
0.810522
0.753071
0.693074
0.631079
0.567536
0.502813
0.437149
0.370738
0.303900
0.237152
0.171187
0.106884
0.045313
-0.012364
-0.065018
-0.111659
-0.151488
-0.183959
-0.208950
-0.226894
-0.238635
-0.245131
-0.247249
-0.245640
-0.240671
-0.232479
-0.221050
-0.206274
-0.188063
-0.166507
-0.141951
-0.114991
-0.086414
-0.057095
-0.027913
0.000352
0.027185
0.052436
0.076278
0.099107
0.121439
0.143735
0.166285
0.189219
0.212590
0.236430
0.260735
0.285404
0.310280
0.335245
0.360223
0.385143
0.410001
0.434950
0.460340
0.486725
0.514822
0.545337
0.578755
0.615203
0.654403
0.695624
0.737673
0.778999
0.817913
0.852833
0.882398
0.905536
0.921557
0.930186
0.931538
0.926022
0.914237
0.896918
0.874936
0.849238
0.820747
0.790303
0.758641
0.726407
0.694188
0.662429
0.631282
0.600642
0.570327
0.540180
0.510062
0.479874
0.449643
0.419596
0.390144
0.361763
0.334869
0.309699
0.286210
0.264082
0.242918
0.222385
0.202222
0.182314
0.162828
0.144211
0.127001
0.111656
0.098463
0.087532
0.078787
0.071971
0.066710
0.062601
0.059249
0.056349
0.053830
0.051874
0.050831
0.051148
0.053260
0.057408
0.063504
0.071154
0.079777
0.088782
0.097700
0.106303
0.114677
0.123141
0.132045
0.141690
0.152364
0.164355
0.177891
0.193107
0.210036
0.228568
0.248395
0.269015
0.289840
0.310332
0.330110
0.349004
0.367116
0.384846
0.402829
0.421825
0.442589
0.465674
0.491306
0.519453
0.549945
0.582549
0.617033
0.653219
0.691015
0.730378
0.771171
0.813005
0.855266
0.897250
0.938228
0.977471
1.014286
1.048048
1.078210
1.104331
1.126097
1.143339
1.156005
1.164108
1.167688
1.166782
1.161393
1.151533
1.137415
1.119588
1.098870
1.076243
1.052787
1.029593
1.007669
0.987875
0.970843
0.956908
0.946053
0.937924
0.931991
0.927772
0.924976
0.923578
0.923840
0.926167
0.930832
0.937786
0.946636
0.956689
0.967086
0.977005
0.985872
0.993457
0.999801
1.005050
1.009383
1.012945
1.015726
1.017496
1.017849
1.016209
1.011869
1.004132
0.992487
0.976696
0.956795
0.933094
0.906174
0.876826
0.845916
0.814262
0.782594
0.751529
0.721526
0.692950
0.666187
0.641655
0.619711
0.600595
0.584386
0.570948
0.559905
0.550652
0.542463
0.534664
0.526737
0.518379
0.509595
0.500736
0.492343
0.484921
0.478796
0.474054
0.470541
0.467910
0.465677
0.463273
0.460083
0.455520
0.449151
0.440768
0.430337
0.417931
0.403759
0.388125
0.371349
0.353805
0.336005
0.318547
0.301983
0.286726
0.272982
0.260740
0.249766
0.239625
0.229752
0.219603
0.208769
0.197094
0.184769
0.172284
0.160232
0.149151
0.139427
0.131211
0.124402
0.118712
0.113776
0.109282
0.105041
0.100967
0.097074
0.093517
0.090555
0.088510
0.087778
0.088740
0.091612
0.096368
0.102763
0.110367
0.118645
0.127068
0.135212
0.142816
0.149756
0.156004
0.161620
0.166680
0.171127
0.174698
0.176997
0.177570
0.175996
0.172058
0.165854
0.157756
0.148235
0.137667
0.126213
0.113825
0.100301
0.085404
0.069047
0.051373
0.032673
0.013291
-0.006448
-0.026334
-0.046328
-0.066520
-0.087064
-0.108092
-0.129663
-0.151726
-0.174067
-0.196248
-0.217612
-0.237314
-0.254356
-0.267752
-0.276775
-0.281041
-0.280458
-0.275183
-0.265608
-0.252299
-0.235915
-0.217115
-0.196478
-0.174494
-0.151634
-0.128465
-0.105805
-0.084734
-0.066365
-0.051575
-0.040869
-0.034326
-0.031657
-0.032347
-0.035762
-0.041169
-0.047758
-0.054683
-0.061175
-0.066697
-0.071030
-0.074302
-0.077025
-0.079991
-0.083955
-0.089369
-0.096308
-0.104472
-0.113245
-0.121871
-0.129667
-0.136148
-0.141036
-0.144226
-0.145825
-0.146200
-0.145899
-0.145518
-0.145652
-0.146811
-0.149306
-0.153268
-0.158791
-0.166013
-0.175140
-0.186448
-0.200248
-0.216802
-0.236241
-0.258524
-0.283432
-0.310539
-0.339146
-0.368308
-0.396985
-0.424185
-0.449088
-0.471174
-0.490283
-0.506559
-0.520329
-0.531968
-0.541791
-0.550008
-0.556673
-0.561656
-0.564732
-0.565715
-0.564515
-0.561189
-0.556007
-0.549380
-0.541697
-0.533167
-0.523678
-0.512723
-0.499481
-0.483069
-0.462763
-0.438105
-0.408912
-0.375275
-0.337605
-0.296634
-0.253329
-0.208766
-0.163952
-0.119587
-0.075939
-0.032934
0.009649
0.052000
0.094103
0.135639
0.175990
0.214304
0.249628
0.281070
0.307869
0.329462
0.345588
0.356259
0.361673
0.362207
0.358428
0.350969
0.340406
0.327267
0.312107
0.295535
0.278157
0.260454
0.242699
0.224900
0.206725
0.187493
0.166303
0.142178
0.114218
0.081833
0.044883
0.003613
-0.041514
-0.089971
-0.141259
-0.194984
-0.250938
-0.309059
-0.369229
-0.431114
-0.494224
-0.558024
-0.622027
-0.685942
-0.749791
-0.813851
-0.878442
-0.943758
-1.009808
-1.076448
-1.143388
-1.210198
-1.276388
-1.341492
-1.405055
-1.466593
-1.525610
-1.581594
-1.634017
-1.682413
-1.726482
-1.766092
-1.801260
-1.832189
-1.859336
-1.883483
-1.905647
-1.926874
-1.948057
-1.969825
-1.992501
-2.016183
-2.040857
-2.066398
-2.092521
-2.118799
-2.144645
-2.169220
-2.191414
-2.209965
-2.223660
-2.231530
-2.232902
-2.227346
-2.214591
-2.194417
-2.166547
-2.130738
-2.086970
-2.035506
-1.976864
-1.911785
-1.841186
-1.766032
-1.687213
-1.605496
-1.521530
-1.435869
-1.349006
-1.261462
-1.173830
-1.086665
-1.000331
-0.914980
-0.830666
-0.747453
-0.665430
-0.584724
-0.505510
-0.427958
-0.352252
-0.278656
-0.207531
-0.139330
-0.074552
-0.013688
0.042752
0.094256
0.140402
0.180905
0.215578
0.244337
0.267214
0.284336
0.295880
0.302067
0.303154
0.299376
0.290891
0.277792
0.260254
0.238615
0.213287
0.184680
0.153233
0.119330
0.083219
0.045039
0.004887
-0.037108
-0.080698
-0.125473
-0.170817
-0.215888
-0.259692
-0.301139
-0.339056
-0.372305
-0.400007
-0.421684
-0.437292
-0.447230
-0.452257
-0.453297
-0.451258
-0.446966
-0.441259
-0.435087
-0.429380
-0.424808
-0.421702
-0.420067
-0.419597
-0.419822
-0.420313
-0.420798
-0.421152
-0.421343
-0.421340
-0.421022
-0.420116
-0.418236
-0.415024
-0.410290
-0.404055
-0.396533
-0.388089
-0.379170
-0.370233
-0.361687
-0.353837
-0.346825
-0.340604
-0.334933
-0.329356
-0.323197
-0.315607
-0.305664
-0.292467
-0.275195
-0.253197
-0.226140
-0.194132
-0.157685
-0.117589
-0.074793
-0.030312
0.014897
0.060014
0.104350
0.147310
0.188373
0.227106
0.263181
0.296353
0.326429
0.353299
0.376909
0.397183
0.414049
0.427482
0.437468
0.443980
0.447031
0.446752
0.443400
0.437299
0.428765
0.418071
0.405410
0.390806
0.374136
0.355243
0.334026
0.310525
0.285035
0.258117
0.230522
0.203113
0.176753
0.152182
0.129941
0.110294
0.093173
0.078261
0.065096
0.053037
0.041274
0.028935
0.015152
-0.000879
-0.019836
-0.042235
-0.068418
-0.098567
-0.132758
-0.170982
-0.213115
-0.258919
-0.307989
-0.359646
-0.412973
-0.466994
-0.520745
-0.573261
-0.623669
-0.671295
-0.715668
-0.756498
-0.793700
-0.827416
-0.857946
-0.885631
-0.910764
-0.933578
-0.954181
-0.972444
-0.987981
-1.000252
-1.008665
-1.012649
-1.011758
-1.005699
-0.994273
-0.977329
-0.954718
-0.926281
-0.891893
-0.851502
-0.805171
-0.753165
-0.696006
-0.634430
-0.569296
-0.501456
-0.431636
-0.360428
-0.288403
-0.216209
-0.144621
-0.074513
-0.006863
0.057176
0.116315
0.169329
0.215187
0.253112
0.282738
0.304268
0.318412
0.326203
0.328837
0.327573
0.323653
0.318201
0.312145
0.306212
0.300969
0.296819
0.293981
0.292532
0.292437
0.293542
0.295583
0.298255
0.301268
0.304380
0.307433
0.310351
0.313124
0.315764
0.318259
0.320570
0.322668
0.324552
0.326272
0.327928
0.329621
0.331385
0.333214
0.335056
0.336738
0.337960
0.338370
0.337689
0.335783
0.332652
0.328385
0.323164
0.317192
0.310564
0.303250
0.295196
0.286351
0.276648
0.266026
0.254502
0.242217
0.229443
0.216542
0.203945
0.192127
0.181521
0.172465
0.165214
0.159919
0.156612
0.155288
0.156013
0.158941
0.164289
0.172275
0.183033
0.196520
0.212479
0.230461
0.249953
0.270491
0.291655
0.313102
0.334653
0.356302
0.378091
0.400021
0.421994
0.443761
0.464886
0.484750
0.502585
0.517536
0.528753
0.535506
0.537327
0.534060
0.525773
0.512662
0.495007
0.473060
0.446919
0.416488
0.381526
0.341735
0.296873
0.246849
0.191813
0.132205
0.068753
0.002462
-0.065370
-0.133244
-0.199682
-0.263376
-0.323245
-0.378521
-0.428786
-0.473932
-0.514096
-0.549625
-0.581006
-0.608791
-0.633523
-0.655724
-0.675925
-0.694598
-0.711981
-0.728026
-0.742532
-0.755264
-0.765948
-0.774280
-0.779965
-0.782707
-0.782212
-0.778232
-0.770629
-0.759416
-0.744737
-0.726825
-0.706000
-0.682613
-0.656933
-0.629141
-0.599427
-0.568013
-0.535118
-0.500933
-0.465615
-0.429259
-0.391902
-0.353549
-0.314244
-0.274109
-0.233287
-0.191881
-0.149989
-0.107740
-0.065275
-0.022769
0.019532
0.061305
0.102138
0.141573
0.179210
0.214728
0.247844
0.278321
0.305977
0.330724
0.352608
0.371777
0.388432
0.402815
0.415191
0.425757
0.434535
0.441370
0.446010
0.448159
0.447513
0.443844
0.437158
0.427782
0.416266
0.403187
0.389056
0.374269
0.359069
0.343606
0.328022
0.312434
0.296893
0.281417
0.266013
0.250627
0.235086
0.219138
0.202564
0.185262
0.167193
0.148284
0.128408
0.107350
0.084812
0.060526
0.034361
0.006317
-0.023499
-0.054868
-0.087453
-0.120830
-0.154548
-0.188202
-0.221405
-0.253771
-0.284954
-0.314637
-0.342455
-0.368011
-0.390963
-0.411025
-0.427925
-0.441416
-0.451350
-0.457737
-0.460760
-0.460763
-0.458248
-0.453822
-0.448028
-0.441229
-0.433609
-0.425180
-0.415812
-0.405332
-0.393632
-0.380655
-0.366371
-0.350781
-0.333921
-0.315853
-0.296652
-0.276403
-0.255248
-0.233437
-0.211277
-0.189055
-0.166994
-0.145210
-0.123656
-0.102148
-0.080455
-0.058350
-0.035659
-0.012351
0.011403
0.035246
0.058687
0.081138
0.101897
0.120180
0.135259
0.146558
0.153643
0.156232
0.154239
0.147748
0.136930
0.122002
0.103157
0.080531
0.054214
0.024281
-0.009148
-0.045872
-0.085610
-0.127945
-0.172216
-0.217531
-0.262884
-0.307188
-0.349343
-0.388396
-0.423682
-0.454846
-0.481791
-0.504566
-0.523305
-0.538192
-0.549390
-0.556968
-0.560892
-0.561028
-0.557170
-0.549149
-0.536912
-0.520523
-0.500183
-0.476263
-0.449258
-0.419689
-0.388016
-0.354629
-0.319920
-0.284367
-0.248517
-0.212968
-0.178357
-0.145263
-0.114118
-0.085250
-0.058934
-0.035315
-0.014364
0.004037
0.019992
0.033569
0.044871
0.054080
0.061388
0.066910
0.070714
0.072810
0.073085
0.071339
0.067403
0.061193
0.052754
0.042304
0.030226
0.017017
0.003229
-0.010610
-0.024017
-0.036544
-0.047803
-0.057457
-0.065194
-0.070787
-0.074184
-0.075459
-0.074710
-0.072018
-0.067473
-0.061139
-0.052980
-0.042854
-0.030620
