EVENT_NAME: L_AQUILA
EVENT_ID: IT-2009-0009
EVENT_DATE_YYYYMMDD: 20090406
EVENT_TIME_HHMMSS: 013240
EVENT_LATITUDE_DEGREE: 42.3420
EVENT_LONGITUDE_DEGREE: 13.3800
EVENT_DEPTH_KM: 8.3
HYPOCENTER_REFERENCE: INGV-CNT_Seismic_Bulletin
MAGNITUDE_W: 6.1
MAGNITUDE_W_REFERENCE: INGV-CNT_Seismic_Bulletin
MAGNITUDE_L: 
MAGNITUDE_L_REFERENCE: 
FOCAL_MECHANISM: Normal faulting
NETWORK: IV
STATION_CODE: GUMA
STATION_NAME: 
STATION_LATITUDE_DEGREE: 43.062700
STATION_LONGITUDE_DEGREE: 13.335200
STATION_ELEVATION_M: 574
LOCATION: 
SENSOR_DEPTH_M: 0.0
VS30_M/S: 488
SITE_CLASSIFICATION_EC8: B
MORPHOLOGIC_CLASSIFICATION: 
EPICENTRAL_DISTANCE_KM: 80.1
EARTHQUAKE_BACKAZIMUTH_DEGREE: 357.4
DATE_TIME_FIRST_SAMPLE_YYYYMMDD_HHMMSS: 20090406_013152.000
DATE_TIME_FIRST_SAMPLE_PRECISION: milliseconds
SAMPLING_INTERVAL_S: 0.005000
NDATA: 62478
DURATION_S: 312.390
STREAM: HNZ
UNITS: cm/s^2
INSTRUMENT: sensor = EPISENSOR-FBA-ES-T-CL-2G-FS-40-VPP [Unknown] | digitizer = Unknown [Unknown]
INSTRUMENT_ANALOG/DIGITAL: D
INSTRUMENTAL_FREQUENCY_HZ: 
INSTRUMENTAL_DAMPING: 
FULL_SCALE_G: 
N_BIT_DIGITAL_CONVERTER: 
PGA_CM/S^2: 9.657338
TIME_PGA_S: 79.085000
BASELINE_CORRECTION: BASELINE REMOVED
FILTER_TYPE: BUTTERWORTH
FILTER_ORDER: 2
LOW_CUT_FREQUENCY_HZ: 0.040
HIGH_CUT_FREQUENCY_HZ: 40.000
LATE/NORMAL_TRIGGERED: NT
DATABASE_VERSION: 0.5
HEADER_FORMAT: DYNA 1.2
DATA_TYPE: ACCELERATION
PROCESSING: manual (Paolucci et al., 2011)
DATA_TIMESTAMP_YYYYMMDD_HHMMSS: 20211011_160608.787
DATA_LICENSE: CC-BY4_0 (http://creativecommons.org/licenses/by/4.0/)
DATA_CITATION: Luzi L, Pacor F, Puglia R (2019). Italian Accelerometric Archive v 3.0 - Istituto Nazionale di Geofisica e Vulcanologia, Dipartimento della Protezione Civile Nazionale. doi: 10.13127/itaca.3.1
DATA_CREATOR: ITACA working group
ORIGINAL_DATA_MEDIATOR_CITATION: Orfeus - European Integrated Data Archive (EIDA) http://www.orfeus-eu.org/eida/
ORIGINAL_DATA_MEDIATOR: Orfeus - European Integrated Data Archive (EIDA)
ORIGINAL_DATA_CREATOR_CITATION: INGV Seismological Data Centre. (1997). Rete Sismica Nazionale (RSN). Istituto Nazionale di Geofisica e Vulcanologia (INGV), Italy. https://doi.org/10.13127/SD/X0FXnH7QfY http://www.fdsn.org/networks/detail/IV/
ORIGINAL_DATA_CREATOR: network: IV (Italian National Seismic Network (INSN)); owner: Istituto Nazionale di Geofisica e Vulcanologia (INGV)
USER1: 
USER2: 
USER3: 
USER4: 
USER5: 
[...]
-0.202756
-0.385479
-0.555198
-0.760558
-1.004658
-1.221895
-1.327231
-1.297949
-1.199629
-1.116375
-1.067062
-1.018208
-0.975189
-1.018655
-1.219739
-1.532489
-1.802803
-1.892063
-1.777178
-1.535679
-1.266257
-1.030503
-0.841154
-0.689295
-0.583791
-0.553722
-0.613023
-0.743287
-0.909504
-1.076708
-1.215300
-1.299689
-1.300043
-1.173849
-0.879353
-0.423388
0.100133
0.551282
0.839674
0.956214
0.911776
0.694344
0.315617
-0.125675
-0.466749
-0.586695
-0.490584
-0.293412
-0.132974
-0.087409
-0.139791
-0.197588
-0.157762
0.021329
0.288717
0.522092
0.594275
0.459513
0.192855
-0.060999
-0.188497
-0.177337
-0.107968
-0.081450
-0.142982
-0.251693
-0.310446
-0.236114
-0.016754
0.290444
0.601089
0.836206
0.940004
0.906003
0.797552
0.721976
0.762958
0.928381
1.154421
1.352489
1.460480
1.470044
1.422617
1.379790
1.382049
1.424382
1.466549
1.461238
1.380899
1.238426
1.090272
1.015375
1.078566
1.287512
1.568983
1.804321
1.912775
1.908223
1.871921
1.864306
1.866531
1.815097
1.677585
1.475402
1.245840
1.006577
0.764648
0.547862
0.404634
0.360574
0.380560
0.377283
0.254743
-0.041850
-0.490048
-0.993136
-1.428459
-1.706951
-1.805615
-1.760428
-1.632868
-1.478623
-1.334553
-1.218735
-1.139797
-1.109721
-1.138844
-1.210060
-1.265626
-1.229268
-1.050983
-0.746926
-0.401681
-0.118106
0.048344
0.111778
0.123307
0.131009
0.172978
0.284209
0.477431
0.709173
0.877335
0.865145
0.607430
0.142536
-0.392728
-0.840654
-1.114987
-1.225135
-1.230317
-1.193583
-1.167668
-1.186794
-1.251187
-1.325707
-1.369485
-1.366556
-1.311816
-1.178198
-0.930038
-0.568412
-0.139792
0.300649
0.724022
1.134121
1.548230
1.967556
2.363047
2.691188
2.922769
3.051310
3.074467
2.986049
2.803260
2.588674
2.421492
2.345855
2.352214
2.396391
2.426018
2.395680
2.268434
2.015474
1.629603
1.145933
0.644588
0.221791
-0.058974
-0.199724
-0.256637
-0.306296
-0.420219
-0.635369
-0.920100
-1.181646
-1.328439
-1.330141
-1.225916
-1.092400
-1.005696
-1.012368
-1.111262
-1.254755
-1.379242
-1.448928
-1.475080
-1.499559
-1.566218
-1.695645
-1.867909
-2.026732
-2.105459
-2.053443
-1.853671
-1.536623
-1.181513
-0.886024
-0.708034
-0.625192
-0.556612
-0.426162
-0.209411
0.060390
0.316237
0.493888
0.559466
0.514759
0.391615
0.246152
0.140776
0.104321
0.099289
0.046428
-0.098914
-0.297098
-0.451471
-0.471226
-0.315316
-0.017830
0.308675
0.524034
0.542284
0.369627
0.080183
-0.223392
-0.436758
-0.485951
-0.369518
-0.163037
0.043604
0.211004
0.342732
0.437518
0.478152
0.463838
0.432313
0.438462
0.513173
0.643717
0.786482
0.896794
0.952792
0.951852
0.886392
0.737812
0.501009
0.203923
-0.096917
-0.330742
-0.440348
-0.425540
-0.357323
-0.327635
-0.379876
-0.492701
-0.621927
-0.742958
-0.850922
-0.934880
-0.967723
-0.919296
-0.773710
-0.546094
-0.292372
-0.085675
0.038932
0.116396
0.219135
0.390103
0.607074
0.808525
0.949662
1.034565
1.100778
1.174574
1.242626
1.276059
1.279685
1.294446
1.342324
1.389225
1.372006
1.250806
1.037254
0.787019
0.567807
0.422937
0.350392
0.314530
0.289507
0.284571
0.312615
0.355759
0.385444
0.395642
0.396136
0.392938
0.395047
0.423673
0.489143
0.562544
0.593261
0.563498
0.517007
0.527698
0.641262
0.842755
1.069336
1.257726
1.390368
1.491783
1.582767
1.652420
1.671200
1.619795
1.511336
1.395127
1.332025
1.352312
1.430054
1.502276
1.518510
1.461604
1.320957
1.079495
0.748045
0.390628
0.092512
-0.090970
-0.151150
-0.113123
-0.020000
0.079894
0.148292
0.169661
0.145475
0.075974
-0.046464
-0.232637
-0.491180
-0.812781
-1.149504
-1.425926
-1.584467
-1.616285
-1.550973
-1.427615
-1.275283
-1.106727
-0.920671
-0.720669
-0.540178
-0.429865
-0.406253
-0.431916
-0.458941
-0.473145
-0.483324
-0.485973
-0.461084
-0.399823
-0.323535
-0.271739
-0.276142
-0.343725
-0.456292
-0.584463
-0.697764
-0.754369
-0.696427
-0.488571
-0.171326
0.145625
0.360080
0.445939
0.449918
0.434835
0.432140
0.436471
0.423195
0.364781
0.248331
0.092642
-0.052433
-0.125465
-0.081651
0.076186
0.289070
0.478656
0.597306
0.642655
0.634705
0.589134
0.513270
0.416382
0.308601
0.195018
0.086553
0.005392
-0.038247
-0.060495
-0.079273
-0.087819
-0.062222
0.011182
0.116424
0.214180
0.273917
0.304329
0.347404
0.431617
0.526540
0.555723
0.466345
0.277062
0.047078
-0.181869
-0.392211
-0.560975
-0.653557
-0.645331
-0.542574
-0.390083
-0.260453
-0.221683
-0.296674
-0.447276
-0.603266
-0.708459
-0.739892
-0.703175
-0.625883
-0.539523
-0.454206
-0.358714
-0.243333
-0.112508
0.018591
0.127193
0.182852
0.156582
0.040594
-0.143592
-0.360584
-0.576954
-0.761365
-0.888554
-0.959683
-1.017440
-1.133479
-1.368629
-1.727244
-2.144635
-2.528410
-2.818671
-3.008881
-3.110075
-3.100027
-2.920784
-2.538519
-1.998826
-1.411373
-0.883962
-0.472363
-0.178735
0.019551
0.147687
0.230771
0.292959
0.349149
0.403133
0.455763
0.510187
0.567647
0.612115
0.597753
0.472253
0.228653
-0.071494
-0.326624
-0.445514
-0.389120
-0.182306
0.114636
0.447113
0.778582
1.074655
1.293851
1.406914
1.429185
1.419741
1.433906
1.482209
1.532955
1.534752
1.436866
1.211680
0.873503
0.472684
0.065786
-0.306521
-0.616529
-0.843347
-0.981505
-1.043567
-1.041710
-0.974340
-0.838083
-0.647435
-0.438072
-0.250209
-0.103287
0.019446
0.160732
0.359983
0.627574
0.941036
1.262645
1.551009
1.754762
1.823504
1.744495
1.552199
1.293356
0.998703
0.687127
0.378417
0.102853
-0.093144
-0.156830
-0.055231
0.199063
0.548088
0.923160
1.277842
1.585891
1.825111
1.978390
2.044534
2.041037
1.999347
1.952610
1.915401
1.877943
1.831513
1.796729
1.813554
1.893964
1.991858
2.032696
1.966404
1.791211
1.549728
1.307808
1.118241
0.995861
0.926034
0.883383
0.835664
0.746346
0.590902
0.374649
0.125985
-0.140898
-0.449020
-0.828429
-1.273538
-1.745306
-2.202463
-2.620430
-2.992665
-3.318879
-3.588592
-3.782983
-3.902277
-3.991071
-4.117436
-4.304321
-4.488119
-4.566765
-4.487049
-4.272047
-3.975865
-3.633200
-3.250324
-2.833165
-2.414834
-2.038871
-1.708511
-1.366409
-0.938985
-0.405715
0.177791
0.726444
1.185842
1.546684
1.828036
2.065598
2.298921
2.554585
2.849229
3.205130
3.640821
4.140036
4.641814
5.067641
5.358566
5.489071
5.459139
5.292808
5.037865
4.741924
4.425890
4.083934
3.698925
3.259513
2.771927
2.250353
1.692274
1.075687
0.391315
-0.328210
-1.023217
-1.653315
-2.218887
-2.733977
-3.194232
-3.574931
-3.841568
-3.962949
-3.938271
-3.820725
-3.699226
-3.637564
-3.625912
-3.597980
-3.493509
-3.297161
-3.032876
-2.749110
-2.507625
-2.364247
-2.356175
-2.500345
-2.776187
-3.105135
-3.373734
-3.493453
-3.439239
-3.238184
-2.929792
-2.535110
-2.056160
-1.495719
-0.881178
-0.278912
0.230590
0.613762
0.915615
1.221823
1.594261
2.034707
2.481693
2.831992
2.984115
2.882867
2.538267
2.016188
1.418204
0.861222
0.447363
0.218706
0.127488
0.055873
-0.128257
-0.505528
-1.048509
-1.624635
-2.084587
-2.368342
-2.533173
-2.684916
-2.887736
-3.134352
-3.373635
-3.539768
-3.569475
-3.428432
-3.133860
-2.743852
-2.323525
-1.918421
-1.545441
-1.199275
-0.867432
-0.539301
-0.204076
0.151954
0.532573
0.908026
1.222295
1.443430
1.597331
1.743996
1.930342
2.162054
2.407837
2.630578
2.811586
2.941018
2.995393
2.937578
2.748819
2.460083
2.131260
1.791773
1.430832
1.058496
0.736519
0.525361
0.427323
0.397051
0.390954
0.394341
0.406761
0.415949
0.395358
0.321618
0.191628
0.028143
-0.139316
-0.303510
-0.473773
-0.641749
-0.774256
-0.843729
-0.850947
-0.816588
-0.762287
-0.701452
-0.636599
-0.551792
-0.411405
-0.182492
0.142942
0.551777
1.019423
1.509037
1.977920
2.391371
2.723153
2.953322
3.081858
3.137566
3.162422
3.183586
3.195756
3.166135
3.051614
2.814892
2.443701
1.964023
1.419793
0.829583
0.170883
-0.589231
-1.446563
-2.333495
-3.141824
-3.786238
-4.251617
-4.578254
-4.806485
-4.943149
-4.982434
-4.946095
-4.880442
-4.809768
-4.715233
-4.566943
-4.359220
-4.115324
-3.875886
-3.681948
-3.557370
-3.503152
-3.504867
-3.539757
-3.572857
-3.547549
-3.393256
-3.059796
-2.545505
-1.892904
-1.170859
-0.452011
0.218918
0.843188
1.454933
2.087721
2.746010
3.403290
4.017989
4.544949
4.948642
5.227762
5.420360
5.570701
5.701239
5.815732
5.903353
5.930493
5.843221
5.599208
5.209271
4.737528
4.251619
3.779762
3.312182
2.822301
2.279134
1.655903
0.943280
0.163169
-0.625849
-1.346046
-1.936936
-2.372811
-2.643401
-2.731930
-2.629877
-2.378285
-2.073701
-1.806389
-1.599446
-1.421020
-1.234099
-1.023514
-0.798970
-0.580495
-0.371478
-0.157213
0.060398
0.244200
0.351159
0.374165
0.345730
0.299926
0.244945
0.186168
0.162941
0.243351
0.484733
0.897623
1.430082
1.987014
2.484149
2.890879
3.221840
3.494801
3.702633
3.823622
3.849854
3.801991
3.723309
3.658019
3.620285
3.584856
3.525823
3.456039
3.400599
3.332881
3.158647
2.770499
2.115374
1.218792
0.162150
-0.956912
-2.055370
-3.076001
-3.973878
-4.699206
-5.212656
-5.516356
-5.652064
-5.669626
-5.602042
-5.460922
-5.246469
-4.959542
-4.608165
-4.209237
-3.775177
-3.288172
-2.702537
-1.983531
-1.136791
-0.213848
0.691753
1.467455
2.022528
2.322602
2.404071
2.358487
2.290270
2.277753
2.357800
2.530373
2.777670
3.078776
3.395019
3.654139
3.779450
3.736019
3.542390
3.252906
2.931111
2.622107
2.337652
2.063367
1.782124
1.490176
1.183629
0.836466
0.418759
-0.053590
-0.508428
-0.868900
-1.107755
-1.255040
-1.366800
-1.487370
-1.635875
-1.823977
-2.073452
-2.401306
-2.786635
-3.167398
-3.492563
-3.784054
-4.125636
-4.575091
-5.099129
-5.591808
-5.936035
-6.062520
-5.982852
-5.771081
-5.506283
-5.225183
-4.912856
-4.525332
-4.020071
-3.372277
-2.582940
-1.689952
-0.765852
0.104000
0.844289
1.409533
1.799106
2.051767
2.223679
2.369590
2.526634
2.697048
2.845504
2.924657
2.918233
2.860299
2.797840
2.736151
2.636643
2.459520
2.188333
1.823570
1.378459
0.883808
0.380472
-0.102667
-0.554614
-0.961934
-1.301591
-1.564545
-1.766587
-1.923070
-2.028817
-2.069268
-2.036679
-1.935465
-1.781030
-1.590081
-1.372766
-1.140629
-0.920274
-0.755657
-0.694174
-0.765503
-0.974508
-1.310763
-1.745252
-2.216579
-2.652271
-3.016048
-3.315164
-3.562166
-3.746819
-3.842689
-3.828677
-3.701847
-3.478538
-3.188715
-2.856499
-2.480914
-2.050727
-1.575655
-1.084285
-0.598905
-0.135490
0.274262
0.583957
0.765449
0.835446
0.845115
0.844181
0.861160
0.909585
0.986747
1.068394
1.125676
1.141628
1.109422
1.035431
0.943370
0.855290
0.768471
0.660416
0.516279
0.355334
0.235212
0.228814
0.393689
0.743687
1.232161
1.777686
2.317340
2.819895
3.251883
3.562041
3.708843
3.691830
3.554496
3.358693
3.150817
2.946254
2.737162
2.510945
2.266547
2.008750
1.730005
1.420626
1.098137
0.814343
0.637854
0.628113
0.806434
1.134109
1.522342
1.884276
2.186484
2.442145
2.660009
2.822785
2.916294
2.951604
2.945348
2.897248
2.797325
2.641174
2.438363
2.220828
2.034893
1.905290
1.808797
1.698785
1.559289
1.422219
1.329081
1.295290
1.318800
1.402714
1.555543
1.778512
2.058185
2.366173
2.668158
2.934707
3.138370
3.242914
3.200781
2.971024
2.554352
2.006786
1.413277
0.861190
0.431767
0.179066
0.101400
0.144265
0.231771
0.298046
0.305850
0.244857
0.117014
-0.067146
-0.282386
-0.497747
-0.705635
-0.946121
-1.291553
-1.787790
-2.406329
-3.058839
-3.653620
-4.135010
-4.486876
-4.725751
-4.895355
-5.046519
-5.192890
-5.273458
-5.175303
-4.807740
-4.161800
-3.324658
-2.452371
-1.708643
-1.203781
-0.966031
-0.941562
-1.017589
-1.071913
-1.033674
-0.920553
-0.818078
-0.804822
-0.888277
-1.012911
-1.120060
-1.191866
-1.248856
-1.320501
-1.419506
-1.537516
-1.656518
-1.756943
-1.815022
-1.799641
-1.689046
-1.502313
-1.300341
-1.144553
-1.062266
-1.046486
-1.065987
-1.071366
-1.012277
-0.865632
-0.653110
-0.430588
-0.249271
-0.117932
-0.003025
0.135787
0.309938
0.491719
0.635770
0.716191
0.738385
0.718131
0.671911
0.630405
0.639481
0.736830
0.927820
1.179668
1.434978
1.633347
1.730721
1.717024
1.620500
1.482011
1.321298
1.130533
0.896328
0.626369
0.356361
0.128877
-0.036352
-0.148345
-0.228930
-0.303326
-0.400923
-0.555463
-0.795970
-1.126985
-1.519917
-1.926231
-2.292781
-2.572399
-2.739555
-2.799692
-2.775866
-2.687951
-2.547140
-2.362283
-2.141960
-1.891587
-1.617138
-1.332571
-1.051441
-0.766639
-0.459411
-0.137548
0.157643
0.383659
0.516922
0.545984
0.462225
0.265179
-0.025004
-0.368191
-0.720419
-1.045665
-1.315744
-1.513398
-1.638483
-1.708319
-1.758152
-1.830939
-1.947651
-2.091983
-2.231626
-2.353166
-2.478999
-2.651038
-2.900023
-3.230538
-3.619106
-4.015467
-4.358409
-4.601950
-4.720579
-4.694580
-4.512251
-4.184597
-3.738439
-3.196611
-2.573842
-1.882700
-1.133228
-0.334358
0.495803
1.325085
2.122887
2.887551
3.648810
4.434282
5.244628
6.061155
6.855754
7.588813
8.213931
8.697129
9.039384
9.280676
9.467946
9.609015
9.657338
9.542700
9.228180
8.751868
8.212249
7.711694
7.318023
7.057700
6.907421
6.789648
6.601600
6.261809
5.735903
5.031101
4.176441
3.211664
2.182426
1.124914
0.055748
-1.015264
-2.073743
-3.102964
-4.081314
-4.978700
-5.762510
-6.404605
-6.888979
-7.222600
-7.441729
-7.602888
-7.750719
-7.884965
-7.967174
-7.959502
-7.840393
-7.588020
-7.180060
-6.615001
-5.921099
-5.147981
-4.349072
-3.565435
-2.821250
-2.128339
-1.494784
-0.923371
-0.393192
0.144905
0.733230
1.364568
1.985926
2.542870
3.007582
3.370838
3.627887
3.777251
3.825516
3.790782
3.704580
3.611217
3.554440
3.550566
3.576329
3.588043
3.548663
3.442871
3.282422
3.097915
2.914669
2.736700
2.556382
2.365667
2.149602
1.886907
1.576669
1.260624
1.003499
0.845953
0.774283
0.725364
0.614999
0.370456
-0.044479
-0.621006
-1.315946
-2.066211
-2.800040
-3.454113
-3.995346
-4.434495
-4.815176
-5.178610
-5.538685
-5.886575
-6.196659
-6.423901
-6.519913
-6.460863
-6.251017
-5.904907
-5.438150
-4.867786
-4.206287
-3.455084
-2.612761
-1.694219
-0.734380
0.232102
1.181089
2.088727
2.932356
3.702941
4.405358
5.053248
5.668126
6.267247
6.841391
7.349919
7.740920
7.980211
8.069198
8.039336
7.936267
7.806356
7.679350
7.558032
7.428655
7.277649
7.092629
6.848695
6.509476
6.051316
5.481634
4.833504
4.142515
3.427384
2.687223
1.908527
1.084512
0.236797
-0.592702
-1.366942
-2.055951
-2.630365
-3.075382
-3.402512
-3.638775
-3.812659
-3.947907
-4.058099
-4.140525
-4.176308
-4.145499
-4.045184
-3.887025
-3.688315
-3.483582
-3.330204
-3.276527
-3.329099
-3.458878
-3.623896
-3.777128
-3.868041
-3.857011
-3.734516
-3.521382
-3.251342
-2.960800
-2.686026
-2.447413
-2.235519
-2.026152
-1.804488
-1.566322
-1.307466
-1.025829
-0.731681
-0.444647
-0.176987
0.069761
0.286921
0.452042
0.548469
0.579192
0.557825
0.498676
0.415858
0.327747
0.268820
0.293585
0.453546
0.760435
1.171583
1.614585
2.024518
2.354819
2.564849
2.621019
2.515594
2.273790
1.949923
1.626081
1.391633
1.294742
1.311667
1.371359
1.412033
1.417140
1.404213
1.392466
1.388001
1.386332
1.376600
1.348862
1.298291
1.216753
1.091824
0.922230
0.717929
0.480171
0.197906
-0.138575
-0.532951
-0.984649
-1.491580
-2.048688
-2.631110
-3.189771
-3.676891
-4.062841
-4.331785
-4.480925
-4.521126
-4.464764
-4.312765
-4.055437
-3.680252
-3.184021
-2.590431
-1.952135
-1.323814
-0.727950
-0.148140
0.437588
1.018894
1.562406
2.056595
2.526356
3.003046
3.497396
3.999503
4.494658
4.975614
5.438410
5.870273
6.242595
6.517328
6.670954
6.714032
6.678824
6.591902
6.472011
6.346322
6.244222
6.169835
6.090355
5.955462
5.727250
5.393399
4.963685
4.465265
3.933667
3.393878
2.850788
2.300388
1.739514
1.166085
0.585806
0.011499
-0.559539
-1.155909
-1.809072
-2.528224
-3.297119
-4.078424
-4.812175
-5.424170
-5.858253
-6.106931
-6.202823
-6.183181
-6.074454
-5.898677
-5.669368
-5.384751
-5.041829
-4.653915
-4.247553
-3.848382
-3.473504
-3.135602
-2.847804
-2.613035
-2.411627
-2.202124
-1.927890
-1.541184
-1.040928
-0.477113
0.089785
0.627144
1.130157
1.598442
2.025631
2.409492
2.754043
3.051772
3.277036
3.404898
3.423999
3.329511
3.118171
2.792138
2.362568
1.854719
1.311563
0.782948
0.305359
-0.107781
-0.460393
-0.762757
-1.028090
-1.276927
-1.528724
-1.782255
-2.017497
-2.215170
-2.361024
-2.442789
-2.457926
-2.415948
-2.327429
-2.196060
-2.026123
-1.835575
-1.650890
-1.486451
-1.335732
-1.181038
-1.003344
-0.784223
-0.515910
-0.215732
0.080454
0.334339
0.508120
0.569550
0.512290
0.372964
0.219017
0.106822
0.047745
0.015670
-0.020188
-0.072041
-0.126945
-0.153176
-0.123460
-0.036709
0.090538
0.246113
0.419993
0.586174
0.704090
0.744942
0.713699
0.643556
0.574111
0.534665
0.532411
0.547284
0.551175
0.536276
0.514603
0.499794
0.504662
0.546664
0.638855
0.771880
0.909439
1.005193
1.023580
0.947378
0.779964
0.550433
0.307157
0.095360
-0.058507
-0.144550
-0.164636
-0.130652
-0.058990
0.032469
0.123201
0.194785
0.238019
0.253775
0.246723
0.221054
0.191688
0.194683
0.269275
0.431199
0.673923
0.987410
1.360120
1.766729
2.170085
2.539377
2.862539
3.140489
3.371587
3.541921
3.624167
3.586311
3.414839
3.130595
2.770212
2.354707
1.884921
1.354992
0.756048
0.076661
-0.687357
-1.520921
-2.387626
-3.242485
-4.043728
-4.750938
-5.326912
-5.748741
-6.007957
-6.105445
-6.060012
-5.912231
-5.703573
-5.455721
-5.174171
-4.862471
-4.530758
-4.194123
-3.862298
-3.531268
-3.176518
-2.748235
-2.191128
-1.483518
-0.651494
0.252021
1.171480
2.064559
2.917076
3.743663
4.565015
5.384928
6.184836
6.929011
7.574471
8.084893
8.444382
8.663916
8.772533
8.800133
8.770586
8.699266
8.578655
8.373645
8.049389
7.602261
7.059982
6.460648
5.834012
5.194547
4.544630
3.884478
3.228450
2.612837
2.074607
1.622185
1.238466
0.903939
0.601400
0.308007
0.001637
-0.323479
-0.652287
-0.956827
-1.205279
-1.371275
-1.452167
-1.483913
-1.522952
-1.605816
-1.729997
-1.863098
-1.957451
-1.964566
-1.853625
-1.623980
-1.299879
-0.913640
-0.489777
-0.038805
0.436141
0.926238
1.401738
1.805473
2.071601
2.153321
2.031324
1.709696
1.216373
0.600589
-0.085121
-0.806157
-1.550006
-2.315791
-3.104475
-3.913719
-4.730488
-5.520962
-6.232426
-6.809760
-7.207139
-7.394288
-7.368196
-7.152701
-6.777034
-6.265117
-5.650595
-4.987291
-4.336295
-3.746052
-3.243196
-2.834450
-2.506468
-2.224440
-1.948185
-1.653303
-1.327520
-0.959455
-0.550236
-0.129056
0.254519
0.548558
0.711700
0.726771
0.612665
